{"type":"FeatureCollection","features":[{"type":"Feature","properties":{"name":"(unnamed public road)","road_class":"track","surface":"unpaved","source":"Caltrans All Roads + OpenStreetMap explicit surface","source_detail":"osm way 10566381; Caltrans All Roads public-network geometry match","source_tile":"168/405","public_network_source":"Caltrans All Roads (ARNOLD/HPMS)","surface_source":"OpenStreetMap explicit surface tag","caltrans_match_coverage":0.984,"verified_length_m":1677},"geometry":{"type":"LineString","coordinates":[[-120.61922,35.17708],[-120.61966,35.17629],[-120.62038,35.17505],[-120.62067,35.17454],[-120.62081,35.1743],[-120.62125,35.17366],[-120.6215,35.17317],[-120.6218,35.17278],[-120.62254,35.17254],[-120.62374,35.17124],[-120.62436,35.17051],[-120.6244,35.17011],[-120.6245,35.16989],[-120.62463,35.16976],[-120.62542,35.16897],[-120.62605,35.16839],[-120.62677,35.16806],[-120.62705,35.16785],[-120.62737,35.16752],[-120.62744,35.16741],[-120.62746,35.1671],[-120.62745,35.16673],[-120.62747,35.16647],[-120.62749,35.1663],[-120.62757,35.16616],[-120.62775,35.16598],[-120.62789,35.16581],[-120.62796,35.16567],[-120.62816,35.16549],[-120.62833,35.1654],[-120.62854,35.16536],[-120.62877,35.16529],[-120.6289,35.1652],[-120.62887,35.16509],[-120.62877,35.16496]]}}]}