{"type":"FeatureCollection","features":[{"type":"Feature","properties":{"name":"Randsburg Mojave Road","road_class":"unclassified","surface":"unpaved","source":"OpenStreetMap","source_detail":"osm way 10423715","source_tile":"177/404"},"geometry":{"type":"LineString","coordinates":[[-117.92506,35.14003],[-117.92508,35.1402],[-117.92507,35.14036],[-117.92501,35.14048],[-117.92495,35.14055],[-117.92448,35.14094],[-117.92199,35.14289],[-117.92013,35.14436],[-117.91599,35.14764],[-117.91589,35.14773],[-117.91565,35.14791],[-117.91553,35.14801],[-117.9147,35.14866],[-117.91056,35.15194],[-117.91025,35.1522],[-117.91012,35.1523],[-117.90836,35.1537],[-117.9064,35.15524],[-117.90629,35.15533],[-117.90607,35.15552],[-117.9053,35.15611],[-117.90485,35.15648],[-117.90441,35.15682],[-117.90394,35.15721],[-117.90327,35.15774],[-117.90046,35.15996],[-117.89833,35.16164],[-117.89807,35.16186],[-117.8974,35.16237],[-117.89658,35.16302],[-117.89478,35.16443],[-117.89433,35.16486],[-117.89348,35.16577],[-117.89052,35.16918],[-117.89025,35.16949],[-117.89,35.16979],[-117.88733,35.17286],[-117.88723,35.17299],[-117.88699,35.17323],[-117.88681,35.17342],[-117.88555,35.17489],[-117.88427,35.17636],[-117.884,35.17666],[-117.88233,35.17862],[-117.88136,35.17972],[-117.87993,35.18137],[-117.87952,35.18183],[-117.87828,35.18326],[-117.87825,35.18329],[-117.878,35.18359],[-117.87773,35.1839],[-117.87736,35.18429],[-117.87717,35.18448],[-117.87696,35.18466],[-117.87666,35.18485],[-117.87635,35.18499],[-117.8759,35.18517],[-117.87443,35.18573],[-117.87431,35.18577],[-117.87247,35.1865],[-117.87185,35.18678],[-117.87162,35.18693],[-117.87138,35.18711],[-117.87113,35.18734],[-117.8711,35.18738],[-117.87083,35.18775],[-117.8707,35.18795],[-117.87054,35.18829],[-117.8699,35.18988],[-117.86981,35.19014],[-117.86977,35.19024],[-117.86897,35.19231],[-117.86832,35.19408],[-117.86801,35.19463],[-117.86789,35.19482],[-117.86769,35.19503],[-117.86752,35.1952],[-117.86732,35.19536],[-117.86699,35.19558],[-117.86674,35.19572],[-117.86626,35.19587],[-117.86392,35.19655],[-117.85398,35.19932],[-117.8536,35.19944],[-117.85328,35.19955],[-117.85282,35.19977],[-117.83929,35.20781],[-117.83811,35.20851],[-117.8361,35.2097],[-117.83607,35.20971],[-117.83374,35.2111],[-117.82913,35.21386],[-117.82712,35.21507],[-117.82493,35.21636],[-117.82491,35.21638],[-117.82205,35.21809],[-117.81782,35.22062],[-117.81609,35.22167],[-117.81531,35.22214],[-117.81374,35.22306],[-117.80995,35.22536],[-117.8094,35.22568],[-117.80801,35.22653],[-117.80627,35.22762],[-117.8062,35.22766],[-117.7992,35.23183],[-117.79855,35.23222],[-117.79628,35.2336],[-117.79601,35.23376],[-117.79414,35.2349],[-117.79142,35.23651],[-117.79079,35.23688],[-117.78961,35.23759],[-117.78363,35.24119],[-117.78252,35.24185],[-117.78177,35.2423],[-117.78051,35.24303],[-117.78015,35.24322],[-117.77758,35.24476],[-117.77705,35.24506],[-117.77519,35.2462],[-117.77418,35.2468],[-117.77362,35.24718],[-117.77086,35.2488],[-117.76956,35.2496],[-117.767,35.25114],[-117.76451,35.25262],[-117.76325,35.2534],[-117.76242,35.25391],[-117.76198,35.25417],[-117.76138,35.25455],[-117.76134,35.25458],[-117.76047,35.25506],[-117.75944,35.2557],[-117.75652,35.25744],[-117.75637,35.25755],[-117.75586,35.25784],[-117.75464,35.25858],[-117.75394,35.25903],[-117.7533,35.25939],[-117.7532,35.25946],[-117.75268,35.25979],[-117.75133,35.26058],[-117.74857,35.26224],[-117.7481,35.26251],[-117.74649,35.26348],[-117.74509,35.26431],[-117.74506,35.26433],[-117.74486,35.26446],[-117.74431,35.2648],[-117.73883,35.26805],[-117.73708,35.26912],[-117.73655,35.26942],[-117.73475,35.27051],[-117.73292,35.2716],[-117.73165,35.27237],[-117.73114,35.27267],[-117.73089,35.27282],[-117.73052,35.27303],[-117.72986,35.27345],[-117.72898,35.27399],[-117.72815,35.27446],[-117.72769,35.27473],[-117.72534,35.27617],[-117.72452,35.27663],[-117.72342,35.27731],[-117.7205,35.27903],[-117.71966,35.27955],[-117.71932,35.27974],[-117.71891,35.28],[-117.71716,35.28102],[-117.71707,35.28108],[-117.71658,35.28141],[-117.71604,35.28171],[-117.71489,35.2824],[-117.71447,35.28263],[-117.71401,35.28292],[-117.70584,35.2878],[-117.7046,35.28855],[-117.70383,35.28901],[-117.70175,35.29025],[-117.69682,35.2932],[-117.69351,35.29519],[-117.68992,35.29735],[-117.68808,35.29846],[-117.68511,35.3002],[-117.68506,35.30023],[-117.68345,35.30109],[-117.67914,35.30345],[-117.67674,35.30477],[-117.67532,35.30557],[-117.67447,35.30602],[-117.67315,35.30674],[-117.67238,35.30716],[-117.67168,35.30755],[-117.67094,35.30798],[-117.67025,35.30837],[-117.66837,35.30953],[-117.66798,35.30979],[-117.66703,35.3104],[-117.66598,35.31103],[-117.66507,35.31162],[-117.6644,35.31206],[-117.66426,35.31214],[-117.6637,35.31244],[-117.66248,35.31322],[-117.65888,35.31547],[-117.65852,35.3157],[-117.65775,35.31619],[-117.65742,35.3164],[-117.6569,35.31673],[-117.65641,35.31702],[-117.65555,35.31757],[-117.6552,35.31778],[-117.65221,35.31965],[-117.65127,35.32023],[-117.64954,35.32131],[-117.64863,35.32187],[-117.64694,35.32291],[-117.64543,35.32389],[-117.64461,35.32438],[-117.64396,35.32479],[-117.64331,35.32518],[-117.64182,35.32613],[-117.63929,35.32772],[-117.63793,35.32858],[-117.63748,35.32884],[-117.63699,35.32919],[-117.63682,35.32944],[-117.63649,35.32987],[-117.63634,35.33012],[-117.63626,35.33025],[-117.63619,35.33036],[-117.63597,35.33069],[-117.63572,35.33106],[-117.63549,35.33139],[-117.6353,35.33163],[-117.63523,35.33174],[-117.63518,35.33183],[-117.63515,35.33193],[-117.63513,35.33203],[-117.63512,35.33212],[-117.63513,35.33222],[-117.63516,35.33239],[-117.63522,35.33275],[-117.63522,35.33286],[-117.63521,35.33297],[-117.63519,35.33308],[-117.63515,35.33319],[-117.6351,35.33329],[-117.63501,35.33343],[-117.6347,35.3338],[-117.63405,35.33438],[-117.63366,35.33467],[-117.63348,35.33486],[-117.63336,35.33504],[-117.63303,35.33568],[-117.63294,35.33596],[-117.63287,35.33626],[-117.63276,35.33665],[-117.63236,35.33771],[-117.63223,35.33813],[-117.63214,35.33847],[-117.63206,35.33883],[-117.63203,35.3392],[-117.63197,35.33926]]}}]}