{"type":"FeatureCollection","features":[{"type":"Feature","properties":{"name":"(unnamed public road)","road_class":"track","source":"OpenStreetMap","source_detail":"osm way 14330771","source_tile":"177/382","surface_inferred":true},"geometry":{"type":"LineString","coordinates":[[-117.44734,41.47287],[-117.44722,41.47293],[-117.4462,41.473],[-117.44572,41.47309],[-117.44156,41.47508],[-117.43989,41.476],[-117.43792,41.47686],[-117.43521,41.47791],[-117.43164,41.47946],[-117.42922,41.48029],[-117.42596,41.48152],[-117.42522,41.48176],[-117.42413,41.48226],[-117.42143,41.4832],[-117.41796,41.48416],[-117.41598,41.4846],[-117.41385,41.48519],[-117.41261,41.48539],[-117.41074,41.48562],[-117.40809,41.48613],[-117.40748,41.48618],[-117.40632,41.48618],[-117.40446,41.48638],[-117.40295,41.48648],[-117.40184,41.48651],[-117.40129,41.48647],[-117.40011,41.48654],[-117.39962,41.48616],[-117.39654,41.48291],[-117.39296,41.47938],[-117.3916,41.47874],[-117.38849,41.47773],[-117.38743,41.47707],[-117.38562,41.47693]]}},{"type":"Feature","properties":{"name":"(unnamed public road)","road_class":"track","source":"OpenStreetMap","source_detail":"osm way 14333934","source_tile":"177/382","surface_inferred":true},"geometry":{"type":"LineString","coordinates":[[-117.42241,41.38632],[-117.42233,41.38621],[-117.42211,41.38592],[-117.42183,41.38578],[-117.42138,41.38597],[-117.41965,41.38603],[-117.41915,41.38623],[-117.41848,41.3864],[-117.41721,41.38636],[-117.41677,41.38624],[-117.41581,41.3854],[-117.41495,41.38592],[-117.41464,41.38602],[-117.41383,41.38604],[-117.41341,41.38587],[-117.41306,41.38636],[-117.4129,41.38646],[-117.41269,41.38653],[-117.4121,41.38656],[-117.41094,41.38716],[-117.41011,41.38733],[-117.40988,41.38729],[-117.40944,41.38697],[-117.40902,41.38676],[-117.40883,41.3868],[-117.40875,41.38677],[-117.40851,41.38648],[-117.40817,41.38625],[-117.40798,41.38597],[-117.40783,41.38597],[-117.40728,41.38619],[-117.40677,41.38619],[-117.40623,41.38643],[-117.40606,41.38654],[-117.40585,41.38679],[-117.40526,41.38706],[-117.40494,41.38727],[-117.40464,41.38763],[-117.40445,41.38805],[-117.40429,41.38828],[-117.40312,41.38921],[-117.40295,41.38974],[-117.40251,41.39017],[-117.40222,41.39069],[-117.4015,41.39112],[-117.40151,41.39129],[-117.40167,41.39158],[-117.40158,41.39218],[-117.40129,41.39254],[-117.40121,41.39308],[-117.4009,41.39357],[-117.40092,41.39406],[-117.40131,41.39472],[-117.40131,41.39494],[-117.4012,41.39505],[-117.40111,41.39507],[-117.40085,41.39509],[-117.40019,41.39503],[-117.39986,41.39511],[-117.39967,41.39521],[-117.39967,41.39536],[-117.39996,41.39559],[-117.4,41.39585],[-117.39989,41.3961],[-117.39963,41.39644],[-117.39947,41.39662],[-117.39919,41.39681],[-117.39908,41.397],[-117.39908,41.3975],[-117.39928,41.39793],[-117.39929,41.3981],[-117.39884,41.39887],[-117.39805,41.39956],[-117.39795,41.39997],[-117.3976,41.40058],[-117.3969,41.40136],[-117.3963,41.40219],[-117.39558,41.40279],[-117.39513,41.40302],[-117.39455,41.40316],[-117.39437,41.40313],[-117.39367,41.40288]]}},{"type":"Feature","properties":{"name":"(unnamed public road)","road_class":"track","source":"OpenStreetMap","source_detail":"osm way 14336344","source_tile":"177/382","surface_inferred":true},"geometry":{"type":"LineString","coordinates":[[-117.4233,41.38996],[-117.42322,41.38968],[-117.42247,41.38731],[-117.42241,41.38632],[-117.42249,41.38502],[-117.42246,41.38479],[-117.42236,41.3845],[-117.42207,41.3842],[-117.42207,41.38372],[-117.42198,41.38338],[-117.4217,41.38298],[-117.42133,41.38259],[-117.42111,41.38198],[-117.42112,41.38136],[-117.42122,41.38068],[-117.42132,41.37891],[-117.42158,41.37801],[-117.42159,41.37771],[-117.42154,41.37754],[-117.42151,41.37741],[-117.4215,41.37699],[-117.42121,41.37649],[-117.42115,41.37622],[-117.42114,41.3751],[-117.42105,41.37491],[-117.421,41.37442],[-117.4208,41.37354],[-117.42073,41.37242],[-117.42063,41.37221],[-117.42024,41.37158],[-117.41987,41.37115],[-117.41966,41.37112],[-117.41903,41.37125],[-117.41861,41.37117],[-117.41845,41.37111],[-117.41821,41.37087],[-117.41795,41.37073],[-117.41687,41.37038],[-117.41507,41.37004],[-117.41417,41.36983],[-117.41373,41.36964],[-117.41321,41.36956],[-117.41285,41.36958],[-117.41243,41.36968],[-117.40917,41.37072],[-117.40745,41.3712],[-117.40561,41.37179],[-117.40524,41.37195],[-117.40332,41.37217],[-117.40264,41.37221],[-117.40066,41.37324],[-117.39969,41.37407],[-117.39775,41.37494],[-117.39741,41.37502],[-117.39692,41.37505],[-117.39581,41.37482],[-117.39544,41.37482],[-117.39475,41.37503],[-117.39401,41.37542],[-117.39305,41.37629],[-117.39265,41.37693],[-117.39264,41.37759],[-117.39287,41.37874],[-117.39298,41.379],[-117.39321,41.37924],[-117.39329,41.37942],[-117.39308,41.37991],[-117.39298,41.38065],[-117.39287,41.38095],[-117.39265,41.38133],[-117.39219,41.38194],[-117.39174,41.38305],[-117.39129,41.38384],[-117.39093,41.38434],[-117.38961,41.38572],[-117.38857,41.38704],[-117.38791,41.38776],[-117.38768,41.38814],[-117.38731,41.38846],[-117.38711,41.38879],[-117.38672,41.38921],[-117.38609,41.38973],[-117.38546,41.39015],[-117.38427,41.39111],[-117.38392,41.39118],[-117.38362,41.39157],[-117.38262,41.39227],[-117.38246,41.3925],[-117.38245,41.39289],[-117.3828,41.39316],[-117.38311,41.39351],[-117.38319,41.39366],[-117.38302,41.39403],[-117.38298,41.39445],[-117.38285,41.39467],[-117.38262,41.3948],[-117.38194,41.39489],[-117.38222,41.39565],[-117.3824,41.3965],[-117.38234,41.3972],[-117.38205,41.39814],[-117.3816,41.39857],[-117.38137,41.39871],[-117.38002,41.39892],[-117.37828,41.39954],[-117.37733,41.40011],[-117.37711,41.40049],[-117.37668,41.40158],[-117.37655,41.40179],[-117.37635,41.40195],[-117.37619,41.40217],[-117.37582,41.40337],[-117.37527,41.40418],[-117.37442,41.40479],[-117.37369,41.40561],[-117.37315,41.40609],[-117.37154,41.40729]]}},{"type":"Feature","properties":{"name":"(unnamed public road)","road_class":"track","source":"OpenStreetMap","source_detail":"osm way 14337582","source_tile":"177/382","surface_inferred":true},"geometry":{"type":"LineString","coordinates":[[-117.45515,41.45329],[-117.45312,41.45145],[-117.45255,41.45091],[-117.45221,41.45059],[-117.45219,41.45057],[-117.45215,41.45056],[-117.45211,41.45055],[-117.45207,41.45055],[-117.45018,41.45066],[-117.44797,41.45076],[-117.44627,41.45085],[-117.4459,41.45088],[-117.44429,41.45096],[-117.44151,41.45112],[-117.43958,41.45121],[-117.43848,41.45127],[-117.43806,41.4513],[-117.43688,41.45135],[-117.43551,41.45142],[-117.43421,41.45149],[-117.43112,41.45166],[-117.43026,41.45171],[-117.42772,41.45184],[-117.42683,41.45188],[-117.42143,41.45216],[-117.42137,41.45216],[-117.42132,41.45215],[-117.42126,41.45214],[-117.42121,41.45212],[-117.42117,41.4521],[-117.42113,41.45209],[-117.4211,41.45208],[-117.42106,41.45208],[-117.42103,41.45208],[-117.421,41.45209]]}},{"type":"Feature","properties":{"name":"(unnamed public road)","road_class":"track","source":"OpenStreetMap","source_detail":"osm way 14342471","source_tile":"177/382","surface_inferred":true},"geometry":{"type":"LineString","coordinates":[[-117.42911,41.36979],[-117.42906,41.36971],[-117.42904,41.36964],[-117.42902,41.3695],[-117.42903,41.36941],[-117.42903,41.36935],[-117.42906,41.36921],[-117.42907,41.36909],[-117.42907,41.36885],[-117.42908,41.36847],[-117.42909,41.36836],[-117.42924,41.36791],[-117.42942,41.36751],[-117.42952,41.36722],[-117.42961,41.36702],[-117.42968,41.36687],[-117.42972,41.36672],[-117.42975,41.3666],[-117.42976,41.36644],[-117.42975,41.36637],[-117.42972,41.36628],[-117.42959,41.36612],[-117.42955,41.36606],[-117.4295,41.36598],[-117.42948,41.36591],[-117.42947,41.36585],[-117.42947,41.36554],[-117.42948,41.36539],[-117.4295,41.36526],[-117.4295,41.36522],[-117.42948,41.3652],[-117.42945,41.36519],[-117.42943,41.3652],[-117.42941,41.36522],[-117.42934,41.36534],[-117.42929,41.3654],[-117.42924,41.36544],[-117.42918,41.36548],[-117.42911,41.36552],[-117.42903,41.36554],[-117.42891,41.36557],[-117.42883,41.36557],[-117.42837,41.36554],[-117.42825,41.36555],[-117.42812,41.36558],[-117.428,41.36561],[-117.42774,41.36569],[-117.42684,41.36603],[-117.42664,41.36612],[-117.42641,41.36622],[-117.42626,41.36631],[-117.42613,41.36641],[-117.42588,41.36662],[-117.42576,41.36675],[-117.42557,41.36696],[-117.42551,41.36705],[-117.42545,41.36718],[-117.42538,41.36727],[-117.4253,41.36735],[-117.42511,41.36752],[-117.42502,41.3676],[-117.42493,41.36765],[-117.42468,41.3678],[-117.42415,41.36804],[-117.42409,41.36807],[-117.42405,41.36812],[-117.42402,41.36816],[-117.42393,41.36848],[-117.42389,41.36857],[-117.42388,41.3686],[-117.42383,41.36864],[-117.42351,41.36888],[-117.42314,41.3692],[-117.42286,41.36946],[-117.42268,41.36961],[-117.42244,41.36979],[-117.42216,41.37],[-117.42176,41.37032],[-117.42151,41.37057],[-117.42129,41.37083],[-117.42118,41.37095],[-117.42103,41.37116],[-117.42085,41.37153],[-117.4208,41.37164],[-117.42073,41.37191],[-117.42067,41.37204],[-117.42064,41.37211],[-117.42063,41.37221]]}},{"type":"Feature","properties":{"name":"(unnamed public road)","road_class":"track","source":"OpenStreetMap","source_detail":"osm way 14344118","source_tile":"177/382","surface_inferred":true},"geometry":{"type":"LineString","coordinates":[[-117.40774,41.24601],[-117.40801,41.24622],[-117.40821,41.24639],[-117.40875,41.24705],[-117.40898,41.24723],[-117.40933,41.24741],[-117.40996,41.24754],[-117.41054,41.24778],[-117.41093,41.24819],[-117.41129,41.24846],[-117.41157,41.24885],[-117.41237,41.24975],[-117.41264,41.24996],[-117.4129,41.25008],[-117.41333,41.25021],[-117.41493,41.2505],[-117.41567,41.25082],[-117.41641,41.25133],[-117.41703,41.25146],[-117.41728,41.25237],[-117.41777,41.2537],[-117.41812,41.254],[-117.41898,41.25428],[-117.41919,41.25439],[-117.41964,41.25585],[-117.41986,41.25635],[-117.42,41.25652],[-117.42122,41.2566],[-117.42192,41.25685],[-117.42261,41.25725],[-117.42348,41.25769],[-117.42419,41.25793],[-117.42472,41.25806],[-117.42594,41.25806],[-117.42692,41.25813],[-117.42763,41.25805],[-117.42803,41.25809],[-117.42976,41.25809],[-117.43027,41.25828],[-117.43187,41.25854],[-117.4324,41.25887]]}},{"type":"Feature","properties":{"name":"(unnamed public road)","road_class":"track","source":"OpenStreetMap","source_detail":"osm way 14345075","source_tile":"177/382","surface_inferred":true},"geometry":{"type":"LineString","coordinates":[[-117.38557,41.47325],[-117.3859,41.47324],[-117.3943,41.47316],[-117.44309,41.47265],[-117.44695,41.47281],[-117.44714,41.47282],[-117.44727,41.47284],[-117.44734,41.47287],[-117.44747,41.47292],[-117.44758,41.47294],[-117.44766,41.47293],[-117.44777,41.47294],[-117.44793,41.47294]]}},{"type":"Feature","properties":{"name":"(unnamed public road)","road_class":"track","source":"OpenStreetMap","source_detail":"osm way 501285888","source_tile":"177/382","surface_inferred":true},"geometry":{"type":"LineString","coordinates":[[-117.41424,41.29638],[-117.4143,41.29661],[-117.41455,41.29686],[-117.41501,41.29717],[-117.41622,41.29781],[-117.41706,41.29816],[-117.41835,41.29859],[-117.41977,41.29911],[-117.42145,41.29962],[-117.42184,41.29966],[-117.42316,41.29965],[-117.42415,41.29982],[-117.42436,41.29994],[-117.42463,41.30029],[-117.42478,41.30038],[-117.4262,41.30065],[-117.42695,41.30095],[-117.42761,41.30131],[-117.42826,41.30178],[-117.42912,41.30228],[-117.42934,41.30235],[-117.4307,41.30248],[-117.43086,41.30245],[-117.4311,41.3023],[-117.43156,41.30211],[-117.43233,41.30147],[-117.43269,41.30132],[-117.43367,41.30122],[-117.43422,41.301],[-117.43441,41.30096],[-117.43488,41.30104],[-117.43594,41.30102],[-117.43802,41.30055],[-117.43964,41.30033],[-117.44008,41.30022],[-117.44178,41.29957],[-117.44315,41.29873],[-117.44467,41.29817],[-117.44546,41.29797],[-117.44593,41.29768],[-117.44652,41.29747],[-117.44698,41.2974],[-117.44725,41.2973],[-117.4476,41.29729],[-117.44828,41.29738],[-117.44887,41.29763],[-117.44979,41.29803],[-117.45028,41.29809],[-117.45079,41.29828],[-117.45203,41.29841],[-117.45256,41.2985],[-117.45396,41.29843],[-117.45605,41.29815],[-117.45641,41.29813],[-117.4566,41.29816],[-117.45884,41.29915],[-117.4599,41.29982],[-117.46179,41.30061],[-117.46288,41.30122],[-117.46331,41.30142],[-117.46438,41.30206],[-117.46533,41.30273],[-117.46588,41.30298],[-117.46611,41.30311],[-117.46649,41.30336],[-117.46712,41.30392],[-117.46744,41.30405],[-117.46868,41.30401],[-117.46941,41.30407],[-117.47035,41.30435],[-117.47086,41.30441],[-117.47134,41.30455],[-117.4723,41.30473],[-117.47369,41.30486],[-117.47431,41.30506]]}},{"type":"Feature","properties":{"name":"(unnamed public road)","road_class":"track","source":"OpenStreetMap","source_detail":"osm way 1390836664","source_tile":"177/382","surface_inferred":true},"geometry":{"type":"LineString","coordinates":[[-117.4397,41.37265],[-117.43955,41.37291],[-117.43937,41.37294],[-117.43924,41.37286],[-117.43909,41.3727],[-117.4389,41.37263],[-117.43873,41.37263],[-117.43831,41.3727],[-117.4381,41.37275],[-117.43778,41.37278],[-117.43768,41.37281],[-117.43756,41.37287],[-117.4374,41.37291],[-117.43723,41.37297],[-117.43683,41.37314],[-117.43631,41.37353],[-117.43608,41.37362],[-117.4353,41.37376],[-117.43499,41.37386],[-117.43484,41.37393],[-117.43413,41.37454],[-117.43374,41.37477],[-117.43355,41.3749],[-117.43348,41.37495],[-117.43298,41.3753],[-117.43229,41.37568],[-117.43214,41.37581],[-117.43201,41.37595],[-117.43194,41.37599],[-117.43183,41.37602],[-117.43162,41.37606],[-117.43153,41.37606],[-117.43135,41.37602],[-117.43123,41.37597],[-117.43095,41.37579],[-117.43082,41.37575],[-117.43001,41.37573],[-117.42915,41.37566],[-117.42889,41.37562],[-117.42854,41.3755],[-117.42837,41.37549],[-117.42822,41.37553],[-117.42784,41.37567],[-117.42752,41.37576],[-117.42731,41.37579],[-117.42708,41.37578],[-117.42698,41.37579],[-117.42649,41.37602],[-117.42631,41.37609],[-117.42604,41.37617],[-117.42572,41.37623],[-117.42545,41.3763],[-117.42511,41.37642],[-117.42477,41.3766],[-117.42449,41.37681],[-117.42412,41.37713],[-117.42372,41.37737],[-117.42356,41.37742],[-117.4233,41.37746],[-117.42314,41.37747],[-117.42287,41.37742],[-117.42255,41.37734],[-117.42212,41.37717],[-117.42201,41.37716],[-117.4219,41.37719],[-117.42184,41.37725],[-117.42172,41.3774],[-117.42154,41.37754]]}},{"type":"Feature","properties":{"name":"(unnamed public road)","road_class":"track","source":"OpenStreetMap","source_detail":"osm way 1390836674","source_tile":"177/382","surface_inferred":true},"geometry":{"type":"LineString","coordinates":[[-117.36166,41.2955],[-117.36192,41.2955],[-117.36356,41.2955],[-117.36453,41.29551],[-117.36728,41.29557],[-117.37037,41.29564],[-117.37126,41.29564],[-117.37178,41.29567],[-117.37355,41.29569],[-117.37794,41.29579],[-117.381,41.29584],[-117.38212,41.29585],[-117.38347,41.2959],[-117.38368,41.2959],[-117.38401,41.29586],[-117.38415,41.29586],[-117.38465,41.29592],[-117.38579,41.29592],[-117.38597,41.29594],[-117.38671,41.29596],[-117.38864,41.29597],[-117.38924,41.29599],[-117.39091,41.29599],[-117.39122,41.29603],[-117.39157,41.29605],[-117.39351,41.29607],[-117.39441,41.29614],[-117.39539,41.29616],[-117.39904,41.29623],[-117.40034,41.29627],[-117.40079,41.29629],[-117.40187,41.29638],[-117.4022,41.29637],[-117.40274,41.29631],[-117.40337,41.29633],[-117.4044,41.29642],[-117.40464,41.29642],[-117.40497,41.29643],[-117.40525,41.29651],[-117.40559,41.29648],[-117.40605,41.29648],[-117.40809,41.29651],[-117.41054,41.29658],[-117.41134,41.29649],[-117.41157,41.29649],[-117.412,41.29644],[-117.41224,41.2964],[-117.41268,41.29641],[-117.41305,41.29637],[-117.41424,41.29638],[-117.41653,41.29617],[-117.41701,41.29618],[-117.4184,41.29631],[-117.41976,41.29635],[-117.4199,41.29634],[-117.42027,41.29624],[-117.42188,41.29622],[-117.42213,41.29612],[-117.42307,41.29593],[-117.42425,41.29564],[-117.42434,41.2956],[-117.42451,41.29549],[-117.42481,41.29541],[-117.42499,41.29534],[-117.42523,41.29518],[-117.42556,41.29493],[-117.42567,41.29489],[-117.42606,41.29475],[-117.42671,41.29463],[-117.4272,41.29457],[-117.42749,41.29452],[-117.42794,41.29443],[-117.42859,41.29427],[-117.42893,41.2942],[-117.42929,41.29418],[-117.42998,41.29411],[-117.43017,41.29411],[-117.43079,41.29416],[-117.43095,41.2942],[-117.43171,41.29455],[-117.43214,41.29479],[-117.43236,41.29485],[-117.43271,41.29502],[-117.43296,41.29511],[-117.43346,41.29521],[-117.43374,41.29522],[-117.43392,41.2952],[-117.43467,41.29507],[-117.43564,41.29494],[-117.43634,41.29482],[-117.43655,41.29477],[-117.4371,41.29458],[-117.43766,41.29441],[-117.43884,41.29409],[-117.43905,41.29404],[-117.4398,41.29394],[-117.44001,41.29389],[-117.44022,41.29387],[-117.44091,41.29388],[-117.4414,41.29392],[-117.44171,41.29398],[-117.44199,41.29409],[-117.44211,41.29413],[-117.44264,41.29438],[-117.44279,41.29441],[-117.44315,41.2944],[-117.44338,41.29441],[-117.44798,41.29442],[-117.44847,41.29444],[-117.44962,41.29443],[-117.45006,41.29444],[-117.45076,41.29445],[-117.45231,41.29451],[-117.45479,41.29453],[-117.45599,41.29456],[-117.46083,41.29457],[-117.46582,41.29457]]}}]}