{"type":"FeatureCollection","features":[{"type":"Feature","properties":{"name":"Old Highway 40","road_class":"unclassified","surface":"gravel","source":"OpenStreetMap","source_detail":"osm way 14325485","source_tile":"177/384"},"geometry":{"type":"LineString","coordinates":[[-117.40923,40.92858],[-117.40969,40.9292],[-117.41011,40.92961],[-117.41105,40.93022],[-117.41229,40.93072],[-117.4129,40.93089],[-117.41358,40.93098],[-117.41441,40.93101],[-117.41505,40.93097],[-117.41586,40.93081],[-117.41989,40.9294],[-117.42111,40.92907],[-117.4221,40.92891],[-117.42296,40.92884],[-117.42401,40.92886],[-117.42494,40.92893],[-117.42597,40.92908],[-117.42655,40.92924],[-117.44052,40.93372],[-117.45038,40.93686],[-117.45163,40.93728],[-117.45176,40.93737],[-117.45183,40.93751]]}},{"type":"Feature","properties":{"name":"Crocker Street","road_class":"unclassified","surface":"unpaved","source":"OpenStreetMap","source_detail":"osm way 408002374","source_tile":"177/384"},"geometry":{"type":"LineString","coordinates":[[-117.41829,40.95983],[-117.41839,40.95993],[-117.41845,40.95995],[-117.41861,40.95994],[-117.41879,40.95995],[-117.419,40.95994],[-117.41931,40.95995],[-117.41986,40.96002],[-117.42018,40.96008],[-117.42067,40.96015],[-117.42112,40.96019],[-117.42134,40.9602],[-117.42153,40.96021],[-117.42174,40.96021],[-117.42205,40.96018],[-117.42218,40.96017],[-117.42256,40.96009],[-117.42343,40.95983],[-117.4237,40.95974],[-117.42392,40.95963],[-117.42418,40.95945],[-117.42551,40.95852],[-117.42736,40.95729],[-117.42772,40.95712],[-117.42798,40.957],[-117.42827,40.9569],[-117.42864,40.95678],[-117.42909,40.95664],[-117.43043,40.95628],[-117.43102,40.95605],[-117.43144,40.95588],[-117.43173,40.95576],[-117.43236,40.95546],[-117.43302,40.95508],[-117.43354,40.95476],[-117.43391,40.95451],[-117.43463,40.95402],[-117.43494,40.95386],[-117.4352,40.95373],[-117.43554,40.95356],[-117.43609,40.95334],[-117.4369,40.95305],[-117.43918,40.95226],[-117.43959,40.95215],[-117.44004,40.95208],[-117.4405,40.95202],[-117.44103,40.95201],[-117.44141,40.95201],[-117.44194,40.95206],[-117.44236,40.95211],[-117.44286,40.95219],[-117.44812,40.9533],[-117.45154,40.954],[-117.45172,40.95409],[-117.45179,40.95418],[-117.45186,40.95423],[-117.45199,40.95429],[-117.45213,40.95431],[-117.45224,40.95426],[-117.45236,40.95422],[-117.45247,40.9542],[-117.45437,40.95458],[-117.458,40.95533],[-117.45984,40.95572],[-117.46139,40.95602],[-117.46248,40.95617],[-117.46395,40.95633],[-117.46459,40.95635],[-117.46477,40.95635],[-117.46495,40.95632],[-117.46513,40.95628],[-117.46566,40.95617],[-117.46599,40.95614],[-117.46621,40.95613],[-117.47315,40.95579],[-117.48433,40.95526]]}},{"type":"Feature","properties":{"name":"(unnamed public road)","road_class":"track","surface":"unpaved","source":"OpenStreetMap","source_detail":"osm way 1168001165","source_tile":"177/384"},"geometry":{"type":"LineString","coordinates":[[-117.24482,40.81878],[-117.2494,40.8217],[-117.24984,40.82196],[-117.24991,40.82205],[-117.25061,40.82242],[-117.25115,40.82277],[-117.25219,40.82342],[-117.2525,40.82361],[-117.25258,40.82368],[-117.25322,40.82404],[-117.25349,40.82423],[-117.25376,40.8244],[-117.25399,40.82452],[-117.25505,40.82517],[-117.25527,40.82528],[-117.25625,40.82588],[-117.25643,40.82601],[-117.25669,40.82617],[-117.25683,40.82627],[-117.25785,40.82685],[-117.25812,40.82702],[-117.25828,40.82714],[-117.26104,40.82878],[-117.26529,40.83129],[-117.26921,40.83367],[-117.27146,40.83513],[-117.27161,40.83523],[-117.27181,40.83535],[-117.27203,40.83547],[-117.27348,40.83637],[-117.27355,40.83638],[-117.27432,40.8369],[-117.27485,40.8372],[-117.27581,40.83779],[-117.27596,40.83786],[-117.27649,40.83818],[-117.27742,40.83876],[-117.27764,40.83891],[-117.27817,40.83925],[-117.27828,40.8393],[-117.27858,40.83949],[-117.27878,40.83961],[-117.28156,40.84132],[-117.2817,40.84138],[-117.28186,40.84148],[-117.28304,40.84223],[-117.2945,40.84924],[-117.29826,40.85156],[-117.29925,40.85215],[-117.29982,40.85252],[-117.30067,40.85299],[-117.30107,40.8532],[-117.30127,40.85337],[-117.30155,40.85356],[-117.30204,40.85383],[-117.30251,40.85413],[-117.30293,40.85431],[-117.30336,40.85465],[-117.30529,40.85584],[-117.30633,40.8565],[-117.30707,40.85693],[-117.30784,40.85743],[-117.30889,40.85804],[-117.3098,40.85859],[-117.31043,40.85901],[-117.31094,40.85931],[-117.31118,40.85945],[-117.31161,40.85972],[-117.31219,40.86007],[-117.31269,40.86036],[-117.31282,40.86042],[-117.31335,40.86077],[-117.31363,40.86095],[-117.3138,40.86106],[-117.314,40.86121],[-117.31419,40.86131],[-117.3146,40.86158],[-117.31497,40.8618],[-117.31505,40.86186],[-117.3152,40.86194],[-117.31548,40.86215],[-117.31585,40.86236],[-117.31598,40.86246],[-117.31614,40.86255],[-117.31665,40.86286],[-117.31676,40.86291],[-117.31761,40.86345],[-117.31774,40.86352],[-117.3179,40.86357],[-117.31804,40.86364],[-117.31827,40.86378],[-117.3185,40.86397],[-117.31934,40.8645],[-117.32797,40.86974],[-117.32871,40.87019],[-117.32931,40.87058],[-117.33043,40.87124],[-117.3306,40.87135],[-117.33398,40.87344],[-117.33595,40.87465],[-117.33629,40.87495],[-117.33666,40.87518],[-117.33687,40.87533],[-117.33706,40.87554],[-117.3372,40.87565],[-117.33728,40.87569],[-117.33751,40.87575],[-117.33773,40.87587],[-117.33794,40.87598],[-117.33847,40.87628],[-117.33862,40.87637],[-117.33886,40.87649],[-117.33933,40.87669],[-117.33963,40.87686],[-117.34002,40.87713],[-117.34037,40.87755],[-117.34087,40.87783],[-117.34093,40.87783],[-117.34115,40.87793],[-117.34146,40.87811],[-117.34182,40.87835],[-117.34204,40.87853],[-117.34225,40.87865],[-117.34331,40.87908],[-117.34389,40.87947],[-117.344,40.87956],[-117.34428,40.87987],[-117.34445,40.88001],[-117.34504,40.88032],[-117.34576,40.88072],[-117.34648,40.88121],[-117.34753,40.88188],[-117.34795,40.88209],[-117.34852,40.88245],[-117.34916,40.88278],[-117.3498,40.88314],[-117.35029,40.8835],[-117.35153,40.88438],[-117.35185,40.88461],[-117.35242,40.88481],[-117.35284,40.88507],[-117.35311,40.88522],[-117.35353,40.88536],[-117.35374,40.88545],[-117.35397,40.8856],[-117.3543,40.88585],[-117.3547,40.88607],[-117.35521,40.88639],[-117.35553,40.88657],[-117.35568,40.8867],[-117.3557,40.88674],[-117.35569,40.88681],[-117.35559,40.88698],[-117.35561,40.88707],[-117.35598,40.88755],[-117.35613,40.8878],[-117.3563,40.88792],[-117.35658,40.88804],[-117.35678,40.88808],[-117.357,40.88815],[-117.35734,40.88833],[-117.3576,40.8885],[-117.35787,40.88859],[-117.35805,40.88861],[-117.35821,40.88861],[-117.35832,40.8886],[-117.35873,40.88846],[-117.35909,40.88841],[-117.35922,40.88837],[-117.35959,40.88819],[-117.3597,40.88816],[-117.35977,40.88818],[-117.35985,40.88828],[-117.35988,40.8884],[-117.35987,40.88863],[-117.35978,40.88893],[-117.3598,40.8891],[-117.35985,40.88918],[-117.36014,40.88936],[-117.36016,40.88966],[-117.36045,40.88992],[-117.36068,40.89005],[-117.36084,40.89011],[-117.36105,40.89016],[-117.36143,40.89019],[-117.3616,40.89024],[-117.36197,40.89043],[-117.3621,40.89052],[-117.36231,40.89076],[-117.36254,40.89096],[-117.36285,40.89117],[-117.36306,40.89128],[-117.36316,40.89135],[-117.36388,40.89203],[-117.364,40.8921],[-117.36435,40.89222],[-117.36483,40.89241],[-117.36507,40.89254],[-117.36516,40.89261],[-117.36531,40.89269],[-117.36552,40.89275],[-117.36592,40.89297],[-117.36605,40.89309],[-117.36643,40.89331],[-117.36705,40.89372],[-117.36727,40.894],[-117.36757,40.89425],[-117.36773,40.89434],[-117.36815,40.8945],[-117.36849,40.89475],[-117.36881,40.89501],[-117.36899,40.89511],[-117.36941,40.89529],[-117.36972,40.89538],[-117.37039,40.89567],[-117.37137,40.89634],[-117.3715,40.89638],[-117.37165,40.89639],[-117.37215,40.89633],[-117.37278,40.89632],[-117.37324,40.89626],[-117.37345,40.89625],[-117.37362,40.8963],[-117.3739,40.89633],[-117.37406,40.8964],[-117.37458,40.89695],[-117.37499,40.89765],[-117.37545,40.89828],[-117.37561,40.89841],[-117.37604,40.89866],[-117.37648,40.89889],[-117.37676,40.89906],[-117.37686,40.89918],[-117.37693,40.8993],[-117.37706,40.89955],[-117.37727,40.89979],[-117.37751,40.89997],[-117.37793,40.9002],[-117.37893,40.90082],[-117.37949,40.90117],[-117.37981,40.90133],[-117.38029,40.90152],[-117.38048,40.90161],[-117.38062,40.90173],[-117.3809,40.90199],[-117.38105,40.90213],[-117.38148,40.90237],[-117.38204,40.90273],[-117.38266,40.90308],[-117.3829,40.90326],[-117.38329,40.9035],[-117.38354,40.90363],[-117.38414,40.9039],[-117.38429,40.904],[-117.38453,40.90422],[-117.3848,40.90439],[-117.38525,40.90466],[-117.38564,40.90485],[-117.38573,40.90492],[-117.3859,40.90502],[-117.38599,40.90506],[-117.38639,40.9053],[-117.38732,40.90592],[-117.38766,40.90611],[-117.3879,40.90628],[-117.38813,40.90641],[-117.38922,40.90709],[-117.38963,40.90731],[-117.39001,40.90753],[-117.39057,40.90787],[-117.39101,40.90817],[-117.39132,40.9083],[-117.39143,40.90839],[-117.39176,40.90879],[-117.3919,40.90903],[-117.39196,40.90911],[-117.39211,40.90922],[-117.39218,40.90926],[-117.39232,40.90928],[-117.39271,40.90926],[-117.3929,40.90929],[-117.39339,40.9096],[-117.39365,40.90982],[-117.39376,40.9102],[-117.39387,40.91032],[-117.39403,40.9104],[-117.39443,40.91055],[-117.3947,40.9106],[-117.39493,40.9107],[-117.39534,40.91093],[-117.39599,40.91136],[-117.39726,40.91208],[-117.39811,40.91263],[-117.39863,40.91297],[-117.39953,40.91351],[-117.40063,40.91419],[-117.40107,40.91449],[-117.40195,40.91496],[-117.40219,40.91513],[-117.40257,40.91534],[-117.40272,40.91547],[-117.40288,40.91553],[-117.40301,40.91555],[-117.40324,40.91556],[-117.40334,40.91559],[-117.40344,40.91565],[-117.40368,40.91587],[-117.40375,40.91592],[-117.40388,40.91597],[-117.40443,40.91605],[-117.40513,40.91621],[-117.40565,40.9164],[-117.40627,40.91656],[-117.40702,40.91665],[-117.40787,40.91667],[-117.40806,40.91669],[-117.40835,40.91677],[-117.40863,40.91687],[-117.40931,40.91702],[-117.40945,40.91706],[-117.40981,40.91721],[-117.41041,40.91738],[-117.41057,40.91745],[-117.41085,40.91769],[-117.41125,40.91792],[-117.41155,40.91812],[-117.41184,40.91825],[-117.41199,40.91828],[-117.41226,40.91829],[-117.4125,40.91827],[-117.41277,40.91822],[-117.41301,40.91822],[-117.41386,40.91838],[-117.41414,40.91845],[-117.41427,40.91847],[-117.41464,40.91854],[-117.41541,40.91875],[-117.41603,40.91887],[-117.4168,40.91912],[-117.41751,40.91924],[-117.41872,40.91954],[-117.41923,40.91964],[-117.42083,40.92003],[-117.4212,40.92017],[-117.42188,40.92028],[-117.42278,40.92052],[-117.42315,40.92065],[-117.42442,40.92093],[-117.42524,40.92115],[-117.42608,40.92134],[-117.42747,40.92168],[-117.42838,40.92189],[-117.42964,40.9222],[-117.43064,40.92242],[-117.43073,40.92243],[-117.43176,40.9227],[-117.43348,40.92312],[-117.43599,40.92376],[-117.43696,40.924],[-117.43772,40.92417],[-117.43809,40.92427],[-117.43887,40.92444],[-117.43921,40.92453],[-117.43938,40.92456],[-117.4396,40.92462],[-117.43989,40.92468],[-117.44097,40.92493],[-117.44129,40.92504],[-117.44208,40.92524],[-117.44311,40.92547],[-117.44395,40.92569],[-117.44416,40.92573],[-117.44551,40.92607],[-117.44659,40.92631],[-117.44904,40.92695],[-117.45071,40.92734],[-117.45156,40.92752],[-117.45186,40.92762],[-117.45267,40.92783],[-117.45332,40.92796],[-117.45407,40.92816],[-117.4549,40.92835],[-117.45691,40.92886],[-117.45715,40.9289],[-117.4602,40.92975],[-117.46245,40.93019],[-117.46381,40.9305],[-117.46583,40.931],[-117.47147,40.93235],[-117.474,40.93298],[-117.47449,40.93309],[-117.47721,40.93376],[-117.48439,40.93551],[-117.48537,40.93576],[-117.48749,40.93626],[-117.48812,40.93638]]}},{"type":"Feature","properties":{"name":"Pumpernickel Loop Road","road_class":"unclassified","surface":"unpaved","source":"OpenStreetMap","source_detail":"osm way 1184585774","source_tile":"177/384"},"geometry":{"type":"LineString","coordinates":[[-117.47618,40.78779],[-117.47606,40.78777],[-117.47594,40.78776],[-117.47583,40.78774],[-117.47571,40.78771],[-117.47542,40.78766],[-117.4752,40.78763],[-117.47498,40.7876],[-117.47468,40.78755],[-117.47438,40.7875],[-117.47423,40.78747],[-117.47409,40.78746],[-117.47394,40.78745],[-117.47379,40.78744],[-117.47286,40.78749],[-117.4728,40.78749],[-117.47274,40.78749],[-117.47269,40.78748],[-117.47264,40.78746],[-117.47238,40.78732],[-117.4723,40.78728],[-117.47221,40.78724],[-117.4721,40.78721],[-117.47169,40.78711],[-117.47161,40.7871],[-117.47154,40.7871],[-117.47146,40.7871],[-117.47139,40.78711],[-117.47131,40.78712],[-117.47124,40.78714],[-117.47101,40.78721],[-117.47096,40.78722],[-117.4709,40.78722],[-117.47085,40.78722],[-117.47079,40.78721],[-117.47074,40.78719],[-117.47069,40.78717],[-117.4704,40.78697],[-117.47032,40.78691],[-117.47025,40.78686],[-117.47017,40.78679],[-117.47009,40.78673],[-117.46894,40.78573],[-117.46874,40.78557],[-117.46854,40.78541],[-117.46834,40.78527],[-117.46814,40.78513],[-117.46807,40.78509],[-117.46801,40.78506],[-117.46794,40.78503],[-117.46786,40.785],[-117.46778,40.78499],[-117.4677,40.78497],[-117.46762,40.78497],[-117.46632,40.78486],[-117.46622,40.78486],[-117.46613,40.78486],[-117.46603,40.78486],[-117.46593,40.78487],[-117.46582,40.78489],[-117.46567,40.78492],[-117.46552,40.78494],[-117.46537,40.78498],[-117.46522,40.78502],[-117.46506,40.78506],[-117.46491,40.78511],[-117.46474,40.78516],[-117.46455,40.7852],[-117.46437,40.78524],[-117.46414,40.78528],[-117.46391,40.78533],[-117.46369,40.78538],[-117.46347,40.78544],[-117.46335,40.78546],[-117.46323,40.78548],[-117.46308,40.7855],[-117.46293,40.78551],[-117.46275,40.78553],[-117.46258,40.78555],[-117.46241,40.78558],[-117.46214,40.78565],[-117.46186,40.7857],[-117.4616,40.78575],[-117.46134,40.78579],[-117.46081,40.78588],[-117.46072,40.7859],[-117.46063,40.78592],[-117.46054,40.78594],[-117.46042,40.78599],[-117.46031,40.78604],[-117.45854,40.78683],[-117.45847,40.78685],[-117.45839,40.78687],[-117.45831,40.78688],[-117.45823,40.78689],[-117.45814,40.78689],[-117.45805,40.78688],[-117.45641,40.78661],[-117.45629,40.78659],[-117.45617,40.78658],[-117.456,40.78656],[-117.45584,40.78655],[-117.45566,40.78653],[-117.45549,40.78651],[-117.45516,40.78646],[-117.45498,40.78643],[-117.4548,40.78639],[-117.45462,40.78634],[-117.45444,40.78629],[-117.45395,40.78612],[-117.45356,40.78601],[-117.45311,40.78589],[-117.45298,40.78586],[-117.45283,40.78584],[-117.45269,40.78582],[-117.45254,40.7858],[-117.45238,40.7858],[-117.45222,40.7858],[-117.45205,40.7858],[-117.45188,40.78582],[-117.45172,40.78584],[-117.45157,40.78586],[-117.45141,40.7859],[-117.45085,40.78602],[-117.45067,40.78606],[-117.45049,40.78609],[-117.45028,40.78611],[-117.44899,40.78629],[-117.44879,40.78632],[-117.44859,40.78637],[-117.44842,40.78642],[-117.44824,40.78647],[-117.4474,40.78674],[-117.4472,40.7868],[-117.44699,40.78686],[-117.44678,40.7869],[-117.44658,40.78694],[-117.44444,40.78734],[-117.4443,40.78737],[-117.44416,40.78741],[-117.44402,40.78745],[-117.44389,40.7875],[-117.44376,40.78756],[-117.44364,40.78762],[-117.44153,40.78861],[-117.44126,40.78875],[-117.44099,40.78889],[-117.44072,40.78903],[-117.44043,40.7892],[-117.44014,40.78937],[-117.43986,40.78954],[-117.43924,40.78993],[-117.43913,40.79001],[-117.43903,40.79009],[-117.43891,40.79019],[-117.4388,40.79029],[-117.43866,40.79041],[-117.43852,40.79053],[-117.43837,40.79064],[-117.43691,40.7918],[-117.43673,40.79194],[-117.43654,40.79207],[-117.43635,40.79219],[-117.43609,40.79235],[-117.43597,40.79242],[-117.43583,40.79249],[-117.43571,40.79255],[-117.43558,40.7926],[-117.43546,40.79265],[-117.43532,40.79269],[-117.43518,40.79273],[-117.43505,40.79277],[-117.43492,40.79281],[-117.43474,40.79288],[-117.43456,40.79295],[-117.43439,40.79303],[-117.43373,40.79338],[-117.43356,40.79347],[-117.4334,40.79357],[-117.43327,40.79365],[-117.43321,40.7937],[-117.43314,40.79374],[-117.43304,40.79379],[-117.43293,40.79384],[-117.43228,40.79415],[-117.43203,40.79425],[-117.43178,40.79435],[-117.43155,40.79444],[-117.43132,40.79452],[-117.43098,40.79464],[-117.43085,40.79469],[-117.43072,40.79475],[-117.43058,40.79482],[-117.43044,40.7949],[-117.43014,40.79508],[-117.42985,40.79527],[-117.4289,40.79592],[-117.4288,40.79599],[-117.42874,40.79604],[-117.42858,40.79617],[-117.42837,40.79635],[-117.42817,40.79653],[-117.42766,40.79699],[-117.42751,40.79714],[-117.42745,40.79721],[-117.42737,40.79729],[-117.42728,40.79737],[-117.42717,40.79746],[-117.42706,40.79753],[-117.42691,40.79765],[-117.42677,40.79778],[-117.42632,40.79818],[-117.42623,40.79827],[-117.42614,40.79837],[-117.42605,40.79848],[-117.42596,40.7986],[-117.42538,40.79958],[-117.42532,40.79968],[-117.42526,40.79977],[-117.42518,40.79987],[-117.4251,40.79997],[-117.425,40.8001],[-117.42491,40.80024],[-117.42442,40.80097],[-117.4243,40.80112],[-117.42418,40.80128],[-117.42403,40.80147],[-117.42386,40.80166],[-117.42331,40.80224],[-117.42313,40.80243],[-117.42293,40.80262],[-117.42266,40.80287],[-117.42237,40.80313],[-117.42191,40.80352],[-117.42179,40.80364],[-117.42167,40.80376],[-117.42154,40.80391],[-117.42141,40.80407]]}},{"type":"Feature","properties":{"name":"(unnamed public road)","road_class":"track","surface":"unpaved","source":"OpenStreetMap","source_detail":"osm way 1184585776","source_tile":"177/384"},"geometry":{"type":"LineString","coordinates":[[-117.46823,40.82967],[-117.46763,40.82939],[-117.46653,40.82893],[-117.46535,40.8284],[-117.4644,40.82798],[-117.46376,40.82772],[-117.46336,40.82753],[-117.46315,40.82744],[-117.46291,40.8274],[-117.46192,40.82725],[-117.46161,40.82725],[-117.46126,40.82727],[-117.46102,40.8273],[-117.46082,40.82732],[-117.46063,40.8273],[-117.46038,40.82726],[-117.46016,40.82717],[-117.45957,40.82685],[-117.45936,40.82677],[-117.45922,40.82668],[-117.45913,40.82655],[-117.45901,40.82636],[-117.45895,40.8263],[-117.45889,40.82623],[-117.45875,40.8261],[-117.45855,40.82583],[-117.45837,40.8256],[-117.45803,40.82519],[-117.45778,40.82486],[-117.45771,40.82478],[-117.45749,40.82451],[-117.4573,40.82431],[-117.45714,40.82424],[-117.45682,40.82414],[-117.45637,40.82403],[-117.45604,40.8239],[-117.45583,40.82379],[-117.45556,40.82369],[-117.45531,40.82364],[-117.45489,40.82352],[-117.45414,40.82325],[-117.4541,40.82324],[-117.45354,40.82308],[-117.45288,40.82293],[-117.45247,40.82282],[-117.45187,40.82271],[-117.45137,40.82258],[-117.45103,40.82245],[-117.45058,40.82224],[-117.44991,40.82188],[-117.44952,40.82165],[-117.44932,40.82151],[-117.44913,40.82134],[-117.4489,40.82119],[-117.44868,40.82108],[-117.44849,40.821],[-117.44836,40.82091],[-117.44823,40.82076],[-117.44807,40.82063],[-117.44792,40.82055],[-117.44776,40.82049],[-117.44757,40.82048],[-117.4474,40.82044],[-117.44687,40.82027],[-117.44672,40.8202],[-117.44655,40.82006],[-117.44619,40.81985],[-117.44618,40.81985],[-117.44597,40.81982],[-117.4455,40.81976],[-117.4448,40.8197],[-117.44448,40.81965],[-117.44434,40.8196],[-117.44415,40.81951],[-117.44399,40.81946],[-117.44378,40.81943],[-117.44361,40.81939],[-117.44324,40.81919],[-117.44303,40.81903],[-117.44277,40.81876],[-117.4426,40.81857],[-117.44246,40.81841],[-117.44229,40.81824],[-117.44218,40.81816],[-117.44208,40.81808],[-117.44193,40.81787],[-117.44155,40.81748],[-117.44141,40.81739],[-117.44126,40.81734],[-117.44109,40.8173],[-117.44086,40.81715],[-117.44057,40.81697],[-117.4404,40.81691],[-117.44026,40.81689],[-117.43995,40.81689],[-117.43963,40.81691],[-117.43944,40.81691],[-117.4393,40.81688],[-117.4392,40.81686],[-117.43914,40.81686],[-117.43906,40.81689],[-117.43898,40.81691],[-117.43883,40.81694],[-117.43873,40.81695],[-117.43857,40.81697],[-117.43842,40.81699],[-117.43827,40.81701],[-117.43813,40.81705],[-117.43802,40.81707],[-117.43791,40.81709],[-117.43784,40.8171],[-117.43774,40.81709],[-117.43767,40.81709],[-117.43759,40.8171],[-117.4375,40.81712],[-117.43746,40.81712],[-117.43742,40.81712],[-117.43738,40.8171],[-117.43735,40.81705],[-117.43734,40.81699],[-117.43731,40.81696],[-117.43726,40.81693],[-117.43721,40.81693],[-117.43716,40.81694],[-117.43707,40.81695],[-117.43699,40.81699],[-117.43691,40.81702],[-117.43686,40.81704],[-117.43683,40.81708],[-117.43682,40.81713],[-117.43682,40.8172],[-117.4368,40.81727],[-117.43678,40.8173],[-117.43674,40.81732],[-117.43669,40.81733],[-117.43664,40.81733],[-117.43659,40.8173],[-117.43653,40.81727],[-117.43645,40.8172],[-117.43637,40.81714],[-117.43631,40.81711],[-117.43622,40.81707],[-117.43612,40.81703],[-117.43605,40.81699],[-117.43598,40.81697],[-117.43592,40.81697],[-117.43586,40.81696],[-117.43576,40.81694],[-117.43566,40.81693],[-117.43557,40.81692],[-117.43543,40.8169],[-117.43529,40.81685],[-117.43504,40.81683],[-117.43481,40.8168],[-117.43441,40.81673],[-117.43409,40.81665],[-117.43395,40.81659],[-117.43387,40.81652],[-117.4338,40.81638],[-117.4338,40.81625],[-117.43385,40.81613],[-117.4339,40.81602],[-117.43402,40.81591],[-117.43406,40.81583],[-117.43407,40.81568],[-117.43401,40.81558],[-117.4339,40.81546],[-117.43381,40.8154],[-117.43375,40.81527],[-117.4337,40.81515],[-117.43361,40.81507],[-117.43353,40.81501],[-117.43337,40.81488],[-117.43324,40.81482],[-117.43309,40.8148],[-117.43294,40.81483],[-117.43289,40.81483],[-117.43285,40.81483],[-117.43273,40.81477],[-117.43265,40.81468],[-117.43255,40.81461],[-117.43232,40.81456],[-117.43211,40.81454],[-117.43179,40.81447],[-117.43169,40.81442],[-117.43147,40.81438],[-117.43127,40.81435],[-117.43106,40.81427],[-117.43089,40.81416],[-117.43078,40.81404],[-117.4307,40.81388],[-117.43066,40.81372],[-117.43063,40.81355],[-117.4306,40.81347],[-117.43056,40.8134],[-117.43051,40.81335],[-117.43045,40.81331],[-117.43037,40.81326],[-117.43027,40.8132],[-117.43018,40.81314],[-117.43013,40.81312],[-117.43009,40.8131],[-117.43002,40.81308],[-117.42991,40.81308],[-117.42978,40.81305],[-117.42968,40.81303],[-117.42961,40.81301],[-117.42957,40.81299],[-117.42948,40.81295],[-117.42941,40.8129],[-117.42933,40.81285],[-117.42928,40.8128],[-117.42924,40.81277],[-117.42922,40.81274],[-117.42921,40.81272],[-117.42921,40.8127],[-117.42916,40.81245],[-117.42904,40.81232],[-117.42878,40.81215],[-117.42848,40.81199],[-117.4282,40.8119],[-117.42793,40.81182],[-117.42784,40.8118],[-117.4275,40.81169],[-117.42738,40.81163],[-117.42731,40.81158],[-117.42723,40.81152],[-117.4271,40.8114],[-117.427,40.81132],[-117.42692,40.81126],[-117.4268,40.81117],[-117.42672,40.8111],[-117.42667,40.81104],[-117.42663,40.81095],[-117.42657,40.81087],[-117.42651,40.81081],[-117.4264,40.81072],[-117.42629,40.81063],[-117.42623,40.81059],[-117.42617,40.81056],[-117.42608,40.81054],[-117.42599,40.81052],[-117.42593,40.81048],[-117.42588,40.81044],[-117.42572,40.81034],[-117.42561,40.81029],[-117.42554,40.81026],[-117.42512,40.81011],[-117.42493,40.81004],[-117.42467,40.80996],[-117.42443,40.80988],[-117.42416,40.80977],[-117.4239,40.80964],[-117.42371,40.80954],[-117.42356,40.80946],[-117.42342,40.8094],[-117.42327,40.80935],[-117.42306,40.80929],[-117.42286,40.80923],[-117.4226,40.80916],[-117.42235,40.8091],[-117.42215,40.80905],[-117.422,40.80903],[-117.42186,40.80901],[-117.4217,40.80901],[-117.42138,40.80899],[-117.42109,40.80898],[-117.42093,40.80897],[-117.42071,40.80895],[-117.42047,40.80891],[-117.42027,40.80888],[-117.42009,40.80886],[-117.41994,40.80885],[-117.41977,40.80884],[-117.41963,40.80884],[-117.41933,40.80883],[-117.4191,40.80883],[-117.41901,40.80884],[-117.41893,40.80885],[-117.41879,40.80888],[-117.41823,40.80902],[-117.41805,40.80907],[-117.41788,40.80912],[-117.41763,40.80917]]}},{"type":"Feature","properties":{"name":"(unnamed public road)","road_class":"track","surface":"dirt","source":"OpenStreetMap","source_detail":"osm way 1469327006","source_tile":"177/384"},"geometry":{"type":"LineString","coordinates":[[-117.4288,40.79599],[-117.42869,40.79594],[-117.42862,40.79593],[-117.42856,40.79593],[-117.4284,40.79594],[-117.4282,40.79596],[-117.42806,40.79596],[-117.42787,40.79597],[-117.42775,40.79596],[-117.4276,40.79595],[-117.42738,40.79593],[-117.42713,40.79592],[-117.42685,40.79591],[-117.42663,40.7959],[-117.42638,40.79588],[-117.42607,40.79585],[-117.42592,40.79583],[-117.42574,40.79581],[-117.42549,40.79578],[-117.42525,40.79575],[-117.42503,40.79571],[-117.42484,40.79567],[-117.4247,40.79564],[-117.42448,40.7956],[-117.42426,40.79557],[-117.42396,40.79552],[-117.42382,40.7955],[-117.42363,40.79546],[-117.42347,40.79541],[-117.42329,40.79536],[-117.42302,40.79528],[-117.42275,40.7952],[-117.42243,40.79509],[-117.4222,40.795],[-117.42205,40.79495],[-117.42187,40.79487],[-117.42173,40.79479],[-117.42164,40.79475],[-117.42154,40.79469],[-117.42141,40.79466],[-117.42125,40.79462],[-117.4211,40.79457],[-117.42095,40.79451],[-117.42082,40.79445],[-117.42069,40.7944],[-117.42059,40.79436],[-117.42042,40.7943],[-117.42024,40.79424],[-117.41999,40.79417],[-117.41977,40.79411],[-117.41957,40.79405],[-117.41932,40.79397],[-117.41919,40.79392],[-117.41908,40.79388],[-117.41896,40.79382],[-117.41876,40.79372],[-117.41859,40.79364],[-117.41849,40.79357],[-117.4184,40.79353],[-117.41833,40.79349],[-117.41827,40.79348],[-117.41821,40.79347],[-117.41814,40.79348],[-117.41807,40.79349]]}}]}