{"type":"FeatureCollection","features":[{"type":"Feature","properties":{"name":"(unnamed public road)","road_class":"track","source":"OpenStreetMap","source_detail":"osm way 14367236","source_tile":"177/385","surface_inferred":true},"geometry":{"type":"LineString","coordinates":[[-117.42974,40.52675],[-117.42951,40.52682],[-117.429,40.5268],[-117.4282,40.52711],[-117.42702,40.52738],[-117.42664,40.52749],[-117.426,40.52742],[-117.42528,40.52744],[-117.42447,40.52801],[-117.42408,40.5281],[-117.42249,40.52824],[-117.42195,40.5284],[-117.42172,40.52858],[-117.42147,40.52911],[-117.42109,40.52963],[-117.42072,40.53039],[-117.41983,40.5308],[-117.41854,40.53053],[-117.41719,40.53069],[-117.41626,40.53103],[-117.415,40.53188],[-117.41478,40.53224],[-117.41448,40.53339],[-117.41398,40.53413],[-117.41322,40.53526],[-117.4131,40.53599],[-117.41241,40.53663],[-117.41124,40.53888],[-117.41127,40.53963],[-117.41115,40.53981],[-117.41058,40.54023],[-117.4104,40.54087],[-117.4104,40.54256],[-117.41043,40.54368],[-117.41088,40.54474],[-117.41145,40.54551],[-117.41151,40.54579],[-117.41184,40.54627],[-117.41235,40.54666],[-117.41403,40.54757],[-117.4143,40.5478],[-117.4143,40.54792],[-117.4147,40.54814],[-117.41524,40.54842],[-117.41561,40.54874],[-117.4157,40.54883],[-117.41626,40.54924],[-117.41682,40.54955],[-117.41691,40.54956],[-117.41726,40.54976],[-117.41739,40.54985],[-117.41762,40.55002],[-117.41803,40.5503],[-117.41867,40.55088],[-117.41912,40.55108],[-117.41983,40.55146],[-117.42035,40.55165],[-117.42116,40.55237],[-117.42191,40.55325],[-117.42281,40.55461]]}},{"type":"Feature","properties":{"name":"(unnamed public road)","road_class":"unclassified","surface":"unpaved","source":"OpenStreetMap","source_detail":"osm way 14369802","source_tile":"177/386"},"geometry":{"type":"LineString","coordinates":[[-117.42734,40.52594],[-117.42714,40.52572],[-117.42702,40.52563],[-117.42694,40.52544],[-117.42675,40.52504],[-117.42651,40.52498],[-117.42633,40.52488],[-117.42561,40.52461],[-117.42513,40.52437],[-117.42503,40.52429],[-117.42483,40.52407],[-117.42473,40.52397],[-117.42443,40.52378],[-117.4242,40.52361],[-117.42368,40.5231],[-117.42354,40.52299],[-117.42318,40.52279],[-117.42308,40.52268],[-117.42301,40.52248],[-117.42298,40.52235],[-117.42299,40.52228],[-117.42303,40.52218],[-117.42318,40.52206],[-117.42327,40.52196],[-117.42366,40.52115],[-117.42401,40.52047],[-117.42416,40.52012],[-117.4242,40.52006],[-117.42443,40.51993],[-117.42461,40.51976],[-117.42458,40.51958],[-117.42458,40.51943],[-117.42461,40.51932],[-117.42474,40.51905],[-117.42481,40.51881],[-117.42482,40.5186],[-117.4248,40.51822],[-117.42475,40.5181],[-117.42464,40.51796],[-117.42442,40.51776],[-117.42433,40.51766],[-117.4241,40.51731],[-117.42389,40.51704],[-117.42373,40.51691],[-117.42355,40.51682],[-117.42345,40.51676],[-117.42338,40.51672],[-117.42324,40.51658],[-117.42313,40.51643],[-117.42308,40.51632],[-117.42303,40.51613],[-117.42297,40.51598],[-117.42288,40.51585],[-117.42265,40.51557],[-117.42253,40.51535],[-117.42235,40.51492],[-117.42223,40.51451],[-117.42208,40.51428],[-117.42157,40.5138],[-117.42106,40.51333],[-117.42098,40.51321],[-117.42091,40.51305],[-117.42083,40.51277],[-117.42079,40.51238],[-117.4206,40.51185],[-117.42054,40.51165],[-117.42047,40.51122],[-117.42039,40.51102],[-117.4203,40.51084],[-117.42017,40.51064],[-117.42005,40.5105],[-117.4197,40.51029],[-117.4195,40.51015],[-117.41888,40.50956],[-117.41883,40.50948],[-117.41881,40.50939],[-117.41874,40.50872],[-117.41866,40.5081],[-117.41855,40.5077],[-117.41846,40.50746],[-117.41839,40.50732],[-117.41805,40.50695],[-117.4176,40.5064],[-117.41712,40.50585],[-117.41693,40.50555],[-117.41688,40.50537],[-117.41681,40.50504],[-117.4167,40.50476],[-117.41662,40.50462],[-117.41635,40.50422],[-117.41612,40.5038],[-117.41604,40.50368],[-117.41585,40.50346],[-117.41535,40.50299],[-117.41503,40.50263],[-117.4148,40.50226],[-117.41467,40.50199],[-117.41453,40.50183],[-117.4142,40.5015],[-117.41401,40.50126],[-117.41395,40.50109],[-117.4139,40.50095],[-117.41387,40.50088],[-117.41382,40.50069],[-117.41331,40.49997],[-117.41309,40.49979],[-117.41294,40.49963],[-117.41288,40.49951],[-117.41279,40.4992],[-117.41254,40.49878],[-117.41236,40.49842],[-117.41207,40.49793],[-117.41197,40.4978],[-117.41138,40.49678],[-117.41121,40.49644],[-117.41106,40.49608],[-117.4109,40.49588],[-117.41058,40.49555],[-117.41045,40.49539],[-117.41031,40.49511],[-117.41005,40.49448],[-117.40999,40.49427],[-117.40994,40.49393],[-117.4097,40.49354],[-117.40937,40.4929],[-117.40899,40.49247],[-117.40882,40.4922],[-117.40877,40.49213],[-117.40859,40.49191],[-117.40702,40.49024],[-117.40649,40.48947],[-117.40623,40.48898],[-117.40604,40.48845],[-117.40568,40.4877],[-117.40537,40.48717],[-117.40477,40.48597],[-117.40433,40.48524],[-117.40415,40.4849],[-117.40405,40.48437],[-117.40395,40.48423],[-117.40371,40.48395],[-117.40355,40.48373],[-117.40346,40.48357],[-117.40339,40.48329],[-117.40335,40.48277],[-117.40319,40.48218],[-117.40296,40.48157],[-117.4024,40.48039],[-117.40209,40.47946],[-117.40198,40.47863],[-117.40199,40.47842],[-117.40207,40.47794],[-117.40218,40.47677],[-117.40224,40.47657],[-117.4026,40.47559],[-117.40302,40.47408],[-117.40309,40.47363],[-117.40315,40.47308],[-117.40319,40.47296],[-117.40327,40.47241],[-117.40333,40.47189],[-117.40352,40.47119],[-117.40365,40.47051],[-117.40381,40.46987],[-117.40407,40.46908],[-117.4042,40.46863],[-117.40431,40.46833],[-117.40443,40.46782],[-117.40459,40.46702],[-117.40466,40.46679],[-117.40491,40.4662],[-117.40506,40.46591],[-117.40515,40.46569],[-117.40521,40.46549],[-117.40526,40.46525],[-117.40529,40.46487],[-117.40546,40.46362],[-117.40544,40.46313],[-117.40526,40.46132],[-117.40526,40.46091],[-117.40529,40.46051],[-117.40537,40.45994],[-117.40547,40.45945],[-117.40552,40.45909],[-117.40554,40.4587],[-117.40553,40.45846],[-117.40551,40.4583],[-117.40543,40.45809],[-117.40535,40.45795],[-117.40528,40.45778],[-117.40524,40.45763],[-117.40527,40.45751],[-117.4054,40.45719],[-117.4054,40.45702],[-117.40541,40.45689],[-117.40535,40.4566],[-117.40527,40.45632],[-117.40502,40.45562],[-117.4048,40.45516],[-117.40454,40.4547],[-117.40447,40.45452],[-117.40443,40.45436],[-117.40439,40.45399],[-117.40423,40.45334],[-117.40419,40.45299],[-117.40423,40.45289],[-117.40405,40.45262],[-117.40393,40.45232],[-117.40383,40.45182],[-117.40372,40.45136],[-117.4037,40.45117],[-117.40354,40.45059],[-117.40352,40.4502],[-117.40365,40.44954],[-117.40405,40.44874],[-117.40423,40.44815],[-117.40423,40.44755],[-117.4043,40.44725],[-117.40445,40.44695],[-117.40458,40.44653],[-117.40461,40.44621],[-117.40466,40.446],[-117.40467,40.44562],[-117.40471,40.44542],[-117.40481,40.44516],[-117.40482,40.44488],[-117.40479,40.44475],[-117.40473,40.44462],[-117.40452,40.44437],[-117.40446,40.44428],[-117.40443,40.44418],[-117.40442,40.44394],[-117.40437,40.44376],[-117.40425,40.4435],[-117.40413,40.44319],[-117.40405,40.44303],[-117.40387,40.44279],[-117.40381,40.44267],[-117.40379,40.44255],[-117.4038,40.44244],[-117.40391,40.44217],[-117.40427,40.44179],[-117.40434,40.44166],[-117.40436,40.44162],[-117.40483,40.44124],[-117.40501,40.44103],[-117.40508,40.44085],[-117.40514,40.44029],[-117.40519,40.44015],[-117.4053,40.43995],[-117.40544,40.43977],[-117.40587,40.43935],[-117.40616,40.43902],[-117.40644,40.43865],[-117.40654,40.43845],[-117.4066,40.43826],[-117.4066,40.43776],[-117.40666,40.43719],[-117.40668,40.43672],[-117.40672,40.43647],[-117.40682,40.43605],[-117.40685,40.43525],[-117.40688,40.43502],[-117.40694,40.43478],[-117.40711,40.4345],[-117.40752,40.43398],[-117.40763,40.43378],[-117.40767,40.43366],[-117.4077,40.4335],[-117.40769,40.43306],[-117.4077,40.43292],[-117.40784,40.43241],[-117.40803,40.4319],[-117.4082,40.43158],[-117.4085,40.43108],[-117.4087,40.43068],[-117.40884,40.43031],[-117.40892,40.42994],[-117.40897,40.42978],[-117.4091,40.42958],[-117.40945,40.4292],[-117.40987,40.42836],[-117.4099,40.428],[-117.40987,40.42759],[-117.40991,40.42744],[-117.40998,40.42735],[-117.4104,40.4271],[-117.41063,40.427],[-117.41091,40.42684],[-117.41102,40.42669],[-117.41116,40.42633],[-117.41125,40.42615],[-117.4117,40.42546],[-117.41212,40.42464],[-117.4124,40.42415],[-117.4125,40.42395],[-117.41255,40.42377],[-117.4126,40.42344],[-117.4126,40.42332],[-117.41264,40.42311],[-117.4128,40.42286],[-117.41312,40.42243],[-117.41322,40.42228],[-117.41341,40.42182],[-117.4136,40.42148],[-117.41373,40.42114],[-117.41404,40.4205],[-117.41413,40.42029],[-117.4142,40.42005],[-117.41426,40.41967],[-117.41437,40.41943],[-117.41448,40.41925],[-117.4148,40.4188],[-117.41508,40.41835],[-117.41522,40.41817],[-117.41556,40.4178],[-117.41562,40.4177],[-117.41572,40.4176],[-117.41598,40.41721],[-117.41627,40.41668],[-117.41663,40.41599],[-117.41681,40.4157],[-117.41695,40.41553],[-117.41706,40.41533],[-117.41719,40.41488],[-117.41727,40.41469],[-117.41738,40.41452],[-117.41756,40.41431],[-117.41843,40.4135],[-117.4189,40.41299],[-117.41895,40.41287],[-117.41895,40.41261],[-117.41892,40.41251],[-117.41865,40.41186],[-117.41837,40.41111],[-117.41821,40.41074],[-117.41776,40.40978],[-117.41743,40.4093],[-117.41687,40.40792],[-117.41644,40.40721],[-117.41601,40.40635],[-117.41569,40.40596],[-117.41555,40.40571],[-117.41505,40.4043],[-117.415,40.40383],[-117.41499,40.40372],[-117.41496,40.40346],[-117.41504,40.40323],[-117.41532,40.40274],[-117.41564,40.40228],[-117.41581,40.40194],[-117.41551,40.40039],[-117.41538,40.39957],[-117.41472,40.3981],[-117.41471,40.39772],[-117.41469,40.39398],[-117.41467,40.39085],[-117.41467,40.39073],[-117.41502,40.38823],[-117.41517,40.38719],[-117.41658,40.37654],[-117.41755,40.36946],[-117.41796,40.36672],[-117.41804,40.36616],[-117.41821,40.36505],[-117.41828,40.36474],[-117.41828,40.36462],[-117.41833,40.36444],[-117.41845,40.36385],[-117.41851,40.36332],[-117.41864,40.36273],[-117.4187,40.36223],[-117.41876,40.3619],[-117.41877,40.36172],[-117.4189,40.3611],[-117.41895,40.36066],[-117.41905,40.36018],[-117.41918,40.35939],[-117.41931,40.35877],[-117.41942,40.35798],[-117.41986,40.35535],[-117.41994,40.35517],[-117.42004,40.35428],[-117.42019,40.35347],[-117.4203,40.35274],[-117.42066,40.3507],[-117.42071,40.35029],[-117.42079,40.3499],[-117.42087,40.3495],[-117.42089,40.34933],[-117.42093,40.34899],[-117.42104,40.34847],[-117.42105,40.34833],[-117.42114,40.34783],[-117.42138,40.34655],[-117.42161,40.345],[-117.42183,40.34377],[-117.42189,40.34355],[-117.42246,40.34001],[-117.42248,40.33989],[-117.42251,40.33979],[-117.42256,40.33948],[-117.42271,40.3385],[-117.4228,40.33807],[-117.42298,40.33689],[-117.42304,40.33654],[-117.4231,40.33631],[-117.42317,40.33576],[-117.42337,40.33476],[-117.42357,40.33343],[-117.42362,40.3332],[-117.42364,40.33301],[-117.42389,40.33165],[-117.42398,40.33106],[-117.42414,40.33018],[-117.42418,40.32983],[-117.42431,40.32916],[-117.42443,40.3284],[-117.42448,40.32817],[-117.42457,40.32759],[-117.4247,40.32692],[-117.42513,40.32431],[-117.42589,40.31981],[-117.42596,40.31947],[-117.42606,40.31878],[-117.4262,40.31806],[-117.42622,40.31782],[-117.42641,40.31683],[-117.42654,40.31598],[-117.42658,40.31581],[-117.42666,40.31529],[-117.42674,40.31491],[-117.42704,40.31305],[-117.42711,40.31272],[-117.42715,40.31236],[-117.42714,40.31233],[-117.42748,40.31063],[-117.42756,40.31002],[-117.42773,40.30902],[-117.42774,40.30891],[-117.42799,40.30757],[-117.42804,40.30717],[-117.42819,40.30638],[-117.42825,40.3059],[-117.4284,40.30511],[-117.42845,40.3048],[-117.42849,40.30455],[-117.42864,40.30382],[-117.42873,40.30316],[-117.42905,40.30141],[-117.42937,40.29942],[-117.42971,40.2975],[-117.42986,40.29657],[-117.42996,40.296],[-117.43001,40.29583],[-117.43006,40.29556],[-117.43007,40.29541],[-117.43018,40.29471],[-117.43039,40.2935],[-117.43045,40.29306],[-117.43055,40.2925],[-117.43079,40.29107],[-117.43117,40.28894],[-117.43132,40.28809],[-117.43155,40.28749],[-117.43193,40.28692]]}},{"type":"Feature","properties":{"name":"(unnamed public road)","road_class":"unclassified","surface":"unpaved","source":"OpenStreetMap","source_detail":"osm way 810656487","source_tile":"177/385"},"geometry":{"type":"LineString","coordinates":[[-117.42734,40.52594],[-117.42718,40.52593],[-117.42666,40.52586],[-117.42608,40.52584],[-117.4254,40.52575],[-117.42506,40.52573],[-117.42477,40.52578],[-117.42417,40.526],[-117.4238,40.5261],[-117.42318,40.52618],[-117.42234,40.52633],[-117.42188,40.52634],[-117.42108,40.52617],[-117.42087,40.52615],[-117.42041,40.52619],[-117.42014,40.52619],[-117.41979,40.52613],[-117.41948,40.52602],[-117.41852,40.52562],[-117.41823,40.52551],[-117.41765,40.52535],[-117.41746,40.52528],[-117.41719,40.52523],[-117.41646,40.52507],[-117.41622,40.525],[-117.41593,40.52495],[-117.41557,40.52494],[-117.41467,40.52485],[-117.41434,40.52484],[-117.41383,40.52478],[-117.41355,40.52476],[-117.41294,40.52476],[-117.41269,40.52473],[-117.41249,40.52467],[-117.41217,40.52462],[-117.41126,40.52453],[-117.4106,40.5245],[-117.40996,40.52444],[-117.40872,40.52424],[-117.40768,40.52414],[-117.40675,40.52403],[-117.40525,40.52384],[-117.40464,40.52369],[-117.40378,40.52345],[-117.40359,40.52341],[-117.40332,40.52338],[-117.40295,40.52336],[-117.40212,40.5233],[-117.39955,40.52331],[-117.39945,40.52332],[-117.39867,40.52318],[-117.39628,40.52294],[-117.39587,40.52291],[-117.39505,40.52281],[-117.39472,40.52278],[-117.39333,40.52261],[-117.39244,40.52252],[-117.39194,40.52246],[-117.39107,40.52238],[-117.38995,40.52224],[-117.38983,40.52224],[-117.38944,40.52219],[-117.38855,40.52209],[-117.38764,40.52197],[-117.38632,40.52184],[-117.3855,40.52173],[-117.38468,40.5217],[-117.38415,40.52167],[-117.38255,40.52151],[-117.38189,40.52151],[-117.38114,40.52146],[-117.37944,40.52118],[-117.37851,40.52107],[-117.37794,40.52095],[-117.37654,40.52065],[-117.37542,40.52057],[-117.37442,40.52047],[-117.37378,40.52049],[-117.37353,40.52048],[-117.37331,40.52044],[-117.37291,40.52035],[-117.37206,40.52025],[-117.37157,40.52017],[-117.3707,40.5201],[-117.36972,40.51995],[-117.36788,40.51976],[-117.36728,40.51968],[-117.36688,40.51965],[-117.36624,40.51957],[-117.36603,40.51955],[-117.36549,40.51954],[-117.36492,40.51941],[-117.36438,40.51934],[-117.36348,40.51926],[-117.36262,40.51921],[-117.36111,40.51903],[-117.36016,40.51895],[-117.35932,40.51886],[-117.35809,40.51871],[-117.35465,40.51837]]}},{"type":"Feature","properties":{"name":"(unnamed public road)","road_class":"track","surface":"unpaved","source":"OpenStreetMap","source_detail":"osm way 815126551","source_tile":"177/385"},"geometry":{"type":"LineString","coordinates":[[-117.44387,40.6641],[-117.44345,40.66411],[-117.44313,40.66419],[-117.44218,40.66454],[-117.4417,40.66468],[-117.44144,40.66478],[-117.44119,40.66491],[-117.44049,40.66514],[-117.44031,40.66518],[-117.43985,40.66524],[-117.43956,40.66532],[-117.43946,40.66537],[-117.43902,40.66567],[-117.43893,40.66578],[-117.43888,40.66596],[-117.43883,40.66603],[-117.43875,40.66607],[-117.43855,40.6661],[-117.43765,40.66628],[-117.43657,40.66658],[-117.4362,40.66667],[-117.43602,40.6667],[-117.43571,40.66668],[-117.43528,40.6666],[-117.43493,40.66662],[-117.43471,40.66677],[-117.43458,40.66695],[-117.43444,40.66701],[-117.43361,40.66706],[-117.4327,40.66715],[-117.43202,40.66716],[-117.43184,40.66719],[-117.43141,40.66731],[-117.43077,40.66741],[-117.42925,40.66779],[-117.42842,40.66815],[-117.42772,40.66855],[-117.42749,40.66862],[-117.42683,40.66874],[-117.42621,40.66905],[-117.42565,40.6694],[-117.42557,40.66944],[-117.42547,40.66954],[-117.42467,40.67007],[-117.4235,40.67055],[-117.42273,40.67094],[-117.42251,40.67116],[-117.42207,40.67154],[-117.42188,40.67164],[-117.4214,40.67179],[-117.42082,40.67209],[-117.42066,40.67214],[-117.42035,40.67221],[-117.42006,40.6723],[-117.4199,40.67238],[-117.41981,40.67245],[-117.41959,40.67269],[-117.41935,40.67283],[-117.4189,40.67302],[-117.4183,40.67322],[-117.41804,40.6733],[-117.41782,40.67333],[-117.41743,40.67336],[-117.41699,40.67342],[-117.41682,40.67343],[-117.41659,40.67343],[-117.41579,40.67336],[-117.41514,40.67337],[-117.41438,40.67348],[-117.41255,40.67364],[-117.41219,40.67367],[-117.41209,40.6737],[-117.41171,40.67372],[-117.41167,40.67374],[-117.41079,40.67388],[-117.41072,40.6739],[-117.41036,40.67395],[-117.40856,40.67445],[-117.40819,40.67454],[-117.40744,40.67467],[-117.40633,40.67492],[-117.40593,40.67497],[-117.40507,40.67504],[-117.40423,40.67521],[-117.40264,40.67571],[-117.40228,40.67576],[-117.40147,40.67582],[-117.40132,40.67585],[-117.39987,40.6764],[-117.39974,40.67649],[-117.3982,40.67695],[-117.3977,40.6772],[-117.39722,40.67751],[-117.39679,40.6779],[-117.39596,40.67855],[-117.39517,40.67893],[-117.39466,40.67915],[-117.39386,40.67957],[-117.39336,40.67974],[-117.39233,40.68017],[-117.39085,40.68063],[-117.39021,40.68082],[-117.38993,40.68094],[-117.38954,40.68119],[-117.38923,40.68129],[-117.38879,40.68147],[-117.38852,40.68154],[-117.38819,40.68156],[-117.38789,40.68162],[-117.38765,40.68169],[-117.38693,40.68191],[-117.38662,40.68205],[-117.38648,40.68211],[-117.38617,40.68241],[-117.38603,40.68251],[-117.38584,40.68257],[-117.38569,40.68265],[-117.38563,40.68274],[-117.38564,40.68292],[-117.38569,40.6831],[-117.38567,40.68317],[-117.38559,40.68327],[-117.38545,40.68331],[-117.38514,40.68336],[-117.38501,40.68343],[-117.3848,40.6836],[-117.38453,40.68384],[-117.38408,40.68414],[-117.38364,40.68449],[-117.38308,40.68483],[-117.38268,40.6851],[-117.38195,40.68577],[-117.38038,40.68664],[-117.38001,40.68681],[-117.37966,40.68695],[-117.37947,40.687],[-117.3791,40.68708],[-117.37834,40.6873],[-117.37794,40.68736],[-117.37699,40.68735],[-117.37627,40.6874],[-117.37549,40.68733],[-117.37499,40.68716],[-117.37453,40.68697],[-117.37409,40.68672],[-117.37373,40.68658],[-117.37345,40.68644],[-117.37327,40.68635],[-117.37294,40.68614],[-117.37278,40.68608],[-117.37252,40.68601],[-117.37124,40.68609],[-117.37115,40.68609],[-117.37012,40.68625],[-117.3697,40.68628],[-117.36941,40.68614],[-117.36926,40.6861],[-117.36883,40.68622],[-117.36813,40.68615],[-117.36775,40.68615],[-117.3672,40.68619],[-117.36677,40.68621],[-117.3658,40.68632],[-117.36545,40.68633],[-117.36497,40.68637],[-117.36462,40.68638],[-117.364,40.68647],[-117.36328,40.68656],[-117.36283,40.68665],[-117.36228,40.68681],[-117.36184,40.68688],[-117.36162,40.68689],[-117.36099,40.6868],[-117.3605,40.68682],[-117.36022,40.68679],[-117.35969,40.68678],[-117.35932,40.68671],[-117.35911,40.68666],[-117.35876,40.68662],[-117.35822,40.6866],[-117.35785,40.68657],[-117.35733,40.68659],[-117.35697,40.68651],[-117.35645,40.68647],[-117.35612,40.68642],[-117.35516,40.68608],[-117.35486,40.68601],[-117.35439,40.68588],[-117.35339,40.68552],[-117.35287,40.68532],[-117.35248,40.68525],[-117.35209,40.68521],[-117.35183,40.68518],[-117.3513,40.68501],[-117.34991,40.68475],[-117.34974,40.68484],[-117.34964,40.68492],[-117.34943,40.68498],[-117.34914,40.68502],[-117.34901,40.68503],[-117.34888,40.68501],[-117.34821,40.68482],[-117.348,40.68471],[-117.34743,40.68434],[-117.34727,40.68427],[-117.34712,40.68422],[-117.34676,40.68415],[-117.34633,40.68403],[-117.34598,40.68394],[-117.34497,40.68375],[-117.34478,40.68373],[-117.34436,40.68372],[-117.34427,40.68372],[-117.3441,40.68373],[-117.34348,40.68374],[-117.34225,40.6837],[-117.3413,40.68361],[-117.3407,40.6836],[-117.34013,40.68355],[-117.3397,40.68349],[-117.33942,40.68343],[-117.33934,40.68343],[-117.33873,40.68353],[-117.33818,40.68357],[-117.33795,40.68359],[-117.33685,40.68362],[-117.33651,40.68365],[-117.33586,40.68376],[-117.33399,40.68366],[-117.33315,40.68359],[-117.33258,40.68359],[-117.33086,40.68364],[-117.33018,40.68359],[-117.32995,40.68359],[-117.32952,40.68357],[-117.32876,40.68358],[-117.32833,40.68361],[-117.32813,40.68366],[-117.32794,40.68368],[-117.32669,40.68368],[-117.32615,40.68366],[-117.32551,40.68367],[-117.32513,40.68366],[-117.32273,40.68366],[-117.31894,40.68362],[-117.31855,40.68356],[-117.31843,40.68353],[-117.318,40.68347],[-117.31752,40.68345],[-117.31717,40.68345],[-117.31682,40.68342],[-117.31639,40.68344],[-117.3157,40.68343],[-117.31524,40.6834],[-117.31501,40.6834],[-117.31428,40.68334],[-117.31389,40.68329],[-117.31313,40.6833],[-117.31242,40.68327],[-117.31189,40.68327],[-117.31101,40.68322],[-117.31056,40.68315],[-117.3093,40.68307],[-117.30729,40.68306],[-117.30698,40.68308],[-117.30473,40.68307],[-117.30431,40.68306],[-117.30192,40.68307],[-117.30101,40.68314],[-117.29948,40.68305],[-117.2978,40.68309],[-117.29733,40.68314],[-117.29648,40.68314],[-117.29597,40.68317],[-117.29524,40.68315],[-117.29279,40.68315],[-117.29213,40.6831],[-117.29004,40.68309],[-117.28817,40.68314],[-117.28354,40.68314],[-117.28246,40.68318],[-117.28227,40.68322],[-117.28214,40.68329],[-117.28201,40.68347],[-117.2819,40.68353],[-117.28108,40.68351],[-117.281,40.68348]]}},{"type":"Feature","properties":{"name":"Smelser Pass Road","road_class":"unclassified","surface":"unpaved","source":"OpenStreetMap","source_detail":"osm way 815135187","source_tile":"177/385"},"geometry":{"type":"LineString","coordinates":[[-117.51877,40.64495],[-117.50018,40.65386],[-117.48172,40.66269],[-117.48124,40.66291],[-117.48094,40.66304],[-117.48077,40.66311],[-117.48009,40.6634],[-117.47941,40.66368],[-117.47523,40.66536],[-117.47511,40.6654],[-117.47499,40.66543],[-117.47488,40.66545],[-117.47476,40.66547],[-117.46996,40.66586],[-117.46713,40.6661],[-117.46701,40.6661],[-117.46689,40.6661],[-117.46678,40.66609],[-117.46667,40.66607],[-117.4623,40.66521],[-117.45652,40.66407],[-117.42632,40.65814],[-117.42106,40.65713],[-117.42076,40.65707],[-117.42046,40.657],[-117.42009,40.65691],[-117.41957,40.65678],[-117.41952,40.65676],[-117.41946,40.65674],[-117.4194,40.65672],[-117.41935,40.65669],[-117.41929,40.65667],[-117.41923,40.65666],[-117.41917,40.65665],[-117.4191,40.65664],[-117.41902,40.65663],[-117.41893,40.65661],[-117.41885,40.65659],[-117.41704,40.65616],[-117.41696,40.65614],[-117.41688,40.65612],[-117.41679,40.65609],[-117.41671,40.65605],[-117.41122,40.65322],[-117.3997,40.64727],[-117.38101,40.63774],[-117.35862,40.62632],[-117.35833,40.62617],[-117.35804,40.62602],[-117.35766,40.62581],[-117.35729,40.62559],[-117.34685,40.61939],[-117.34676,40.61934],[-117.34669,40.61928],[-117.34661,40.61922],[-117.34654,40.61915],[-117.34647,40.61908],[-117.34641,40.619],[-117.33745,40.60863],[-117.33421,40.60487],[-117.32691,40.59646],[-117.32415,40.5933],[-117.29004,40.55375],[-117.28847,40.55194],[-117.288,40.55139],[-117.28319,40.54571],[-117.27722,40.53951],[-117.27717,40.53947],[-117.2771,40.53942],[-117.27704,40.53939],[-117.27697,40.53936],[-117.26142,40.53469],[-117.26126,40.53464],[-117.26115,40.53461],[-117.26072,40.53448],[-117.25654,40.53321],[-117.22866,40.52491],[-117.22662,40.52429],[-117.22495,40.5238],[-117.17496,40.50882],[-117.17483,40.50879],[-117.1747,40.50876],[-117.17458,40.50875],[-117.17447,40.50874],[-117.17435,40.50874],[-117.17336,40.50877],[-117.17309,40.50879],[-117.17284,40.50882],[-117.17279,40.50882],[-117.17275,40.50881],[-117.1727,40.5088],[-117.17266,40.50879],[-117.17262,40.50876],[-117.17258,40.50874],[-117.1724,40.50851],[-117.17236,40.50846],[-117.17233,40.50841],[-117.17231,40.50835],[-117.17223,40.50811],[-117.17222,40.50808],[-117.17219,40.50805],[-117.17217,40.50803],[-117.17213,40.508],[-117.17209,40.50798],[-117.17205,40.50797],[-117.16991,40.5073],[-117.16985,40.50729],[-117.1698,40.50728],[-117.16975,40.50728],[-117.1697,40.50728]]}},{"type":"Feature","properties":{"name":"(unnamed public road)","road_class":"track","surface":"unpaved","source":"OpenStreetMap","source_detail":"osm way 815135189","source_tile":"177/385"},"geometry":{"type":"LineString","coordinates":[[-117.48831,40.68064],[-117.48804,40.68023],[-117.48743,40.67948],[-117.48608,40.67793],[-117.48536,40.67718],[-117.48494,40.6768],[-117.4838,40.67579],[-117.48342,40.67534],[-117.48271,40.67466],[-117.48235,40.67442],[-117.48207,40.67421],[-117.4816,40.67382],[-117.48114,40.67338],[-117.47989,40.67273],[-117.47943,40.67243],[-117.47906,40.67222],[-117.47877,40.67208],[-117.47792,40.67173],[-117.47721,40.67137],[-117.47714,40.67134],[-117.47639,40.67099],[-117.476,40.6708],[-117.47547,40.67064],[-117.47514,40.67056],[-117.4751,40.67056],[-117.47464,40.67046],[-117.47146,40.66962],[-117.47115,40.66953],[-117.47011,40.66918],[-117.46987,40.6691],[-117.46906,40.66877],[-117.46726,40.66814],[-117.46582,40.66771],[-117.46557,40.66765],[-117.46491,40.66763],[-117.46456,40.66757],[-117.46432,40.66749],[-117.46419,40.66747],[-117.46338,40.66723],[-117.46269,40.66696],[-117.46073,40.66635],[-117.4595,40.66602],[-117.45924,40.66594],[-117.45765,40.66538],[-117.4568,40.66525],[-117.45619,40.66515],[-117.45488,40.66489],[-117.45445,40.66477],[-117.45415,40.66468],[-117.45392,40.6647],[-117.45349,40.66478],[-117.4532,40.66482],[-117.45272,40.6648],[-117.45214,40.66466],[-117.45034,40.66449],[-117.44604,40.66439],[-117.44387,40.6641],[-117.44354,40.66401],[-117.44323,40.66395],[-117.4418,40.66382],[-117.44142,40.66377],[-117.4407,40.66361],[-117.44024,40.66352],[-117.43949,40.66345],[-117.43872,40.66334],[-117.43802,40.66327],[-117.43708,40.66318],[-117.43687,40.66314],[-117.43659,40.66306],[-117.43636,40.66303],[-117.43588,40.66301],[-117.43492,40.663],[-117.4347,40.66301],[-117.43444,40.66303],[-117.43427,40.66303],[-117.43351,40.66299],[-117.43255,40.66288],[-117.43222,40.66291],[-117.432,40.66291],[-117.43169,40.66287],[-117.43053,40.66269],[-117.42957,40.66258],[-117.4292,40.66247],[-117.42874,40.66235],[-117.42855,40.66231],[-117.42832,40.66224],[-117.42829,40.66219],[-117.42811,40.66199],[-117.42782,40.66159],[-117.42719,40.66091],[-117.42692,40.66038],[-117.42602,40.65998],[-117.42571,40.65995],[-117.42558,40.65996],[-117.42544,40.66],[-117.42526,40.66007],[-117.4244,40.66054],[-117.42392,40.66074],[-117.42261,40.66118],[-117.42188,40.66131],[-117.42103,40.66149],[-117.42064,40.66153],[-117.42043,40.66153],[-117.42016,40.66148],[-117.4199,40.6614],[-117.41979,40.66133],[-117.4197,40.66118],[-117.41958,40.66069],[-117.41944,40.65988],[-117.41942,40.65931],[-117.41938,40.65913],[-117.41931,40.65904],[-117.4192,40.65897],[-117.41883,40.65884],[-117.41871,40.65875],[-117.41864,40.65864],[-117.41858,40.65844],[-117.41849,40.65824],[-117.41812,40.65778],[-117.418,40.65766],[-117.4179,40.65758],[-117.41737,40.6573],[-117.41719,40.65715],[-117.41711,40.65697],[-117.41702,40.65652],[-117.41697,40.65635],[-117.41671,40.65605]]}},{"type":"Feature","properties":{"name":"(unnamed public road)","road_class":"track","source":"OpenStreetMap","source_detail":"osm way 815135190","source_tile":"177/385","surface_inferred":true},"geometry":{"type":"LineString","coordinates":[[-117.42832,40.66224],[-117.42802,40.66219],[-117.42715,40.66204],[-117.42491,40.66171],[-117.42332,40.66153],[-117.42154,40.66157],[-117.42064,40.66153]]}},{"type":"Feature","properties":{"name":"(unnamed public road)","road_class":"track","surface":"unpaved","source":"OpenStreetMap","source_detail":"osm way 870988491","source_tile":"177/385"},"geometry":{"type":"LineString","coordinates":[[-117.43762,40.45598],[-117.43751,40.45592],[-117.43679,40.45563],[-117.43609,40.4555],[-117.43568,40.45539],[-117.43475,40.45518],[-117.43309,40.4545],[-117.43194,40.45383],[-117.4309,40.45313],[-117.43066,40.45302],[-117.43013,40.45282],[-117.42894,40.45205],[-117.42881,40.45199],[-117.42839,40.45187],[-117.42791,40.4517],[-117.42738,40.45146],[-117.42714,40.45136],[-117.42698,40.45127],[-117.42653,40.45098],[-117.42534,40.45044],[-117.42306,40.44952],[-117.42256,40.44941],[-117.42191,40.449],[-117.42016,40.4482],[-117.41987,40.44804],[-117.41977,40.44796],[-117.4189,40.44695],[-117.41853,40.44653],[-117.418,40.44616],[-117.41708,40.44555],[-117.41666,40.44522],[-117.41543,40.44418],[-117.41524,40.44395],[-117.41506,40.4435],[-117.41492,40.44299],[-117.4146,40.4422],[-117.41435,40.44184],[-117.41426,40.44168],[-117.41416,40.44139],[-117.41403,40.44091],[-117.41394,40.44073],[-117.41382,40.44055],[-117.41363,40.44033],[-117.41305,40.43978],[-117.41277,40.43953],[-117.41271,40.43946],[-117.41261,40.43925],[-117.4124,40.439],[-117.41232,40.43892],[-117.41187,40.43865],[-117.41173,40.43853],[-117.4116,40.43838],[-117.41136,40.43806],[-117.41124,40.43794],[-117.41106,40.4378],[-117.41079,40.43768],[-117.41055,40.43755],[-117.41045,40.43747],[-117.41031,40.43733],[-117.41013,40.43709],[-117.41,40.43683],[-117.40984,40.43628],[-117.40967,40.4358],[-117.4095,40.4356],[-117.40907,40.43535],[-117.40894,40.43525],[-117.40872,40.43498],[-117.40842,40.43452],[-117.40828,40.43437],[-117.40763,40.43378]]}},{"type":"Feature","properties":{"name":"(unnamed public road)","road_class":"track","surface":"unpaved","source":"OpenStreetMap","source_detail":"osm way 870988493","source_tile":"177/385"},"geometry":{"type":"LineString","coordinates":[[-117.42911,40.45645],[-117.42905,40.45642],[-117.42874,40.45639],[-117.4284,40.4564],[-117.42679,40.45654],[-117.42653,40.45656],[-117.42538,40.4566],[-117.42381,40.45653],[-117.42323,40.45655],[-117.42188,40.45668],[-117.42066,40.45677],[-117.42001,40.45685],[-117.41876,40.45695],[-117.41835,40.45701],[-117.41815,40.45702],[-117.41788,40.457],[-117.41775,40.45694],[-117.41734,40.45672],[-117.41689,40.45651],[-117.41636,40.45632],[-117.41599,40.45611],[-117.41583,40.45603],[-117.41458,40.45555],[-117.41401,40.4553],[-117.41372,40.45519],[-117.41181,40.45469],[-117.40818,40.45387],[-117.40483,40.45307],[-117.4044,40.45292],[-117.40423,40.45289]]}},{"type":"Feature","properties":{"name":"(unnamed public road)","road_class":"track","surface":"unpaved","source":"OpenStreetMap","source_detail":"osm way 870988494","source_tile":"177/385"},"geometry":{"type":"LineString","coordinates":[[-117.44765,40.4893],[-117.44696,40.48938],[-117.4468,40.48947],[-117.44597,40.48954],[-117.4457,40.48954],[-117.44555,40.48956],[-117.44542,40.48954],[-117.44497,40.48939],[-117.44486,40.48934],[-117.44468,40.48929],[-117.44446,40.48918],[-117.44432,40.48914],[-117.44357,40.48914],[-117.44314,40.48911],[-117.44257,40.48905],[-117.44196,40.48902],[-117.4417,40.48903],[-117.44123,40.48907],[-117.44024,40.48909],[-117.44001,40.48906],[-117.43968,40.48901],[-117.43826,40.48869],[-117.43749,40.48839],[-117.43734,40.48832],[-117.4371,40.48819],[-117.43695,40.48812],[-117.4368,40.48807],[-117.43441,40.48754],[-117.43402,40.48747],[-117.43328,40.48738],[-117.43319,40.48734],[-117.43295,40.48718],[-117.43253,40.48709],[-117.43108,40.4866],[-117.43086,40.48655],[-117.42992,40.48653],[-117.42849,40.48639],[-117.42683,40.4863],[-117.42622,40.48625],[-117.42612,40.48626],[-117.42599,40.48623],[-117.42575,40.48623],[-117.42551,40.48621],[-117.42527,40.48617],[-117.4251,40.48617],[-117.42477,40.48613],[-117.42303,40.48605],[-117.42213,40.48593],[-117.42188,40.48592],[-117.41877,40.48583],[-117.41812,40.48578],[-117.41754,40.48576],[-117.4172,40.48573],[-117.41651,40.48569],[-117.41515,40.48567],[-117.41486,40.48563],[-117.41368,40.48551],[-117.41277,40.48545],[-117.41228,40.48544],[-117.41163,40.48552],[-117.41125,40.48555],[-117.41043,40.48555],[-117.41015,40.48552],[-117.40969,40.48551],[-117.40843,40.48551],[-117.40819,40.48549],[-117.40777,40.48553],[-117.40729,40.48554],[-117.40709,40.48552],[-117.40663,40.48544],[-117.40631,40.4854],[-117.40537,40.48538],[-117.40433,40.48524]]}},{"type":"Feature","properties":{"name":"(unnamed public road)","road_class":"track","surface":"unpaved","source":"OpenStreetMap","source_detail":"osm way 870988495","source_tile":"177/385"},"geometry":{"type":"LineString","coordinates":[[-117.44202,40.50826],[-117.44156,40.5083],[-117.44139,40.50827],[-117.43994,40.5075],[-117.43932,40.5072],[-117.43897,40.50693],[-117.43881,40.50684],[-117.43836,40.50664],[-117.43751,40.50633],[-117.4365,40.50591],[-117.43644,40.50585],[-117.43499,40.5052],[-117.43479,40.50497],[-117.43444,40.50442],[-117.4342,40.50393],[-117.43403,40.50353],[-117.43399,40.50338],[-117.43387,40.50317],[-117.43346,40.5027],[-117.43316,40.50241],[-117.43272,40.50206],[-117.43241,40.50186],[-117.43225,40.50178],[-117.43172,40.50155],[-117.43143,40.50143],[-117.43064,40.50115],[-117.42967,40.50074],[-117.42916,40.50051],[-117.42828,40.50005],[-117.42775,40.49979],[-117.4242,40.49827],[-117.42188,40.49727],[-117.42022,40.49659],[-117.41888,40.49595],[-117.4181,40.49562],[-117.4146,40.49431],[-117.41395,40.49402],[-117.41319,40.49372],[-117.41253,40.49349],[-117.41058,40.49275],[-117.40924,40.49227],[-117.40882,40.4922],[-117.40808,40.49209],[-117.40496,40.49161],[-117.40448,40.49157],[-117.4039,40.49154],[-117.40256,40.49145],[-117.39937,40.49122],[-117.39849,40.49112],[-117.39689,40.49102],[-117.39625,40.49092],[-117.39568,40.49089],[-117.39557,40.49086],[-117.39365,40.4905],[-117.39249,40.49018],[-117.39215,40.4901],[-117.39152,40.48998],[-117.39062,40.48979],[-117.39014,40.48971],[-117.38956,40.48958],[-117.38868,40.48935],[-117.38756,40.48914],[-117.38665,40.48899],[-117.38621,40.48894],[-117.38541,40.4888],[-117.38487,40.48864],[-117.38433,40.48852],[-117.38369,40.48834],[-117.38322,40.48823],[-117.38293,40.48818],[-117.38283,40.48815],[-117.38251,40.48799],[-117.38224,40.48789],[-117.38161,40.4876],[-117.3814,40.48754],[-117.38092,40.4874]]}},{"type":"Feature","properties":{"name":"(unnamed public road)","road_class":"track","surface":"unpaved","source":"OpenStreetMap","source_detail":"osm way 870990407","source_tile":"177/385"},"geometry":{"type":"LineString","coordinates":[[-117.41395,40.50109],[-117.41411,40.50083],[-117.4149,40.49983],[-117.41499,40.49966],[-117.41535,40.49916],[-117.41594,40.49842],[-117.41596,40.49837],[-117.41619,40.49809],[-117.4162,40.49806],[-117.41627,40.498],[-117.4164,40.4978],[-117.41697,40.49709],[-117.4181,40.49562],[-117.419,40.49447],[-117.41929,40.49401],[-117.41961,40.49363],[-117.41981,40.49344],[-117.41995,40.49317],[-117.42002,40.49301],[-117.4202,40.4924],[-117.42047,40.49159],[-117.42057,40.49121],[-117.42064,40.49107],[-117.42073,40.49081],[-117.42073,40.49073],[-117.4208,40.49058],[-117.42084,40.49029],[-117.42092,40.49008],[-117.42102,40.48963],[-117.42111,40.48934],[-117.42111,40.4893],[-117.42145,40.48839],[-117.42184,40.48705],[-117.42201,40.48646],[-117.42213,40.486],[-117.42213,40.48593],[-117.42252,40.48467],[-117.42271,40.48413],[-117.42296,40.48325],[-117.42344,40.48168],[-117.42368,40.4809],[-117.42385,40.48039],[-117.42414,40.47937],[-117.42458,40.47796],[-117.42477,40.47729],[-117.42532,40.47549],[-117.42568,40.47441],[-117.42611,40.47287],[-117.42615,40.47262],[-117.42632,40.4723],[-117.42643,40.4718],[-117.42662,40.47134],[-117.42668,40.47107]]}},{"type":"Feature","properties":{"name":"(unnamed public road)","road_class":"track","surface":"unpaved","source":"OpenStreetMap","source_detail":"osm way 1011856957","source_tile":"177/385"},"geometry":{"type":"LineString","coordinates":[[-117.4054,40.45702],[-117.40601,40.45737],[-117.40703,40.458],[-117.40745,40.45826],[-117.40817,40.45865],[-117.40871,40.459],[-117.4091,40.45918],[-117.40968,40.45938],[-117.41013,40.45956],[-117.41053,40.45974],[-117.41075,40.45987],[-117.41163,40.46047],[-117.41198,40.46074],[-117.41229,40.46101],[-117.41256,40.46121],[-117.41285,40.46138],[-117.41348,40.4617],[-117.41384,40.46192],[-117.41406,40.46207],[-117.41437,40.46232],[-117.41491,40.46283],[-117.41539,40.46312],[-117.41571,40.46336],[-117.41593,40.46356],[-117.41633,40.46398],[-117.41645,40.46407],[-117.41652,40.46411],[-117.41666,40.4642],[-117.41689,40.46428],[-117.41713,40.46432],[-117.41766,40.46437],[-117.41796,40.46439],[-117.41874,40.46447],[-117.41941,40.46457],[-117.41961,40.46462],[-117.41996,40.46477],[-117.42188,40.46526],[-117.42326,40.46552],[-117.42428,40.46579],[-117.42459,40.4659],[-117.4247,40.46595],[-117.42513,40.46629],[-117.42568,40.46667],[-117.42615,40.46703],[-117.42691,40.4675],[-117.42765,40.46788],[-117.42954,40.46895],[-117.42969,40.46901],[-117.42995,40.46908],[-117.43019,40.46913],[-117.43048,40.46915],[-117.43077,40.46915],[-117.43176,40.46909],[-117.43213,40.4691],[-117.43239,40.46912],[-117.43268,40.46918],[-117.43309,40.46928],[-117.43376,40.4695],[-117.43397,40.46955],[-117.43432,40.46966],[-117.43488,40.46986],[-117.43511,40.46988],[-117.43551,40.46988],[-117.43572,40.4699],[-117.43639,40.47005],[-117.43684,40.47013],[-117.43708,40.47021],[-117.4373,40.47029],[-117.43753,40.47035],[-117.43894,40.47036],[-117.43919,40.47038],[-117.43974,40.47047],[-117.43997,40.47054],[-117.44016,40.47062],[-117.44088,40.47107],[-117.44112,40.4713],[-117.44149,40.47159],[-117.44181,40.47189],[-117.44193,40.47197],[-117.44206,40.47202],[-117.44241,40.4721],[-117.44257,40.47216],[-117.44374,40.47274],[-117.44416,40.47298],[-117.44481,40.4735],[-117.44505,40.47365],[-117.44542,40.47385],[-117.44597,40.47407],[-117.44641,40.47431],[-117.44669,40.47444],[-117.44709,40.47466],[-117.44751,40.47492],[-117.44791,40.47524],[-117.44846,40.47561],[-117.44888,40.47586],[-117.44947,40.47616],[-117.44987,40.47642],[-117.45032,40.47668],[-117.45054,40.47679],[-117.45112,40.47704],[-117.45178,40.47737],[-117.45281,40.47824],[-117.4541,40.47955],[-117.45455,40.4799],[-117.45511,40.48054]]}},{"type":"Feature","properties":{"name":"(unnamed public road)","road_class":"track","source":"OpenStreetMap","source_detail":"osm way 1220613922","source_tile":"177/385","surface_inferred":true},"geometry":{"type":"LineString","coordinates":[[-117.41122,40.65322],[-117.41171,40.65267],[-117.41195,40.65247],[-117.41212,40.65223],[-117.41237,40.65184],[-117.41241,40.65175],[-117.41249,40.65147],[-117.41262,40.65115],[-117.41276,40.65059],[-117.41277,40.65048],[-117.41281,40.65037],[-117.41312,40.64997],[-117.41342,40.64952],[-117.41357,40.64933],[-117.41438,40.6485],[-117.41459,40.64824],[-117.4155,40.64731],[-117.41582,40.64694],[-117.41681,40.64622],[-117.41717,40.64591],[-117.41743,40.64567],[-117.4179,40.64534],[-117.41803,40.6452],[-117.41837,40.64468],[-117.41843,40.64461],[-117.41896,40.64429],[-117.41944,40.64383],[-117.41988,40.64366],[-117.42022,40.64365],[-117.42059,40.64368],[-117.42079,40.64368],[-117.42111,40.64365],[-117.4215,40.64351],[-117.42184,40.64324],[-117.42235,40.64266],[-117.42243,40.64247],[-117.42254,40.64214],[-117.42278,40.64184],[-117.42295,40.64156],[-117.42307,40.64109],[-117.42304,40.6403],[-117.42309,40.63999],[-117.42357,40.63945],[-117.42402,40.63911],[-117.42411,40.63901],[-117.42436,40.63871],[-117.42449,40.63851],[-117.42477,40.63818],[-117.42515,40.63789],[-117.42532,40.63786],[-117.42547,40.63782],[-117.42579,40.63765],[-117.42656,40.63713],[-117.42678,40.63696],[-117.42697,40.63678],[-117.42714,40.63658],[-117.42728,40.63636],[-117.42736,40.6362],[-117.42742,40.63599],[-117.42745,40.6358],[-117.42744,40.63548],[-117.4274,40.63536],[-117.42697,40.6349],[-117.42658,40.63476],[-117.42665,40.63446],[-117.42684,40.63419],[-117.42693,40.6341],[-117.42703,40.63406],[-117.42742,40.63393],[-117.42753,40.63386],[-117.42767,40.63373],[-117.42806,40.63323],[-117.42859,40.63267],[-117.42899,40.63218],[-117.42928,40.63171],[-117.42953,40.63108],[-117.42964,40.63086],[-117.42992,40.63048],[-117.43019,40.63023],[-117.43054,40.63013],[-117.43095,40.63016],[-117.43104,40.63012],[-117.43115,40.62998],[-117.43127,40.6296],[-117.43127,40.62951],[-117.43116,40.62932],[-117.4309,40.62927],[-117.43016,40.62923],[-117.42983,40.62905],[-117.42928,40.62855],[-117.42924,40.62841],[-117.42907,40.6283],[-117.42875,40.62817],[-117.42856,40.62811],[-117.42824,40.62806],[-117.42779,40.62795],[-117.42741,40.62773],[-117.42722,40.62769],[-117.42704,40.62776],[-117.42676,40.62798],[-117.42642,40.62806],[-117.42599,40.62827],[-117.42589,40.62836],[-117.42573,40.62845],[-117.42538,40.62854],[-117.42499,40.62862],[-117.42457,40.62864],[-117.42409,40.62871],[-117.42361,40.62882],[-117.42188,40.62898],[-117.42018,40.62879],[-117.42004,40.62876],[-117.41985,40.6287],[-117.41966,40.62867],[-117.41946,40.62869],[-117.41905,40.62875],[-117.41884,40.62875],[-117.41865,40.62872],[-117.41839,40.62877],[-117.4182,40.62878],[-117.41797,40.62877],[-117.41741,40.62869],[-117.41711,40.62868],[-117.41684,40.62871],[-117.41647,40.62883],[-117.41639,40.62884],[-117.41594,40.62883],[-117.41582,40.62885],[-117.41542,40.62898],[-117.41524,40.62906],[-117.41499,40.62919],[-117.41485,40.62924],[-117.41466,40.62928],[-117.41451,40.62928],[-117.41442,40.62926],[-117.4143,40.6292],[-117.414,40.62893],[-117.41358,40.62848],[-117.41336,40.62831],[-117.41301,40.62808],[-117.41286,40.62795],[-117.4126,40.62757],[-117.41257,40.62746],[-117.41255,40.62722],[-117.41247,40.62699],[-117.41236,40.62691],[-117.41205,40.62677],[-117.41178,40.62661],[-117.4112,40.62618],[-117.41106,40.62604],[-117.41108,40.62582],[-117.41112,40.62566],[-117.41116,40.62559],[-117.41126,40.62549],[-117.41149,40.62537],[-117.41155,40.62525],[-117.41157,40.62516],[-117.41161,40.62505],[-117.41176,40.62489],[-117.41179,40.6248],[-117.41191,40.62464],[-117.41196,40.62452],[-117.41201,40.62433],[-117.41199,40.62376],[-117.41201,40.6237],[-117.41222,40.6234],[-117.41232,40.62314],[-117.4125,40.62306]]}},{"type":"Feature","properties":{"name":"(unnamed public road)","road_class":"track","source":"OpenStreetMap","source_detail":"osm way 1220613925","source_tile":"177/385","surface_inferred":true},"geometry":{"type":"LineString","coordinates":[[-117.42822,40.62624],[-117.42768,40.62627],[-117.42644,40.62657],[-117.4258,40.6267],[-117.42528,40.62678],[-117.42494,40.6268],[-117.42469,40.62679],[-117.42394,40.62667],[-117.42335,40.62656],[-117.42301,40.62648],[-117.4228,40.62637],[-117.42241,40.62606],[-117.42228,40.62592],[-117.42189,40.62508],[-117.42179,40.62489],[-117.42172,40.62383],[-117.42159,40.62355],[-117.42149,40.6232],[-117.42144,40.62308],[-117.42123,40.6228],[-117.42083,40.62241],[-117.42066,40.62229],[-117.42018,40.6221],[-117.4197,40.62196],[-117.41949,40.62184],[-117.41933,40.6217],[-117.41927,40.62158],[-117.41925,40.62148],[-117.41932,40.62082],[-117.41926,40.62046],[-117.41912,40.62001],[-117.41906,40.61989],[-117.41899,40.61979],[-117.41867,40.61948],[-117.41829,40.61903],[-117.41809,40.61886],[-117.41761,40.61855],[-117.41726,40.61825],[-117.41681,40.618],[-117.41649,40.61787],[-117.41638,40.61782],[-117.41623,40.61766],[-117.41601,40.6175],[-117.41524,40.61682],[-117.41501,40.61668],[-117.41483,40.6165],[-117.41441,40.61622],[-117.41434,40.61618],[-117.41418,40.61612],[-117.414,40.61609],[-117.41383,40.61604],[-117.41357,40.61594],[-117.41327,40.61579],[-117.41295,40.61566],[-117.41215,40.61518],[-117.41199,40.61512],[-117.41189,40.61506],[-117.41158,40.61478],[-117.41119,40.61437],[-117.41094,40.61396]]}}]}