{"type":"FeatureCollection","features":[{"type":"Feature","properties":{"name":"(unnamed public road)","road_class":"track","surface":"unpaved","source":"OpenStreetMap","source_detail":"osm way 14332262","source_tile":"177/389"},"geometry":{"type":"LineString","coordinates":[[-117.40796,39.61617],[-117.40841,39.61637],[-117.40878,39.61652],[-117.41017,39.61701],[-117.4108,39.61739],[-117.41381,39.61979],[-117.41568,39.62169],[-117.4158,39.62194],[-117.41805,39.62451],[-117.41841,39.62492],[-117.4189,39.62531],[-117.41973,39.62541],[-117.42103,39.62539],[-117.42213,39.6253],[-117.42278,39.62532],[-117.42364,39.62542],[-117.42453,39.6258],[-117.42565,39.62656],[-117.42601,39.62672],[-117.4266,39.62679],[-117.42787,39.6267],[-117.42968,39.62642],[-117.43132,39.62646],[-117.43162,39.62684],[-117.43212,39.62727],[-117.43274,39.62804],[-117.433,39.6291],[-117.43323,39.6298],[-117.43356,39.63026],[-117.43487,39.63151],[-117.43503,39.63191],[-117.43509,39.6323],[-117.43493,39.63264],[-117.43494,39.63302],[-117.43475,39.63362],[-117.43483,39.63378],[-117.43503,39.63389],[-117.4353,39.63393],[-117.43606,39.63368],[-117.43733,39.63354],[-117.43832,39.63373],[-117.44027,39.63449],[-117.44075,39.63459],[-117.44108,39.63479],[-117.44171,39.63494],[-117.44202,39.63511],[-117.44383,39.63562],[-117.44483,39.63599],[-117.4451,39.63618],[-117.44569,39.63652],[-117.44589,39.63674],[-117.44654,39.63727],[-117.44682,39.63751],[-117.44721,39.63765],[-117.44823,39.63819],[-117.44849,39.63847],[-117.44874,39.63858],[-117.44907,39.63871],[-117.44914,39.63878],[-117.44909,39.63891],[-117.449,39.63914],[-117.44905,39.6393],[-117.44917,39.63942],[-117.44935,39.63949],[-117.45012,39.63971],[-117.45104,39.6404],[-117.45149,39.64086],[-117.45199,39.64095],[-117.45284,39.64078],[-117.4533,39.64041],[-117.45414,39.64016],[-117.45444,39.63996],[-117.45461,39.63978],[-117.45492,39.6397],[-117.45533,39.63972],[-117.45561,39.63986],[-117.45587,39.63998],[-117.45617,39.64003],[-117.45639,39.64006],[-117.45656,39.64016],[-117.4567,39.64046],[-117.45682,39.64072],[-117.45723,39.64091],[-117.45767,39.64094],[-117.4579,39.64099],[-117.45843,39.64138],[-117.45916,39.64204],[-117.45938,39.64244],[-117.45976,39.64255],[-117.46021,39.64313],[-117.46043,39.64329],[-117.46097,39.64353],[-117.46108,39.64367],[-117.46119,39.6438],[-117.46241,39.64414],[-117.46344,39.6447],[-117.46376,39.64482],[-117.46446,39.64508],[-117.46488,39.64514],[-117.46677,39.64581],[-117.4673,39.6462],[-117.46738,39.64634],[-117.46741,39.6465],[-117.46757,39.64711],[-117.46773,39.64737],[-117.46787,39.64754],[-117.46803,39.6479],[-117.46863,39.6486],[-117.46877,39.64878],[-117.46917,39.64951],[-117.46944,39.64976],[-117.46974,39.65013],[-117.46986,39.65018],[-117.46997,39.65017],[-117.47066,39.65],[-117.47121,39.64983],[-117.47144,39.6498],[-117.47175,39.64984],[-117.47224,39.65001],[-117.47291,39.65044],[-117.47327,39.65073],[-117.47389,39.6514],[-117.47428,39.65192],[-117.47457,39.65222],[-117.47521,39.65251],[-117.4753,39.65254],[-117.4754,39.65258],[-117.47574,39.65264],[-117.476,39.6527],[-117.47619,39.65266],[-117.47708,39.65226],[-117.47768,39.65187],[-117.47807,39.6517],[-117.47858,39.65157],[-117.47904,39.65159],[-117.47914,39.65155],[-117.47961,39.65115],[-117.47986,39.65095],[-117.48014,39.65067],[-117.48039,39.65033],[-117.48068,39.64987],[-117.48073,39.64976],[-117.48072,39.64971],[-117.48066,39.64969],[-117.48045,39.64966],[-117.48034,39.64961],[-117.48032,39.64952],[-117.48036,39.64943],[-117.48045,39.64929],[-117.48057,39.64915],[-117.48082,39.64899],[-117.48109,39.64875],[-117.48147,39.64855],[-117.48161,39.64843],[-117.4818,39.64821],[-117.48184,39.64812],[-117.48179,39.64795],[-117.4818,39.64789],[-117.48182,39.64786],[-117.482,39.64776],[-117.48221,39.64766],[-117.48257,39.64753],[-117.4832,39.64721],[-117.48328,39.64719],[-117.48365,39.64712],[-117.48435,39.6469],[-117.48465,39.64647],[-117.48474,39.64641],[-117.48486,39.64637]]}},{"type":"Feature","properties":{"name":"(unnamed public road)","road_class":"track","surface":"unpaved","source":"OpenStreetMap","source_detail":"osm way 869946510","source_tile":"177/389"},"geometry":{"type":"LineString","coordinates":[[-117.49335,39.55132],[-117.49269,39.55109],[-117.49225,39.55092],[-117.49192,39.551],[-117.49159,39.55104],[-117.49121,39.5512],[-117.49075,39.5513],[-117.49066,39.55131],[-117.49062,39.55132],[-117.49046,39.55134],[-117.49036,39.55131],[-117.4902,39.55125],[-117.48963,39.55091],[-117.48939,39.55083],[-117.48907,39.55067],[-117.48885,39.5506],[-117.48861,39.5506],[-117.48824,39.55057],[-117.48803,39.55057],[-117.48769,39.5506],[-117.48697,39.5506],[-117.48642,39.55057],[-117.48606,39.55057],[-117.4852,39.55062],[-117.48496,39.55061],[-117.48326,39.55062],[-117.48309,39.5506],[-117.483,39.55061],[-117.48268,39.55056],[-117.48253,39.55056],[-117.48167,39.55062],[-117.4812,39.55071],[-117.48096,39.55072],[-117.48055,39.55068],[-117.48009,39.55065],[-117.47967,39.5506],[-117.47944,39.55058],[-117.4792,39.5506],[-117.47834,39.5507],[-117.47754,39.55069],[-117.47706,39.5507],[-117.47668,39.55066],[-117.47525,39.5507],[-117.4746,39.55069],[-117.47405,39.55074],[-117.47263,39.55079],[-117.47078,39.55079],[-117.46967,39.55082],[-117.46582,39.55084],[-117.45954,39.55093],[-117.45895,39.55093],[-117.45698,39.55101],[-117.45663,39.55096],[-117.45465,39.55096],[-117.45401,39.55099],[-117.45342,39.55099],[-117.45282,39.55102],[-117.45211,39.55103],[-117.45164,39.55106],[-117.45126,39.55106],[-117.45097,39.55103],[-117.45015,39.55103],[-117.44953,39.55106],[-117.44891,39.55106],[-117.44742,39.55115],[-117.4462,39.55109],[-117.44539,39.55109],[-117.44431,39.55115],[-117.4431,39.55118],[-117.44134,39.55126],[-117.44038,39.55121],[-117.4383,39.55125],[-117.43668,39.55122],[-117.43516,39.55126],[-117.43426,39.55129],[-117.43377,39.55123],[-117.43142,39.55125],[-117.43025,39.55124],[-117.42974,39.55125],[-117.42894,39.55129],[-117.42846,39.55135],[-117.42803,39.55137],[-117.42737,39.55133],[-117.42588,39.55142],[-117.42456,39.55141],[-117.42379,39.55132],[-117.42271,39.55126],[-117.42242,39.55122],[-117.42188,39.55136],[-117.42145,39.55144],[-117.42074,39.55142],[-117.41999,39.55142],[-117.41936,39.55139],[-117.41883,39.55131],[-117.41861,39.55125],[-117.41843,39.55123],[-117.41825,39.55125],[-117.4179,39.55134],[-117.41767,39.55138],[-117.41617,39.55141],[-117.41504,39.55142],[-117.41477,39.55141],[-117.41428,39.55134],[-117.41367,39.5514],[-117.41247,39.55141],[-117.41109,39.55141],[-117.41034,39.55146],[-117.40872,39.55149],[-117.40742,39.55144],[-117.40721,39.55143],[-117.40681,39.55137],[-117.40405,39.55153],[-117.40314,39.55148],[-117.40181,39.55158],[-117.40135,39.55156],[-117.40082,39.55148],[-117.40059,39.55147],[-117.40004,39.55151],[-117.39937,39.5516],[-117.39854,39.55176],[-117.39808,39.55174],[-117.39744,39.55178],[-117.39632,39.55178],[-117.39592,39.55171],[-117.39501,39.55162],[-117.39443,39.55164],[-117.39425,39.55166],[-117.39335,39.55163],[-117.39304,39.55158],[-117.39253,39.55141],[-117.39242,39.55139],[-117.39217,39.55136],[-117.39193,39.55135],[-117.39161,39.55137],[-117.39132,39.55143],[-117.3906,39.55165],[-117.39036,39.5517],[-117.38955,39.55196],[-117.38934,39.552],[-117.38911,39.552],[-117.3888,39.55197],[-117.38858,39.55192],[-117.38829,39.55182],[-117.38809,39.55169],[-117.388,39.55162],[-117.38784,39.55138],[-117.38776,39.55131],[-117.38767,39.55127],[-117.38744,39.55124],[-117.3873,39.55127],[-117.38723,39.55131],[-117.38717,39.55136],[-117.38715,39.55141],[-117.38713,39.55151],[-117.38719,39.55188],[-117.38718,39.55206],[-117.38708,39.55232],[-117.38699,39.55249],[-117.3869,39.55261],[-117.38666,39.55285],[-117.38623,39.55315],[-117.3859,39.55347],[-117.38571,39.55362],[-117.38547,39.55378],[-117.38531,39.55386],[-117.38515,39.55383],[-117.38499,39.55367],[-117.38492,39.55335],[-117.38491,39.55281],[-117.3849,39.55247],[-117.3848,39.55213],[-117.38447,39.55154],[-117.3844,39.55146],[-117.38425,39.55132],[-117.38403,39.55116],[-117.38387,39.55107],[-117.38379,39.55105],[-117.38371,39.55108],[-117.3836,39.55118],[-117.38346,39.55122],[-117.38331,39.55124],[-117.38273,39.55115],[-117.37921,39.55093],[-117.37794,39.55084],[-117.37735,39.55075],[-117.37646,39.55071],[-117.37568,39.55073],[-117.37533,39.55069],[-117.37483,39.55057],[-117.37415,39.55049],[-117.37313,39.55044],[-117.37267,39.55046],[-117.37235,39.55044],[-117.3714,39.55033],[-117.3709,39.5503],[-117.36995,39.55021],[-117.36924,39.5502],[-117.36843,39.5501],[-117.36751,39.55003],[-117.36696,39.54995],[-117.36589,39.54989],[-117.36571,39.55004],[-117.36567,39.5501],[-117.36541,39.55029],[-117.36534,39.55034],[-117.36518,39.55052],[-117.36488,39.55076],[-117.36468,39.55086],[-117.36418,39.55113],[-117.36357,39.55134],[-117.36351,39.55139]]}},{"type":"Feature","properties":{"name":"(unnamed public road)","road_class":"unclassified","surface":"unpaved","source":"OpenStreetMap","source_detail":"osm way 869951742","source_tile":"177/389"},"geometry":{"type":"LineString","coordinates":[[-117.45342,39.53331],[-117.45334,39.53345],[-117.45327,39.5335],[-117.45319,39.53355],[-117.453,39.53359],[-117.45266,39.53365],[-117.45101,39.53396],[-117.45039,39.53406],[-117.45017,39.53412],[-117.45001,39.53418],[-117.44973,39.53434],[-117.44819,39.53537],[-117.44649,39.53656],[-117.44625,39.53673],[-117.44501,39.53721],[-117.44472,39.53734],[-117.44452,39.53744],[-117.44432,39.53756],[-117.44409,39.53781],[-117.44388,39.53805],[-117.44331,39.53868],[-117.44275,39.53924],[-117.44208,39.54002],[-117.44118,39.541],[-117.44074,39.54151],[-117.43899,39.54323],[-117.43857,39.5436],[-117.43849,39.5437],[-117.43844,39.54374],[-117.43818,39.54396],[-117.43725,39.54484],[-117.43538,39.54675],[-117.43472,39.54748],[-117.43418,39.54804],[-117.43142,39.55125],[-117.43105,39.5518],[-117.43068,39.5523],[-117.43058,39.55234],[-117.43034,39.55246],[-117.4302,39.55252],[-117.42977,39.55279],[-117.42586,39.55523],[-117.425,39.55573],[-117.42484,39.55588],[-117.42478,39.55601],[-117.42476,39.55615],[-117.42498,39.55985],[-117.42504,39.56086],[-117.4248,39.56119],[-117.42469,39.56143],[-117.42462,39.5617],[-117.42459,39.56188],[-117.42461,39.56217],[-117.42464,39.56231],[-117.42488,39.56306],[-117.42502,39.56357],[-117.42523,39.56465],[-117.42554,39.56549],[-117.4259,39.56608],[-117.42608,39.56643],[-117.42567,39.56705],[-117.42509,39.56771],[-117.42477,39.56818],[-117.42419,39.56914],[-117.42402,39.56937],[-117.42284,39.57081],[-117.42264,39.57112],[-117.42245,39.57146],[-117.42219,39.57182],[-117.42175,39.57239],[-117.4213,39.5728],[-117.42108,39.57315],[-117.42087,39.57356],[-117.42047,39.57425],[-117.42027,39.57463],[-117.42008,39.57514],[-117.41978,39.57583],[-117.41967,39.57614],[-117.41953,39.57671],[-117.41937,39.57716],[-117.41926,39.57735],[-117.41881,39.57794],[-117.41874,39.57807],[-117.41858,39.57847],[-117.41832,39.57891],[-117.41788,39.57978],[-117.41766,39.58008],[-117.41749,39.58023],[-117.41736,39.58031],[-117.41669,39.58067],[-117.41651,39.58072],[-117.41626,39.58076],[-117.41609,39.58081],[-117.41598,39.58086],[-117.41584,39.58097],[-117.41578,39.58107],[-117.41573,39.58124],[-117.41579,39.58171],[-117.41577,39.58183],[-117.41573,39.58191],[-117.41539,39.58239],[-117.41517,39.58276],[-117.41502,39.58292],[-117.41436,39.58338],[-117.41409,39.5836],[-117.41388,39.58382],[-117.41367,39.58411],[-117.4136,39.58425],[-117.41357,39.58439],[-117.41361,39.58528],[-117.41367,39.58557],[-117.41386,39.58608],[-117.41399,39.58685],[-117.41397,39.58758],[-117.41392,39.58793],[-117.41374,39.58863],[-117.41364,39.58893],[-117.41346,39.5894],[-117.41324,39.59018],[-117.4132,39.59048],[-117.41324,39.59082],[-117.41301,39.59149],[-117.41256,39.59236],[-117.41226,39.59296],[-117.41204,39.59332],[-117.41192,39.59358],[-117.41168,39.59424],[-117.41145,39.59512],[-117.41141,39.59548],[-117.41137,39.59564],[-117.41132,39.59571],[-117.41106,39.59587],[-117.41093,39.596],[-117.41045,39.59696],[-117.40993,39.59779],[-117.40884,39.59937],[-117.40876,39.59958],[-117.40868,39.59982],[-117.40858,39.60057],[-117.40849,39.60084],[-117.40825,39.60127],[-117.40783,39.60198],[-117.40761,39.6024],[-117.40722,39.60295],[-117.40682,39.60358],[-117.40646,39.60403],[-117.40619,39.60449],[-117.40606,39.60483],[-117.40593,39.60501],[-117.40558,39.60541],[-117.40546,39.60569],[-117.40527,39.60694],[-117.40529,39.60788],[-117.40533,39.60826],[-117.40543,39.60856],[-117.40542,39.60906],[-117.40524,39.60947],[-117.40527,39.60975],[-117.40535,39.61012],[-117.4055,39.61036],[-117.40625,39.61101]]}},{"type":"Feature","properties":{"name":"(unnamed public road)","road_class":"track","surface":"unpaved","source":"OpenStreetMap","source_detail":"osm way 869951747","source_tile":"177/389"},"geometry":{"type":"LineString","coordinates":[[-117.41324,39.59082],[-117.41335,39.59092],[-117.41363,39.59133],[-117.41418,39.59177],[-117.41446,39.59203],[-117.41464,39.59222],[-117.41473,39.59235],[-117.41499,39.59289],[-117.41504,39.59297],[-117.41552,39.59353],[-117.41584,39.59396],[-117.41602,39.59416],[-117.41681,39.59492],[-117.41719,39.59533],[-117.41731,39.5955],[-117.41768,39.59662],[-117.41784,39.59727],[-117.41796,39.59749],[-117.41834,39.59799],[-117.41848,39.59833],[-117.41867,39.59867],[-117.41913,39.60002],[-117.41949,39.60091],[-117.42008,39.60317],[-117.42012,39.60349],[-117.42009,39.60384],[-117.42009,39.60431],[-117.42032,39.6053],[-117.42052,39.60569],[-117.4206,39.60589],[-117.42107,39.6079],[-117.42106,39.60802],[-117.42095,39.60841],[-117.42105,39.6088],[-117.42131,39.60985],[-117.42154,39.61037],[-117.4218,39.61111],[-117.42192,39.61174],[-117.42212,39.61254],[-117.42237,39.61312],[-117.42241,39.61338],[-117.42233,39.61356],[-117.42229,39.61374],[-117.42229,39.61438],[-117.42225,39.61444]]}},{"type":"Feature","properties":{"name":"(unnamed public road)","road_class":"track","surface":"unpaved","source":"OpenStreetMap","source_detail":"osm way 869951749","source_tile":"177/389"},"geometry":{"type":"LineString","coordinates":[[-117.43132,39.62646],[-117.43139,39.62618],[-117.43117,39.62577],[-117.43113,39.62574],[-117.43107,39.62564],[-117.43093,39.62551],[-117.43069,39.62531],[-117.4303,39.62504],[-117.43027,39.625],[-117.4302,39.62496],[-117.43006,39.62483],[-117.43,39.62472],[-117.42991,39.62445],[-117.42985,39.62433],[-117.42968,39.62415],[-117.42926,39.62347],[-117.42881,39.62297],[-117.42865,39.62277],[-117.42854,39.62256],[-117.42844,39.62228],[-117.42832,39.62162],[-117.42824,39.62147],[-117.42796,39.62109],[-117.42748,39.62054],[-117.42705,39.62017],[-117.42692,39.62003],[-117.4267,39.61964],[-117.42661,39.61952],[-117.42649,39.61945],[-117.42615,39.61928],[-117.42599,39.61919],[-117.42571,39.61897],[-117.4255,39.61884],[-117.4252,39.61857],[-117.42506,39.6184],[-117.42493,39.61816],[-117.42477,39.61801],[-117.42468,39.61785],[-117.42383,39.61675],[-117.42329,39.61586],[-117.42328,39.61582],[-117.42311,39.61559],[-117.42278,39.61496],[-117.42225,39.61444],[-117.42218,39.61441],[-117.42185,39.61418],[-117.42092,39.61342],[-117.42009,39.61289],[-117.41953,39.6126],[-117.41914,39.61236],[-117.41898,39.6122],[-117.41881,39.61196],[-117.41872,39.61177],[-117.41865,39.61143],[-117.41866,39.61124],[-117.41864,39.61114],[-117.41864,39.61082],[-117.41867,39.61025],[-117.41865,39.60965],[-117.41861,39.60934],[-117.41852,39.60906],[-117.41842,39.60884],[-117.4183,39.60865],[-117.41808,39.60811],[-117.41788,39.60774],[-117.41645,39.60569],[-117.41408,39.60248],[-117.41377,39.60184],[-117.41343,39.60122],[-117.41334,39.60093],[-117.41328,39.60081],[-117.41268,39.5999],[-117.41242,39.59961],[-117.41214,39.59937],[-117.41204,39.5993],[-117.40993,39.59779],[-117.40922,39.59732],[-117.40906,39.59721],[-117.40876,39.597],[-117.40868,39.59695],[-117.40816,39.59663],[-117.40706,39.59601],[-117.40663,39.59578],[-117.40653,39.59574],[-117.4065,39.59571],[-117.40642,39.59568],[-117.4055,39.5952],[-117.40445,39.59463],[-117.40266,39.59372],[-117.4024,39.5936],[-117.40221,39.59349],[-117.40211,39.59341],[-117.402,39.5933],[-117.4019,39.59317],[-117.4017,39.59282],[-117.40143,39.59246],[-117.40063,39.59132],[-117.40052,39.5912],[-117.40034,39.59106],[-117.40021,39.59099],[-117.40001,39.59091],[-117.39948,39.59078],[-117.39877,39.59067],[-117.39782,39.59047],[-117.39732,39.5904],[-117.39669,39.59044],[-117.39571,39.59043],[-117.39553,39.59044],[-117.39466,39.59045],[-117.3939,39.5904],[-117.3932,39.59033],[-117.39221,39.5902],[-117.39147,39.59007],[-117.39103,39.58999],[-117.3907,39.58994],[-117.38941,39.5897],[-117.38899,39.58964],[-117.38871,39.58957],[-117.38862,39.58957],[-117.38668,39.58912],[-117.38626,39.58904],[-117.38612,39.58902],[-117.38452,39.58868],[-117.38423,39.5886],[-117.38384,39.58856],[-117.38341,39.58846],[-117.38214,39.58823],[-117.38065,39.5879],[-117.38023,39.58775],[-117.37894,39.58758],[-117.37815,39.58745],[-117.37766,39.58732],[-117.37559,39.58717],[-117.37524,39.58712],[-117.37476,39.58708],[-117.37106,39.58711],[-117.37058,39.5871],[-117.36964,39.58714],[-117.3694,39.58717],[-117.36776,39.58727],[-117.36588,39.58744],[-117.36292,39.58782],[-117.3615,39.58807],[-117.36109,39.58826],[-117.35977,39.58908],[-117.35804,39.58996],[-117.35752,39.59025],[-117.35668,39.59076],[-117.35528,39.59174],[-117.35416,39.59262],[-117.3539,39.59278],[-117.35368,39.59294],[-117.35209,39.59376],[-117.3511,39.59431],[-117.3495,39.59508],[-117.34899,39.59534],[-117.34823,39.59575],[-117.34756,39.59603],[-117.34678,39.59631],[-117.34494,39.59704],[-117.34481,39.59707],[-117.34468,39.59707],[-117.34277,39.59656],[-117.34205,39.59639],[-117.34168,39.59632],[-117.34158,39.59634],[-117.3411,39.59647],[-117.33921,39.5969],[-117.33852,39.59709],[-117.33802,39.5973],[-117.33732,39.59737],[-117.33691,39.59747]]}},{"type":"Feature","properties":{"name":"(unnamed public road)","road_class":"unclassified","surface":"unpaved","source":"OpenStreetMap","source_detail":"osm way 869951750","source_tile":"177/389"},"geometry":{"type":"LineString","coordinates":[[-117.31676,39.65428],[-117.31841,39.65255],[-117.319,39.65191],[-117.31911,39.65174],[-117.31917,39.65151],[-117.31924,39.65141],[-117.31944,39.65127],[-117.31978,39.65109],[-117.31997,39.65095],[-117.32009,39.65075],[-117.32056,39.65005],[-117.32092,39.64954],[-117.32114,39.64918],[-117.32124,39.64893],[-117.32128,39.64873],[-117.32126,39.64849],[-117.32112,39.64775],[-117.32099,39.64737],[-117.32097,39.64724],[-117.32097,39.64707],[-117.32133,39.64516],[-117.32136,39.64493],[-117.32136,39.64445],[-117.32138,39.64426],[-117.32153,39.64371],[-117.32155,39.64355],[-117.32153,39.64323],[-117.32154,39.64279],[-117.32156,39.64244],[-117.32162,39.64187],[-117.32162,39.64164],[-117.32155,39.64088],[-117.32155,39.64067],[-117.32159,39.64021],[-117.32161,39.64012],[-117.32162,39.63989],[-117.32155,39.63954],[-117.32152,39.6393],[-117.32158,39.63911],[-117.32197,39.63834],[-117.32224,39.63789],[-117.32276,39.63727],[-117.32311,39.63692],[-117.32337,39.6367],[-117.32404,39.63621],[-117.32426,39.63601],[-117.32432,39.63598],[-117.32462,39.63576],[-117.32553,39.63531],[-117.32592,39.63508],[-117.32637,39.6347],[-117.32685,39.63437],[-117.32706,39.63421],[-117.3283,39.63308],[-117.32889,39.63262],[-117.32922,39.63229],[-117.32939,39.63207],[-117.32954,39.63178],[-117.32965,39.63164],[-117.32994,39.63141],[-117.33033,39.63114],[-117.33044,39.63104],[-117.3305,39.63094],[-117.3306,39.63069],[-117.33075,39.63046],[-117.33084,39.63036],[-117.33116,39.63006],[-117.33178,39.62959],[-117.33187,39.62949],[-117.33206,39.62917],[-117.33239,39.6288],[-117.33369,39.62753],[-117.33395,39.62735],[-117.33434,39.62722],[-117.33455,39.62718],[-117.33485,39.62717],[-117.33501,39.62714],[-117.33522,39.62704],[-117.33535,39.62694],[-117.3354,39.62692],[-117.33548,39.62685],[-117.33636,39.62626],[-117.33734,39.6255],[-117.3378,39.62509],[-117.338,39.62494],[-117.33923,39.62411],[-117.34008,39.62336],[-117.34111,39.62262],[-117.34196,39.62207],[-117.34457,39.62048],[-117.34565,39.61985],[-117.34669,39.61926],[-117.34744,39.61888],[-117.34838,39.61847],[-117.34921,39.61816],[-117.34977,39.61794],[-117.35076,39.61749],[-117.35105,39.61733],[-117.3512,39.61722],[-117.35175,39.61675],[-117.35199,39.61656],[-117.35311,39.61594],[-117.35404,39.6153],[-117.35543,39.61438],[-117.3556,39.61425],[-117.35575,39.61411],[-117.35583,39.61401],[-117.35626,39.61331],[-117.35647,39.61302],[-117.35673,39.61278],[-117.35716,39.61244],[-117.35816,39.61145],[-117.35851,39.61114],[-117.35963,39.61037],[-117.36008,39.61002],[-117.36032,39.60982],[-117.36053,39.60966],[-117.36093,39.60946],[-117.36184,39.60903],[-117.362,39.60897],[-117.36227,39.60891],[-117.36332,39.60873],[-117.36487,39.60844],[-117.36593,39.60826],[-117.36695,39.60806],[-117.36717,39.60804],[-117.36752,39.60809],[-117.36772,39.60821],[-117.36785,39.60829],[-117.36821,39.60835],[-117.36856,39.60838],[-117.36885,39.60835],[-117.36906,39.60829],[-117.36973,39.608],[-117.3701,39.60779],[-117.37094,39.60713],[-117.37102,39.60703],[-117.3715,39.60656],[-117.37151,39.60651],[-117.37159,39.60643],[-117.37168,39.60569],[-117.37179,39.60508],[-117.372,39.60465],[-117.37226,39.60422],[-117.37267,39.60343],[-117.37275,39.60323],[-117.37276,39.60312],[-117.37275,39.60298],[-117.37267,39.60277],[-117.37254,39.60259],[-117.3722,39.60219],[-117.37207,39.602],[-117.37177,39.60132],[-117.37144,39.60068],[-117.37134,39.60043],[-117.37129,39.60029],[-117.37125,39.60011],[-117.3712,39.59961],[-117.37104,39.59883],[-117.37103,39.59859],[-117.37106,39.59815],[-117.37148,39.5963],[-117.37154,39.59592],[-117.37158,39.59521],[-117.37182,39.5943],[-117.37186,39.59413],[-117.3719,39.59391],[-117.37188,39.59386],[-117.37245,39.59214],[-117.37338,39.59011],[-117.37426,39.58852],[-117.3746,39.58801],[-117.37559,39.58717],[-117.37622,39.58667],[-117.37797,39.5847],[-117.37831,39.58437],[-117.38017,39.58288],[-117.38078,39.58241],[-117.38083,39.58238],[-117.38186,39.58155],[-117.3825,39.58101],[-117.38405,39.57975],[-117.38503,39.57892],[-117.38669,39.57757],[-117.38679,39.57749],[-117.38689,39.57742],[-117.3884,39.57615],[-117.3891,39.57549],[-117.3895,39.57508],[-117.38989,39.57461],[-117.39039,39.57397],[-117.39253,39.57183],[-117.3934,39.57097],[-117.39468,39.56982],[-117.3958,39.56901],[-117.39652,39.56859],[-117.39799,39.5681],[-117.39904,39.56772],[-117.40019,39.56728],[-117.4026,39.56638],[-117.40393,39.56587],[-117.40617,39.56504],[-117.41543,39.56152],[-117.4158,39.56141],[-117.41646,39.56125],[-117.42188,39.56036],[-117.42328,39.56014],[-117.42498,39.55985]]}},{"type":"Feature","properties":{"name":"(unnamed public road)","road_class":"track","surface":"unpaved","source":"OpenStreetMap","source_detail":"osm way 873368170","source_tile":"177/389"},"geometry":{"type":"LineString","coordinates":[[-117.43058,39.55386],[-117.43037,39.5536],[-117.42977,39.55279],[-117.42952,39.55242],[-117.42948,39.55236],[-117.42935,39.55216],[-117.42929,39.55204],[-117.42894,39.55129],[-117.42742,39.54806],[-117.42699,39.54744],[-117.42688,39.54732],[-117.42684,39.54725],[-117.42678,39.54683],[-117.4267,39.5466],[-117.42661,39.54644],[-117.42644,39.5462],[-117.42615,39.54578],[-117.42591,39.54531],[-117.42567,39.54492],[-117.4253,39.54446],[-117.42477,39.54374],[-117.42447,39.54336],[-117.42368,39.54227],[-117.42351,39.54208],[-117.42337,39.54187],[-117.42298,39.54115],[-117.42258,39.54052],[-117.42188,39.53969],[-117.42102,39.53884],[-117.42061,39.53849],[-117.42007,39.53797],[-117.41951,39.53738],[-117.41858,39.53609],[-117.41849,39.5359],[-117.41799,39.53527],[-117.4178,39.53506],[-117.41682,39.53421],[-117.4162,39.53375],[-117.41583,39.53339],[-117.41547,39.53307],[-117.41526,39.53286],[-117.41495,39.53258],[-117.41473,39.53236],[-117.41406,39.53159],[-117.41354,39.5309],[-117.41297,39.53031],[-117.41245,39.52973],[-117.41202,39.52933],[-117.41185,39.52912],[-117.41156,39.5287],[-117.41138,39.52849],[-117.41114,39.52825],[-117.41083,39.52799],[-117.41067,39.52782],[-117.41036,39.52735],[-117.41006,39.52684],[-117.4094,39.52562],[-117.40923,39.52527],[-117.40892,39.52452],[-117.4088,39.52415],[-117.40874,39.52379],[-117.40869,39.52365],[-117.40827,39.52291],[-117.40777,39.52183],[-117.40768,39.52138],[-117.40766,39.52117],[-117.40762,39.521],[-117.40757,39.52091],[-117.40748,39.52082],[-117.40733,39.5207],[-117.4072,39.52057],[-117.40712,39.52048],[-117.40707,39.5204],[-117.40707,39.52032],[-117.40711,39.52024],[-117.40717,39.52015]]}},{"type":"Feature","properties":{"name":"(unnamed public road)","road_class":"track","surface":"unpaved","source":"OpenStreetMap","source_detail":"osm way 934906677","source_tile":"177/389"},"geometry":{"type":"LineString","coordinates":[[-117.47454,39.47926],[-117.47326,39.47996],[-117.47193,39.48064],[-117.4706,39.48141],[-117.46956,39.48236],[-117.46866,39.48308],[-117.4658,39.48529],[-117.46329,39.48721],[-117.46109,39.48896],[-117.46009,39.48973],[-117.45873,39.49082],[-117.45637,39.49267],[-117.45546,39.49338],[-117.45488,39.49387],[-117.45388,39.49474],[-117.44991,39.498],[-117.44981,39.49808],[-117.44972,39.49814],[-117.4491,39.49866],[-117.449,39.49873],[-117.4477,39.49977],[-117.4475,39.49992],[-117.44718,39.50017],[-117.4465,39.50073],[-117.44274,39.50372],[-117.44232,39.50406],[-117.43884,39.50689],[-117.43876,39.50694],[-117.43777,39.5078],[-117.4375,39.50801],[-117.43747,39.50804],[-117.43701,39.50841],[-117.43668,39.50871],[-117.4365,39.50885],[-117.43643,39.50889],[-117.43627,39.50903],[-117.43523,39.50985],[-117.43482,39.51018],[-117.4345,39.51041],[-117.43311,39.5115],[-117.43251,39.51192],[-117.43151,39.51268],[-117.43077,39.51321],[-117.43012,39.51371],[-117.42986,39.51395],[-117.42955,39.5142],[-117.42891,39.51455],[-117.4286,39.5147],[-117.42855,39.51471],[-117.42816,39.51487],[-117.42796,39.51498],[-117.42706,39.51573],[-117.42629,39.51716],[-117.42536,39.5197],[-117.42515,39.52011],[-117.42488,39.52039],[-117.42465,39.52074],[-117.42431,39.5213],[-117.42421,39.52153],[-117.42404,39.52218],[-117.42393,39.52249],[-117.42374,39.52275],[-117.42347,39.52329],[-117.42325,39.52355],[-117.42279,39.524],[-117.42245,39.52415],[-117.42207,39.52432],[-117.42181,39.52449]]}},{"type":"Feature","properties":{"name":"Old Overland Road","road_class":"unclassified","surface":"unpaved","source":"OpenStreetMap","source_detail":"osm way 1305455025","source_tile":"177/390"},"geometry":{"type":"LineString","coordinates":[[-117.46386,39.3691],[-117.46373,39.36902],[-117.45503,39.36165],[-117.45453,39.36112],[-117.45441,39.3611],[-117.44731,39.3551],[-117.44713,39.35481],[-117.44687,39.35471],[-117.44627,39.35421],[-117.44583,39.35401],[-117.44465,39.35403],[-117.44405,39.35409],[-117.43829,39.35471],[-117.4238,39.35609],[-117.42311,39.35615],[-117.41898,39.35648],[-117.41844,39.3567],[-117.41797,39.35705],[-117.41656,39.35771],[-117.41539,39.35802],[-117.41473,39.35823],[-117.41409,39.35837],[-117.4136,39.35836],[-117.41295,39.35829],[-117.41238,39.35829],[-117.41181,39.3584],[-117.41006,39.35912],[-117.40961,39.35926],[-117.40917,39.35931],[-117.40869,39.35931],[-117.40783,39.35927],[-117.4065,39.35923],[-117.40553,39.35935]]}}]}