{"type":"FeatureCollection","features":[{"type":"Feature","properties":{"name":"Old Overland Road","road_class":"unclassified","surface":"unpaved","source":"OpenStreetMap","source_detail":"osm way 1305455025","source_tile":"177/390"},"geometry":{"type":"LineString","coordinates":[[-117.46386,39.3691],[-117.46373,39.36902],[-117.45503,39.36165],[-117.45453,39.36112],[-117.45441,39.3611],[-117.44731,39.3551],[-117.44713,39.35481],[-117.44687,39.35471],[-117.44627,39.35421],[-117.44583,39.35401],[-117.44465,39.35403],[-117.44405,39.35409],[-117.43829,39.35471],[-117.4238,39.35609],[-117.42311,39.35615],[-117.41898,39.35648],[-117.41844,39.3567],[-117.41797,39.35705],[-117.41656,39.35771],[-117.41539,39.35802],[-117.41473,39.35823],[-117.41409,39.35837],[-117.4136,39.35836],[-117.41295,39.35829],[-117.41238,39.35829],[-117.41181,39.3584],[-117.41006,39.35912],[-117.40961,39.35926],[-117.40917,39.35931],[-117.40869,39.35931],[-117.40783,39.35927],[-117.4065,39.35923],[-117.40553,39.35935]]}},{"type":"Feature","properties":{"name":"(unnamed public road)","road_class":"track","surface":"unpaved","source":"OpenStreetMap","source_detail":"osm way 14331316","source_tile":"177/390"},"geometry":{"type":"LineString","coordinates":[[-117.466,39.28216],[-117.46573,39.28195],[-117.46426,39.28202],[-117.46314,39.28166],[-117.45737,39.27694],[-117.45596,39.27554],[-117.45589,39.27548],[-117.45321,39.27335],[-117.45064,39.27106],[-117.4477,39.2686],[-117.44522,39.26648],[-117.43942,39.26149],[-117.43852,39.26072],[-117.43797,39.26027],[-117.43431,39.25689],[-117.43321,39.25617],[-117.43101,39.25401],[-117.42816,39.25103],[-117.4273,39.25039],[-117.42641,39.24993],[-117.42561,39.24978],[-117.42485,39.24954],[-117.42414,39.24955],[-117.42364,39.24968],[-117.42188,39.25029],[-117.42073,39.25067],[-117.41618,39.25213],[-117.41554,39.25242]]}},{"type":"Feature","properties":{"name":"Elkhorn Road","road_class":"unclassified","surface":"gravel","source":"OpenStreetMap","source_detail":"osm way 14335714","source_tile":"177/390"},"geometry":{"type":"LineString","coordinates":[[-117.33573,39.22541],[-117.33688,39.22605],[-117.33768,39.22642],[-117.3383,39.22673],[-117.33877,39.2268],[-117.33992,39.22674],[-117.34098,39.22669],[-117.3417,39.22668],[-117.34205,39.22683],[-117.34218,39.22699],[-117.34267,39.22746],[-117.34347,39.22839],[-117.34391,39.22872],[-117.3448,39.2291],[-117.34705,39.22996],[-117.34786,39.23035],[-117.3487,39.23136],[-117.34927,39.23168],[-117.35044,39.23239],[-117.3509,39.23252],[-117.352,39.23274],[-117.35401,39.23342],[-117.35445,39.23363],[-117.35511,39.23408],[-117.35613,39.23505],[-117.35652,39.23542],[-117.35672,39.23559],[-117.35721,39.23581],[-117.35771,39.23588],[-117.35849,39.23574],[-117.36144,39.23513],[-117.36214,39.23502],[-117.3626,39.23506],[-117.363,39.23516],[-117.36475,39.23567],[-117.36558,39.23607],[-117.36788,39.23774],[-117.36844,39.23807],[-117.36879,39.23814],[-117.36918,39.23814],[-117.36996,39.23809],[-117.37129,39.23819],[-117.37251,39.23862],[-117.373,39.23909],[-117.37373,39.24021],[-117.37406,39.24072],[-117.37447,39.24099],[-117.37597,39.24154],[-117.37706,39.24194],[-117.37727,39.24201],[-117.37738,39.24206],[-117.37742,39.24207],[-117.37873,39.24258],[-117.37901,39.24273],[-117.37924,39.2429],[-117.38046,39.24474],[-117.3806,39.24522],[-117.38075,39.24644],[-117.38092,39.24687],[-117.38108,39.24719],[-117.38144,39.2475],[-117.38183,39.24777],[-117.39478,39.25424],[-117.40636,39.26007],[-117.4069,39.26033],[-117.40757,39.26067],[-117.40814,39.26097],[-117.4085,39.2612],[-117.40877,39.26145],[-117.40895,39.26171],[-117.40918,39.26199],[-117.40941,39.26225],[-117.40973,39.26268],[-117.41011,39.26318],[-117.4107,39.26397],[-117.4113,39.26477],[-117.41172,39.26532],[-117.41213,39.26587],[-117.41233,39.26611],[-117.41258,39.26635],[-117.41276,39.26648],[-117.41297,39.26658],[-117.41311,39.26662],[-117.41328,39.26664],[-117.41353,39.26667],[-117.41384,39.26668],[-117.4144,39.26672],[-117.41494,39.26674],[-117.41638,39.26681],[-117.4175,39.26685],[-117.41865,39.26689],[-117.41916,39.2669],[-117.41954,39.26688],[-117.41994,39.2668],[-117.42045,39.26665],[-117.42076,39.26663],[-117.42104,39.26661],[-117.42143,39.26667],[-117.42237,39.26694],[-117.4235,39.2673],[-117.42406,39.26753],[-117.42428,39.26766],[-117.42447,39.26786],[-117.42463,39.26809],[-117.42472,39.2683],[-117.42475,39.26848],[-117.42475,39.26871],[-117.42473,39.26925],[-117.42469,39.2699],[-117.42467,39.27029],[-117.42468,39.27087],[-117.42466,39.27121],[-117.42464,39.27144],[-117.42463,39.27164],[-117.42468,39.2718],[-117.42472,39.27191],[-117.42484,39.27221],[-117.42503,39.27255],[-117.42517,39.27281],[-117.42535,39.27314],[-117.42557,39.27353],[-117.4258,39.27394],[-117.42591,39.27405],[-117.42602,39.27416],[-117.42629,39.27432],[-117.42662,39.27448],[-117.42706,39.27461],[-117.42751,39.2747],[-117.42829,39.27484],[-117.42887,39.27497],[-117.42904,39.27503],[-117.42923,39.27512],[-117.42951,39.27529],[-117.43011,39.2757],[-117.43085,39.27611],[-117.43135,39.27647],[-117.43156,39.2766],[-117.43171,39.27673],[-117.43187,39.27691],[-117.4322,39.2773],[-117.43264,39.27785],[-117.4332,39.27853],[-117.43378,39.27927],[-117.43462,39.28026],[-117.43525,39.28101],[-117.43596,39.28181],[-117.43663,39.28255],[-117.43724,39.28328],[-117.43775,39.2839],[-117.43838,39.28463],[-117.43896,39.28533],[-117.43912,39.28552],[-117.43943,39.2859],[-117.43984,39.28633],[-117.44018,39.28683],[-117.44074,39.2875],[-117.44125,39.2881],[-117.44188,39.28885],[-117.44236,39.28944],[-117.44283,39.29001],[-117.44333,39.29059],[-117.44371,39.29104],[-117.44398,39.29136],[-117.44423,39.29154],[-117.44458,39.2918],[-117.44501,39.29206],[-117.44571,39.29243],[-117.4466,39.29286],[-117.44755,39.29332],[-117.4483,39.2937],[-117.44916,39.29413],[-117.4498,39.29447]]}},{"type":"Feature","properties":{"name":"(unnamed public road)","road_class":"track","surface":"unpaved","source":"OpenStreetMap","source_detail":"osm way 415313248","source_tile":"177/390"},"geometry":{"type":"LineString","coordinates":[[-117.39736,39.09745],[-117.3974,39.09764],[-117.39723,39.09803],[-117.39719,39.09817],[-117.39718,39.09831],[-117.39721,39.09845],[-117.39726,39.09856],[-117.39737,39.09872],[-117.39749,39.09887],[-117.3976,39.09897],[-117.39773,39.09905],[-117.39787,39.09913],[-117.398,39.0992],[-117.39801,39.09921],[-117.39808,39.09926],[-117.39823,39.09934],[-117.39844,39.09944],[-117.39861,39.09955],[-117.3988,39.09968],[-117.39914,39.09993],[-117.39928,39.10004],[-117.3996,39.10026],[-117.40003,39.10054],[-117.40017,39.10062],[-117.40035,39.10071],[-117.40061,39.10083],[-117.40075,39.10091],[-117.40105,39.10107],[-117.4012,39.10114],[-117.40145,39.10125],[-117.40181,39.10139],[-117.40199,39.10149],[-117.40214,39.10159],[-117.40222,39.10167],[-117.40231,39.10175],[-117.40238,39.10184],[-117.40253,39.10196],[-117.40268,39.1021],[-117.40279,39.10222],[-117.40304,39.10263],[-117.40326,39.103],[-117.40335,39.10317],[-117.40346,39.10337],[-117.40361,39.10361],[-117.40379,39.10385],[-117.4039,39.10396],[-117.404,39.10404],[-117.40413,39.10412],[-117.40437,39.10422],[-117.40453,39.10428],[-117.40466,39.10436],[-117.40472,39.10441],[-117.40476,39.10444],[-117.40487,39.10456],[-117.40497,39.10468],[-117.40505,39.10475],[-117.40519,39.10483],[-117.40536,39.10493],[-117.40557,39.10503],[-117.40568,39.10511],[-117.40582,39.10526],[-117.40598,39.10537],[-117.40613,39.10546],[-117.40639,39.10557],[-117.40655,39.10562],[-117.40677,39.10566],[-117.40711,39.1057],[-117.40746,39.10573],[-117.40771,39.10577],[-117.40786,39.10581],[-117.40798,39.10586],[-117.40817,39.10596],[-117.40844,39.10612],[-117.40855,39.10617],[-117.40872,39.10623],[-117.40913,39.10634],[-117.40923,39.10637],[-117.40943,39.10646],[-117.40958,39.10652],[-117.40984,39.10659],[-117.41016,39.10668],[-117.41051,39.10676],[-117.41072,39.10683],[-117.41101,39.10694],[-117.41141,39.10707],[-117.41178,39.10718],[-117.41185,39.1072],[-117.41204,39.10726],[-117.4123,39.10733],[-117.41247,39.10738],[-117.41256,39.10741],[-117.41299,39.10763],[-117.41326,39.10776],[-117.41348,39.10784],[-117.41363,39.1079],[-117.41415,39.1081],[-117.41431,39.10816],[-117.41462,39.10831],[-117.41469,39.10835],[-117.41481,39.10839],[-117.41486,39.10843],[-117.4149,39.10848],[-117.41494,39.10857],[-117.41502,39.10863],[-117.41505,39.10866],[-117.4152,39.10876],[-117.41546,39.10892],[-117.41562,39.109],[-117.41581,39.1091],[-117.4161,39.10926],[-117.41649,39.10946],[-117.41665,39.10954],[-117.41678,39.10959],[-117.41707,39.10968],[-117.41744,39.1098],[-117.41826,39.10988],[-117.41929,39.11007],[-117.42002,39.11018],[-117.42042,39.11028],[-117.42083,39.11035],[-117.42188,39.11061],[-117.4225,39.11081],[-117.42282,39.11113],[-117.42288,39.11115],[-117.42297,39.11115],[-117.42316,39.1111],[-117.42337,39.11115],[-117.4236,39.11122],[-117.42387,39.11118],[-117.42422,39.11131],[-117.42464,39.11139],[-117.42492,39.11153],[-117.42506,39.1117],[-117.4251,39.11196],[-117.42564,39.11229],[-117.42606,39.11246],[-117.42632,39.11261],[-117.42668,39.11273],[-117.42733,39.11315],[-117.42794,39.11349],[-117.42837,39.11381],[-117.42855,39.114],[-117.42901,39.11415],[-117.42926,39.11446],[-117.42945,39.11482],[-117.42972,39.11509],[-117.42996,39.1152],[-117.43006,39.11536],[-117.43018,39.11561],[-117.43039,39.11587],[-117.43054,39.11599],[-117.43075,39.11604],[-117.43089,39.11619],[-117.43094,39.11633],[-117.43101,39.1165],[-117.43121,39.11671],[-117.43129,39.1169],[-117.43142,39.11699],[-117.43153,39.11709],[-117.43167,39.11715],[-117.43174,39.11726],[-117.43189,39.11743],[-117.43213,39.11761],[-117.43232,39.11773],[-117.43245,39.11789],[-117.4326,39.11812],[-117.4327,39.11837],[-117.43272,39.11859],[-117.43269,39.11883],[-117.43263,39.11903],[-117.4325,39.11919],[-117.43237,39.11937],[-117.4323,39.11945],[-117.43228,39.11953],[-117.4323,39.11961],[-117.43235,39.11975],[-117.4324,39.12004],[-117.43247,39.12056],[-117.43248,39.12074],[-117.43254,39.1209],[-117.43276,39.12118],[-117.43285,39.12139],[-117.43287,39.12151],[-117.43291,39.1217],[-117.43296,39.12184],[-117.43305,39.12197],[-117.43313,39.12211],[-117.43326,39.1223],[-117.43343,39.12245],[-117.43357,39.12256],[-117.43379,39.12272],[-117.43391,39.12288],[-117.43408,39.1231],[-117.43425,39.12335],[-117.43442,39.12354],[-117.43458,39.12367],[-117.43477,39.12385],[-117.43485,39.12392],[-117.43488,39.12407],[-117.43487,39.12427],[-117.43484,39.12462],[-117.43486,39.12473],[-117.43496,39.12491],[-117.43505,39.12513],[-117.43508,39.12537],[-117.43512,39.12559],[-117.43518,39.12574],[-117.43529,39.12601],[-117.43531,39.12607],[-117.43522,39.12618],[-117.43518,39.12625],[-117.4352,39.12634],[-117.43531,39.12667],[-117.43534,39.12679],[-117.43528,39.12689],[-117.43522,39.12697],[-117.43505,39.1271],[-117.43497,39.1272],[-117.4348,39.12737],[-117.43468,39.12747],[-117.43455,39.12767],[-117.43437,39.12789],[-117.4342,39.12812],[-117.43412,39.12826],[-117.43398,39.12854],[-117.43385,39.12888],[-117.43372,39.12913],[-117.43353,39.12941],[-117.43345,39.12957],[-117.43338,39.13003],[-117.43342,39.13028],[-117.43346,39.1305],[-117.43353,39.13087],[-117.43356,39.13118],[-117.43358,39.13154],[-117.43355,39.13194],[-117.43348,39.1322],[-117.43334,39.13242],[-117.43329,39.13258],[-117.43332,39.13277],[-117.43337,39.13287],[-117.43337,39.133],[-117.43339,39.13327],[-117.4334,39.13355],[-117.43348,39.13378],[-117.43357,39.13404],[-117.43355,39.13429],[-117.43351,39.1346],[-117.43346,39.13483],[-117.43337,39.13499],[-117.4332,39.13534],[-117.43309,39.13553],[-117.43304,39.1357],[-117.43302,39.13583],[-117.43305,39.13614],[-117.43311,39.13636],[-117.43323,39.13652],[-117.43336,39.13663],[-117.4334,39.13672],[-117.43337,39.13686],[-117.4332,39.13701],[-117.43313,39.1372],[-117.43313,39.13738],[-117.43324,39.13755],[-117.43325,39.13769],[-117.43317,39.13781],[-117.43307,39.13795],[-117.433,39.13814],[-117.43291,39.13834],[-117.43289,39.13842],[-117.43284,39.13873],[-117.43269,39.13908],[-117.43254,39.13945],[-117.43234,39.14023],[-117.43221,39.14046],[-117.43199,39.14064],[-117.43168,39.14097],[-117.43142,39.14129],[-117.43121,39.14163],[-117.43117,39.14196],[-117.43113,39.1424],[-117.43091,39.14277],[-117.43068,39.14316],[-117.43055,39.14356],[-117.43048,39.14414],[-117.43051,39.14464],[-117.43066,39.14511],[-117.43082,39.14523],[-117.4311,39.14543],[-117.43121,39.14574],[-117.43126,39.14612],[-117.43134,39.14645],[-117.43149,39.14677],[-117.43164,39.14691],[-117.432,39.14705],[-117.43232,39.14735],[-117.43266,39.14781],[-117.43331,39.14866],[-117.43352,39.149],[-117.43386,39.14932],[-117.43404,39.14972],[-117.43401,39.15001],[-117.43404,39.15023],[-117.43392,39.15054],[-117.43391,39.15081],[-117.43408,39.15106],[-117.434,39.15131],[-117.434,39.15157],[-117.43394,39.1518],[-117.43395,39.15196],[-117.43388,39.15222],[-117.4338,39.15259],[-117.43389,39.15302],[-117.43388,39.15341],[-117.43406,39.15391],[-117.43418,39.15423],[-117.43454,39.15474],[-117.43511,39.15513],[-117.43532,39.15528],[-117.43582,39.15546],[-117.43611,39.15563],[-117.43636,39.15592],[-117.4367,39.15613],[-117.4369,39.15655],[-117.43719,39.157],[-117.43721,39.15752],[-117.43743,39.15794],[-117.43762,39.15825],[-117.43806,39.15867],[-117.43835,39.15921],[-117.43856,39.15984],[-117.43887,39.16017],[-117.43893,39.16025],[-117.43901,39.16033],[-117.43914,39.16041],[-117.43933,39.1605],[-117.43948,39.16055],[-117.43959,39.16062],[-117.43979,39.16067],[-117.44007,39.16069],[-117.44015,39.16071],[-117.4402,39.16075],[-117.44019,39.1608],[-117.44002,39.16112],[-117.43997,39.16117],[-117.43965,39.16136],[-117.43952,39.16147],[-117.43945,39.16158],[-117.43936,39.16179],[-117.43899,39.1622],[-117.43875,39.16262],[-117.43895,39.16276],[-117.43916,39.16277],[-117.43986,39.1627],[-117.44031,39.1626],[-117.44091,39.16259],[-117.44144,39.16261],[-117.44214,39.16272],[-117.44245,39.16282],[-117.44343,39.16306],[-117.44375,39.16311],[-117.4439,39.1631],[-117.44439,39.16293],[-117.44517,39.16282],[-117.44553,39.16273],[-117.44582,39.16257],[-117.44616,39.16243],[-117.44645,39.16223],[-117.44673,39.16207],[-117.4468,39.16199],[-117.44698,39.16155],[-117.44719,39.16118],[-117.44739,39.16057],[-117.44765,39.15994],[-117.44772,39.15926],[-117.44784,39.15901]]}},{"type":"Feature","properties":{"name":"(unnamed public road)","road_class":"track","surface":"unpaved","source":"OpenStreetMap","source_detail":"osm way 951810683","source_tile":"177/390"},"geometry":{"type":"LineString","coordinates":[[-117.3575,39.15069],[-117.35817,39.15069],[-117.35906,39.1506],[-117.35924,39.15058],[-117.35958,39.15058],[-117.36014,39.15073],[-117.36065,39.15082],[-117.36129,39.15098],[-117.3618,39.15114],[-117.36218,39.15129],[-117.36249,39.15146],[-117.36303,39.15181],[-117.3632,39.15189],[-117.36378,39.15215],[-117.36421,39.15231],[-117.36458,39.15247],[-117.36471,39.1525],[-117.36524,39.15258],[-117.36545,39.15263],[-117.36563,39.15269],[-117.36607,39.15291],[-117.3664,39.15301],[-117.36698,39.15316],[-117.36746,39.15331],[-117.36841,39.15367],[-117.37023,39.15417],[-117.37058,39.15424],[-117.37095,39.15427],[-117.37119,39.15431],[-117.3715,39.15439],[-117.37184,39.15449],[-117.372,39.15453],[-117.3723,39.15452],[-117.37249,39.15452],[-117.37334,39.15464],[-117.37391,39.15463],[-117.37458,39.1547],[-117.37533,39.15474],[-117.37548,39.15478],[-117.37574,39.15488],[-117.37584,39.1549],[-117.37642,39.15499],[-117.37704,39.15507],[-117.37734,39.15509],[-117.37772,39.15497],[-117.37799,39.15494],[-117.37819,39.15499],[-117.37865,39.15514],[-117.379,39.15518],[-117.37929,39.1552],[-117.37958,39.15532],[-117.37988,39.15559],[-117.38004,39.15572],[-117.38058,39.156],[-117.3809,39.15616],[-117.38114,39.1563],[-117.38173,39.15654],[-117.38229,39.15686],[-117.38256,39.157],[-117.38277,39.15708],[-117.38299,39.15714],[-117.38343,39.15724],[-117.3838,39.15727],[-117.38395,39.15728],[-117.38444,39.15724],[-117.38471,39.15726],[-117.38488,39.15723],[-117.38525,39.15716],[-117.3858,39.15716],[-117.3863,39.15722],[-117.3868,39.15734],[-117.38753,39.15749],[-117.3882,39.15773],[-117.38837,39.15784],[-117.38881,39.15812],[-117.38897,39.15828],[-117.38906,39.15838],[-117.38936,39.15848],[-117.38987,39.1586],[-117.39012,39.1587],[-117.39043,39.15884],[-117.39078,39.15913],[-117.39113,39.15929],[-117.39137,39.15933],[-117.39153,39.15937],[-117.39188,39.15956],[-117.39227,39.15981],[-117.39241,39.15992],[-117.39254,39.16001],[-117.39267,39.16006],[-117.39275,39.16011],[-117.39284,39.16024],[-117.39291,39.1603],[-117.39301,39.1603],[-117.39321,39.1603],[-117.3933,39.1603],[-117.39342,39.16034],[-117.39351,39.16035],[-117.39364,39.16036],[-117.39373,39.16038],[-117.39383,39.16047],[-117.39398,39.1605],[-117.39421,39.16048],[-117.39428,39.16049],[-117.39447,39.16057],[-117.39449,39.16057],[-117.39473,39.16061],[-117.39484,39.16066],[-117.39505,39.16072],[-117.39509,39.16075],[-117.39522,39.16089],[-117.39532,39.16096],[-117.39543,39.161],[-117.39562,39.16105],[-117.39568,39.16109],[-117.39575,39.16117],[-117.39595,39.16134],[-117.39616,39.1613],[-117.39643,39.16128],[-117.39695,39.1613],[-117.39734,39.16132],[-117.39772,39.1614],[-117.39804,39.16154],[-117.39828,39.16158],[-117.39869,39.16165],[-117.39925,39.16185],[-117.39975,39.16195],[-117.39997,39.16194],[-117.40016,39.16194],[-117.40035,39.16197],[-117.40072,39.1621],[-117.4013,39.16241],[-117.40181,39.16264],[-117.40242,39.16278],[-117.40326,39.16284],[-117.40381,39.16291],[-117.40436,39.16307],[-117.40516,39.16325],[-117.40599,39.16339],[-117.40665,39.16346],[-117.40711,39.16345],[-117.40787,39.16342],[-117.409,39.16338],[-117.40928,39.16341],[-117.4096,39.16352],[-117.40989,39.16363],[-117.41038,39.16395],[-117.41076,39.16411],[-117.41092,39.16426],[-117.41157,39.16454],[-117.41242,39.16486],[-117.41283,39.16501],[-117.41318,39.16521],[-117.4136,39.16555],[-117.41391,39.16572],[-117.4146,39.16602],[-117.41522,39.1662],[-117.41558,39.1663],[-117.41581,39.16642],[-117.41597,39.16645],[-117.41613,39.16654],[-117.41632,39.16662],[-117.41653,39.1667],[-117.4167,39.16672],[-117.41719,39.16685],[-117.41783,39.16709],[-117.41814,39.16724],[-117.41857,39.16736],[-117.41897,39.16747],[-117.41983,39.16759],[-117.42021,39.16768],[-117.42045,39.16773],[-117.42063,39.16778],[-117.42096,39.16785],[-117.42129,39.16785],[-117.42147,39.16791],[-117.42156,39.16791],[-117.42182,39.16786],[-117.42206,39.16789],[-117.42273,39.1679],[-117.42297,39.16787],[-117.42339,39.16784],[-117.42356,39.16785],[-117.42426,39.16791],[-117.42516,39.16797],[-117.42578,39.1681],[-117.42601,39.1681],[-117.42634,39.16811],[-117.42665,39.16809],[-117.42725,39.16816],[-117.42768,39.16838],[-117.42818,39.16852],[-117.42851,39.16874],[-117.42881,39.1689],[-117.42887,39.16896],[-117.42896,39.16912],[-117.42903,39.1692],[-117.42924,39.16935],[-117.42939,39.16944],[-117.4297,39.1696],[-117.43042,39.17002],[-117.43059,39.17014],[-117.43098,39.17054],[-117.43117,39.17066],[-117.43136,39.17075],[-117.43167,39.17088],[-117.43192,39.17101],[-117.43219,39.17114],[-117.43256,39.17123],[-117.43269,39.17129],[-117.43302,39.17152],[-117.43315,39.17159],[-117.43368,39.17178],[-117.43435,39.17196],[-117.43441,39.17194],[-117.43445,39.17193],[-117.43452,39.17193],[-117.43457,39.17195],[-117.43461,39.17197],[-117.43462,39.17199],[-117.43463,39.172],[-117.43537,39.17241],[-117.43597,39.17255],[-117.43692,39.17284],[-117.43714,39.17286],[-117.43745,39.17282],[-117.43849,39.173],[-117.43887,39.17313],[-117.43934,39.17319],[-117.43951,39.1731],[-117.43979,39.17306],[-117.44034,39.17284],[-117.44068,39.17277],[-117.44094,39.17262],[-117.44126,39.1725],[-117.44154,39.17244],[-117.44171,39.17237],[-117.44202,39.17216],[-117.44246,39.17179],[-117.44265,39.17169],[-117.44289,39.17152],[-117.44381,39.17077],[-117.44406,39.17059],[-117.4443,39.17045],[-117.4448,39.1702],[-117.44532,39.16989],[-117.44542,39.16985],[-117.44553,39.16985],[-117.44627,39.16995],[-117.44639,39.16995],[-117.44644,39.16994],[-117.44659,39.16986],[-117.44682,39.16963],[-117.44695,39.16954],[-117.44706,39.16943],[-117.44721,39.16931],[-117.44726,39.16928],[-117.44733,39.16912],[-117.44738,39.16892],[-117.44746,39.16876],[-117.4477,39.16847],[-117.44775,39.16839],[-117.44785,39.16829],[-117.44825,39.16808],[-117.44854,39.16801],[-117.44869,39.16801],[-117.449,39.16804],[-117.44921,39.16803],[-117.44934,39.16799],[-117.44964,39.16785],[-117.45002,39.16781]]}},{"type":"Feature","properties":{"name":"(unnamed public road)","road_class":"track","surface":"unpaved","source":"OpenStreetMap","source_detail":"osm way 1018712413","source_tile":"177/390"},"geometry":{"type":"LineString","coordinates":[[-117.42951,39.10741],[-117.42897,39.10777],[-117.42859,39.10807],[-117.4276,39.10864],[-117.42625,39.10986],[-117.4258,39.11029],[-117.42539,39.11036],[-117.42322,39.10999],[-117.42249,39.10996],[-117.42159,39.10969],[-117.42049,39.10944],[-117.41958,39.10923],[-117.419,39.10915],[-117.41872,39.10906],[-117.41828,39.10896],[-117.41757,39.10875],[-117.41707,39.10862],[-117.41664,39.1085],[-117.41632,39.10838],[-117.41615,39.1083],[-117.41605,39.10827],[-117.4158,39.10818],[-117.41564,39.10814],[-117.41511,39.10801],[-117.41465,39.10785],[-117.41441,39.10776],[-117.4139,39.10752],[-117.41361,39.10745],[-117.41345,39.1074],[-117.41326,39.1073],[-117.41278,39.10712],[-117.41259,39.10703],[-117.41242,39.10693],[-117.41224,39.10686],[-117.41217,39.10685],[-117.4121,39.10689],[-117.41202,39.10699],[-117.412,39.10703],[-117.41185,39.1072]]}},{"type":"Feature","properties":{"name":"(unnamed public road)","road_class":"track","surface":"unpaved","source":"OpenStreetMap","source_detail":"osm way 1093499678","source_tile":"177/390"},"geometry":{"type":"LineString","coordinates":[[-117.42263,39.23695],[-117.42253,39.23701],[-117.42217,39.23722],[-117.42188,39.23732],[-117.4211,39.23752],[-117.42084,39.23763],[-117.41994,39.23811],[-117.4192,39.23837],[-117.41907,39.23843],[-117.41902,39.2385],[-117.41897,39.2386],[-117.41885,39.23913],[-117.41876,39.23937],[-117.41863,39.24005],[-117.41858,39.24057],[-117.4184,39.24104],[-117.41839,39.24114],[-117.41842,39.24132],[-117.41844,39.24174],[-117.41851,39.24219],[-117.4185,39.24237],[-117.41833,39.24273],[-117.41807,39.24351],[-117.41801,39.24374],[-117.41799,39.24391],[-117.41799,39.24407],[-117.41805,39.24449],[-117.41802,39.24505],[-117.41802,39.24563],[-117.41807,39.2459],[-117.41817,39.24618],[-117.41817,39.24656],[-117.41838,39.24726],[-117.41835,39.2474],[-117.4183,39.24759],[-117.41773,39.24861],[-117.41749,39.24899],[-117.41733,39.24934],[-117.41729,39.24941],[-117.417,39.24995],[-117.41669,39.25065],[-117.41635,39.2511],[-117.41622,39.25119],[-117.41597,39.25157],[-117.41554,39.25242],[-117.41533,39.25248],[-117.41401,39.25261],[-117.41277,39.25393],[-117.41205,39.25484],[-117.41188,39.25503],[-117.41173,39.25515],[-117.4116,39.25521],[-117.41144,39.25527],[-117.41121,39.2553],[-117.41068,39.25527],[-117.41026,39.25522],[-117.41011,39.25522],[-117.40993,39.25526],[-117.40964,39.25542],[-117.40943,39.25567],[-117.40925,39.25601],[-117.40918,39.2564],[-117.40906,39.25661],[-117.40905,39.25666],[-117.40908,39.25679],[-117.40911,39.2571],[-117.40912,39.25738],[-117.40909,39.2575],[-117.40905,39.2576],[-117.40863,39.25825],[-117.40848,39.25843],[-117.40823,39.2587],[-117.40716,39.25968],[-117.40636,39.26007]]}},{"type":"Feature","properties":{"name":"(unnamed public road)","road_class":"track","surface":"unpaved","source":"OpenStreetMap","source_detail":"osm way 1093499679","source_tile":"177/390"},"geometry":{"type":"LineString","coordinates":[[-117.37974,39.29608],[-117.37992,39.29628],[-117.38008,39.29638],[-117.38034,39.29651],[-117.38069,39.29663],[-117.38096,39.2966],[-117.38148,39.29647],[-117.38172,39.29638],[-117.38218,39.29619],[-117.38277,39.29601],[-117.38371,39.2958],[-117.38433,39.29567],[-117.38508,39.2954],[-117.38598,39.29516],[-117.38638,39.29503],[-117.38705,39.29485],[-117.38729,39.29475],[-117.38778,39.2945],[-117.38801,39.29441],[-117.38828,39.29434],[-117.38889,39.29423],[-117.38916,39.29422],[-117.38931,39.29424],[-117.38945,39.29429],[-117.38965,39.29443],[-117.39012,39.29494],[-117.39039,39.29509],[-117.39088,39.29511],[-117.39115,39.29505],[-117.39144,39.29499],[-117.39179,39.29479],[-117.39209,39.29466],[-117.39232,39.29464],[-117.39283,39.29444],[-117.39295,39.29441],[-117.39435,39.29439],[-117.39477,39.29416],[-117.39512,39.29408],[-117.39554,39.2941],[-117.3962,39.29426],[-117.39699,39.29433],[-117.39747,39.29443],[-117.39805,39.29467],[-117.39848,39.29471],[-117.3993,39.29439],[-117.39989,39.2941],[-117.39998,39.29406],[-117.40008,39.29405],[-117.40058,39.29407],[-117.40099,39.29404],[-117.40185,39.29393],[-117.40212,39.29392],[-117.40255,39.29393],[-117.40308,39.29401],[-117.4039,39.29424],[-117.40468,39.2944],[-117.40507,39.29445],[-117.40533,39.29446],[-117.40605,39.29442],[-117.40623,39.2944],[-117.40678,39.29441],[-117.40706,39.29439],[-117.40722,39.29439],[-117.40774,39.29452],[-117.40797,39.2946],[-117.40813,39.29468],[-117.40846,39.29488],[-117.40865,39.29496],[-117.40891,39.29506],[-117.40905,39.29512],[-117.40938,39.29531],[-117.40956,39.29539],[-117.41024,39.29558],[-117.4108,39.29564],[-117.41106,39.29568],[-117.41128,39.29569],[-117.4117,39.29564],[-117.41251,39.29562],[-117.41316,39.29559],[-117.41377,39.29553],[-117.41455,39.29551],[-117.41529,39.29538],[-117.41608,39.29526],[-117.41654,39.29525],[-117.41674,39.29517],[-117.41736,39.29488],[-117.41877,39.29413],[-117.41919,39.29395],[-117.41968,39.29379],[-117.42043,39.29354],[-117.4211,39.29344],[-117.42188,39.29342],[-117.42219,39.29338],[-117.42242,39.2933],[-117.4226,39.29332],[-117.42288,39.29326],[-117.42417,39.29302],[-117.42484,39.29292],[-117.42594,39.29283],[-117.42671,39.29284],[-117.42723,39.2929],[-117.42757,39.2929],[-117.42829,39.29283],[-117.42888,39.29274],[-117.42924,39.29263],[-117.42943,39.29255],[-117.43101,39.29159],[-117.43147,39.29125],[-117.43164,39.29113],[-117.43215,39.29089],[-117.43244,39.29072],[-117.4338,39.28975],[-117.43437,39.28937],[-117.4351,39.28882],[-117.43535,39.28857],[-117.43585,39.28794],[-117.43612,39.28755],[-117.43628,39.28739],[-117.43655,39.28719],[-117.43749,39.28656],[-117.43782,39.28626],[-117.43808,39.2861],[-117.43852,39.28576],[-117.43857,39.28574],[-117.4387,39.28561],[-117.4389,39.28542],[-117.43896,39.28533],[-117.43898,39.28531],[-117.43968,39.28473],[-117.44049,39.28431],[-117.44056,39.28429],[-117.44062,39.28426],[-117.441,39.28409],[-117.44137,39.28395],[-117.44174,39.28378],[-117.442,39.28363],[-117.44218,39.28354],[-117.44256,39.28342],[-117.4427,39.2834],[-117.44291,39.28332],[-117.4434,39.28307],[-117.44393,39.28276],[-117.4442,39.28264],[-117.44516,39.28228],[-117.44561,39.28208],[-117.44576,39.28199],[-117.446,39.28187],[-117.44644,39.28176],[-117.44663,39.2817],[-117.4473,39.28139],[-117.4477,39.28114],[-117.44812,39.28083],[-117.4491,39.2803],[-117.4498,39.27987],[-117.4513,39.27877],[-117.45165,39.27847],[-117.45201,39.2781],[-117.45228,39.27785],[-117.45286,39.27735],[-117.45325,39.27694],[-117.45344,39.27677],[-117.4536,39.27666],[-117.45387,39.27652],[-117.45512,39.27589],[-117.45596,39.27554],[-117.45615,39.27546],[-117.45716,39.27512],[-117.45752,39.27494],[-117.45812,39.27453],[-117.45842,39.27429],[-117.45886,39.27403],[-117.45908,39.27387],[-117.45911,39.27383],[-117.45919,39.27376],[-117.45943,39.2735],[-117.45952,39.27334],[-117.4597,39.2731],[-117.46009,39.27264],[-117.46059,39.27221],[-117.461,39.27182],[-117.46138,39.27143],[-117.46205,39.2708],[-117.46259,39.27023],[-117.46316,39.26967],[-117.4634,39.26949],[-117.46425,39.26902],[-117.46466,39.26865],[-117.46468,39.26862],[-117.46531,39.26819],[-117.46566,39.26797],[-117.46582,39.26784],[-117.46613,39.26754],[-117.46716,39.2669],[-117.46738,39.26672],[-117.46748,39.26665],[-117.46792,39.26637],[-117.46843,39.26596],[-117.46857,39.26583],[-117.469,39.26558],[-117.46962,39.26498],[-117.4703,39.26426],[-117.47079,39.26381],[-117.47144,39.26312],[-117.47223,39.26247],[-117.47277,39.26198],[-117.47304,39.26182],[-117.4738,39.26146],[-117.47403,39.26133],[-117.4743,39.2611],[-117.47446,39.26092],[-117.47464,39.26065],[-117.47472,39.26057],[-117.47489,39.26045],[-117.47496,39.26043],[-117.47527,39.26023],[-117.47565,39.25995],[-117.47624,39.25945],[-117.47665,39.25903],[-117.47705,39.25868],[-117.47869,39.2576],[-117.4797,39.25702],[-117.48005,39.25677],[-117.48023,39.25662],[-117.48111,39.2558],[-117.48188,39.2552],[-117.4823,39.25461],[-117.48265,39.25438],[-117.48274,39.25428],[-117.48296,39.25397],[-117.48317,39.25379],[-117.48365,39.25356],[-117.48441,39.25345],[-117.4872,39.25297],[-117.48742,39.2529],[-117.48762,39.25289],[-117.48919,39.25261],[-117.49279,39.25203],[-117.49338,39.25195],[-117.49509,39.25175],[-117.4973,39.25154],[-117.49782,39.25145],[-117.49823,39.25134],[-117.49884,39.25113],[-117.49948,39.25089],[-117.50322,39.24933],[-117.50533,39.24821],[-117.50692,39.24742],[-117.50977,39.2459]]}},{"type":"Feature","properties":{"name":"(unnamed public road)","road_class":"track","source":"OpenStreetMap","source_detail":"osm way 1311328263","source_tile":"177/390","surface_inferred":true},"geometry":{"type":"LineString","coordinates":[[-117.42184,39.20778],[-117.42193,39.20784],[-117.42201,39.2079],[-117.4223,39.2081],[-117.42267,39.20848],[-117.42287,39.20866],[-117.42304,39.20884],[-117.42342,39.20935],[-117.42358,39.2096],[-117.42376,39.21005],[-117.42376,39.21036],[-117.42387,39.21068],[-117.42411,39.21112],[-117.42419,39.21148],[-117.42436,39.21174],[-117.42445,39.21196],[-117.42458,39.21244],[-117.42468,39.21291],[-117.42469,39.21333],[-117.42466,39.21346],[-117.42459,39.21363],[-117.42461,39.21381],[-117.42478,39.21468],[-117.42483,39.21497],[-117.42494,39.21551],[-117.42508,39.21642],[-117.42529,39.21747],[-117.42584,39.21901],[-117.42581,39.21924],[-117.42583,39.21931]]}},{"type":"Feature","properties":{"name":"(unnamed public road)","road_class":"track","source":"OpenStreetMap","source_detail":"osm way 1311328265","source_tile":"177/390","surface_inferred":true},"geometry":{"type":"LineString","coordinates":[[-117.42805,39.19821],[-117.42819,39.19864],[-117.42814,39.19877],[-117.42796,39.19914],[-117.42779,39.19941],[-117.42767,39.19953],[-117.42755,39.19962],[-117.42751,39.19968],[-117.42749,39.19973],[-117.42751,39.19985],[-117.42749,39.1999],[-117.42746,39.19994],[-117.42723,39.20011],[-117.42715,39.20019],[-117.42706,39.20038],[-117.42691,39.20056],[-117.42677,39.20078],[-117.42666,39.20105],[-117.42655,39.20119],[-117.4265,39.20122],[-117.4262,39.20133],[-117.42609,39.20145],[-117.42598,39.20148],[-117.42595,39.20151],[-117.42585,39.20166],[-117.42577,39.20172],[-117.4253,39.2019],[-117.42513,39.20198],[-117.42405,39.20223],[-117.42338,39.20241],[-117.42303,39.20247],[-117.42256,39.20247],[-117.4224,39.2025],[-117.42234,39.20255],[-117.42218,39.20283],[-117.42192,39.20299],[-117.42185,39.20307]]}},{"type":"Feature","properties":{"name":"(unnamed public road)","road_class":"track","source":"OpenStreetMap","source_detail":"osm way 1311328268","source_tile":"177/390","surface_inferred":true},"geometry":{"type":"LineString","coordinates":[[-117.43278,39.18005],[-117.43219,39.18018],[-117.43207,39.1802],[-117.43176,39.18023],[-117.43077,39.18025],[-117.43048,39.18029],[-117.42997,39.18038],[-117.42945,39.18042],[-117.42924,39.18045],[-117.42803,39.18075],[-117.42781,39.18083],[-117.42774,39.18089],[-117.42767,39.18101],[-117.42766,39.18107],[-117.42769,39.18145],[-117.42769,39.18178],[-117.42766,39.1826],[-117.42768,39.18289],[-117.42779,39.18328],[-117.42779,39.18338],[-117.42768,39.18371],[-117.42759,39.18382],[-117.42739,39.18391],[-117.42728,39.18404],[-117.42715,39.18415],[-117.42705,39.18434],[-117.42695,39.18442],[-117.42682,39.18449],[-117.42642,39.18465],[-117.42565,39.18489],[-117.42544,39.18498],[-117.42518,39.18515],[-117.42501,39.18531],[-117.42488,39.18548],[-117.4248,39.18564],[-117.42467,39.186],[-117.42415,39.18695],[-117.42408,39.1871],[-117.42405,39.18724],[-117.424,39.18757],[-117.42399,39.18806],[-117.42408,39.18843],[-117.42412,39.18879],[-117.4238,39.18936],[-117.42369,39.18976],[-117.42358,39.18998],[-117.42346,39.19011],[-117.42325,39.19025],[-117.42307,39.19041],[-117.42273,39.19087],[-117.42233,39.19157],[-117.42207,39.19204],[-117.4219,39.1926],[-117.4215,39.1931],[-117.42066,39.19401],[-117.42062,39.19408]]}}]}