{"type":"FeatureCollection","features":[{"type":"Feature","properties":{"name":"National Forest Development Road 118","road_class":"track","source":"OpenStreetMap","source_detail":"osm way 14422271","source_tile":"177/391","surface_inferred":true},"geometry":{"type":"LineString","coordinates":[[-117.43618,38.99186],[-117.43601,38.99195],[-117.43583,38.99204],[-117.43565,38.99208],[-117.43546,38.99209],[-117.43422,38.99208],[-117.43368,38.99209],[-117.43252,38.99221],[-117.43182,38.99226],[-117.43136,38.99229],[-117.43063,38.99232],[-117.43019,38.99235],[-117.42965,38.99241],[-117.42879,38.9926],[-117.42781,38.99269],[-117.42759,38.99267],[-117.42731,38.99263],[-117.42711,38.99261],[-117.42707,38.9926],[-117.42691,38.99255],[-117.4267,38.99247],[-117.42629,38.99229],[-117.42606,38.9922],[-117.42592,38.99213],[-117.42545,38.99186],[-117.42538,38.99183],[-117.42527,38.9918],[-117.4252,38.9918],[-117.42472,38.99183],[-117.42456,38.99183],[-117.4243,38.9918],[-117.42405,38.99182],[-117.42361,38.99191],[-117.42319,38.99203],[-117.42278,38.99218],[-117.42253,38.99231],[-117.42243,38.99235],[-117.42236,38.99237],[-117.42228,38.99238],[-117.42209,38.99236],[-117.4215,38.99222],[-117.42113,38.99212],[-117.42045,38.99191],[-117.4202,38.99182],[-117.41955,38.99158],[-117.41932,38.99151],[-117.4192,38.99149],[-117.41864,38.99148],[-117.41555,38.99137],[-117.41495,38.99137],[-117.4125,38.99132],[-117.41205,38.99128],[-117.41122,38.99117],[-117.41077,38.99115],[-117.41058,38.99116],[-117.4105,38.99117],[-117.4104,38.99119],[-117.41017,38.99121],[-117.40879,38.99125],[-117.40846,38.99127],[-117.40812,38.99134],[-117.40803,38.99134],[-117.40782,38.99133],[-117.40764,38.99129],[-117.40717,38.99114],[-117.40702,38.99111],[-117.40691,38.99109],[-117.40549,38.99101],[-117.40429,38.99091],[-117.40419,38.99091],[-117.40411,38.99092],[-117.404,38.99094],[-117.40375,38.99104],[-117.40367,38.99106],[-117.4036,38.99106],[-117.40298,38.99096],[-117.40261,38.99094],[-117.40079,38.99087],[-117.40077,38.99087],[-117.39804,38.99074],[-117.39695,38.99071],[-117.39619,38.99068],[-117.39571,38.9907],[-117.39531,38.99069],[-117.39488,38.99065],[-117.39464,38.99065],[-117.39449,38.99067],[-117.39355,38.99092],[-117.39268,38.99108],[-117.39239,38.99115],[-117.39133,38.99144],[-117.3909,38.99154],[-117.39076,38.99157],[-117.39052,38.99159],[-117.38996,38.99158],[-117.38986,38.9916],[-117.38963,38.99164],[-117.38944,38.99167],[-117.38921,38.99165],[-117.38902,38.99161],[-117.38894,38.9916],[-117.38885,38.99162],[-117.38876,38.99167],[-117.38872,38.99175],[-117.38866,38.99202],[-117.38864,38.99208],[-117.3886,38.99213],[-117.38855,38.99218],[-117.38847,38.99222],[-117.38782,38.99239],[-117.38758,38.99243],[-117.38748,38.99244],[-117.38725,38.99243],[-117.38702,38.9924],[-117.38689,38.99237],[-117.38667,38.99231],[-117.38646,38.99227],[-117.38578,38.99217],[-117.38565,38.99217],[-117.38556,38.99221],[-117.38551,38.99227],[-117.3855,38.99249],[-117.38548,38.99257],[-117.38543,38.99266],[-117.38536,38.99271],[-117.38455,38.9928],[-117.38379,38.99291],[-117.38182,38.99317],[-117.38143,38.99323],[-117.38124,38.99324],[-117.38117,38.99325],[-117.3801,38.99339],[-117.37868,38.99356],[-117.378,38.99367],[-117.37674,38.99382],[-117.37596,38.99393],[-117.37551,38.99398],[-117.37484,38.99408],[-117.37412,38.99417],[-117.37399,38.9942],[-117.37377,38.99426],[-117.37303,38.99455],[-117.37261,38.99476],[-117.37249,38.99484],[-117.37244,38.9949],[-117.37241,38.99497],[-117.37241,38.99514],[-117.37239,38.99529],[-117.37235,38.9954],[-117.37226,38.99569],[-117.37213,38.99592],[-117.37206,38.996],[-117.37191,38.99614],[-117.37181,38.9962]]}},{"type":"Feature","properties":{"name":"National Forest Development Road 119","road_class":"unclassified","surface":"unpaved","source":"OpenStreetMap","source_detail":"osm way 14422506","source_tile":"177/391"},"geometry":{"type":"LineString","coordinates":[[-117.37701,38.90027],[-117.37751,38.90052],[-117.37795,38.90069],[-117.37829,38.90081],[-117.37863,38.90095],[-117.37916,38.90122],[-117.37936,38.90138],[-117.38058,38.90247],[-117.38063,38.90256],[-117.38066,38.90266],[-117.38079,38.90316],[-117.38098,38.90384],[-117.38109,38.90399],[-117.38121,38.90415],[-117.38134,38.90429],[-117.38142,38.90441],[-117.38149,38.90461],[-117.38173,38.90501],[-117.3819,38.90525],[-117.38204,38.90541],[-117.38235,38.90575],[-117.38246,38.9059],[-117.38257,38.90613],[-117.38266,38.90629],[-117.38269,38.90639],[-117.38274,38.90652],[-117.38294,38.90702],[-117.38301,38.90716],[-117.38333,38.90763],[-117.3835,38.908],[-117.38363,38.90821],[-117.38382,38.90845],[-117.38411,38.90897],[-117.38458,38.90957],[-117.38473,38.90974],[-117.38503,38.90998],[-117.38521,38.91018],[-117.38529,38.91033],[-117.38533,38.91051],[-117.38535,38.9108],[-117.38538,38.91099],[-117.38543,38.91115],[-117.38544,38.91136],[-117.38544,38.91162],[-117.38546,38.91173],[-117.38558,38.91228],[-117.38564,38.91251],[-117.3859,38.91325],[-117.38604,38.91356],[-117.38615,38.91376],[-117.38632,38.91406],[-117.38651,38.91442],[-117.38687,38.91519],[-117.38707,38.91559],[-117.38717,38.91579],[-117.38737,38.91613],[-117.3875,38.91629],[-117.38767,38.91649],[-117.38794,38.91676],[-117.38818,38.91703],[-117.38841,38.91727],[-117.3888,38.91757],[-117.38955,38.91809],[-117.38973,38.91821],[-117.38988,38.91833],[-117.39016,38.91851],[-117.39042,38.91866],[-117.39118,38.91901],[-117.39154,38.91916],[-117.39189,38.91926],[-117.39254,38.91941],[-117.39321,38.91962],[-117.39339,38.91965],[-117.39366,38.91966],[-117.39388,38.91965],[-117.39405,38.91965],[-117.39418,38.91965],[-117.39427,38.91965],[-117.39451,38.91971],[-117.3946,38.91974],[-117.39501,38.92001],[-117.39553,38.92032],[-117.39567,38.92043],[-117.3963,38.92098],[-117.39656,38.92119],[-117.39691,38.92144],[-117.39709,38.92153],[-117.39735,38.92161],[-117.39761,38.92168],[-117.3984,38.92202],[-117.39856,38.92209],[-117.39905,38.92226],[-117.39912,38.92229],[-117.39932,38.92241],[-117.39952,38.92252],[-117.3998,38.92263],[-117.39991,38.92267],[-117.40001,38.92273],[-117.40019,38.92289],[-117.40024,38.92292],[-117.40041,38.923],[-117.40059,38.92306],[-117.40063,38.92308],[-117.4008,38.92321],[-117.40089,38.92329],[-117.40104,38.92336],[-117.40124,38.92343],[-117.40159,38.92352],[-117.40191,38.92358],[-117.40263,38.92372],[-117.40293,38.92375],[-117.4031,38.92376],[-117.40368,38.92374],[-117.40415,38.92377],[-117.40464,38.92378],[-117.40476,38.92379],[-117.40487,38.92381],[-117.40506,38.92387],[-117.4054,38.92399],[-117.40593,38.92416],[-117.40615,38.92424],[-117.40625,38.92429],[-117.40634,38.92436],[-117.40648,38.92448],[-117.4065,38.92452],[-117.40653,38.9246],[-117.40654,38.92475],[-117.40653,38.92524],[-117.40654,38.92547],[-117.40659,38.92576],[-117.40667,38.92605],[-117.4067,38.92625],[-117.40671,38.92646],[-117.40669,38.92712],[-117.4067,38.92755],[-117.40673,38.92798],[-117.40675,38.92872],[-117.40673,38.92912],[-117.40674,38.92952],[-117.40677,38.92992],[-117.40684,38.93023],[-117.40686,38.9303],[-117.40695,38.9305],[-117.40713,38.93081],[-117.40719,38.93096],[-117.40728,38.93125],[-117.40733,38.93141],[-117.40741,38.93155],[-117.40764,38.9319],[-117.40766,38.93194],[-117.40771,38.93212],[-117.40775,38.9324],[-117.40787,38.93325],[-117.40787,38.93355],[-117.40793,38.93453],[-117.408,38.93501],[-117.40799,38.93512],[-117.40794,38.93522],[-117.40787,38.93529],[-117.40781,38.93532],[-117.40772,38.93532],[-117.40762,38.93529],[-117.40752,38.93522],[-117.40742,38.93516],[-117.40731,38.93515],[-117.40724,38.93518],[-117.4072,38.93522],[-117.40717,38.93529],[-117.40716,38.93532],[-117.40715,38.93542],[-117.40716,38.93558],[-117.40726,38.93595],[-117.40739,38.9363],[-117.40749,38.93664],[-117.40764,38.93708],[-117.40767,38.93724],[-117.40767,38.93736],[-117.40769,38.93753],[-117.40772,38.93763],[-117.40779,38.93772],[-117.40785,38.93778],[-117.4079,38.93781],[-117.40828,38.93802],[-117.40879,38.93837],[-117.4094,38.93876],[-117.40973,38.93896],[-117.41029,38.93926],[-117.41109,38.93962],[-117.41175,38.93989],[-117.41197,38.94],[-117.41217,38.94008],[-117.41267,38.94025],[-117.41302,38.94036],[-117.41316,38.94039],[-117.41347,38.9404],[-117.41362,38.94044],[-117.41398,38.94056],[-117.41434,38.94068],[-117.41478,38.94086],[-117.41515,38.94105],[-117.41542,38.94125],[-117.41559,38.94134],[-117.41611,38.94154],[-117.41641,38.94167],[-117.41722,38.94199],[-117.41743,38.94209],[-117.41784,38.94232],[-117.41808,38.94245],[-117.41877,38.94277],[-117.41923,38.94296],[-117.42029,38.94335],[-117.42058,38.94343],[-117.42083,38.94348],[-117.42154,38.94373],[-117.42205,38.94391],[-117.42236,38.94405],[-117.42258,38.94416],[-117.42281,38.94431],[-117.42304,38.94448],[-117.42342,38.94468],[-117.42468,38.94528],[-117.42541,38.94557],[-117.42577,38.94573],[-117.42618,38.94594],[-117.42716,38.94652],[-117.42741,38.94665],[-117.42775,38.94691],[-117.42796,38.9471],[-117.4282,38.94735],[-117.42863,38.94772],[-117.42908,38.94805],[-117.42932,38.94828],[-117.4295,38.9484],[-117.42963,38.94847],[-117.42985,38.9486],[-117.43026,38.9489],[-117.43058,38.94909],[-117.43075,38.9492],[-117.43118,38.9496],[-117.43172,38.95004],[-117.43282,38.95086],[-117.43293,38.95098],[-117.43313,38.95114],[-117.4333,38.95126],[-117.4337,38.9515],[-117.43387,38.95158],[-117.43413,38.95174],[-117.43422,38.95183],[-117.4348,38.95251],[-117.43519,38.95289],[-117.43541,38.95317],[-117.4355,38.95336],[-117.43559,38.95349],[-117.43572,38.95364],[-117.43589,38.95379],[-117.43601,38.95393],[-117.43619,38.95418],[-117.43644,38.95464],[-117.43672,38.95505],[-117.43713,38.95579],[-117.43785,38.95679],[-117.43821,38.95723],[-117.43831,38.95741],[-117.43842,38.95763],[-117.43865,38.95802],[-117.43909,38.95873],[-117.43944,38.95923],[-117.43954,38.95941],[-117.43957,38.95947],[-117.43958,38.95951],[-117.4397,38.96006],[-117.43982,38.9604],[-117.44012,38.96107],[-117.44018,38.96125],[-117.44022,38.96142],[-117.44027,38.96172],[-117.44029,38.96186],[-117.4403,38.96193],[-117.44033,38.96203],[-117.44052,38.96233],[-117.4414,38.96366],[-117.44174,38.9642],[-117.44203,38.9647],[-117.44211,38.9648],[-117.44221,38.96498],[-117.44229,38.96516],[-117.44234,38.96547],[-117.4424,38.96572],[-117.44245,38.96582],[-117.44249,38.96587],[-117.44252,38.96593],[-117.44259,38.96598],[-117.44275,38.9661],[-117.4429,38.96625],[-117.44296,38.96632],[-117.44299,38.96635],[-117.4432,38.96655],[-117.44356,38.96682],[-117.44376,38.96701],[-117.4441,38.96735],[-117.44429,38.96751],[-117.44449,38.96768],[-117.44474,38.96788],[-117.44492,38.96801],[-117.44579,38.96849],[-117.4463,38.9688],[-117.44651,38.96894],[-117.44702,38.96932],[-117.44732,38.96957],[-117.44762,38.96978],[-117.44782,38.9699],[-117.44866,38.97048],[-117.44878,38.97056],[-117.4493,38.97079],[-117.44946,38.97087],[-117.44972,38.97106],[-117.45004,38.97132],[-117.45028,38.97154],[-117.45037,38.97164],[-117.45046,38.97179],[-117.4505,38.97186],[-117.45075,38.97235],[-117.4509,38.97274],[-117.45119,38.97331],[-117.45136,38.97366],[-117.45142,38.97376],[-117.45151,38.97387],[-117.45162,38.97398],[-117.45181,38.97414],[-117.45189,38.97422],[-117.45195,38.9743],[-117.45204,38.97447],[-117.45228,38.97485],[-117.45244,38.97501],[-117.45264,38.97518],[-117.45287,38.97537],[-117.45302,38.97547],[-117.45327,38.97559],[-117.45339,38.97563],[-117.45352,38.97569],[-117.45386,38.97593],[-117.45401,38.97605],[-117.45409,38.97615],[-117.45412,38.9762],[-117.45415,38.97636],[-117.45422,38.9766],[-117.45424,38.97679],[-117.45422,38.97715],[-117.45423,38.97729],[-117.45427,38.97744],[-117.45435,38.97765],[-117.45438,38.97776],[-117.45441,38.97787],[-117.45445,38.97803],[-117.45455,38.97893],[-117.45468,38.97986],[-117.45485,38.98049],[-117.45486,38.98053],[-117.4549,38.98063],[-117.45497,38.98076],[-117.45511,38.98094],[-117.45534,38.98124],[-117.45553,38.98153],[-117.45573,38.98189],[-117.45585,38.98208],[-117.45601,38.98226],[-117.45623,38.98246],[-117.45643,38.98262],[-117.45664,38.98274],[-117.45748,38.98311],[-117.45782,38.98329],[-117.458,38.98339],[-117.45822,38.98356],[-117.45857,38.98388],[-117.45883,38.98423],[-117.45893,38.98439],[-117.45904,38.98465],[-117.45902,38.98484],[-117.45901,38.98485],[-117.459,38.98501],[-117.45899,38.98505],[-117.45896,38.98545],[-117.45896,38.98562],[-117.45903,38.98588],[-117.4594,38.98667],[-117.45985,38.98763],[-117.46015,38.98832],[-117.46036,38.98875],[-117.46045,38.98893],[-117.46061,38.98916],[-117.46085,38.98943],[-117.46113,38.98973],[-117.46202,38.99065],[-117.46213,38.99076],[-117.46236,38.99101],[-117.46241,38.99106],[-117.4633,38.99197],[-117.46356,38.99223],[-117.46381,38.99246],[-117.4642,38.99277]]}},{"type":"Feature","properties":{"name":"National Forest Development Road 017","road_class":"track","source":"OpenStreetMap","source_detail":"osm way 14423629","source_tile":"177/391","surface_inferred":true},"geometry":{"type":"LineString","coordinates":[[-117.40253,38.95366],[-117.40447,38.95541],[-117.4053,38.95589],[-117.4078,38.95704],[-117.4097,38.95786],[-117.41127,38.95857],[-117.41258,38.95916],[-117.41276,38.95924],[-117.41322,38.95945],[-117.41371,38.95968],[-117.41586,38.96067],[-117.41767,38.96151],[-117.42009,38.96266],[-117.42052,38.96298],[-117.42204,38.96383],[-117.42352,38.96468],[-117.42443,38.96515],[-117.42575,38.96588]]}},{"type":"Feature","properties":{"name":"National Forest Development Road 017","road_class":"track","source":"OpenStreetMap","source_detail":"osm way 14423657","source_tile":"177/391","surface_inferred":true},"geometry":{"type":"LineString","coordinates":[[-117.41399,38.95956],[-117.41462,38.95982],[-117.41512,38.95999],[-117.41569,38.96016],[-117.41643,38.96035],[-117.41696,38.96047],[-117.41948,38.96112],[-117.41983,38.96122],[-117.42053,38.96141],[-117.42124,38.96162],[-117.42245,38.96195],[-117.42317,38.96215],[-117.42327,38.96224],[-117.42351,38.96262],[-117.42433,38.96399],[-117.42453,38.96434],[-117.42463,38.96463],[-117.4247,38.96472],[-117.42512,38.96509],[-117.42533,38.96531],[-117.42552,38.96557],[-117.42575,38.96588]]}},{"type":"Feature","properties":{"name":"(unnamed public road)","road_class":"track","surface":"unpaved","source":"OpenStreetMap","source_detail":"osm way 413183878","source_tile":"177/391"},"geometry":{"type":"LineString","coordinates":[[-117.42213,38.91658],[-117.42179,38.91651],[-117.42139,38.91652],[-117.42089,38.91645],[-117.42035,38.91638],[-117.41948,38.91621],[-117.41909,38.91614],[-117.41867,38.9161],[-117.41815,38.91608],[-117.4176,38.91604],[-117.41707,38.91605],[-117.4169,38.91603],[-117.41663,38.91597],[-117.4163,38.91593],[-117.41596,38.91586],[-117.41566,38.91582],[-117.41538,38.91579],[-117.41521,38.91577],[-117.41504,38.91572],[-117.4149,38.91566],[-117.41478,38.91559],[-117.41468,38.91551],[-117.41462,38.91547],[-117.41455,38.91543],[-117.41437,38.91534],[-117.41427,38.91532],[-117.41412,38.91531],[-117.41403,38.91532],[-117.41388,38.91534],[-117.41384,38.91535],[-117.41369,38.91534],[-117.41355,38.91531],[-117.41339,38.91526],[-117.41321,38.9152],[-117.41309,38.91518],[-117.41297,38.91518],[-117.41285,38.91509],[-117.41275,38.91497],[-117.4126,38.91486],[-117.41253,38.91477],[-117.41244,38.91466],[-117.41237,38.91457],[-117.41233,38.91432],[-117.41231,38.91425],[-117.41227,38.91417],[-117.41223,38.91408],[-117.41217,38.91399],[-117.41212,38.9139],[-117.41204,38.91377],[-117.41191,38.91348],[-117.41177,38.91312],[-117.41163,38.91285],[-117.41142,38.91248],[-117.41126,38.91227],[-117.41104,38.91197],[-117.41092,38.91185],[-117.41088,38.91179],[-117.41084,38.91169],[-117.41082,38.91162],[-117.41081,38.91149],[-117.41075,38.91139],[-117.41062,38.91121],[-117.41042,38.91093],[-117.41038,38.91082],[-117.41032,38.91077],[-117.41024,38.91066],[-117.41013,38.91059],[-117.41007,38.91048],[-117.40997,38.91032],[-117.4097,38.90986],[-117.40953,38.90959],[-117.40947,38.90943],[-117.40941,38.90931],[-117.40926,38.90913],[-117.40916,38.90897],[-117.40888,38.90869],[-117.40876,38.90854],[-117.40863,38.90834],[-117.40845,38.90815],[-117.40828,38.90802],[-117.40806,38.90785],[-117.40795,38.90777],[-117.40786,38.90772],[-117.40777,38.90761],[-117.40767,38.90749],[-117.40759,38.90736],[-117.40725,38.90709],[-117.40711,38.90698],[-117.4069,38.90666],[-117.40666,38.90637],[-117.40646,38.90612],[-117.40601,38.90552],[-117.40583,38.90533],[-117.40569,38.90516],[-117.4056,38.90491],[-117.40554,38.90479],[-117.40546,38.90466],[-117.40527,38.90451],[-117.40485,38.90435],[-117.4046,38.90422],[-117.40449,38.90412],[-117.40422,38.90397],[-117.40402,38.90388],[-117.40387,38.90384],[-117.4036,38.90367],[-117.40293,38.90333],[-117.40248,38.90316],[-117.40209,38.90308],[-117.40163,38.90306],[-117.40129,38.90303],[-117.4008,38.90284],[-117.40045,38.90269],[-117.40006,38.90255],[-117.39972,38.90246],[-117.39956,38.90237],[-117.39934,38.90218],[-117.39919,38.90204],[-117.39905,38.90182],[-117.39898,38.90165],[-117.39894,38.90154],[-117.39887,38.90145],[-117.39867,38.90127],[-117.39848,38.90103],[-117.39811,38.90057],[-117.39799,38.90038],[-117.39787,38.90031],[-117.39768,38.90021],[-117.3975,38.90014],[-117.39736,38.90005],[-117.39722,38.89994],[-117.39709,38.89982],[-117.39698,38.89969],[-117.39677,38.89937],[-117.39681,38.89898],[-117.39665,38.89874],[-117.3965,38.89857],[-117.39626,38.89838],[-117.396,38.89794],[-117.39593,38.89774],[-117.39582,38.89751],[-117.39579,38.89737],[-117.39594,38.89717],[-117.39606,38.89706],[-117.39611,38.89697],[-117.39608,38.8969],[-117.39586,38.89662],[-117.39576,38.89643]]}},{"type":"Feature","properties":{"name":"(unnamed public road)","road_class":"track","surface":"unpaved","source":"OpenStreetMap","source_detail":"osm way 950248594","source_tile":"177/391"},"geometry":{"type":"LineString","coordinates":[[-117.40565,38.94195],[-117.40598,38.94211],[-117.40699,38.94257],[-117.40784,38.94305],[-117.40991,38.94435],[-117.41032,38.94477],[-117.41095,38.94535],[-117.41318,38.9471],[-117.41436,38.94808],[-117.41466,38.9482],[-117.41478,38.94839],[-117.41505,38.94867],[-117.4153,38.94888],[-117.41574,38.94905],[-117.41638,38.94947],[-117.41704,38.94998],[-117.41907,38.95203],[-117.42627,38.95646],[-117.4298,38.95866],[-117.43009,38.9588],[-117.43058,38.95892],[-117.4311,38.9591],[-117.43158,38.95941],[-117.43212,38.95975],[-117.43305,38.96048],[-117.43319,38.96056],[-117.43367,38.96086],[-117.43421,38.9612],[-117.43462,38.96151],[-117.43487,38.96155],[-117.43532,38.96181],[-117.43602,38.96228],[-117.43663,38.96265],[-117.4374,38.96316],[-117.43765,38.96328],[-117.43834,38.96356],[-117.4392,38.96394],[-117.43953,38.96416],[-117.43985,38.96443],[-117.44003,38.96456],[-117.44179,38.96553],[-117.44245,38.96582]]}},{"type":"Feature","properties":{"name":"(unnamed public road)","road_class":"track","surface":"unpaved","source":"OpenStreetMap","source_detail":"osm way 950260167","source_tile":"177/391"},"geometry":{"type":"LineString","coordinates":[[-117.40593,38.92416],[-117.40606,38.924],[-117.40621,38.92394],[-117.40631,38.92392],[-117.4065,38.92393],[-117.40694,38.924],[-117.4072,38.92396],[-117.40764,38.92393],[-117.4079,38.92388],[-117.40827,38.92383],[-117.40888,38.92378],[-117.40914,38.92378],[-117.40958,38.92374],[-117.40979,38.92378],[-117.41039,38.92398],[-117.41132,38.92421],[-117.41172,38.92428],[-117.41212,38.92433],[-117.41238,38.92435],[-117.41267,38.92444],[-117.4128,38.92454],[-117.41308,38.92462],[-117.41346,38.92484],[-117.41361,38.92496],[-117.41375,38.92504],[-117.41383,38.92506],[-117.41428,38.92511],[-117.41449,38.92507],[-117.41611,38.92453],[-117.4164,38.92439],[-117.4167,38.92429],[-117.41698,38.9241],[-117.4171,38.924],[-117.41718,38.92388],[-117.41729,38.92361],[-117.4174,38.92315],[-117.41743,38.9229],[-117.41744,38.92275],[-117.4174,38.92258],[-117.41721,38.92204],[-117.4171,38.92178],[-117.41704,38.9216],[-117.41704,38.9214],[-117.41705,38.92134],[-117.41708,38.92128],[-117.41714,38.92123],[-117.41721,38.92119],[-117.41748,38.92115],[-117.41766,38.92108],[-117.41833,38.92074],[-117.41875,38.92051],[-117.41913,38.92032],[-117.41932,38.92021],[-117.41942,38.92013],[-117.41957,38.91997],[-117.41961,38.9199],[-117.41972,38.91957],[-117.4198,38.91943],[-117.41994,38.91927],[-117.42006,38.91918],[-117.42022,38.91911],[-117.42057,38.919],[-117.42075,38.91897],[-117.42164,38.91881],[-117.42193,38.91879],[-117.42254,38.91858],[-117.42305,38.91847],[-117.42339,38.91834],[-117.42356,38.91823],[-117.42373,38.91799],[-117.42373,38.9179],[-117.42366,38.91765],[-117.42357,38.91753],[-117.42342,38.91744],[-117.42315,38.91734],[-117.42293,38.91722],[-117.42275,38.91704],[-117.4226,38.91693],[-117.4222,38.91668],[-117.42213,38.91663],[-117.42213,38.91658],[-117.42214,38.9165],[-117.42223,38.91642],[-117.4224,38.91644],[-117.42252,38.91646],[-117.42271,38.91649],[-117.42294,38.91647],[-117.42332,38.9164],[-117.42388,38.91636],[-117.42457,38.91621],[-117.425,38.91613],[-117.42557,38.91599],[-117.42578,38.91596],[-117.42596,38.91596],[-117.42647,38.91601],[-117.4266,38.91602],[-117.42721,38.91602],[-117.42744,38.91601],[-117.42782,38.91597],[-117.42787,38.91594],[-117.42792,38.91589],[-117.42799,38.91574],[-117.42797,38.91552],[-117.42799,38.91543],[-117.42801,38.91539],[-117.42812,38.91528],[-117.42837,38.9153],[-117.42843,38.91529],[-117.42864,38.91517],[-117.42876,38.91514],[-117.42932,38.91518],[-117.42955,38.91518],[-117.4298,38.91516],[-117.42996,38.91513],[-117.43074,38.91484],[-117.43127,38.91448],[-117.4316,38.91439],[-117.43189,38.91426],[-117.43233,38.91411],[-117.43281,38.91388],[-117.43367,38.91347],[-117.43393,38.91343],[-117.43421,38.91338],[-117.43445,38.91326],[-117.43532,38.91277],[-117.43546,38.91265]]}},{"type":"Feature","properties":{"name":"(unnamed public road)","road_class":"track","surface":"unpaved","source":"OpenStreetMap","source_detail":"osm way 950260175","source_tile":"177/391"},"geometry":{"type":"LineString","coordinates":[[-117.40864,38.88223],[-117.40955,38.88236],[-117.40979,38.88243],[-117.41009,38.88259],[-117.41022,38.88264],[-117.41039,38.88263],[-117.41081,38.8825],[-117.41119,38.88234],[-117.41135,38.88218],[-117.41156,38.88192],[-117.41157,38.88175],[-117.4116,38.88166],[-117.41181,38.88144],[-117.4119,38.88137],[-117.41197,38.8813],[-117.41201,38.88122],[-117.41204,38.88107],[-117.41209,38.88105],[-117.41229,38.88109],[-117.41249,38.88119],[-117.41264,38.88123],[-117.41323,38.88117],[-117.41356,38.88111],[-117.41407,38.88116],[-117.41423,38.88119],[-117.41456,38.88137],[-117.41476,38.88142],[-117.41493,38.88155],[-117.41506,38.88167],[-117.4155,38.88214],[-117.4158,38.88242],[-117.41595,38.88251],[-117.41607,38.88255],[-117.41625,38.88263],[-117.41641,38.88279],[-117.41646,38.88281],[-117.41674,38.88289],[-117.41689,38.88297],[-117.41719,38.88316],[-117.41728,38.88325],[-117.41733,38.88337],[-117.41733,38.88356],[-117.41733,38.88361],[-117.41723,38.88377],[-117.41723,38.88382],[-117.41744,38.88417],[-117.41762,38.8844],[-117.41766,38.88451],[-117.41766,38.8847],[-117.4176,38.8849],[-117.4176,38.88495],[-117.41763,38.88507],[-117.41786,38.88574],[-117.41789,38.88593],[-117.41789,38.88605],[-117.41786,38.88627],[-117.4179,38.88639],[-117.41792,38.88651],[-117.41795,38.88657],[-117.41807,38.88666],[-117.41811,38.88671],[-117.41824,38.88709],[-117.41842,38.88731],[-117.41852,38.88736],[-117.41872,38.88741],[-117.41893,38.88751],[-117.41903,38.88754],[-117.41943,38.88758],[-117.41975,38.88767],[-117.42005,38.8877],[-117.4203,38.88778],[-117.42074,38.8878],[-117.42084,38.88782],[-117.42096,38.88787],[-117.42117,38.88793],[-117.42159,38.88796],[-117.42188,38.88802],[-117.423,38.88821],[-117.42309,38.88826],[-117.4232,38.88835],[-117.42343,38.8885],[-117.42365,38.8886],[-117.42433,38.8886],[-117.4244,38.88866],[-117.42446,38.88877],[-117.42462,38.88897],[-117.42476,38.88919],[-117.42479,38.8893],[-117.42479,38.88945],[-117.4248,38.88951],[-117.4249,38.8897],[-117.42455,38.8903],[-117.4244,38.89053],[-117.4243,38.89064],[-117.42429,38.89076],[-117.42435,38.891],[-117.42439,38.89115],[-117.42436,38.89124],[-117.42424,38.89145],[-117.42421,38.89157],[-117.42428,38.8918],[-117.42438,38.89213],[-117.42439,38.89228],[-117.42448,38.89236],[-117.42456,38.89253],[-117.42471,38.89291],[-117.42484,38.8931],[-117.42492,38.89319]]}},{"type":"Feature","properties":{"name":"(unnamed public road)","road_class":"track","surface":"unpaved","source":"OpenStreetMap","source_detail":"osm way 951350310","source_tile":"177/391"},"geometry":{"type":"LineString","coordinates":[[-117.41411,39.06547],[-117.41806,39.06647],[-117.42188,39.06743],[-117.42568,39.06825],[-117.42817,39.0691],[-117.4304,39.0697],[-117.43145,39.0699],[-117.43275,39.07025],[-117.43461,39.07083],[-117.4353,39.07097],[-117.43587,39.07111],[-117.43617,39.07121],[-117.43702,39.07154],[-117.43808,39.07164],[-117.43853,39.07185],[-117.43989,39.07229],[-117.44022,39.07251],[-117.44187,39.07291],[-117.44281,39.07305],[-117.44362,39.07326],[-117.44403,39.07352],[-117.4442,39.07362],[-117.4448,39.07418],[-117.44512,39.07432],[-117.44543,39.07432],[-117.44561,39.07434],[-117.44598,39.07439],[-117.44744,39.07464],[-117.44871,39.07489],[-117.44909,39.07495],[-117.4502,39.07507],[-117.45132,39.07525],[-117.45197,39.07531],[-117.45314,39.0756],[-117.45352,39.07575],[-117.45469,39.07742],[-117.4548,39.07755],[-117.45502,39.07788],[-117.45712,39.08081],[-117.4572,39.08088],[-117.45741,39.08098],[-117.45785,39.08102],[-117.46336,39.08112],[-117.46526,39.08112],[-117.46821,39.08115],[-117.47137,39.08108],[-117.47343,39.08108],[-117.47436,39.08106],[-117.47567,39.08136],[-117.47623,39.08135],[-117.47689,39.08117],[-117.47859,39.08142]]}},{"type":"Feature","properties":{"name":"(unnamed public road)","road_class":"track","surface":"unpaved","source":"OpenStreetMap","source_detail":"osm way 951350313","source_tile":"177/391"},"geometry":{"type":"LineString","coordinates":[[-117.43461,39.07083],[-117.43023,39.07184],[-117.42853,39.07218],[-117.42777,39.07236],[-117.4269,39.07253],[-117.42188,39.07363],[-117.4198,39.07405],[-117.41916,39.07413],[-117.41887,39.07413],[-117.41841,39.07417],[-117.41814,39.07421],[-117.41788,39.07429],[-117.41748,39.07446],[-117.41717,39.0746],[-117.41646,39.07486],[-117.41594,39.07499],[-117.41369,39.07544],[-117.41283,39.07575],[-117.41256,39.07581],[-117.40941,39.0766],[-117.40796,39.07707],[-117.40751,39.0771],[-117.40715,39.07712],[-117.40644,39.07728]]}},{"type":"Feature","properties":{"name":"(unnamed public road)","road_class":"track","surface":"unpaved","source":"OpenStreetMap","source_detail":"osm way 951350316","source_tile":"177/391"},"geometry":{"type":"LineString","coordinates":[[-117.41388,39.06271],[-117.41439,39.06232],[-117.41507,39.06185],[-117.41708,39.06045],[-117.41726,39.06035],[-117.41741,39.06025],[-117.41767,39.06008],[-117.41769,39.06006],[-117.41855,39.05942],[-117.41883,39.05921],[-117.41925,39.0589],[-117.41977,39.05841],[-117.42026,39.05795],[-117.42027,39.05795],[-117.42065,39.05757],[-117.42183,39.05645],[-117.42184,39.05645],[-117.42257,39.05577],[-117.42339,39.05502],[-117.42369,39.0547],[-117.4238,39.05451],[-117.42388,39.05405],[-117.42398,39.05377],[-117.42416,39.05338],[-117.42426,39.05292],[-117.42428,39.05285],[-117.4243,39.05274]]}},{"type":"Feature","properties":{"name":"(unnamed public road)","road_class":"track","surface":"unpaved","source":"OpenStreetMap","source_detail":"osm way 951350318","source_tile":"177/391"},"geometry":{"type":"LineString","coordinates":[[-117.40732,39.03897],[-117.40714,39.03976],[-117.40685,39.04062],[-117.40644,39.0413],[-117.4058,39.04219],[-117.4056,39.04283],[-117.40576,39.0436],[-117.40711,39.04599],[-117.40721,39.04612],[-117.40725,39.04622],[-117.40745,39.04652],[-117.40783,39.04716],[-117.40812,39.0476],[-117.40815,39.04773],[-117.40812,39.04803],[-117.40802,39.04903],[-117.40786,39.04963],[-117.40759,39.05043],[-117.40766,39.05111],[-117.4078,39.0514],[-117.4079,39.05189],[-117.40808,39.05257],[-117.40834,39.0533],[-117.4085,39.05401],[-117.40869,39.05447],[-117.40948,39.05396],[-117.40963,39.05375],[-117.40997,39.05349],[-117.40997,39.05328],[-117.40998,39.0532],[-117.41003,39.05311],[-117.41011,39.05301],[-117.4105,39.05267],[-117.4107,39.05249],[-117.41093,39.05231],[-117.41106,39.05222],[-117.41137,39.05205],[-117.41154,39.05193],[-117.41191,39.0516],[-117.41225,39.05125],[-117.41232,39.05112],[-117.41222,39.04995],[-117.41243,39.04948],[-117.41293,39.04895],[-117.41306,39.04883],[-117.4132,39.04872],[-117.41356,39.04854],[-117.41407,39.04832],[-117.41432,39.04814],[-117.41455,39.048],[-117.41474,39.04793],[-117.41492,39.04789],[-117.41518,39.04785],[-117.4153,39.04785],[-117.41539,39.0479],[-117.41546,39.04797],[-117.41607,39.04888],[-117.41618,39.04901],[-117.41649,39.04905],[-117.41796,39.04871],[-117.41929,39.04852],[-117.42054,39.04847],[-117.42092,39.04845],[-117.42116,39.04836],[-117.42155,39.04789],[-117.42175,39.04779],[-117.42233,39.04817],[-117.42255,39.04839],[-117.42268,39.04863],[-117.42303,39.04875],[-117.42367,39.04904],[-117.4239,39.04914],[-117.42429,39.04935],[-117.4251,39.04981],[-117.4247,39.05131],[-117.42451,39.0519],[-117.42446,39.05233],[-117.42438,39.05262]]}},{"type":"Feature","properties":{"name":"(unnamed public road)","road_class":"track","surface":"unpaved","source":"OpenStreetMap","source_detail":"osm way 1018712414","source_tile":"177/391"},"geometry":{"type":"LineString","coordinates":[[-117.40567,39.08105],[-117.40636,39.081],[-117.40754,39.08086],[-117.4094,39.08088],[-117.41011,39.08076],[-117.41097,39.08086],[-117.41211,39.08066],[-117.41335,39.08059],[-117.41569,39.08046],[-117.41622,39.08047],[-117.41677,39.08051],[-117.41726,39.08052],[-117.41816,39.08063],[-117.41856,39.08067],[-117.41898,39.08069],[-117.42016,39.08082],[-117.42105,39.08096],[-117.42188,39.08092],[-117.42243,39.0809],[-117.42282,39.08086],[-117.4234,39.08083],[-117.42347,39.08081],[-117.42443,39.08099],[-117.42523,39.0812],[-117.42565,39.08123],[-117.42593,39.0813],[-117.42648,39.08152],[-117.4269,39.0816],[-117.42751,39.08177],[-117.42867,39.08205],[-117.42907,39.08213],[-117.42972,39.08232],[-117.43075,39.08257],[-117.43139,39.08287],[-117.43192,39.08303],[-117.43212,39.08307],[-117.43273,39.08317],[-117.43294,39.08326],[-117.43338,39.08348],[-117.43409,39.08374],[-117.43451,39.08392],[-117.43474,39.08398],[-117.43533,39.08407],[-117.43554,39.08413],[-117.43611,39.08433],[-117.4364,39.08445],[-117.43652,39.08452],[-117.43694,39.08482],[-117.43707,39.08489],[-117.43728,39.08498],[-117.43754,39.08504],[-117.43855,39.08516]]}},{"type":"Feature","properties":{"name":"(unnamed public road)","road_class":"track","surface":"unpaved","source":"OpenStreetMap","source_detail":"osm way 1018712415","source_tile":"177/391"},"geometry":{"type":"LineString","coordinates":[[-117.40796,39.07707],[-117.40816,39.07714],[-117.40869,39.07724],[-117.41091,39.07739],[-117.41186,39.0776],[-117.41284,39.07776],[-117.413,39.07777],[-117.41337,39.07783],[-117.41409,39.0781],[-117.41475,39.07832],[-117.41581,39.07845],[-117.41651,39.07855],[-117.41716,39.07949],[-117.41756,39.07986],[-117.41777,39.07998],[-117.41791,39.08004],[-117.41834,39.0804],[-117.41856,39.08067],[-117.41864,39.08075],[-117.41948,39.08128],[-117.42003,39.08171],[-117.42011,39.08175],[-117.42048,39.08183],[-117.42058,39.08188],[-117.42063,39.08193],[-117.42102,39.08253],[-117.42122,39.08292],[-117.4214,39.0834],[-117.42148,39.08373],[-117.42163,39.08401],[-117.42185,39.08424],[-117.42255,39.08479],[-117.42294,39.08496],[-117.42309,39.08505],[-117.42341,39.08533],[-117.42392,39.08573],[-117.42406,39.0858]]}},{"type":"Feature","properties":{"name":"(unnamed public road)","road_class":"track","source":"OpenStreetMap","source_detail":"osm way 1230405234","source_tile":"177/391","surface_inferred":true},"geometry":{"type":"LineString","coordinates":[[-117.42671,39.03923],[-117.4261,39.0384],[-117.42553,39.03784],[-117.42454,39.037],[-117.42366,39.03597],[-117.4229,39.0349],[-117.42257,39.0342],[-117.42239,39.03392],[-117.42203,39.0336],[-117.42179,39.03319],[-117.42164,39.03275],[-117.42157,39.03241],[-117.42133,39.03199],[-117.42079,39.03097],[-117.42036,39.03038],[-117.41989,39.03004],[-117.41949,39.02987],[-117.41884,39.02947],[-117.41763,39.0287],[-117.41706,39.02827],[-117.41649,39.02772],[-117.41619,39.02747],[-117.41555,39.02712],[-117.41416,39.02611],[-117.41324,39.02549],[-117.41303,39.02537],[-117.41231,39.02488],[-117.41182,39.02456],[-117.41096,39.02406],[-117.41042,39.02369],[-117.40982,39.0233],[-117.40872,39.02254],[-117.40856,39.02245],[-117.40853,39.02242],[-117.40818,39.02218],[-117.40806,39.0221],[-117.40787,39.02195],[-117.40728,39.02152],[-117.40704,39.0213],[-117.40636,39.02079],[-117.40631,39.02074],[-117.40625,39.02069],[-117.40603,39.02051],[-117.40586,39.02029],[-117.4055,39.01981],[-117.40537,39.01969]]}}]}