{"type":"FeatureCollection","features":[{"type":"Feature","properties":{"name":"(unnamed public road)","road_class":"track","source":"OpenStreetMap","source_detail":"osm way 14363059","source_tile":"177/392","surface_inferred":true},"geometry":{"type":"LineString","coordinates":[[-117.39705,38.57948],[-117.3973,38.57969],[-117.3976,38.57998],[-117.39763,38.58004],[-117.39766,38.58006],[-117.39785,38.5802],[-117.39793,38.5803],[-117.39797,38.58038],[-117.39803,38.58045],[-117.39813,38.58056],[-117.39832,38.5807],[-117.39843,38.58073],[-117.39876,38.58079],[-117.39886,38.58085],[-117.39895,38.5809],[-117.39905,38.58095],[-117.39933,38.58104],[-117.39978,38.58115],[-117.40004,38.58126],[-117.40022,38.58132],[-117.40032,38.58134],[-117.40052,38.58136],[-117.40066,38.58139],[-117.40075,38.58143],[-117.40131,38.58156],[-117.40184,38.58165],[-117.40194,38.58164],[-117.40215,38.5816],[-117.40231,38.5816],[-117.40282,38.58165],[-117.4029,38.58165],[-117.40364,38.58167],[-117.40391,38.58165],[-117.40413,38.58162],[-117.40503,38.58142],[-117.40517,38.5814],[-117.40614,38.58131],[-117.40632,38.58132],[-117.40639,38.58131],[-117.40649,38.5813],[-117.40681,38.58131],[-117.40725,38.58134],[-117.40731,38.58135],[-117.40746,38.58141],[-117.40759,38.58143],[-117.40787,38.58147],[-117.40808,38.58151],[-117.40855,38.58165],[-117.4087,38.58172],[-117.40906,38.58191],[-117.40913,38.58195],[-117.40935,38.58217],[-117.40941,38.58221],[-117.40973,38.58233],[-117.40982,38.58235],[-117.41,38.58238],[-117.41014,38.58242],[-117.41023,38.58248],[-117.4103,38.58258],[-117.41034,38.58266],[-117.4104,38.58273],[-117.41059,38.58291],[-117.41066,38.58296],[-117.41081,38.58304],[-117.41087,38.58308],[-117.41114,38.58337],[-117.41115,38.58338],[-117.4112,38.58342],[-117.41137,38.58346],[-117.41163,38.5835],[-117.41176,38.58353],[-117.41185,38.58356],[-117.41205,38.58367],[-117.41213,38.58372],[-117.41241,38.58392],[-117.41258,38.58406],[-117.41265,38.58413],[-117.41269,38.58417],[-117.41298,38.58451],[-117.41317,38.58467],[-117.41332,38.58478],[-117.41351,38.58487],[-117.41365,38.58491],[-117.41397,38.58496],[-117.41406,38.58499],[-117.41415,38.58502],[-117.41422,38.58505],[-117.41425,38.58506],[-117.41441,38.58511],[-117.41448,38.58513],[-117.4152,38.58516],[-117.41538,38.58517],[-117.41545,38.58519],[-117.4155,38.58522],[-117.4156,38.58532],[-117.41577,38.58548],[-117.41596,38.58564],[-117.41604,38.5857],[-117.41615,38.5858],[-117.41617,38.58584],[-117.4162,38.58595],[-117.41621,38.58612],[-117.41621,38.58619],[-117.41618,38.58628],[-117.41615,38.58636],[-117.41613,38.58644],[-117.41611,38.58667],[-117.41612,38.58679],[-117.41618,38.58701],[-117.41625,38.58715],[-117.41633,38.58725],[-117.41653,38.58747],[-117.41683,38.58775],[-117.41703,38.58791],[-117.41717,38.58798],[-117.41729,38.588],[-117.4174,38.58801],[-117.4179,38.58795],[-117.41852,38.58796],[-117.41898,38.58798],[-117.41933,38.58802],[-117.4194,38.58804],[-117.4199,38.58827],[-117.42008,38.58837],[-117.42023,38.58855],[-117.42026,38.58858],[-117.42042,38.58866],[-117.42048,38.5887],[-117.42075,38.58896],[-117.42082,38.58911],[-117.4209,38.58919],[-117.4211,38.58937],[-117.42115,38.58943],[-117.42119,38.5895],[-117.42126,38.5897],[-117.42144,38.59006],[-117.4216,38.5904],[-117.42195,38.59106],[-117.42203,38.59114],[-117.42236,38.59136],[-117.42244,38.59141],[-117.42261,38.59151],[-117.42292,38.59165],[-117.42325,38.59178],[-117.42339,38.59183],[-117.42359,38.59187],[-117.42386,38.59187],[-117.42455,38.59185],[-117.42473,38.59184],[-117.42492,38.59183],[-117.42531,38.59183],[-117.42565,38.59184],[-117.42587,38.59188],[-117.42631,38.59199],[-117.42651,38.59203],[-117.42656,38.59205],[-117.42676,38.59213],[-117.427,38.59221],[-117.42711,38.59223],[-117.42747,38.59233],[-117.42769,38.59242],[-117.42779,38.59244],[-117.4279,38.59245],[-117.42862,38.59238],[-117.42888,38.59235],[-117.42928,38.5923],[-117.43023,38.59219],[-117.43045,38.59217],[-117.43061,38.59216],[-117.43117,38.59219],[-117.4315,38.59222],[-117.43166,38.59225],[-117.43171,38.59226],[-117.43194,38.59232],[-117.4321,38.5924],[-117.43222,38.59247],[-117.43238,38.59262],[-117.43246,38.59272],[-117.43249,38.59277],[-117.43251,38.59282],[-117.43262,38.59306],[-117.43268,38.59314],[-117.43302,38.59342],[-117.43325,38.59365],[-117.43338,38.59383],[-117.43378,38.59433],[-117.43391,38.59452],[-117.43394,38.59457],[-117.43412,38.59517],[-117.43414,38.5954],[-117.43414,38.59549],[-117.43417,38.5956],[-117.43422,38.5957],[-117.4343,38.59578],[-117.43447,38.59593],[-117.43457,38.59604],[-117.43463,38.59608],[-117.43482,38.59623],[-117.43488,38.5963],[-117.43515,38.59661],[-117.43529,38.59676],[-117.4354,38.59685],[-117.43629,38.59745],[-117.43651,38.59755],[-117.43718,38.59776],[-117.43734,38.59779],[-117.43751,38.59779],[-117.43767,38.59777],[-117.43794,38.59769],[-117.43802,38.59765],[-117.43818,38.59755],[-117.43852,38.59729],[-117.43881,38.59706],[-117.43891,38.59699],[-117.43918,38.59691],[-117.43921,38.5969],[-117.43941,38.59685],[-117.43999,38.59676],[-117.44034,38.59672],[-117.44052,38.59669],[-117.44065,38.59662],[-117.44127,38.59625],[-117.44135,38.59621],[-117.44163,38.59615],[-117.44181,38.59612],[-117.44217,38.5961],[-117.44253,38.5961],[-117.44276,38.59612],[-117.44296,38.59616],[-117.44319,38.59622],[-117.44338,38.59629],[-117.44352,38.59636],[-117.44371,38.59648],[-117.44409,38.59677],[-117.44413,38.59679],[-117.44422,38.59681],[-117.4448,38.59683],[-117.44491,38.59683],[-117.44525,38.59678],[-117.44559,38.59677],[-117.44567,38.59676],[-117.44583,38.59671],[-117.4462,38.59657],[-117.44634,38.59654],[-117.44647,38.59653],[-117.4467,38.59654],[-117.44681,38.59656],[-117.44696,38.59664],[-117.44718,38.59676],[-117.44751,38.59701],[-117.44765,38.59707],[-117.44798,38.59716],[-117.44814,38.5972],[-117.4486,38.59728],[-117.44888,38.59737],[-117.44924,38.59751],[-117.44984,38.59761],[-117.44997,38.59762],[-117.4502,38.59761],[-117.4503,38.59763],[-117.4504,38.59766],[-117.45045,38.59769],[-117.45061,38.59782],[-117.45077,38.59794],[-117.45096,38.59803],[-117.45129,38.59817],[-117.45135,38.59819],[-117.45173,38.59824],[-117.45184,38.59827],[-117.45273,38.59862],[-117.45316,38.59884],[-117.45332,38.59888],[-117.45363,38.59895],[-117.45377,38.59896],[-117.45393,38.59897],[-117.45401,38.59896],[-117.45421,38.59891],[-117.45436,38.5989],[-117.45444,38.5989],[-117.4546,38.59896],[-117.45471,38.59897],[-117.45506,38.59899],[-117.45553,38.59911],[-117.45562,38.59912],[-117.45574,38.5991],[-117.45677,38.59891],[-117.4571,38.59883],[-117.45744,38.59873],[-117.45772,38.59861],[-117.45823,38.59831],[-117.45836,38.59825],[-117.45853,38.5982],[-117.45868,38.59819],[-117.45881,38.59817],[-117.459,38.59815],[-117.45954,38.59814],[-117.45966,38.59816],[-117.45991,38.59821]]}},{"type":"Feature","properties":{"name":"National Forest Development Road 451","road_class":"track","source":"OpenStreetMap","source_detail":"osm way 14409164","source_tile":"177/393","surface_inferred":true},"geometry":{"type":"LineString","coordinates":[[-117.47935,38.5036],[-117.47872,38.50394],[-117.47793,38.50445],[-117.47438,38.50678],[-117.4722,38.50828],[-117.47157,38.50873],[-117.46917,38.51031],[-117.46791,38.51116],[-117.46742,38.51149],[-117.46602,38.51249],[-117.46488,38.51334],[-117.46463,38.51353],[-117.46375,38.51417],[-117.46346,38.51439],[-117.46239,38.51516],[-117.46188,38.51554],[-117.46067,38.51641],[-117.46014,38.5168],[-117.45978,38.51705],[-117.45804,38.51834],[-117.45761,38.51868],[-117.45609,38.51977],[-117.45588,38.51993],[-117.45553,38.52017],[-117.45344,38.5217],[-117.45295,38.52204],[-117.45225,38.52257],[-117.45186,38.52288],[-117.45101,38.5235],[-117.45014,38.52412],[-117.44991,38.52427],[-117.44974,38.52436],[-117.44904,38.52464],[-117.44861,38.5248],[-117.44847,38.52487],[-117.44803,38.52517],[-117.44773,38.52537],[-117.44744,38.52553],[-117.44712,38.52569],[-117.44701,38.52576],[-117.44694,38.52581],[-117.44685,38.52589],[-117.44628,38.52647],[-117.44615,38.52658],[-117.44601,38.52668],[-117.44582,38.52676],[-117.44384,38.52756],[-117.44346,38.52772],[-117.44315,38.52789],[-117.44251,38.52829],[-117.44181,38.52844],[-117.44159,38.5285],[-117.44126,38.52862],[-117.44114,38.52866],[-117.44004,38.52896],[-117.43913,38.52928],[-117.4389,38.52936],[-117.43863,38.5295],[-117.43825,38.52963],[-117.43816,38.52966],[-117.43744,38.53007],[-117.43719,38.53024],[-117.43709,38.53028],[-117.43694,38.53031],[-117.43681,38.53033],[-117.43637,38.53035],[-117.43617,38.53039],[-117.43586,38.53047],[-117.43559,38.53057],[-117.43534,38.53067],[-117.43515,38.53077],[-117.43503,38.53086],[-117.43477,38.53108],[-117.43436,38.53134],[-117.43371,38.53171],[-117.43252,38.5323],[-117.43204,38.5325],[-117.43184,38.53257],[-117.43161,38.53269],[-117.43121,38.53286],[-117.43094,38.53302],[-117.43046,38.53332],[-117.43037,38.53337],[-117.43028,38.53344],[-117.42996,38.53373],[-117.42986,38.53381],[-117.42887,38.53441],[-117.42851,38.53467],[-117.42833,38.53478],[-117.4281,38.53489],[-117.42731,38.53522],[-117.4272,38.53528],[-117.42704,38.53539],[-117.42691,38.53549],[-117.4267,38.53567],[-117.42657,38.53578],[-117.4262,38.53603],[-117.42556,38.53639],[-117.4251,38.53671],[-117.42491,38.53682],[-117.42457,38.53695],[-117.42439,38.53699],[-117.42421,38.53701],[-117.42361,38.53704],[-117.42335,38.53708],[-117.42294,38.53718],[-117.42246,38.53732],[-117.4217,38.53757],[-117.42105,38.5378],[-117.42033,38.53811],[-117.42002,38.5382],[-117.41977,38.53825],[-117.41958,38.53829],[-117.41938,38.53831],[-117.41926,38.53833],[-117.41912,38.53839],[-117.41902,38.53845],[-117.41884,38.5386],[-117.41863,38.53873],[-117.41848,38.5388],[-117.41832,38.53886],[-117.41817,38.53889],[-117.41797,38.53892],[-117.41691,38.53897],[-117.41606,38.53907],[-117.41554,38.53907],[-117.41534,38.53907],[-117.41496,38.53902],[-117.41478,38.53899],[-117.41423,38.53886],[-117.41395,38.53882],[-117.41372,38.53882],[-117.41357,38.53883],[-117.41249,38.53902],[-117.4123,38.53905],[-117.41222,38.53909],[-117.41204,38.53919],[-117.41184,38.53929],[-117.41157,38.53936],[-117.41144,38.53941],[-117.41113,38.53957],[-117.41098,38.53967],[-117.40988,38.54049],[-117.40979,38.54057],[-117.40972,38.54067],[-117.40968,38.54075],[-117.40954,38.54092],[-117.40925,38.5412],[-117.40906,38.54136],[-117.40902,38.54141],[-117.40874,38.54177],[-117.40832,38.54207],[-117.4078,38.54252],[-117.40769,38.54263],[-117.40766,38.54268],[-117.40761,38.5429],[-117.40759,38.54295],[-117.40755,38.54304],[-117.40749,38.54312],[-117.40737,38.54324],[-117.40712,38.54338],[-117.407,38.54349],[-117.40681,38.54369],[-117.40654,38.54402],[-117.40645,38.54408],[-117.40624,38.54427],[-117.4062,38.54432],[-117.40598,38.54472],[-117.40583,38.54486],[-117.40574,38.545],[-117.40571,38.54507],[-117.40568,38.54515],[-117.40565,38.54554],[-117.4056,38.54562],[-117.40551,38.54573],[-117.40541,38.54589],[-117.40522,38.54614],[-117.40513,38.54623],[-117.40507,38.54632],[-117.40503,38.54643],[-117.405,38.54654],[-117.40495,38.54665],[-117.4049,38.54675],[-117.40445,38.54739],[-117.4043,38.54764],[-117.40425,38.54773],[-117.40424,38.54784],[-117.40423,38.54808],[-117.40417,38.5483],[-117.40397,38.54884],[-117.40398,38.54887],[-117.40404,38.54896],[-117.40414,38.54914],[-117.4042,38.54927],[-117.40426,38.54949],[-117.40424,38.54959],[-117.40419,38.54969],[-117.40414,38.54998],[-117.40414,38.55041],[-117.40417,38.55062],[-117.40423,38.5508],[-117.40432,38.551],[-117.40447,38.55149],[-117.40451,38.55169],[-117.40451,38.55186],[-117.4044,38.5524],[-117.40439,38.55258],[-117.40438,38.55263],[-117.40437,38.5527],[-117.40436,38.55276],[-117.40431,38.55282],[-117.4042,38.55289],[-117.4039,38.55299],[-117.40376,38.55305],[-117.40336,38.55315],[-117.40327,38.5532],[-117.40316,38.55327],[-117.40298,38.55342],[-117.40288,38.55352],[-117.40262,38.55368],[-117.40218,38.554],[-117.40202,38.55409],[-117.40196,38.55414],[-117.40168,38.55446],[-117.40161,38.55452],[-117.40139,38.55469],[-117.40119,38.55492],[-117.40109,38.55501],[-117.40082,38.55532],[-117.4007,38.55544],[-117.40042,38.55568],[-117.40028,38.55586],[-117.39999,38.55635],[-117.39983,38.55651],[-117.39965,38.55683],[-117.39956,38.55691],[-117.39945,38.55707],[-117.39942,38.55715],[-117.3994,38.55724],[-117.39941,38.55737],[-117.39934,38.55779],[-117.39929,38.55792],[-117.39924,38.55803],[-117.39919,38.55811],[-117.39901,38.55826],[-117.39896,38.55832],[-117.39893,38.55838],[-117.39892,38.55844],[-117.39893,38.55865],[-117.39894,38.5588],[-117.39891,38.55888],[-117.39889,38.55896],[-117.39888,38.55906],[-117.39889,38.55915],[-117.39893,38.55944],[-117.39895,38.55958],[-117.3987,38.56009],[-117.39827,38.56083],[-117.39822,38.56094],[-117.39811,38.56132],[-117.39798,38.5617],[-117.39796,38.56181],[-117.39797,38.56191],[-117.39802,38.56213],[-117.39806,38.56226],[-117.39823,38.56263],[-117.39837,38.56285],[-117.39842,38.56291],[-117.39844,38.56294],[-117.39844,38.563],[-117.39842,38.56304],[-117.39838,38.56308],[-117.39828,38.56315],[-117.39821,38.56324],[-117.39812,38.56348],[-117.3981,38.56358],[-117.39808,38.56372],[-117.39804,38.56386],[-117.39801,38.56393],[-117.39796,38.56397],[-117.39792,38.564],[-117.39775,38.56406],[-117.39746,38.56415],[-117.3974,38.56419],[-117.39732,38.56429],[-117.39727,38.56435],[-117.39722,38.56446],[-117.39714,38.56471],[-117.3971,38.56492],[-117.39702,38.56516],[-117.39686,38.56559],[-117.39669,38.56598],[-117.39657,38.56618],[-117.39631,38.56653],[-117.39627,38.56661],[-117.39624,38.5667],[-117.39618,38.56714],[-117.39615,38.56728],[-117.39611,38.56737],[-117.39606,38.56742],[-117.39602,38.56745],[-117.39598,38.56748],[-117.39586,38.56761],[-117.39584,38.56765],[-117.39584,38.56774],[-117.39585,38.56786],[-117.39588,38.56794],[-117.39589,38.56808],[-117.39588,38.56838],[-117.3959,38.56845],[-117.39592,38.5685],[-117.39593,38.56858],[-117.3959,38.56867],[-117.39579,38.56887],[-117.39577,38.56896],[-117.39578,38.56901],[-117.39584,38.56912],[-117.39586,38.56919],[-117.39586,38.56941],[-117.39591,38.56965],[-117.39593,38.56987],[-117.39589,38.57036],[-117.39594,38.57055],[-117.39602,38.57098],[-117.39602,38.57112],[-117.39593,38.57132],[-117.39592,38.57153],[-117.39594,38.57158],[-117.39596,38.57166],[-117.39604,38.57179],[-117.39607,38.57182],[-117.39609,38.57187],[-117.3961,38.57195],[-117.39609,38.57204],[-117.39603,38.57225],[-117.39598,38.57247],[-117.39594,38.57256],[-117.39582,38.57272],[-117.39571,38.57282],[-117.39559,38.57289],[-117.39557,38.57292],[-117.39556,38.57297],[-117.39556,38.57309],[-117.39557,38.57323],[-117.39557,38.57331],[-117.39552,38.57349],[-117.39543,38.57368],[-117.3954,38.57375],[-117.3954,38.57388],[-117.39545,38.57412],[-117.3955,38.57458],[-117.3956,38.57485],[-117.39567,38.5752],[-117.39573,38.57538],[-117.39576,38.57543],[-117.39578,38.57566],[-117.39582,38.57593],[-117.39582,38.57629],[-117.39585,38.57656],[-117.39589,38.57673],[-117.39603,38.5771],[-117.3961,38.57738],[-117.3961,38.57755],[-117.39608,38.57779],[-117.39609,38.57789],[-117.39612,38.57799],[-117.39617,38.57807],[-117.39633,38.57829],[-117.39642,38.57849],[-117.39655,38.57863],[-117.3966,38.57872],[-117.39669,38.57892],[-117.39678,38.57907],[-117.39705,38.57948]]}}]}