{"type":"FeatureCollection","features":[{"type":"Feature","properties":{"name":"(unnamed public road)","road_class":"track","source":"OpenStreetMap","source_detail":"osm way 14359887","source_tile":"177/393","surface_inferred":true},"geometry":{"type":"LineString","coordinates":[[-117.46036,38.42324],[-117.46015,38.42323],[-117.45986,38.42321],[-117.45962,38.42318],[-117.45787,38.42286],[-117.45654,38.42267],[-117.45541,38.42253],[-117.45483,38.4225],[-117.45022,38.4218],[-117.44722,38.42137],[-117.4467,38.4213],[-117.44425,38.42095],[-117.44399,38.42092],[-117.4427,38.42084],[-117.43988,38.42089],[-117.43766,38.4209],[-117.4315,38.42102],[-117.42811,38.4211],[-117.42596,38.42115],[-117.42153,38.42125],[-117.41999,38.4213],[-117.41847,38.42136],[-117.41826,38.42134],[-117.4181,38.4213]]}},{"type":"Feature","properties":{"name":"(unnamed public road)","road_class":"track","source":"OpenStreetMap","source_detail":"osm way 14399849","source_tile":"177/393","surface_inferred":true},"geometry":{"type":"LineString","coordinates":[[-117.39033,38.27684],[-117.38919,38.29566],[-117.38843,38.3084],[-117.38773,38.32016],[-117.38753,38.32344],[-117.38751,38.32375],[-117.38691,38.33349],[-117.38678,38.33552],[-117.3858,38.35126],[-117.38563,38.35478],[-117.38562,38.35501],[-117.38554,38.35623],[-117.38541,38.35811],[-117.38504,38.36024],[-117.38438,38.36226],[-117.38217,38.36745],[-117.38195,38.3681],[-117.38189,38.36859],[-117.38243,38.37138],[-117.38264,38.37234],[-117.38294,38.37275],[-117.38579,38.37545],[-117.38693,38.37653],[-117.38775,38.37791],[-117.38835,38.37885],[-117.3896,38.38055],[-117.39005,38.38116],[-117.39023,38.38143],[-117.39025,38.38152],[-117.39033,38.38168],[-117.39074,38.3823],[-117.39095,38.38258],[-117.39107,38.38277],[-117.39176,38.38374],[-117.39195,38.38393],[-117.39225,38.38422],[-117.39238,38.3844],[-117.3934,38.38588],[-117.3943,38.38711],[-117.3951,38.38827],[-117.39549,38.38879],[-117.3964,38.39003],[-117.39826,38.39281],[-117.39911,38.394],[-117.39979,38.39501],[-117.40004,38.39534],[-117.40063,38.3962],[-117.40123,38.39705],[-117.40218,38.39833],[-117.40255,38.39886],[-117.40263,38.39896],[-117.40311,38.39968],[-117.40357,38.40033],[-117.4037,38.40053],[-117.40401,38.40098],[-117.40422,38.40126],[-117.40538,38.40296],[-117.4058,38.40362],[-117.40744,38.40593],[-117.40769,38.40628],[-117.40799,38.40669],[-117.4087,38.40773],[-117.40948,38.40885],[-117.41022,38.40994],[-117.411,38.41103],[-117.41179,38.41206],[-117.41252,38.4131],[-117.41292,38.41366],[-117.41345,38.41445],[-117.4141,38.4154],[-117.41441,38.41591],[-117.41458,38.41616],[-117.415,38.41672],[-117.41562,38.41767],[-117.41609,38.41838],[-117.41644,38.41888],[-117.41693,38.41963],[-117.41695,38.41965],[-117.41705,38.41978],[-117.4181,38.4213],[-117.41855,38.42197],[-117.41869,38.42215],[-117.41933,38.42296],[-117.41938,38.42302],[-117.41959,38.42342],[-117.41984,38.42383],[-117.4204,38.42463],[-117.42512,38.43148],[-117.42904,38.43725],[-117.43242,38.44206],[-117.43287,38.44268],[-117.43369,38.44387],[-117.43529,38.44615],[-117.43563,38.44662],[-117.43601,38.44722],[-117.43622,38.4475],[-117.43636,38.44769],[-117.43695,38.44852],[-117.43699,38.44858],[-117.43736,38.44906],[-117.43783,38.4497],[-117.43838,38.45049],[-117.43942,38.45194],[-117.43988,38.45257],[-117.44013,38.45293],[-117.44133,38.45463],[-117.44272,38.45656],[-117.44297,38.45697],[-117.44304,38.4571],[-117.44309,38.45729],[-117.44312,38.45732],[-117.44337,38.45754],[-117.44358,38.45771],[-117.44365,38.45779],[-117.44383,38.458],[-117.44414,38.4585],[-117.44438,38.45881],[-117.44527,38.46005],[-117.44618,38.46127],[-117.44675,38.462],[-117.44745,38.46305],[-117.44786,38.46358],[-117.44804,38.46384],[-117.44843,38.46442],[-117.44997,38.46662],[-117.45024,38.46699],[-117.45078,38.46695],[-117.45147,38.46691],[-117.45235,38.46684],[-117.4525,38.46683],[-117.4537,38.46675],[-117.45404,38.46672],[-117.45447,38.46666],[-117.45537,38.46657],[-117.45633,38.46644],[-117.4575,38.46624],[-117.45762,38.46622],[-117.45784,38.4662],[-117.45862,38.46609],[-117.4593,38.46601],[-117.46,38.46594],[-117.4605,38.4659],[-117.46184,38.46579],[-117.46209,38.46576],[-117.46281,38.46566],[-117.46381,38.46552],[-117.46418,38.46545],[-117.46476,38.4653],[-117.465,38.46525],[-117.46742,38.46493],[-117.46817,38.46481],[-117.46829,38.46478],[-117.46878,38.46471],[-117.469,38.46469],[-117.47002,38.46468],[-117.47021,38.46466],[-117.4711,38.46453],[-117.47156,38.4645],[-117.47206,38.46448],[-117.47283,38.46442],[-117.47546,38.46425],[-117.47638,38.46415],[-117.47717,38.46407],[-117.47724,38.46406],[-117.47769,38.46398],[-117.47788,38.46396],[-117.47829,38.46394],[-117.47873,38.46392],[-117.47952,38.46387],[-117.48555,38.46336],[-117.48722,38.46326],[-117.48726,38.46326],[-117.48764,38.46325],[-117.48829,38.4633],[-117.48872,38.46331],[-117.48989,38.46325],[-117.49137,38.46323],[-117.49292,38.46316],[-117.49307,38.46317],[-117.49312,38.46318],[-117.49329,38.46316],[-117.49389,38.46315],[-117.49502,38.46312],[-117.4955,38.46312],[-117.49609,38.46312],[-117.49619,38.4631],[-117.49623,38.46309],[-117.49675,38.46308],[-117.49772,38.46302],[-117.4988,38.46298],[-117.49997,38.46296],[-117.50046,38.46293],[-117.50098,38.46286],[-117.50128,38.46284],[-117.50151,38.46286],[-117.50204,38.46292],[-117.50221,38.46293],[-117.50299,38.46292],[-117.50343,38.4629],[-117.50396,38.46292],[-117.50451,38.46297],[-117.50471,38.46298],[-117.50481,38.46297],[-117.50518,38.46296],[-117.50541,38.46299],[-117.50601,38.46311],[-117.50661,38.4632],[-117.50682,38.46323],[-117.5071,38.46324],[-117.50782,38.46322],[-117.50825,38.46321],[-117.50914,38.46319],[-117.51118,38.46318],[-117.51148,38.46317],[-117.51206,38.46311],[-117.51298,38.46306],[-117.51331,38.46305],[-117.5134,38.46303],[-117.5136,38.46301],[-117.51392,38.46298],[-117.51554,38.4629],[-117.51613,38.4629],[-117.5163,38.46291],[-117.51687,38.46299],[-117.51745,38.46311],[-117.51769,38.46317],[-117.51834,38.46339],[-117.51909,38.46367],[-117.51986,38.46392],[-117.52008,38.46399],[-117.52048,38.46408],[-117.52064,38.46411],[-117.52081,38.46412],[-117.52099,38.46411],[-117.52132,38.46408],[-117.52169,38.46406],[-117.52194,38.46406],[-117.52216,38.46408],[-117.52287,38.46418],[-117.52361,38.4643],[-117.52445,38.46442],[-117.52604,38.46454],[-117.52644,38.46456],[-117.52692,38.46458],[-117.52726,38.46463],[-117.5279,38.46466],[-117.52839,38.46467],[-117.52869,38.46466],[-117.52905,38.46465],[-117.52985,38.46463],[-117.52999,38.46462],[-117.53009,38.4646],[-117.5302,38.46456],[-117.53027,38.46455],[-117.53046,38.46454],[-117.53184,38.46458],[-117.53212,38.46459],[-117.53277,38.46471],[-117.53304,38.46472],[-117.53323,38.46471],[-117.53352,38.46466],[-117.53398,38.46455],[-117.53451,38.46446],[-117.53468,38.46445],[-117.53626,38.46445],[-117.53657,38.46443],[-117.53719,38.46442],[-117.53762,38.46442],[-117.5378,38.46443],[-117.53827,38.46444],[-117.53862,38.46442],[-117.53879,38.46441],[-117.53905,38.46439],[-117.53924,38.46435],[-117.5395,38.46426],[-117.53973,38.46415],[-117.54028,38.46395],[-117.5405,38.46385],[-117.54151,38.46331],[-117.54189,38.46313],[-117.54228,38.46297],[-117.54266,38.46284],[-117.54406,38.46252],[-117.54419,38.46251],[-117.54593,38.46245],[-117.5464,38.4624],[-117.54826,38.46191],[-117.55083,38.46139],[-117.55221,38.461],[-117.55338,38.46078],[-117.55498,38.46068],[-117.55633,38.46037],[-117.55647,38.46037],[-117.55711,38.46036],[-117.55739,38.46045],[-117.55768,38.46057],[-117.55902,38.46058],[-117.56032,38.46036],[-117.5618,38.46018],[-117.56396,38.46013],[-117.56534,38.45992],[-117.56605,38.45991],[-117.56683,38.46002],[-117.5674,38.46],[-117.56828,38.45992],[-117.5687,38.45998],[-117.56919,38.46012],[-117.5697,38.46018],[-117.57042,38.46013],[-117.57212,38.45975],[-117.57363,38.45928],[-117.57447,38.45918],[-117.5752,38.45899],[-117.57897,38.45836],[-117.58004,38.45813],[-117.58196,38.45776],[-117.58277,38.45759],[-117.58337,38.45762],[-117.58394,38.45777],[-117.58474,38.45784],[-117.58528,38.4578],[-117.5858,38.45753],[-117.5881,38.45616],[-117.58874,38.45567],[-117.58989,38.45486],[-117.59086,38.45447],[-117.59164,38.45408],[-117.59279,38.45319],[-117.59326,38.45288],[-117.5938,38.45228],[-117.59419,38.45204],[-117.59527,38.4519],[-117.59627,38.45181],[-117.59657,38.45187],[-117.59709,38.45207],[-117.5975,38.45203],[-117.5986,38.45179],[-117.59925,38.45176],[-117.59973,38.45168],[-117.60039,38.45126],[-117.60097,38.45104],[-117.60124,38.4507],[-117.60192,38.45003],[-117.60287,38.44908],[-117.60394,38.44817],[-117.60497,38.44724],[-117.60546,38.44679],[-117.6065,38.44626],[-117.60714,38.44593],[-117.60724,38.44585],[-117.60803,38.44539],[-117.60941,38.4441],[-117.60981,38.44388],[-117.61211,38.44224],[-117.61373,38.44117],[-117.61492,38.44019],[-117.61626,38.43961],[-117.61659,38.43952],[-117.61714,38.43882],[-117.61775,38.43816],[-117.61792,38.43799],[-117.61798,38.43764],[-117.61804,38.43751],[-117.61815,38.43703],[-117.6182,38.43677],[-117.61821,38.43659],[-117.61819,38.43636],[-117.61811,38.43604],[-117.61799,38.43575],[-117.61797,38.43567],[-117.61795,38.43547],[-117.61785,38.43501],[-117.61777,38.43477],[-117.61772,38.43467],[-117.61765,38.43448],[-117.61761,38.43415],[-117.61756,38.43388],[-117.61756,38.43384],[-117.61755,38.43368],[-117.61753,38.43354],[-117.61754,38.43338],[-117.61758,38.43326],[-117.61769,38.43309],[-117.61774,38.43297],[-117.61777,38.43278],[-117.61776,38.43265],[-117.6177,38.43232],[-117.61761,38.43201],[-117.61761,38.43191],[-117.61762,38.43178],[-117.61764,38.43152],[-117.61759,38.43129],[-117.61751,38.43072],[-117.6175,38.43058],[-117.61751,38.43052],[-117.61764,38.43012],[-117.61769,38.42994],[-117.6177,38.42973],[-117.61774,38.42958],[-117.61785,38.42927],[-117.61786,38.42919],[-117.61786,38.42913],[-117.6178,38.42883],[-117.61778,38.42864],[-117.61776,38.42808],[-117.61778,38.42784],[-117.61778,38.42754],[-117.61775,38.4274],[-117.61758,38.42705],[-117.61754,38.42692],[-117.61748,38.42669],[-117.61737,38.42648],[-117.61718,38.42599],[-117.61688,38.4251],[-117.61685,38.42498],[-117.61682,38.42471],[-117.61671,38.42429],[-117.61661,38.42387],[-117.61654,38.42349],[-117.61648,38.42294],[-117.61637,38.42206],[-117.61634,38.42186],[-117.6163,38.42176],[-117.61626,38.42171],[-117.61622,38.42167],[-117.61614,38.42163],[-117.61604,38.42159],[-117.6159,38.42164],[-117.61562,38.42177],[-117.61463,38.42229],[-117.61353,38.42287],[-117.61216,38.42359],[-117.612,38.42369],[-117.61153,38.42401],[-117.61127,38.42417],[-117.61087,38.4244],[-117.61034,38.42467],[-117.61018,38.42475],[-117.60979,38.42488],[-117.60906,38.4252],[-117.60888,38.42526],[-117.60882,38.42525],[-117.60874,38.42522]]}},{"type":"Feature","properties":{"name":"National Forest Development Road 451","road_class":"track","source":"OpenStreetMap","source_detail":"osm way 14409164","source_tile":"177/393","surface_inferred":true},"geometry":{"type":"LineString","coordinates":[[-117.47935,38.5036],[-117.47872,38.50394],[-117.47793,38.50445],[-117.47438,38.50678],[-117.4722,38.50828],[-117.47157,38.50873],[-117.46917,38.51031],[-117.46791,38.51116],[-117.46742,38.51149],[-117.46602,38.51249],[-117.46488,38.51334],[-117.46463,38.51353],[-117.46375,38.51417],[-117.46346,38.51439],[-117.46239,38.51516],[-117.46188,38.51554],[-117.46067,38.51641],[-117.46014,38.5168],[-117.45978,38.51705],[-117.45804,38.51834],[-117.45761,38.51868],[-117.45609,38.51977],[-117.45588,38.51993],[-117.45553,38.52017],[-117.45344,38.5217],[-117.45295,38.52204],[-117.45225,38.52257],[-117.45186,38.52288],[-117.45101,38.5235],[-117.45014,38.52412],[-117.44991,38.52427],[-117.44974,38.52436],[-117.44904,38.52464],[-117.44861,38.5248],[-117.44847,38.52487],[-117.44803,38.52517],[-117.44773,38.52537],[-117.44744,38.52553],[-117.44712,38.52569],[-117.44701,38.52576],[-117.44694,38.52581],[-117.44685,38.52589],[-117.44628,38.52647],[-117.44615,38.52658],[-117.44601,38.52668],[-117.44582,38.52676],[-117.44384,38.52756],[-117.44346,38.52772],[-117.44315,38.52789],[-117.44251,38.52829],[-117.44181,38.52844],[-117.44159,38.5285],[-117.44126,38.52862],[-117.44114,38.52866],[-117.44004,38.52896],[-117.43913,38.52928],[-117.4389,38.52936],[-117.43863,38.5295],[-117.43825,38.52963],[-117.43816,38.52966],[-117.43744,38.53007],[-117.43719,38.53024],[-117.43709,38.53028],[-117.43694,38.53031],[-117.43681,38.53033],[-117.43637,38.53035],[-117.43617,38.53039],[-117.43586,38.53047],[-117.43559,38.53057],[-117.43534,38.53067],[-117.43515,38.53077],[-117.43503,38.53086],[-117.43477,38.53108],[-117.43436,38.53134],[-117.43371,38.53171],[-117.43252,38.5323],[-117.43204,38.5325],[-117.43184,38.53257],[-117.43161,38.53269],[-117.43121,38.53286],[-117.43094,38.53302],[-117.43046,38.53332],[-117.43037,38.53337],[-117.43028,38.53344],[-117.42996,38.53373],[-117.42986,38.53381],[-117.42887,38.53441],[-117.42851,38.53467],[-117.42833,38.53478],[-117.4281,38.53489],[-117.42731,38.53522],[-117.4272,38.53528],[-117.42704,38.53539],[-117.42691,38.53549],[-117.4267,38.53567],[-117.42657,38.53578],[-117.4262,38.53603],[-117.42556,38.53639],[-117.4251,38.53671],[-117.42491,38.53682],[-117.42457,38.53695],[-117.42439,38.53699],[-117.42421,38.53701],[-117.42361,38.53704],[-117.42335,38.53708],[-117.42294,38.53718],[-117.42246,38.53732],[-117.4217,38.53757],[-117.42105,38.5378],[-117.42033,38.53811],[-117.42002,38.5382],[-117.41977,38.53825],[-117.41958,38.53829],[-117.41938,38.53831],[-117.41926,38.53833],[-117.41912,38.53839],[-117.41902,38.53845],[-117.41884,38.5386],[-117.41863,38.53873],[-117.41848,38.5388],[-117.41832,38.53886],[-117.41817,38.53889],[-117.41797,38.53892],[-117.41691,38.53897],[-117.41606,38.53907],[-117.41554,38.53907],[-117.41534,38.53907],[-117.41496,38.53902],[-117.41478,38.53899],[-117.41423,38.53886],[-117.41395,38.53882],[-117.41372,38.53882],[-117.41357,38.53883],[-117.41249,38.53902],[-117.4123,38.53905],[-117.41222,38.53909],[-117.41204,38.53919],[-117.41184,38.53929],[-117.41157,38.53936],[-117.41144,38.53941],[-117.41113,38.53957],[-117.41098,38.53967],[-117.40988,38.54049],[-117.40979,38.54057],[-117.40972,38.54067],[-117.40968,38.54075],[-117.40954,38.54092],[-117.40925,38.5412],[-117.40906,38.54136],[-117.40902,38.54141],[-117.40874,38.54177],[-117.40832,38.54207],[-117.4078,38.54252],[-117.40769,38.54263],[-117.40766,38.54268],[-117.40761,38.5429],[-117.40759,38.54295],[-117.40755,38.54304],[-117.40749,38.54312],[-117.40737,38.54324],[-117.40712,38.54338],[-117.407,38.54349],[-117.40681,38.54369],[-117.40654,38.54402],[-117.40645,38.54408],[-117.40624,38.54427],[-117.4062,38.54432],[-117.40598,38.54472],[-117.40583,38.54486],[-117.40574,38.545],[-117.40571,38.54507],[-117.40568,38.54515],[-117.40565,38.54554],[-117.4056,38.54562],[-117.40551,38.54573],[-117.40541,38.54589],[-117.40522,38.54614],[-117.40513,38.54623],[-117.40507,38.54632],[-117.40503,38.54643],[-117.405,38.54654],[-117.40495,38.54665],[-117.4049,38.54675],[-117.40445,38.54739],[-117.4043,38.54764],[-117.40425,38.54773],[-117.40424,38.54784],[-117.40423,38.54808],[-117.40417,38.5483],[-117.40397,38.54884],[-117.40398,38.54887],[-117.40404,38.54896],[-117.40414,38.54914],[-117.4042,38.54927],[-117.40426,38.54949],[-117.40424,38.54959],[-117.40419,38.54969],[-117.40414,38.54998],[-117.40414,38.55041],[-117.40417,38.55062],[-117.40423,38.5508],[-117.40432,38.551],[-117.40447,38.55149],[-117.40451,38.55169],[-117.40451,38.55186],[-117.4044,38.5524],[-117.40439,38.55258],[-117.40438,38.55263],[-117.40437,38.5527],[-117.40436,38.55276],[-117.40431,38.55282],[-117.4042,38.55289],[-117.4039,38.55299],[-117.40376,38.55305],[-117.40336,38.55315],[-117.40327,38.5532],[-117.40316,38.55327],[-117.40298,38.55342],[-117.40288,38.55352],[-117.40262,38.55368],[-117.40218,38.554],[-117.40202,38.55409],[-117.40196,38.55414],[-117.40168,38.55446],[-117.40161,38.55452],[-117.40139,38.55469],[-117.40119,38.55492],[-117.40109,38.55501],[-117.40082,38.55532],[-117.4007,38.55544],[-117.40042,38.55568],[-117.40028,38.55586],[-117.39999,38.55635],[-117.39983,38.55651],[-117.39965,38.55683],[-117.39956,38.55691],[-117.39945,38.55707],[-117.39942,38.55715],[-117.3994,38.55724],[-117.39941,38.55737],[-117.39934,38.55779],[-117.39929,38.55792],[-117.39924,38.55803],[-117.39919,38.55811],[-117.39901,38.55826],[-117.39896,38.55832],[-117.39893,38.55838],[-117.39892,38.55844],[-117.39893,38.55865],[-117.39894,38.5588],[-117.39891,38.55888],[-117.39889,38.55896],[-117.39888,38.55906],[-117.39889,38.55915],[-117.39893,38.55944],[-117.39895,38.55958],[-117.3987,38.56009],[-117.39827,38.56083],[-117.39822,38.56094],[-117.39811,38.56132],[-117.39798,38.5617],[-117.39796,38.56181],[-117.39797,38.56191],[-117.39802,38.56213],[-117.39806,38.56226],[-117.39823,38.56263],[-117.39837,38.56285],[-117.39842,38.56291],[-117.39844,38.56294],[-117.39844,38.563],[-117.39842,38.56304],[-117.39838,38.56308],[-117.39828,38.56315],[-117.39821,38.56324],[-117.39812,38.56348],[-117.3981,38.56358],[-117.39808,38.56372],[-117.39804,38.56386],[-117.39801,38.56393],[-117.39796,38.56397],[-117.39792,38.564],[-117.39775,38.56406],[-117.39746,38.56415],[-117.3974,38.56419],[-117.39732,38.56429],[-117.39727,38.56435],[-117.39722,38.56446],[-117.39714,38.56471],[-117.3971,38.56492],[-117.39702,38.56516],[-117.39686,38.56559],[-117.39669,38.56598],[-117.39657,38.56618],[-117.39631,38.56653],[-117.39627,38.56661],[-117.39624,38.5667],[-117.39618,38.56714],[-117.39615,38.56728],[-117.39611,38.56737],[-117.39606,38.56742],[-117.39602,38.56745],[-117.39598,38.56748],[-117.39586,38.56761],[-117.39584,38.56765],[-117.39584,38.56774],[-117.39585,38.56786],[-117.39588,38.56794],[-117.39589,38.56808],[-117.39588,38.56838],[-117.3959,38.56845],[-117.39592,38.5685],[-117.39593,38.56858],[-117.3959,38.56867],[-117.39579,38.56887],[-117.39577,38.56896],[-117.39578,38.56901],[-117.39584,38.56912],[-117.39586,38.56919],[-117.39586,38.56941],[-117.39591,38.56965],[-117.39593,38.56987],[-117.39589,38.57036],[-117.39594,38.57055],[-117.39602,38.57098],[-117.39602,38.57112],[-117.39593,38.57132],[-117.39592,38.57153],[-117.39594,38.57158],[-117.39596,38.57166],[-117.39604,38.57179],[-117.39607,38.57182],[-117.39609,38.57187],[-117.3961,38.57195],[-117.39609,38.57204],[-117.39603,38.57225],[-117.39598,38.57247],[-117.39594,38.57256],[-117.39582,38.57272],[-117.39571,38.57282],[-117.39559,38.57289],[-117.39557,38.57292],[-117.39556,38.57297],[-117.39556,38.57309],[-117.39557,38.57323],[-117.39557,38.57331],[-117.39552,38.57349],[-117.39543,38.57368],[-117.3954,38.57375],[-117.3954,38.57388],[-117.39545,38.57412],[-117.3955,38.57458],[-117.3956,38.57485],[-117.39567,38.5752],[-117.39573,38.57538],[-117.39576,38.57543],[-117.39578,38.57566],[-117.39582,38.57593],[-117.39582,38.57629],[-117.39585,38.57656],[-117.39589,38.57673],[-117.39603,38.5771],[-117.3961,38.57738],[-117.3961,38.57755],[-117.39608,38.57779],[-117.39609,38.57789],[-117.39612,38.57799],[-117.39617,38.57807],[-117.39633,38.57829],[-117.39642,38.57849],[-117.39655,38.57863],[-117.3966,38.57872],[-117.39669,38.57892],[-117.39678,38.57907],[-117.39705,38.57948]]}},{"type":"Feature","properties":{"name":"Cloverdale - Peavine Road","road_class":"unclassified","surface":"unpaved","source":"OpenStreetMap","source_detail":"osm way 194574463","source_tile":"177/393"},"geometry":{"type":"LineString","coordinates":[[-117.36747,38.46152],[-117.37158,38.46166],[-117.37321,38.46173],[-117.37347,38.46174],[-117.37744,38.46195],[-117.37913,38.46207],[-117.38051,38.46215],[-117.38209,38.46227],[-117.38359,38.46238],[-117.38368,38.46239],[-117.38606,38.46254],[-117.38733,38.46263],[-117.38899,38.46273],[-117.39087,38.46281],[-117.39272,38.46291],[-117.39386,38.46301],[-117.39632,38.46316],[-117.39677,38.46317],[-117.39802,38.46325],[-117.39858,38.4633],[-117.40022,38.46341],[-117.40046,38.46343],[-117.40121,38.46349],[-117.40144,38.46351],[-117.40228,38.46361],[-117.40415,38.46387],[-117.40474,38.46393],[-117.40548,38.46399],[-117.40555,38.464],[-117.40583,38.46403],[-117.40613,38.46407],[-117.40632,38.46411],[-117.40694,38.46427],[-117.40713,38.46431],[-117.40729,38.46434],[-117.40916,38.46461],[-117.41,38.46476],[-117.41036,38.46484],[-117.41137,38.46503],[-117.41162,38.46508],[-117.4134,38.46538],[-117.41369,38.46542],[-117.41384,38.46544],[-117.41439,38.46549],[-117.41468,38.46554],[-117.41509,38.46563],[-117.41533,38.4657],[-117.41582,38.46584],[-117.41624,38.46597],[-117.41657,38.46606],[-117.41745,38.46622],[-117.41823,38.46635],[-117.41916,38.46655],[-117.42021,38.46677],[-117.42037,38.4668],[-117.42096,38.46687],[-117.42125,38.46689],[-117.42196,38.46692],[-117.42391,38.46706],[-117.42452,38.46711],[-117.4255,38.46718],[-117.42557,38.46718],[-117.42706,38.46726],[-117.42745,38.46728],[-117.42972,38.46751],[-117.43058,38.46757],[-117.43138,38.46767],[-117.4322,38.46779],[-117.43314,38.46795],[-117.43825,38.46923],[-117.44726,38.47156],[-117.45252,38.47281],[-117.45376,38.47307],[-117.45428,38.47325],[-117.45466,38.47348],[-117.45501,38.47374],[-117.45513,38.47383],[-117.45531,38.47399],[-117.45655,38.4753],[-117.45677,38.47556],[-117.45713,38.47603],[-117.45731,38.4763],[-117.45873,38.47818],[-117.45919,38.47879],[-117.45926,38.47889],[-117.4606,38.48065],[-117.46115,38.48134],[-117.46195,38.48226],[-117.4622,38.4826],[-117.46245,38.48297],[-117.46264,38.48327],[-117.46268,38.48334],[-117.46336,38.48453],[-117.46366,38.48508],[-117.46404,38.48571],[-117.46523,38.48788],[-117.4657,38.48876],[-117.46615,38.48962],[-117.46691,38.49096],[-117.46749,38.49214],[-117.4678,38.49282],[-117.46841,38.49419],[-117.46876,38.49495],[-117.4691,38.49578],[-117.46921,38.49595],[-117.46931,38.49608],[-117.46947,38.49627],[-117.47026,38.49689],[-117.47116,38.49755],[-117.47145,38.49774],[-117.47261,38.49847],[-117.4729,38.4987],[-117.47354,38.49925],[-117.47379,38.49945],[-117.47421,38.49976],[-117.4747,38.50009],[-117.47517,38.50043],[-117.4768,38.50169],[-117.47734,38.5021],[-117.47897,38.5033],[-117.47935,38.5036],[-117.48,38.50407],[-117.48136,38.50503],[-117.48221,38.50564],[-117.48306,38.50624],[-117.48334,38.50645],[-117.48441,38.50724],[-117.48574,38.50826],[-117.4887,38.51043],[-117.48952,38.51101],[-117.49075,38.51195],[-117.49218,38.51308],[-117.49235,38.51321],[-117.49319,38.51376],[-117.49398,38.51433],[-117.49478,38.51497],[-117.49631,38.51617],[-117.49765,38.51728],[-117.49903,38.51823],[-117.49947,38.5185],[-117.5002,38.51903],[-117.50227,38.52063],[-117.50294,38.52113],[-117.50426,38.52208],[-117.50516,38.52272],[-117.51051,38.52657],[-117.51195,38.52756],[-117.51302,38.52828],[-117.51372,38.52879],[-117.51384,38.52888],[-117.51489,38.52966],[-117.5151,38.52981],[-117.51548,38.53009],[-117.51552,38.53012],[-117.51624,38.53052],[-117.5171,38.53103],[-117.51805,38.53156],[-117.51877,38.53198],[-117.51927,38.53228],[-117.5194,38.53236],[-117.52043,38.53297],[-117.52175,38.53372],[-117.52332,38.53456],[-117.52541,38.53559],[-117.52557,38.53568],[-117.52643,38.53623],[-117.52755,38.53704],[-117.52806,38.5374],[-117.52947,38.53829],[-117.53041,38.5388],[-117.53167,38.53949],[-117.53286,38.54024],[-117.533,38.54032],[-117.53356,38.54068],[-117.53469,38.54133],[-117.53538,38.54165],[-117.5356,38.54175],[-117.53593,38.54192],[-117.53613,38.54203],[-117.53639,38.5422],[-117.53693,38.54263],[-117.53719,38.54284],[-117.53739,38.54301],[-117.53794,38.54345],[-117.53851,38.54394],[-117.53877,38.54413],[-117.53936,38.54454],[-117.53972,38.5448],[-117.54039,38.54533],[-117.54058,38.54551],[-117.54067,38.54563],[-117.54084,38.54581],[-117.54094,38.54591],[-117.54109,38.54595],[-117.54133,38.54595]]}},{"type":"Feature","properties":{"name":"(unnamed public road)","road_class":"track","source":"OpenStreetMap","source_detail":"osm way 783801023","source_tile":"177/393","surface_inferred":true},"geometry":{"type":"LineString","coordinates":[[-117.41575,38.29287],[-117.4197,38.29414],[-117.45507,38.30549],[-117.46084,38.30724],[-117.46664,38.30895],[-117.46701,38.30906]]}},{"type":"Feature","properties":{"name":"(unnamed public road)","road_class":"track","source":"OpenStreetMap","source_detail":"osm way 783801024","source_tile":"177/393","surface_inferred":true},"geometry":{"type":"LineString","coordinates":[[-117.5071,38.42189],[-117.50599,38.42363],[-117.49659,38.43819],[-117.49616,38.4384],[-117.49608,38.43843],[-117.49569,38.43856],[-117.48899,38.43854],[-117.48787,38.43854],[-117.47946,38.43854],[-117.47927,38.43856],[-117.45111,38.44507],[-117.43695,38.44852],[-117.41472,38.45376],[-117.41441,38.45388],[-117.40823,38.45865],[-117.40513,38.46105],[-117.40234,38.4632],[-117.40181,38.46334],[-117.40121,38.46349]]}},{"type":"Feature","properties":{"name":"(unnamed public road)","road_class":"track","source":"OpenStreetMap","source_detail":"osm way 784629731","source_tile":"177/394","surface_inferred":true},"geometry":{"type":"LineString","coordinates":[[-117.46091,38.22406],[-117.45934,38.22758],[-117.45821,38.2303],[-117.45769,38.23112],[-117.45229,38.24319],[-117.45138,38.24574],[-117.45048,38.2469],[-117.4498,38.24845],[-117.44917,38.24985],[-117.44838,38.25093],[-117.44786,38.25202],[-117.44548,38.25403],[-117.44405,38.25517],[-117.44022,38.26017],[-117.43978,38.26075],[-117.43757,38.26397],[-117.4366,38.26494],[-117.43495,38.26712],[-117.43345,38.26949],[-117.43048,38.27391],[-117.42945,38.27524],[-117.42825,38.27768],[-117.42815,38.27808],[-117.42535,38.2815],[-117.42464,38.28236],[-117.42391,38.2831],[-117.42322,38.28479],[-117.422,38.28834],[-117.4197,38.29414],[-117.41921,38.29525],[-117.41819,38.29681],[-117.41731,38.29818],[-117.41226,38.30609],[-117.41052,38.30862],[-117.40792,38.31242],[-117.40649,38.31442],[-117.40574,38.3169],[-117.40532,38.31938],[-117.40494,38.32163],[-117.40462,38.32348],[-117.4046,38.32693],[-117.40404,38.3317]]}},{"type":"Feature","properties":{"name":"(unnamed public road)","road_class":"track","source":"OpenStreetMap","source_detail":"osm way 784629732","source_tile":"177/393","surface_inferred":true},"geometry":{"type":"LineString","coordinates":[[-117.41575,38.29287],[-117.41771,38.29034],[-117.41983,38.28822],[-117.42114,38.2863],[-117.42198,38.28512],[-117.42391,38.2831]]}},{"type":"Feature","properties":{"name":"(unnamed public road)","road_class":"track","surface":"unpaved","source":"OpenStreetMap","source_detail":"osm way 816997374","source_tile":"177/393"},"geometry":{"type":"LineString","coordinates":[[-117.4221,38.3089],[-117.42225,38.30791],[-117.42223,38.30762],[-117.4221,38.30718],[-117.42185,38.30676],[-117.41996,38.30323],[-117.41968,38.30276],[-117.4195,38.30242],[-117.419,38.30137],[-117.41794,38.29929],[-117.41734,38.29823],[-117.41731,38.29818],[-117.41702,38.29761],[-117.41572,38.29431],[-117.41551,38.29374],[-117.4153,38.29321],[-117.41527,38.29282],[-117.41521,38.29203]]}},{"type":"Feature","properties":{"name":"(unnamed public road)","road_class":"track","surface":"unpaved","source":"OpenStreetMap","source_detail":"osm way 892166212","source_tile":"177/393"},"geometry":{"type":"LineString","coordinates":[[-117.42188,38.47401],[-117.42118,38.47387],[-117.41964,38.47375],[-117.41891,38.47371],[-117.41819,38.47371],[-117.41802,38.47374],[-117.41791,38.47378],[-117.41764,38.47382],[-117.41716,38.47386],[-117.41671,38.47367],[-117.41661,38.47367],[-117.41642,38.47371],[-117.41379,38.47384],[-117.41292,38.4739],[-117.41273,38.47397],[-117.41247,38.47409],[-117.41228,38.4741],[-117.41112,38.4741],[-117.41105,38.47411],[-117.41075,38.47417],[-117.4103,38.47419],[-117.40894,38.47421],[-117.40711,38.474],[-117.40635,38.47391],[-117.40544,38.47371],[-117.40414,38.47341],[-117.40332,38.47321],[-117.40304,38.47318],[-117.40216,38.47312],[-117.40209,38.4731],[-117.40002,38.47345],[-117.39861,38.47372],[-117.39795,38.47393],[-117.39778,38.474],[-117.39774,38.4741],[-117.39769,38.47451],[-117.39773,38.47468],[-117.39761,38.4758],[-117.3974,38.47771],[-117.39731,38.4782],[-117.3971,38.47866],[-117.39705,38.47884],[-117.39707,38.4792],[-117.39721,38.47943],[-117.39688,38.48194],[-117.39679,38.48217],[-117.39664,38.48274],[-117.39651,38.48312],[-117.39614,38.48463],[-117.39602,38.48492],[-117.39586,38.48521],[-117.39582,38.48526],[-117.39572,38.48548],[-117.39563,38.48629],[-117.39527,38.48719],[-117.39484,38.4886],[-117.39468,38.48918]]}},{"type":"Feature","properties":{"name":"(unnamed public road)","road_class":"track","surface":"unpaved","source":"OpenStreetMap","source_detail":"osm way 892166221","source_tile":"177/393"},"geometry":{"type":"LineString","coordinates":[[-117.42274,38.48696],[-117.42248,38.48675],[-117.42215,38.48662],[-117.42181,38.48637],[-117.42158,38.48621],[-117.42134,38.48615],[-117.42116,38.48609],[-117.42089,38.48606],[-117.42074,38.48596],[-117.42024,38.48582],[-117.42002,38.4858],[-117.41987,38.4858],[-117.41951,38.4857],[-117.41935,38.48571],[-117.41896,38.48581],[-117.41857,38.48595],[-117.41845,38.48609],[-117.41819,38.48634],[-117.41788,38.48667],[-117.41768,38.48689],[-117.41758,38.48696],[-117.41749,38.48698],[-117.41737,38.48693],[-117.41708,38.48681],[-117.41681,38.48681],[-117.4164,38.48665],[-117.41615,38.48656],[-117.4161,38.48639],[-117.41615,38.48612],[-117.41622,38.48591],[-117.41626,38.4857],[-117.41626,38.48527],[-117.41627,38.48506],[-117.41627,38.48498],[-117.4162,38.48445],[-117.41618,38.48437],[-117.41618,38.48412],[-117.4163,38.48358],[-117.41636,38.48291],[-117.41626,38.48255],[-117.41617,38.48235],[-117.41617,38.48206],[-117.41609,38.48166],[-117.41605,38.48157],[-117.41598,38.48149],[-117.41566,38.48107],[-117.41563,38.48097],[-117.41559,38.48071],[-117.41542,38.48034],[-117.41537,38.48029],[-117.41523,38.48025],[-117.41513,38.48025],[-117.41476,38.48029],[-117.41469,38.48032],[-117.41459,38.48038],[-117.41449,38.48047],[-117.4143,38.48049],[-117.41368,38.4803],[-117.41314,38.48005],[-117.41291,38.4799],[-117.41285,38.47991],[-117.41221,38.47961],[-117.41194,38.47953],[-117.41166,38.47964],[-117.41155,38.47967],[-117.41113,38.47979],[-117.41102,38.47984],[-117.41072,38.48011],[-117.41023,38.4807],[-117.40989,38.48105],[-117.40859,38.48163],[-117.40814,38.48187],[-117.4078,38.48201],[-117.40767,38.48204],[-117.40723,38.48217],[-117.40609,38.4827],[-117.40589,38.48288],[-117.40584,38.48314],[-117.40552,38.48331],[-117.40489,38.4835],[-117.40471,38.48361],[-117.40453,38.48408],[-117.40438,38.48427],[-117.40344,38.485],[-117.40265,38.48555],[-117.40263,38.48558],[-117.40226,38.48588],[-117.40158,38.48631]]}},{"type":"Feature","properties":{"name":"(unnamed public road)","road_class":"track","surface":"unpaved","source":"OpenStreetMap","source_detail":"osm way 892166231","source_tile":"177/393"},"geometry":{"type":"LineString","coordinates":[[-117.43315,38.5071],[-117.43297,38.50704],[-117.43184,38.50696],[-117.43136,38.50687],[-117.43105,38.5069],[-117.43077,38.5069],[-117.43007,38.50679],[-117.42974,38.5068],[-117.42942,38.50678],[-117.42919,38.50682],[-117.429,38.50682],[-117.42882,38.50678],[-117.42845,38.50661],[-117.42825,38.50654],[-117.42786,38.50648],[-117.42777,38.50648],[-117.42756,38.50649],[-117.42683,38.50637],[-117.42679,38.50638],[-117.42659,38.50636],[-117.42651,38.50634],[-117.42636,38.5061],[-117.42581,38.5058],[-117.42559,38.50572],[-117.42553,38.5057],[-117.42538,38.5056],[-117.42524,38.50555],[-117.42486,38.50551],[-117.42437,38.5055],[-117.42343,38.50559],[-117.42308,38.50558],[-117.42246,38.50548],[-117.42184,38.50517]]}},{"type":"Feature","properties":{"name":"(unnamed public road)","road_class":"track","surface":"unpaved","source":"OpenStreetMap","source_detail":"osm way 892166232","source_tile":"177/393"},"geometry":{"type":"LineString","coordinates":[[-117.42884,38.50462],[-117.42856,38.50409],[-117.42815,38.50365],[-117.42792,38.50334],[-117.42774,38.50323],[-117.42635,38.50284],[-117.4262,38.50282],[-117.42587,38.50282],[-117.42572,38.50279],[-117.42501,38.5025],[-117.42412,38.50226],[-117.42385,38.50208],[-117.42381,38.50207],[-117.42378,38.50215],[-117.42384,38.5024],[-117.42391,38.50291],[-117.4239,38.50306],[-117.42382,38.50316],[-117.42372,38.50325],[-117.4235,38.50341],[-117.42313,38.50358],[-117.42216,38.50382],[-117.42208,38.50388],[-117.42188,38.50433],[-117.42181,38.50457],[-117.42187,38.50501],[-117.42184,38.50517],[-117.4218,38.50538],[-117.42157,38.506],[-117.42149,38.50637],[-117.4216,38.50711],[-117.42135,38.50723]]}},{"type":"Feature","properties":{"name":"(unnamed public road)","road_class":"track","surface":"unpaved","source":"OpenStreetMap","source_detail":"osm way 892166233","source_tile":"177/393"},"geometry":{"type":"LineString","coordinates":[[-117.41592,38.50416],[-117.41593,38.50453],[-117.4161,38.50502],[-117.41621,38.50567],[-117.41624,38.50573],[-117.4163,38.50577],[-117.41669,38.50593],[-117.41677,38.50599],[-117.41696,38.50653],[-117.41697,38.50678],[-117.41705,38.50701],[-117.41708,38.50736],[-117.41712,38.50741],[-117.41744,38.50753],[-117.41765,38.50758],[-117.41798,38.50762],[-117.41826,38.50763],[-117.41889,38.50762],[-117.4194,38.50757],[-117.41962,38.50752],[-117.42024,38.50729],[-117.4205,38.50723],[-117.42108,38.50719],[-117.42135,38.50723],[-117.42188,38.50742],[-117.42242,38.50765],[-117.42279,38.50776],[-117.42316,38.50783],[-117.42372,38.50783],[-117.42388,38.50781],[-117.42414,38.50772],[-117.42433,38.50764],[-117.42444,38.50756],[-117.42459,38.50749],[-117.42562,38.50722],[-117.42691,38.50675],[-117.42777,38.50648]]}},{"type":"Feature","properties":{"name":"(unnamed public road)","road_class":"track","surface":"unpaved","source":"OpenStreetMap","source_detail":"osm way 892166235","source_tile":"177/393"},"geometry":{"type":"LineString","coordinates":[[-117.46201,38.49066],[-117.46189,38.49084],[-117.46167,38.49099],[-117.46121,38.49122],[-117.46094,38.49131],[-117.46042,38.49143],[-117.46026,38.49148],[-117.46016,38.49155],[-117.45974,38.49197],[-117.45965,38.49205],[-117.45957,38.49209],[-117.45935,38.49215],[-117.45871,38.49226],[-117.45845,38.49233],[-117.45795,38.49254],[-117.45721,38.49293],[-117.45714,38.49299],[-117.45704,38.49312],[-117.45693,38.49333],[-117.4568,38.49362],[-117.4567,38.49381],[-117.45647,38.49414],[-117.45623,38.49445],[-117.45609,38.49462],[-117.45576,38.49492],[-117.45543,38.49527],[-117.4553,38.49538],[-117.45515,38.49545],[-117.4542,38.49565],[-117.45399,38.49572],[-117.45381,38.49581],[-117.45371,38.49588],[-117.45347,38.49615],[-117.45329,38.49638],[-117.45309,38.49669],[-117.45298,38.49681],[-117.45234,38.49725],[-117.45125,38.4981],[-117.44973,38.49901],[-117.44666,38.5006],[-117.44575,38.50157],[-117.4447,38.5021],[-117.44291,38.503],[-117.44204,38.50333],[-117.44161,38.50351],[-117.44033,38.50419],[-117.44006,38.50427],[-117.43906,38.50445],[-117.43866,38.50454],[-117.43843,38.50461],[-117.43819,38.50472],[-117.43752,38.50514],[-117.43731,38.50523],[-117.43723,38.50527],[-117.43708,38.50529],[-117.43697,38.5053],[-117.43653,38.50526],[-117.436,38.50528],[-117.43574,38.50535],[-117.43559,38.50557],[-117.43537,38.5059],[-117.43504,38.50616],[-117.43501,38.50621],[-117.43385,38.50686],[-117.43335,38.50705],[-117.43315,38.5071],[-117.43309,38.50715],[-117.43285,38.50724],[-117.43218,38.50744],[-117.43175,38.50761],[-117.43121,38.50779],[-117.43114,38.50786],[-117.43104,38.5079],[-117.4309,38.50801],[-117.43008,38.50847],[-117.42887,38.50847],[-117.42841,38.50831],[-117.42825,38.50831],[-117.42812,38.50836],[-117.42775,38.50851],[-117.42751,38.50857],[-117.42701,38.5086],[-117.42676,38.50863],[-117.42632,38.50862],[-117.42582,38.50857],[-117.42516,38.50873],[-117.42459,38.50888],[-117.424,38.50901],[-117.42377,38.50902],[-117.4233,38.50897],[-117.42306,38.50899],[-117.42289,38.50907],[-117.42259,38.50928],[-117.42188,38.50959],[-117.42159,38.50967],[-117.42121,38.50989],[-117.42103,38.50996],[-117.42091,38.50998],[-117.42065,38.50998],[-117.42031,38.51],[-117.42013,38.51003],[-117.41973,38.51018],[-117.41952,38.51024],[-117.41918,38.51029],[-117.41876,38.5103],[-117.41847,38.51027],[-117.41807,38.51022],[-117.41743,38.51009],[-117.41641,38.50975],[-117.41619,38.50972],[-117.41569,38.50969],[-117.41556,38.50964],[-117.41537,38.50951],[-117.41525,38.50944],[-117.41507,38.50941],[-117.41346,38.50944],[-117.41313,38.50947],[-117.41273,38.50944],[-117.41196,38.50934],[-117.41181,38.50933],[-117.41157,38.50938],[-117.41146,38.50942],[-117.41059,38.50953],[-117.41002,38.50959]]}},{"type":"Feature","properties":{"name":"(unnamed public road)","road_class":"track","surface":"unpaved","source":"OpenStreetMap","source_detail":"osm way 892168822","source_tile":"177/393"},"geometry":{"type":"LineString","coordinates":[[-117.38343,38.40484],[-117.38361,38.40478],[-117.38402,38.40449],[-117.38413,38.40442],[-117.38439,38.40431],[-117.38451,38.40424],[-117.38458,38.40422],[-117.38564,38.40375],[-117.38796,38.40275],[-117.38953,38.40206],[-117.39297,38.40059],[-117.39535,38.39954],[-117.39618,38.3992],[-117.39659,38.39905],[-117.39714,38.39898],[-117.40255,38.39886],[-117.4053,38.39879],[-117.40776,38.39872],[-117.41085,38.39866],[-117.41439,38.39856],[-117.41454,38.39858],[-117.41689,38.39851],[-117.41747,38.39846],[-117.4178,38.3985],[-117.4187,38.39848],[-117.41904,38.39846],[-117.42188,38.3984],[-117.42377,38.39837],[-117.4283,38.39827],[-117.42869,38.39824],[-117.42898,38.39804]]}},{"type":"Feature","properties":{"name":"(unnamed public road)","road_class":"track","surface":"unpaved","source":"OpenStreetMap","source_detail":"osm way 892168844","source_tile":"177/393"},"geometry":{"type":"LineString","coordinates":[[-117.42395,38.39419],[-117.42394,38.39447],[-117.42381,38.39744],[-117.42377,38.39837],[-117.42368,38.40168],[-117.42345,38.4017],[-117.42188,38.40171],[-117.4194,38.40173],[-117.41911,38.40172],[-117.41464,38.40174],[-117.41448,38.40168],[-117.41454,38.39858]]}},{"type":"Feature","properties":{"name":"(unnamed public road)","road_class":"track","surface":"unpaved","source":"OpenStreetMap","source_detail":"osm way 892168848","source_tile":"177/393"},"geometry":{"type":"LineString","coordinates":[[-117.42469,38.39438],[-117.42394,38.39447],[-117.4231,38.39447],[-117.41783,38.3945],[-117.41494,38.39453],[-117.41461,38.39456]]}},{"type":"Feature","properties":{"name":"(unnamed public road)","road_class":"track","surface":"unpaved","source":"OpenStreetMap","source_detail":"osm way 816993084","source_tile":"177/394"},"geometry":{"type":"LineString","coordinates":[[-117.43642,38.16434],[-117.43629,38.16445],[-117.43611,38.16474],[-117.43584,38.16513],[-117.43562,38.16557],[-117.43552,38.16578],[-117.43501,38.16637],[-117.43445,38.1672],[-117.4333,38.16888],[-117.43273,38.16975],[-117.43153,38.17152],[-117.43094,38.17244],[-117.43043,38.17318],[-117.42992,38.17393],[-117.42964,38.17435],[-117.42932,38.17484],[-117.42922,38.17499],[-117.42906,38.17518],[-117.42875,38.17562],[-117.42834,38.17627],[-117.42801,38.17673],[-117.42739,38.17766],[-117.42707,38.17811],[-117.42574,38.18009],[-117.42563,38.18026],[-117.42552,38.18041],[-117.42544,38.18049],[-117.42537,38.18055],[-117.42518,38.18067],[-117.42509,38.18074],[-117.42501,38.18082],[-117.42492,38.18094],[-117.42472,38.18124],[-117.42444,38.18169],[-117.42402,38.18229],[-117.4238,38.18261],[-117.42373,38.18274],[-117.42369,38.18284],[-117.42365,38.18295],[-117.42359,38.18308],[-117.42352,38.1832],[-117.42344,38.18332],[-117.42332,38.18348],[-117.42323,38.18359],[-117.42302,38.18378],[-117.42284,38.18399],[-117.42276,38.18409],[-117.42271,38.18419],[-117.42266,38.1843],[-117.42263,38.18441],[-117.42262,38.1845],[-117.4226,38.18459],[-117.42257,38.18469],[-117.42248,38.18485],[-117.42231,38.1851],[-117.42181,38.18582],[-117.42127,38.18661],[-117.42045,38.18785],[-117.41969,38.18898],[-117.41887,38.19022],[-117.41797,38.19152],[-117.41737,38.19238],[-117.41659,38.19354],[-117.41574,38.19484],[-117.41495,38.19604],[-117.41443,38.19686],[-117.41398,38.19753],[-117.41337,38.19841],[-117.41329,38.19855],[-117.41323,38.19865],[-117.41315,38.19879],[-117.41303,38.19898],[-117.41291,38.19915],[-117.41195,38.20045],[-117.41188,38.20054],[-117.41093,38.20189],[-117.41011,38.20311],[-117.4092,38.20443],[-117.40861,38.20534],[-117.40809,38.20605],[-117.40783,38.20634],[-117.40773,38.20644],[-117.40763,38.20656],[-117.40735,38.20707],[-117.40693,38.20777],[-117.40635,38.20859],[-117.40526,38.21025],[-117.40482,38.21087],[-117.40453,38.21133],[-117.4041,38.21192],[-117.40321,38.21326],[-117.40278,38.21384],[-117.40225,38.21465],[-117.40203,38.21495],[-117.40163,38.21556],[-117.40148,38.21576],[-117.40087,38.21669],[-117.40053,38.21719],[-117.40044,38.21735],[-117.4002,38.21767],[-117.40012,38.21781],[-117.39945,38.21877],[-117.39931,38.21899],[-117.39881,38.21967],[-117.39829,38.22049],[-117.39755,38.22151],[-117.39674,38.22274],[-117.39637,38.22326],[-117.39591,38.22396],[-117.39568,38.22427],[-117.39549,38.22458],[-117.39499,38.22531],[-117.3946,38.22585],[-117.3945,38.22602],[-117.394,38.22679],[-117.39333,38.22775],[-117.39298,38.22828],[-117.39272,38.22863],[-117.39207,38.22964],[-117.39126,38.23078],[-117.39078,38.23149],[-117.39044,38.23195],[-117.39019,38.23236],[-117.38977,38.23295],[-117.38957,38.23322],[-117.38841,38.23502],[-117.38523,38.23956],[-117.38296,38.24281],[-117.38212,38.24424],[-117.38091,38.24614],[-117.38048,38.24669],[-117.38032,38.24692],[-117.38017,38.24717],[-117.37972,38.24778],[-117.37968,38.24786],[-117.37952,38.24808],[-117.37939,38.24826],[-117.37908,38.24873],[-117.37793,38.25042],[-117.37704,38.25163],[-117.37694,38.2518],[-117.37656,38.25238],[-117.37631,38.25273],[-117.37591,38.25332],[-117.37562,38.2538],[-117.37525,38.25429],[-117.37503,38.25466],[-117.37477,38.25503],[-117.37442,38.25559],[-117.3742,38.25587],[-117.37385,38.25639],[-117.37358,38.25673],[-117.3731,38.25746],[-117.37254,38.25827],[-117.37201,38.25908],[-117.37168,38.25956],[-117.37136,38.26007],[-117.37108,38.26044],[-117.37069,38.26102],[-117.37025,38.26162],[-117.37009,38.26189],[-117.37,38.26208],[-117.36989,38.26226],[-117.36949,38.26278],[-117.36915,38.26324],[-117.36878,38.26388],[-117.36847,38.26428],[-117.36817,38.26475],[-117.3675,38.26571],[-117.36736,38.26593],[-117.36696,38.26644],[-117.36673,38.26682],[-117.36654,38.26707],[-117.36644,38.26724],[-117.36601,38.26785],[-117.36585,38.26811],[-117.36573,38.26829],[-117.36559,38.26846],[-117.36528,38.26889],[-117.3652,38.26905],[-117.36493,38.26941],[-117.36448,38.27006],[-117.36439,38.27025],[-117.36435,38.27038],[-117.36425,38.27054],[-117.36384,38.27105],[-117.36272,38.27269],[-117.36178,38.27404],[-117.36162,38.27429],[-117.36092,38.27524],[-117.36059,38.27565],[-117.36037,38.27604],[-117.3573,38.28059],[-117.35595,38.28257],[-117.3549,38.28408],[-117.35467,38.28446],[-117.35432,38.28499],[-117.35406,38.28535],[-117.35337,38.28638],[-117.35242,38.28775],[-117.35214,38.28817],[-117.35116,38.28958],[-117.35099,38.2898],[-117.3509,38.2899],[-117.35078,38.29017],[-117.35059,38.29044],[-117.35009,38.29118],[-117.35001,38.29129],[-117.34969,38.29177],[-117.34963,38.29183],[-117.34938,38.29221],[-117.34924,38.2924],[-117.34853,38.29347],[-117.34828,38.29381],[-117.34822,38.29393],[-117.34816,38.29401],[-117.34802,38.29413],[-117.34797,38.29423],[-117.34779,38.29453],[-117.34674,38.29606],[-117.34613,38.2969],[-117.34605,38.29702],[-117.34593,38.29739],[-117.34583,38.29756],[-117.34556,38.29795],[-117.34515,38.29842],[-117.34494,38.29869],[-117.34373,38.30039],[-117.34258,38.30207],[-117.34214,38.30278],[-117.34182,38.30325],[-117.3418,38.30331],[-117.34164,38.30353],[-117.34162,38.30358],[-117.34059,38.30508],[-117.34025,38.30561],[-117.33975,38.30633],[-117.33971,38.30636],[-117.33928,38.307],[-117.33916,38.30718],[-117.33816,38.3086],[-117.3381,38.30867],[-117.33797,38.30892],[-117.33792,38.3098],[-117.33791,38.31005],[-117.3379,38.31029],[-117.33775,38.31142],[-117.3377,38.31173],[-117.33768,38.3131],[-117.3377,38.31466],[-117.33769,38.31656],[-117.33769,38.31851],[-117.33771,38.3203],[-117.33775,38.3207],[-117.33788,38.32103],[-117.33797,38.3213],[-117.33785,38.32288],[-117.33775,38.32417]]}},{"type":"Feature","properties":{"name":"(unnamed public road)","road_class":"track","surface":"unpaved","source":"OpenStreetMap","source_detail":"osm way 895406677","source_tile":"177/394"},"geometry":{"type":"LineString","coordinates":[[-117.29284,38.2891],[-117.29353,38.28912],[-117.29359,38.28913],[-117.29383,38.28911],[-117.29421,38.28911],[-117.29441,38.28905],[-117.29452,38.289],[-117.29474,38.28879],[-117.29517,38.28829],[-117.29567,38.28833],[-117.29596,38.28847],[-117.29623,38.28817],[-117.29643,38.28805],[-117.29667,38.28806],[-117.29704,38.28793],[-117.29749,38.28786],[-117.29762,38.28781],[-117.29816,38.28749],[-117.29826,38.28747],[-117.29853,38.28745],[-117.2986,38.28745],[-117.29862,38.28748],[-117.29871,38.28767],[-117.29881,38.28775],[-117.29888,38.28777],[-117.29892,38.28776],[-117.29906,38.2877],[-117.29927,38.28764],[-117.29933,38.28764],[-117.29946,38.28767],[-117.29967,38.28776],[-117.2998,38.28784],[-117.30001,38.28804],[-117.3002,38.28817],[-117.30035,38.28823],[-117.30047,38.28825],[-117.30125,38.28823],[-117.30139,38.2883],[-117.30164,38.28818],[-117.3021,38.28788],[-117.30216,38.28804],[-117.30263,38.28841],[-117.30268,38.28869],[-117.30263,38.2888],[-117.30429,38.28881],[-117.30468,38.28887],[-117.30481,38.28892],[-117.30494,38.28901],[-117.30507,38.28908],[-117.30517,38.2891],[-117.30556,38.28906],[-117.30591,38.289],[-117.30615,38.28903],[-117.30639,38.2892],[-117.30745,38.2892],[-117.30759,38.28914],[-117.30808,38.28912],[-117.30829,38.28911],[-117.309,38.28912],[-117.30961,38.28907],[-117.30986,38.28906],[-117.31012,38.2892],[-117.31341,38.28918],[-117.31352,38.28921],[-117.31355,38.28925],[-117.31353,38.29006],[-117.31361,38.29076],[-117.31361,38.291],[-117.31364,38.29106],[-117.31372,38.29112],[-117.31385,38.29114],[-117.31604,38.29114],[-117.31721,38.29116],[-117.31735,38.29115],[-117.31772,38.29103],[-117.31799,38.29103],[-117.3183,38.29107],[-117.31857,38.29115],[-117.31997,38.29115],[-117.32031,38.29114],[-117.32087,38.29114],[-117.3212,38.29106],[-117.32194,38.29106],[-117.3221,38.29105],[-117.32266,38.29087],[-117.32284,38.29077],[-117.32295,38.2907],[-117.32304,38.29075],[-117.32306,38.29085],[-117.32303,38.29095],[-117.3231,38.29104],[-117.32345,38.29115],[-117.32369,38.29117],[-117.32865,38.29119],[-117.33245,38.29125],[-117.33399,38.29127],[-117.33645,38.29122],[-117.33655,38.29123],[-117.33663,38.29121],[-117.33834,38.29115],[-117.33865,38.29113],[-117.33907,38.29114],[-117.33976,38.29122],[-117.34037,38.29123],[-117.34328,38.29142],[-117.344,38.2914],[-117.3444,38.29131],[-117.34489,38.29118],[-117.3453,38.29116],[-117.34629,38.29122],[-117.34683,38.29126],[-117.34729,38.29121],[-117.34763,38.2911],[-117.34792,38.2909],[-117.3482,38.29081],[-117.34855,38.29077],[-117.34884,38.29068],[-117.34903,38.2906],[-117.34938,38.29034],[-117.35015,38.29005],[-117.35099,38.2898],[-117.35126,38.28972],[-117.35226,38.28917],[-117.35282,38.28881],[-117.35308,38.28869],[-117.35326,38.28865],[-117.35391,38.2886],[-117.35433,38.28853],[-117.35497,38.28836],[-117.3559,38.28802],[-117.358,38.2874],[-117.36026,38.28673],[-117.36152,38.28602],[-117.3636,38.28526],[-117.36586,38.28487],[-117.36695,38.28471],[-117.38967,38.27706],[-117.39033,38.27684],[-117.39057,38.27676],[-117.39961,38.27379],[-117.401,38.27334],[-117.40311,38.27267],[-117.40343,38.27256],[-117.40439,38.27226],[-117.413,38.2695],[-117.41334,38.26938],[-117.41697,38.26818],[-117.41946,38.26709],[-117.42089,38.26667],[-117.44022,38.26017],[-117.44025,38.26016],[-117.46271,38.25252],[-117.47073,38.24985],[-117.47472,38.24857],[-117.47698,38.24763],[-117.47764,38.24743],[-117.48004,38.24648],[-117.48082,38.24636],[-117.48273,38.24528],[-117.48404,38.24487],[-117.48513,38.24455],[-117.48709,38.24374],[-117.48772,38.24328],[-117.48803,38.24317],[-117.489,38.24286],[-117.48978,38.2426],[-117.49381,38.24128],[-117.49609,38.24036],[-117.49741,38.24003],[-117.49954,38.23952],[-117.50171,38.23887],[-117.50253,38.23865],[-117.50404,38.23811],[-117.50435,38.238],[-117.50797,38.23693],[-117.50877,38.23663],[-117.51446,38.23495],[-117.51889,38.23345],[-117.52177,38.23247],[-117.52479,38.23142],[-117.52729,38.23043],[-117.52823,38.23009],[-117.53334,38.22827],[-117.53599,38.22732],[-117.53953,38.22597],[-117.54224,38.22499],[-117.54283,38.2249],[-117.54336,38.22492],[-117.54391,38.22505],[-117.54517,38.22548],[-117.54709,38.2263],[-117.54756,38.2265],[-117.54925,38.22713],[-117.55037,38.22755],[-117.55497,38.22922],[-117.55767,38.23024],[-117.563,38.2338],[-117.56328,38.23392],[-117.5684,38.23524],[-117.56892,38.23529],[-117.56942,38.2355],[-117.56984,38.23554],[-117.56992,38.2356],[-117.56995,38.23571]]}}]}