{"type":"FeatureCollection","features":[{"type":"Feature","properties":{"name":"(unnamed public road)","road_class":"unclassified","surface":"gravel","motor_vehicle":"yes","access":"permit","source":"OpenStreetMap","source_detail":"osm way 941181953","source_tile":"178/414"},"geometry":{"type":"LineString","coordinates":[[-117.10328,32.54461],[-117.10319,32.54463],[-117.10307,32.54462],[-117.10298,32.54458],[-117.10286,32.54455],[-117.10276,32.54454],[-117.1027,32.54454],[-117.10267,32.54455],[-117.1026,32.54456],[-117.10249,32.54462],[-117.10223,32.5448],[-117.10186,32.54507],[-117.10183,32.5451],[-117.10181,32.54513],[-117.10179,32.54517],[-117.10178,32.54521],[-117.10177,32.54525],[-117.10177,32.5453],[-117.10177,32.54534],[-117.10184,32.5455],[-117.10187,32.54556],[-117.1019,32.54568],[-117.10194,32.54609],[-117.10192,32.5462],[-117.10193,32.54629],[-117.10194,32.54647],[-117.10197,32.54673],[-117.102,32.54678],[-117.10203,32.54681],[-117.10207,32.54682],[-117.10211,32.54684],[-117.10216,32.54684],[-117.10221,32.54684],[-117.10225,32.54683],[-117.10229,32.54681],[-117.10241,32.54678],[-117.10273,32.54669],[-117.10312,32.54659],[-117.10348,32.54651],[-117.10372,32.54647],[-117.10389,32.54646],[-117.10395,32.54647],[-117.10406,32.54648],[-117.10427,32.54653],[-117.10432,32.54653],[-117.10437,32.54652],[-117.10441,32.54651],[-117.10445,32.54649],[-117.10449,32.54647],[-117.10452,32.54644],[-117.10454,32.54641],[-117.10456,32.54638],[-117.10457,32.54635],[-117.10458,32.54622],[-117.10454,32.54612],[-117.10469,32.546]]}},{"type":"Feature","properties":{"name":"(unnamed public road)","road_class":"track","source":"OpenStreetMap","source_detail":"osm way 1329989809","source_tile":"178/414","surface_inferred":true},"geometry":{"type":"LineString","coordinates":[[-117.07978,32.54723],[-117.07986,32.5469],[-117.07986,32.54681],[-117.07983,32.54669],[-117.07982,32.54664],[-117.07984,32.54657],[-117.07987,32.54651],[-117.0799,32.54532],[-117.08023,32.54529],[-117.08057,32.54532],[-117.08081,32.54534]]}},{"type":"Feature","properties":{"name":"Calle Futuro","road_class":"track","surface":"unpaved","source":"OpenStreetMap","source_detail":"osm way 32965508","source_tile":"178/414"},"geometry":{"type":"LineString","coordinates":[[-117.0944,32.51774],[-117.09417,32.51774],[-117.09397,32.51775],[-117.09375,32.51777],[-117.09348,32.51782],[-117.09307,32.51784]]}},{"type":"Feature","properties":{"name":"(unnamed public road)","road_class":"track","surface":"dirt","source":"OpenStreetMap","source_detail":"osm way 42464821","source_tile":"178/414"},"geometry":{"type":"LineString","coordinates":[[-117.12109,32.48449],[-117.12112,32.4846],[-117.12119,32.48475],[-117.12124,32.48512],[-117.12111,32.48541],[-117.12086,32.4857],[-117.12058,32.48614],[-117.12022,32.4864],[-117.11991,32.48678],[-117.11979,32.48703],[-117.11975,32.48717],[-117.11972,32.48726],[-117.1194,32.48789],[-117.11907,32.48837],[-117.1188,32.48875],[-117.11799,32.49016],[-117.11803,32.49043],[-117.11823,32.49086],[-117.11838,32.49104],[-117.11892,32.49127],[-117.11927,32.49148],[-117.11948,32.49168],[-117.11975,32.49219],[-117.11985,32.4924],[-117.11982,32.49279]]}},{"type":"Feature","properties":{"name":"R\u00edo grande","road_class":"track","source":"OpenStreetMap","source_detail":"osm way 42464882","source_tile":"178/414","surface_inferred":true},"geometry":{"type":"LineString","coordinates":[[-117.10585,32.50723],[-117.10542,32.50701],[-117.10476,32.50663],[-117.10439,32.50632],[-117.10413,32.50584],[-117.10405,32.50553],[-117.10377,32.50506],[-117.1037,32.50446],[-117.1035,32.50413],[-117.10316,32.50368],[-117.10255,32.50316],[-117.10225,32.50274],[-117.10197,32.50218],[-117.10154,32.50169],[-117.10132,32.50094],[-117.10106,32.50065],[-117.1006,32.50036],[-117.10034,32.50012]]}},{"type":"Feature","properties":{"name":"(unnamed public road)","road_class":"unclassified","surface":"dirt","source":"OpenStreetMap","source_detail":"osm way 44076756","source_tile":"178/414"},"geometry":{"type":"LineString","coordinates":[[-117.12141,32.48444],[-117.12109,32.48449],[-117.12097,32.4845]]}},{"type":"Feature","properties":{"name":"Santa Teresa","road_class":"track","source":"OpenStreetMap","source_detail":"osm way 44076787","source_tile":"178/414","surface_inferred":true},"geometry":{"type":"LineString","coordinates":[[-117.12149,32.48929],[-117.12143,32.48927],[-117.12134,32.48894],[-117.12106,32.48861],[-117.12085,32.48855],[-117.12071,32.48861],[-117.12065,32.48879],[-117.12063,32.48911],[-117.12037,32.48929],[-117.12015,32.48931],[-117.11985,32.48918],[-117.11968,32.48924],[-117.11959,32.48939],[-117.11923,32.48976],[-117.11903,32.49004],[-117.11898,32.49031],[-117.11904,32.49057],[-117.11918,32.49079],[-117.11932,32.49101],[-117.11952,32.49128],[-117.11973,32.49145],[-117.11983,32.49162],[-117.11999,32.49174]]}},{"type":"Feature","properties":{"name":"(unnamed public road)","road_class":"track","source":"OpenStreetMap","source_detail":"osm way 44076790","source_tile":"178/414","surface_inferred":true},"geometry":{"type":"LineString","coordinates":[[-117.12015,32.48931],[-117.12049,32.48934],[-117.1207,32.48944],[-117.1208,32.48958],[-117.12076,32.48981],[-117.12082,32.49039],[-117.12079,32.49047],[-117.12072,32.49052],[-117.12053,32.49068],[-117.12037,32.49094],[-117.12028,32.49111],[-117.1201,32.49114]]}},{"type":"Feature","properties":{"name":"(unnamed public road)","road_class":"track","surface":"dirt","source":"OpenStreetMap","source_detail":"osm way 44076796","source_tile":"178/414"},"geometry":{"type":"LineString","coordinates":[[-117.11959,32.48939],[-117.11944,32.48905],[-117.11921,32.48863],[-117.11907,32.48837]]}},{"type":"Feature","properties":{"name":"(unnamed public road)","road_class":"track","surface":"dirt","source":"OpenStreetMap","source_detail":"osm way 47492413","source_tile":"178/414"},"geometry":{"type":"LineString","coordinates":[[-117.07111,32.4034],[-117.07436,32.4017],[-117.07494,32.40144],[-117.07537,32.40132],[-117.07579,32.40135],[-117.07815,32.40158],[-117.07958,32.40172],[-117.07995,32.40172],[-117.08018,32.4017],[-117.08078,32.40167],[-117.0814,32.40164],[-117.08184,32.40162],[-117.0827,32.40186]]}},{"type":"Feature","properties":{"name":"(unnamed public road)","road_class":"unclassified","surface":"dirt","source":"OpenStreetMap","source_detail":"osm way 111048110","source_tile":"178/414"},"geometry":{"type":"LineString","coordinates":[[-117.12097,32.4845],[-117.12085,32.48453],[-117.12057,32.48457],[-117.12039,32.48458],[-117.12028,32.48461],[-117.12018,32.48466],[-117.1201,32.48475],[-117.11999,32.48486],[-117.11987,32.48496],[-117.11971,32.48503],[-117.11941,32.48515],[-117.11935,32.48518],[-117.11928,32.48518],[-117.11917,32.48517],[-117.11886,32.48516],[-117.11874,32.48517],[-117.11865,32.48521],[-117.11858,32.48526],[-117.11839,32.48541],[-117.11823,32.48559],[-117.11811,32.48569],[-117.11801,32.48574],[-117.11787,32.48573],[-117.11779,32.48564]]}},{"type":"Feature","properties":{"name":"Felipe Anteles","road_class":"track","source":"OpenStreetMap","source_detail":"osm way 230908214","source_tile":"178/414","surface_inferred":true},"geometry":{"type":"LineString","coordinates":[[-117.0849,32.498],[-117.08511,32.49804],[-117.08526,32.49804],[-117.08548,32.49797],[-117.08554,32.49795]]}},{"type":"Feature","properties":{"name":"Calle C\u00e1rdenas","road_class":"track","surface":"unpaved","source":"OpenStreetMap","source_detail":"osm way 230914744","source_tile":"178/414"},"geometry":{"type":"LineString","coordinates":[[-117.09178,32.51202],[-117.09228,32.51201],[-117.09263,32.51199],[-117.09271,32.51196]]}},{"type":"Feature","properties":{"name":"Russian Alley Trail","road_class":"track","surface":"dirt","source":"OpenStreetMap","source_detail":"osm way 235993323","source_tile":"178/414"},"geometry":{"type":"LineString","coordinates":[[-117.07911,32.54088],[-117.07851,32.54055],[-117.07839,32.54052],[-117.07831,32.54052],[-117.07825,32.54053],[-117.07817,32.54055],[-117.07786,32.54065],[-117.07765,32.54074],[-117.07756,32.54087],[-117.07753,32.54104],[-117.07745,32.54134],[-117.07728,32.54185],[-117.07724,32.54194],[-117.07714,32.54195],[-117.0769,32.54186],[-117.07639,32.5418],[-117.07635,32.54182],[-117.07632,32.54185],[-117.07627,32.542],[-117.07621,32.54209],[-117.07616,32.54221],[-117.07608,32.54269],[-117.07609,32.54287]]}},{"type":"Feature","properties":{"name":"(unnamed public road)","road_class":"track","source":"OpenStreetMap","source_detail":"osm way 544142537","source_tile":"178/414","surface_inferred":true},"geometry":{"type":"LineString","coordinates":[[-117.08798,32.42345],[-117.08791,32.42355],[-117.08784,32.42367],[-117.08779,32.42375],[-117.08776,32.42376],[-117.08773,32.42377],[-117.08769,32.42376],[-117.08765,32.42374],[-117.08734,32.42362],[-117.08732,32.4236],[-117.0873,32.42357],[-117.08731,32.42355],[-117.08733,32.42353],[-117.08735,32.42352],[-117.08768,32.42348],[-117.08798,32.42345]]}},{"type":"Feature","properties":{"name":"(unnamed public road)","road_class":"track","source":"OpenStreetMap","source_detail":"osm way 675345129","source_tile":"178/414","surface_inferred":true},"geometry":{"type":"LineString","coordinates":[[-117.08329,32.42713],[-117.08336,32.42714],[-117.0835,32.42716],[-117.08356,32.42711],[-117.08363,32.42705],[-117.08363,32.42699]]}},{"type":"Feature","properties":{"name":"(unnamed public road)","road_class":"track","source":"OpenStreetMap","source_detail":"osm way 682927253","source_tile":"178/414","surface_inferred":true},"geometry":{"type":"LineString","coordinates":[[-117.10028,32.48218],[-117.10026,32.48217],[-117.10011,32.48208],[-117.10009,32.48207],[-117.10005,32.48205],[-117.09994,32.48198],[-117.0999,32.48196],[-117.09983,32.48192]]}},{"type":"Feature","properties":{"name":"(unnamed public road)","road_class":"unclassified","surface":"dirt","source":"OpenStreetMap","source_detail":"osm way 693544512","source_tile":"178/414"},"geometry":{"type":"LineString","coordinates":[[-117.10087,32.4437],[-117.1008,32.44364],[-117.10069,32.44357],[-117.10049,32.4435],[-117.10016,32.44339],[-117.10001,32.44332],[-117.09991,32.44325],[-117.0998,32.44313],[-117.09975,32.44302],[-117.09972,32.44292],[-117.09971,32.44283],[-117.09971,32.44272],[-117.09975,32.44255],[-117.09982,32.44235],[-117.09993,32.442],[-117.09996,32.44185],[-117.09995,32.44171],[-117.09989,32.4415],[-117.0998,32.44114]]}},{"type":"Feature","properties":{"name":"Calle Sor Juana In\u00e9s de la Cruz","road_class":"track","source":"OpenStreetMap","source_detail":"osm way 754927149","source_tile":"178/414","surface_inferred":true},"geometry":{"type":"LineString","coordinates":[[-117.08212,32.52433],[-117.08226,32.52437],[-117.08242,32.52437],[-117.08256,32.52432],[-117.08267,32.52424],[-117.08285,32.52401],[-117.08309,32.52389]]}},{"type":"Feature","properties":{"name":"Santa Teresa","road_class":"track","source":"OpenStreetMap","source_detail":"osm way 756638552","source_tile":"178/414","surface_inferred":true},"geometry":{"type":"LineString","coordinates":[[-117.12091,32.49145],[-117.12119,32.49159],[-117.12135,32.49199],[-117.12139,32.49257],[-117.12119,32.4932],[-117.12093,32.49422],[-117.12051,32.49474],[-117.12039,32.49502],[-117.12029,32.49515],[-117.12006,32.49531],[-117.11916,32.49568],[-117.11865,32.49629],[-117.11814,32.49653],[-117.11766,32.49675],[-117.1173,32.49696],[-117.11627,32.49782],[-117.11553,32.49872],[-117.11558,32.49945],[-117.11539,32.49982],[-117.11545,32.49999],[-117.11557,32.50043],[-117.11557,32.5005],[-117.11556,32.50056],[-117.11542,32.50096],[-117.11539,32.50137],[-117.1153,32.50155],[-117.1148,32.50192],[-117.11468,32.50194],[-117.11448,32.50197]]}},{"type":"Feature","properties":{"name":"Santa Teresa","road_class":"track","source":"OpenStreetMap","source_detail":"osm way 756638553","source_tile":"178/414","surface_inferred":true},"geometry":{"type":"LineString","coordinates":[[-117.11448,32.50197],[-117.1143,32.50219],[-117.11415,32.50228],[-117.11392,32.50232],[-117.11292,32.50214],[-117.1128,32.50213],[-117.11274,32.50214],[-117.11269,32.50217],[-117.11261,32.50223]]}},{"type":"Feature","properties":{"name":"(unnamed public road)","road_class":"track","source":"OpenStreetMap","source_detail":"osm way 758184670","source_tile":"178/414","surface_inferred":true},"geometry":{"type":"LineString","coordinates":[[-117.08486,32.49752],[-117.08536,32.49746],[-117.08597,32.49741]]}},{"type":"Feature","properties":{"name":"(unnamed public road)","road_class":"unclassified","surface":"dirt","source":"OpenStreetMap","source_detail":"osm way 758223953","source_tile":"178/414"},"geometry":{"type":"LineString","coordinates":[[-117.11003,32.49317],[-117.10999,32.49298],[-117.10995,32.49288],[-117.10991,32.49278],[-117.10985,32.49268],[-117.10984,32.49261]]}},{"type":"Feature","properties":{"name":"Santa Teresa","road_class":"track","source":"OpenStreetMap","source_detail":"osm way 758441884","source_tile":"178/414","surface_inferred":true},"geometry":{"type":"LineString","coordinates":[[-117.12182,32.4873],[-117.12195,32.48755],[-117.12202,32.488],[-117.12188,32.48836],[-117.12168,32.48871],[-117.12155,32.48927],[-117.12149,32.48929]]}},{"type":"Feature","properties":{"name":"(unnamed public road)","road_class":"unclassified","surface":"dirt","source":"OpenStreetMap","source_detail":"osm way 758441885","source_tile":"178/414"},"geometry":{"type":"LineString","coordinates":[[-117.11779,32.48564],[-117.11781,32.48542],[-117.11786,32.48515],[-117.11797,32.48488],[-117.118,32.4847],[-117.11798,32.48452],[-117.11789,32.4844],[-117.11776,32.4843],[-117.11768,32.48434],[-117.11766,32.48443],[-117.11769,32.4847],[-117.11758,32.48489],[-117.11727,32.48518],[-117.11708,32.48537],[-117.11682,32.48556],[-117.11639,32.48556],[-117.11609,32.48554],[-117.11586,32.48548],[-117.11566,32.48544],[-117.11545,32.48539],[-117.11524,32.48531],[-117.11505,32.48524],[-117.11487,32.48522],[-117.11463,32.48522],[-117.11441,32.48523],[-117.11415,32.48527],[-117.11389,32.48528],[-117.11366,32.48531],[-117.11317,32.48531],[-117.11286,32.48536],[-117.11253,32.48539],[-117.11223,32.48555],[-117.11182,32.48577],[-117.11121,32.48604]]}},{"type":"Feature","properties":{"name":"(unnamed public road)","road_class":"track","source":"OpenStreetMap","source_detail":"osm way 758441888","source_tile":"178/414","surface_inferred":true},"geometry":{"type":"LineString","coordinates":[[-117.1201,32.49114],[-117.11992,32.49101],[-117.11967,32.49073],[-117.11956,32.49035],[-117.11956,32.49019],[-117.11961,32.49004],[-117.11972,32.48993],[-117.11989,32.48982],[-117.12004,32.48981]]}},{"type":"Feature","properties":{"name":"(unnamed public road)","road_class":"track","source":"OpenStreetMap","source_detail":"osm way 758441889","source_tile":"178/414","surface_inferred":true},"geometry":{"type":"LineString","coordinates":[[-117.12004,32.48981],[-117.12025,32.48984],[-117.1203,32.48995],[-117.12029,32.49026],[-117.12025,32.49035]]}},{"type":"Feature","properties":{"name":"Santa Teresa","road_class":"track","source":"OpenStreetMap","source_detail":"osm way 758441890","source_tile":"178/414","surface_inferred":true},"geometry":{"type":"LineString","coordinates":[[-117.11999,32.49174],[-117.12057,32.49161],[-117.12074,32.4915],[-117.12091,32.49145]]}},{"type":"Feature","properties":{"name":"Santa Teresa","road_class":"track","source":"OpenStreetMap","source_detail":"osm way 758441891","source_tile":"178/414","surface_inferred":true},"geometry":{"type":"LineString","coordinates":[[-117.11975,32.48717],[-117.11985,32.48734],[-117.12,32.4874],[-117.12023,32.48732],[-117.12091,32.48718],[-117.12128,32.48714],[-117.12165,32.48719],[-117.12182,32.4873]]}},{"type":"Feature","properties":{"name":"(unnamed public road)","road_class":"track","source":"OpenStreetMap","source_detail":"osm way 758447757","source_tile":"178/414","surface_inferred":true},"geometry":{"type":"LineString","coordinates":[[-117.08968,32.48989],[-117.08966,32.49],[-117.08958,32.49022],[-117.08939,32.49057]]}},{"type":"Feature","properties":{"name":"Calle Montes Ol\u00edmpicos","road_class":"track","source":"OpenStreetMap","source_detail":"osm way 758447758","source_tile":"178/414","surface_inferred":true},"geometry":{"type":"LineString","coordinates":[[-117.08728,32.48847],[-117.08698,32.48837],[-117.08666,32.48829]]}},{"type":"Feature","properties":{"name":"Avenida Ley de la Reforma Agrar\u00eda","road_class":"track","source":"OpenStreetMap","source_detail":"osm way 758452581","source_tile":"178/414","surface_inferred":true},"geometry":{"type":"LineString","coordinates":[[-117.08413,32.48618],[-117.08373,32.486],[-117.08357,32.48594]]}},{"type":"Feature","properties":{"name":"(unnamed public road)","road_class":"unclassified","surface":"dirt","source":"OpenStreetMap","source_detail":"osm way 760639255","source_tile":"178/414"},"geometry":{"type":"LineString","coordinates":[[-117.10106,32.44383],[-117.10102,32.44384],[-117.101,32.44385],[-117.10098,32.44386],[-117.10096,32.44388]]}},{"type":"Feature","properties":{"name":"(unnamed public road)","road_class":"unclassified","surface":"dirt","source":"OpenStreetMap","source_detail":"osm way 760639256","source_tile":"178/414"},"geometry":{"type":"LineString","coordinates":[[-117.10126,32.44393],[-117.10106,32.44383],[-117.10087,32.4437]]}},{"type":"Feature","properties":{"name":"(unnamed public road)","road_class":"track","source":"OpenStreetMap","source_detail":"osm way 767916851","source_tile":"178/414","surface_inferred":true},"geometry":{"type":"LineString","coordinates":[[-117.08798,32.42345],[-117.08804,32.4234],[-117.08819,32.42328],[-117.08845,32.42309],[-117.08852,32.42304]]}},{"type":"Feature","properties":{"name":"(unnamed public road)","road_class":"unclassified","surface":"dirt","source":"OpenStreetMap","source_detail":"osm way 787281450","source_tile":"178/414"},"geometry":{"type":"LineString","coordinates":[[-117.10087,32.4437],[-117.10096,32.44388],[-117.101,32.44408]]}},{"type":"Feature","properties":{"name":"(unnamed public road)","road_class":"track","source":"OpenStreetMap","source_detail":"osm way 812758698","source_tile":"179/414","surface_inferred":true},"geometry":{"type":"LineString","coordinates":[[-117.07102,32.54278],[-117.07119,32.54263],[-117.07146,32.54227],[-117.0716,32.54194],[-117.07187,32.54127],[-117.0721,32.54057],[-117.07219,32.54029],[-117.07222,32.54018],[-117.07219,32.54011],[-117.07213,32.54008],[-117.07202,32.5401],[-117.07195,32.54013],[-117.07186,32.54017],[-117.07176,32.54019],[-117.0716,32.5402],[-117.07124,32.54025],[-117.07062,32.54035],[-117.0702,32.54039],[-117.06982,32.5404],[-117.06967,32.54039],[-117.06954,32.54036],[-117.06944,32.54032],[-117.06939,32.54028],[-117.06937,32.54026],[-117.06932,32.54025],[-117.06917,32.54027],[-117.06894,32.5403],[-117.06881,32.54032],[-117.06861,32.54024],[-117.06841,32.54018],[-117.06834,32.54014]]}},{"type":"Feature","properties":{"name":"(unnamed public road)","road_class":"track","source":"OpenStreetMap","source_detail":"osm way 812770407","source_tile":"178/414","surface_inferred":true},"geometry":{"type":"LineString","coordinates":[[-117.10007,32.54228],[-117.10004,32.54268],[-117.09998,32.54337]]}},{"type":"Feature","properties":{"name":"(unnamed public road)","road_class":"track","surface":"dirt","source":"OpenStreetMap","source_detail":"osm way 812770408","source_tile":"178/414"},"geometry":{"type":"LineString","coordinates":[[-117.10325,32.54198],[-117.10303,32.54205],[-117.10294,32.54206],[-117.10287,32.54205],[-117.10279,32.54204],[-117.10266,32.542],[-117.10244,32.54196],[-117.1018,32.54201],[-117.10153,32.54207]]}},{"type":"Feature","properties":{"name":"(unnamed public road)","road_class":"track","source":"OpenStreetMap","source_detail":"osm way 908658623","source_tile":"178/414","surface_inferred":true},"geometry":{"type":"LineString","coordinates":[[-117.10721,32.54343],[-117.10718,32.54329],[-117.10694,32.54343]]}},{"type":"Feature","properties":{"name":"(unnamed public road)","road_class":"track","source":"OpenStreetMap","source_detail":"osm way 930360637","source_tile":"179/414","surface_inferred":true},"geometry":{"type":"LineString","coordinates":[[-117.06981,32.45803],[-117.06983,32.45727],[-117.06984,32.45676],[-117.06991,32.45661],[-117.07001,32.45654],[-117.07023,32.45649],[-117.07112,32.45636],[-117.07139,32.45636],[-117.07168,32.45634],[-117.07187,32.45631],[-117.07211,32.45632],[-117.07225,32.45637],[-117.07251,32.45654],[-117.07295,32.45681],[-117.07326,32.45699],[-117.07338,32.45707],[-117.07347,32.45708],[-117.07361,32.45708],[-117.07372,32.45705],[-117.07391,32.45694],[-117.07448,32.45666],[-117.0748,32.45642],[-117.07506,32.45618],[-117.07521,32.45595],[-117.07546,32.45558],[-117.07568,32.45535],[-117.07584,32.45523],[-117.07601,32.45516],[-117.07617,32.45511],[-117.0766,32.45502],[-117.07738,32.45494],[-117.07774,32.45492],[-117.0779,32.45495],[-117.07844,32.45506],[-117.07864,32.45506],[-117.07879,32.45505],[-117.07898,32.45498],[-117.07927,32.45477],[-117.07955,32.45461],[-117.07968,32.45458],[-117.08042,32.4545],[-117.08114,32.45447],[-117.0817,32.45446],[-117.08181,32.45449],[-117.08187,32.45457],[-117.0819,32.45461],[-117.08193,32.45465],[-117.08198,32.45466],[-117.08211,32.45467],[-117.08251,32.45462],[-117.08322,32.45449],[-117.08414,32.45432],[-117.08541,32.45412],[-117.08681,32.45388],[-117.08838,32.45366],[-117.08907,32.45353],[-117.08941,32.45345],[-117.08952,32.45345],[-117.0896,32.4535],[-117.09041,32.45415],[-117.09051,32.45415],[-117.09074,32.45415],[-117.09097,32.45408],[-117.09112,32.45407],[-117.09128,32.45409],[-117.0914,32.45409],[-117.09159,32.45401],[-117.09215,32.45372],[-117.0922,32.45363],[-117.09223,32.4534],[-117.09226,32.45335],[-117.09234,32.45333],[-117.09251,32.45332],[-117.09306,32.45332],[-117.09313,32.45329],[-117.09322,32.45322],[-117.09331,32.45311],[-117.09354,32.45295],[-117.09359,32.45282],[-117.09359,32.4527],[-117.09354,32.45244],[-117.09352,32.45223],[-117.09358,32.45203],[-117.09364,32.45196],[-117.09378,32.45194],[-117.0939,32.45198],[-117.09404,32.4521],[-117.09411,32.45218],[-117.09418,32.45221],[-117.0943,32.45221],[-117.09439,32.45216],[-117.09457,32.45202],[-117.09476,32.45194],[-117.0949,32.45192],[-117.09498,32.45191],[-117.09508,32.45192],[-117.09518,32.45194],[-117.09528,32.45201]]}},{"type":"Feature","properties":{"name":"(unnamed public road)","road_class":"track","source":"OpenStreetMap","source_detail":"osm way 930360638","source_tile":"178/414","surface_inferred":true},"geometry":{"type":"LineString","coordinates":[[-117.07546,32.45307],[-117.0757,32.45302],[-117.07598,32.4529],[-117.07618,32.45283],[-117.07656,32.45263],[-117.07694,32.45239],[-117.07711,32.45228],[-117.0775,32.45226],[-117.07769,32.45226],[-117.0779,32.45222],[-117.07806,32.45216],[-117.07832,32.45197],[-117.07864,32.45174]]}},{"type":"Feature","properties":{"name":"(unnamed public road)","road_class":"track","source":"OpenStreetMap","source_detail":"osm way 930363374","source_tile":"179/414","surface_inferred":true},"geometry":{"type":"LineString","coordinates":[[-117.07188,32.43069],[-117.07164,32.43041],[-117.07137,32.43026],[-117.07087,32.43018],[-117.07031,32.43007],[-117.07009,32.42997],[-117.06993,32.4298],[-117.06982,32.42972],[-117.06958,32.42967],[-117.06934,32.42964],[-117.06908,32.42962],[-117.06888,32.42968],[-117.06872,32.42971],[-117.0686,32.42969],[-117.06841,32.42959],[-117.06832,32.42946],[-117.06822,32.42934],[-117.06811,32.4293],[-117.06791,32.42934],[-117.06778,32.42945],[-117.06747,32.42965],[-117.0671,32.42996],[-117.067,32.43012],[-117.0669,32.43045],[-117.0668,32.43056],[-117.06637,32.43099],[-117.06609,32.43115],[-117.06576,32.43122],[-117.0654,32.43134],[-117.06532,32.4314],[-117.06461,32.432],[-117.06361,32.43261]]}},{"type":"Feature","properties":{"name":"(unnamed public road)","road_class":"track","source":"OpenStreetMap","source_detail":"osm way 930363376","source_tile":"178/414","surface_inferred":true},"geometry":{"type":"LineString","coordinates":[[-117.07155,32.43146],[-117.07171,32.43143],[-117.07199,32.43141],[-117.07222,32.43141],[-117.07248,32.43148],[-117.07264,32.43152],[-117.07277,32.43154],[-117.07317,32.43155],[-117.07371,32.43157],[-117.07394,32.43159],[-117.07413,32.43162],[-117.07456,32.43167],[-117.07502,32.43172],[-117.0753,32.43178],[-117.07561,32.43187],[-117.07601,32.43201],[-117.0763,32.43207],[-117.07659,32.43208],[-117.07697,32.43205],[-117.07739,32.43208],[-117.0777,32.4321],[-117.07801,32.43206],[-117.07828,32.43205],[-117.07864,32.43207],[-117.07892,32.43213],[-117.07921,32.43222],[-117.07938,32.43224],[-117.07955,32.43223],[-117.07967,32.43223],[-117.07993,32.43225],[-117.08032,32.43232],[-117.08057,32.43241],[-117.08069,32.4325],[-117.081,32.43265],[-117.08125,32.43274],[-117.08154,32.43282],[-117.08175,32.43281],[-117.08214,32.43273],[-117.08273,32.43263],[-117.08311,32.43256],[-117.08345,32.43248],[-117.08408,32.43233],[-117.08459,32.43219],[-117.08494,32.43209],[-117.08556,32.43189],[-117.08604,32.43175],[-117.08635,32.43157]]}},{"type":"Feature","properties":{"name":"(unnamed public road)","road_class":"unclassified","surface":"gravel","motor_vehicle":"yes","access":"permit","source":"OpenStreetMap","source_detail":"osm way 939547231","source_tile":"178/414"},"geometry":{"type":"LineString","coordinates":[[-117.10537,32.54632],[-117.10537,32.54636],[-117.10536,32.5464],[-117.10534,32.54643],[-117.10531,32.54646],[-117.10529,32.54648],[-117.10524,32.54651],[-117.1052,32.54652],[-117.10516,32.54653],[-117.10511,32.54653],[-117.10506,32.54652],[-117.10502,32.54651],[-117.10498,32.54648],[-117.10495,32.54646],[-117.10493,32.5464],[-117.10493,32.54636],[-117.10492,32.54628],[-117.10488,32.54621],[-117.10485,32.54616],[-117.10481,32.5461],[-117.10475,32.54605],[-117.10469,32.546],[-117.10463,32.54595],[-117.1046,32.54591],[-117.10458,32.54586],[-117.10458,32.54582],[-117.10458,32.54577],[-117.10459,32.54575],[-117.1046,32.54573],[-117.10462,32.54569],[-117.10465,32.54565],[-117.10469,32.54562],[-117.10474,32.5456],[-117.10479,32.54558],[-117.10484,32.54556],[-117.1049,32.54555],[-117.10496,32.54555],[-117.10501,32.54556],[-117.10506,32.54557],[-117.10511,32.54559],[-117.10515,32.54562],[-117.10518,32.54565],[-117.10521,32.54569],[-117.10523,32.54573],[-117.10524,32.54576],[-117.10524,32.54587],[-117.10522,32.54597],[-117.10522,32.54607],[-117.10524,32.54614],[-117.10536,32.54628],[-117.10537,32.54632]]}},{"type":"Feature","properties":{"name":"(unnamed public road)","road_class":"unclassified","surface":"gravel","motor_vehicle":"yes","access":"permit","source":"OpenStreetMap","source_detail":"osm way 939547232","source_tile":"178/414"},"geometry":{"type":"LineString","coordinates":[[-117.10454,32.54612],[-117.10431,32.54602],[-117.10427,32.54602],[-117.10425,32.54601],[-117.10418,32.54601],[-117.10412,32.54601],[-117.10405,32.54601],[-117.10399,32.54603],[-117.10392,32.54605],[-117.10361,32.54622],[-117.10358,32.54624],[-117.10353,32.54626],[-117.10345,32.5463],[-117.10337,32.54633],[-117.10325,32.54636],[-117.10313,32.54639],[-117.10301,32.5464],[-117.10289,32.5464],[-117.10281,32.5464],[-117.10261,32.54639],[-117.10253,32.54638],[-117.10216,32.54633],[-117.10193,32.54629]]}},{"type":"Feature","properties":{"name":"(unnamed public road)","road_class":"track","surface":"dirt","source":"OpenStreetMap","source_detail":"osm way 939569540","source_tile":"178/414"},"geometry":{"type":"LineString","coordinates":[[-117.09744,32.54173],[-117.09738,32.54088],[-117.09735,32.54037],[-117.09737,32.53945],[-117.09725,32.5389],[-117.09681,32.5389],[-117.09648,32.53895],[-117.09603,32.53896]]}},{"type":"Feature","properties":{"name":"(unnamed public road)","road_class":"track","surface":"dirt","source":"OpenStreetMap","source_detail":"osm way 939569541","source_tile":"178/414"},"geometry":{"type":"LineString","coordinates":[[-117.09839,32.541],[-117.09738,32.54088],[-117.09626,32.54084]]}},{"type":"Feature","properties":{"name":"(unnamed public road)","road_class":"unclassified","surface":"gravel","motor_vehicle":"yes","access":"permit","source":"OpenStreetMap","source_detail":"osm way 941181951","source_tile":"178/414"},"geometry":{"type":"LineString","coordinates":[[-117.1027,32.54396],[-117.10278,32.54406],[-117.10292,32.54425],[-117.10315,32.5444],[-117.10325,32.54451],[-117.10328,32.54461],[-117.10331,32.54474],[-117.10335,32.54481],[-117.10359,32.54497],[-117.10366,32.54502],[-117.10389,32.54518],[-117.10407,32.54526],[-117.10418,32.54528],[-117.10435,32.54531],[-117.10459,32.54533],[-117.1047,32.54535],[-117.10477,32.54539],[-117.1049,32.54555]]}},{"type":"Feature","properties":{"name":"(unnamed public road)","road_class":"unclassified","surface":"gravel","motor_vehicle":"yes","access":"permit","source":"OpenStreetMap","source_detail":"osm way 941181952","source_tile":"178/414"},"geometry":{"type":"LineString","coordinates":[[-117.10366,32.54502],[-117.10357,32.54508],[-117.10352,32.54512],[-117.10341,32.54519],[-117.10337,32.54521],[-117.10324,32.54527],[-117.10314,32.54531],[-117.10306,32.54533],[-117.10289,32.54538],[-117.10277,32.54541],[-117.10269,32.54544],[-117.10263,32.54547],[-117.10258,32.5455],[-117.10251,32.54555],[-117.10246,32.5456],[-117.10239,32.54566],[-117.10238,32.54569],[-117.10229,32.54582],[-117.10227,32.54585],[-117.10223,32.54592],[-117.1022,32.54595],[-117.10218,32.54597],[-117.10217,32.54599],[-117.10213,32.54602],[-117.10209,32.54604],[-117.10194,32.54609]]}},{"type":"Feature","properties":{"name":"(unnamed public road)","road_class":"track","source":"OpenStreetMap","source_detail":"osm way 942888500","source_tile":"178/414","surface_inferred":true},"geometry":{"type":"LineString","coordinates":[[-117.07653,32.46103],[-117.07676,32.461],[-117.0771,32.46084],[-117.07743,32.46076],[-117.0776,32.46073],[-117.0777,32.46076],[-117.07776,32.46082],[-117.0779,32.46086],[-117.07796,32.46092],[-117.07808,32.46111],[-117.07831,32.46131],[-117.07843,32.46137],[-117.07855,32.46138],[-117.07871,32.46139],[-117.07883,32.46142],[-117.07927,32.46149],[-117.07964,32.46156],[-117.07994,32.4616],[-117.08013,32.46162],[-117.08031,32.46169],[-117.08042,32.46174],[-117.08054,32.46176],[-117.08071,32.46176],[-117.08085,32.46178],[-117.08099,32.46182],[-117.08123,32.46187],[-117.08138,32.46187],[-117.08149,32.46188],[-117.08167,32.4619],[-117.08178,32.46195],[-117.082,32.46202],[-117.08222,32.46205],[-117.08241,32.46208],[-117.08264,32.46218],[-117.08274,32.46225],[-117.08301,32.46233],[-117.08342,32.46237],[-117.08368,32.46233],[-117.08409,32.46219],[-117.08467,32.46204],[-117.08487,32.46202],[-117.08522,32.46199],[-117.08554,32.46194],[-117.0859,32.46184],[-117.08609,32.4618]]}},{"type":"Feature","properties":{"name":"(unnamed public road)","road_class":"track","source":"OpenStreetMap","source_detail":"osm way 942888501","source_tile":"178/414","surface_inferred":true},"geometry":{"type":"LineString","coordinates":[[-117.07615,32.46362],[-117.07659,32.46372],[-117.07687,32.46375],[-117.07738,32.46383],[-117.07777,32.46392],[-117.07811,32.46401],[-117.07831,32.46397],[-117.07848,32.46392],[-117.0786,32.46392],[-117.07875,32.46396],[-117.07925,32.46421],[-117.07944,32.46432],[-117.07969,32.46436],[-117.08006,32.46435],[-117.08029,32.46435],[-117.08052,32.46439],[-117.0807,32.46445],[-117.08086,32.46453],[-117.08107,32.46458],[-117.0812,32.46463],[-117.08128,32.46467],[-117.0814,32.46467],[-117.0815,32.46466],[-117.08166,32.46473],[-117.08197,32.46491],[-117.08215,32.46499],[-117.08234,32.46503],[-117.08248,32.46502],[-117.08262,32.46501],[-117.08275,32.46505],[-117.08301,32.46515],[-117.08318,32.46526],[-117.08336,32.4654],[-117.08353,32.46547],[-117.08369,32.46554],[-117.08371,32.46566],[-117.08368,32.4658],[-117.08364,32.46586],[-117.08365,32.46593],[-117.08371,32.466],[-117.08402,32.46621],[-117.08421,32.46635],[-117.08443,32.46645],[-117.08467,32.46658],[-117.08486,32.46674],[-117.08498,32.46693],[-117.08502,32.46703],[-117.085,32.46711],[-117.08474,32.4673],[-117.08456,32.46738],[-117.08451,32.46742],[-117.08451,32.46747],[-117.08463,32.46755],[-117.08492,32.46769],[-117.08496,32.46776],[-117.08494,32.46785],[-117.08483,32.46791],[-117.08469,32.46793],[-117.08454,32.46791],[-117.08441,32.46791],[-117.08425,32.46797],[-117.08422,32.46802]]}},{"type":"Feature","properties":{"name":"(unnamed public road)","road_class":"track","source":"OpenStreetMap","source_detail":"osm way 942888502","source_tile":"178/414","surface_inferred":true},"geometry":{"type":"LineString","coordinates":[[-117.07619,32.46082],[-117.07401,32.4625],[-117.07386,32.46263],[-117.07371,32.46285],[-117.07313,32.46376],[-117.07302,32.46402],[-117.07298,32.46424],[-117.07304,32.46446],[-117.07308,32.46474],[-117.07305,32.46526],[-117.073,32.46585],[-117.07304,32.46617],[-117.07312,32.46659],[-117.07324,32.46692],[-117.07325,32.46713],[-117.0732,32.46749],[-117.07318,32.46772],[-117.07319,32.46779],[-117.07324,32.46783],[-117.07332,32.46784],[-117.07345,32.46783],[-117.07364,32.46778],[-117.07395,32.46773],[-117.07417,32.4677],[-117.07452,32.46759],[-117.0746,32.46751],[-117.0746,32.46738],[-117.07458,32.46705],[-117.0746,32.46681],[-117.07463,32.46666],[-117.07483,32.46641],[-117.07492,32.46628],[-117.07496,32.46609],[-117.075,32.46559],[-117.07505,32.46526],[-117.07511,32.46509],[-117.07531,32.46489],[-117.07581,32.46446],[-117.07598,32.46427],[-117.07608,32.46413],[-117.07614,32.46389],[-117.07615,32.46362],[-117.07622,32.46327],[-117.07633,32.46298],[-117.07643,32.46275],[-117.07644,32.46255],[-117.07637,32.46238],[-117.07614,32.4621],[-117.07611,32.46198],[-117.07613,32.46187],[-117.07622,32.46176],[-117.07637,32.46163],[-117.0766,32.46145],[-117.07665,32.46133],[-117.0766,32.46114],[-117.07653,32.46103],[-117.07648,32.46094],[-117.07627,32.46075]]}},{"type":"Feature","properties":{"name":"Monument Road","road_class":"unclassified","surface":"dirt","motor_vehicle":"yes","source":"OpenStreetMap","source_detail":"osm way 947066247","source_tile":"178/414"},"geometry":{"type":"LineString","coordinates":[[-117.10655,32.54348],[-117.10625,32.54351],[-117.10594,32.54351]]}},{"type":"Feature","properties":{"name":"(unnamed public road)","road_class":"track","source":"OpenStreetMap","source_detail":"osm way 948194905","source_tile":"178/414","surface_inferred":true},"geometry":{"type":"LineString","coordinates":[[-117.08258,32.39982],[-117.08219,32.39918],[-117.08166,32.39832],[-117.08125,32.3976]]}},{"type":"Feature","properties":{"name":"(unnamed public road)","road_class":"track","source":"OpenStreetMap","source_detail":"osm way 948194906","source_tile":"178/414","surface_inferred":true},"geometry":{"type":"LineString","coordinates":[[-117.08176,32.39733],[-117.08219,32.3981],[-117.08266,32.39897],[-117.08305,32.39962]]}},{"type":"Feature","properties":{"name":"(unnamed public road)","road_class":"track","source":"OpenStreetMap","source_detail":"osm way 948194907","source_tile":"178/414","surface_inferred":true},"geometry":{"type":"LineString","coordinates":[[-117.08355,32.39941],[-117.08315,32.39874],[-117.08265,32.39792],[-117.08219,32.3971]]}},{"type":"Feature","properties":{"name":"(unnamed public road)","road_class":"track","source":"OpenStreetMap","source_detail":"osm way 948194908","source_tile":"178/414","surface_inferred":true},"geometry":{"type":"LineString","coordinates":[[-117.08256,32.39673],[-117.08315,32.39765],[-117.08368,32.3985],[-117.08408,32.39919]]}},{"type":"Feature","properties":{"name":"(unnamed public road)","road_class":"track","source":"OpenStreetMap","source_detail":"osm way 948194909","source_tile":"178/414","surface_inferred":true},"geometry":{"type":"LineString","coordinates":[[-117.08412,32.3983],[-117.08407,32.39832],[-117.08368,32.3985],[-117.08315,32.39874],[-117.08266,32.39897],[-117.08219,32.39918],[-117.0817,32.3994],[-117.08136,32.39957],[-117.08089,32.39978],[-117.08043,32.40001],[-117.07994,32.40026],[-117.07943,32.40048]]}},{"type":"Feature","properties":{"name":"(unnamed public road)","road_class":"track","source":"OpenStreetMap","source_detail":"osm way 948194910","source_tile":"178/414","surface_inferred":true},"geometry":{"type":"LineString","coordinates":[[-117.08382,32.39733],[-117.08369,32.39737],[-117.0836,32.3974],[-117.08315,32.39765],[-117.08265,32.39792],[-117.08219,32.3981],[-117.08166,32.39832],[-117.08117,32.39852],[-117.08081,32.39868],[-117.08035,32.39891],[-117.07989,32.39914],[-117.07937,32.39936],[-117.0788,32.39961]]}},{"type":"Feature","properties":{"name":"(unnamed public road)","road_class":"track","source":"OpenStreetMap","source_detail":"osm way 948194911","source_tile":"178/414","surface_inferred":true},"geometry":{"type":"LineString","coordinates":[[-117.08,32.39535],[-117.08089,32.39671],[-117.0814,32.39749]]}},{"type":"Feature","properties":{"name":"(unnamed public road)","road_class":"track","source":"OpenStreetMap","source_detail":"osm way 948194912","source_tile":"178/414","surface_inferred":true},"geometry":{"type":"LineString","coordinates":[[-117.0836,32.3974],[-117.08302,32.39655],[-117.08287,32.39651],[-117.08265,32.39662],[-117.08256,32.39673],[-117.08243,32.39688],[-117.08219,32.3971],[-117.08214,32.39715],[-117.08176,32.39733],[-117.0814,32.39749],[-117.08125,32.3976],[-117.08118,32.39765],[-117.08097,32.3979],[-117.08085,32.39805],[-117.08059,32.39832],[-117.08021,32.39869],[-117.07985,32.39908]]}},{"type":"Feature","properties":{"name":"(unnamed public road)","road_class":"track","source":"OpenStreetMap","source_detail":"osm way 948194913","source_tile":"178/414","surface_inferred":true},"geometry":{"type":"LineString","coordinates":[[-117.07957,32.39572],[-117.08038,32.39688],[-117.08075,32.3976],[-117.08097,32.3979]]}},{"type":"Feature","properties":{"name":"(unnamed public road)","road_class":"track","source":"OpenStreetMap","source_detail":"osm way 948194914","source_tile":"178/414","surface_inferred":true},"geometry":{"type":"LineString","coordinates":[[-117.08296,32.40121],[-117.08217,32.4],[-117.082,32.3999],[-117.0817,32.3994],[-117.08117,32.39852],[-117.08085,32.39805]]}},{"type":"Feature","properties":{"name":"(unnamed public road)","road_class":"track","source":"OpenStreetMap","source_detail":"osm way 948194915","source_tile":"178/414","surface_inferred":true},"geometry":{"type":"LineString","coordinates":[[-117.07856,32.3993],[-117.07841,32.3989],[-117.07796,32.39822],[-117.07694,32.39657],[-117.07645,32.39578],[-117.07615,32.39525]]}},{"type":"Feature","properties":{"name":"(unnamed public road)","road_class":"track","source":"OpenStreetMap","source_detail":"osm way 948194916","source_tile":"178/414","surface_inferred":true},"geometry":{"type":"LineString","coordinates":[[-117.07834,32.39668],[-117.07898,32.39769],[-117.07985,32.39908],[-117.07989,32.39914],[-117.08043,32.40001],[-117.08081,32.40061],[-117.08085,32.40078],[-117.0814,32.40164],[-117.08158,32.40191]]}},{"type":"Feature","properties":{"name":"(unnamed public road)","road_class":"track","source":"OpenStreetMap","source_detail":"osm way 948194917","source_tile":"178/414","surface_inferred":true},"geometry":{"type":"LineString","coordinates":[[-117.08204,32.40152],[-117.08127,32.4004],[-117.08089,32.39978],[-117.08035,32.39891],[-117.08021,32.39869],[-117.07943,32.39743]]}},{"type":"Feature","properties":{"name":"(unnamed public road)","road_class":"track","source":"OpenStreetMap","source_detail":"osm way 948194918","source_tile":"179/414","surface_inferred":true},"geometry":{"type":"LineString","coordinates":[[-117.07819,32.39432],[-117.07747,32.39465],[-117.07698,32.39487],[-117.0765,32.39509],[-117.07615,32.39525],[-117.07568,32.39546],[-117.07516,32.39574],[-117.07473,32.39598],[-117.07452,32.39607],[-117.07413,32.39623],[-117.074,32.39629],[-117.07356,32.39645],[-117.07322,32.3965],[-117.07279,32.39647],[-117.07254,32.39641],[-117.07245,32.39636],[-117.07238,32.39631],[-117.0723,32.39625],[-117.07211,32.39611],[-117.07203,32.39594],[-117.07192,32.39572],[-117.07175,32.39558],[-117.07157,32.39546],[-117.07134,32.39536],[-117.07103,32.39527],[-117.07093,32.39526],[-117.07072,32.39524],[-117.07046,32.3952],[-117.07025,32.39514],[-117.07014,32.39508],[-117.07008,32.39505],[-117.06992,32.39494],[-117.06979,32.39479],[-117.06965,32.39471],[-117.06949,32.39466],[-117.06941,32.39458],[-117.06936,32.39451],[-117.0694,32.39445],[-117.06945,32.39435],[-117.0694,32.3943],[-117.0692,32.3943],[-117.06886,32.39431],[-117.06816,32.39423],[-117.06798,32.39428],[-117.06783,32.39437]]}},{"type":"Feature","properties":{"name":"(unnamed public road)","road_class":"track","source":"OpenStreetMap","source_detail":"osm way 948194919","source_tile":"178/414","surface_inferred":true},"geometry":{"type":"LineString","coordinates":[[-117.07901,32.39556],[-117.07905,32.39567],[-117.07906,32.39573],[-117.07949,32.39652],[-117.07989,32.39716],[-117.08059,32.39832],[-117.08081,32.39868],[-117.08136,32.39957],[-117.08175,32.40018],[-117.08257,32.40148]]}},{"type":"Feature","properties":{"name":"(unnamed public road)","road_class":"track","source":"OpenStreetMap","source_detail":"osm way 948194920","source_tile":"178/414","surface_inferred":true},"geometry":{"type":"LineString","coordinates":[[-117.07906,32.39549],[-117.07901,32.39556],[-117.07891,32.39563],[-117.07837,32.39589],[-117.07792,32.3961],[-117.07778,32.39617],[-117.07733,32.39638],[-117.07694,32.39657],[-117.0765,32.39678],[-117.07599,32.39702],[-117.07536,32.39732]]}},{"type":"Feature","properties":{"name":"(unnamed public road)","road_class":"track","source":"OpenStreetMap","source_detail":"osm way 948194921","source_tile":"178/414","surface_inferred":true},"geometry":{"type":"LineString","coordinates":[[-117.08477,32.39891],[-117.0844,32.39906],[-117.08408,32.39919],[-117.08355,32.39941],[-117.08305,32.39962],[-117.08258,32.39982],[-117.08217,32.4],[-117.08175,32.40018],[-117.08127,32.4004],[-117.08081,32.40061],[-117.08029,32.40084],[-117.0798,32.40105],[-117.07956,32.40116]]}},{"type":"Feature","properties":{"name":"(unnamed public road)","road_class":"track","source":"OpenStreetMap","source_detail":"osm way 948194922","source_tile":"178/414","surface_inferred":true},"geometry":{"type":"LineString","coordinates":[[-117.07745,32.39839],[-117.07796,32.39822],[-117.07851,32.39796],[-117.07898,32.39769],[-117.07943,32.39743],[-117.07989,32.39716],[-117.08038,32.39688],[-117.08068,32.39675],[-117.08089,32.39671],[-117.08106,32.39668],[-117.08129,32.39668],[-117.08148,32.3967]]}},{"type":"Feature","properties":{"name":"(unnamed public road)","road_class":"track","source":"OpenStreetMap","source_detail":"osm way 948194923","source_tile":"178/414","surface_inferred":true},"geometry":{"type":"LineString","coordinates":[[-117.08115,32.40223],[-117.08078,32.40167],[-117.08033,32.40089],[-117.08029,32.40084],[-117.07994,32.40026],[-117.07937,32.39936],[-117.07851,32.39796],[-117.07785,32.39692]]}},{"type":"Feature","properties":{"name":"(unnamed public road)","road_class":"track","source":"OpenStreetMap","source_detail":"osm way 948194924","source_tile":"178/414","surface_inferred":true},"geometry":{"type":"LineString","coordinates":[[-117.07134,32.38991],[-117.07134,32.39018],[-117.07136,32.3903],[-117.07136,32.39032],[-117.07142,32.39045],[-117.0715,32.39056],[-117.07162,32.39071],[-117.07168,32.39078],[-117.07175,32.39094],[-117.07186,32.39118],[-117.072,32.39151],[-117.07213,32.39183],[-117.0724,32.39251],[-117.07244,32.39261],[-117.0727,32.39324],[-117.07321,32.39449],[-117.07371,32.39571],[-117.074,32.39629],[-117.07412,32.39644],[-117.07422,32.39662],[-117.07433,32.3968],[-117.07447,32.39686],[-117.07467,32.39688],[-117.07487,32.3969],[-117.07506,32.39691],[-117.07522,32.39697],[-117.07529,32.39704],[-117.07534,32.39715],[-117.07536,32.39732],[-117.07537,32.39741],[-117.07542,32.39761],[-117.07548,32.39766],[-117.07553,32.3977],[-117.07581,32.39782],[-117.07663,32.3981],[-117.07745,32.39839],[-117.07803,32.39868],[-117.07816,32.39879],[-117.07827,32.39891],[-117.07856,32.3993],[-117.0788,32.39961],[-117.07886,32.39969],[-117.07931,32.4003],[-117.07943,32.40048],[-117.0798,32.40105],[-117.07983,32.40109],[-117.08018,32.4017],[-117.08056,32.40234]]}},{"type":"Feature","properties":{"name":"(unnamed public road)","road_class":"track","surface":"ground","source":"OpenStreetMap","source_detail":"osm way 951889942","source_tile":"178/414"},"geometry":{"type":"LineString","coordinates":[[-117.08669,32.512],[-117.08654,32.51188],[-117.08637,32.5117],[-117.0862,32.51153],[-117.08609,32.51144],[-117.08607,32.51142],[-117.08595,32.51127],[-117.0859,32.51117],[-117.08585,32.51099],[-117.08572,32.51066],[-117.08566,32.51054],[-117.08553,32.51028],[-117.08549,32.51021],[-117.08543,32.51011]]}},{"type":"Feature","properties":{"name":"(unnamed public road)","road_class":"track","source":"OpenStreetMap","source_detail":"osm way 973563884","source_tile":"178/414","surface_inferred":true},"geometry":{"type":"LineString","coordinates":[[-117.10928,32.54015],[-117.10911,32.54018],[-117.10891,32.54017],[-117.10878,32.54009],[-117.1087,32.54003],[-117.10852,32.54009],[-117.10836,32.54011],[-117.10824,32.54017],[-117.10788,32.54041],[-117.10772,32.54046],[-117.10735,32.54051],[-117.10705,32.54051],[-117.10686,32.54057]]}},{"type":"Feature","properties":{"name":"(unnamed public road)","road_class":"track","source":"OpenStreetMap","source_detail":"osm way 973563885","source_tile":"178/414","surface_inferred":true},"geometry":{"type":"LineString","coordinates":[[-117.10976,32.53923],[-117.1098,32.53909],[-117.10991,32.53891],[-117.11018,32.5386],[-117.11031,32.53839],[-117.11054,32.53806],[-117.11065,32.53786],[-117.11075,32.53744],[-117.11084,32.53721],[-117.1109,32.53718],[-117.11098,32.53718],[-117.11122,32.53724],[-117.11138,32.53729],[-117.11158,32.53728],[-117.11182,32.53725],[-117.11197,32.53722]]}},{"type":"Feature","properties":{"name":"(unnamed public road)","road_class":"track","source":"OpenStreetMap","source_detail":"osm way 973563888","source_tile":"178/414","surface_inferred":true},"geometry":{"type":"LineString","coordinates":[[-117.11376,32.5365],[-117.11395,32.53648],[-117.11433,32.5365],[-117.11479,32.53642]]}},{"type":"Feature","properties":{"name":"(unnamed public road)","road_class":"track","source":"OpenStreetMap","source_detail":"osm way 973563895","source_tile":"178/414","surface_inferred":true},"geometry":{"type":"LineString","coordinates":[[-117.10812,32.5388],[-117.10833,32.53885],[-117.10862,32.53897],[-117.10871,32.53897],[-117.10875,32.53896],[-117.10879,32.53894],[-117.10884,32.53889],[-117.10903,32.53864],[-117.10908,32.53861],[-117.10915,32.53859],[-117.10923,32.53859],[-117.10929,32.53858],[-117.10934,32.53855],[-117.10938,32.53849],[-117.10941,32.53843],[-117.10941,32.53838],[-117.10941,32.53814],[-117.10943,32.53808],[-117.10945,32.53802],[-117.1095,32.53799],[-117.10958,32.53792],[-117.10963,32.53784],[-117.10965,32.53777],[-117.10964,32.5377],[-117.10959,32.53763],[-117.10949,32.53745],[-117.10937,32.53737],[-117.10928,32.53731],[-117.10921,32.53723],[-117.10916,32.53713],[-117.10914,32.53705],[-117.10914,32.53697],[-117.10923,32.53684],[-117.10924,32.53678],[-117.10923,32.53672],[-117.10919,32.53669],[-117.10915,32.53666],[-117.10834,32.53667]]}},{"type":"Feature","properties":{"name":"(unnamed public road)","road_class":"track","source":"OpenStreetMap","source_detail":"osm way 973563904","source_tile":"178/414","surface_inferred":true},"geometry":{"type":"LineString","coordinates":[[-117.10718,32.54329],[-117.10741,32.54312],[-117.10738,32.54304],[-117.1074,32.54297],[-117.10746,32.5429],[-117.10764,32.54273],[-117.10766,32.54269],[-117.10768,32.54264],[-117.10769,32.54259],[-117.10769,32.54254],[-117.10768,32.54249],[-117.10766,32.54243],[-117.10764,32.54238],[-117.10753,32.54228],[-117.10734,32.5422],[-117.10711,32.54207],[-117.10698,32.54204],[-117.10689,32.54206],[-117.10682,32.54209],[-117.1066,32.54221]]}},{"type":"Feature","properties":{"name":"(unnamed public road)","road_class":"track","source":"OpenStreetMap","source_detail":"osm way 973563911","source_tile":"178/414","surface_inferred":true},"geometry":{"type":"LineString","coordinates":[[-117.10741,32.54312],[-117.10793,32.54345]]}},{"type":"Feature","properties":{"name":"(unnamed public road)","road_class":"track","surface":"dirt","motor_vehicle":"permissive","source":"OpenStreetMap","source_detail":"osm way 1003279006","source_tile":"178/414"},"geometry":{"type":"LineString","coordinates":[[-117.09038,32.54015],[-117.09035,32.5399],[-117.09038,32.5395],[-117.09042,32.53933],[-117.09106,32.53916],[-117.09166,32.53904],[-117.0922,32.53908],[-117.09254,32.53906],[-117.09373,32.5389],[-117.0945,32.53878],[-117.09482,32.53875],[-117.09513,32.53878],[-117.09548,32.53882],[-117.09567,32.53895],[-117.09603,32.53896]]}},{"type":"Feature","properties":{"name":"(unnamed public road)","road_class":"track","surface":"dirt","source":"OpenStreetMap","source_detail":"osm way 1003302765","source_tile":"178/414"},"geometry":{"type":"LineString","coordinates":[[-117.07618,32.54596],[-117.07619,32.54515],[-117.07621,32.54497],[-117.07623,32.54492]]}},{"type":"Feature","properties":{"name":"(unnamed public road)","road_class":"track","surface":"dirt","source":"OpenStreetMap","source_detail":"osm way 1003302770","source_tile":"178/414"},"geometry":{"type":"LineString","coordinates":[[-117.08908,32.53962],[-117.089,32.53976],[-117.08882,32.53997],[-117.08884,32.54027],[-117.08886,32.54042],[-117.08894,32.54052],[-117.08909,32.54058],[-117.08917,32.54064],[-117.08925,32.54069],[-117.08904,32.54108],[-117.08919,32.54112],[-117.08937,32.54116],[-117.0895,32.54122],[-117.08958,32.5413],[-117.08958,32.54138],[-117.0895,32.54145],[-117.08937,32.54151],[-117.08926,32.54155],[-117.08914,32.54167],[-117.08903,32.54182],[-117.08905,32.54191],[-117.08906,32.54208],[-117.08894,32.5423],[-117.08891,32.54241],[-117.08897,32.54266],[-117.08911,32.54296],[-117.08917,32.54323],[-117.0892,32.54345],[-117.08927,32.54364],[-117.08934,32.54375],[-117.08938,32.54386],[-117.08949,32.54395],[-117.08961,32.54395],[-117.08975,32.54393],[-117.08986,32.54387],[-117.08997,32.54385],[-117.09011,32.54383],[-117.09023,32.54385],[-117.09052,32.5439],[-117.09083,32.5439],[-117.09103,32.54388],[-117.0912,32.54387],[-117.09136,32.54387],[-117.09154,32.54389],[-117.09168,32.54393],[-117.09187,32.54398],[-117.09201,32.54401],[-117.09221,32.54407],[-117.09232,32.54412],[-117.09232,32.54422],[-117.09215,32.54429],[-117.09202,32.54432],[-117.09187,32.54429],[-117.09164,32.54426],[-117.0915,32.54427],[-117.09146,32.54431]]}},{"type":"Feature","properties":{"name":"(unnamed public road)","road_class":"track","surface":"dirt","source":"OpenStreetMap","source_detail":"osm way 1003302772","source_tile":"178/414"},"geometry":{"type":"LineString","coordinates":[[-117.0987,32.5381],[-117.09868,32.53818],[-117.09863,32.53831],[-117.09871,32.53851],[-117.09884,32.53861],[-117.09912,32.53871],[-117.09925,32.53882],[-117.09922,32.53896],[-117.09912,32.53915],[-117.09915,32.53937],[-117.09924,32.53954],[-117.09939,32.53971],[-117.09945,32.53991],[-117.09938,32.5402],[-117.09939,32.54051],[-117.09926,32.54069],[-117.09895,32.54075],[-117.09863,32.54083],[-117.09843,32.54089],[-117.09839,32.541],[-117.09837,32.54105],[-117.09851,32.54118],[-117.09868,32.54122],[-117.0989,32.54125],[-117.0991,32.54125],[-117.09929,32.54133],[-117.0995,32.54153],[-117.09959,32.54183],[-117.09988,32.54223]]}},{"type":"Feature","properties":{"name":"(unnamed public road)","road_class":"track","source":"OpenStreetMap","source_detail":"osm way 1014124689","source_tile":"178/414","surface_inferred":true},"geometry":{"type":"LineString","coordinates":[[-117.11376,32.5365],[-117.11294,32.53677],[-117.1126,32.53697],[-117.11233,32.53706],[-117.11212,32.53713],[-117.11197,32.53722]]}},{"type":"Feature","properties":{"name":"(unnamed public road)","road_class":"track","source":"OpenStreetMap","source_detail":"osm way 1014124692","source_tile":"178/414","surface_inferred":true},"geometry":{"type":"LineString","coordinates":[[-117.10976,32.53923],[-117.10971,32.53931],[-117.10949,32.53955],[-117.10942,32.53969],[-117.10928,32.54015]]}},{"type":"Feature","properties":{"name":"(unnamed public road)","road_class":"track","source":"OpenStreetMap","source_detail":"osm way 1014124693","source_tile":"178/414","surface_inferred":true},"geometry":{"type":"LineString","coordinates":[[-117.10607,32.54044],[-117.10686,32.54057]]}},{"type":"Feature","properties":{"name":"(unnamed public road)","road_class":"track","surface":"dirt","source":"OpenStreetMap","source_detail":"osm way 1014124718","source_tile":"178/414"},"geometry":{"type":"LineString","coordinates":[[-117.09603,32.53896],[-117.09599,32.54064]]}},{"type":"Feature","properties":{"name":"(unnamed public road)","road_class":"track","surface":"dirt","source":"OpenStreetMap","source_detail":"osm way 1014124722","source_tile":"178/414"},"geometry":{"type":"LineString","coordinates":[[-117.09725,32.5389],[-117.09718,32.53876],[-117.09715,32.53863],[-117.09724,32.53857],[-117.0975,32.5385],[-117.09821,32.53826],[-117.09841,32.53819],[-117.09853,32.53815],[-117.0987,32.5381]]}},{"type":"Feature","properties":{"name":"(unnamed public road)","road_class":"track","source":"OpenStreetMap","source_detail":"osm way 1014143569","source_tile":"178/414","surface_inferred":true},"geometry":{"type":"LineString","coordinates":[[-117.07463,32.53994],[-117.07461,32.54027],[-117.07466,32.54044],[-117.07486,32.54053],[-117.07514,32.54061],[-117.07595,32.54041],[-117.07612,32.54036],[-117.07726,32.54054],[-117.07727,32.54055],[-117.07734,32.54058],[-117.07746,32.54063],[-117.07765,32.54074]]}},{"type":"Feature","properties":{"name":"(unnamed public road)","road_class":"track","source":"OpenStreetMap","source_detail":"osm way 1014143577","source_tile":"178/414","surface_inferred":true},"geometry":{"type":"LineString","coordinates":[[-117.07734,32.54058],[-117.07745,32.54034],[-117.07755,32.54015],[-117.07767,32.53995],[-117.07771,32.53977],[-117.07768,32.5396],[-117.0776,32.53943],[-117.0775,32.53932],[-117.07736,32.53926],[-117.07726,32.53923],[-117.07718,32.53923],[-117.07713,32.53929],[-117.0771,32.53936],[-117.07709,32.53944],[-117.07707,32.5395],[-117.07703,32.53951],[-117.07701,32.53949],[-117.07689,32.53918]]}},{"type":"Feature","properties":{"name":"(unnamed public road)","road_class":"track","source":"OpenStreetMap","source_detail":"osm way 1016631767","source_tile":"178/414","surface_inferred":true},"geometry":{"type":"LineString","coordinates":[[-117.0777,32.39357],[-117.0775,32.39365],[-117.07743,32.39371],[-117.0774,32.39388],[-117.07737,32.3945]]}},{"type":"Feature","properties":{"name":"(unnamed public road)","road_class":"track","source":"OpenStreetMap","source_detail":"osm way 1016631768","source_tile":"178/414","surface_inferred":true},"geometry":{"type":"LineString","coordinates":[[-117.0765,32.39509],[-117.07628,32.39469],[-117.07569,32.3941],[-117.07531,32.39388],[-117.07491,32.39373],[-117.0744,32.39362],[-117.07414,32.39359],[-117.07403,32.39355],[-117.07398,32.39346],[-117.07395,32.39315],[-117.07394,32.39279],[-117.07399,32.3925],[-117.074,32.39202]]}},{"type":"Feature","properties":{"name":"(unnamed public road)","road_class":"track","source":"OpenStreetMap","source_detail":"osm way 1016631770","source_tile":"178/414","surface_inferred":true},"geometry":{"type":"LineString","coordinates":[[-117.07599,32.39702],[-117.07567,32.39694],[-117.07535,32.39679],[-117.07526,32.39664],[-117.07523,32.39635],[-117.07521,32.39597],[-117.07514,32.39589],[-117.07499,32.3959],[-117.07473,32.39598],[-117.07472,32.39609],[-117.07479,32.39624],[-117.0752,32.39687],[-117.07522,32.39697]]}},{"type":"Feature","properties":{"name":"(unnamed public road)","road_class":"track","source":"OpenStreetMap","source_detail":"osm way 1016631771","source_tile":"178/414","surface_inferred":true},"geometry":{"type":"LineString","coordinates":[[-117.07663,32.3981],[-117.07599,32.39702],[-117.07516,32.39574],[-117.07514,32.39569],[-117.07488,32.39536],[-117.07457,32.39513],[-117.07418,32.39495],[-117.07396,32.39491],[-117.07385,32.39492],[-117.07361,32.39486]]}},{"type":"Feature","properties":{"name":"(unnamed public road)","road_class":"track","source":"OpenStreetMap","source_detail":"osm way 1016631773","source_tile":"178/414","surface_inferred":true},"geometry":{"type":"LineString","coordinates":[[-117.07422,32.39662],[-117.07413,32.39623],[-117.074,32.39588],[-117.07361,32.39486],[-117.07347,32.39457],[-117.07333,32.39428],[-117.07319,32.39391],[-117.07316,32.39383],[-117.07303,32.39347],[-117.0729,32.39316],[-117.07288,32.3931],[-117.07276,32.39281],[-117.07271,32.39271],[-117.07262,32.39265],[-117.07244,32.39261]]}},{"type":"Feature","properties":{"name":"(unnamed public road)","road_class":"track","source":"OpenStreetMap","source_detail":"osm way 1016631777","source_tile":"178/414","surface_inferred":true},"geometry":{"type":"LineString","coordinates":[[-117.07837,32.39589],[-117.07828,32.39588],[-117.07822,32.39583],[-117.07817,32.39577],[-117.07747,32.39465],[-117.07737,32.3945],[-117.07709,32.39405],[-117.07691,32.39384],[-117.0768,32.39371],[-117.07641,32.39337],[-117.07591,32.39308],[-117.07532,32.39285],[-117.07475,32.39267],[-117.07399,32.3925]]}},{"type":"Feature","properties":{"name":"(unnamed public road)","road_class":"track","source":"OpenStreetMap","source_detail":"osm way 1016631779","source_tile":"178/414","surface_inferred":true},"geometry":{"type":"LineString","coordinates":[[-117.07778,32.39617],[-117.07738,32.39551],[-117.07698,32.39487],[-117.07662,32.39429],[-117.0765,32.39417],[-117.07613,32.39382],[-117.07558,32.39349],[-117.07482,32.39323],[-117.07412,32.39315],[-117.07395,32.39315],[-117.07332,32.39316],[-117.0729,32.39316]]}},{"type":"Feature","properties":{"name":"(unnamed public road)","road_class":"track","source":"OpenStreetMap","source_detail":"osm way 1016631780","source_tile":"178/414","surface_inferred":true},"geometry":{"type":"LineString","coordinates":[[-117.07949,32.39652],[-117.07937,32.39662],[-117.07925,32.39666],[-117.07892,32.39666],[-117.07853,32.39665],[-117.07834,32.39668],[-117.07813,32.39674],[-117.07785,32.39692],[-117.07765,32.39702],[-117.07751,32.39706],[-117.0774,32.39706],[-117.07736,32.39703],[-117.07733,32.39695],[-117.07735,32.39646],[-117.07733,32.39638],[-117.07724,32.39624],[-117.07681,32.39559],[-117.0765,32.39509],[-117.07632,32.395],[-117.07615,32.39484],[-117.07588,32.39454],[-117.07551,32.39426],[-117.07515,32.39406],[-117.07479,32.39391],[-117.07449,32.39383],[-117.07412,32.39378],[-117.07384,32.39378],[-117.07359,32.39377],[-117.0734,32.39377],[-117.07316,32.39383]]}},{"type":"Feature","properties":{"name":"(unnamed public road)","road_class":"track","source":"OpenStreetMap","source_detail":"osm way 1016631781","source_tile":"178/414","surface_inferred":true},"geometry":{"type":"LineString","coordinates":[[-117.07568,32.39546],[-117.0765,32.39678],[-117.07745,32.39839]]}},{"type":"Feature","properties":{"name":"(unnamed public road)","road_class":"track","source":"OpenStreetMap","source_detail":"osm way 1016637879","source_tile":"178/414","surface_inferred":true},"geometry":{"type":"LineString","coordinates":[[-117.07213,32.39183],[-117.07187,32.39195],[-117.07163,32.39214],[-117.07151,32.39223],[-117.07129,32.39247],[-117.07116,32.39272],[-117.07109,32.39297],[-117.07104,32.39324],[-117.07099,32.3935],[-117.07096,32.39366],[-117.07094,32.39378],[-117.07095,32.39415],[-117.071,32.39453],[-117.07098,32.39495],[-117.07093,32.39526],[-117.07087,32.39548],[-117.07083,32.39575],[-117.07082,32.39599],[-117.07084,32.39638],[-117.07089,32.39677],[-117.07094,32.39697],[-117.07102,32.39706],[-117.07114,32.39715]]}},{"type":"Feature","properties":{"name":"(unnamed public road)","road_class":"track","source":"OpenStreetMap","source_detail":"osm way 1016640147","source_tile":"178/414","surface_inferred":true},"geometry":{"type":"LineString","coordinates":[[-117.07101,32.39033],[-117.07136,32.3903]]}},{"type":"Feature","properties":{"name":"(unnamed public road)","road_class":"track","source":"OpenStreetMap","source_detail":"osm way 1016640148","source_tile":"178/414","surface_inferred":true},"geometry":{"type":"LineString","coordinates":[[-117.07163,32.39214],[-117.07153,32.39197],[-117.07144,32.39186],[-117.07138,32.39172],[-117.07136,32.39153],[-117.07133,32.39143],[-117.07126,32.39129],[-117.07119,32.39104],[-117.07112,32.39072],[-117.07104,32.39046],[-117.07101,32.39033],[-117.07092,32.39023],[-117.07088,32.39008]]}},{"type":"Feature","properties":{"name":"(unnamed public road)","road_class":"track","surface":"dirt","tracktype":"grade3","source":"OpenStreetMap","source_detail":"osm way 1018623526","source_tile":"178/414"},"geometry":{"type":"LineString","coordinates":[[-117.11669,32.46612],[-117.11674,32.46602],[-117.11675,32.46598],[-117.11675,32.46592],[-117.11674,32.46585],[-117.11634,32.46442],[-117.11607,32.46344],[-117.11605,32.46336],[-117.11606,32.4633],[-117.11606,32.46327],[-117.11603,32.46324],[-117.116,32.46322],[-117.11598,32.46317],[-117.11571,32.46265],[-117.11569,32.46263],[-117.11563,32.46261]]}},{"type":"Feature","properties":{"name":"(unnamed public road)","road_class":"track","source":"OpenStreetMap","source_detail":"osm way 1031533905","source_tile":"178/414","surface_inferred":true},"geometry":{"type":"LineString","coordinates":[[-117.11376,32.5365],[-117.1137,32.53628]]}},{"type":"Feature","properties":{"name":"(unnamed public road)","road_class":"track","surface":"dirt","source":"OpenStreetMap","source_detail":"osm way 1071419486","source_tile":"178/414"},"geometry":{"type":"LineString","coordinates":[[-117.10007,32.54228],[-117.10026,32.54233],[-117.1005,32.54238],[-117.10075,32.54236],[-117.10118,32.54225],[-117.10153,32.54207]]}},{"type":"Feature","properties":{"name":"(unnamed public road)","road_class":"track","surface":"sand","tracktype":"grade5","source":"OpenStreetMap","source_detail":"osm way 1311909981","source_tile":"178/414"},"geometry":{"type":"LineString","coordinates":[[-117.08377,32.53507],[-117.08389,32.53507],[-117.08392,32.53508],[-117.08393,32.53511],[-117.08403,32.5357],[-117.08403,32.53583],[-117.08396,32.53632],[-117.08398,32.53638],[-117.084,32.53643],[-117.08404,32.53646],[-117.08416,32.53646],[-117.08421,32.53643],[-117.08423,32.53638],[-117.08458,32.53466],[-117.08463,32.53461],[-117.08467,32.5346],[-117.08486,32.53459],[-117.08491,32.53463],[-117.08493,32.53467],[-117.08499,32.53579]]}},{"type":"Feature","properties":{"name":"(unnamed public road)","road_class":"track","surface":"sand","tracktype":"grade5","source":"OpenStreetMap","source_detail":"osm way 1360818916","source_tile":"178/414"},"geometry":{"type":"LineString","coordinates":[[-117.08442,32.53376],[-117.08432,32.53407],[-117.08422,32.5343],[-117.08415,32.53443],[-117.08409,32.53456],[-117.08403,32.53472],[-117.08402,32.53486],[-117.084,32.535],[-117.08398,32.53506],[-117.08396,32.53508],[-117.08393,32.53511]]}}]}