{"type":"FeatureCollection","features":[{"type":"Feature","properties":{"name":"Huntoon Valley Road","road_class":"track","surface":"dirt","source":"OpenStreetMap","source_detail":"osm way 14362619","source_tile":"174/394"},"geometry":{"type":"LineString","coordinates":[[-118.4781,38.28008],[-118.47805,38.28],[-118.47803,38.27991],[-118.47807,38.27976],[-118.47817,38.27955],[-118.47826,38.27941],[-118.47849,38.27909],[-118.47858,38.27888],[-118.47868,38.2787],[-118.47874,38.27862],[-118.47896,38.27838],[-118.47933,38.27804],[-118.47952,38.27779],[-118.47962,38.2776],[-118.47972,38.27717],[-118.4798,38.27696],[-118.47996,38.27665],[-118.48031,38.27619],[-118.48078,38.27563],[-118.48084,38.27552],[-118.48087,38.27543],[-118.4809,38.27515],[-118.48093,38.27499],[-118.48101,38.27482],[-118.48108,38.27471],[-118.48112,38.27453],[-118.48113,38.27419],[-118.48111,38.27399],[-118.48114,38.27389],[-118.48114,38.27374],[-118.4811,38.2736],[-118.48112,38.27329],[-118.4812,38.27315],[-118.48124,38.27296],[-118.48129,38.27284],[-118.48139,38.27272],[-118.48156,38.27262],[-118.48178,38.27252],[-118.48203,38.27241],[-118.48226,38.27238],[-118.48244,38.27233],[-118.48255,38.27227],[-118.48264,38.27215],[-118.4827,38.27201],[-118.48271,38.27173],[-118.48281,38.27157],[-118.48304,38.27124],[-118.48352,38.27083],[-118.48362,38.27069],[-118.48368,38.27058],[-118.48375,38.27043],[-118.48379,38.27034],[-118.48383,38.27021],[-118.48391,38.27004],[-118.48399,38.26992],[-118.4841,38.26981],[-118.48437,38.26956],[-118.48454,38.26934],[-118.48461,38.26912],[-118.48468,38.26892],[-118.48475,38.26874],[-118.48484,38.2686],[-118.48498,38.26844],[-118.4851,38.26829],[-118.48512,38.26823],[-118.48512,38.26816],[-118.48515,38.26802],[-118.48518,38.26787],[-118.48524,38.26773],[-118.48531,38.26758],[-118.48562,38.26724],[-118.48573,38.2671],[-118.4858,38.26699],[-118.48584,38.26684],[-118.48592,38.26663],[-118.48602,38.26639],[-118.48608,38.2662],[-118.48613,38.26612],[-118.4862,38.26602],[-118.48627,38.26596],[-118.48645,38.2658],[-118.48668,38.26553],[-118.48678,38.2654],[-118.48685,38.26527],[-118.48688,38.26516],[-118.48689,38.26501],[-118.48686,38.26459],[-118.48686,38.26438],[-118.48679,38.26357],[-118.48678,38.26335],[-118.48678,38.26324],[-118.48671,38.26303],[-118.48655,38.26266],[-118.48653,38.26254],[-118.48653,38.26248],[-118.48658,38.26231],[-118.48671,38.26209],[-118.48691,38.26182],[-118.48708,38.26157],[-118.48727,38.26132],[-118.48741,38.2611],[-118.48755,38.26087],[-118.48836,38.2596],[-118.48863,38.25916],[-118.48876,38.25898],[-118.48913,38.25843],[-118.48931,38.25816],[-118.4895,38.25783],[-118.48958,38.25762],[-118.48959,38.25748],[-118.4896,38.25725],[-118.4895,38.25678],[-118.48939,38.25664],[-118.48928,38.25653],[-118.48906,38.25639],[-118.48884,38.2562],[-118.48877,38.25605],[-118.48868,38.25591],[-118.48852,38.25576],[-118.48839,38.25571],[-118.48818,38.25557],[-118.48803,38.25544],[-118.48789,38.25522],[-118.48781,38.2551],[-118.48775,38.25491],[-118.48769,38.25457],[-118.48768,38.25429],[-118.48771,38.25415],[-118.48775,38.25402],[-118.4878,38.25393],[-118.4879,38.2538],[-118.48807,38.25366],[-118.48843,38.25338],[-118.48858,38.2533],[-118.48878,38.25324],[-118.48958,38.25309],[-118.49021,38.2529],[-118.49048,38.25278],[-118.49068,38.25269],[-118.49097,38.25252],[-118.49154,38.25221],[-118.49191,38.25199],[-118.49261,38.25153],[-118.49307,38.25126],[-118.49397,38.25089],[-118.49419,38.2508],[-118.49438,38.25065],[-118.49463,38.25041],[-118.49483,38.25025],[-118.49502,38.25016],[-118.49527,38.25013],[-118.49554,38.25003],[-118.4957,38.24996],[-118.49588,38.24986],[-118.49607,38.24973],[-118.49617,38.24961],[-118.49639,38.24925],[-118.49643,38.24915],[-118.49643,38.24888],[-118.4965,38.24852],[-118.4965,38.24837],[-118.49647,38.24815],[-118.49646,38.24794],[-118.49654,38.24778],[-118.49659,38.24767],[-118.49656,38.24755],[-118.49654,38.24746],[-118.49648,38.24735],[-118.49637,38.24715],[-118.49632,38.247],[-118.49621,38.24663],[-118.49617,38.24642],[-118.49614,38.24539],[-118.49617,38.2445],[-118.49617,38.24432],[-118.49614,38.24408],[-118.49606,38.24353],[-118.49599,38.24309],[-118.49595,38.24284],[-118.49592,38.24255],[-118.49591,38.24245],[-118.49578,38.24178],[-118.49577,38.24174],[-118.49561,38.24132],[-118.4954,38.2409],[-118.4952,38.24044],[-118.49509,38.24001],[-118.49493,38.23967],[-118.49477,38.2393],[-118.49472,38.23912],[-118.49468,38.23892],[-118.49462,38.23848],[-118.49459,38.23806],[-118.49451,38.23764],[-118.49448,38.23754],[-118.49445,38.23743],[-118.49436,38.23679],[-118.49432,38.23661],[-118.49432,38.23646],[-118.49439,38.23631],[-118.49448,38.23613],[-118.49451,38.23603],[-118.49451,38.23556],[-118.49448,38.23543],[-118.49447,38.23533],[-118.49442,38.23516],[-118.49442,38.23497],[-118.49447,38.23481],[-118.4945,38.23474],[-118.49457,38.23468],[-118.49464,38.23463],[-118.49478,38.23457],[-118.495,38.23451],[-118.49506,38.23447],[-118.49508,38.23444],[-118.4951,38.23441],[-118.49513,38.23432],[-118.49515,38.23429],[-118.49517,38.23421],[-118.49517,38.23413],[-118.49513,38.23401],[-118.4951,38.23392],[-118.49501,38.23377],[-118.49488,38.23359],[-118.49477,38.23344],[-118.4946,38.2333],[-118.49441,38.23314],[-118.49425,38.23299],[-118.49408,38.23276],[-118.49401,38.23265],[-118.49397,38.23243],[-118.49388,38.2323],[-118.49375,38.23214],[-118.49352,38.23188],[-118.49335,38.23168],[-118.49326,38.23151],[-118.49322,38.23135],[-118.49313,38.23115],[-118.4929,38.23089],[-118.49275,38.23079],[-118.49243,38.23043],[-118.49239,38.23031],[-118.49237,38.23013],[-118.49225,38.22963],[-118.49211,38.22895],[-118.49208,38.22868],[-118.49207,38.22836],[-118.49213,38.22821],[-118.49226,38.22803],[-118.49247,38.22785],[-118.49266,38.22761],[-118.49275,38.22751],[-118.49304,38.22729],[-118.49339,38.22705],[-118.49381,38.22677],[-118.49409,38.22657],[-118.49446,38.22623],[-118.49494,38.22579],[-118.49508,38.2256],[-118.49532,38.22529],[-118.49552,38.22496],[-118.49559,38.22487],[-118.49571,38.22477],[-118.49588,38.22467],[-118.49603,38.22459],[-118.49621,38.22452],[-118.49689,38.22437],[-118.49746,38.22423],[-118.49819,38.22404],[-118.49845,38.22399],[-118.49873,38.22392],[-118.49885,38.22389],[-118.49891,38.22386],[-118.49897,38.22383],[-118.49908,38.22373],[-118.49913,38.2237],[-118.49925,38.22365],[-118.49934,38.22359],[-118.49937,38.22355],[-118.49942,38.22345],[-118.49953,38.2232],[-118.49957,38.22314],[-118.49977,38.22304],[-118.50011,38.22277],[-118.50026,38.22274],[-118.50039,38.22274],[-118.50058,38.22279],[-118.50078,38.22279],[-118.50113,38.22276],[-118.50131,38.22272],[-118.50153,38.22268],[-118.50172,38.22262],[-118.5025,38.22239],[-118.50269,38.22233],[-118.50281,38.22226],[-118.50296,38.22212],[-118.50324,38.22171],[-118.50341,38.22145],[-118.50354,38.22121],[-118.50374,38.22089],[-118.50384,38.22076],[-118.50405,38.22055],[-118.50416,38.22039],[-118.50421,38.22029],[-118.50425,38.22014],[-118.50425,38.22002],[-118.50424,38.2199],[-118.50422,38.21979],[-118.50422,38.21973],[-118.50422,38.21967],[-118.50427,38.21953],[-118.50433,38.21941],[-118.50441,38.21932],[-118.50504,38.2188],[-118.50518,38.21869],[-118.50539,38.21862],[-118.50555,38.21856],[-118.50567,38.2185],[-118.50582,38.21841],[-118.50589,38.21836],[-118.50595,38.2183],[-118.50618,38.218],[-118.50639,38.21784],[-118.50647,38.21775],[-118.50662,38.21755],[-118.50676,38.21742],[-118.50692,38.2172],[-118.50697,38.21704],[-118.50704,38.21659],[-118.50706,38.21645],[-118.50702,38.21634],[-118.50698,38.21619],[-118.50695,38.21605],[-118.50696,38.21587],[-118.507,38.21578],[-118.50703,38.21574],[-118.50707,38.21569],[-118.50718,38.2156],[-118.50726,38.21556],[-118.50735,38.21556],[-118.50744,38.21562],[-118.50749,38.21564],[-118.50754,38.21565],[-118.50761,38.21565],[-118.50772,38.21563],[-118.50784,38.21557],[-118.50788,38.21554],[-118.50789,38.21549],[-118.50789,38.21545],[-118.50788,38.21539],[-118.5078,38.21521],[-118.50779,38.21513],[-118.50779,38.21505],[-118.50782,38.21499],[-118.50788,38.21495],[-118.50802,38.21491],[-118.50814,38.21489],[-118.50825,38.21484],[-118.50833,38.21478],[-118.50837,38.21475],[-118.50842,38.21472],[-118.50846,38.21469],[-118.50853,38.21468],[-118.50866,38.21469],[-118.5088,38.21467],[-118.50892,38.21462],[-118.50906,38.21455],[-118.50925,38.21441],[-118.50934,38.21432],[-118.50937,38.21423],[-118.5094,38.21404],[-118.50945,38.21395],[-118.50956,38.21382],[-118.5096,38.21374],[-118.50961,38.21365],[-118.50963,38.21341],[-118.50966,38.21332],[-118.50975,38.21325],[-118.50992,38.21318],[-118.51016,38.21311],[-118.51027,38.21308],[-118.51057,38.21296],[-118.51077,38.21283],[-118.51091,38.21275],[-118.51098,38.21268],[-118.51101,38.21257],[-118.51109,38.21236],[-118.5111,38.21219],[-118.51114,38.21212],[-118.51118,38.21207],[-118.51127,38.21201],[-118.51166,38.21182],[-118.5118,38.21174],[-118.51197,38.21159],[-118.51205,38.21147],[-118.51208,38.2114],[-118.51209,38.21133],[-118.51208,38.21128],[-118.51209,38.21113],[-118.51212,38.21103],[-118.5122,38.21087],[-118.51237,38.21057],[-118.5124,38.21047],[-118.51241,38.21033],[-118.5124,38.21024],[-118.51233,38.20998],[-118.51224,38.20983],[-118.51222,38.20976],[-118.51218,38.20964],[-118.51209,38.20939],[-118.51203,38.20915],[-118.51198,38.20894],[-118.51192,38.20885],[-118.51185,38.20877],[-118.51166,38.20866],[-118.51157,38.20861],[-118.51149,38.20857],[-118.5114,38.20851],[-118.51127,38.20839],[-118.51108,38.20819],[-118.51088,38.20803],[-118.51054,38.20778],[-118.50996,38.20736],[-118.50992,38.20732],[-118.50983,38.20714],[-118.50979,38.20702],[-118.50978,38.20692],[-118.50981,38.20679],[-118.51006,38.2063],[-118.51008,38.20623],[-118.5101,38.20602],[-118.5101,38.20594],[-118.51006,38.20577],[-118.51002,38.20566],[-118.51001,38.20562],[-118.51002,38.20558],[-118.51004,38.20551],[-118.5101,38.20543],[-118.51022,38.20534],[-118.51031,38.20531],[-118.51052,38.20528],[-118.51061,38.20524],[-118.51069,38.20521],[-118.51098,38.20504],[-118.51113,38.20492],[-118.51133,38.20472],[-118.5115,38.20457],[-118.51164,38.20442],[-118.51173,38.2043],[-118.51184,38.20411],[-118.51196,38.20378],[-118.51203,38.20357],[-118.51209,38.20336],[-118.51211,38.20311],[-118.51218,38.20284],[-118.51226,38.20267],[-118.51243,38.20247],[-118.51257,38.20235],[-118.51274,38.20223],[-118.51282,38.20217],[-118.51314,38.20194],[-118.51339,38.20173],[-118.51359,38.20154],[-118.51376,38.20137],[-118.51387,38.20118],[-118.51397,38.20099],[-118.514,38.20084],[-118.51404,38.20073],[-118.51412,38.20063],[-118.51423,38.20057],[-118.51432,38.20051],[-118.51449,38.20043],[-118.51471,38.2003],[-118.51499,38.20005],[-118.51508,38.19994],[-118.51513,38.19986],[-118.5152,38.19971],[-118.51523,38.19961],[-118.51533,38.19911],[-118.51544,38.19876],[-118.51567,38.19826],[-118.51587,38.19768],[-118.516,38.1971],[-118.51607,38.19653],[-118.5163,38.19613],[-118.51634,38.19598],[-118.51641,38.19568],[-118.51658,38.19493],[-118.51664,38.19478],[-118.51673,38.19462],[-118.51693,38.19436],[-118.51706,38.19422],[-118.51715,38.1941],[-118.51727,38.19393],[-118.51732,38.19381],[-118.51734,38.19365],[-118.51742,38.1935],[-118.51757,38.19329],[-118.51778,38.19309],[-118.51793,38.19297],[-118.51814,38.19283],[-118.51871,38.19239],[-118.51904,38.19215],[-118.51921,38.19203],[-118.5194,38.19191],[-118.51958,38.19184],[-118.51985,38.19176],[-118.52034,38.19164],[-118.52059,38.19157],[-118.52107,38.19146],[-118.52163,38.1913],[-118.52189,38.19124],[-118.52253,38.19109],[-118.52293,38.19097],[-118.52331,38.19086],[-118.52398,38.19065],[-118.52427,38.1905],[-118.52463,38.19029],[-118.52486,38.19009],[-118.52517,38.18985],[-118.52571,38.18939],[-118.52599,38.18917],[-118.52633,38.18894],[-118.52659,38.18874],[-118.52707,38.1884],[-118.52785,38.18784],[-118.52871,38.18717],[-118.5292,38.1868],[-118.52975,38.18638],[-118.53035,38.18593],[-118.53061,38.18574],[-118.53094,38.18548],[-118.53112,38.18534],[-118.53141,38.18514],[-118.53162,38.18496],[-118.53188,38.18477],[-118.53236,38.18442],[-118.53293,38.18408],[-118.53381,38.18359],[-118.53474,38.1831],[-118.53527,38.18287],[-118.53554,38.18272],[-118.53599,38.18251],[-118.53633,38.18229],[-118.5365,38.18217],[-118.53683,38.18191],[-118.53711,38.18163],[-118.53718,38.18154],[-118.53725,38.18145],[-118.53732,38.18132],[-118.53735,38.18116],[-118.53735,38.18106],[-118.53737,38.18096],[-118.53749,38.18082],[-118.53755,38.18078],[-118.53776,38.18065],[-118.53785,38.18061],[-118.53804,38.18054],[-118.53885,38.18015],[-118.53909,38.1801],[-118.53936,38.17995],[-118.53956,38.17992],[-118.53973,38.17986],[-118.53989,38.17974],[-118.54009,38.17955],[-118.54026,38.17942],[-118.54055,38.17921],[-118.5408,38.17901],[-118.54166,38.17824],[-118.542,38.17797],[-118.54216,38.17785],[-118.54225,38.17779],[-118.54244,38.17771],[-118.54311,38.1775],[-118.54322,38.17746],[-118.54339,38.17738],[-118.54349,38.17732],[-118.54372,38.17717],[-118.54376,38.17712],[-118.54389,38.17701],[-118.54417,38.17671],[-118.54432,38.17654],[-118.54452,38.17624],[-118.54463,38.17602],[-118.54475,38.17579],[-118.545,38.17539],[-118.54534,38.17491],[-118.54555,38.17451],[-118.54585,38.17404],[-118.54599,38.17383],[-118.54619,38.17341],[-118.54631,38.17313],[-118.54633,38.17304],[-118.54636,38.1728],[-118.54648,38.17254],[-118.5466,38.17237],[-118.54674,38.17225],[-118.54679,38.1722],[-118.54685,38.17211],[-118.54688,38.17204],[-118.54688,38.17187],[-118.5469,38.17179],[-118.54768,38.1707],[-118.548,38.17022],[-118.54829,38.16985],[-118.54841,38.1697],[-118.54845,38.16963],[-118.54856,38.16949],[-118.54869,38.16931],[-118.54886,38.16906],[-118.54924,38.16855],[-118.54936,38.16834],[-118.5495,38.16796],[-118.54994,38.16666],[-118.55016,38.16611],[-118.55035,38.16553],[-118.55046,38.16514],[-118.5505,38.16475],[-118.55077,38.16422],[-118.55094,38.16371],[-118.55106,38.16347],[-118.55118,38.16302],[-118.55122,38.16269],[-118.55137,38.16234],[-118.55157,38.16187],[-118.55175,38.16146],[-118.55188,38.16113],[-118.55202,38.1607],[-118.5521,38.16052],[-118.55222,38.16033],[-118.5523,38.16013],[-118.55236,38.15994],[-118.55332,38.15717],[-118.55374,38.15596],[-118.55387,38.15562],[-118.55432,38.15425],[-118.55442,38.15396],[-118.55448,38.15377],[-118.55455,38.15353],[-118.55463,38.15293],[-118.55462,38.1526],[-118.55461,38.15242],[-118.55463,38.15232],[-118.55471,38.15215],[-118.55481,38.15201],[-118.55519,38.15154],[-118.55537,38.15119],[-118.55549,38.15088],[-118.55583,38.15013],[-118.55622,38.1492],[-118.55663,38.14829],[-118.55675,38.14806],[-118.55686,38.14781],[-118.55725,38.14688],[-118.55758,38.14616],[-118.55773,38.1458],[-118.55788,38.14548],[-118.55802,38.14522],[-118.55818,38.14478],[-118.55838,38.14436],[-118.55858,38.14389],[-118.55867,38.14373],[-118.55886,38.14342],[-118.56018,38.14156],[-118.56057,38.141],[-118.56107,38.14031],[-118.56156,38.13969],[-118.5618,38.13932],[-118.56219,38.13877],[-118.56296,38.13773],[-118.56328,38.13728],[-118.56407,38.13623],[-118.56473,38.13529],[-118.56517,38.13471],[-118.56534,38.13445],[-118.56555,38.13413],[-118.56572,38.13388],[-118.566,38.13347],[-118.56622,38.13305],[-118.56639,38.13267],[-118.56646,38.13249],[-118.56649,38.13237],[-118.56651,38.13223],[-118.56658,38.13202],[-118.56669,38.13186],[-118.56684,38.13169],[-118.56698,38.13158],[-118.5671,38.13151],[-118.56727,38.13137],[-118.56733,38.13126],[-118.56744,38.13089],[-118.56757,38.13032],[-118.56771,38.12991],[-118.56787,38.12938],[-118.56796,38.12917],[-118.56808,38.12884],[-118.56819,38.12843],[-118.56841,38.12783],[-118.56843,38.12776],[-118.56842,38.12763],[-118.56837,38.12732],[-118.56837,38.12724],[-118.56844,38.12684],[-118.56847,38.12664],[-118.56849,38.12656],[-118.56858,38.12633],[-118.56921,38.12492],[-118.56942,38.12443],[-118.56964,38.12397],[-118.56981,38.12354],[-118.57009,38.12296],[-118.57026,38.12262],[-118.57056,38.12202],[-118.57068,38.12175],[-118.57089,38.12131],[-118.57117,38.12069],[-118.57136,38.12032],[-118.57146,38.12008],[-118.5716,38.11972],[-118.57176,38.11936],[-118.5719,38.11905],[-118.57207,38.11857],[-118.57223,38.11808],[-118.57234,38.11776],[-118.57249,38.11733],[-118.5726,38.11698],[-118.57272,38.11653],[-118.57277,38.11636],[-118.57282,38.11619],[-118.57288,38.11599],[-118.57299,38.11571],[-118.57306,38.11533],[-118.57308,38.11505],[-118.57317,38.11477],[-118.57324,38.11455],[-118.57333,38.11427],[-118.57338,38.11407],[-118.57343,38.11383],[-118.57357,38.11344],[-118.57365,38.11326],[-118.57376,38.11301],[-118.57394,38.11268],[-118.57408,38.11236],[-118.5743,38.11185]]}},{"type":"Feature","properties":{"name":"FR 42058","road_class":"track","surface":"dirt","source":"OpenStreetMap","source_detail":"osm way 14362795","source_tile":"174/394"},"geometry":{"type":"LineString","coordinates":[[-118.81351,38.21462],[-118.80762,38.21566],[-118.80656,38.21593],[-118.80566,38.21636],[-118.80493,38.2166],[-118.80428,38.21686],[-118.80218,38.21758],[-118.80137,38.21793],[-118.80048,38.21831],[-118.79926,38.21893],[-118.79476,38.22161],[-118.7945,38.2219],[-118.79375,38.2233],[-118.79251,38.22468],[-118.79235,38.22486],[-118.79143,38.22572],[-118.79091,38.2261],[-118.79027,38.22685],[-118.78962,38.22729],[-118.78929,38.22739],[-118.78859,38.22756],[-118.78675,38.22768],[-118.78539,38.22791],[-118.78461,38.22804],[-118.78368,38.22835],[-118.78337,38.22854],[-118.7829,38.22883],[-118.7826,38.22909],[-118.78253,38.2293],[-118.78262,38.22979],[-118.7826,38.23027],[-118.78253,38.23069],[-118.78236,38.23113],[-118.78224,38.23135],[-118.78211,38.23154],[-118.78184,38.23188],[-118.78166,38.23204],[-118.78148,38.23215],[-118.78129,38.23224],[-118.78105,38.23232],[-118.78079,38.23239],[-118.78038,38.23246],[-118.77907,38.23273],[-118.77792,38.23282],[-118.77766,38.23279],[-118.77694,38.2327],[-118.77647,38.23252],[-118.77619,38.23252],[-118.77555,38.23263],[-118.77535,38.23263],[-118.77448,38.23254],[-118.77423,38.23249],[-118.77368,38.23237],[-118.77335,38.23239],[-118.77243,38.23269],[-118.77176,38.23299],[-118.77079,38.23377],[-118.76991,38.23469],[-118.76973,38.23485],[-118.7695,38.23502],[-118.76862,38.23551],[-118.76831,38.23574],[-118.76808,38.23599],[-118.76755,38.23669],[-118.76721,38.23705],[-118.76691,38.23732],[-118.76578,38.23817],[-118.76516,38.23869],[-118.76485,38.23888],[-118.76367,38.23935],[-118.76275,38.23976],[-118.76115,38.24043],[-118.76021,38.24088],[-118.75908,38.24147],[-118.75798,38.24201],[-118.75707,38.24241],[-118.75676,38.24251],[-118.75662,38.24259],[-118.75605,38.2428],[-118.75425,38.24352],[-118.75371,38.24372],[-118.75349,38.24383],[-118.75328,38.24393],[-118.75234,38.24487],[-118.75224,38.245],[-118.75214,38.24518],[-118.75208,38.24547],[-118.75206,38.24596],[-118.75192,38.2467],[-118.75159,38.24724],[-118.75126,38.24838],[-118.75118,38.24901],[-118.75095,38.2495],[-118.75072,38.25038],[-118.75052,38.25075],[-118.74992,38.25167],[-118.74947,38.25213],[-118.74807,38.25286],[-118.74767,38.25348],[-118.74685,38.25474],[-118.746,38.25527],[-118.74529,38.25664],[-118.74532,38.25715],[-118.74566,38.2578],[-118.74597,38.25839],[-118.74605,38.259],[-118.74586,38.25976],[-118.74549,38.26025],[-118.74526,38.26069],[-118.74516,38.26092],[-118.74516,38.26101],[-118.74518,38.26109],[-118.74528,38.26126],[-118.7453,38.26136],[-118.74523,38.26153],[-118.74508,38.2618],[-118.74501,38.26197],[-118.745,38.26221],[-118.74505,38.26248],[-118.74513,38.26259],[-118.74523,38.26264],[-118.74535,38.26264],[-118.74554,38.26253],[-118.74565,38.26251],[-118.74575,38.26254],[-118.74594,38.26264],[-118.74601,38.26265],[-118.7461,38.26265],[-118.7472,38.26249],[-118.74772,38.26238],[-118.74941,38.26203],[-118.75132,38.26145],[-118.75209,38.26125],[-118.75246,38.2612],[-118.75273,38.26117],[-118.75338,38.2612],[-118.75376,38.26127],[-118.75399,38.26137],[-118.75424,38.26149],[-118.75461,38.26169],[-118.75551,38.26217],[-118.75598,38.26241],[-118.75659,38.26284],[-118.75748,38.26317],[-118.75949,38.26376],[-118.76034,38.26424],[-118.76126,38.2649],[-118.76138,38.26533],[-118.76147,38.26555],[-118.76158,38.26576],[-118.76171,38.26597],[-118.7622,38.26649],[-118.76312,38.2673],[-118.76377,38.26795],[-118.7639,38.26812],[-118.7643,38.26885],[-118.76493,38.26987],[-118.76514,38.27029],[-118.76528,38.27062],[-118.76553,38.27129],[-118.76557,38.27153],[-118.76557,38.2718],[-118.76545,38.27215],[-118.76537,38.27244],[-118.7652,38.27269],[-118.76489,38.27301],[-118.76483,38.27313],[-118.76477,38.27331],[-118.76473,38.27358],[-118.7647,38.27429],[-118.76454,38.27493],[-118.76439,38.27563],[-118.76432,38.27579],[-118.76426,38.27589],[-118.76404,38.27615],[-118.76392,38.27633],[-118.76388,38.27645],[-118.76385,38.27679],[-118.76382,38.27691],[-118.76355,38.27736],[-118.7635,38.27756],[-118.76352,38.2777],[-118.76359,38.27795],[-118.76391,38.27878],[-118.76392,38.27936],[-118.764,38.27996],[-118.76438,38.28062],[-118.76479,38.28114],[-118.76488,38.2817],[-118.76502,38.28203],[-118.76514,38.28218],[-118.76583,38.2829],[-118.76599,38.28309],[-118.76604,38.2832],[-118.76609,38.28346],[-118.76645,38.28434],[-118.76644,38.28441]]}},{"type":"Feature","properties":{"name":"Long Valley Trail","road_class":"track","surface":"dirt","source":"OpenStreetMap","source_detail":"osm way 850242452","source_tile":"174/394"},"geometry":{"type":"LineString","coordinates":[[-118.77101,38.23227],[-118.77073,38.23214],[-118.76828,38.23112],[-118.76736,38.23076],[-118.76601,38.23021],[-118.76518,38.22991],[-118.76342,38.22915],[-118.76283,38.22891],[-118.76078,38.2281],[-118.76015,38.22808],[-118.75992,38.228],[-118.75965,38.22797],[-118.75935,38.22791],[-118.75888,38.22769],[-118.75852,38.2276],[-118.75809,38.22742],[-118.75778,38.2272],[-118.75747,38.22707],[-118.7573,38.22697],[-118.75691,38.22678],[-118.7561,38.22646],[-118.75449,38.22591],[-118.75342,38.22571],[-118.753,38.22566],[-118.75259,38.22556],[-118.75247,38.2255],[-118.75235,38.22539],[-118.75205,38.2252],[-118.75189,38.22511],[-118.75155,38.22498],[-118.75097,38.2248],[-118.75029,38.22454],[-118.74985,38.22442],[-118.7491,38.22425],[-118.74855,38.22403],[-118.74842,38.22404],[-118.74824,38.22399],[-118.74815,38.22386],[-118.74747,38.22351],[-118.74714,38.22346],[-118.74661,38.22315],[-118.74634,38.22293],[-118.74447,38.22203],[-118.74413,38.22184],[-118.74338,38.22139],[-118.74276,38.22106],[-118.74266,38.22099],[-118.74247,38.2209],[-118.74232,38.22079],[-118.74215,38.22071],[-118.742,38.22066],[-118.74148,38.22055],[-118.74117,38.22051],[-118.74094,38.22051],[-118.74057,38.22057],[-118.74023,38.22073],[-118.73976,38.22098],[-118.73931,38.22109],[-118.73902,38.22114],[-118.73859,38.22112],[-118.73761,38.22104],[-118.73569,38.22081],[-118.7355,38.22076],[-118.73529,38.2207],[-118.7346,38.22042],[-118.73396,38.22028],[-118.73293,38.22012],[-118.73266,38.2201],[-118.73248,38.2201],[-118.73233,38.22014],[-118.7321,38.22023],[-118.73195,38.22025],[-118.7315,38.22018],[-118.73115,38.22015],[-118.73055,38.22013],[-118.73015,38.2201],[-118.72978,38.22011],[-118.72811,38.22028],[-118.72706,38.22045],[-118.7263,38.22055],[-118.72608,38.22063],[-118.72554,38.22087],[-118.72463,38.22124],[-118.72439,38.22131],[-118.72372,38.22146],[-118.72345,38.22167],[-118.72319,38.22178],[-118.72313,38.22183],[-118.72298,38.222],[-118.72273,38.22237],[-118.7226,38.22274],[-118.72256,38.22293],[-118.72251,38.22309],[-118.72247,38.22313],[-118.72215,38.22337],[-118.72196,38.22356],[-118.72163,38.224],[-118.72153,38.22415],[-118.72146,38.22431],[-118.72143,38.22447],[-118.72143,38.22464],[-118.72149,38.22526],[-118.72154,38.22554],[-118.72156,38.22593],[-118.72146,38.22772],[-118.72143,38.22796],[-118.72121,38.22881],[-118.72105,38.22929],[-118.72096,38.22963],[-118.72093,38.22985],[-118.72091,38.23036],[-118.72087,38.2307],[-118.7208,38.23105],[-118.72057,38.23172],[-118.72034,38.23222],[-118.72011,38.2326],[-118.71997,38.23271],[-118.71968,38.23287],[-118.71957,38.23297],[-118.71941,38.23314],[-118.7192,38.23343],[-118.71879,38.23412],[-118.71865,38.23439],[-118.71826,38.23529],[-118.71814,38.23541],[-118.71783,38.23559],[-118.71765,38.23577],[-118.71759,38.23587],[-118.71757,38.23604],[-118.71763,38.2362],[-118.71762,38.23634],[-118.71741,38.23665],[-118.71736,38.23725],[-118.71727,38.23738],[-118.71717,38.23746],[-118.71704,38.23749],[-118.71691,38.23748],[-118.71675,38.23744],[-118.71656,38.23735],[-118.71648,38.23735],[-118.71641,38.23737],[-118.71628,38.23749],[-118.71614,38.23756],[-118.71602,38.2376],[-118.7156,38.23766],[-118.71538,38.23771],[-118.71514,38.23779],[-118.71508,38.23778],[-118.7149,38.23772],[-118.71475,38.2377],[-118.71462,38.2377],[-118.71446,38.23774],[-118.71416,38.23783],[-118.71402,38.2379],[-118.71399,38.23802],[-118.71405,38.23812],[-118.714,38.23829],[-118.71403,38.23858],[-118.71404,38.23875],[-118.71393,38.23893],[-118.71396,38.23917],[-118.714,38.2396],[-118.71396,38.23987],[-118.71381,38.24008],[-118.71377,38.24029],[-118.7138,38.24046],[-118.71375,38.24061],[-118.7136,38.2408],[-118.71349,38.24087],[-118.71344,38.24098],[-118.71349,38.24108],[-118.71362,38.24124],[-118.71372,38.24132],[-118.71371,38.24145],[-118.71381,38.24164],[-118.71374,38.24182],[-118.71373,38.24195],[-118.71379,38.24198],[-118.71387,38.24194],[-118.71395,38.24189],[-118.71404,38.24188],[-118.71413,38.24191],[-118.71414,38.24195],[-118.71407,38.24248],[-118.71401,38.24289],[-118.71392,38.2434],[-118.7138,38.24388],[-118.71358,38.24502],[-118.71339,38.24578],[-118.7131,38.24672],[-118.71285,38.24735],[-118.71268,38.24786],[-118.71258,38.2481],[-118.71236,38.24848],[-118.7122,38.24869],[-118.71206,38.24908],[-118.71192,38.24939],[-118.71156,38.25006],[-118.71127,38.25072],[-118.71092,38.25137],[-118.71066,38.25198],[-118.71042,38.2525],[-118.71019,38.25306],[-118.71002,38.2534],[-118.70947,38.25463],[-118.70932,38.25505],[-118.70911,38.25573],[-118.70894,38.25616],[-118.70855,38.2574],[-118.70849,38.25767],[-118.70848,38.25789],[-118.70838,38.25839],[-118.7083,38.25902],[-118.70823,38.25933],[-118.70805,38.25982],[-118.70753,38.26113],[-118.70733,38.26147],[-118.70658,38.26309],[-118.70645,38.2634],[-118.70615,38.26402],[-118.70607,38.26431],[-118.70589,38.26475],[-118.70564,38.26521],[-118.70482,38.26656],[-118.70439,38.26712],[-118.70417,38.26738],[-118.70231,38.2695],[-118.70156,38.27044],[-118.70113,38.27107],[-118.70108,38.2711],[-118.70103,38.27117],[-118.70103,38.27121],[-118.70049,38.27173],[-118.69998,38.27234],[-118.69976,38.27252],[-118.69946,38.27272],[-118.69931,38.27277],[-118.6989,38.2733],[-118.69877,38.27342],[-118.69867,38.27348],[-118.69843,38.27359],[-118.69805,38.27378],[-118.69786,38.27386],[-118.69766,38.27392],[-118.69718,38.274],[-118.69686,38.27407],[-118.69629,38.2743],[-118.69568,38.27463],[-118.69545,38.27466],[-118.6953,38.27473],[-118.69464,38.2753],[-118.69432,38.27554],[-118.69403,38.27573],[-118.694,38.27576],[-118.69377,38.27587],[-118.69344,38.27597],[-118.69334,38.27603],[-118.69324,38.2761],[-118.69287,38.27646],[-118.69232,38.27708],[-118.69129,38.27812],[-118.6909,38.27847],[-118.69066,38.27884],[-118.69032,38.27916]]}},{"type":"Feature","properties":{"name":"(unnamed public road)","road_class":"track","surface":"unpaved","source":"OpenStreetMap","source_detail":"osm way 885711299","source_tile":"174/394"},"geometry":{"type":"LineString","coordinates":[[-118.58532,38.24052],[-118.58518,38.24057],[-118.5851,38.24076],[-118.585,38.24084],[-118.58489,38.24082],[-118.58477,38.24083],[-118.58474,38.24094],[-118.58477,38.24132],[-118.58469,38.24181],[-118.5847,38.24206],[-118.58475,38.24227],[-118.58474,38.24244],[-118.58481,38.24255],[-118.58497,38.24273],[-118.58507,38.24296],[-118.5851,38.24311],[-118.58515,38.24334],[-118.58509,38.24354],[-118.58501,38.24362],[-118.58466,38.24382],[-118.58463,38.24391],[-118.58466,38.24399],[-118.58484,38.24425],[-118.58484,38.24439],[-118.58468,38.24484],[-118.5843,38.24557],[-118.58425,38.24581],[-118.58418,38.24594],[-118.58418,38.24602],[-118.58422,38.2461],[-118.5842,38.24646],[-118.58425,38.24662],[-118.58428,38.24679],[-118.58429,38.24717],[-118.58424,38.24735],[-118.58409,38.24769],[-118.58396,38.24821],[-118.58397,38.24846],[-118.58394,38.24882],[-118.58394,38.24907],[-118.58396,38.24935],[-118.584,38.24949],[-118.58401,38.24963],[-118.5839,38.24994],[-118.58373,38.25032],[-118.58359,38.25124],[-118.58364,38.25133],[-118.58366,38.25148],[-118.58368,38.25161],[-118.58359,38.25189],[-118.58361,38.25204],[-118.58356,38.2522],[-118.58358,38.25234],[-118.5836,38.2528],[-118.58365,38.25294],[-118.58363,38.25308],[-118.58359,38.25332],[-118.58367,38.2535],[-118.58378,38.25359],[-118.58393,38.25356],[-118.58413,38.2535],[-118.58419,38.25352],[-118.58419,38.25368],[-118.58409,38.25385],[-118.58406,38.25395],[-118.58388,38.25428],[-118.58378,38.25441],[-118.58366,38.25494],[-118.58351,38.25529],[-118.58332,38.25587],[-118.58321,38.25601],[-118.58295,38.25626],[-118.58273,38.25651],[-118.58249,38.25688],[-118.58156,38.25819],[-118.58034,38.25998],[-118.57952,38.26116],[-118.57872,38.26233],[-118.57857,38.26255],[-118.57844,38.26275],[-118.57666,38.26536],[-118.57529,38.2675],[-118.57448,38.26864],[-118.57414,38.26924],[-118.57335,38.27041],[-118.57309,38.27078],[-118.5726,38.27151],[-118.57243,38.27174],[-118.5718,38.27269],[-118.56779,38.27876],[-118.56709,38.27981],[-118.56706,38.27992],[-118.56507,38.28284],[-118.56482,38.28316],[-118.56448,38.28366],[-118.56094,38.28865],[-118.56028,38.28965],[-118.55987,38.29024],[-118.55969,38.29048],[-118.55949,38.29079],[-118.55935,38.29096],[-118.5592,38.29114],[-118.55901,38.29143],[-118.55879,38.29174],[-118.55845,38.29222],[-118.55829,38.29243],[-118.55809,38.2927],[-118.55766,38.2933],[-118.55747,38.29356],[-118.55725,38.29387],[-118.55685,38.2944],[-118.55608,38.29548],[-118.55566,38.29604],[-118.55527,38.29654],[-118.54848,38.2998],[-118.54744,38.3003],[-118.54562,38.30113],[-118.5432,38.30224],[-118.54208,38.30278],[-118.54124,38.30345],[-118.53796,38.30614],[-118.53729,38.30668],[-118.53665,38.30718],[-118.53471,38.30876],[-118.53465,38.30882],[-118.53451,38.30892],[-118.53448,38.30897],[-118.53423,38.30915],[-118.53389,38.30941],[-118.53383,38.30947],[-118.53334,38.30982],[-118.53331,38.30986],[-118.52865,38.31336],[-118.52614,38.31526],[-118.52547,38.31572],[-118.52514,38.31603],[-118.52407,38.31683],[-118.52395,38.31693],[-118.52371,38.31714],[-118.52297,38.31771],[-118.5224,38.31811],[-118.52219,38.31828],[-118.52138,38.31885],[-118.51898,38.32058]]}},{"type":"Feature","properties":{"name":"(unnamed public road)","road_class":"track","surface":"unpaved","source":"OpenStreetMap","source_detail":"osm way 947040621","source_tile":"175/394"},"geometry":{"type":"LineString","coordinates":[[-118.47996,38.27665],[-118.47985,38.27654],[-118.4798,38.27636],[-118.47974,38.2762],[-118.47964,38.27598],[-118.47948,38.27574],[-118.47933,38.27559],[-118.47915,38.27543],[-118.479,38.27529],[-118.47885,38.27511],[-118.47878,38.275],[-118.47861,38.27496],[-118.47852,38.27493],[-118.47843,38.27483],[-118.4784,38.27471],[-118.47839,38.27453],[-118.47832,38.2744],[-118.47829,38.27426],[-118.4783,38.27416],[-118.47828,38.27405],[-118.47829,38.27389],[-118.47823,38.27375],[-118.47815,38.27353],[-118.47809,38.27337],[-118.47799,38.2733],[-118.47783,38.27323],[-118.47771,38.27321],[-118.47761,38.27328],[-118.47746,38.27338],[-118.47733,38.27336],[-118.47721,38.27335],[-118.47705,38.27346],[-118.47694,38.2735],[-118.47678,38.27345],[-118.47661,38.27337],[-118.47637,38.27322],[-118.47616,38.27312],[-118.47594,38.27296],[-118.4757,38.27287],[-118.4756,38.27282],[-118.47555,38.27279],[-118.47543,38.27268],[-118.47537,38.27258],[-118.47537,38.27246],[-118.47543,38.27228],[-118.47539,38.27209],[-118.47539,38.27199],[-118.4754,38.27189],[-118.47537,38.27168],[-118.47538,38.27148],[-118.47537,38.27115],[-118.47535,38.27097],[-118.47538,38.27081],[-118.47536,38.27066],[-118.47532,38.27051],[-118.47523,38.27037],[-118.47517,38.27021],[-118.47514,38.27007],[-118.47512,38.26994],[-118.47505,38.26974],[-118.47497,38.26955],[-118.47481,38.26912],[-118.47477,38.26892],[-118.4747,38.26868],[-118.47463,38.2686],[-118.47456,38.26843],[-118.47448,38.26827],[-118.47443,38.26821],[-118.47431,38.2681],[-118.47422,38.26802],[-118.4741,38.26798],[-118.47394,38.26789],[-118.47375,38.26779],[-118.47363,38.26776],[-118.47347,38.26778],[-118.47331,38.26776],[-118.47306,38.26772],[-118.47284,38.26774],[-118.47266,38.26783],[-118.47254,38.26795],[-118.47238,38.26797],[-118.47226,38.26805],[-118.47205,38.26815],[-118.47181,38.26821],[-118.47155,38.26822],[-118.47135,38.26824],[-118.47119,38.26835],[-118.47096,38.26842],[-118.47078,38.26837],[-118.47047,38.26829],[-118.47022,38.26825],[-118.47,38.26828],[-118.46977,38.26831],[-118.46968,38.26839],[-118.46963,38.2685],[-118.46958,38.26871],[-118.46955,38.2689],[-118.4695,38.26901],[-118.46952,38.26914],[-118.46948,38.26922],[-118.46936,38.26922],[-118.46911,38.2692],[-118.46895,38.26925],[-118.46873,38.26932],[-118.46849,38.26937],[-118.46817,38.26942],[-118.46808,38.26939],[-118.46801,38.26932],[-118.46797,38.26915],[-118.46792,38.26901],[-118.46786,38.2689],[-118.46784,38.26881],[-118.4679,38.26867],[-118.46792,38.26849],[-118.46793,38.26833],[-118.4679,38.26819],[-118.46796,38.26806],[-118.46794,38.26798],[-118.46799,38.26787],[-118.46796,38.26776],[-118.46786,38.26763],[-118.46779,38.26747],[-118.46775,38.26738],[-118.46778,38.26724],[-118.46769,38.26709],[-118.46772,38.26695],[-118.46774,38.26682],[-118.46772,38.26669],[-118.46767,38.26659],[-118.46768,38.26651],[-118.46764,38.26644],[-118.46754,38.2664],[-118.4674,38.26634],[-118.46735,38.26628],[-118.46734,38.26619],[-118.46739,38.26611],[-118.46749,38.26601],[-118.46749,38.26591],[-118.46752,38.26579],[-118.46759,38.26566],[-118.46765,38.26549],[-118.46766,38.26533],[-118.46767,38.2652],[-118.46773,38.26499],[-118.46773,38.2648],[-118.46771,38.26465],[-118.46773,38.2644],[-118.46771,38.26425],[-118.46767,38.26413],[-118.46752,38.264],[-118.46742,38.26387],[-118.46737,38.26375],[-118.46733,38.2636],[-118.46735,38.26347],[-118.4673,38.26338],[-118.46724,38.26326],[-118.46718,38.26312],[-118.46714,38.26299],[-118.46716,38.26288],[-118.46723,38.26276],[-118.46733,38.26265],[-118.4675,38.26254],[-118.46763,38.26246],[-118.46771,38.26235],[-118.46776,38.26224],[-118.46773,38.26205],[-118.46774,38.26186],[-118.46774,38.26171],[-118.46776,38.26155],[-118.46789,38.26129],[-118.46795,38.26108],[-118.46797,38.26084],[-118.46802,38.26066],[-118.46815,38.26047],[-118.4682,38.26032],[-118.46819,38.26014],[-118.46813,38.26],[-118.46809,38.25988],[-118.4681,38.2598],[-118.46813,38.25955],[-118.46821,38.25936],[-118.46826,38.2591],[-118.46841,38.25886],[-118.46854,38.25874],[-118.46865,38.25867],[-118.46865,38.25854],[-118.4687,38.25839],[-118.46877,38.25822],[-118.46894,38.25802],[-118.46908,38.25789],[-118.46922,38.25776],[-118.46928,38.25765],[-118.46933,38.25748],[-118.46937,38.25735],[-118.4694,38.2572],[-118.46937,38.25708],[-118.4693,38.25691],[-118.46917,38.25665],[-118.46912,38.25646],[-118.46903,38.25625],[-118.46897,38.25603],[-118.46886,38.25589],[-118.46875,38.25576],[-118.46862,38.25562],[-118.46851,38.25547],[-118.46848,38.25537],[-118.46845,38.2552],[-118.46844,38.25508],[-118.4685,38.25496],[-118.46857,38.25485],[-118.46863,38.25475],[-118.46863,38.25464],[-118.46857,38.25456],[-118.46846,38.25449],[-118.46833,38.25434],[-118.46809,38.25418],[-118.46785,38.25401],[-118.46757,38.25382],[-118.46738,38.2537],[-118.46698,38.25351],[-118.46654,38.25334],[-118.46622,38.25321],[-118.46587,38.25311],[-118.46566,38.25304],[-118.46546,38.25291],[-118.46524,38.25276],[-118.4651,38.25259],[-118.46496,38.2525],[-118.46476,38.25239],[-118.46445,38.25221],[-118.46419,38.25203],[-118.46397,38.25189],[-118.46375,38.25174],[-118.46363,38.25165],[-118.46354,38.25156],[-118.4634,38.25146],[-118.46327,38.25131],[-118.46314,38.25113],[-118.46296,38.25096],[-118.46273,38.25084],[-118.46255,38.25076],[-118.46234,38.25063],[-118.46211,38.25045],[-118.46188,38.25028],[-118.46171,38.25012],[-118.4616,38.25002],[-118.46137,38.24991],[-118.46114,38.24987],[-118.46081,38.24986],[-118.46054,38.24989],[-118.46028,38.24991],[-118.46006,38.24993],[-118.45961,38.25004],[-118.45932,38.25006],[-118.4591,38.25005],[-118.45896,38.25001],[-118.45891,38.24992],[-118.45888,38.24979],[-118.45873,38.24971],[-118.45857,38.2496],[-118.45849,38.24949],[-118.45835,38.24938],[-118.45811,38.24934],[-118.45801,38.24929],[-118.45786,38.24915],[-118.45775,38.24899],[-118.45758,38.24882],[-118.45744,38.2487],[-118.45731,38.24862],[-118.45729,38.24856],[-118.4573,38.24851],[-118.45735,38.24845],[-118.4573,38.24839],[-118.45723,38.24828],[-118.45715,38.24813],[-118.45704,38.24807],[-118.45679,38.24804],[-118.45644,38.24809],[-118.45617,38.24809],[-118.45608,38.24804],[-118.45602,38.24799],[-118.45601,38.24793],[-118.45608,38.24782],[-118.4562,38.24768],[-118.45625,38.24755],[-118.45624,38.24737],[-118.45621,38.24725],[-118.45614,38.24707],[-118.45615,38.24691],[-118.45623,38.24681],[-118.45634,38.24669],[-118.45632,38.24661],[-118.45615,38.24655],[-118.45576,38.24652],[-118.45532,38.24648],[-118.45506,38.24645],[-118.45479,38.24639],[-118.45456,38.2463],[-118.45442,38.2462],[-118.45431,38.24608],[-118.45417,38.246],[-118.45397,38.24593],[-118.45382,38.24586],[-118.45372,38.24575],[-118.45363,38.24561],[-118.45354,38.24552],[-118.45342,38.24548],[-118.453,38.24542],[-118.45265,38.24539],[-118.45237,38.24534],[-118.45219,38.24528],[-118.45203,38.24522],[-118.45181,38.24509],[-118.45166,38.24499],[-118.4514,38.24483],[-118.45118,38.2447],[-118.45108,38.24456],[-118.45107,38.24446],[-118.45098,38.24441],[-118.45078,38.24436],[-118.4505,38.24433],[-118.45046,38.24427],[-118.45048,38.24415],[-118.4505,38.24393],[-118.4504,38.24378],[-118.45022,38.24368],[-118.45003,38.24358],[-118.44985,38.24347],[-118.44965,38.24337],[-118.44947,38.24324]]}}]}