{"type":"FeatureCollection","features":[{"type":"Feature","properties":{"name":"Ballast Point Road","road_class":"track","source":"OpenStreetMap","source_detail":"osm way 96648625","source_tile":"174/411","surface_inferred":true},"geometry":{"type":"LineString","coordinates":[[-118.50026,33.43916],[-118.5003,33.43869],[-118.50037,33.43841],[-118.5004,33.43812],[-118.5004,33.43795],[-118.50038,33.43777],[-118.50034,33.43761],[-118.50027,33.43746],[-118.5002,33.43732],[-118.50047,33.43694],[-118.50054,33.43672],[-118.50066,33.43659],[-118.50078,33.43645],[-118.50084,33.43634],[-118.50086,33.43625],[-118.50087,33.43608],[-118.50086,33.43591],[-118.50082,33.43575],[-118.50081,33.43558],[-118.50085,33.4354],[-118.50088,33.43526],[-118.50119,33.43496],[-118.50145,33.43465],[-118.50167,33.4343],[-118.50192,33.43398],[-118.50207,33.43379],[-118.50222,33.43358],[-118.50228,33.43344],[-118.5023,33.43338],[-118.50231,33.43318],[-118.50234,33.43307],[-118.50235,33.43299],[-118.50234,33.43288],[-118.50231,33.43277],[-118.50221,33.43258],[-118.5021,33.43234],[-118.50207,33.43222],[-118.50208,33.43209],[-118.50213,33.432],[-118.5022,33.43192],[-118.50231,33.43183],[-118.50242,33.43171],[-118.50253,33.43159],[-118.50295,33.43133],[-118.50302,33.4313],[-118.50311,33.4313],[-118.5033,33.43131],[-118.50336,33.4313],[-118.50345,33.43125],[-118.5036,33.4311],[-118.50374,33.43103],[-118.50388,33.43092],[-118.50395,33.43085],[-118.50399,33.43077],[-118.50401,33.43064],[-118.50402,33.43046],[-118.50401,33.43031],[-118.50407,33.4302],[-118.50429,33.42985],[-118.50435,33.42973],[-118.50439,33.42953],[-118.50442,33.42947],[-118.50453,33.42937],[-118.50463,33.42931],[-118.50473,33.42923],[-118.50497,33.42909],[-118.50542,33.42867],[-118.50554,33.42865],[-118.50558,33.4287],[-118.50557,33.4288],[-118.50548,33.42892],[-118.50547,33.42911],[-118.50558,33.42934],[-118.50569,33.42964],[-118.50579,33.42997],[-118.50582,33.43026],[-118.50574,33.4305],[-118.50558,33.43079],[-118.50543,33.43098],[-118.50532,33.43104]]}},{"type":"Feature","properties":{"name":"Middle Ranch Road","road_class":"unclassified","surface":"unpaved","source":"OpenStreetMap","source_detail":"osm way 13266845","source_tile":"175/411"},"geometry":{"type":"LineString","coordinates":[[-118.47153,33.3733],[-118.47182,33.37331],[-118.47211,33.37331],[-118.47229,33.37337],[-118.47245,33.37348],[-118.47261,33.37354],[-118.47277,33.37358],[-118.47295,33.37356],[-118.47314,33.37359],[-118.4733,33.37367],[-118.4734,33.37375],[-118.47353,33.37391],[-118.47365,33.37405],[-118.47378,33.37409],[-118.47408,33.37409],[-118.47432,33.37405],[-118.47445,33.37403],[-118.47461,33.37408],[-118.47467,33.37419],[-118.47479,33.37433],[-118.47501,33.37451],[-118.4752,33.37467],[-118.47538,33.37472],[-118.47554,33.37472],[-118.47573,33.37468],[-118.47594,33.37463],[-118.47616,33.37468],[-118.47647,33.37472],[-118.47674,33.37466],[-118.47707,33.37457],[-118.47726,33.37453],[-118.47755,33.37453],[-118.47772,33.37449],[-118.47783,33.37441],[-118.47795,33.37432],[-118.47802,33.37428],[-118.4781,33.37431],[-118.47814,33.37435],[-118.47814,33.37445],[-118.4781,33.37454],[-118.478,33.37465],[-118.47775,33.37487],[-118.47749,33.37502],[-118.47731,33.37505],[-118.47705,33.37506],[-118.47689,33.37509],[-118.47676,33.37514],[-118.47667,33.37528],[-118.4766,33.3754],[-118.47653,33.37548],[-118.47623,33.37564],[-118.47604,33.37575],[-118.476,33.37584],[-118.476,33.37597],[-118.476,33.37611],[-118.47591,33.37619],[-118.4757,33.37623],[-118.47555,33.37623],[-118.47536,33.37618],[-118.47509,33.3761],[-118.47491,33.37611],[-118.47478,33.37614],[-118.47453,33.37631],[-118.47431,33.37643],[-118.47428,33.3765],[-118.47429,33.37654],[-118.4743,33.37658],[-118.4744,33.37661],[-118.47451,33.37662],[-118.47463,33.3766],[-118.47497,33.37649],[-118.47513,33.37652],[-118.47526,33.37657],[-118.47564,33.37678],[-118.47591,33.37696],[-118.47615,33.37703],[-118.4763,33.37707],[-118.47641,33.37705],[-118.47655,33.37706],[-118.47664,33.3772],[-118.47674,33.37735],[-118.47701,33.37763],[-118.47708,33.37771],[-118.47717,33.37777],[-118.4774,33.37773],[-118.47753,33.37769],[-118.47763,33.3777],[-118.47767,33.37779],[-118.47762,33.37791],[-118.47746,33.37818],[-118.47744,33.3783],[-118.47748,33.37842],[-118.47756,33.3785],[-118.47777,33.37871],[-118.47792,33.37886],[-118.47805,33.37903],[-118.47812,33.37917],[-118.47817,33.37931],[-118.47815,33.37938],[-118.47807,33.37943],[-118.47799,33.37946],[-118.47784,33.37948],[-118.47765,33.37943],[-118.47732,33.37932],[-118.47719,33.37927],[-118.47704,33.37921],[-118.47656,33.37892],[-118.47622,33.37883],[-118.4759,33.37869]]}},{"type":"Feature","properties":{"name":"(unnamed public road)","road_class":"track","source":"OpenStreetMap","source_detail":"osm way 13270055","source_tile":"174/411","surface_inferred":true},"geometry":{"type":"LineString","coordinates":[[-118.50581,33.42812],[-118.50601,33.42811],[-118.50612,33.42801],[-118.50608,33.42795],[-118.50597,33.42795],[-118.50581,33.42812],[-118.50552,33.42809],[-118.50543,33.42814],[-118.50538,33.42829],[-118.50523,33.42864],[-118.50513,33.42881],[-118.5049,33.42906],[-118.50474,33.42918],[-118.50473,33.42923]]}},{"type":"Feature","properties":{"name":"(unnamed public road)","road_class":"track","source":"OpenStreetMap","source_detail":"osm way 440416015","source_tile":"174/411","surface_inferred":true},"geometry":{"type":"LineString","coordinates":[[-118.47967,33.37134],[-118.47943,33.37131],[-118.47902,33.3713],[-118.47869,33.37129],[-118.47849,33.37127],[-118.47818,33.37124],[-118.47793,33.37123],[-118.47755,33.37124],[-118.47742,33.37125],[-118.4773,33.37127],[-118.47696,33.37134]]}},{"type":"Feature","properties":{"name":"Middle Ranch Road","road_class":"track","source":"OpenStreetMap","source_detail":"osm way 440416684","source_tile":"174/411","surface_inferred":true},"geometry":{"type":"LineString","coordinates":[[-118.47719,33.37927],[-118.47751,33.37953],[-118.47759,33.37958],[-118.47771,33.37958],[-118.47786,33.37954],[-118.47799,33.37946]]}},{"type":"Feature","properties":{"name":"Trans-Catalina Trail","road_class":"track","source":"OpenStreetMap","source_detail":"osm way 927387835","source_tile":"174/411","surface_inferred":true},"geometry":{"type":"LineString","coordinates":[[-118.47727,33.40769],[-118.47723,33.40776],[-118.4772,33.40789],[-118.47718,33.40796],[-118.47718,33.40801],[-118.47719,33.40807],[-118.47721,33.40816],[-118.47726,33.40826],[-118.47735,33.40845],[-118.47743,33.40856],[-118.47748,33.40862],[-118.47753,33.40864],[-118.47758,33.40866],[-118.47769,33.4087],[-118.47779,33.40873],[-118.47782,33.40874],[-118.47783,33.40875]]}}]}