{"type":"FeatureCollection","features":[{"type":"Feature","properties":{"name":"(unnamed public road)","road_class":"track","surface":"dirt","source":"Caltrans All Roads + OpenStreetMap explicit surface","source_detail":"osm way 10455878; Caltrans All Roads public-network geometry match","source_tile":"174/395","public_network_source":"Caltrans All Roads (ARNOLD/HPMS)","surface_source":"OpenStreetMap explicit surface tag","caltrans_match_coverage":1.0,"verified_length_m":12971},"geometry":{"type":"LineString","coordinates":[[-118.75708,37.9925],[-118.75761,37.99288],[-118.75795,37.99306],[-118.7582,37.99325],[-118.75868,37.99376],[-118.75916,37.99436],[-118.75937,37.99451],[-118.76014,37.9949],[-118.76055,37.9952],[-118.76116,37.9957],[-118.7615,37.99616],[-118.76171,37.99631],[-118.76314,37.9966],[-118.76409,37.99714],[-118.76456,37.99721],[-118.76524,37.99743],[-118.76818,37.99805],[-118.76938,37.99841],[-118.76983,37.99842],[-118.77004,37.99839],[-118.77047,37.99817],[-118.77064,37.99816],[-118.77084,37.99829],[-118.7713,37.99881],[-118.77149,37.99888],[-118.77163,37.99908],[-118.77185,37.99925],[-118.77279,37.99958],[-118.77322,37.99962],[-118.77381,37.99947],[-118.774,37.99951],[-118.77423,37.99954],[-118.77444,37.99971],[-118.77465,37.9998],[-118.77492,38.0001],[-118.77514,38.00013],[-118.77567,38.00096],[-118.77672,38.00162],[-118.77752,38.00196],[-118.77844,38.00245],[-118.77914,38.00275],[-118.78053,38.00355],[-118.781,38.00387],[-118.78172,38.00415],[-118.78278,38.00487],[-118.7843,38.00527],[-118.78466,38.00568],[-118.78513,38.00587],[-118.78555,38.00614],[-118.78646,38.00658],[-118.78696,38.00706],[-118.78725,38.00725],[-118.78798,38.00742],[-118.78854,38.00762],[-118.78894,38.00769],[-118.78916,38.00785],[-118.78962,38.00807],[-118.79004,38.00819],[-118.79049,38.00842],[-118.79085,38.00852],[-118.79112,38.00878],[-118.79158,38.00903],[-118.79192,38.00909],[-118.79237,38.00929],[-118.79286,38.00932],[-118.7938,38.00947],[-118.79505,38.00982],[-118.79585,38.01009],[-118.79627,38.01032],[-118.79761,38.01091],[-118.7989,38.01123],[-118.80037,38.01145],[-118.80057,38.01151],[-118.80086,38.01169],[-118.80149,38.01186],[-118.80196,38.01207],[-118.80249,38.01224],[-118.80276,38.01237],[-118.8035,38.01255],[-118.80391,38.01277],[-118.8051,38.01302],[-118.80678,38.01331],[-118.80748,38.01334],[-118.80849,38.01349],[-118.80979,38.01336],[-118.81072,38.01355],[-118.81168,38.01362],[-118.81349,38.01403],[-118.81554,38.01437],[-118.81579,38.01438],[-118.81631,38.01421],[-118.81724,38.01409],[-118.81784,38.01405],[-118.81858,38.01391],[-118.81876,38.01391],[-118.81962,38.0142],[-118.82184,38.01543],[-118.82244,38.01587],[-118.8237,38.01665],[-118.8264,38.01807],[-118.82725,38.01845],[-118.82769,38.01882],[-118.82825,38.01916],[-118.82969,38.01994],[-118.82997,38.02016],[-118.83076,38.02062],[-118.83122,38.02083],[-118.83164,38.02112],[-118.83249,38.02145],[-118.83294,38.02165],[-118.8332,38.02182],[-118.83404,38.02216],[-118.83426,38.0222],[-118.83498,38.02218],[-118.83581,38.02225],[-118.83603,38.02217],[-118.83612,38.02206],[-118.83648,38.02197],[-118.83676,38.02178],[-118.83782,38.0204],[-118.83816,38.01985],[-118.83919,38.0189],[-118.83939,38.01879],[-118.83999,38.01864],[-118.8405,38.01858],[-118.84213,38.01808],[-118.84316,38.01794],[-118.84377,38.01803],[-118.84454,38.01829],[-118.845,38.01837],[-118.84549,38.01854],[-118.84582,38.01873],[-118.84711,38.01906],[-118.84809,38.01964],[-118.84963,38.01989],[-118.85063,38.02014],[-118.85151,38.02045],[-118.85247,38.02091],[-118.85356,38.02113],[-118.85482,38.02151],[-118.85587,38.02175],[-118.8586,38.02286],[-118.85978,38.02321],[-118.86001,38.02325],[-118.86082,38.02338],[-118.86316,38.02446],[-118.86373,38.02487],[-118.86403,38.02508],[-118.86554,38.02551],[-118.8661,38.02556],[-118.86643,38.02566],[-118.86756,38.02636],[-118.86856,38.02655],[-118.8701,38.02702],[-118.87086,38.02734],[-118.87175,38.02745],[-118.87204,38.02755],[-118.87269,38.02785],[-118.87296,38.02802],[-118.87327,38.0283],[-118.87352,38.02842],[-118.87405,38.02855],[-118.87472,38.02864],[-118.87785,38.02975],[-118.87844,38.02999],[-118.87943,38.03052],[-118.87993,38.03089],[-118.88096,38.03092],[-118.8812,38.03098],[-118.88179,38.03135],[-118.88234,38.03185],[-118.88254,38.03194],[-118.88276,38.03196],[-118.88347,38.03187],[-118.88371,38.03197],[-118.88523,38.03214],[-118.88557,38.03239]]}},{"type":"Feature","properties":{"name":"Dobie Meadows Road","road_class":"unclassified","surface":"ground","source":"Caltrans All Roads + OpenStreetMap explicit surface","source_detail":"osm way 10458396; Caltrans All Roads public-network geometry match","source_tile":"174/395","public_network_source":"Caltrans All Roads (ARNOLD/HPMS)","surface_source":"OpenStreetMap explicit surface tag","caltrans_match_coverage":1.0,"verified_length_m":49587},"geometry":{"type":"LineString","coordinates":[[-119.05111,38.10789],[-119.05084,38.10774],[-119.05074,38.10773],[-119.05064,38.10775],[-119.04942,38.10818],[-119.04885,38.10832],[-119.04615,38.10946],[-119.04507,38.10975],[-119.04435,38.10987],[-119.04358,38.11008],[-119.04242,38.11049],[-119.04188,38.11062],[-119.04055,38.11112],[-119.03942,38.11141],[-119.03705,38.11227],[-119.03611,38.11249],[-119.03354,38.11362],[-119.03201,38.1141],[-119.03107,38.11459],[-119.02866,38.11562],[-119.02576,38.11714],[-119.0248,38.1177],[-119.02364,38.11822],[-119.02305,38.11853],[-119.02256,38.11878],[-119.02231,38.11893],[-119.02084,38.11977],[-119.02075,38.11977],[-119.02059,38.11978],[-119.02019,38.11962],[-119.01934,38.1198],[-119.0175,38.11984],[-119.01091,38.11971],[-119.00662,38.12065],[-119.00657,38.12068],[-119.00628,38.12087],[-119.00582,38.12134],[-119.00556,38.12154],[-119.00484,38.12187],[-119.00412,38.12232],[-119.00275,38.12277],[-119.00237,38.12294],[-119.00008,38.12425],[-118.99822,38.12502],[-118.99711,38.12541],[-118.99648,38.12573],[-118.99534,38.12642],[-118.99448,38.12699],[-118.99395,38.12741],[-118.99348,38.12763],[-118.99305,38.12801],[-118.99226,38.12853],[-118.98921,38.13091],[-118.98862,38.13112],[-118.98749,38.13177],[-118.98632,38.13235],[-118.98601,38.13255],[-118.98564,38.13292],[-118.98525,38.13304],[-118.98494,38.13314],[-118.98341,38.13389],[-118.98242,38.13437],[-118.98212,38.13455],[-118.98067,38.13567],[-118.98037,38.13585],[-118.97977,38.1359],[-118.97771,38.13587],[-118.97668,38.13588],[-118.97337,38.13594],[-118.97109,38.13661],[-118.9679,38.13783],[-118.96759,38.13784],[-118.96733,38.13787],[-118.96662,38.13828],[-118.96501,38.13883],[-118.9645,38.1391],[-118.96321,38.13987],[-118.96213,38.14045],[-118.96089,38.14128],[-118.95977,38.14192],[-118.95936,38.14223],[-118.95809,38.14285],[-118.95709,38.14359],[-118.95659,38.14383],[-118.9547,38.14306],[-118.95402,38.14273],[-118.95374,38.14273],[-118.95295,38.14292],[-118.95265,38.14311],[-118.95198,38.14373],[-118.95139,38.14444],[-118.95074,38.1449],[-118.95022,38.14549],[-118.94966,38.14594],[-118.94911,38.14625],[-118.94868,38.14637],[-118.94783,38.14652],[-118.9475,38.14665],[-118.94674,38.14711],[-118.94624,38.14756],[-118.94599,38.14769],[-118.94471,38.14799],[-118.94384,38.14833],[-118.94303,38.14887],[-118.94256,38.14905],[-118.94038,38.14955],[-118.93927,38.14971],[-118.93857,38.14986],[-118.93714,38.15022],[-118.93649,38.15043],[-118.93624,38.15059],[-118.93565,38.15126],[-118.93543,38.1514],[-118.93461,38.15173],[-118.93407,38.15183],[-118.93349,38.15205],[-118.93243,38.15257],[-118.93105,38.15313],[-118.93096,38.15317],[-118.92966,38.153],[-118.92948,38.15298],[-118.92842,38.15285],[-118.90972,38.15049],[-118.90845,38.15023],[-118.90675,38.14955],[-118.90357,38.1484],[-118.90192,38.14771],[-118.89812,38.14568],[-118.8959,38.14435],[-118.88904,38.14058],[-118.87781,38.13469],[-118.87015,38.13057],[-118.86657,38.12855],[-118.86002,38.12492],[-118.83309,38.11053],[-118.82738,38.1074],[-118.82334,38.10518],[-118.82316,38.10508],[-118.82065,38.10368],[-118.81542,38.10096],[-118.80768,38.09679],[-118.80187,38.0938],[-118.8008,38.0932],[-118.79995,38.09251],[-118.79134,38.08393],[-118.7895,38.08208],[-118.7891,38.08169],[-118.78895,38.08153],[-118.78471,38.07727],[-118.78412,38.07671],[-118.7841,38.07669],[-118.77975,38.07239],[-118.77767,38.07038],[-118.77639,38.06909],[-118.77614,38.06876],[-118.77594,38.06842],[-118.77553,38.06759],[-118.77516,38.06677],[-118.77482,38.06589],[-118.77463,38.06527],[-118.77431,38.06462],[-118.77423,38.06443],[-118.7742,38.0643],[-118.77421,38.06415],[-118.77424,38.06392],[-118.7743,38.06366],[-118.77432,38.06355],[-118.7743,38.06345],[-118.77426,38.06335],[-118.77392,38.06288],[-118.77388,38.0628],[-118.77385,38.0627],[-118.77385,38.0626],[-118.77388,38.06249],[-118.77395,38.06238],[-118.77408,38.06224],[-118.77519,38.06137],[-118.77546,38.06113],[-118.77555,38.06101],[-118.77558,38.06092],[-118.77558,38.06087],[-118.77555,38.06081],[-118.77549,38.06068],[-118.77543,38.06059],[-118.77538,38.06055],[-118.7751,38.06036],[-118.77505,38.06031],[-118.77498,38.06022],[-118.77466,38.0594],[-118.77462,38.05934],[-118.77445,38.0592],[-118.77427,38.059],[-118.77417,38.05882],[-118.77414,38.05866],[-118.77411,38.05839],[-118.77408,38.0583],[-118.77404,38.05822],[-118.77393,38.05811],[-118.77383,38.05806],[-118.7732,38.05753],[-118.77161,38.05627],[-118.77081,38.05567],[-118.76996,38.05494],[-118.76882,38.05398],[-118.76809,38.05334],[-118.76733,38.05271],[-118.76651,38.05211],[-118.76638,38.05203],[-118.76627,38.05194],[-118.76617,38.05184],[-118.76608,38.05174],[-118.76601,38.05163],[-118.76594,38.05147],[-118.76577,38.05117],[-118.76511,38.04971],[-118.76411,38.04754],[-118.7638,38.04697],[-118.76355,38.04648],[-118.76307,38.04536],[-118.76256,38.04427],[-118.76213,38.04342],[-118.76205,38.04331],[-118.76172,38.04303],[-118.76091,38.04247],[-118.76075,38.04237],[-118.7606,38.04225],[-118.76048,38.04213],[-118.76037,38.042],[-118.76027,38.04185],[-118.7602,38.0417],[-118.76016,38.04159],[-118.76005,38.04117],[-118.7593,38.03852],[-118.75894,38.03758],[-118.75846,38.0363],[-118.75816,38.03542],[-118.75717,38.03284],[-118.75609,38.0303],[-118.75549,38.02899],[-118.75495,38.02772],[-118.75493,38.02766],[-118.7549,38.02756],[-118.75479,38.02723],[-118.75477,38.02712],[-118.75478,38.02682],[-118.75484,38.0256],[-118.75488,38.02439],[-118.75485,38.02388],[-118.75489,38.0235],[-118.75495,38.02315],[-118.75511,38.0223],[-118.75521,38.02148],[-118.75529,38.02067],[-118.75538,38.01987],[-118.75573,38.01755],[-118.75591,38.01609],[-118.75603,38.01536],[-118.75616,38.01467],[-118.75639,38.01377],[-118.75653,38.0134],[-118.75677,38.01286],[-118.75719,38.012],[-118.75774,38.01084],[-118.75787,38.01043],[-118.75796,38.00979],[-118.75797,38.00954],[-118.75795,38.00933],[-118.75786,38.00885],[-118.75786,38.0086],[-118.75783,38.00825],[-118.75765,38.00738],[-118.75757,38.00715],[-118.7575,38.00688],[-118.75745,38.00654],[-118.75744,38.00637],[-118.75754,38.00554],[-118.75752,38.00531],[-118.75748,38.00511],[-118.75741,38.00491],[-118.75732,38.00472],[-118.7572,38.00454],[-118.75706,38.00436],[-118.75633,38.00368],[-118.75478,38.0025],[-118.75399,38.00171],[-118.75327,38.00111],[-118.75253,38.00053],[-118.75175,37.99986],[-118.7515,37.99969],[-118.75137,37.99957],[-118.75129,37.99945],[-118.75124,37.9993],[-118.7512,37.99882],[-118.75114,37.99742],[-118.75112,37.99727],[-118.75106,37.99713],[-118.75097,37.99699],[-118.75081,37.99679],[-118.75035,37.99622],[-118.74936,37.9949],[-118.74838,37.99357],[-118.74743,37.99208],[-118.74651,37.99056],[-118.74599,37.98975],[-118.74579,37.98946],[-118.74562,37.98925],[-118.74464,37.98814],[-118.74452,37.98804],[-118.74419,37.98784],[-118.7436,37.98752],[-118.74325,37.98732],[-118.74304,37.98714],[-118.74285,37.98692],[-118.74277,37.98681],[-118.74269,37.98665],[-118.74263,37.98641],[-118.74262,37.98575],[-118.74259,37.98564],[-118.74254,37.98555],[-118.74246,37.98546],[-118.74236,37.98539],[-118.74216,37.98533],[-118.74203,37.98531],[-118.74152,37.98528],[-118.74137,37.98528],[-118.74118,37.98531],[-118.74086,37.98539],[-118.74073,37.9854],[-118.74052,37.9854],[-118.74039,37.98539],[-118.74026,37.98536],[-118.74014,37.98532],[-118.74002,37.98527],[-118.73991,37.98522],[-118.73981,37.98515],[-118.73971,37.98508],[-118.73958,37.98494],[-118.73936,37.98452],[-118.73929,37.98444],[-118.7391,37.98431],[-118.73833,37.98386],[-118.73808,37.98374],[-118.73767,37.98351],[-118.73748,37.98332],[-118.73717,37.98311],[-118.73701,37.98304],[-118.73692,37.98302],[-118.73669,37.98298],[-118.73605,37.98291],[-118.73569,37.98284],[-118.73551,37.98279],[-118.7351,37.98264],[-118.73486,37.98257],[-118.7347,37.98253],[-118.73395,37.9823],[-118.73373,37.98218],[-118.73335,37.9819],[-118.7332,37.98181],[-118.73265,37.9815],[-118.73252,37.9814],[-118.7324,37.98128],[-118.73195,37.98089],[-118.73183,37.9808],[-118.73165,37.98066],[-118.73124,37.98039],[-118.73115,37.98034],[-118.73096,37.98027],[-118.73067,37.98019],[-118.73039,37.98008],[-118.73022,37.97997],[-118.73009,37.97985],[-118.72986,37.97956],[-118.72983,37.97954],[-118.72972,37.97942],[-118.72961,37.97935],[-118.72923,37.97919],[-118.72915,37.97914],[-118.72906,37.97906],[-118.72893,37.97893],[-118.72884,37.97877],[-118.72854,37.97795],[-118.72833,37.97762],[-118.72815,37.97728],[-118.72797,37.97701],[-118.72739,37.97637],[-118.72644,37.97542],[-118.72567,37.9748],[-118.72527,37.97456],[-118.72507,37.97449],[-118.72488,37.97444],[-118.72478,37.97443],[-118.72465,37.97443],[-118.72427,37.97447],[-118.72404,37.97446],[-118.72334,37.97432],[-118.72315,37.9743],[-118.72302,37.97429],[-118.72293,37.9743],[-118.72234,37.97447],[-118.72217,37.97451],[-118.72203,37.97453],[-118.72188,37.97454],[-118.72164,37.97454],[-118.72145,37.97451],[-118.72128,37.97447],[-118.72102,37.97436],[-118.7207,37.9742],[-118.72045,37.97404],[-118.72027,37.97386],[-118.72016,37.97371],[-118.71998,37.97339],[-118.71989,37.97312],[-118.71975,37.97241],[-118.71965,37.97199],[-118.71954,37.97174],[-118.7193,37.97134],[-118.71921,37.97125],[-118.7191,37.97117],[-118.71897,37.97111],[-118.71882,37.97107],[-118.71867,37.97106],[-118.71826,37.97108],[-118.71736,37.9711],[-118.71575,37.97116],[-118.71558,37.97114],[-118.71542,37.97111],[-118.71526,37.97106],[-118.71406,37.97062],[-118.71368,37.97044],[-118.71348,37.97032],[-118.71334,37.97019],[-118.71325,37.97007],[-118.71314,37.96991],[-118.71298,37.96958],[-118.71282,37.96919],[-118.71267,37.96866],[-118.71239,37.96743],[-118.71203,37.96614],[-118.71184,37.96539],[-118.71172,37.96513],[-118.71156,37.96484],[-118.71091,37.96399],[-118.70964,37.96237],[-118.70888,37.96151],[-118.70865,37.96127],[-118.70839,37.96103],[-118.70816,37.96082],[-118.70767,37.96044],[-118.70508,37.95851],[-118.70408,37.95778],[-118.70287,37.95692],[-118.70038,37.95507],[-118.69702,37.9526],[-118.69618,37.95198],[-118.6949,37.95105],[-118.69404,37.9504],[-118.69135,37.94843],[-118.68774,37.94575],[-118.68636,37.94471],[-118.6862,37.94458],[-118.68605,37.94444],[-118.68588,37.94422],[-118.6858,37.94409],[-118.6857,37.94392],[-118.6856,37.94361],[-118.68555,37.94333],[-118.68552,37.94306],[-118.68551,37.94284],[-118.68552,37.94276],[-118.68582,37.94106],[-118.68599,37.94026],[-118.68605,37.94007],[-118.68614,37.93989],[-118.68666,37.9391],[-118.68699,37.93866],[-118.68714,37.93846],[-118.68825,37.93705],[-118.68943,37.9355],[-118.69005,37.93471],[-118.69054,37.93406],[-118.69103,37.9334],[-118.69423,37.92931],[-118.69554,37.92759],[-118.69691,37.92585],[-118.69894,37.92324],[-118.69951,37.92247],[-118.70042,37.92128],[-118.70166,37.91971],[-118.7017,37.91967]]}},{"type":"Feature","properties":{"name":"FR 2N109","road_class":"track","surface":"dirt","source":"Caltrans All Roads + OpenStreetMap explicit surface","source_detail":"osm way 10450172; Caltrans All Roads public-network geometry match","source_tile":"174/395","public_network_source":"Caltrans All Roads (ARNOLD/HPMS)","surface_source":"OpenStreetMap explicit surface tag","caltrans_match_coverage":1.0,"verified_length_m":10606},"geometry":{"type":"LineString","coordinates":[[-118.73491,38.03659],[-118.73482,38.03663],[-118.73476,38.03669],[-118.73434,38.03725],[-118.73406,38.03748],[-118.73401,38.0375],[-118.73393,38.03751],[-118.73386,38.0375],[-118.7338,38.03747],[-118.73374,38.03743],[-118.73355,38.03723],[-118.73345,38.03715],[-118.73279,38.03675],[-118.73265,38.03665],[-118.73251,38.03652],[-118.73242,38.03639],[-118.73228,38.03613],[-118.73194,38.03557],[-118.73166,38.03525],[-118.73112,38.03476],[-118.73105,38.03471],[-118.73094,38.03466],[-118.73081,38.03465],[-118.73069,38.03466],[-118.73057,38.03471],[-118.7304,38.03475],[-118.73029,38.03476],[-118.73017,38.0348],[-118.72993,38.03491],[-118.7298,38.03491],[-118.72967,38.03488],[-118.72956,38.03483],[-118.72948,38.03475],[-118.72935,38.03451],[-118.72928,38.03442],[-118.72919,38.03434],[-118.7291,38.03427],[-118.729,38.03421],[-118.72883,38.03412],[-118.72714,38.03319],[-118.72549,38.03217],[-118.72386,38.03114],[-118.72202,38.03002],[-118.7212,38.02957],[-118.72058,38.0292],[-118.71982,38.02871],[-118.71879,38.02812],[-118.71869,38.02808],[-118.71858,38.02801],[-118.71855,38.02798],[-118.71849,38.02788],[-118.71848,38.02783],[-118.71851,38.02719],[-118.71853,38.02712],[-118.7185,38.02705],[-118.71843,38.02702],[-118.71832,38.02702],[-118.71791,38.02709],[-118.71771,38.02711],[-118.71756,38.02711],[-118.71743,38.02713],[-118.71732,38.02716],[-118.71706,38.02728],[-118.71668,38.02745],[-118.71659,38.02751],[-118.71636,38.02773],[-118.71626,38.02778],[-118.71618,38.02778],[-118.71608,38.02773],[-118.71605,38.02765],[-118.71604,38.02757],[-118.71629,38.02717],[-118.71634,38.02706],[-118.71637,38.02694],[-118.71631,38.02683],[-118.71626,38.0267],[-118.71617,38.02662],[-118.71607,38.02653],[-118.71412,38.02531],[-118.71395,38.02524],[-118.71363,38.02505],[-118.71354,38.02501],[-118.71347,38.02499],[-118.71316,38.02496],[-118.71308,38.02493],[-118.71298,38.02485],[-118.71289,38.02475],[-118.71277,38.02451],[-118.71276,38.02445],[-118.71276,38.02439],[-118.71286,38.02398],[-118.71286,38.02386],[-118.71282,38.02374],[-118.71276,38.02363],[-118.71267,38.02352],[-118.71218,38.02318],[-118.71213,38.02313],[-118.71209,38.02305],[-118.71203,38.0228],[-118.71196,38.02262],[-118.71186,38.02246],[-118.71156,38.02209],[-118.71118,38.0217],[-118.71101,38.02157],[-118.71091,38.0215],[-118.7108,38.02147],[-118.71068,38.02146],[-118.71057,38.02149],[-118.71047,38.02154],[-118.71039,38.02162],[-118.7103,38.02174],[-118.71018,38.02188],[-118.71012,38.02195],[-118.71008,38.02203],[-118.70995,38.0221],[-118.70981,38.02222],[-118.70973,38.02236],[-118.7095,38.02248],[-118.70927,38.02265],[-118.70919,38.0227],[-118.70907,38.02274],[-118.70901,38.02275],[-118.70893,38.02271],[-118.70888,38.02263],[-118.70891,38.02257],[-118.70893,38.02247],[-118.709,38.02226],[-118.70897,38.02215],[-118.70894,38.02205],[-118.70883,38.02196],[-118.70849,38.02174],[-118.70808,38.02146],[-118.70737,38.02112],[-118.70666,38.02082],[-118.70654,38.02075],[-118.70619,38.02061],[-118.70607,38.02055],[-118.70602,38.02051],[-118.70594,38.02037],[-118.70564,38.01998],[-118.70517,38.0194],[-118.70506,38.01929],[-118.70494,38.0192],[-118.70482,38.01912],[-118.70468,38.01905],[-118.70454,38.019],[-118.70439,38.01895],[-118.70424,38.01892],[-118.70408,38.0189],[-118.70373,38.01889],[-118.70358,38.01887],[-118.70344,38.01884],[-118.7033,38.0188],[-118.70317,38.01875],[-118.70197,38.0181],[-118.70153,38.01784],[-118.70071,38.01727],[-118.70009,38.01687],[-118.69949,38.01637],[-118.69943,38.01633],[-118.69921,38.01626],[-118.69908,38.0162],[-118.69764,38.0153],[-118.69725,38.01499],[-118.69687,38.01481],[-118.69575,38.01422],[-118.6956,38.01416],[-118.69544,38.01414],[-118.69527,38.01414],[-118.69511,38.01416],[-118.69497,38.01422],[-118.69481,38.01435],[-118.69469,38.01438],[-118.69453,38.01438],[-118.69438,38.01432],[-118.69417,38.01418],[-118.69401,38.01402],[-118.69391,38.01391],[-118.69386,38.01382],[-118.69383,38.01373],[-118.69382,38.01362],[-118.69381,38.0132],[-118.69382,38.01304],[-118.69387,38.01271],[-118.6939,38.01236],[-118.69388,38.01226],[-118.69381,38.0121],[-118.69362,38.01187],[-118.69354,38.01178],[-118.69343,38.01168],[-118.69323,38.01159],[-118.69294,38.0115],[-118.69279,38.01147],[-118.69264,38.01145],[-118.69249,38.01144],[-118.69233,38.01145],[-118.69218,38.01147],[-118.69203,38.0115],[-118.69189,38.01154],[-118.69163,38.01167],[-118.69155,38.01174],[-118.6914,38.01191],[-118.6913,38.01199],[-118.69123,38.01204],[-118.69099,38.01216],[-118.69079,38.01234],[-118.69057,38.01246],[-118.69045,38.01251],[-118.69033,38.01258],[-118.69029,38.01263],[-118.69021,38.01278],[-118.69008,38.01291],[-118.68998,38.01299],[-118.68991,38.01302],[-118.68984,38.01304],[-118.68978,38.01305],[-118.68966,38.01302],[-118.68962,38.01298],[-118.6896,38.01291],[-118.68961,38.01288],[-118.68964,38.01285],[-118.68969,38.01282],[-118.68978,38.01273],[-118.68983,38.01261],[-118.68988,38.01233],[-118.68999,38.01198],[-118.69008,38.01187],[-118.69032,38.01147],[-118.6904,38.01137],[-118.69063,38.01114],[-118.69071,38.01102],[-118.69073,38.01094],[-118.69073,38.01088],[-118.69071,38.01083],[-118.69068,38.0108],[-118.69063,38.01076],[-118.69047,38.01069],[-118.69029,38.01063],[-118.69005,38.01057],[-118.68998,38.01053],[-118.68993,38.01049],[-118.68981,38.01033],[-118.68964,38.01016],[-118.68935,38.00994],[-118.68924,38.00988],[-118.68896,38.00978],[-118.68879,38.0097],[-118.68859,38.00957],[-118.68846,38.00952],[-118.68833,38.0095],[-118.6882,38.0095],[-118.68805,38.00953],[-118.68778,38.00967],[-118.68764,38.00976],[-118.68742,38.00986],[-118.68737,38.00987],[-118.68725,38.00988],[-118.68714,38.00985],[-118.68703,38.0098],[-118.68697,38.00975],[-118.68691,38.00959],[-118.68687,38.00934],[-118.68689,38.00919],[-118.68704,38.00876],[-118.68705,38.00867],[-118.68703,38.00858],[-118.68696,38.0085],[-118.68693,38.00849],[-118.68688,38.00848],[-118.68682,38.00849],[-118.68667,38.00854],[-118.68635,38.00863],[-118.68624,38.00867],[-118.68612,38.00874],[-118.68595,38.00885],[-118.68576,38.009],[-118.68548,38.00919],[-118.68521,38.00934],[-118.68375,38.00995],[-118.68352,38.00998],[-118.68345,38.00999],[-118.6832,38.01005],[-118.68313,38.01006],[-118.683,38.01004],[-118.68296,38.01002],[-118.68286,38.00994],[-118.68283,38.00989],[-118.68281,38.00981],[-118.6828,38.00967],[-118.68283,38.00951],[-118.68291,38.00929],[-118.68307,38.00893],[-118.68307,38.00887],[-118.68303,38.00882],[-118.68297,38.0088],[-118.6829,38.0088],[-118.68245,38.009],[-118.68224,38.00911],[-118.68155,38.00958],[-118.68143,38.00967],[-118.68135,38.00973],[-118.68115,38.00982],[-118.68105,38.00985],[-118.68094,38.00987],[-118.68083,38.00988],[-118.68072,38.00989],[-118.68049,38.00988],[-118.68036,38.00987],[-118.68022,38.00984],[-118.68009,38.0098],[-118.67997,38.00975],[-118.67985,38.00969],[-118.67974,38.00962],[-118.67964,38.00954],[-118.67955,38.00945],[-118.67948,38.00936],[-118.67933,38.00914],[-118.67928,38.00903],[-118.67921,38.00876],[-118.67916,38.00863],[-118.67914,38.00851],[-118.67908,38.00836],[-118.67907,38.00829],[-118.67907,38.00819],[-118.67911,38.00802],[-118.67911,38.00789],[-118.67914,38.00762],[-118.67911,38.00752],[-118.67894,38.00716],[-118.67891,38.00706],[-118.67889,38.00692],[-118.67889,38.00676],[-118.67886,38.00632],[-118.67885,38.00618],[-118.67888,38.00597],[-118.67889,38.00575],[-118.67889,38.00558],[-118.6788,38.00533],[-118.67866,38.0047],[-118.67869,38.0045],[-118.67869,38.00441],[-118.67864,38.00416],[-118.67864,38.00407],[-118.67866,38.00331],[-118.67862,38.00315],[-118.6786,38.0031],[-118.67855,38.00304],[-118.67848,38.00299],[-118.67839,38.00297],[-118.67831,38.00296],[-118.67786,38.00301],[-118.67778,38.00302],[-118.67754,38.00301],[-118.67741,38.00297],[-118.67731,38.00291],[-118.67724,38.00282],[-118.67718,38.00268],[-118.67711,38.00235],[-118.67701,38.00223],[-118.67681,38.00189],[-118.67674,38.00179],[-118.67668,38.00174],[-118.67644,38.00161],[-118.67631,38.0015],[-118.67595,38.00121],[-118.67587,38.00118],[-118.67565,38.00102],[-118.67527,38.00081],[-118.67507,38.00066],[-118.67494,38.00051],[-118.67481,38.0004],[-118.6746,38.0003],[-118.67419,38.00006],[-118.67401,37.99993],[-118.6739,37.99984],[-118.67366,37.99971],[-118.67356,37.99966],[-118.67333,37.99958],[-118.67323,37.9995],[-118.67311,37.99939],[-118.67283,37.99924],[-118.67248,37.99899],[-118.67176,37.99846],[-118.67127,37.99805],[-118.67114,37.99798],[-118.67087,37.99791],[-118.67079,37.99786],[-118.67067,37.99776],[-118.67033,37.99744],[-118.66976,37.99703],[-118.66971,37.99701],[-118.66964,37.997],[-118.66952,37.99703],[-118.6694,37.9971],[-118.66902,37.99725],[-118.66885,37.99732],[-118.66873,37.99734],[-118.66859,37.99732],[-118.66853,37.99728],[-118.66849,37.99719],[-118.66845,37.99712],[-118.66844,37.99703],[-118.66841,37.9969],[-118.66844,37.99666],[-118.66838,37.99657],[-118.66828,37.99646],[-118.66814,37.99618],[-118.66805,37.99606],[-118.6679,37.99595],[-118.66752,37.99577],[-118.66748,37.99573],[-118.66745,37.99566],[-118.66739,37.99556],[-118.667,37.99527],[-118.66691,37.99522],[-118.66672,37.99515],[-118.66658,37.99509],[-118.66591,37.99471],[-118.66569,37.99453],[-118.66536,37.99422],[-118.66516,37.994],[-118.66504,37.99376],[-118.665,37.99371],[-118.66492,37.99365],[-118.66431,37.9933],[-118.66417,37.9932],[-118.6641,37.99312],[-118.66386,37.99297],[-118.66368,37.99289],[-118.66315,37.99271],[-118.66305,37.99264],[-118.66245,37.99213],[-118.66234,37.99207],[-118.66227,37.99205],[-118.66213,37.99203],[-118.66189,37.99202],[-118.66173,37.99201],[-118.66151,37.99197],[-118.66124,37.9919],[-118.66102,37.99189],[-118.66071,37.99189],[-118.6603,37.99184],[-118.65974,37.99173],[-118.65954,37.99167],[-118.65943,37.99165],[-118.65939,37.99164],[-118.65927,37.99165],[-118.65887,37.99179],[-118.65869,37.99178]]}},{"type":"Feature","properties":{"name":"Dobe Meadow 4x4 Trail","road_class":"track","surface":"dirt","source":"Caltrans All Roads + OpenStreetMap explicit surface","source_detail":"osm way 10451251; Caltrans All Roads public-network geometry match","source_tile":"174/395","public_network_source":"Caltrans All Roads (ARNOLD/HPMS)","surface_source":"OpenStreetMap explicit surface tag","caltrans_match_coverage":1.0,"verified_length_m":5800},"geometry":{"type":"LineString","coordinates":[[-118.73491,38.03659],[-118.73484,38.03653],[-118.73477,38.03649],[-118.73466,38.03637],[-118.73451,38.03618],[-118.73442,38.03609],[-118.73411,38.03581],[-118.73389,38.03557],[-118.73371,38.03534],[-118.73351,38.03497],[-118.73326,38.03449],[-118.7328,38.03405],[-118.73259,38.03378],[-118.73244,38.03309],[-118.73238,38.03294],[-118.73203,38.03241],[-118.73188,38.03216],[-118.73162,38.03165],[-118.7315,38.03134],[-118.7313,38.03089],[-118.73108,38.03044],[-118.73099,38.0302],[-118.73091,38.02991],[-118.73077,38.02904],[-118.73068,38.02873],[-118.73048,38.02819],[-118.73041,38.0279],[-118.73031,38.02761],[-118.73027,38.02745],[-118.73017,38.02716],[-118.7301,38.02703],[-118.73003,38.02688],[-118.73001,38.0268],[-118.73,38.0265],[-118.72998,38.02634],[-118.72989,38.02593],[-118.72985,38.02566],[-118.72985,38.02556],[-118.72987,38.02545],[-118.72995,38.0252],[-118.72999,38.02504],[-118.73,38.02482],[-118.72999,38.02447],[-118.73001,38.0241],[-118.73,38.02394],[-118.72993,38.02356],[-118.72985,38.02334],[-118.72961,38.02245],[-118.72958,38.02225],[-118.72929,38.02139],[-118.72927,38.02131],[-118.7292,38.0211],[-118.72905,38.02056],[-118.72898,38.02028],[-118.72895,38.01988],[-118.72889,38.01937],[-118.72856,38.01804],[-118.72818,38.01663],[-118.72813,38.01646],[-118.72809,38.01626],[-118.72803,38.01599],[-118.7279,38.01569],[-118.72775,38.01541],[-118.72737,38.01475],[-118.72718,38.0145],[-118.72692,38.01423],[-118.72603,38.01337],[-118.72569,38.013],[-118.72518,38.01236],[-118.72489,38.01194],[-118.72464,38.01156],[-118.72425,38.01083],[-118.72378,38.00992],[-118.72361,38.00967],[-118.72345,38.00948],[-118.72298,38.00902],[-118.72243,38.00851],[-118.72208,38.00806],[-118.72035,38.00638],[-118.7187,38.00494],[-118.7184,38.00474],[-118.71816,38.00455],[-118.71742,38.0039],[-118.71575,38.00248],[-118.71498,38.00178],[-118.7142,38.001],[-118.71312,37.99986],[-118.71261,37.9993],[-118.71248,37.99917],[-118.71236,37.99903],[-118.7123,37.99897],[-118.71225,37.99888],[-118.71213,37.99862],[-118.71189,37.99827],[-118.71159,37.99795],[-118.71151,37.99789],[-118.71134,37.99772],[-118.71125,37.99759],[-118.71122,37.9975],[-118.71119,37.99734],[-118.71115,37.99725],[-118.71112,37.99715],[-118.71112,37.99692],[-118.7112,37.99644],[-118.71119,37.99635],[-118.71116,37.9963],[-118.71109,37.99622],[-118.71104,37.99612],[-118.71102,37.99595],[-118.71096,37.99578],[-118.71086,37.9956],[-118.71082,37.99557],[-118.70966,37.99412],[-118.70771,37.99156],[-118.70741,37.99109],[-118.70713,37.9906]]}},{"type":"Feature","properties":{"name":"FR 3N13","road_class":"track","surface":"dirt","source":"Caltrans All Roads + OpenStreetMap explicit surface","source_detail":"osm way 1254497941; Caltrans All Roads public-network geometry match","source_tile":"174/394","public_network_source":"Caltrans All Roads (ARNOLD/HPMS)","surface_source":"OpenStreetMap explicit surface tag","caltrans_match_coverage":1.0,"verified_length_m":2306},"geometry":{"type":"LineString","coordinates":[[-118.75894,38.03758],[-118.75848,38.03738],[-118.75838,38.03732],[-118.75821,38.03719],[-118.75757,38.03666],[-118.75736,38.03646],[-118.75597,38.03564],[-118.75553,38.03534],[-118.75419,38.03452],[-118.75411,38.03448],[-118.75359,38.03426],[-118.75303,38.03401],[-118.75294,38.03398],[-118.75286,38.03397],[-118.75258,38.03397],[-118.75224,38.034],[-118.75195,38.03407],[-118.7515,38.0342],[-118.75126,38.03425],[-118.75065,38.03437],[-118.75013,38.03446],[-118.74902,38.03468],[-118.74792,38.03492],[-118.74777,38.03497],[-118.74755,38.03505],[-118.74729,38.03515],[-118.74717,38.0352],[-118.7467,38.03552],[-118.74655,38.03558],[-118.74639,38.03563],[-118.74622,38.03564],[-118.74614,38.03565],[-118.74511,38.03568],[-118.74501,38.03569],[-118.74461,38.03578],[-118.7439,38.03589],[-118.7437,38.03592],[-118.74306,38.03601],[-118.74268,38.03605],[-118.74228,38.0361],[-118.74207,38.03613],[-118.74182,38.03617],[-118.74159,38.03623],[-118.74142,38.03628],[-118.74116,38.0364],[-118.74082,38.03653],[-118.74059,38.03658],[-118.73999,38.0367],[-118.73983,38.03671],[-118.73863,38.03669],[-118.73799,38.03668],[-118.73775,38.03668],[-118.73717,38.03671],[-118.73664,38.03677],[-118.73638,38.03684],[-118.73613,38.03684],[-118.73596,38.03682],[-118.73573,38.03677],[-118.73548,38.03669],[-118.73522,38.03658],[-118.73513,38.03657],[-118.73491,38.03659]]}},{"type":"Feature","properties":{"name":"FR 2N109","road_class":"track","surface":"dirt","source":"Caltrans All Roads + OpenStreetMap explicit surface","source_detail":"osm way 1254497942; Caltrans All Roads public-network geometry match","source_tile":"174/394","public_network_source":"Caltrans All Roads (ARNOLD/HPMS)","surface_source":"OpenStreetMap explicit surface tag","caltrans_match_coverage":1.0,"verified_length_m":3524},"geometry":{"type":"LineString","coordinates":[[-118.75276,38.06224],[-118.75213,38.0608],[-118.75183,38.06001],[-118.75169,38.0597],[-118.75136,38.05913],[-118.75011,38.05672],[-118.74947,38.05539],[-118.74905,38.05447],[-118.74884,38.05407],[-118.74878,38.05397],[-118.74748,38.05185],[-118.7474,38.05168],[-118.747,38.05108],[-118.7468,38.05084],[-118.74659,38.05058],[-118.7464,38.0504],[-118.74584,38.04995],[-118.74561,38.04972],[-118.74549,38.04954],[-118.74544,38.04941],[-118.74543,38.04928],[-118.74544,38.04895],[-118.74554,38.04853],[-118.74564,38.04835],[-118.7458,38.04811],[-118.74587,38.04803],[-118.7459,38.048],[-118.74604,38.04787],[-118.74649,38.04742],[-118.74658,38.04728],[-118.74663,38.04719],[-118.74666,38.04709],[-118.74671,38.04682],[-118.74681,38.04597],[-118.74683,38.04558],[-118.74686,38.04507],[-118.74684,38.04475],[-118.74676,38.04451],[-118.74635,38.04372],[-118.74622,38.04356],[-118.74576,38.04307],[-118.74554,38.04282],[-118.7454,38.04269],[-118.74526,38.0426],[-118.74419,38.04203],[-118.74369,38.04171],[-118.74247,38.04109],[-118.74138,38.04051],[-118.74125,38.04044],[-118.74031,38.03992],[-118.74021,38.03986],[-118.73978,38.03961],[-118.73829,38.03882],[-118.73816,38.03873],[-118.73806,38.03866],[-118.73801,38.03861],[-118.73797,38.03857],[-118.73787,38.03845],[-118.73761,38.03815],[-118.73734,38.03793],[-118.73711,38.03778],[-118.73685,38.03765],[-118.73662,38.03755],[-118.73584,38.03727],[-118.73561,38.03712],[-118.73546,38.03699],[-118.73491,38.03659]]}},{"type":"Feature","properties":{"name":"Deep Wells Road","road_class":"track","surface":"dirt","source":"Caltrans All Roads + OpenStreetMap explicit surface","source_detail":"osm way 1254497944; Caltrans All Roads public-network geometry match","source_tile":"174/394","public_network_source":"Caltrans All Roads (ARNOLD/HPMS)","surface_source":"OpenStreetMap explicit surface tag","caltrans_match_coverage":1.0,"verified_length_m":2622},"geometry":{"type":"LineString","coordinates":[[-118.7891,38.08169],[-118.7886,38.08193],[-118.78848,38.08196],[-118.78836,38.08197],[-118.78807,38.08194],[-118.78736,38.08188],[-118.78714,38.08185],[-118.78637,38.08179],[-118.78599,38.08172],[-118.78527,38.08152],[-118.78445,38.08136],[-118.7842,38.08132],[-118.78408,38.08132],[-118.78316,38.08113],[-118.78303,38.08112],[-118.78165,38.08118],[-118.78068,38.08117],[-118.78049,38.08118],[-118.77966,38.08129],[-118.77886,38.08128],[-118.77823,38.08129],[-118.77755,38.08127],[-118.77706,38.08129],[-118.77605,38.08129],[-118.77592,38.08127],[-118.77569,38.08121],[-118.77545,38.08118],[-118.77518,38.08116],[-118.775,38.08116],[-118.77455,38.08118],[-118.77409,38.08118],[-118.7739,38.08117],[-118.77309,38.08105],[-118.77287,38.08103],[-118.77268,38.08102],[-118.77219,38.0809],[-118.7719,38.08084],[-118.77135,38.0808],[-118.77034,38.0807],[-118.77007,38.08064],[-118.76968,38.08052],[-118.76914,38.08038],[-118.76879,38.08027],[-118.76856,38.08018],[-118.76811,38.08006],[-118.76746,38.07997],[-118.76692,38.07986],[-118.76672,38.0798],[-118.76643,38.07968],[-118.76582,38.07935],[-118.76503,38.07897],[-118.76469,38.07877],[-118.7645,38.07862],[-118.76425,38.07841],[-118.76396,38.07819],[-118.76372,38.0781],[-118.76327,38.07795],[-118.76302,38.07783],[-118.76239,38.07746],[-118.76165,38.07698],[-118.76138,38.07684],[-118.76104,38.07673],[-118.76095,38.07667]]}},{"type":"Feature","properties":{"name":"Deep Wells Trail","road_class":"track","surface":"dirt","source":"Caltrans All Roads + OpenStreetMap explicit surface","source_detail":"osm way 1254497952; Caltrans All Roads public-network geometry match","source_tile":"174/394","public_network_source":"Caltrans All Roads (ARNOLD/HPMS)","surface_source":"OpenStreetMap explicit surface tag","caltrans_match_coverage":1.0,"verified_length_m":1123},"geometry":{"type":"LineString","coordinates":[[-118.77426,38.13623],[-118.77459,38.13682],[-118.7747,38.13706],[-118.77491,38.13768],[-118.77502,38.13788],[-118.77522,38.13819],[-118.77537,38.13854],[-118.77544,38.13868],[-118.77565,38.13899],[-118.7757,38.13911],[-118.77571,38.13934],[-118.77571,38.13943],[-118.7758,38.13993],[-118.77583,38.14013],[-118.77591,38.14045],[-118.77596,38.14055],[-118.77604,38.14069],[-118.77634,38.14136],[-118.77658,38.14184],[-118.77668,38.14215],[-118.77672,38.14232],[-118.77718,38.14366],[-118.77736,38.14415],[-118.77743,38.1444],[-118.77743,38.14451],[-118.7774,38.14469],[-118.77741,38.14551],[-118.77738,38.14596]]}},{"type":"Feature","properties":{"name":"FR 4N01A","road_class":"track","surface":"dirt","motor_vehicle":"yes","source":"Caltrans All Roads + OpenStreetMap explicit surface","source_detail":"osm way 1254497954; Caltrans All Roads public-network geometry match","source_tile":"174/394","public_network_source":"Caltrans All Roads (ARNOLD/HPMS)","surface_source":"OpenStreetMap explicit surface tag","caltrans_match_coverage":1.0,"verified_length_m":4142},"geometry":{"type":"LineString","coordinates":[[-118.7704,38.11374],[-118.77069,38.11434],[-118.7708,38.11458],[-118.77086,38.11472],[-118.7709,38.11491],[-118.77096,38.11506],[-118.77113,38.11536],[-118.77133,38.11597],[-118.77142,38.11631],[-118.77155,38.11678],[-118.77168,38.11712],[-118.77173,38.1173],[-118.77173,38.11738],[-118.77171,38.11744],[-118.77163,38.11752],[-118.77147,38.11768],[-118.77143,38.11774],[-118.77142,38.11783],[-118.77145,38.11807],[-118.77148,38.1182],[-118.77149,38.11826],[-118.77151,38.11849],[-118.77154,38.11864],[-118.77159,38.11874],[-118.77165,38.1188],[-118.77174,38.11884],[-118.77196,38.11889],[-118.77209,38.11895],[-118.77216,38.11901],[-118.77221,38.11911],[-118.77259,38.12014],[-118.77273,38.1206],[-118.77286,38.12112],[-118.77303,38.12162],[-118.77316,38.12197],[-118.77333,38.12249],[-118.77347,38.12285],[-118.77394,38.12419],[-118.77406,38.12485],[-118.77412,38.12503],[-118.77424,38.12529],[-118.77446,38.12561],[-118.77455,38.12576],[-118.77456,38.12584],[-118.77453,38.12593],[-118.77447,38.12598],[-118.77412,38.1262],[-118.77407,38.12625],[-118.77403,38.12633],[-118.77402,38.12644],[-118.77403,38.12656],[-118.77408,38.12667],[-118.77418,38.1268],[-118.77445,38.1271],[-118.77469,38.12739],[-118.77482,38.12761],[-118.77535,38.12868],[-118.77558,38.12924],[-118.7758,38.13002],[-118.77589,38.13028],[-118.7763,38.13159],[-118.77633,38.13173],[-118.77645,38.1321],[-118.77654,38.13246],[-118.777,38.13392],[-118.77722,38.13468],[-118.77749,38.13545],[-118.77797,38.13694],[-118.77809,38.13733],[-118.77827,38.13809],[-118.77833,38.13848],[-118.77839,38.13859],[-118.7786,38.13888],[-118.77868,38.13903],[-118.77876,38.13929],[-118.77878,38.13939],[-118.77881,38.13973],[-118.77892,38.14029],[-118.77898,38.14049],[-118.7793,38.14118],[-118.77933,38.14131],[-118.77934,38.1415],[-118.77937,38.1416],[-118.77965,38.14201],[-118.77968,38.1421],[-118.7797,38.14224],[-118.7797,38.14244],[-118.77972,38.14253],[-118.77976,38.14267],[-118.77982,38.14304],[-118.77992,38.14339],[-118.77998,38.14353],[-118.78014,38.14396],[-118.78038,38.14485],[-118.78045,38.14498],[-118.7807,38.14545],[-118.78073,38.14555],[-118.78072,38.14586],[-118.78073,38.14602],[-118.78075,38.14608],[-118.78088,38.14632],[-118.78093,38.14648],[-118.78101,38.14707],[-118.78109,38.14746],[-118.78115,38.14766],[-118.78124,38.14786],[-118.78132,38.14801],[-118.78149,38.1482],[-118.78175,38.14846],[-118.78178,38.14852],[-118.78181,38.14858],[-118.78186,38.14886],[-118.78186,38.14896],[-118.78186,38.14906],[-118.78183,38.14917]]}},{"type":"Feature","properties":{"name":"Anchorite Hills Trail","road_class":"track","surface":"dirt","source":"Caltrans All Roads + OpenStreetMap explicit surface","source_detail":"osm way 1254497958; Caltrans All Roads public-network geometry match","source_tile":"174/394","public_network_source":"Caltrans All Roads (ARNOLD/HPMS)","surface_source":"OpenStreetMap explicit surface tag","caltrans_match_coverage":1.0,"verified_length_m":685},"geometry":{"type":"LineString","coordinates":[[-118.7717,38.14198],[-118.77181,38.14188],[-118.77217,38.14165],[-118.77229,38.14155],[-118.77238,38.1414],[-118.77269,38.14048],[-118.77282,38.14003],[-118.77292,38.13983],[-118.77298,38.13965],[-118.77302,38.13958],[-118.77302,38.13954],[-118.77344,38.13877],[-118.77357,38.13845],[-118.7736,38.13834],[-118.77384,38.13755],[-118.77401,38.13692],[-118.77426,38.13623]]}}]}