{"type":"FeatureCollection","features":[{"type":"Feature","properties":{"name":"Pacific Crest Trail","road_class":"track","surface":"unpaved","source":"Caltrans All Roads + OpenStreetMap explicit surface","source_detail":"osm way 10404906; Caltrans All Roads public-network geometry match","source_tile":"174/406","public_network_source":"Caltrans All Roads (ARNOLD/HPMS)","surface_source":"OpenStreetMap explicit surface tag","caltrans_match_coverage":1.0,"verified_length_m":7210},"geometry":{"type":"LineString","coordinates":[[-118.56087,34.84136],[-118.56033,34.8417],[-118.55997,34.84193],[-118.55982,34.84206],[-118.55955,34.84239],[-118.55935,34.8426],[-118.55883,34.84303],[-118.55861,34.84316],[-118.55831,34.84326],[-118.55799,34.84336],[-118.55771,34.84355],[-118.55749,34.84374],[-118.55726,34.84385],[-118.55692,34.84398],[-118.5567,34.84411],[-118.55651,34.84426],[-118.55634,34.84448],[-118.55527,34.84657],[-118.55489,34.84732],[-118.5545,34.84811],[-118.55445,34.84817],[-118.55395,34.84918],[-118.55382,34.84933],[-118.55374,34.84938],[-118.55363,34.84943],[-118.55347,34.84948],[-118.55177,34.84962],[-118.55158,34.84963],[-118.55139,34.84967],[-118.55105,34.8498],[-118.55001,34.85022],[-118.54984,34.85026],[-118.54971,34.8503],[-118.54952,34.8503],[-118.54928,34.85028],[-118.54835,34.85002],[-118.54805,34.84999],[-118.54673,34.85015],[-118.54647,34.85022],[-118.54478,34.85082],[-118.54462,34.85088],[-118.54442,34.85092],[-118.54416,34.85091],[-118.54294,34.85071],[-118.54201,34.85076],[-118.5418,34.85076],[-118.54125,34.85074],[-118.54059,34.85071],[-118.54017,34.85068],[-118.53995,34.85061],[-118.53949,34.85043],[-118.53913,34.85028],[-118.53881,34.85007],[-118.53837,34.84976],[-118.53813,34.84968],[-118.53791,34.84964],[-118.53775,34.84964],[-118.53756,34.84965],[-118.53725,34.84972],[-118.53703,34.8498],[-118.53611,34.85015],[-118.5354,34.85054],[-118.53431,34.85087],[-118.53399,34.85104],[-118.53362,34.85142],[-118.53344,34.85162],[-118.53317,34.85178],[-118.5327,34.85188],[-118.53185,34.85208],[-118.5316,34.85218],[-118.53145,34.85229],[-118.53104,34.85291],[-118.53097,34.85297],[-118.53085,34.85303],[-118.5307,34.85305],[-118.53015,34.85304],[-118.52992,34.85309],[-118.52967,34.8532],[-118.52885,34.85369],[-118.52857,34.85383],[-118.52742,34.85409],[-118.52672,34.85417],[-118.52636,34.85418],[-118.5258,34.85417],[-118.52475,34.85406],[-118.52415,34.85404],[-118.52391,34.85407],[-118.52259,34.85438],[-118.52229,34.85438],[-118.52153,34.85428],[-118.52118,34.85424],[-118.52038,34.85444],[-118.52002,34.85448],[-118.51812,34.85438],[-118.51793,34.8544],[-118.51777,34.85449],[-118.51763,34.85462],[-118.51757,34.8547],[-118.51749,34.85483],[-118.51744,34.85502],[-118.51775,34.85598],[-118.51777,34.85618],[-118.51773,34.85661],[-118.51765,34.85678],[-118.51756,34.85685],[-118.51735,34.85698],[-118.51641,34.85757],[-118.51631,34.85761],[-118.51622,34.85764],[-118.5161,34.85764],[-118.51564,34.85756],[-118.5153,34.85752],[-118.51485,34.85755],[-118.51435,34.85763],[-118.5136,34.85748],[-118.51271,34.85725],[-118.51171,34.85709],[-118.51098,34.857],[-118.51066,34.85691],[-118.51052,34.85674],[-118.51035,34.85645],[-118.51019,34.8563],[-118.50995,34.8562],[-118.50981,34.85618],[-118.50967,34.8562],[-118.50948,34.85625],[-118.50905,34.8564],[-118.50801,34.85671],[-118.5076,34.8568],[-118.50735,34.85683],[-118.50666,34.8568],[-118.50619,34.85687],[-118.50487,34.85712],[-118.5038,34.85702],[-118.50295,34.85706],[-118.50216,34.85708],[-118.50198,34.85708],[-118.5019,34.85707],[-118.50173,34.85706],[-118.50153,34.85702],[-118.50138,34.85696],[-118.501,34.85682],[-118.5003,34.85645],[-118.49971,34.85619],[-118.49873,34.85582],[-118.49838,34.85567],[-118.49795,34.85554],[-118.49779,34.85552],[-118.49725,34.85553],[-118.49673,34.85559],[-118.49627,34.85567],[-118.49601,34.8557],[-118.49587,34.85569],[-118.49559,34.85565],[-118.49546,34.8556],[-118.49512,34.85545],[-118.49491,34.85536],[-118.49479,34.85532],[-118.49454,34.85527]]}},{"type":"Feature","properties":{"name":"270th Street","road_class":"unclassified","surface":"unpaved","source":"Caltrans All Roads + OpenStreetMap explicit surface","source_detail":"osm way 10436314; Caltrans All Roads public-network geometry match","source_tile":"174/406","public_network_source":"Caltrans All Roads (ARNOLD/HPMS)","surface_source":"OpenStreetMap explicit surface tag","caltrans_match_coverage":1.0,"verified_length_m":6039},"geometry":{"type":"LineString","coordinates":[[-118.60792,34.81825],[-118.60789,34.81836],[-118.60786,34.81854],[-118.60779,34.8211],[-118.60783,34.82144],[-118.60784,34.82167],[-118.60785,34.82172],[-118.60786,34.82191],[-118.6079,34.82204],[-118.60791,34.82214],[-118.60792,34.82248],[-118.60792,34.82262],[-118.60788,34.82295],[-118.60788,34.82315],[-118.60788,34.82332],[-118.6079,34.82342],[-118.60795,34.82364],[-118.60796,34.82372],[-118.60799,34.82416],[-118.60798,34.82429],[-118.60795,34.82472],[-118.60794,34.82521],[-118.60794,34.82537],[-118.60797,34.82549],[-118.60807,34.82583],[-118.60812,34.82604],[-118.6081,34.82624],[-118.60818,34.82843],[-118.60819,34.82911],[-118.60824,34.83237],[-118.60822,34.83249],[-118.6082,34.83257],[-118.60815,34.83267],[-118.60808,34.83278],[-118.60805,34.83287],[-118.60805,34.83313],[-118.60806,34.83447],[-118.60805,34.83608],[-118.60808,34.8381],[-118.6081,34.83999],[-118.6082,34.84003],[-118.60823,34.84009],[-118.60824,34.84014],[-118.60821,34.84041],[-118.60816,34.8433],[-118.6082,34.84684],[-118.60818,34.84704],[-118.60813,34.84719],[-118.60812,34.8475],[-118.60815,34.8479],[-118.60814,34.84852],[-118.60812,34.84868],[-118.60808,34.8488],[-118.60798,34.84904],[-118.60783,34.84937],[-118.60774,34.84964],[-118.60765,34.85008],[-118.6076,34.85061],[-118.60755,34.85073],[-118.6075,34.85083],[-118.60745,34.85094],[-118.60743,34.85104],[-118.60742,34.85128],[-118.60729,34.85235],[-118.6073,34.85249],[-118.60734,34.85283],[-118.60734,34.85302],[-118.60732,34.85371],[-118.60729,34.85418],[-118.60734,34.85477],[-118.60735,34.8564],[-118.60737,34.85689],[-118.60737,34.85719],[-118.60726,34.85832],[-118.60727,34.85878],[-118.6073,34.8592],[-118.6073,34.85953],[-118.60729,34.86002],[-118.60733,34.86078],[-118.60733,34.86122],[-118.60734,34.86147],[-118.60735,34.86161],[-118.60735,34.86167],[-118.60732,34.86174],[-118.60724,34.8624],[-118.60717,34.86322],[-118.6071,34.86403],[-118.60704,34.86477],[-118.60699,34.86526],[-118.60699,34.86578],[-118.60702,34.86651],[-118.607,34.86698],[-118.60697,34.86711],[-118.60684,34.86742],[-118.60657,34.86815],[-118.60624,34.86901],[-118.60589,34.86981],[-118.60542,34.87062],[-118.60516,34.87112],[-118.60485,34.87168],[-118.60457,34.87225]]}},{"type":"Feature","properties":{"name":"West Avenue A","road_class":"unclassified","surface":"unpaved","source":"Caltrans All Roads + OpenStreetMap explicit surface","source_detail":"osm way 13414467; Caltrans All Roads public-network geometry match","source_tile":"174/406","public_network_source":"Caltrans All Roads (ARNOLD/HPMS)","surface_source":"OpenStreetMap explicit surface tag","caltrans_match_coverage":1.0,"verified_length_m":5458},"geometry":{"type":"LineString","coordinates":[[-118.66094,34.81819],[-118.64812,34.81806],[-118.64574,34.81825],[-118.64329,34.81818],[-118.6291,34.81818],[-118.6257,34.81821],[-118.62508,34.81826],[-118.62455,34.81828],[-118.62379,34.81828],[-118.6214,34.81828],[-118.62103,34.81826],[-118.62039,34.81822],[-118.61936,34.81817],[-118.61805,34.81823],[-118.6172,34.81822],[-118.61633,34.81826],[-118.61478,34.81825],[-118.61252,34.81823],[-118.61089,34.81821],[-118.60936,34.81824],[-118.60881,34.81825],[-118.60792,34.81825],[-118.60772,34.81828],[-118.60738,34.81828],[-118.60723,34.81834],[-118.60706,34.81835],[-118.60655,34.81833],[-118.60575,34.81832],[-118.60486,34.81832],[-118.6044,34.81833],[-118.60411,34.81835],[-118.60392,34.81833],[-118.60377,34.81832],[-118.60363,34.8183],[-118.60339,34.81824],[-118.60228,34.81825],[-118.60161,34.81824],[-118.60128,34.81825]]}},{"type":"Feature","properties":{"name":"Liebre Gulch Road","road_class":"track","surface":"dirt","tracktype":"grade3","source":"Caltrans All Roads + OpenStreetMap explicit surface","source_detail":"osm way 13462012; Caltrans All Roads public-network geometry match","source_tile":"174/406","public_network_source":"Caltrans All Roads (ARNOLD/HPMS)","surface_source":"OpenStreetMap explicit surface tag","caltrans_match_coverage":1.0,"verified_length_m":3288},"geometry":{"type":"LineString","coordinates":[[-118.72699,34.72033],[-118.72714,34.72076],[-118.72715,34.72171],[-118.72691,34.72234],[-118.7271,34.72279],[-118.72753,34.72356],[-118.72756,34.72396],[-118.72773,34.72459],[-118.72773,34.72515],[-118.72777,34.72531],[-118.72753,34.72578],[-118.72711,34.72626],[-118.72588,34.72728],[-118.72565,34.72757],[-118.72535,34.72808],[-118.72409,34.72902],[-118.72302,34.72993],[-118.72272,34.73092],[-118.72237,34.73113],[-118.72198,34.73186],[-118.72221,34.73324],[-118.722,34.73331],[-118.72185,34.73326],[-118.72162,34.73288],[-118.72143,34.73283],[-118.72128,34.73304],[-118.72123,34.73331],[-118.72109,34.73342],[-118.72084,34.73346],[-118.72075,34.73383],[-118.72064,34.73384],[-118.72045,34.7339],[-118.72018,34.7346],[-118.71986,34.73471],[-118.71956,34.73509],[-118.71943,34.73552],[-118.71923,34.73578],[-118.71914,34.73611],[-118.71892,34.73653],[-118.71892,34.73679],[-118.71872,34.73695],[-118.71856,34.7373],[-118.71831,34.73747],[-118.71815,34.73766],[-118.71821,34.73812],[-118.71804,34.73844],[-118.71793,34.73881],[-118.71766,34.73903],[-118.71733,34.7395],[-118.71724,34.73988],[-118.71701,34.74025],[-118.71648,34.74064],[-118.71633,34.74084],[-118.71549,34.74149],[-118.71546,34.74186],[-118.71536,34.74191],[-118.71512,34.74194],[-118.71478,34.74208],[-118.71446,34.7425],[-118.71369,34.74429],[-118.71365,34.74434]]}},{"type":"Feature","properties":{"name":"Orwin Way","road_class":"unclassified","surface":"unpaved","source":"Caltrans All Roads + OpenStreetMap explicit surface","source_detail":"osm way 97817802; Caltrans All Roads public-network geometry match","source_tile":"174/406","public_network_source":"Caltrans All Roads (ARNOLD/HPMS)","surface_source":"OpenStreetMap explicit surface tag","caltrans_match_coverage":1.0,"verified_length_m":1691},"geometry":{"type":"LineString","coordinates":[[-118.79615,34.75017],[-118.79672,34.74971],[-118.79685,34.74957],[-118.79694,34.7494],[-118.79698,34.74924],[-118.79698,34.74908],[-118.79696,34.74882],[-118.79695,34.74859],[-118.79697,34.74837],[-118.79699,34.74816],[-118.79714,34.74741],[-118.79719,34.74705],[-118.79725,34.7463],[-118.79726,34.74589],[-118.79729,34.74564],[-118.79741,34.74515],[-118.79746,34.74494],[-118.79757,34.74411],[-118.79764,34.7436],[-118.79773,34.74324],[-118.79786,34.74281],[-118.79798,34.74247],[-118.79811,34.74213],[-118.79841,34.74139],[-118.79847,34.74122],[-118.79852,34.74104],[-118.79857,34.74068],[-118.79865,34.74027],[-118.79908,34.73801],[-118.79911,34.73789],[-118.7992,34.73774],[-118.79933,34.73764],[-118.7995,34.73757],[-118.79969,34.73755],[-118.79993,34.73756],[-118.80083,34.73759],[-118.80119,34.73761],[-118.80132,34.73762],[-118.80144,34.73758],[-118.80151,34.73748],[-118.80154,34.73739],[-118.80162,34.73711]]}},{"type":"Feature","properties":{"name":"Edison Spring Road","road_class":"track","surface":"unpaved","tracktype":"grade3","source":"Caltrans All Roads + OpenStreetMap explicit surface","source_detail":"osm way 323537833; Caltrans All Roads public-network geometry match","source_tile":"174/406","public_network_source":"Caltrans All Roads (ARNOLD/HPMS)","surface_source":"OpenStreetMap explicit surface tag","caltrans_match_coverage":1.0,"verified_length_m":14365},"geometry":{"type":"LineString","coordinates":[[-118.7797,34.757],[-118.77963,34.75701],[-118.77954,34.75704],[-118.7791,34.75731],[-118.779,34.75735],[-118.77889,34.75738],[-118.77876,34.7574],[-118.77796,34.75738],[-118.77782,34.75737],[-118.77771,34.75735],[-118.7776,34.75731],[-118.77751,34.75725],[-118.77744,34.75717],[-118.77738,34.75707],[-118.77697,34.75599],[-118.77694,34.75591],[-118.77693,34.75582],[-118.77694,34.75574],[-118.77713,34.75536],[-118.77721,34.7551],[-118.77724,34.75498],[-118.77724,34.75487],[-118.77723,34.75477],[-118.7772,34.75462],[-118.77715,34.75447],[-118.77709,34.75437],[-118.77701,34.75427],[-118.7769,34.75418],[-118.77675,34.75409],[-118.77663,34.75403],[-118.77612,34.75382],[-118.77574,34.75359],[-118.77559,34.75351],[-118.77541,34.75345],[-118.77509,34.75336],[-118.774,34.75293],[-118.77371,34.75281],[-118.77297,34.75252],[-118.77224,34.75224],[-118.77203,34.75216],[-118.77158,34.75195],[-118.77146,34.75188],[-118.77133,34.75178],[-118.7712,34.75167],[-118.77087,34.75139],[-118.77084,34.75137],[-118.77077,34.75127],[-118.77072,34.75117],[-118.77068,34.75104],[-118.77066,34.75091],[-118.77061,34.75071],[-118.77057,34.75064],[-118.77051,34.7506],[-118.77049,34.75058],[-118.77037,34.75051],[-118.76974,34.75022],[-118.76952,34.75011],[-118.76899,34.74982],[-118.7689,34.74977],[-118.76883,34.74971],[-118.76863,34.74949],[-118.76834,34.74912],[-118.76828,34.74906],[-118.76819,34.749],[-118.76808,34.74894],[-118.76804,34.74894],[-118.76797,34.74892],[-118.76748,34.74891],[-118.76725,34.7488],[-118.76676,34.74852],[-118.76668,34.74845],[-118.76649,34.74828],[-118.76639,34.7482],[-118.76624,34.74811],[-118.7661,34.748],[-118.76602,34.74795],[-118.76594,34.74791],[-118.76582,34.74788],[-118.76578,34.74787],[-118.76539,34.74772],[-118.76502,34.74756],[-118.76491,34.74749],[-118.76481,34.74742],[-118.76476,34.74736],[-118.76449,34.74693],[-118.7644,34.74682],[-118.76432,34.74673],[-118.76424,34.74667],[-118.76415,34.74663],[-118.76403,34.74659],[-118.76391,34.74658],[-118.76378,34.74658],[-118.76368,34.74659],[-118.76334,34.7467],[-118.76325,34.74674],[-118.76318,34.7468],[-118.76292,34.74704],[-118.76286,34.74707],[-118.76278,34.74708],[-118.76259,34.74706],[-118.76252,34.74706],[-118.76245,34.74708],[-118.76229,34.74713],[-118.76225,34.74714],[-118.76209,34.74714],[-118.76199,34.74712],[-118.76181,34.74707],[-118.76171,34.74702],[-118.7615,34.74691],[-118.76119,34.74676],[-118.76112,34.7467],[-118.76106,34.74663],[-118.76091,34.74629],[-118.76083,34.74616],[-118.76076,34.74606],[-118.76069,34.74599],[-118.7606,34.74593],[-118.76052,34.74587],[-118.76027,34.74564],[-118.76001,34.74541],[-118.75963,34.74502],[-118.75959,34.74497],[-118.75925,34.74444],[-118.75907,34.74418],[-118.75906,34.74412],[-118.75911,34.74382],[-118.7591,34.74375],[-118.75908,34.7437],[-118.759,34.74355],[-118.75899,34.74352],[-118.75908,34.74333],[-118.75914,34.74314],[-118.75917,34.74305],[-118.75917,34.74304],[-118.75916,34.743],[-118.75907,34.74274],[-118.75895,34.74231],[-118.75893,34.74221],[-118.75889,34.74185],[-118.75886,34.74172],[-118.75883,34.74165],[-118.75879,34.74158],[-118.75848,34.74129],[-118.75807,34.74095],[-118.758,34.74088],[-118.75794,34.74078],[-118.75786,34.74062],[-118.75784,34.74054],[-118.75787,34.74028],[-118.75788,34.74023],[-118.75787,34.74004],[-118.75785,34.73992],[-118.75783,34.73985],[-118.75779,34.73979],[-118.75772,34.73975],[-118.75751,34.73959],[-118.75731,34.73921],[-118.75724,34.73911],[-118.75718,34.73903],[-118.75715,34.73897],[-118.75711,34.73889],[-118.75699,34.73878],[-118.75683,34.73849],[-118.75647,34.738],[-118.75643,34.73796],[-118.75619,34.73752],[-118.75613,34.73727],[-118.75617,34.73707],[-118.75634,34.73661],[-118.75641,34.7361],[-118.75659,34.73563],[-118.7566,34.73546],[-118.75644,34.73495],[-118.75643,34.73483],[-118.75647,34.73468],[-118.75649,34.73462],[-118.75666,34.73423],[-118.75671,34.734],[-118.7567,34.73394],[-118.75664,34.7337],[-118.75664,34.73368],[-118.75658,34.73354],[-118.75657,34.73337],[-118.75658,34.73324],[-118.7566,34.733],[-118.75658,34.73291],[-118.7565,34.73271],[-118.7565,34.73253],[-118.75658,34.73225],[-118.7566,34.73197],[-118.75657,34.73183],[-118.75655,34.73176],[-118.75646,34.73142],[-118.75645,34.73126],[-118.75652,34.73106],[-118.75655,34.73096],[-118.7566,34.73077],[-118.75666,34.73044],[-118.75663,34.73029],[-118.75652,34.73003],[-118.75639,34.72976],[-118.75636,34.7295],[-118.75626,34.72924],[-118.75607,34.72901],[-118.75559,34.72878],[-118.75507,34.72857],[-118.75462,34.72839],[-118.7545,34.72833],[-118.75439,34.72804],[-118.75431,34.72788],[-118.75433,34.7277],[-118.75416,34.72738],[-118.75401,34.72704],[-118.75403,34.72685],[-118.75395,34.72662],[-118.75383,34.72648],[-118.7536,34.72628],[-118.75358,34.72603],[-118.75372,34.7258],[-118.75379,34.7256],[-118.75393,34.72494],[-118.75384,34.72478],[-118.75366,34.72466],[-118.75351,34.7243],[-118.75351,34.72404],[-118.75355,34.72387],[-118.75365,34.72371],[-118.75374,34.72357],[-118.75382,34.7235],[-118.75401,34.72333],[-118.75435,34.72311],[-118.75457,34.72298],[-118.75465,34.72284],[-118.75468,34.72262],[-118.75477,34.72249],[-118.75484,34.72224],[-118.75478,34.72195],[-118.75469,34.72175],[-118.75468,34.72166],[-118.75488,34.72141],[-118.75502,34.72126],[-118.75503,34.72114],[-118.75497,34.72104],[-118.75485,34.72094],[-118.75464,34.72084],[-118.7546,34.72078],[-118.75462,34.72071],[-118.75472,34.7206],[-118.75493,34.72043],[-118.75512,34.72027],[-118.75517,34.72013],[-118.75509,34.72004],[-118.75494,34.71998],[-118.75477,34.71995],[-118.75457,34.71999],[-118.75432,34.72007],[-118.75402,34.72015],[-118.75379,34.72017],[-118.75356,34.72016],[-118.75328,34.72018],[-118.75314,34.72023],[-118.75295,34.7203],[-118.75282,34.72039],[-118.75272,34.72054],[-118.75262,34.72069],[-118.75251,34.72083],[-118.75243,34.72088],[-118.75226,34.72097],[-118.7521,34.721],[-118.75191,34.72099],[-118.75172,34.72094],[-118.75161,34.72083],[-118.75154,34.72073],[-118.75154,34.72055],[-118.75158,34.72038],[-118.75159,34.72021],[-118.75147,34.72017],[-118.7513,34.72022],[-118.75114,34.72031],[-118.751,34.72037],[-118.75085,34.72042],[-118.75067,34.72043],[-118.75066,34.72043],[-118.74983,34.72039],[-118.74952,34.72038],[-118.74933,34.72032],[-118.74928,34.7203],[-118.7491,34.72022],[-118.74868,34.72001],[-118.7485,34.71985],[-118.74837,34.71967],[-118.74831,34.71964],[-118.74825,34.71965],[-118.74819,34.71969],[-118.74808,34.71982],[-118.748,34.71995],[-118.74785,34.72008],[-118.74774,34.72015],[-118.74743,34.72022],[-118.74718,34.72029],[-118.74701,34.72037],[-118.7468,34.72049],[-118.74661,34.72055],[-118.74634,34.72042],[-118.74619,34.72029],[-118.74616,34.72011],[-118.74617,34.71982],[-118.74605,34.71974],[-118.74571,34.7197],[-118.74539,34.71957],[-118.74518,34.71939],[-118.74506,34.71922],[-118.74483,34.71907],[-118.74465,34.71904],[-118.74437,34.71904],[-118.74413,34.71905],[-118.74397,34.71904],[-118.74376,34.719],[-118.74358,34.71888],[-118.74345,34.71875],[-118.74331,34.71865],[-118.74303,34.7186],[-118.74288,34.71855],[-118.74282,34.71843],[-118.74283,34.71831],[-118.74292,34.71819],[-118.74308,34.7181],[-118.74314,34.71801],[-118.74319,34.71777],[-118.74324,34.71763],[-118.74332,34.71749],[-118.74345,34.71737],[-118.74353,34.71724],[-118.74367,34.71702],[-118.74377,34.71696],[-118.74381,34.71686],[-118.74378,34.71672],[-118.74365,34.71659],[-118.74334,34.71644],[-118.74318,34.71635],[-118.74311,34.7162],[-118.74304,34.71599],[-118.74304,34.71594],[-118.74305,34.71589],[-118.74315,34.71581],[-118.74323,34.71575],[-118.74328,34.71572],[-118.74331,34.71564],[-118.74333,34.71551],[-118.74369,34.71531],[-118.74388,34.71524],[-118.74396,34.71515],[-118.74435,34.71487],[-118.74451,34.71478],[-118.7446,34.71476],[-118.74469,34.71477],[-118.74484,34.71477],[-118.74494,34.71473],[-118.7451,34.7146],[-118.74514,34.71449],[-118.74514,34.71439],[-118.7451,34.71421],[-118.74505,34.714],[-118.74505,34.71388],[-118.74506,34.7136],[-118.74511,34.71335],[-118.74513,34.71332],[-118.74518,34.71325],[-118.7453,34.71319],[-118.74539,34.71316],[-118.7455,34.71312],[-118.74556,34.71303],[-118.74555,34.71296],[-118.74549,34.71288],[-118.74533,34.71283],[-118.74525,34.71276],[-118.74519,34.71266],[-118.74515,34.71253],[-118.74506,34.71243],[-118.745,34.71232],[-118.74499,34.71217],[-118.74503,34.71207],[-118.74506,34.71202],[-118.74514,34.71196],[-118.74526,34.71191],[-118.74545,34.7119],[-118.74572,34.7119],[-118.74585,34.71195],[-118.74592,34.71204],[-118.74599,34.71214],[-118.74609,34.7122],[-118.74618,34.7122],[-118.74628,34.71219],[-118.74639,34.71216],[-118.74654,34.71216],[-118.74673,34.71212],[-118.74695,34.71211],[-118.74717,34.71217],[-118.74747,34.71212],[-118.74778,34.712],[-118.74807,34.7119],[-118.74812,34.71186],[-118.74818,34.71181],[-118.74824,34.71173],[-118.74819,34.71163],[-118.74803,34.7116],[-118.74786,34.71157],[-118.74757,34.71152],[-118.74742,34.71142],[-118.74732,34.71135],[-118.74723,34.71126],[-118.74722,34.71116],[-118.74723,34.71107],[-118.74735,34.71095],[-118.74749,34.71086],[-118.74751,34.71074],[-118.74741,34.7102],[-118.74724,34.71014],[-118.74677,34.71024],[-118.74636,34.71034],[-118.74624,34.71024],[-118.74563,34.71024],[-118.74514,34.71003],[-118.74477,34.70983],[-118.74466,34.70969],[-118.74465,34.70957],[-118.745,34.70941],[-118.74543,34.70894],[-118.74548,34.70883],[-118.74485,34.7081],[-118.74461,34.70782],[-118.74411,34.70755],[-118.74404,34.70752],[-118.74386,34.70748],[-118.74341,34.70735],[-118.74326,34.7073],[-118.74314,34.70723],[-118.74297,34.70707],[-118.74298,34.70693],[-118.74307,34.70687],[-118.74321,34.70675],[-118.74347,34.70663],[-118.74372,34.70652],[-118.74391,34.70634],[-118.74395,34.70609],[-118.74388,34.7058],[-118.74383,34.70565],[-118.74367,34.70556],[-118.74353,34.70556],[-118.74337,34.70564],[-118.7432,34.70563],[-118.74309,34.70554],[-118.74287,34.70543],[-118.74267,34.7052],[-118.74256,34.70504],[-118.7424,34.70495],[-118.74226,34.70491],[-118.74211,34.7049],[-118.74191,34.70488],[-118.74177,34.70481],[-118.74165,34.7047],[-118.74168,34.70458],[-118.74183,34.70444],[-118.7419,34.70423],[-118.74196,34.70403],[-118.74191,34.70383],[-118.74183,34.70366],[-118.7418,34.70351],[-118.74171,34.70349],[-118.74161,34.70353],[-118.74156,34.70361],[-118.74157,34.70368],[-118.74161,34.70376],[-118.74169,34.70384],[-118.74173,34.70393],[-118.74171,34.70409],[-118.74165,34.70417],[-118.74159,34.70423],[-118.74149,34.70426],[-118.74133,34.70431],[-118.74109,34.70437],[-118.74087,34.70443],[-118.74065,34.70448],[-118.74038,34.70446],[-118.74021,34.7045],[-118.73999,34.70459],[-118.73988,34.70466],[-118.73984,34.70479],[-118.73985,34.70489],[-118.73996,34.70504],[-118.73998,34.70509],[-118.73997,34.70515],[-118.73995,34.7052],[-118.73986,34.70526],[-118.73976,34.70526],[-118.73964,34.70522],[-118.73947,34.70521],[-118.73932,34.7052],[-118.73912,34.70522],[-118.73909,34.70527],[-118.73905,34.7054],[-118.73903,34.7056],[-118.73895,34.70569],[-118.7388,34.7058],[-118.73868,34.70591],[-118.73861,34.70603],[-118.73855,34.70612],[-118.7385,34.70617],[-118.73843,34.70619],[-118.73835,34.70617],[-118.7383,34.7061],[-118.73828,34.70601],[-118.73829,34.70588],[-118.73834,34.70572],[-118.73835,34.70561],[-118.73832,34.70542],[-118.73821,34.70531],[-118.73799,34.70514],[-118.73783,34.70506],[-118.73771,34.705],[-118.73752,34.7049],[-118.73731,34.70484],[-118.73723,34.70484],[-118.73709,34.70481],[-118.73693,34.70475],[-118.73673,34.70476],[-118.73662,34.70473],[-118.73653,34.70468],[-118.73644,34.70461],[-118.73636,34.70465],[-118.73624,34.70471],[-118.73609,34.7047],[-118.73578,34.7047],[-118.73563,34.70474],[-118.73548,34.70485],[-118.7354,34.70498],[-118.73534,34.70505],[-118.73527,34.7051],[-118.73509,34.70522],[-118.73507,34.70535],[-118.73505,34.70544],[-118.73498,34.70553],[-118.73494,34.70563],[-118.73495,34.70587],[-118.73493,34.70597],[-118.73493,34.7061],[-118.7349,34.70626],[-118.73493,34.70639],[-118.73499,34.70653],[-118.73505,34.70668],[-118.73504,34.70677],[-118.73495,34.70688],[-118.73485,34.70695],[-118.7348,34.70704],[-118.7348,34.70712],[-118.73483,34.7073],[-118.73485,34.70744],[-118.73477,34.70752],[-118.73464,34.7076],[-118.73451,34.70766],[-118.73444,34.70776],[-118.73446,34.70789],[-118.7346,34.70802],[-118.7353,34.70813],[-118.73546,34.70818],[-118.73551,34.70825],[-118.7355,34.7083],[-118.73543,34.70834],[-118.73532,34.70837],[-118.73499,34.70846],[-118.73475,34.70856],[-118.73448,34.70853],[-118.73435,34.70857],[-118.7342,34.70876],[-118.73397,34.70899],[-118.73373,34.70916],[-118.7335,34.70937],[-118.73338,34.70956],[-118.73361,34.70984],[-118.73361,34.70989],[-118.73353,34.70992],[-118.73322,34.70987],[-118.73292,34.70995],[-118.73266,34.71009],[-118.73254,34.71034],[-118.73217,34.71056],[-118.73195,34.71077],[-118.7315,34.71119],[-118.73168,34.71177],[-118.73161,34.71191],[-118.73133,34.71207],[-118.73101,34.71235],[-118.73063,34.71289],[-118.73036,34.71307],[-118.73011,34.71334],[-118.72961,34.71377],[-118.72922,34.71428],[-118.72868,34.71479],[-118.72851,34.7152],[-118.72839,34.71571],[-118.72816,34.7159],[-118.72792,34.7161],[-118.72762,34.71652],[-118.72757,34.71654],[-118.72722,34.71643],[-118.72723,34.71629],[-118.72749,34.71617],[-118.72764,34.71607],[-118.72767,34.71588],[-118.72759,34.7157],[-118.72737,34.71539],[-118.72714,34.71527],[-118.72688,34.71507],[-118.72686,34.71498],[-118.72693,34.71489],[-118.72752,34.71467],[-118.72758,34.71432],[-118.72782,34.71419],[-118.72783,34.71407],[-118.72642,34.71369],[-118.72625,34.71329],[-118.72615,34.71301],[-118.72617,34.71256],[-118.72739,34.7117],[-118.72744,34.71155],[-118.72639,34.71141],[-118.72501,34.71117],[-118.72471,34.71095],[-118.72427,34.71098],[-118.72389,34.7107],[-118.72357,34.71058],[-118.7231,34.7105],[-118.72276,34.71055],[-118.72241,34.71026],[-118.72207,34.71011],[-118.72194,34.71004],[-118.72183,34.70984],[-118.7218,34.70971],[-118.72191,34.70956],[-118.72193,34.70949],[-118.72186,34.7094],[-118.72176,34.70938],[-118.72162,34.70942],[-118.72132,34.70952],[-118.72124,34.70954],[-118.72118,34.70952],[-118.72111,34.70943],[-118.7211,34.70927],[-118.72136,34.70877],[-118.72134,34.7083],[-118.7213,34.70824],[-118.72104,34.70822]]}},{"type":"Feature","properties":{"name":"(unnamed public road)","road_class":"track","surface":"unpaved","source":"Caltrans All Roads + OpenStreetMap explicit surface","source_detail":"osm way 501469312; Caltrans All Roads public-network geometry match","source_tile":"174/406","public_network_source":"Caltrans All Roads (ARNOLD/HPMS)","surface_source":"OpenStreetMap explicit surface tag","caltrans_match_coverage":1.0,"verified_length_m":947},"geometry":{"type":"LineString","coordinates":[[-118.52284,34.75116],[-118.52052,34.75032],[-118.52035,34.75026],[-118.51984,34.75003],[-118.5196,34.74989],[-118.519,34.74956],[-118.51876,34.74949],[-118.51824,34.74958],[-118.51707,34.74956],[-118.5168,34.74948],[-118.516,34.74927],[-118.51531,34.74917],[-118.51492,34.74904],[-118.51484,34.74888],[-118.51484,34.74753]]}},{"type":"Feature","properties":{"name":"203rd Street","road_class":"unclassified","surface":"unpaved","source":"Caltrans All Roads + OpenStreetMap explicit surface","source_detail":"osm way 597034698; Caltrans All Roads public-network geometry match","source_tile":"174/406","public_network_source":"Caltrans All Roads (ARNOLD/HPMS)","surface_source":"OpenStreetMap explicit surface tag","caltrans_match_coverage":0.862,"verified_length_m":4239},"geometry":{"type":"LineString","coordinates":[[-118.49156,34.84024],[-118.49155,34.84034],[-118.49144,34.84125],[-118.49132,34.84233],[-118.491,34.84466],[-118.4906,34.84842],[-118.49026,34.85141],[-118.49023,34.85176],[-118.49014,34.85211],[-118.49013,34.85215],[-118.49005,34.85249],[-118.49006,34.85252],[-118.49003,34.85297],[-118.49005,34.85325],[-118.49011,34.85363],[-118.49013,34.85374],[-118.49014,34.85383],[-118.49016,34.85394],[-118.49019,34.85403],[-118.49026,34.85417],[-118.49037,34.8543],[-118.49043,34.85435],[-118.49087,34.85466],[-118.49102,34.85479],[-118.49112,34.85489],[-118.49116,34.85494],[-118.49121,34.85501],[-118.49129,34.85513],[-118.49136,34.85531],[-118.49143,34.85552],[-118.49145,34.85584],[-118.49147,34.8559],[-118.49149,34.85595],[-118.49152,34.85612],[-118.4915,34.85618],[-118.49143,34.85633],[-118.49126,34.85662],[-118.49123,34.85669],[-118.49119,34.85685],[-118.49116,34.85705],[-118.49106,34.85721],[-118.49103,34.8573],[-118.49103,34.85736],[-118.4911,34.85764],[-118.4911,34.85777],[-118.49112,34.85789],[-118.49112,34.85802],[-118.49116,34.85812],[-118.49124,34.85823],[-118.49134,34.85832],[-118.49152,34.85843],[-118.49157,34.85849],[-118.49159,34.85857],[-118.49159,34.85864],[-118.49156,34.85871],[-118.49143,34.85892],[-118.49134,34.85922],[-118.49132,34.85938],[-118.49134,34.85954],[-118.4914,34.85979],[-118.4914,34.85992],[-118.49123,34.86054],[-118.49124,34.86063],[-118.49128,34.86071],[-118.49134,34.86078],[-118.49137,34.8608],[-118.49142,34.86086],[-118.49147,34.86096],[-118.49147,34.86104],[-118.49145,34.86121],[-118.49139,34.86137],[-118.49136,34.86142],[-118.4913,34.86162],[-118.49128,34.8618],[-118.4913,34.86191],[-118.49136,34.86204],[-118.49142,34.86227],[-118.49154,34.86273],[-118.49156,34.86286],[-118.49164,34.86368],[-118.49165,34.86387],[-118.49169,34.86401],[-118.49168,34.8653],[-118.49163,34.86632],[-118.49151,34.86748],[-118.4914,34.86824],[-118.49121,34.86981],[-118.49088,34.87213],[-118.49035,34.87643],[-118.49037,34.87655],[-118.49038,34.87665],[-118.49038,34.87673],[-118.49033,34.8768],[-118.49029,34.87688],[-118.49023,34.87695],[-118.49016,34.87699],[-118.49009,34.87707],[-118.49006,34.87709],[-118.49,34.87711],[-118.48994,34.87713],[-118.48992,34.87716],[-118.48992,34.8772],[-118.48994,34.87723],[-118.48997,34.87724],[-118.49002,34.87724],[-118.49005,34.87724],[-118.49008,34.87722],[-118.4901,34.8772],[-118.4901,34.87717],[-118.49009,34.87714],[-118.49009,34.87707]]}},{"type":"Feature","properties":{"name":"Liebre Mountain Road","road_class":"track","surface":"dirt","tracktype":"grade3","source":"Caltrans All Roads + OpenStreetMap explicit surface","source_detail":"osm way 679969164; Caltrans All Roads public-network geometry match","source_tile":"174/406","public_network_source":"Caltrans All Roads (ARNOLD/HPMS)","surface_source":"OpenStreetMap explicit surface tag","caltrans_match_coverage":0.95,"verified_length_m":16328},"geometry":{"type":"LineString","coordinates":[[-118.68107,34.72692],[-118.68088,34.72688],[-118.6807,34.7268],[-118.68066,34.72677],[-118.68064,34.72675],[-118.6806,34.72672],[-118.68058,34.72667],[-118.68054,34.72649],[-118.68051,34.72639],[-118.68043,34.72632],[-118.68032,34.72628],[-118.68023,34.72627],[-118.68012,34.72628],[-118.67951,34.72636],[-118.67893,34.72646],[-118.67877,34.72651],[-118.67864,34.72659],[-118.67853,34.72669],[-118.67829,34.72699],[-118.67824,34.72703],[-118.67819,34.72705],[-118.67813,34.72706],[-118.67807,34.72707],[-118.67788,34.72707],[-118.67775,34.72705],[-118.67764,34.72701],[-118.67753,34.72695],[-118.67745,34.72687],[-118.67718,34.72649],[-118.6771,34.7264],[-118.67701,34.72635],[-118.67692,34.72633],[-118.67681,34.72633],[-118.67645,34.72642],[-118.67635,34.72644],[-118.67627,34.72645],[-118.6762,34.72644],[-118.67592,34.72638],[-118.67587,34.72637],[-118.67583,34.72636],[-118.67579,34.72634],[-118.67576,34.7263],[-118.67576,34.72626],[-118.67576,34.72622],[-118.67579,34.72617],[-118.67586,34.72615],[-118.67591,34.72613],[-118.67624,34.72606],[-118.6763,34.72602],[-118.67636,34.72597],[-118.67642,34.72591],[-118.67645,34.72585],[-118.67656,34.72543],[-118.67657,34.7253],[-118.67655,34.72518],[-118.67651,34.72507],[-118.67649,34.72493],[-118.6765,34.7248],[-118.6765,34.72469],[-118.67646,34.72459],[-118.67631,34.72437],[-118.67628,34.72419],[-118.67614,34.72368],[-118.67608,34.72355],[-118.67604,34.72347],[-118.67598,34.72342],[-118.6759,34.7234],[-118.6758,34.72338],[-118.67571,34.72339],[-118.67563,34.72342],[-118.6756,34.72347],[-118.67557,34.72353],[-118.67548,34.72375],[-118.67536,34.72393],[-118.67524,34.72404],[-118.67517,34.72409],[-118.6751,34.72412],[-118.67503,34.72414],[-118.67494,34.72415],[-118.6745,34.72406],[-118.67438,34.72398],[-118.67429,34.72388],[-118.67422,34.72377],[-118.67419,34.72347],[-118.67415,34.72328],[-118.67403,34.72309],[-118.67379,34.72286],[-118.67347,34.72263],[-118.67336,34.72256],[-118.67313,34.72238],[-118.67229,34.72186],[-118.67213,34.72177],[-118.67199,34.72171],[-118.67185,34.72165],[-118.67136,34.7215],[-118.6712,34.72144],[-118.67108,34.72138],[-118.67096,34.7213],[-118.67089,34.72125],[-118.67081,34.72122],[-118.6703,34.72102],[-118.67016,34.72096],[-118.67006,34.72086],[-118.66955,34.7201],[-118.66946,34.71994],[-118.66942,34.71983],[-118.66939,34.71968],[-118.66933,34.71954],[-118.66918,34.71931],[-118.66901,34.71909],[-118.66889,34.71895],[-118.6688,34.71886],[-118.66871,34.71881],[-118.66862,34.71877],[-118.66691,34.71817],[-118.66675,34.71811],[-118.66669,34.71808],[-118.66664,34.71804],[-118.66659,34.71801],[-118.66654,34.71797],[-118.66647,34.7179],[-118.66639,34.71784],[-118.66597,34.7177],[-118.66526,34.71751],[-118.66518,34.71749],[-118.66512,34.71746],[-118.66507,34.71741],[-118.66504,34.71735],[-118.66487,34.71704],[-118.6648,34.71699],[-118.66469,34.71692],[-118.66448,34.71681],[-118.66439,34.71672],[-118.6643,34.71663],[-118.66422,34.71663],[-118.66409,34.7166],[-118.66312,34.7163],[-118.66257,34.7161],[-118.66241,34.71604],[-118.66223,34.71599],[-118.66204,34.71597],[-118.6618,34.716],[-118.66168,34.71602],[-118.66125,34.71607],[-118.66102,34.7161],[-118.66083,34.71613],[-118.66065,34.71613],[-118.65985,34.71603],[-118.65963,34.71596],[-118.65944,34.71585],[-118.65926,34.71566],[-118.65896,34.71538],[-118.65865,34.71512],[-118.65835,34.71492],[-118.65827,34.71486],[-118.65822,34.71477],[-118.6582,34.71469],[-118.65823,34.71455],[-118.65827,34.71441],[-118.65828,34.71433],[-118.65826,34.71425],[-118.65822,34.71417],[-118.65802,34.71396],[-118.65755,34.7136],[-118.65746,34.71353],[-118.65739,34.71345],[-118.65735,34.71336],[-118.65722,34.71314],[-118.65715,34.71307],[-118.65707,34.713],[-118.65666,34.71278],[-118.6565,34.71271],[-118.65632,34.71266],[-118.65601,34.71257],[-118.65597,34.71256],[-118.65578,34.71251],[-118.6557,34.71248],[-118.65563,34.71244],[-118.65558,34.71238],[-118.65551,34.71224],[-118.65547,34.7121],[-118.6554,34.71203],[-118.65531,34.71197],[-118.65521,34.71193],[-118.65489,34.71191],[-118.6546,34.7119],[-118.65403,34.71183],[-118.65395,34.71183],[-118.6539,34.71181],[-118.65381,34.71177],[-118.65368,34.7117],[-118.65358,34.71166],[-118.65347,34.71165],[-118.65336,34.71167],[-118.65298,34.71174],[-118.65281,34.71177],[-118.6527,34.7118],[-118.65261,34.71185],[-118.65251,34.71194],[-118.65246,34.71197],[-118.6524,34.71199],[-118.65229,34.71199],[-118.65203,34.71199],[-118.65163,34.71196],[-118.65122,34.71191],[-118.65082,34.71185],[-118.65043,34.71176],[-118.65023,34.71171],[-118.65015,34.71169],[-118.65007,34.71169],[-118.64971,34.71178],[-118.64964,34.71179],[-118.64957,34.71179],[-118.64927,34.71178],[-118.64916,34.71178],[-118.64905,34.7118],[-118.64873,34.71188],[-118.64842,34.71193],[-118.64814,34.71197],[-118.64804,34.71197],[-118.64793,34.71196],[-118.64775,34.71192],[-118.64764,34.71189],[-118.64753,34.71184],[-118.64743,34.71176],[-118.64736,34.7117],[-118.64728,34.71166],[-118.64661,34.71145],[-118.64645,34.71142],[-118.64629,34.71143],[-118.64615,34.71148],[-118.64602,34.71156],[-118.64579,34.7118],[-118.64573,34.7119],[-118.64568,34.71196],[-118.64562,34.71201],[-118.6454,34.71215],[-118.64527,34.71226],[-118.64523,34.71232],[-118.64518,34.71237],[-118.64511,34.7124],[-118.64503,34.71241],[-118.64495,34.7124],[-118.64488,34.71238],[-118.64474,34.71236],[-118.64449,34.71235],[-118.64412,34.71235],[-118.64367,34.71234],[-118.64355,34.71235],[-118.64344,34.71237],[-118.64334,34.71242],[-118.64299,34.71262],[-118.64287,34.71268],[-118.64278,34.71277],[-118.64261,34.71295],[-118.64254,34.71301],[-118.64246,34.71305],[-118.6421,34.71318],[-118.64203,34.71321],[-118.64195,34.71325],[-118.64179,34.71332],[-118.64171,34.71334],[-118.64162,34.71335],[-118.64148,34.71336],[-118.64135,34.71336],[-118.6412,34.71334],[-118.64089,34.7133],[-118.6408,34.71329],[-118.6407,34.7133],[-118.64062,34.71334],[-118.64055,34.7134],[-118.64035,34.71365],[-118.64026,34.71373],[-118.64017,34.7138],[-118.64007,34.71385],[-118.63969,34.71402],[-118.63953,34.71411],[-118.63939,34.71421],[-118.63912,34.71443],[-118.63897,34.7145],[-118.63886,34.71454],[-118.63874,34.71454],[-118.63862,34.71452],[-118.63847,34.71448],[-118.63764,34.71433],[-118.6375,34.71429],[-118.63737,34.71422],[-118.63719,34.71415],[-118.63652,34.71397],[-118.63617,34.71379],[-118.63574,34.71377],[-118.6355,34.71375],[-118.6353,34.71377],[-118.63518,34.71378],[-118.63402,34.71406],[-118.63392,34.7141],[-118.63383,34.71416],[-118.63347,34.71436],[-118.6334,34.7144],[-118.63332,34.71443],[-118.63324,34.71444],[-118.63315,34.71443],[-118.63239,34.71426],[-118.63218,34.71413],[-118.63201,34.71396],[-118.6317,34.71334],[-118.6316,34.7132],[-118.63148,34.71306],[-118.63141,34.71301],[-118.63132,34.71295],[-118.6312,34.71292],[-118.63108,34.71289],[-118.63048,34.71272],[-118.63035,34.71268],[-118.63023,34.71262],[-118.63006,34.71253],[-118.62992,34.7125],[-118.62978,34.71249],[-118.62952,34.71249],[-118.62927,34.71253],[-118.629,34.71261],[-118.62874,34.71268],[-118.6286,34.71272],[-118.62846,34.71271],[-118.62782,34.71266],[-118.6274,34.71267],[-118.62699,34.7127],[-118.62657,34.71278],[-118.62649,34.7128],[-118.62639,34.71281],[-118.62631,34.71278],[-118.62623,34.71274],[-118.62582,34.71231],[-118.62572,34.71224],[-118.62561,34.71218],[-118.62537,34.71209],[-118.62524,34.71202],[-118.62512,34.71195],[-118.62467,34.71148],[-118.62453,34.71136],[-118.62444,34.71127],[-118.6242,34.7111],[-118.624,34.71095],[-118.62366,34.71077],[-118.62328,34.71059],[-118.6228,34.71039],[-118.6223,34.71021],[-118.62182,34.71001],[-118.62133,34.70974],[-118.621,34.70952],[-118.62076,34.70929],[-118.62054,34.70904],[-118.62034,34.70888],[-118.62012,34.70874],[-118.61996,34.70858],[-118.61982,34.70837],[-118.61968,34.70815],[-118.61951,34.70799],[-118.61933,34.70782],[-118.61926,34.7078],[-118.6192,34.70776],[-118.61916,34.70771],[-118.61915,34.70765],[-118.61916,34.70759],[-118.61919,34.70754],[-118.61928,34.70735],[-118.61932,34.70724],[-118.61935,34.70712],[-118.6194,34.70656],[-118.61936,34.70642],[-118.6193,34.70629],[-118.61916,34.70618],[-118.61899,34.70609],[-118.61861,34.70595],[-118.61842,34.70587],[-118.61827,34.70577],[-118.61816,34.70563],[-118.61805,34.70543],[-118.61792,34.70525],[-118.61776,34.70508],[-118.61755,34.70495],[-118.6172,34.70477],[-118.61685,34.70459],[-118.61657,34.70445],[-118.61636,34.70428],[-118.61605,34.7039],[-118.61596,34.70384],[-118.61585,34.70381],[-118.61573,34.70381],[-118.61532,34.70384],[-118.61489,34.70391],[-118.6147,34.70392],[-118.61444,34.70393],[-118.61422,34.70391],[-118.61403,34.70384],[-118.61377,34.70373],[-118.61354,34.70359],[-118.61344,34.7035],[-118.61331,34.70343],[-118.61224,34.70306],[-118.61185,34.70298],[-118.6118,34.70296],[-118.61176,34.70296],[-118.61172,34.70297],[-118.61168,34.70299],[-118.61165,34.70302],[-118.61163,34.70306],[-118.61163,34.70309],[-118.61164,34.70313],[-118.61168,34.70333],[-118.61168,34.7036],[-118.61163,34.70386],[-118.61153,34.70407],[-118.61138,34.70425],[-118.6112,34.70438],[-118.61097,34.70452],[-118.61075,34.70468],[-118.61057,34.70483],[-118.61034,34.70492],[-118.61016,34.705],[-118.61009,34.70505],[-118.61005,34.70511],[-118.61004,34.70518],[-118.61005,34.70525],[-118.61009,34.70531],[-118.61048,34.70561],[-118.61053,34.70568],[-118.61055,34.70576],[-118.61053,34.70583],[-118.61049,34.7059],[-118.61042,34.70598],[-118.61037,34.70602],[-118.6103,34.70604],[-118.61023,34.70605],[-118.61016,34.70604],[-118.60881,34.70597],[-118.60856,34.706],[-118.60832,34.70605],[-118.60809,34.70617],[-118.60798,34.70624],[-118.60789,34.70633],[-118.60784,34.70645],[-118.60783,34.70662],[-118.60783,34.70668],[-118.6078,34.70674],[-118.60776,34.70679],[-118.6077,34.70683],[-118.60748,34.70687],[-118.60731,34.70691],[-118.60724,34.70695],[-118.6072,34.707],[-118.60717,34.70706],[-118.60716,34.70713],[-118.60718,34.70719],[-118.60746,34.70801],[-118.60746,34.70812],[-118.60742,34.70822],[-118.60734,34.7083],[-118.60721,34.7084],[-118.60705,34.70848],[-118.60686,34.70854],[-118.60662,34.70858],[-118.60652,34.70854],[-118.60644,34.70849],[-118.60635,34.70847],[-118.60626,34.70847],[-118.60607,34.70852],[-118.60601,34.70855],[-118.60594,34.70855],[-118.60587,34.70854],[-118.60581,34.70852],[-118.60576,34.70847],[-118.60559,34.70826],[-118.60555,34.70823],[-118.6055,34.70821],[-118.60544,34.7082],[-118.60539,34.70821],[-118.60534,34.70823],[-118.60522,34.70826],[-118.6051,34.70827],[-118.6048,34.70822],[-118.60467,34.70821],[-118.60454,34.70823],[-118.60416,34.70831],[-118.60403,34.70838],[-118.60392,34.70846],[-118.60375,34.70858],[-118.60365,34.70863],[-118.60354,34.70866],[-118.60322,34.70875],[-118.60313,34.70877],[-118.60303,34.70877],[-118.60295,34.70874],[-118.6027,34.70861],[-118.60261,34.70858],[-118.60251,34.70858],[-118.60242,34.70859],[-118.6022,34.70862],[-118.60205,34.70864],[-118.6019,34.70862],[-118.60101,34.7085],[-118.60093,34.70847],[-118.60085,34.70847],[-118.60077,34.70849],[-118.6007,34.70854],[-118.60065,34.70859],[-118.60063,34.70866],[-118.60063,34.70873],[-118.60066,34.70879],[-118.6008,34.70897],[-118.60082,34.70899],[-118.60083,34.70902],[-118.60083,34.70905],[-118.60081,34.70908],[-118.60079,34.7091],[-118.60076,34.70911],[-118.60073,34.70912],[-118.60054,34.70918],[-118.60021,34.70923],[-118.60008,34.70925],[-118.59997,34.7093],[-118.59987,34.70937],[-118.59963,34.7096],[-118.5996,34.70964],[-118.59959,34.70969],[-118.5996,34.70973],[-118.59962,34.70977],[-118.59966,34.70981],[-118.59975,34.7099],[-118.59978,34.70996],[-118.59978,34.71002],[-118.59976,34.71009],[-118.59972,34.71014],[-118.59953,34.71033],[-118.59939,34.7104],[-118.59924,34.71044],[-118.59904,34.71046],[-118.59895,34.71045],[-118.59887,34.71042],[-118.59881,34.71036],[-118.59877,34.71029],[-118.59877,34.71022],[-118.59881,34.70997],[-118.59881,34.70991],[-118.5988,34.70986],[-118.59876,34.70981],[-118.59871,34.70978],[-118.59864,34.70976],[-118.59763,34.70972],[-118.59736,34.70974],[-118.59732,34.70975],[-118.59729,34.70977],[-118.59727,34.7098],[-118.59726,34.70983],[-118.59727,34.70986],[-118.59729,34.70989],[-118.59732,34.70992],[-118.59735,34.70993],[-118.59739,34.70993],[-118.59766,34.70991],[-118.59777,34.70993],[-118.59806,34.71],[-118.59809,34.71002],[-118.59812,34.71004],[-118.59814,34.71008],[-118.59814,34.71011],[-118.59813,34.71014],[-118.5981,34.71017],[-118.59807,34.71019],[-118.59803,34.7102],[-118.59772,34.71014],[-118.59765,34.71013],[-118.59757,34.71014],[-118.5975,34.71016],[-118.59744,34.7102],[-118.59714,34.71036],[-118.59705,34.71041],[-118.59699,34.71047],[-118.59684,34.71062],[-118.59677,34.71067],[-118.59668,34.71071],[-118.59658,34.71072],[-118.59649,34.7107],[-118.5964,34.71067],[-118.59599,34.71043],[-118.59584,34.71038],[-118.59569,34.71037],[-118.59524,34.71021],[-118.59495,34.71022],[-118.59486,34.71025],[-118.5947,34.7103],[-118.59455,34.71032],[-118.59439,34.71034],[-118.59408,34.71039],[-118.59382,34.71044],[-118.59351,34.71052],[-118.59332,34.71053],[-118.59324,34.71053],[-118.59317,34.71051],[-118.5931,34.71048],[-118.59293,34.71037],[-118.59286,34.71034],[-118.59279,34.71032],[-118.5926,34.71026],[-118.59244,34.71018],[-118.59231,34.71008],[-118.59188,34.7095],[-118.59183,34.70944],[-118.59176,34.70939],[-118.59147,34.70929],[-118.59139,34.70926],[-118.59133,34.7092],[-118.59128,34.70914],[-118.59127,34.70906],[-118.5911,34.70873],[-118.59096,34.70852],[-118.59082,34.70846],[-118.59067,34.70843],[-118.59052,34.70845],[-118.59039,34.70851],[-118.59025,34.7086],[-118.59016,34.70872],[-118.59011,34.70878],[-118.59004,34.70883],[-118.58996,34.70886],[-118.58987,34.70887],[-118.58947,34.70894],[-118.58908,34.70898],[-118.58867,34.709],[-118.58827,34.70897],[-118.58789,34.70895],[-118.58777,34.70894],[-118.58769,34.70889],[-118.58743,34.70865],[-118.58717,34.70849],[-118.58709,34.70845],[-118.58703,34.70839],[-118.58699,34.70832],[-118.58699,34.70824],[-118.58694,34.70802],[-118.58688,34.70792],[-118.5868,34.70785],[-118.58668,34.7078],[-118.58656,34.70778],[-118.58637,34.70775],[-118.58631,34.70774],[-118.58625,34.70772],[-118.58621,34.70768],[-118.58619,34.70764],[-118.58618,34.70759],[-118.58619,34.70754],[-118.58621,34.70749],[-118.58639,34.7072],[-118.58643,34.70714],[-118.58645,34.70707],[-118.58643,34.707],[-118.5864,34.70694],[-118.58634,34.70689],[-118.58626,34.70686],[-118.58598,34.70682],[-118.5859,34.70682],[-118.58584,34.70679],[-118.58579,34.70675],[-118.58576,34.70669],[-118.58543,34.7064],[-118.58511,34.70619],[-118.58499,34.70611],[-118.58484,34.70607],[-118.58469,34.70607],[-118.5842,34.70608],[-118.58371,34.70616],[-118.58326,34.70626],[-118.58304,34.70629],[-118.58283,34.70629],[-118.58181,34.70616],[-118.58152,34.70601],[-118.58129,34.7058],[-118.58113,34.7055],[-118.58109,34.70517],[-118.58103,34.7043],[-118.58104,34.70426],[-118.58106,34.70423],[-118.58109,34.70421],[-118.58113,34.70419],[-118.58118,34.70418],[-118.58122,34.70419],[-118.58126,34.7042],[-118.58159,34.7044],[-118.58165,34.70441],[-118.58171,34.7044],[-118.58176,34.70438],[-118.5818,34.70434],[-118.58207,34.70402],[-118.5822,34.70391],[-118.58241,34.70377],[-118.58245,34.70373],[-118.58248,34.70368],[-118.58249,34.70362],[-118.58247,34.70357],[-118.58243,34.70352],[-118.58238,34.70349],[-118.58231,34.70347],[-118.58215,34.70339],[-118.58196,34.70323],[-118.58182,34.70303],[-118.58171,34.70282],[-118.58165,34.70263],[-118.58164,34.70244],[-118.58163,34.70239],[-118.5816,34.70234],[-118.58155,34.70231],[-118.58149,34.70229],[-118.58143,34.70229],[-118.58137,34.7023],[-118.58074,34.70255],[-118.58067,34.70256],[-118.5806,34.70255],[-118.58053,34.70252],[-118.58048,34.70248],[-118.58045,34.70242],[-118.58045,34.70236],[-118.58041,34.70194],[-118.58038,34.70184],[-118.58032,34.70176],[-118.58024,34.7017],[-118.5799,34.70151],[-118.57974,34.7014],[-118.57971,34.70138],[-118.57968,34.70136],[-118.57964,34.70135],[-118.5796,34.70136],[-118.57956,34.70137],[-118.57954,34.70139],[-118.5794,34.70144],[-118.57931,34.70145],[-118.57923,34.70144],[-118.57915,34.70141],[-118.57898,34.70124],[-118.57892,34.70121],[-118.57885,34.70119],[-118.57879,34.70119],[-118.57872,34.7012],[-118.57866,34.70123],[-118.57837,34.70139],[-118.57831,34.70142],[-118.57824,34.70142],[-118.57817,34.70142],[-118.57811,34.7014],[-118.5777,34.70111],[-118.57748,34.70085],[-118.57726,34.70067],[-118.57703,34.70054],[-118.57689,34.70044],[-118.5768,34.70031],[-118.57676,34.70016],[-118.57671,34.69991],[-118.57661,34.69977],[-118.57647,34.69966],[-118.5763,34.69959],[-118.57611,34.69956],[-118.57541,34.69964],[-118.57507,34.69968],[-118.57473,34.69967],[-118.57427,34.69963],[-118.57418,34.69962],[-118.57409,34.69964],[-118.57402,34.69968],[-118.57396,34.69974],[-118.57373,34.69994],[-118.57366,34.70001],[-118.57349,34.7002],[-118.5734,34.70034],[-118.57332,34.70041],[-118.57321,34.70046],[-118.5731,34.70047],[-118.57298,34.70046],[-118.57287,34.70042],[-118.57236,34.7002],[-118.57195,34.70003],[-118.57177,34.69996],[-118.57147,34.69983],[-118.57093,34.6996],[-118.57089,34.69958],[-118.57054,34.69941],[-118.57047,34.69938],[-118.57018,34.69918],[-118.56987,34.69889],[-118.5696,34.69863],[-118.56934,34.69843],[-118.56889,34.69818],[-118.56846,34.69791],[-118.56805,34.69757],[-118.56768,34.69727],[-118.56715,34.69693],[-118.56668,34.69656],[-118.56635,34.69628],[-118.5663,34.69623],[-118.56623,34.69619],[-118.56615,34.69617],[-118.56607,34.69618],[-118.566,34.6962],[-118.56545,34.69636],[-118.56525,34.69639],[-118.56506,34.69638],[-118.56487,34.69634],[-118.56442,34.69619],[-118.56412,34.69607],[-118.56377,34.69597],[-118.56347,34.69586],[-118.5632,34.6957],[-118.56298,34.69554],[-118.5628,34.69544],[-118.56259,34.69539],[-118.5624,34.6953],[-118.56226,34.69518],[-118.56221,34.69514],[-118.56215,34.69512],[-118.56208,34.69511],[-118.56143,34.6951],[-118.56128,34.69508],[-118.56114,34.69503],[-118.56074,34.69483],[-118.56063,34.69474],[-118.56056,34.69464],[-118.56052,34.69452],[-118.56046,34.6943],[-118.5604,34.69419],[-118.5603,34.69409],[-118.56004,34.69392],[-118.55986,34.69385],[-118.55967,34.6938],[-118.5595,34.69375],[-118.55936,34.69366],[-118.55925,34.69354],[-118.55911,34.69336],[-118.559,34.69327],[-118.55887,34.69321],[-118.55873,34.69318],[-118.55858,34.69319],[-118.55844,34.69323],[-118.55812,34.6933],[-118.55803,34.69332],[-118.55794,34.69332],[-118.55785,34.6933],[-118.55778,34.69326],[-118.55772,34.6932],[-118.55764,34.69312],[-118.55759,34.69309],[-118.55753,34.69307],[-118.55747,34.69306],[-118.5574,34.69307],[-118.55734,34.6931],[-118.55692,34.69325],[-118.55679,34.69327],[-118.55666,34.69325],[-118.55653,34.69321],[-118.55622,34.69308],[-118.55599,34.69303],[-118.55576,34.69303],[-118.55537,34.69305],[-118.55525,34.69305],[-118.55513,34.69302],[-118.55484,34.69289],[-118.55476,34.69284],[-118.55471,34.69277],[-118.55469,34.69269],[-118.5547,34.69261],[-118.55471,34.69228],[-118.5547,34.69198],[-118.55471,34.69174],[-118.55467,34.69159]]}},{"type":"Feature","properties":{"name":"Forest Route 7N01","road_class":"track","surface":"dirt","tracktype":"grade2","source":"Caltrans All Roads + OpenStreetMap explicit surface","source_detail":"osm way 397691168; Caltrans All Roads public-network geometry match","source_tile":"175/406","public_network_source":"Caltrans All Roads (ARNOLD/HPMS)","surface_source":"OpenStreetMap explicit surface tag","caltrans_match_coverage":1.0,"verified_length_m":18247},"geometry":{"type":"LineString","coordinates":[[-118.37826,34.6431],[-118.37836,34.64311],[-118.37857,34.64314],[-118.37865,34.64321],[-118.37876,34.64336],[-118.37892,34.64341],[-118.37915,34.64342],[-118.37926,34.64347],[-118.37937,34.64355],[-118.37945,34.64366],[-118.37949,34.64378],[-118.37951,34.64395],[-118.37953,34.64426],[-118.37949,34.64439],[-118.37936,34.64448],[-118.37927,34.64458],[-118.37919,34.64471],[-118.37916,34.64477],[-118.37918,34.64484],[-118.37929,34.64494],[-118.37948,34.64522],[-118.37955,34.64527],[-118.37964,34.64528],[-118.37976,34.64526],[-118.37993,34.64539],[-118.38004,34.64558],[-118.37999,34.64578],[-118.37983,34.64601],[-118.3797,34.64621],[-118.37967,34.64635],[-118.37969,34.6465],[-118.37989,34.64659],[-118.38008,34.64656],[-118.38048,34.64648],[-118.3808,34.64632],[-118.38098,34.64617],[-118.38119,34.64603],[-118.38151,34.64596],[-118.38174,34.64608],[-118.38195,34.6461],[-118.38215,34.64599],[-118.38233,34.64582],[-118.38243,34.64572],[-118.38257,34.64565],[-118.38273,34.64561],[-118.38294,34.64563],[-118.38307,34.64578],[-118.38313,34.64593],[-118.38322,34.64602],[-118.38339,34.64601],[-118.38355,34.64592],[-118.38372,34.64582],[-118.3841,34.64551],[-118.38437,34.64539],[-118.38478,34.64535],[-118.38504,34.64534],[-118.38529,34.64521],[-118.38544,34.645],[-118.38564,34.64487],[-118.38578,34.64491],[-118.38586,34.64503],[-118.38595,34.64512],[-118.38608,34.64515],[-118.38626,34.64517],[-118.38642,34.64526],[-118.38659,34.64541],[-118.38695,34.64542],[-118.38732,34.64525],[-118.38759,34.64513],[-118.38771,34.64505],[-118.3881,34.64497],[-118.38825,34.64488],[-118.38839,34.64476],[-118.38847,34.64476],[-118.38864,34.64496],[-118.38883,34.64549],[-118.38902,34.64577],[-118.38937,34.64595],[-118.3897,34.64589],[-118.38996,34.64569],[-118.39014,34.64561],[-118.39036,34.6457],[-118.3905,34.64597],[-118.39057,34.64604],[-118.39072,34.64618],[-118.39082,34.64644],[-118.39098,34.64661],[-118.39141,34.64664],[-118.39169,34.64663],[-118.39193,34.64662],[-118.39235,34.64661],[-118.39256,34.64644],[-118.39264,34.6462],[-118.39266,34.6461],[-118.39279,34.64604],[-118.39304,34.64604],[-118.39327,34.64619],[-118.39341,34.64627],[-118.39366,34.6463],[-118.39384,34.64646],[-118.39406,34.64654],[-118.39423,34.64654],[-118.39446,34.6465],[-118.39463,34.64652],[-118.39477,34.64652],[-118.39496,34.64647],[-118.39531,34.64639],[-118.39556,34.64614],[-118.39591,34.6462],[-118.39621,34.64638],[-118.39665,34.6463],[-118.39712,34.64622],[-118.39737,34.64613],[-118.3976,34.64609],[-118.3978,34.64604],[-118.39808,34.64586],[-118.39834,34.64555],[-118.39855,34.64517],[-118.39863,34.6449],[-118.39863,34.64472],[-118.39847,34.64434],[-118.3985,34.64405],[-118.39837,34.64376],[-118.39835,34.64365],[-118.39841,34.64353],[-118.39859,34.64356],[-118.39881,34.64374],[-118.39911,34.64379],[-118.3992,34.64396],[-118.39905,34.64416],[-118.39905,34.64442],[-118.39933,34.64468],[-118.39979,34.64484],[-118.40027,34.64485],[-118.40057,34.64484],[-118.40065,34.64501],[-118.40031,34.64519],[-118.40019,34.64532],[-118.40039,34.64553],[-118.40087,34.64567],[-118.4015,34.64582],[-118.40176,34.64593],[-118.402,34.64614],[-118.40223,34.64614],[-118.40253,34.64598],[-118.40264,34.64583],[-118.40283,34.64555],[-118.4031,34.64534],[-118.4034,34.64536],[-118.40348,34.64541],[-118.40349,34.64552],[-118.40343,34.64587],[-118.40348,34.64599],[-118.40355,34.64603],[-118.40418,34.64632],[-118.4045,34.64642],[-118.40484,34.64662],[-118.40531,34.64673],[-118.40558,34.64678],[-118.40584,34.64674],[-118.40614,34.64669],[-118.40645,34.64661],[-118.4066,34.64655],[-118.40673,34.64665],[-118.40676,34.64684],[-118.40661,34.64704],[-118.40663,34.64717],[-118.4068,34.64732],[-118.40712,34.64748],[-118.40746,34.64752],[-118.40783,34.6475],[-118.40811,34.64749],[-118.40832,34.64754],[-118.40847,34.64774],[-118.40858,34.6478],[-118.40875,34.64794],[-118.40887,34.64802],[-118.40907,34.64803],[-118.40936,34.64799],[-118.40965,34.64798],[-118.41013,34.64803],[-118.41028,34.64796],[-118.4106,34.64801],[-118.41084,34.64812],[-118.41103,34.64816],[-118.41128,34.64814],[-118.41146,34.64803],[-118.41153,34.64792],[-118.41155,34.64772],[-118.41167,34.64766],[-118.41192,34.64781],[-118.41222,34.64789],[-118.41253,34.64824],[-118.41284,34.64839],[-118.41307,34.64834],[-118.41325,34.64821],[-118.41366,34.64822],[-118.41399,34.64832],[-118.41419,34.64821],[-118.4143,34.64773],[-118.4143,34.64743],[-118.41431,34.64721],[-118.41442,34.64709],[-118.41456,34.64722],[-118.41469,34.6475],[-118.41487,34.64781],[-118.41511,34.64814],[-118.41527,34.64829],[-118.41558,34.64842],[-118.41592,34.64843],[-118.41645,34.64839],[-118.41684,34.64827],[-118.41723,34.64839],[-118.41751,34.6483],[-118.41762,34.64809],[-118.41773,34.64796],[-118.41813,34.64796],[-118.41835,34.6481],[-118.41849,34.64816],[-118.41882,34.64809],[-118.41916,34.64818],[-118.41937,34.64845],[-118.41967,34.64858],[-118.42012,34.64861],[-118.42042,34.64861],[-118.42083,34.64865],[-118.42101,34.64867],[-118.42156,34.64871],[-118.42195,34.64876],[-118.42222,34.64884],[-118.42252,34.64894],[-118.42282,34.64891],[-118.42306,34.64869],[-118.42329,34.64853],[-118.42351,34.64843],[-118.42397,34.6483],[-118.42431,34.64819],[-118.42456,34.64802],[-118.42511,34.6477],[-118.42552,34.64758],[-118.42585,34.6474],[-118.42598,34.64724],[-118.42613,34.64704],[-118.42639,34.64702],[-118.42672,34.64713],[-118.42707,34.64724],[-118.42752,34.64754],[-118.42772,34.64776],[-118.4279,34.64791],[-118.42811,34.64796],[-118.42842,34.64788],[-118.42841,34.64774],[-118.42857,34.6476],[-118.42865,34.64751],[-118.42871,34.64739],[-118.42895,34.64725],[-118.42918,34.6472],[-118.42945,34.6473],[-118.42948,34.64739],[-118.42952,34.64751],[-118.42983,34.64745],[-118.42998,34.64714],[-118.43024,34.64688],[-118.4305,34.64671],[-118.43082,34.64665],[-118.43098,34.64678],[-118.43113,34.64695],[-118.43126,34.64705],[-118.4315,34.64697],[-118.43162,34.64672],[-118.43179,34.64658],[-118.432,34.64644],[-118.43227,34.64636],[-118.43252,34.64633],[-118.43275,34.64624],[-118.43291,34.64613],[-118.43321,34.64598],[-118.4335,34.64587],[-118.43384,34.64578],[-118.4341,34.64567],[-118.43501,34.6453],[-118.43505,34.64504],[-118.4349,34.64488],[-118.43498,34.64459],[-118.43507,34.64443],[-118.43526,34.64439],[-118.43556,34.64444],[-118.43597,34.64433],[-118.43691,34.64437],[-118.43733,34.64421],[-118.43822,34.64456],[-118.43862,34.64449],[-118.43884,34.64444],[-118.43902,34.64441],[-118.43911,34.64425],[-118.4394,34.64436],[-118.43956,34.64443],[-118.43977,34.64436],[-118.43992,34.64422],[-118.44005,34.64422],[-118.4404,34.64426],[-118.44051,34.64426],[-118.44067,34.64414],[-118.44067,34.64393],[-118.4407,34.6438],[-118.44091,34.64382],[-118.44107,34.64383],[-118.44116,34.64369],[-118.44117,34.64345],[-118.44125,34.64328],[-118.44148,34.64315],[-118.44172,34.64302],[-118.44205,34.64306],[-118.44227,34.64305],[-118.44248,34.64315],[-118.44272,34.64326],[-118.44292,34.64315],[-118.44302,34.64289],[-118.44316,34.64277],[-118.44342,34.64275],[-118.44368,34.64271],[-118.44384,34.64261],[-118.44374,34.64236],[-118.44348,34.64222],[-118.44329,34.64206],[-118.44323,34.64193],[-118.44325,34.64146],[-118.44336,34.64131],[-118.4436,34.6412],[-118.44363,34.64102],[-118.44358,34.64089],[-118.44355,34.64072],[-118.44358,34.64058],[-118.44367,34.64047],[-118.44391,34.64036],[-118.44407,34.64021],[-118.44422,34.63986],[-118.44423,34.63973],[-118.44431,34.63956],[-118.44463,34.63958],[-118.44491,34.63957],[-118.44507,34.63948],[-118.44521,34.63915],[-118.4454,34.63886],[-118.44539,34.63867],[-118.44537,34.63848],[-118.44551,34.63829],[-118.44586,34.63801],[-118.44613,34.63791],[-118.44637,34.63775],[-118.44669,34.63781],[-118.44685,34.63801],[-118.44713,34.63816],[-118.44728,34.638],[-118.44733,34.63781],[-118.4475,34.63772],[-118.44763,34.63759],[-118.44776,34.63729],[-118.44792,34.63705],[-118.44813,34.63667],[-118.44817,34.63657],[-118.44827,34.63647],[-118.44842,34.63651],[-118.44863,34.63654],[-118.44922,34.63644],[-118.44941,34.63638],[-118.44957,34.63638],[-118.44981,34.63642],[-118.44993,34.63632],[-118.44987,34.63601],[-118.44979,34.63572],[-118.44981,34.63542],[-118.45011,34.63501],[-118.45025,34.6348],[-118.4505,34.63444],[-118.45051,34.63425],[-118.45054,34.63394],[-118.45073,34.63365],[-118.45072,34.63345],[-118.45066,34.63322],[-118.45073,34.63308],[-118.45099,34.63287],[-118.45109,34.63274],[-118.45113,34.63247],[-118.45121,34.63237],[-118.45124,34.63226],[-118.4513,34.63203],[-118.45149,34.63182],[-118.45171,34.6317],[-118.45214,34.6318],[-118.45246,34.63175],[-118.45251,34.63153],[-118.45243,34.63135],[-118.45248,34.63105],[-118.45269,34.63084],[-118.45294,34.63073],[-118.45319,34.63073],[-118.45344,34.63073],[-118.45366,34.63068],[-118.45382,34.63071],[-118.45398,34.63078],[-118.45427,34.63072],[-118.45444,34.63049],[-118.45454,34.6303],[-118.45473,34.62994],[-118.45491,34.62959],[-118.45505,34.62947],[-118.45528,34.62946],[-118.4555,34.62947],[-118.45576,34.62964],[-118.45593,34.62987],[-118.45622,34.62987],[-118.45653,34.62963],[-118.45638,34.6293],[-118.45624,34.62913],[-118.45626,34.62894],[-118.45653,34.62861],[-118.45671,34.62847],[-118.45703,34.62837],[-118.45723,34.62829],[-118.45747,34.6282],[-118.45772,34.62815],[-118.45813,34.62806],[-118.4582,34.6279],[-118.45824,34.62773],[-118.45855,34.62742],[-118.45885,34.62723],[-118.45899,34.6271],[-118.45916,34.62688],[-118.45934,34.62662],[-118.45947,34.62645],[-118.45957,34.62634],[-118.46021,34.6263],[-118.4605,34.62634],[-118.46056,34.62657],[-118.46046,34.62669],[-118.46055,34.62679],[-118.46085,34.62684],[-118.46107,34.62681],[-118.46138,34.62681],[-118.4616,34.62656],[-118.4615,34.62624],[-118.46131,34.62601],[-118.46132,34.62566],[-118.46147,34.62554],[-118.46172,34.62553],[-118.46201,34.62569],[-118.46241,34.62575],[-118.46257,34.62564],[-118.46262,34.62523],[-118.46267,34.62515],[-118.46302,34.62485],[-118.46337,34.62465],[-118.46356,34.62453],[-118.46373,34.62449],[-118.46394,34.62451],[-118.46411,34.62432],[-118.46417,34.62406],[-118.46417,34.6238],[-118.46423,34.62362],[-118.4644,34.62339],[-118.46454,34.6232],[-118.46464,34.62297],[-118.46477,34.62271],[-118.46492,34.62238],[-118.46529,34.62222],[-118.46566,34.62221],[-118.46591,34.62207],[-118.46576,34.62178],[-118.46561,34.62165],[-118.46574,34.62137],[-118.46586,34.6212],[-118.46589,34.62102],[-118.46575,34.6208],[-118.46549,34.6206],[-118.4654,34.62041],[-118.46555,34.61995],[-118.46587,34.61972],[-118.46589,34.61926],[-118.466,34.61869],[-118.46598,34.61848],[-118.46608,34.61832],[-118.46624,34.61816],[-118.46649,34.61794],[-118.46655,34.61771],[-118.46652,34.61733],[-118.4666,34.61726],[-118.4669,34.61712],[-118.46696,34.61698],[-118.46692,34.61653],[-118.46696,34.61642],[-118.46727,34.61639],[-118.46741,34.61628],[-118.46754,34.616],[-118.4677,34.61592],[-118.46806,34.61632],[-118.46844,34.61655],[-118.46908,34.61657],[-118.46962,34.61658],[-118.46993,34.61654],[-118.4702,34.6165],[-118.4704,34.61672],[-118.47041,34.6169],[-118.47052,34.61699],[-118.47107,34.61709],[-118.47123,34.61692],[-118.47134,34.61657],[-118.47146,34.61643],[-118.47186,34.61626],[-118.47234,34.61616],[-118.47268,34.61622],[-118.4729,34.6162],[-118.47316,34.61606],[-118.47329,34.61584],[-118.47342,34.6155],[-118.4735,34.61529],[-118.47372,34.61527],[-118.47392,34.61539],[-118.47419,34.61541],[-118.4744,34.61536],[-118.47448,34.61509],[-118.47451,34.61488],[-118.47458,34.61474],[-118.47488,34.61466],[-118.47528,34.61461],[-118.4757,34.61432],[-118.47569,34.6139],[-118.47599,34.61351],[-118.47666,34.61347],[-118.47684,34.6133],[-118.47689,34.61284],[-118.47687,34.61271],[-118.47699,34.61261],[-118.47725,34.61258],[-118.47741,34.61259],[-118.47831,34.61219],[-118.47835,34.61177],[-118.47858,34.61124],[-118.47901,34.61126],[-118.47952,34.61113],[-118.47991,34.61117],[-118.48084,34.61147],[-118.48101,34.61135],[-118.48106,34.61074],[-118.4812,34.61055],[-118.48183,34.61057],[-118.48192,34.61051],[-118.48196,34.61019],[-118.48204,34.60998],[-118.48269,34.60981],[-118.48301,34.60968],[-118.48314,34.60942],[-118.48337,34.60919],[-118.48379,34.60917],[-118.48391,34.60901],[-118.48391,34.6088],[-118.48407,34.60868],[-118.48444,34.6085],[-118.4845,34.60839],[-118.48432,34.60798],[-118.4843,34.60781],[-118.4845,34.60749],[-118.48449,34.60708],[-118.48522,34.60673],[-118.48538,34.60647],[-118.48513,34.60584],[-118.48512,34.60547],[-118.48532,34.60514],[-118.48558,34.60486],[-118.48589,34.60473],[-118.48616,34.6047],[-118.48672,34.60444],[-118.487,34.60431],[-118.48737,34.60438],[-118.48758,34.60417],[-118.48778,34.60385],[-118.48796,34.60363],[-118.48839,34.60354],[-118.48886,34.60337],[-118.48917,34.60322],[-118.48944,34.60292],[-118.48944,34.6026],[-118.48943,34.60234],[-118.48957,34.60205],[-118.48956,34.6018],[-118.48928,34.60146],[-118.48911,34.60125],[-118.4891,34.60114],[-118.48918,34.60104],[-118.48976,34.60125],[-118.49005,34.60118],[-118.49024,34.60108],[-118.49036,34.60085],[-118.49051,34.60064],[-118.49072,34.6006],[-118.49093,34.60065],[-118.49102,34.60092],[-118.49121,34.601],[-118.49131,34.60094],[-118.49147,34.60064],[-118.49159,34.60041],[-118.49189,34.60011],[-118.49201,34.59989],[-118.492,34.59966],[-118.4921,34.59935],[-118.49224,34.59909],[-118.49265,34.59905],[-118.49285,34.59887],[-118.49292,34.59869],[-118.49319,34.59865],[-118.49335,34.59855],[-118.49345,34.59842],[-118.49351,34.59835],[-118.49379,34.59824],[-118.49383,34.59817],[-118.49375,34.59807],[-118.49352,34.59815],[-118.49333,34.59832],[-118.49318,34.59828],[-118.49295,34.59804],[-118.49279,34.59782],[-118.49265,34.59772],[-118.49263,34.59756],[-118.49272,34.59732],[-118.49284,34.59719],[-118.49296,34.59686],[-118.49297,34.59653],[-118.49298,34.59624],[-118.4929,34.5961],[-118.49268,34.59605],[-118.49244,34.59623],[-118.4926,34.59649],[-118.49257,34.59664],[-118.49235,34.59669],[-118.49208,34.59657],[-118.49184,34.59665],[-118.49168,34.59668],[-118.49155,34.59657],[-118.49164,34.59631],[-118.49173,34.59614],[-118.492,34.59591],[-118.492,34.59578],[-118.49227,34.59554],[-118.49237,34.59535],[-118.4922,34.59521],[-118.49209,34.59497],[-118.49223,34.59482],[-118.49225,34.59467],[-118.49231,34.59424],[-118.49245,34.5938],[-118.49263,34.59326]]}}]}