{"type":"FeatureCollection","features":[{"type":"Feature","properties":{"name":"Bodie Masonic Road","road_class":"unclassified","surface":"ground","source":"OpenStreetMap","source_detail":"osm way 10445554","source_tile":"173/394"},"geometry":{"type":"LineString","coordinates":[[-119.01547,38.21372],[-119.01598,38.21393],[-119.01664,38.2142],[-119.01749,38.2146],[-119.01846,38.21517],[-119.01875,38.2153],[-119.01893,38.21533],[-119.01955,38.2153],[-119.01975,38.21533],[-119.02017,38.21548],[-119.02138,38.21603],[-119.02205,38.21631],[-119.02334,38.21678],[-119.02372,38.21691],[-119.02389,38.21694],[-119.02443,38.21689],[-119.02453,38.2169],[-119.02482,38.21696],[-119.02517,38.21708],[-119.02673,38.2178],[-119.02719,38.21807],[-119.02787,38.21854],[-119.02833,38.2189],[-119.02894,38.21935],[-119.02925,38.21954],[-119.03012,38.22001],[-119.03094,38.22055],[-119.03111,38.22064],[-119.0312,38.22067],[-119.03174,38.22067],[-119.032,38.22071],[-119.03219,38.22079],[-119.03253,38.22103],[-119.0326,38.22106],[-119.03273,38.22109],[-119.03297,38.22109],[-119.03333,38.22108],[-119.03402,38.22115],[-119.03425,38.22119],[-119.03463,38.2213],[-119.03515,38.22147],[-119.03637,38.2219],[-119.03657,38.22199],[-119.03756,38.22224],[-119.03802,38.2223],[-119.03833,38.22236],[-119.03857,38.22246],[-119.03875,38.22259],[-119.03881,38.22266],[-119.03888,38.22282],[-119.03889,38.22299],[-119.03888,38.22332],[-119.0389,38.22371],[-119.03893,38.22408],[-119.03916,38.2248],[-119.03934,38.22525],[-119.03944,38.22559],[-119.03946,38.22574],[-119.03943,38.22677],[-119.03947,38.22729],[-119.03954,38.22772],[-119.03962,38.22803],[-119.03969,38.22827],[-119.03995,38.22907],[-119.04004,38.22924],[-119.0406,38.22998],[-119.04085,38.23066],[-119.04106,38.23099],[-119.04149,38.23156],[-119.04164,38.23171],[-119.04185,38.23187],[-119.04289,38.23227],[-119.04307,38.23237],[-119.04323,38.23253],[-119.04336,38.23266],[-119.04346,38.23281],[-119.04379,38.23331],[-119.04417,38.23395],[-119.0443,38.23413],[-119.04448,38.23432],[-119.04467,38.23448],[-119.04489,38.23473],[-119.04502,38.23495],[-119.0451,38.23518],[-119.04519,38.23531],[-119.04528,38.23541],[-119.04551,38.23555],[-119.04629,38.23584],[-119.04664,38.23603],[-119.04682,38.23621],[-119.04706,38.23648],[-119.04724,38.23661],[-119.04735,38.23666],[-119.04816,38.23689],[-119.04911,38.2371],[-119.04922,38.23713],[-119.04944,38.23724],[-119.04982,38.23754],[-119.05018,38.23786],[-119.05028,38.23799],[-119.0503,38.23803],[-119.05042,38.23861],[-119.05051,38.23876],[-119.05061,38.23886],[-119.05082,38.23901],[-119.05101,38.2391],[-119.05134,38.23923],[-119.05154,38.23934],[-119.05211,38.23968],[-119.05237,38.23979],[-119.05266,38.23989],[-119.05285,38.23992],[-119.0529,38.23992],[-119.05298,38.23986],[-119.05315,38.23961],[-119.05333,38.23943],[-119.05365,38.23925],[-119.05379,38.2392],[-119.05597,38.23879],[-119.05679,38.23866],[-119.05721,38.23872],[-119.05732,38.23877],[-119.05738,38.23884],[-119.05761,38.23915],[-119.05764,38.23923],[-119.0577,38.23956],[-119.05774,38.23966],[-119.05787,38.23988],[-119.05795,38.23999],[-119.05818,38.24022],[-119.05834,38.2403],[-119.0588,38.2404],[-119.05904,38.24048],[-119.05921,38.24048],[-119.05935,38.24043],[-119.05949,38.24036],[-119.05958,38.24027],[-119.05961,38.24021],[-119.05966,38.24006],[-119.05968,38.2399],[-119.05981,38.23964],[-119.05987,38.23919],[-119.05991,38.23904],[-119.05997,38.2389],[-119.06012,38.23864],[-119.06022,38.2385],[-119.06099,38.23786],[-119.06112,38.23781],[-119.06172,38.23764],[-119.0624,38.23749],[-119.06284,38.23746],[-119.06331,38.23753],[-119.06397,38.23762],[-119.06412,38.23763],[-119.06433,38.23767],[-119.06479,38.23783],[-119.06491,38.23785],[-119.06538,38.23786],[-119.06569,38.23778],[-119.06584,38.23769],[-119.06601,38.23766],[-119.06642,38.2377],[-119.06687,38.2378],[-119.06711,38.23782],[-119.06763,38.23793],[-119.06803,38.23797],[-119.06854,38.23815],[-119.06893,38.23826],[-119.06919,38.23831],[-119.06963,38.23835],[-119.07062,38.23826],[-119.07105,38.23814],[-119.07125,38.23801],[-119.07138,38.23795],[-119.07149,38.23795],[-119.07166,38.23807],[-119.07179,38.23829],[-119.07186,38.23849],[-119.07188,38.23864],[-119.07193,38.23915],[-119.07187,38.23967],[-119.07183,38.24037],[-119.07189,38.24103],[-119.07204,38.24149],[-119.07208,38.2417],[-119.07212,38.2421],[-119.07211,38.24247],[-119.07206,38.24276],[-119.07205,38.24313],[-119.07203,38.24336],[-119.07199,38.2435],[-119.07172,38.24391],[-119.07156,38.24409],[-119.07094,38.24465],[-119.07052,38.2451],[-119.0702,38.24538],[-119.06931,38.24602],[-119.06894,38.24634],[-119.06825,38.24701],[-119.06803,38.2473],[-119.06791,38.24753],[-119.06735,38.24881],[-119.06724,38.24915],[-119.06717,38.24948],[-119.067,38.25055],[-119.06689,38.25089],[-119.06687,38.25102],[-119.06688,38.25111],[-119.06707,38.25143],[-119.06737,38.25178],[-119.06761,38.25199],[-119.0679,38.25212],[-119.06824,38.25232],[-119.0684,38.25246],[-119.06888,38.25299],[-119.06896,38.25304],[-119.06909,38.25309],[-119.07027,38.25309],[-119.0705,38.25315],[-119.07134,38.25359],[-119.07158,38.25367],[-119.07224,38.25378],[-119.07249,38.25387],[-119.07288,38.25411],[-119.07357,38.25444],[-119.07454,38.25508],[-119.07479,38.25528],[-119.07492,38.25544],[-119.07523,38.25591],[-119.07542,38.25614],[-119.07561,38.25633],[-119.07587,38.25665],[-119.07627,38.25694],[-119.07633,38.25703],[-119.07638,38.25723],[-119.07637,38.25752],[-119.07641,38.25808],[-119.07636,38.25852],[-119.07644,38.25906],[-119.07642,38.25917],[-119.07632,38.2593],[-119.07605,38.25955],[-119.07596,38.25964],[-119.0757,38.26005],[-119.07558,38.26029],[-119.07541,38.26052],[-119.07527,38.26069],[-119.07508,38.26089],[-119.07416,38.26169],[-119.07398,38.26192],[-119.07396,38.26197],[-119.07395,38.26224],[-119.07397,38.26232],[-119.07401,38.26239],[-119.07424,38.2627],[-119.07429,38.26282],[-119.07429,38.26298],[-119.07418,38.26314],[-119.07404,38.26329],[-119.07377,38.26401],[-119.07369,38.26437],[-119.0737,38.2647],[-119.07375,38.26485],[-119.07387,38.2651],[-119.07388,38.26525],[-119.07392,38.26613],[-119.07389,38.26689],[-119.07386,38.26743],[-119.07388,38.26755],[-119.07395,38.26766],[-119.07402,38.26772],[-119.07413,38.26776],[-119.07425,38.26777],[-119.07464,38.26768],[-119.07483,38.26766],[-119.07562,38.26765],[-119.07601,38.2677],[-119.0768,38.26788],[-119.07693,38.26793],[-119.07709,38.268],[-119.07738,38.2682],[-119.07759,38.26838],[-119.07792,38.26869],[-119.07821,38.26902],[-119.07835,38.26914],[-119.07855,38.26925],[-119.07894,38.26944],[-119.07911,38.26956],[-119.07947,38.26997],[-119.07955,38.27003],[-119.07961,38.27007],[-119.08026,38.27022],[-119.08207,38.27112],[-119.08273,38.27138],[-119.08288,38.27143],[-119.08305,38.27144],[-119.08315,38.27143],[-119.08324,38.27135],[-119.08333,38.27119],[-119.08345,38.27108],[-119.08375,38.27104],[-119.08391,38.27105],[-119.08402,38.27112],[-119.08408,38.27125],[-119.08421,38.27139],[-119.08436,38.27148],[-119.08454,38.27152],[-119.08472,38.2715],[-119.08483,38.27145],[-119.08497,38.27137],[-119.08526,38.27117],[-119.08544,38.2711],[-119.08592,38.27095],[-119.08666,38.27079],[-119.0891,38.26984],[-119.08943,38.26973],[-119.08974,38.26968],[-119.08999,38.26966],[-119.09026,38.26965],[-119.09065,38.26968],[-119.09174,38.26984],[-119.09193,38.26988],[-119.09225,38.26998],[-119.0925,38.2701],[-119.09302,38.27049],[-119.09342,38.27085],[-119.09364,38.27114],[-119.09373,38.2713],[-119.0941,38.27278],[-119.09418,38.27323],[-119.09427,38.27376],[-119.09427,38.27423],[-119.09426,38.2746],[-119.09428,38.27487],[-119.09432,38.27497],[-119.09462,38.27545],[-119.09468,38.27561],[-119.09463,38.27595],[-119.09473,38.27628],[-119.09491,38.27661],[-119.09511,38.27708],[-119.09533,38.27744],[-119.09538,38.27757],[-119.09546,38.27791],[-119.09541,38.27843],[-119.09544,38.27854],[-119.09562,38.27881],[-119.09578,38.27896],[-119.09594,38.27906],[-119.09616,38.27916],[-119.09639,38.27917],[-119.09665,38.27912],[-119.0968,38.27912],[-119.09733,38.27916],[-119.09761,38.27922],[-119.09785,38.27932],[-119.09794,38.27938],[-119.09814,38.27956],[-119.09833,38.27968],[-119.09846,38.27973],[-119.09868,38.27977],[-119.0988,38.27976],[-119.0991,38.2797],[-119.1004,38.27954],[-119.10097,38.27955],[-119.10147,38.27941],[-119.10214,38.27937],[-119.1028,38.27925],[-119.10346,38.27917],[-119.10454,38.27906],[-119.10474,38.27909],[-119.10492,38.27916],[-119.10506,38.27919],[-119.10557,38.2792],[-119.10577,38.27927],[-119.10585,38.27933],[-119.10627,38.2799],[-119.10638,38.28007],[-119.10646,38.28028],[-119.10686,38.2809],[-119.10697,38.28103],[-119.10711,38.28116],[-119.10745,38.28144],[-119.10795,38.2818],[-119.10849,38.28215],[-119.10892,38.28246],[-119.10916,38.28268],[-119.10957,38.28315],[-119.10997,38.28372],[-119.1104,38.28441],[-119.11051,38.28464],[-119.11061,38.28495],[-119.11068,38.28517],[-119.11069,38.28532],[-119.11068,38.28561],[-119.11063,38.28601],[-119.1107,38.28645],[-119.11065,38.28677],[-119.1105,38.2875],[-119.1103,38.28809],[-119.11008,38.28866],[-119.1099,38.2893],[-119.1099,38.28941],[-119.10991,38.28946],[-119.11014,38.28968],[-119.11021,38.28976],[-119.11023,38.28985],[-119.11027,38.29101],[-119.11031,38.29115],[-119.11051,38.29163],[-119.11075,38.29196],[-119.1109,38.2923],[-119.11112,38.29263],[-119.11114,38.29273],[-119.1111,38.29351],[-119.1112,38.29393],[-119.11142,38.29443],[-119.11148,38.29471],[-119.11148,38.29485],[-119.11146,38.29497],[-119.11137,38.29513],[-119.11134,38.29525],[-119.11134,38.29541],[-119.11145,38.29575],[-119.11141,38.29602],[-119.11147,38.29629],[-119.11148,38.2964],[-119.11143,38.29707],[-119.11148,38.29733],[-119.11157,38.29751],[-119.11176,38.29769],[-119.1118,38.29778],[-119.11172,38.29803],[-119.11175,38.29832],[-119.11181,38.29866],[-119.11177,38.29934],[-119.11174,38.29944],[-119.11168,38.29956],[-119.1113,38.30004],[-119.11119,38.30025],[-119.1111,38.30049],[-119.11105,38.30071],[-119.11107,38.30092],[-119.11115,38.30123],[-119.11134,38.30158],[-119.1115,38.30219],[-119.11154,38.30225],[-119.11162,38.30232],[-119.11204,38.3026],[-119.11214,38.30273],[-119.11215,38.30288],[-119.11213,38.30337],[-119.11206,38.304],[-119.11208,38.30421],[-119.11223,38.30459],[-119.11246,38.30509],[-119.11274,38.30559],[-119.11284,38.30581],[-119.11292,38.30606],[-119.11295,38.30683],[-119.11298,38.30691],[-119.11304,38.30701],[-119.11332,38.30731],[-119.11423,38.30787],[-119.11439,38.308],[-119.11454,38.30815],[-119.11459,38.30825],[-119.11464,38.30842],[-119.11464,38.30856],[-119.11458,38.30911],[-119.11458,38.30933],[-119.11461,38.30955],[-119.11466,38.30967],[-119.11501,38.31032],[-119.11525,38.3107],[-119.11545,38.31109],[-119.11563,38.31152],[-119.11583,38.31195],[-119.11624,38.3125],[-119.11632,38.31264],[-119.11646,38.31297],[-119.11645,38.31321],[-119.11632,38.31385],[-119.11626,38.314],[-119.11602,38.31432],[-119.1159,38.31464],[-119.11581,38.3153],[-119.11571,38.31554],[-119.11567,38.31584],[-119.11566,38.31615],[-119.11573,38.31669],[-119.11575,38.31697],[-119.1158,38.31732],[-119.11589,38.31757],[-119.11587,38.31784],[-119.11589,38.31801],[-119.11607,38.31827],[-119.11628,38.31849],[-119.11659,38.31881],[-119.11663,38.31902],[-119.11662,38.31917],[-119.11664,38.31933],[-119.11667,38.31949],[-119.11725,38.32023],[-119.11734,38.3204],[-119.11737,38.32051],[-119.11735,38.32075],[-119.11728,38.321],[-119.11674,38.32214],[-119.11652,38.32278],[-119.11634,38.32304],[-119.1162,38.32335],[-119.11612,38.32362],[-119.11601,38.32399],[-119.11584,38.32462],[-119.11575,38.32524],[-119.11545,38.32591],[-119.11535,38.32607],[-119.11525,38.32628],[-119.11509,38.32684],[-119.11487,38.32747],[-119.11477,38.32794],[-119.11482,38.3284],[-119.11491,38.32873],[-119.11515,38.32929],[-119.1152,38.32959],[-119.11527,38.32983],[-119.11563,38.33049],[-119.11592,38.33092],[-119.11627,38.33141],[-119.11664,38.33212],[-119.11764,38.33338],[-119.1182,38.33406],[-119.11829,38.33414],[-119.11849,38.33428],[-119.11872,38.33439],[-119.11885,38.33442],[-119.11898,38.33445],[-119.11945,38.33451],[-119.11986,38.33459],[-119.12124,38.33503],[-119.12152,38.3351],[-119.12183,38.33514],[-119.12232,38.33514],[-119.12301,38.33512],[-119.12315,38.33515],[-119.12328,38.33519],[-119.1234,38.33526],[-119.12374,38.33554],[-119.12392,38.33573],[-119.12399,38.33583],[-119.12434,38.33651],[-119.12454,38.33696],[-119.12428,38.33732],[-119.12381,38.3379],[-119.12274,38.339],[-119.12237,38.33939],[-119.12171,38.34013],[-119.12128,38.34065],[-119.12116,38.3408],[-119.12108,38.34097],[-119.12102,38.34117],[-119.12089,38.34177],[-119.1208,38.34206],[-119.12041,38.3429],[-119.12002,38.34361],[-119.11979,38.34386],[-119.11965,38.34397],[-119.11889,38.34448],[-119.11868,38.34464],[-119.11811,38.34502],[-119.11782,38.34527],[-119.11761,38.3454],[-119.11731,38.34554],[-119.11709,38.34561],[-119.11643,38.34597],[-119.11608,38.3462],[-119.1159,38.34629],[-119.11537,38.3464],[-119.11513,38.34648],[-119.11482,38.3466],[-119.1146,38.34673],[-119.11436,38.34695],[-119.11429,38.34703],[-119.1142,38.34721],[-119.11415,38.34739],[-119.1141,38.34794],[-119.1141,38.34808],[-119.11414,38.34841],[-119.11422,38.34883],[-119.11429,38.34908],[-119.11444,38.3494],[-119.11448,38.34958],[-119.1145,38.3497],[-119.11445,38.34981],[-119.1144,38.34991],[-119.11434,38.35003],[-119.11419,38.35017],[-119.11396,38.35026],[-119.11365,38.35028],[-119.11339,38.35028],[-119.11325,38.35031],[-119.11312,38.35035],[-119.11213,38.35084],[-119.11152,38.35116],[-119.11143,38.3512],[-119.11136,38.3513],[-119.11134,38.35142],[-119.11138,38.35157],[-119.11154,38.35182],[-119.11188,38.3522],[-119.11206,38.35235],[-119.11235,38.35251],[-119.11322,38.35285],[-119.11384,38.35304],[-119.11425,38.35315],[-119.11488,38.35342],[-119.11517,38.35352],[-119.11559,38.35363],[-119.11601,38.35372],[-119.11634,38.35379],[-119.11671,38.35391],[-119.11686,38.35397],[-119.11716,38.35405],[-119.11731,38.35406],[-119.1175,38.35412],[-119.11759,38.35418],[-119.11805,38.3546]]}},{"type":"Feature","properties":{"name":"(unnamed public road)","road_class":"track","surface":"unpaved","source":"OpenStreetMap","source_detail":"osm way 849054884","source_tile":"173/394"},"geometry":{"type":"LineString","coordinates":[[-119.17609,38.24367],[-119.17577,38.24378],[-119.17502,38.24416],[-119.17487,38.2442],[-119.17466,38.24422],[-119.17446,38.24428],[-119.17437,38.24429],[-119.17402,38.24427],[-119.17377,38.24416],[-119.17358,38.24415],[-119.17324,38.24405],[-119.17268,38.24394],[-119.17216,38.24391],[-119.17156,38.24397],[-119.17028,38.24394],[-119.1697,38.24386],[-119.16929,38.24381],[-119.16879,38.24367],[-119.16861,38.24365],[-119.16848,38.24365],[-119.16822,38.24369],[-119.16758,38.24389],[-119.16731,38.24393],[-119.16688,38.24403],[-119.16649,38.24402],[-119.16639,38.244],[-119.16622,38.24395],[-119.16603,38.24385],[-119.16589,38.24381],[-119.16574,38.24379],[-119.16545,38.24378],[-119.16474,38.24382],[-119.16452,38.24382],[-119.16429,38.24387],[-119.1639,38.24391],[-119.1634,38.24403],[-119.16334,38.24407],[-119.16318,38.24421],[-119.16269,38.24447],[-119.16261,38.24448],[-119.16247,38.24446],[-119.16218,38.24447],[-119.16178,38.24454],[-119.16172,38.24457],[-119.1615,38.24477],[-119.16141,38.24483],[-119.16096,38.24501],[-119.16076,38.24505],[-119.16051,38.24509],[-119.16005,38.24504],[-119.15963,38.24523],[-119.15939,38.24524],[-119.15909,38.24519],[-119.15855,38.2452],[-119.15838,38.24523],[-119.15828,38.24527],[-119.15827,38.24541],[-119.15833,38.24571],[-119.15843,38.24582],[-119.15872,38.24603],[-119.15875,38.24611],[-119.15874,38.24629],[-119.15876,38.24646],[-119.15894,38.24662],[-119.15902,38.2468],[-119.15924,38.24691],[-119.15959,38.24707],[-119.15986,38.24722],[-119.16061,38.24748],[-119.16081,38.24769],[-119.16091,38.24775],[-119.161,38.24779],[-119.16113,38.24785],[-119.1613,38.248],[-119.16149,38.24805],[-119.16158,38.24809],[-119.16202,38.24859],[-119.16209,38.24862],[-119.16227,38.24866],[-119.16234,38.2487],[-119.1626,38.2489],[-119.16267,38.24894],[-119.1627,38.24897],[-119.16271,38.24902],[-119.16266,38.24924],[-119.16245,38.2496],[-119.16233,38.24985],[-119.16231,38.25004],[-119.16232,38.25018],[-119.1624,38.25052],[-119.16242,38.25072],[-119.16245,38.25082],[-119.16254,38.25101],[-119.16259,38.25116],[-119.1626,38.25132],[-119.16255,38.25157],[-119.1626,38.25205],[-119.16271,38.25236],[-119.16275,38.25246],[-119.16272,38.25259],[-119.16265,38.25269],[-119.16245,38.25286],[-119.16212,38.25317],[-119.16191,38.25326],[-119.16182,38.25332],[-119.16146,38.25367],[-119.16114,38.25387],[-119.16104,38.25397],[-119.16083,38.25427],[-119.16063,38.25464],[-119.16048,38.25507],[-119.16014,38.25575],[-119.16013,38.25589],[-119.16011,38.25599],[-119.16001,38.25614],[-119.1598,38.25635],[-119.15959,38.25667],[-119.15936,38.25694],[-119.15929,38.25711],[-119.15925,38.25731],[-119.15925,38.25777],[-119.15928,38.25795],[-119.15931,38.25842],[-119.15924,38.25868],[-119.15923,38.25903],[-119.15917,38.25927],[-119.15915,38.25955],[-119.15917,38.25965],[-119.15932,38.25995],[-119.15938,38.2602],[-119.15945,38.2603],[-119.15949,38.26039],[-119.15945,38.2608],[-119.15951,38.26098],[-119.15954,38.26117],[-119.15952,38.26131],[-119.15953,38.26145],[-119.15956,38.26159],[-119.15966,38.26183],[-119.15977,38.26218],[-119.15974,38.26242],[-119.15974,38.26253],[-119.15979,38.26292],[-119.15979,38.26309],[-119.15983,38.26327],[-119.15983,38.26345],[-119.15991,38.26397],[-119.15991,38.26407],[-119.15988,38.26421],[-119.15971,38.26444],[-119.15984,38.26477],[-119.15975,38.26515],[-119.15968,38.26523],[-119.15935,38.26543],[-119.15896,38.26581],[-119.15871,38.26608],[-119.15831,38.2664],[-119.15807,38.26657],[-119.15768,38.26687],[-119.15726,38.26716],[-119.15707,38.26727],[-119.15694,38.26739],[-119.15688,38.26747],[-119.15677,38.26771],[-119.15674,38.26788],[-119.15671,38.26802],[-119.15665,38.26814],[-119.15659,38.26822],[-119.15634,38.2684],[-119.15621,38.26845],[-119.15592,38.26854],[-119.15554,38.26878],[-119.1552,38.26891],[-119.155,38.26911],[-119.15484,38.26934],[-119.15448,38.26974],[-119.15422,38.2699],[-119.15395,38.27025],[-119.15378,38.27055],[-119.15391,38.27091],[-119.15392,38.27104],[-119.15381,38.27135],[-119.15376,38.27144],[-119.15368,38.27153],[-119.15336,38.27175],[-119.15298,38.27198],[-119.15164,38.27253],[-119.15161,38.27256],[-119.15158,38.27269],[-119.15146,38.27291],[-119.15104,38.27337],[-119.15067,38.27404],[-119.15058,38.27411],[-119.15028,38.27427],[-119.15018,38.27436],[-119.15013,38.27446],[-119.15006,38.27478],[-119.14985,38.27513],[-119.14978,38.27538],[-119.14972,38.2755],[-119.14951,38.27576],[-119.14915,38.2761],[-119.14899,38.2763],[-119.14881,38.27654],[-119.14872,38.2766],[-119.14862,38.27662],[-119.14853,38.27661],[-119.14845,38.27658],[-119.14836,38.2765],[-119.148,38.27636],[-119.14783,38.27648]]}},{"type":"Feature","properties":{"name":"Transmission Line Road","road_class":"unclassified","surface":"unpaved","source":"OpenStreetMap","source_detail":"osm way 1010741859","source_tile":"173/394"},"geometry":{"type":"LineString","coordinates":[[-118.83111,38.24339],[-118.83113,38.24342],[-118.8313,38.24371],[-118.83142,38.24395],[-118.83151,38.24413],[-118.83168,38.24455],[-118.83195,38.24493],[-118.83202,38.24506],[-118.83204,38.24513],[-118.83211,38.24581],[-118.8321,38.2459],[-118.83204,38.24627],[-118.832,38.24649],[-118.83199,38.24659],[-118.832,38.24668],[-118.83207,38.2468],[-118.83232,38.24725],[-118.83256,38.24781],[-118.83284,38.24841],[-118.83305,38.24891],[-118.83324,38.24938],[-118.83333,38.24959],[-118.83342,38.2499],[-118.83348,38.25023],[-118.83347,38.25072],[-118.83349,38.25105],[-118.83353,38.25127],[-118.83358,38.25142],[-118.83363,38.25154],[-118.83372,38.2517],[-118.83421,38.25236],[-118.83435,38.25253],[-118.83452,38.25267],[-118.83469,38.25277],[-118.8348,38.25286],[-118.83484,38.25297],[-118.83493,38.25316],[-118.83499,38.2533],[-118.83507,38.25342],[-118.83549,38.25401],[-118.8357,38.25435],[-118.8358,38.25449],[-118.83589,38.25456],[-118.83605,38.25465],[-118.83636,38.25483],[-118.83654,38.25491],[-118.83664,38.25493],[-118.83674,38.25494],[-118.83685,38.25494],[-118.83694,38.25493],[-118.83713,38.2549],[-118.83723,38.25492],[-118.83727,38.25499],[-118.8373,38.25506],[-118.83729,38.25513],[-118.83724,38.2552],[-118.8372,38.25524],[-118.83673,38.25556],[-118.83657,38.25565],[-118.8365,38.2557],[-118.8364,38.25571],[-118.83615,38.25572],[-118.83595,38.25574],[-118.8358,38.25575],[-118.83572,38.25579],[-118.83569,38.25583],[-118.83568,38.2559],[-118.83568,38.25594],[-118.83569,38.25599],[-118.83576,38.2561],[-118.83604,38.25636],[-118.83643,38.25675],[-118.83664,38.25693],[-118.83668,38.25698],[-118.83674,38.25706],[-118.83689,38.25732],[-118.83693,38.2574],[-118.837,38.25746],[-118.83708,38.25751],[-118.83722,38.25756],[-118.8373,38.25766],[-118.8373,38.25792],[-118.83732,38.2581],[-118.83739,38.25847],[-118.83748,38.25875],[-118.83764,38.25915],[-118.83779,38.25949],[-118.83782,38.25959],[-118.83784,38.25969],[-118.83785,38.25999],[-118.83788,38.26017],[-118.8379,38.26047],[-118.83794,38.26071],[-118.83798,38.26079],[-118.83802,38.26083],[-118.83807,38.26086],[-118.83811,38.26089],[-118.83823,38.26089],[-118.83853,38.26084],[-118.83867,38.26082],[-118.83873,38.26083],[-118.83879,38.26086],[-118.83887,38.2609],[-118.8389,38.26094],[-118.83892,38.261],[-118.83891,38.26113],[-118.83889,38.26125],[-118.83882,38.26141],[-118.83877,38.26154],[-118.83877,38.26163],[-118.83879,38.26171],[-118.83891,38.26186],[-118.83901,38.26198],[-118.83909,38.26215],[-118.83915,38.26233],[-118.83922,38.26255],[-118.83926,38.26278],[-118.83933,38.26299],[-118.83944,38.26321],[-118.83952,38.26333],[-118.83956,38.26338],[-118.83964,38.26344],[-118.83977,38.26352],[-118.83997,38.26359],[-118.84009,38.26363],[-118.84018,38.2637],[-118.84027,38.26379],[-118.84037,38.26403],[-118.84062,38.26446],[-118.84066,38.26469],[-118.8407,38.26484],[-118.84076,38.265],[-118.84088,38.26524],[-118.84118,38.26591],[-118.84132,38.26618],[-118.84153,38.26659],[-118.84172,38.26688],[-118.84184,38.26718],[-118.84197,38.26751],[-118.8423,38.26831],[-118.84247,38.26869],[-118.84283,38.26937],[-118.84325,38.27041],[-118.84336,38.27058],[-118.84343,38.27065],[-118.84392,38.27091],[-118.84434,38.27119],[-118.84461,38.27147],[-118.84481,38.27181],[-118.84486,38.27208],[-118.84488,38.27247],[-118.84477,38.27281],[-118.84457,38.27308],[-118.84445,38.27331],[-118.84429,38.27386],[-118.84427,38.27426],[-118.8445,38.27479],[-118.84556,38.27688],[-118.84584,38.2773],[-118.84618,38.27805],[-118.84634,38.27855],[-118.84654,38.27886],[-118.84665,38.27907],[-118.84669,38.27929]]}}]}