{"type":"FeatureCollection","features":[{"type":"Feature","properties":{"name":"(unnamed public road)","road_class":"track","surface":"dirt","source":"Caltrans All Roads + OpenStreetMap explicit surface","source_detail":"osm way 811209060; Caltrans All Roads public-network geometry match","source_tile":"166/387","public_network_source":"Caltrans All Roads (ARNOLD/HPMS)","surface_source":"OpenStreetMap explicit surface tag","caltrans_match_coverage":0.993,"verified_length_m":10115},"geometry":{"type":"LineString","coordinates":[[-121.66421,40.05348],[-121.66407,40.05353],[-121.66395,40.0536],[-121.66379,40.05374],[-121.66363,40.05389],[-121.66345,40.05415],[-121.66336,40.05435],[-121.66324,40.05469],[-121.66318,40.05508],[-121.66312,40.05551],[-121.663,40.056],[-121.66284,40.05628],[-121.6627,40.05645],[-121.66269,40.05648],[-121.66264,40.05653],[-121.66258,40.05657],[-121.66254,40.05658],[-121.66249,40.05659],[-121.66244,40.05659],[-121.66123,40.05669],[-121.6609,40.05676],[-121.6608,40.05681],[-121.66068,40.05691],[-121.66058,40.05702],[-121.66052,40.05705],[-121.66041,40.05707],[-121.66028,40.0571],[-121.65998,40.05708],[-121.6598,40.05706],[-121.65973,40.05705],[-121.65966,40.05703],[-121.65961,40.05701],[-121.65957,40.05698],[-121.65949,40.05693],[-121.65946,40.05689],[-121.65941,40.05682],[-121.6594,40.05678],[-121.65938,40.05671],[-121.65938,40.05667],[-121.65928,40.05648],[-121.65888,40.05605],[-121.65881,40.05599],[-121.65874,40.05595],[-121.65866,40.0559],[-121.65857,40.05587],[-121.65848,40.05584],[-121.65836,40.05581],[-121.65831,40.05581],[-121.65826,40.05582],[-121.6582,40.05584],[-121.65808,40.0559],[-121.65799,40.05599],[-121.65791,40.0561],[-121.65777,40.05633],[-121.65764,40.05656],[-121.65757,40.05666],[-121.65736,40.0569],[-121.65726,40.05703],[-121.65718,40.05717],[-121.65714,40.05725],[-121.65712,40.05736],[-121.65712,40.05742],[-121.65716,40.05752],[-121.65721,40.0576],[-121.65727,40.05768],[-121.65735,40.05776],[-121.65745,40.05784],[-121.65752,40.05795],[-121.65757,40.05805],[-121.6576,40.05815],[-121.65761,40.05825],[-121.65762,40.05835],[-121.65761,40.05842],[-121.65758,40.05852],[-121.65752,40.05877],[-121.65755,40.05892],[-121.65759,40.05903],[-121.65771,40.05922],[-121.65782,40.05932],[-121.65796,40.05944],[-121.65838,40.05969],[-121.65859,40.0598],[-121.65887,40.05996],[-121.659,40.06004],[-121.65908,40.06011],[-121.65918,40.06021],[-121.65927,40.06032],[-121.65933,40.06043],[-121.65939,40.06055],[-121.65942,40.06067],[-121.65945,40.06079],[-121.65945,40.06092],[-121.65943,40.06104],[-121.6594,40.06118],[-121.65927,40.06135],[-121.65919,40.06149],[-121.65913,40.06164],[-121.6591,40.06179],[-121.65908,40.06195],[-121.65908,40.0621],[-121.65911,40.06225],[-121.65915,40.0624],[-121.6592,40.06248],[-121.65925,40.06259],[-121.65929,40.06271],[-121.65931,40.06283],[-121.65931,40.06295],[-121.6593,40.06307],[-121.65927,40.06319],[-121.65922,40.0633],[-121.65916,40.06341],[-121.6589,40.06364],[-121.6587,40.06385],[-121.65854,40.06408],[-121.6584,40.06434],[-121.65842,40.06444],[-121.6585,40.06453],[-121.65854,40.06462],[-121.65856,40.06473],[-121.65859,40.06483],[-121.65861,40.06494],[-121.65861,40.06504],[-121.6586,40.06515],[-121.65857,40.06526],[-121.65853,40.06536],[-121.65848,40.06546],[-121.65841,40.06555],[-121.65835,40.06562],[-121.65795,40.06605],[-121.65791,40.06609],[-121.65789,40.06614],[-121.65786,40.06624],[-121.65785,40.06629],[-121.65785,40.06634],[-121.65786,40.06639],[-121.65788,40.06644],[-121.6579,40.06649],[-121.65793,40.06654],[-121.65794,40.06664],[-121.65795,40.06672],[-121.65794,40.06681],[-121.65792,40.06689],[-121.65788,40.06697],[-121.65784,40.06705],[-121.65779,40.06712],[-121.65773,40.06719],[-121.65764,40.06727],[-121.65756,40.06735],[-121.65747,40.06743],[-121.65738,40.0675],[-121.65727,40.06756],[-121.65715,40.06762],[-121.65703,40.06766],[-121.65692,40.06769],[-121.65668,40.06772],[-121.65645,40.06773],[-121.65618,40.06772],[-121.65596,40.06772],[-121.65569,40.06771],[-121.65532,40.06771],[-121.65523,40.06773],[-121.65515,40.06775],[-121.65511,40.06777],[-121.65504,40.06781],[-121.65498,40.06787],[-121.65495,40.06793],[-121.65492,40.06802],[-121.6551,40.06862],[-121.65531,40.06903],[-121.65554,40.06946],[-121.65557,40.06952],[-121.65559,40.06957],[-121.6556,40.06963],[-121.6556,40.06969],[-121.65559,40.06974],[-121.65558,40.0698],[-121.65556,40.06985],[-121.65553,40.06991],[-121.65549,40.06996],[-121.65545,40.07],[-121.6554,40.07005],[-121.65534,40.07009],[-121.65518,40.07023],[-121.65506,40.07032],[-121.65493,40.0704],[-121.65478,40.07047],[-121.65459,40.07053],[-121.65451,40.07054],[-121.65438,40.07053],[-121.6543,40.07053],[-121.65423,40.07054],[-121.65416,40.07055],[-121.6541,40.07057],[-121.65403,40.07059],[-121.65397,40.07062],[-121.65391,40.07065],[-121.65386,40.07069],[-121.65381,40.07073],[-121.65377,40.07077],[-121.65372,40.07086],[-121.65341,40.07155],[-121.65325,40.07198],[-121.65323,40.07207],[-121.65322,40.07217],[-121.65322,40.07226],[-121.65323,40.07236],[-121.65326,40.07245],[-121.65331,40.07254],[-121.65339,40.07267],[-121.65354,40.07308],[-121.65367,40.07363],[-121.65369,40.07379],[-121.65369,40.07394],[-121.65368,40.07409],[-121.65364,40.07425],[-121.6536,40.07436],[-121.65344,40.07471],[-121.65288,40.07569],[-121.65284,40.07575],[-121.65281,40.07581],[-121.65281,40.07587],[-121.65281,40.07591],[-121.65279,40.07595],[-121.65275,40.07604],[-121.65273,40.07607],[-121.6527,40.07611],[-121.65264,40.07616],[-121.65247,40.0764],[-121.65238,40.0765],[-121.65235,40.07656],[-121.65233,40.07661],[-121.65232,40.07666],[-121.65231,40.07671],[-121.65231,40.07676],[-121.65233,40.07685],[-121.65235,40.07689],[-121.65235,40.07694],[-121.65234,40.077],[-121.65232,40.07705],[-121.65228,40.0771],[-121.65223,40.07714],[-121.65217,40.07717],[-121.65212,40.07719],[-121.65158,40.0777],[-121.65125,40.07812],[-121.65095,40.07839],[-121.64905,40.07971],[-121.64896,40.07975],[-121.64889,40.07979],[-121.64883,40.07985],[-121.64879,40.07991],[-121.64877,40.07997],[-121.64877,40.08004],[-121.64879,40.08011],[-121.64885,40.08022],[-121.64887,40.08027],[-121.64889,40.08032],[-121.64889,40.08037],[-121.64889,40.08043],[-121.64889,40.08048],[-121.64888,40.08053],[-121.64886,40.08058],[-121.64883,40.08063],[-121.6488,40.08067],[-121.64876,40.08071],[-121.64872,40.08075],[-121.64867,40.08079],[-121.64861,40.08082],[-121.64801,40.08126],[-121.64786,40.08142],[-121.64771,40.08157],[-121.64764,40.0817],[-121.6476,40.08179],[-121.64749,40.08199],[-121.6474,40.0822],[-121.64736,40.08235],[-121.64735,40.0825],[-121.64734,40.08272],[-121.64737,40.08289],[-121.64742,40.08306],[-121.64761,40.08349],[-121.64765,40.08376],[-121.64766,40.08387],[-121.64764,40.08397],[-121.64762,40.08408],[-121.64758,40.08418],[-121.64753,40.08427],[-121.64746,40.08437],[-121.64742,40.08442],[-121.64722,40.08467],[-121.64712,40.0848],[-121.64706,40.08492],[-121.64699,40.0851],[-121.64694,40.08532],[-121.64696,40.08538],[-121.64697,40.08545],[-121.64697,40.08553],[-121.64696,40.08559],[-121.64689,40.08578],[-121.64682,40.08591],[-121.64671,40.08607],[-121.64668,40.08613],[-121.64663,40.08622],[-121.64657,40.0863],[-121.6465,40.08638],[-121.64641,40.08646],[-121.64632,40.08652],[-121.64622,40.08658],[-121.64611,40.08664],[-121.64599,40.08668],[-121.64588,40.08671],[-121.64575,40.08673],[-121.64566,40.08675],[-121.64558,40.08678],[-121.6455,40.08682],[-121.64542,40.08686],[-121.64535,40.08691],[-121.64529,40.08697],[-121.64523,40.08703],[-121.64519,40.08709],[-121.64515,40.08716],[-121.64506,40.08739],[-121.64473,40.08806],[-121.64457,40.08835],[-121.64438,40.08879],[-121.6443,40.08929],[-121.64418,40.09003],[-121.64417,40.0901],[-121.64414,40.09016],[-121.64411,40.09022],[-121.64407,40.09027],[-121.64403,40.09032],[-121.64397,40.09037],[-121.64392,40.09041],[-121.64385,40.09045],[-121.64378,40.09048],[-121.64315,40.09089],[-121.64251,40.09134],[-121.64163,40.09197],[-121.64155,40.09208],[-121.64146,40.09218],[-121.64136,40.09227],[-121.64125,40.09236],[-121.64112,40.09243],[-121.64099,40.09249],[-121.64085,40.09254],[-121.6407,40.09258],[-121.64055,40.09261],[-121.64039,40.09262],[-121.64024,40.09262],[-121.64008,40.09262],[-121.63993,40.09259],[-121.63978,40.09256],[-121.63885,40.0924],[-121.63861,40.09228],[-121.63841,40.0921],[-121.63832,40.09193],[-121.63822,40.09181],[-121.63811,40.09166],[-121.63801,40.09148],[-121.63789,40.09121],[-121.63778,40.0909],[-121.63772,40.09071],[-121.63765,40.09065],[-121.63758,40.0906],[-121.63751,40.09056],[-121.63744,40.09053],[-121.63736,40.09051],[-121.63728,40.09049],[-121.6372,40.09048],[-121.63711,40.09047],[-121.63698,40.09048],[-121.63668,40.09048],[-121.63641,40.09051],[-121.63615,40.09055],[-121.6359,40.09062],[-121.63576,40.09067],[-121.63548,40.0908],[-121.63525,40.09093],[-121.63504,40.09108],[-121.63486,40.09124],[-121.6347,40.09142],[-121.63452,40.09167],[-121.63434,40.09191],[-121.63405,40.09223],[-121.63325,40.09294],[-121.63271,40.09336],[-121.63256,40.09349],[-121.63247,40.09359],[-121.63239,40.0937],[-121.63233,40.09382],[-121.63228,40.09394],[-121.63226,40.09401],[-121.63218,40.09416],[-121.63209,40.09428],[-121.63198,40.0944],[-121.63186,40.09451],[-121.63172,40.09461],[-121.63153,40.09471],[-121.63143,40.09475],[-121.63129,40.09479],[-121.63114,40.09481],[-121.63098,40.09483],[-121.63083,40.09483],[-121.63068,40.09482],[-121.63053,40.0948],[-121.63038,40.09476],[-121.63024,40.09472],[-121.6301,40.09466],[-121.62997,40.09459],[-121.62979,40.09447],[-121.62961,40.09437],[-121.62942,40.09429],[-121.62922,40.09423],[-121.62901,40.09418],[-121.62879,40.09414],[-121.62857,40.09413],[-121.62835,40.09413],[-121.62814,40.09416],[-121.6279,40.0942],[-121.62612,40.09443],[-121.62587,40.09446],[-121.62571,40.09447],[-121.62491,40.09442],[-121.62475,40.0944],[-121.62446,40.09433],[-121.62419,40.09424],[-121.62393,40.09413],[-121.62376,40.09404],[-121.62347,40.09385],[-121.62315,40.09368],[-121.62239,40.09313],[-121.62224,40.09297],[-121.62208,40.09278],[-121.62196,40.09257],[-121.62187,40.09238],[-121.62177,40.09209],[-121.62162,40.09187],[-121.62129,40.0916],[-121.62092,40.09136],[-121.62032,40.09105],[-121.62015,40.09103],[-121.62,40.09104],[-121.61974,40.09108],[-121.61934,40.09112],[-121.61906,40.09114],[-121.61893,40.09112],[-121.6188,40.09108],[-121.61853,40.09092],[-121.61841,40.09079],[-121.61833,40.09066],[-121.61827,40.09057],[-121.61825,40.09048],[-121.61831,40.09013],[-121.61828,40.08989],[-121.61823,40.08976],[-121.61815,40.08958],[-121.61808,40.08946],[-121.61803,40.08936],[-121.61798,40.08918],[-121.61795,40.08901],[-121.61794,40.08877],[-121.61792,40.08838],[-121.61789,40.08824],[-121.61786,40.08816],[-121.61781,40.08811],[-121.61768,40.08799],[-121.61754,40.08787],[-121.61737,40.08775],[-121.61727,40.08759],[-121.61721,40.08745],[-121.61717,40.08731],[-121.61697,40.087],[-121.61685,40.08684],[-121.6167,40.08675],[-121.61635,40.08659],[-121.61593,40.08642],[-121.61557,40.08631],[-121.61533,40.08627],[-121.61517,40.08622],[-121.61499,40.08618],[-121.61481,40.08615],[-121.61462,40.08614],[-121.61444,40.08614],[-121.61425,40.08616],[-121.61407,40.08619],[-121.61389,40.08624],[-121.61373,40.0863],[-121.61351,40.08641],[-121.61338,40.08644],[-121.6133,40.08647],[-121.61322,40.0865],[-121.61315,40.08655],[-121.61308,40.08659],[-121.61302,40.08665],[-121.61297,40.0867],[-121.61292,40.08676],[-121.61289,40.08683],[-121.61286,40.08691],[-121.61281,40.087],[-121.61276,40.08707],[-121.61271,40.08713],[-121.61265,40.08718],[-121.61258,40.08723],[-121.6125,40.08728],[-121.61242,40.08732],[-121.61233,40.08735],[-121.61224,40.08737],[-121.61159,40.08748],[-121.61149,40.08749],[-121.61132,40.08752],[-121.61116,40.08756],[-121.61101,40.08762],[-121.61087,40.08768],[-121.61068,40.0878],[-121.61006,40.08797],[-121.60978,40.08802],[-121.60972,40.08804],[-121.60966,40.08806],[-121.60959,40.08809],[-121.60953,40.08813],[-121.60948,40.08817],[-121.60943,40.08821],[-121.60938,40.08826],[-121.60935,40.08831],[-121.60932,40.08836],[-121.60929,40.08842],[-121.60928,40.08848],[-121.60927,40.08853],[-121.60927,40.08859],[-121.6093,40.08872],[-121.6093,40.08881],[-121.60929,40.0889],[-121.60927,40.08899],[-121.60923,40.08907],[-121.60919,40.08915],[-121.60913,40.08923],[-121.60907,40.0893],[-121.60899,40.08937],[-121.60891,40.08942],[-121.60882,40.08948],[-121.60872,40.08952],[-121.60838,40.08969],[-121.60804,40.08981],[-121.6077,40.08988],[-121.60745,40.08993],[-121.60675,40.09004],[-121.60632,40.09009],[-121.60592,40.09011],[-121.60546,40.09019],[-121.60514,40.09027],[-121.60497,40.09032],[-121.60483,40.09038],[-121.6047,40.09046],[-121.6046,40.09054],[-121.60444,40.0907],[-121.60431,40.09085],[-121.6041,40.09109],[-121.60396,40.09118],[-121.6038,40.09124]]}},{"type":"Feature","properties":{"name":"Ponderosa Way","road_class":"track","surface":"unpaved","source":"Caltrans All Roads + OpenStreetMap explicit surface","source_detail":"osm way 10634356; Caltrans All Roads public-network geometry match","source_tile":"165/387","public_network_source":"Caltrans All Roads (ARNOLD/HPMS)","surface_source":"OpenStreetMap explicit surface tag","caltrans_match_coverage":1.0,"verified_length_m":2188},"geometry":{"type":"LineString","coordinates":[[-121.70282,39.98946],[-121.70299,39.98942],[-121.70326,39.98932],[-121.70334,39.98929],[-121.70344,39.98923],[-121.70358,39.98914],[-121.70362,39.98909],[-121.70376,39.98896],[-121.70385,39.98887],[-121.70407,39.98867],[-121.7042,39.98858],[-121.70435,39.98852],[-121.70445,39.98849],[-121.70455,39.98847],[-121.70475,39.98847],[-121.70491,39.98847],[-121.7054,39.98843],[-121.70554,39.98842],[-121.70567,39.98839],[-121.70581,39.98834],[-121.706,39.98824],[-121.70622,39.9881],[-121.70629,39.98806],[-121.70637,39.98803],[-121.70647,39.98799],[-121.70668,39.98794],[-121.70691,39.98792],[-121.7072,39.98786],[-121.70735,39.9878],[-121.70741,39.98777],[-121.70754,39.98771],[-121.70765,39.98765],[-121.70775,39.98758],[-121.70781,39.9875],[-121.70788,39.9874],[-121.70798,39.98732],[-121.70812,39.98723],[-121.70828,39.98718],[-121.70843,39.98714],[-121.70848,39.98713],[-121.70878,39.98708],[-121.70903,39.98706],[-121.70907,39.98704],[-121.70932,39.98691],[-121.70946,39.98685],[-121.70958,39.98682],[-121.7097,39.9868],[-121.70982,39.98679],[-121.70994,39.98678],[-121.71008,39.98682],[-121.71017,39.98683],[-121.71026,39.98684],[-121.71035,39.98684],[-121.71044,39.98683],[-121.71058,39.9868],[-121.71071,39.98676],[-121.71104,39.9866],[-121.7114,39.98639],[-121.71163,39.98629],[-121.71185,39.98621],[-121.71209,39.98614],[-121.71235,39.98609],[-121.71281,39.98598],[-121.71312,39.98595],[-121.71331,39.98591],[-121.71347,39.98587],[-121.71362,39.98582],[-121.71375,39.98575],[-121.71389,39.98568],[-121.71399,39.98561],[-121.71416,39.98544],[-121.71432,39.98533],[-121.71456,39.9852],[-121.71464,39.98515],[-121.71474,39.98508],[-121.71483,39.985],[-121.71491,39.98491],[-121.71496,39.98485],[-121.71505,39.98458],[-121.71507,39.98448],[-121.71508,39.98437],[-121.7151,39.98426],[-121.7151,39.98416],[-121.71509,39.98408],[-121.71507,39.98402],[-121.71506,39.98396],[-121.71511,39.98385],[-121.71513,39.98378],[-121.71515,39.98371],[-121.71517,39.98365],[-121.71521,39.98356],[-121.71524,39.98349],[-121.71524,39.98342],[-121.71522,39.98334],[-121.71518,39.98325],[-121.71501,39.98294],[-121.715,39.98287],[-121.715,39.9828],[-121.71501,39.98276],[-121.71504,39.9827],[-121.71533,39.98223],[-121.71539,39.98214],[-121.71547,39.98206],[-121.71565,39.9819],[-121.71573,39.98184],[-121.71585,39.98178],[-121.71595,39.98173],[-121.71599,39.98172],[-121.71627,39.98166],[-121.71665,39.98156],[-121.71713,39.98139],[-121.71726,39.98133],[-121.71738,39.98126],[-121.71749,39.98118],[-121.71759,39.98109],[-121.71769,39.98098],[-121.71791,39.98049],[-121.71799,39.98028],[-121.71808,39.98016],[-121.71816,39.98002],[-121.71819,39.97991],[-121.71824,39.9796],[-121.71831,39.97932],[-121.71832,39.9792],[-121.71833,39.97911],[-121.71833,39.97909],[-121.71835,39.97898],[-121.71839,39.9789],[-121.71874,39.97839],[-121.71901,39.97793],[-121.7191,39.97779],[-121.71917,39.97767],[-121.71925,39.97756],[-121.7193,39.97753],[-121.71936,39.97751],[-121.71943,39.9775],[-121.71947,39.9775],[-121.71952,39.97752]]}},{"type":"Feature","properties":{"name":"Cohasset Road","road_class":"unclassified","surface":"unpaved","source":"Caltrans All Roads + OpenStreetMap explicit surface","source_detail":"osm way 10637447; Caltrans All Roads public-network geometry match","source_tile":"165/387","public_network_source":"Caltrans All Roads (ARNOLD/HPMS)","surface_source":"OpenStreetMap explicit surface tag","caltrans_match_coverage":1.0,"verified_length_m":1811},"geometry":{"type":"LineString","coordinates":[[-121.70196,39.98438],[-121.70196,39.98458],[-121.70196,39.98473],[-121.70195,39.98481],[-121.70195,39.98507],[-121.70193,39.98532],[-121.70191,39.98592],[-121.70191,39.98632],[-121.70191,39.98655],[-121.70192,39.9868],[-121.70194,39.98759],[-121.70195,39.98769],[-121.70199,39.98797],[-121.70202,39.9881],[-121.70206,39.9883],[-121.70219,39.98881],[-121.70222,39.98899],[-121.70224,39.98904],[-121.70226,39.98908],[-121.70232,39.98915],[-121.70235,39.98918],[-121.70243,39.98923],[-121.70249,39.98927],[-121.70271,39.9894],[-121.70282,39.98946],[-121.70309,39.98963],[-121.70324,39.98973],[-121.70339,39.98985],[-121.70351,39.98995],[-121.70356,39.99001],[-121.7036,39.99006],[-121.70367,39.99018],[-121.70379,39.99044],[-121.70394,39.99076],[-121.70409,39.991],[-121.70416,39.99113],[-121.70418,39.99117],[-121.70419,39.99123],[-121.70421,39.99134],[-121.70421,39.99174],[-121.70423,39.99202],[-121.70424,39.99211],[-121.70426,39.99224],[-121.70434,39.99249],[-121.70438,39.99265],[-121.70442,39.99313],[-121.70444,39.99324],[-121.7045,39.99362],[-121.70454,39.99375],[-121.70457,39.99384],[-121.70462,39.99393],[-121.70467,39.99407],[-121.70476,39.99432],[-121.70488,39.9947],[-121.70498,39.9951],[-121.70501,39.99519],[-121.70521,39.99553],[-121.7053,39.99565],[-121.70543,39.99586],[-121.70557,39.99621],[-121.7056,39.99626],[-121.70564,39.99631],[-121.70569,39.99637],[-121.70584,39.9965],[-121.70596,39.99659],[-121.70604,39.99667],[-121.70612,39.99676],[-121.7062,39.99685],[-121.70623,39.9969],[-121.70627,39.99697],[-121.70632,39.99709],[-121.70637,39.99737],[-121.70639,39.99746],[-121.70642,39.99812],[-121.70642,39.99845],[-121.7064,39.9986],[-121.70638,39.99873],[-121.70634,39.99891],[-121.70631,39.99901],[-121.7063,39.99905],[-121.70628,39.99919],[-121.70626,39.99945],[-121.70627,39.99965],[-121.70629,39.99984]]}},{"type":"Feature","properties":{"name":"Cohasset Road","road_class":"unclassified","surface":"unpaved","source":"Caltrans All Roads + OpenStreetMap explicit surface","source_detail":"osm way 224453117; Caltrans All Roads public-network geometry match","source_tile":"165/387","public_network_source":"Caltrans All Roads (ARNOLD/HPMS)","surface_source":"OpenStreetMap explicit surface tag","caltrans_match_coverage":1.0,"verified_length_m":2929},"geometry":{"type":"LineString","coordinates":[[-121.71114,39.96097],[-121.71109,39.96109],[-121.71104,39.9612],[-121.71081,39.96159],[-121.71076,39.96166],[-121.71069,39.96173],[-121.71053,39.96183],[-121.71037,39.96191],[-121.71,39.96206],[-121.70991,39.9621],[-121.70981,39.96214],[-121.70972,39.96217],[-121.70964,39.9622],[-121.7094,39.96232],[-121.70918,39.96247],[-121.70894,39.96264],[-121.70887,39.96271],[-121.7088,39.96278],[-121.70875,39.96285],[-121.7087,39.96293],[-121.70863,39.96312],[-121.70858,39.9632],[-121.70852,39.96328],[-121.70845,39.96334],[-121.7083,39.96347],[-121.70823,39.96354],[-121.70818,39.96361],[-121.70811,39.96378],[-121.70807,39.96394],[-121.70803,39.96416],[-121.7079,39.96511],[-121.70788,39.96538],[-121.70787,39.96548],[-121.7079,39.96587],[-121.70789,39.96606],[-121.70788,39.96616],[-121.70787,39.96634],[-121.70785,39.96653],[-121.70779,39.96671],[-121.70763,39.96708],[-121.70759,39.96718],[-121.70744,39.96746],[-121.70741,39.96756],[-121.70738,39.96766],[-121.70736,39.96776],[-121.70732,39.96806],[-121.70725,39.96837],[-121.70717,39.96864],[-121.70711,39.96874],[-121.70706,39.96882],[-121.70681,39.96917],[-121.70674,39.96925],[-121.70668,39.96934],[-121.70654,39.96949],[-121.70639,39.96964],[-121.70617,39.96984],[-121.70593,39.97002],[-121.70567,39.97019],[-121.70538,39.97036],[-121.70518,39.97046],[-121.70507,39.97051],[-121.70496,39.97055],[-121.70485,39.9706],[-121.70476,39.97066],[-121.70467,39.97072],[-121.7046,39.97079],[-121.70455,39.97087],[-121.70451,39.97095],[-121.70449,39.971],[-121.70449,39.97104],[-121.70448,39.97113],[-121.70449,39.97131],[-121.70451,39.97149],[-121.7045,39.9716],[-121.70447,39.97173],[-121.70444,39.97182],[-121.7044,39.97192],[-121.70435,39.97209],[-121.70434,39.97218],[-121.70433,39.97228],[-121.70436,39.97247],[-121.70441,39.97268],[-121.70446,39.97311],[-121.70446,39.97322],[-121.70444,39.97332],[-121.70439,39.9735],[-121.70429,39.97363],[-121.7042,39.97369],[-121.70398,39.97381],[-121.70389,39.97388],[-121.70372,39.97403],[-121.70356,39.97419],[-121.70335,39.97444],[-121.70329,39.97453],[-121.70324,39.97462],[-121.70319,39.97472],[-121.70316,39.97481],[-121.70314,39.97492],[-121.70312,39.97514],[-121.70311,39.97525],[-121.70311,39.9757],[-121.70309,39.9759],[-121.70307,39.97597],[-121.70306,39.97599],[-121.70301,39.97608],[-121.70295,39.97615],[-121.70288,39.97622],[-121.7028,39.97628],[-121.70243,39.97649],[-121.70237,39.97653],[-121.70216,39.97665],[-121.70206,39.97672],[-121.70196,39.9768],[-121.70186,39.97691],[-121.70181,39.97698],[-121.70169,39.97714],[-121.70126,39.97766],[-121.7011,39.97783],[-121.70097,39.97796],[-121.70091,39.97803],[-121.70079,39.97818],[-121.70074,39.97825],[-121.7007,39.97833],[-121.70068,39.97841],[-121.70068,39.97849],[-121.70069,39.97858],[-121.70072,39.97867],[-121.70077,39.97877],[-121.7008,39.97886],[-121.70089,39.97913],[-121.70092,39.97923],[-121.70099,39.97958],[-121.70104,39.97975],[-121.70109,39.98002],[-121.70111,39.98021],[-121.70112,39.9804],[-121.70112,39.98085],[-121.70113,39.98104],[-121.70113,39.9811],[-121.70113,39.98117],[-121.70113,39.98122],[-121.70117,39.98149],[-121.7012,39.98163],[-121.70122,39.98178],[-121.70125,39.98194],[-121.70128,39.98213],[-121.70128,39.98229],[-121.70129,39.98232],[-121.70131,39.98253],[-121.70133,39.98263],[-121.70136,39.98273],[-121.70148,39.98303],[-121.70156,39.98324],[-121.70164,39.98343],[-121.70169,39.98352],[-121.7018,39.98377],[-121.70182,39.98383],[-121.70186,39.98393],[-121.70191,39.98414],[-121.70193,39.98425],[-121.70196,39.98438]]}},{"type":"Feature","properties":{"name":"Ponderosa Way","road_class":"track","surface":"unpaved","tracktype":"grade3","source":"Caltrans All Roads + OpenStreetMap explicit surface","source_detail":"osm way 224453126; Caltrans All Roads public-network geometry match","source_tile":"165/387","public_network_source":"Caltrans All Roads (ARNOLD/HPMS)","surface_source":"OpenStreetMap explicit surface tag","caltrans_match_coverage":1.0,"verified_length_m":2430},"geometry":{"type":"LineString","coordinates":[[-121.71952,39.97752],[-121.71962,39.97758],[-121.7197,39.97765],[-121.71973,39.97769],[-121.71976,39.97774],[-121.71978,39.97779],[-121.71979,39.97783],[-121.7198,39.97793],[-121.71981,39.97806],[-121.71983,39.97836],[-121.71983,39.97862],[-121.71986,39.97898],[-121.71989,39.97917],[-121.71995,39.97949],[-121.72001,39.97968],[-121.72006,39.97985],[-121.72017,39.9801],[-121.72032,39.98036],[-121.72039,39.98049],[-121.72043,39.9806],[-121.7205,39.9808],[-121.7205,39.98085],[-121.7205,39.98089],[-121.7205,39.98094],[-121.72049,39.98098],[-121.72046,39.98105],[-121.72042,39.98109],[-121.72034,39.98114],[-121.7203,39.98116],[-121.72021,39.98119],[-121.72006,39.98121],[-121.71998,39.98123],[-121.71991,39.98127],[-121.71985,39.98132],[-121.7198,39.98137],[-121.71979,39.9814],[-121.71962,39.9818],[-121.71962,39.98188],[-121.7196,39.98194],[-121.71959,39.98201],[-121.71961,39.98209],[-121.71965,39.98216],[-121.7197,39.98222],[-121.71974,39.98224],[-121.71978,39.98227],[-121.71989,39.98231],[-121.71995,39.98235],[-121.72001,39.98239],[-121.72006,39.98243],[-121.72011,39.98248],[-121.7202,39.9826],[-121.72025,39.98272],[-121.7203,39.98289],[-121.72034,39.98304],[-121.72036,39.98321],[-121.72035,39.98333],[-121.72033,39.98348],[-121.72029,39.98356],[-121.7202,39.98367],[-121.71994,39.98388],[-121.71984,39.98396],[-121.71967,39.98412],[-121.71937,39.98461],[-121.71937,39.98467],[-121.71941,39.98485],[-121.71944,39.9849],[-121.71949,39.98494],[-121.71956,39.98497],[-121.71968,39.985],[-121.71974,39.98502],[-121.7198,39.98504],[-121.71985,39.98507],[-121.7199,39.9851],[-121.71999,39.98518],[-121.72002,39.98523],[-121.72011,39.98539],[-121.72014,39.98547],[-121.72015,39.98558],[-121.72013,39.98568],[-121.72013,39.98587],[-121.72015,39.98604],[-121.7202,39.98614],[-121.72023,39.98621],[-121.72028,39.98636],[-121.72029,39.98644],[-121.72028,39.98651],[-121.72024,39.98664],[-121.72018,39.98694],[-121.72014,39.98709],[-121.7201,39.9872],[-121.72009,39.9873],[-121.72008,39.98743],[-121.72006,39.98757],[-121.72009,39.98762],[-121.72013,39.98766],[-121.72017,39.98768],[-121.72023,39.98769],[-121.7203,39.98769],[-121.72038,39.98768],[-121.72045,39.98764],[-121.72048,39.98762],[-121.72062,39.98755],[-121.72075,39.98749],[-121.72093,39.9874],[-121.72113,39.98732],[-121.72121,39.9873],[-121.7213,39.9873],[-121.72139,39.9873],[-121.72151,39.98734],[-121.72165,39.98742],[-121.72171,39.98746],[-121.72176,39.98751],[-121.72179,39.98757],[-121.7218,39.98763],[-121.72179,39.98778],[-121.72173,39.98796],[-121.72169,39.98804],[-121.72164,39.98817],[-121.72159,39.98852],[-121.7215,39.9888],[-121.72149,39.98907],[-121.72155,39.98935],[-121.72158,39.98952],[-121.72161,39.98962],[-121.72161,39.98969],[-121.72163,39.98982],[-121.7216,39.98996],[-121.72155,39.99007],[-121.72146,39.9902],[-121.72132,39.99034],[-121.72104,39.99056],[-121.72094,39.99064],[-121.72078,39.99072],[-121.72064,39.99081],[-121.72046,39.99091],[-121.7203,39.99098],[-121.72015,39.99105],[-121.71996,39.99112],[-121.71972,39.99119],[-121.71953,39.99124],[-121.71916,39.99133],[-121.71881,39.9914],[-121.71869,39.99146],[-121.71856,39.99156],[-121.71828,39.99177],[-121.71814,39.99185],[-121.71798,39.99191],[-121.71772,39.99202],[-121.71749,39.99211],[-121.71737,39.99214],[-121.71699,39.99225],[-121.71667,39.99233],[-121.71634,39.99244],[-121.71596,39.99261],[-121.71577,39.99265],[-121.71558,39.9927],[-121.71544,39.99281],[-121.71528,39.99307],[-121.71514,39.99374]]}},{"type":"Feature","properties":{"name":"(unnamed public road)","road_class":"track","surface":"dirt","source":"Caltrans All Roads + OpenStreetMap explicit surface","source_detail":"osm way 903045970; Caltrans All Roads public-network geometry match","source_tile":"165/387","public_network_source":"Caltrans All Roads (ARNOLD/HPMS)","surface_source":"OpenStreetMap explicit surface tag","caltrans_match_coverage":1.0,"verified_length_m":2936},"geometry":{"type":"LineString","coordinates":[[-121.96382,39.98683],[-121.96374,39.98692],[-121.96372,39.98695],[-121.96361,39.98705],[-121.96354,39.98715],[-121.96348,39.98729],[-121.96342,39.98737],[-121.9633,39.98747],[-121.96316,39.98759],[-121.96311,39.98765],[-121.96308,39.98771],[-121.96306,39.98779],[-121.96302,39.98794],[-121.96296,39.98813],[-121.96295,39.9883],[-121.96293,39.98844],[-121.96289,39.98857],[-121.96282,39.98874],[-121.96273,39.98886],[-121.96264,39.98898],[-121.96253,39.98914],[-121.96245,39.98927],[-121.96233,39.9894],[-121.96229,39.98945],[-121.96226,39.98949],[-121.96226,39.98954],[-121.96226,39.98959],[-121.96228,39.98971],[-121.9623,39.98986],[-121.96231,39.99003],[-121.96233,39.99022],[-121.96232,39.99046],[-121.9623,39.99057],[-121.96227,39.99064],[-121.96223,39.9907],[-121.96218,39.99077],[-121.96207,39.99088],[-121.96192,39.99103],[-121.96185,39.99117],[-121.9618,39.99132],[-121.96175,39.99151],[-121.9617,39.99165],[-121.96165,39.99179],[-121.96157,39.99196],[-121.96153,39.99203],[-121.96152,39.99211],[-121.96151,39.99227],[-121.96149,39.99237],[-121.96146,39.99247],[-121.96139,39.99264],[-121.96135,39.99277],[-121.96129,39.993],[-121.96125,39.99319],[-121.96116,39.99346],[-121.96111,39.99362],[-121.96109,39.99374],[-121.96107,39.99391],[-121.96106,39.99399],[-121.96102,39.99408],[-121.96093,39.99423],[-121.96084,39.99441],[-121.96078,39.99456],[-121.96074,39.99468],[-121.96071,39.99482],[-121.96069,39.99489],[-121.96067,39.99503],[-121.96065,39.99518],[-121.96065,39.99526],[-121.96065,39.9954],[-121.96065,39.99555],[-121.96063,39.99566],[-121.96063,39.9958],[-121.96063,39.99589],[-121.96063,39.99602],[-121.96061,39.99617],[-121.9606,39.99629],[-121.96062,39.99642],[-121.96063,39.99656],[-121.96062,39.99673],[-121.96061,39.99687],[-121.9606,39.99695],[-121.96058,39.997],[-121.96052,39.99711],[-121.96049,39.99718],[-121.96049,39.99724],[-121.9605,39.99731],[-121.96057,39.99742],[-121.96068,39.99758],[-121.96075,39.99772],[-121.96078,39.99783],[-121.96079,39.99788],[-121.96079,39.99794],[-121.96077,39.998],[-121.96073,39.99808],[-121.96066,39.99819],[-121.96063,39.99827],[-121.96063,39.99838],[-121.96066,39.99853],[-121.96067,39.99861],[-121.96066,39.9987],[-121.96064,39.99889],[-121.96062,39.99908],[-121.96061,39.99915],[-121.96057,39.99924],[-121.96046,39.99941],[-121.96034,39.99958],[-121.96026,39.99971],[-121.96024,39.99978],[-121.96024,39.99988],[-121.96019,40.00001],[-121.96016,40.00011],[-121.96009,40.00029],[-121.96003,40.00043],[-121.95997,40.00053],[-121.95995,40.00059],[-121.95995,40.00067],[-121.95998,40.00082],[-121.96003,40.00105],[-121.96006,40.00122],[-121.96007,40.0013],[-121.96007,40.00144],[-121.96003,40.0016],[-121.96,40.00176],[-121.95999,40.00181],[-121.96001,40.00186],[-121.96011,40.00197],[-121.96018,40.00205],[-121.9602,40.00209],[-121.9602,40.00214],[-121.96018,40.00221],[-121.96012,40.00237],[-121.96007,40.00255],[-121.96002,40.00278],[-121.95998,40.00288],[-121.95994,40.00296],[-121.95992,40.003],[-121.95985,40.00311],[-121.95977,40.00319],[-121.95972,40.00328],[-121.95967,40.0034],[-121.95961,40.00358],[-121.95955,40.00371],[-121.95948,40.00389],[-121.95941,40.00403],[-121.95939,40.0041],[-121.9594,40.00417],[-121.95944,40.00425],[-121.95959,40.00439],[-121.95961,40.00444],[-121.95963,40.00451],[-121.95961,40.00459],[-121.95954,40.0047],[-121.95941,40.00493],[-121.95926,40.0052],[-121.95919,40.00536],[-121.95912,40.00555],[-121.9591,40.00562],[-121.95907,40.00585],[-121.95904,40.00609],[-121.959,40.00637],[-121.95898,40.00658],[-121.95897,40.00672],[-121.95896,40.00678],[-121.95894,40.00684],[-121.95888,40.00695],[-121.95885,40.00699],[-121.95875,40.00709],[-121.95846,40.00733],[-121.95835,40.00742],[-121.95823,40.0076],[-121.95815,40.00769],[-121.95805,40.00778],[-121.95798,40.00787],[-121.9579,40.00798],[-121.95779,40.0081],[-121.9577,40.0082],[-121.95766,40.00828],[-121.95761,40.00842],[-121.95754,40.00866],[-121.9575,40.00876],[-121.95749,40.00883],[-121.9575,40.00892],[-121.95752,40.00907],[-121.95753,40.00917],[-121.95753,40.00935],[-121.95747,40.0095],[-121.95742,40.00962],[-121.9574,40.00969],[-121.95738,40.00978],[-121.95737,40.00986],[-121.95733,40.00993],[-121.95727,40.00998],[-121.95713,40.01011],[-121.95684,40.01042],[-121.95668,40.01056],[-121.95641,40.01076],[-121.95638,40.01081],[-121.95636,40.01087],[-121.95634,40.01092],[-121.95629,40.01097],[-121.95622,40.01102],[-121.95616,40.01103],[-121.95611,40.01104],[-121.95599,40.01099],[-121.95592,40.01096],[-121.95586,40.01095],[-121.95582,40.01097],[-121.9558,40.01099],[-121.95581,40.01103],[-121.95586,40.01106],[-121.95597,40.01107],[-121.95605,40.01106],[-121.95611,40.01104]]}},{"type":"Feature","properties":{"name":"Ponderosa Way","road_class":"track","surface":"unpaved","source":"Caltrans All Roads + OpenStreetMap explicit surface","source_detail":"osm way 224260374; Caltrans All Roads public-network geometry match","source_tile":"165/388","public_network_source":"Caltrans All Roads (ARNOLD/HPMS)","surface_source":"OpenStreetMap explicit surface tag","caltrans_match_coverage":1.0,"verified_length_m":3584},"geometry":{"type":"LineString","coordinates":[[-121.70665,39.91256],[-121.70638,39.91281],[-121.70616,39.91302],[-121.70587,39.91335],[-121.70583,39.91338],[-121.70578,39.91335],[-121.70576,39.91331],[-121.70574,39.91325],[-121.70572,39.91309],[-121.70569,39.91288],[-121.70568,39.91256],[-121.70569,39.91227],[-121.70576,39.91194],[-121.70578,39.91182],[-121.70579,39.91174],[-121.70582,39.91168],[-121.70587,39.91162],[-121.70592,39.91156],[-121.70599,39.91146],[-121.70605,39.91133],[-121.70605,39.91127],[-121.70603,39.91122],[-121.70597,39.91116],[-121.70585,39.91105],[-121.70578,39.91097],[-121.70568,39.9108],[-121.70564,39.9107],[-121.7056,39.91065],[-121.70556,39.91062],[-121.7055,39.9106],[-121.70545,39.9106],[-121.7054,39.91061],[-121.70536,39.91063],[-121.70532,39.91068],[-121.70532,39.91072],[-121.70535,39.91078],[-121.70541,39.91087],[-121.70551,39.91096],[-121.70562,39.91105],[-121.70567,39.91114],[-121.7057,39.91124],[-121.70569,39.91134],[-121.70563,39.91144],[-121.70556,39.91148],[-121.70532,39.91161],[-121.70517,39.91169],[-121.70506,39.91177],[-121.70503,39.91186],[-121.70504,39.91193],[-121.70502,39.91203],[-121.70496,39.91215],[-121.70488,39.91222],[-121.7044,39.91253],[-121.70381,39.91297],[-121.70371,39.91305],[-121.70363,39.91311],[-121.70351,39.91318],[-121.703,39.91333],[-121.70294,39.91334],[-121.70291,39.91332],[-121.70288,39.91328],[-121.70294,39.91323],[-121.7032,39.91308],[-121.70337,39.91295],[-121.70344,39.9129],[-121.70345,39.91282],[-121.70341,39.91264],[-121.70339,39.91242],[-121.70339,39.91232],[-121.70349,39.91206],[-121.70356,39.91189],[-121.70357,39.91172],[-121.70355,39.91162],[-121.70352,39.91152],[-121.70342,39.91148],[-121.70311,39.91148],[-121.70274,39.91156],[-121.7023,39.91166],[-121.70207,39.91169],[-121.70195,39.91169],[-121.70185,39.91168],[-121.70176,39.91166],[-121.70169,39.91162],[-121.70162,39.91159],[-121.70158,39.91156],[-121.70149,39.91142],[-121.70141,39.91132],[-121.70133,39.91127],[-121.70122,39.9112],[-121.70099,39.91109],[-121.70087,39.911],[-121.7008,39.91092],[-121.7007,39.91076],[-121.70055,39.91044],[-121.70045,39.91023],[-121.70042,39.91019],[-121.70038,39.91016],[-121.70034,39.91016],[-121.7003,39.91018],[-121.70028,39.91021],[-121.70027,39.91031],[-121.70027,39.91051],[-121.70028,39.91082],[-121.70027,39.911],[-121.70027,39.91116],[-121.70026,39.91129],[-121.70028,39.91142],[-121.7003,39.91149],[-121.70032,39.91155],[-121.70035,39.91163],[-121.70034,39.91168],[-121.70031,39.91179],[-121.70024,39.91196],[-121.70022,39.91207],[-121.70023,39.91216],[-121.70025,39.91225],[-121.70026,39.91235],[-121.70022,39.91247],[-121.70018,39.91249],[-121.70012,39.9125],[-121.70005,39.91248],[-121.7,39.91244],[-121.69997,39.91239],[-121.69998,39.9123],[-121.69997,39.91221],[-121.69995,39.91208],[-121.69989,39.91197],[-121.69976,39.91174],[-121.69968,39.91162],[-121.69932,39.91118],[-121.69919,39.91102],[-121.6991,39.91095],[-121.69899,39.91085],[-121.69892,39.91075],[-121.69851,39.91033],[-121.69839,39.91023],[-121.69828,39.91019],[-121.69815,39.91017],[-121.69806,39.91015],[-121.69795,39.91007],[-121.69775,39.90991],[-121.69763,39.90978],[-121.69749,39.90967],[-121.69728,39.9096],[-121.69713,39.90953],[-121.69688,39.90932],[-121.69654,39.90906],[-121.6965,39.90903],[-121.69639,39.90891],[-121.69626,39.90873],[-121.69609,39.90854],[-121.69595,39.90843],[-121.69577,39.90836],[-121.69555,39.90828],[-121.69544,39.90818],[-121.69536,39.90805],[-121.69533,39.90787],[-121.69529,39.90772],[-121.69515,39.90766],[-121.695,39.90759],[-121.69469,39.90749],[-121.69453,39.90743],[-121.69443,39.90736],[-121.6944,39.90728],[-121.69439,39.90709],[-121.6944,39.90679],[-121.69438,39.90667],[-121.69433,39.90659],[-121.69428,39.90653],[-121.69421,39.90648],[-121.69413,39.9064],[-121.69408,39.90631],[-121.69406,39.90626],[-121.69408,39.9062],[-121.69417,39.90615],[-121.69437,39.90607],[-121.69479,39.90592],[-121.69493,39.90585],[-121.69498,39.90577],[-121.695,39.90566],[-121.695,39.90558],[-121.69501,39.90548],[-121.69503,39.90541],[-121.69516,39.90525],[-121.69533,39.90507],[-121.69547,39.90493],[-121.69555,39.90485],[-121.69561,39.90474],[-121.69568,39.90462],[-121.69575,39.90455],[-121.69592,39.90446],[-121.69612,39.90434],[-121.69628,39.90423],[-121.6964,39.90413],[-121.6967,39.90378],[-121.69679,39.9037],[-121.69686,39.90366],[-121.69712,39.90357],[-121.69729,39.90353],[-121.69737,39.90348],[-121.69746,39.90338],[-121.69752,39.9033],[-121.69757,39.90325],[-121.69766,39.90322],[-121.69776,39.90321],[-121.69784,39.90322],[-121.69794,39.90327],[-121.69807,39.90341],[-121.69813,39.90347],[-121.6982,39.90349],[-121.69836,39.90349],[-121.69894,39.9033],[-121.69927,39.90321],[-121.69941,39.90321],[-121.69957,39.90324],[-121.6997,39.90324],[-121.69984,39.90317],[-121.70009,39.90302],[-121.70022,39.90296],[-121.70032,39.90295],[-121.70043,39.903],[-121.70053,39.90308],[-121.70066,39.90313],[-121.7008,39.90316],[-121.70096,39.90317],[-121.7011,39.90315],[-121.70136,39.90311],[-121.70151,39.90311],[-121.70165,39.90314],[-121.70191,39.90328],[-121.70209,39.90336],[-121.70228,39.9034]]}},{"type":"Feature","properties":{"name":"Ponderosa Way","road_class":"track","surface":"unpaved","source":"Caltrans All Roads + OpenStreetMap explicit surface","source_detail":"osm way 224451539; Caltrans All Roads public-network geometry match","source_tile":"165/388","public_network_source":"Caltrans All Roads (ARNOLD/HPMS)","surface_source":"OpenStreetMap explicit surface tag","caltrans_match_coverage":1.0,"verified_length_m":3759},"geometry":{"type":"LineString","coordinates":[[-121.72556,39.90637],[-121.72544,39.90658],[-121.72535,39.90676],[-121.72531,39.9069],[-121.72528,39.90712],[-121.72524,39.90729],[-121.72515,39.90742],[-121.72508,39.90749],[-121.725,39.90753],[-121.7248,39.90762],[-121.72463,39.90767],[-121.72446,39.90775],[-121.7242,39.90792],[-121.72394,39.90807],[-121.7238,39.90816],[-121.72368,39.90826],[-121.72362,39.90832],[-121.72356,39.90842],[-121.72352,39.90851],[-121.72347,39.90869],[-121.72345,39.90881],[-121.72341,39.9089],[-121.72334,39.90896],[-121.72328,39.90898],[-121.72317,39.90899],[-121.72304,39.90897],[-121.72291,39.90895],[-121.72277,39.90894],[-121.72241,39.90897],[-121.72222,39.90899],[-121.7222,39.90899],[-121.72212,39.90898],[-121.72209,39.90898],[-121.72201,39.90895],[-121.72184,39.90888],[-121.72168,39.90884],[-121.72158,39.90883],[-121.7215,39.90884],[-121.72145,39.90887],[-121.72139,39.90894],[-121.72132,39.90904],[-121.72122,39.90922],[-121.72112,39.90943],[-121.72102,39.90969],[-121.72099,39.90981],[-121.72094,39.91002],[-121.72093,39.91012],[-121.72096,39.91022],[-121.72109,39.91057],[-121.72114,39.91074],[-121.72113,39.91083],[-121.72109,39.91089],[-121.72102,39.91092],[-121.72081,39.91096],[-121.72067,39.91103],[-121.72053,39.91119],[-121.72043,39.91132],[-121.72027,39.91163],[-121.72018,39.91182],[-121.72003,39.91204],[-121.71992,39.91215],[-121.71975,39.91229],[-121.71958,39.91243],[-121.71941,39.91259],[-121.71932,39.91272],[-121.71928,39.91282],[-121.71928,39.91288],[-121.71925,39.91293],[-121.71919,39.91297],[-121.71911,39.91296],[-121.71906,39.91294],[-121.71899,39.91289],[-121.71895,39.91282],[-121.71894,39.91272],[-121.71896,39.91259],[-121.71901,39.91238],[-121.71908,39.91219],[-121.71924,39.91189],[-121.71938,39.91165],[-121.71943,39.91153],[-121.71952,39.91091],[-121.71953,39.91081],[-121.71946,39.91057],[-121.71934,39.91023],[-121.71925,39.90991],[-121.7192,39.90979],[-121.71908,39.90967],[-121.71892,39.90962],[-121.71872,39.90963],[-121.71851,39.9097],[-121.71821,39.90981],[-121.71799,39.90994],[-121.7178,39.9101],[-121.7177,39.91024],[-121.71747,39.91033],[-121.71708,39.91051],[-121.71692,39.91064],[-121.71668,39.91086],[-121.71657,39.91091],[-121.71645,39.91093],[-121.71636,39.91089],[-121.71628,39.91083],[-121.71628,39.91075],[-121.71632,39.91069],[-121.71644,39.91061],[-121.71655,39.91051],[-121.71677,39.91013],[-121.71703,39.9097],[-121.71736,39.90928],[-121.71742,39.90913],[-121.71745,39.90895],[-121.7174,39.90883],[-121.71722,39.90872],[-121.7171,39.90859],[-121.71702,39.90849],[-121.71705,39.90833],[-121.71715,39.90823],[-121.71725,39.90805],[-121.7174,39.90785],[-121.71752,39.90767],[-121.71753,39.90756],[-121.71753,39.90739],[-121.71749,39.90727],[-121.71733,39.90717],[-121.71694,39.90702],[-121.7166,39.90693],[-121.71623,39.90676],[-121.7161,39.90668],[-121.71604,39.90659],[-121.71603,39.9065],[-121.71606,39.90638],[-121.71615,39.90626],[-121.71624,39.90612],[-121.71627,39.90603],[-121.71626,39.90597],[-121.71621,39.90592],[-121.71607,39.90588],[-121.71584,39.90587],[-121.71562,39.90587],[-121.71549,39.9059],[-121.71537,39.90594],[-121.7153,39.90602],[-121.71527,39.90609],[-121.7153,39.90625],[-121.71533,39.90663],[-121.71536,39.9068],[-121.7154,39.90694],[-121.71544,39.90704],[-121.71544,39.90714],[-121.71538,39.90722],[-121.71516,39.90734],[-121.71477,39.90746],[-121.71398,39.90758],[-121.71383,39.90762],[-121.71376,39.90767],[-121.71374,39.90775],[-121.71376,39.90783],[-121.71384,39.90795],[-121.71395,39.90813],[-121.71406,39.90835],[-121.71409,39.90858],[-121.71407,39.9088],[-121.71401,39.90889],[-121.71384,39.90899],[-121.71368,39.90911],[-121.71352,39.90921],[-121.71349,39.90926],[-121.71345,39.90949],[-121.71346,39.90969],[-121.71345,39.90985],[-121.71337,39.90996],[-121.71322,39.91004],[-121.71304,39.91013],[-121.71283,39.91016],[-121.71266,39.91015],[-121.71229,39.91009],[-121.71205,39.91008],[-121.71174,39.91017],[-121.7113,39.91029],[-121.71071,39.91048],[-121.71055,39.91057],[-121.71043,39.91077],[-121.71035,39.91088],[-121.71023,39.91098],[-121.71011,39.91105],[-121.70997,39.91111],[-121.70961,39.91116],[-121.70893,39.91113],[-121.70864,39.91115],[-121.7084,39.91121],[-121.70794,39.91153],[-121.70755,39.91176],[-121.70728,39.91203],[-121.70665,39.91256]]}},{"type":"Feature","properties":{"name":"Garland Road","road_class":"unclassified","surface":"gravel","source":"Caltrans All Roads + OpenStreetMap explicit surface","source_detail":"osm way 10295874; Caltrans All Roads public-network geometry match","source_tile":"166/388","public_network_source":"Caltrans All Roads (ARNOLD/HPMS)","surface_source":"OpenStreetMap explicit surface tag","caltrans_match_coverage":1.0,"verified_length_m":4374},"geometry":{"type":"LineString","coordinates":[[-121.63882,39.89766],[-121.63862,39.89826],[-121.63849,39.89846],[-121.63844,39.89852],[-121.63838,39.89858],[-121.63832,39.89863],[-121.63816,39.89874],[-121.63793,39.89887],[-121.63776,39.89895],[-121.6376,39.899],[-121.63734,39.89907],[-121.63708,39.89912],[-121.63691,39.89915],[-121.63684,39.89917],[-121.63678,39.89921],[-121.63673,39.89925],[-121.63671,39.8993],[-121.6367,39.89936],[-121.63671,39.89943],[-121.63674,39.8995],[-121.6368,39.89963],[-121.63686,39.89977],[-121.63688,39.89984],[-121.63689,39.8999],[-121.63691,39.90011],[-121.63694,39.90024],[-121.63698,39.90036],[-121.63705,39.90048],[-121.63711,39.90061],[-121.63713,39.90075],[-121.63713,39.90082],[-121.63712,39.90089],[-121.63705,39.90115],[-121.637,39.90137],[-121.63695,39.90154],[-121.6369,39.90163],[-121.63676,39.90187],[-121.63653,39.9022],[-121.63642,39.90232],[-121.63635,39.90238],[-121.63606,39.90254],[-121.63598,39.9026],[-121.6359,39.90267],[-121.63584,39.90275],[-121.63579,39.90282],[-121.63576,39.9029],[-121.63572,39.90307],[-121.63562,39.90351],[-121.63556,39.90381],[-121.63554,39.90389],[-121.63551,39.90395],[-121.63544,39.90408],[-121.63524,39.90437],[-121.63505,39.90458],[-121.63487,39.90482],[-121.63461,39.90514],[-121.63457,39.90519],[-121.6345,39.90536],[-121.63437,39.90562],[-121.63426,39.9058],[-121.63414,39.90595],[-121.63401,39.90611],[-121.63396,39.90619],[-121.63372,39.90666],[-121.63369,39.90674],[-121.63366,39.90682],[-121.63363,39.90698],[-121.63364,39.90707],[-121.63363,39.90715],[-121.63363,39.90723],[-121.63367,39.90764],[-121.63369,39.90773],[-121.63371,39.9078],[-121.6338,39.90807],[-121.63385,39.90818],[-121.63398,39.9085],[-121.63404,39.90861],[-121.63407,39.90871],[-121.63415,39.90892],[-121.63421,39.90911],[-121.63426,39.90946],[-121.63427,39.90956],[-121.63426,39.90967],[-121.63425,39.90976],[-121.63421,39.90987],[-121.63417,39.90997],[-121.63403,39.91025],[-121.634,39.91035],[-121.63397,39.91044],[-121.63394,39.91064],[-121.63393,39.91084],[-121.63394,39.9109],[-121.63394,39.91094],[-121.63396,39.91105],[-121.63401,39.91115],[-121.63407,39.91125],[-121.63429,39.91155],[-121.63462,39.91198],[-121.63487,39.91228],[-121.63492,39.91236],[-121.635,39.9125],[-121.63507,39.91265],[-121.63513,39.91283],[-121.63516,39.91294],[-121.63518,39.91305],[-121.63518,39.91315],[-121.63517,39.91326],[-121.63513,39.91338],[-121.63509,39.9135],[-121.63492,39.91388],[-121.63479,39.91414],[-121.63467,39.91444],[-121.63458,39.91474],[-121.63454,39.91483],[-121.63445,39.915],[-121.6344,39.91509],[-121.63432,39.9152],[-121.63425,39.91528],[-121.63418,39.91538],[-121.63413,39.91549],[-121.63411,39.91561],[-121.63412,39.91573],[-121.63416,39.91595],[-121.63419,39.91606],[-121.63427,39.91626],[-121.63431,39.91636],[-121.63448,39.91664],[-121.63466,39.9169],[-121.6347,39.91695],[-121.63474,39.91702],[-121.63481,39.91708],[-121.63485,39.91712],[-121.63491,39.91714],[-121.63497,39.91714],[-121.635,39.91714],[-121.63503,39.91714],[-121.63508,39.91712],[-121.63513,39.91709],[-121.63517,39.91703],[-121.63528,39.91676],[-121.63532,39.91672],[-121.63556,39.91657],[-121.63568,39.91652],[-121.63609,39.91642],[-121.63656,39.91633],[-121.63684,39.91626],[-121.63706,39.9162],[-121.63721,39.9162],[-121.63734,39.9162],[-121.63744,39.91622],[-121.63754,39.91624],[-121.63759,39.91627],[-121.63765,39.9163],[-121.63779,39.91647],[-121.6379,39.9166],[-121.638,39.91674],[-121.63807,39.91679],[-121.63825,39.91694],[-121.63832,39.917],[-121.6386,39.91727],[-121.63873,39.91738],[-121.639,39.91757],[-121.6391,39.91764],[-121.63919,39.9177],[-121.63926,39.91776],[-121.6394,39.91793],[-121.63944,39.91799],[-121.63946,39.91806],[-121.63947,39.91816],[-121.6395,39.91821],[-121.63954,39.91826],[-121.6396,39.91829],[-121.63968,39.9183],[-121.63975,39.91829],[-121.63982,39.91826],[-121.63997,39.91815],[-121.64004,39.91808],[-121.6401,39.918],[-121.64031,39.91766],[-121.64038,39.91758],[-121.64044,39.91751],[-121.64052,39.91744],[-121.6406,39.91739],[-121.64078,39.91734],[-121.64097,39.91731],[-121.64106,39.9173],[-121.64116,39.9173],[-121.64124,39.91731],[-121.64141,39.91737],[-121.64151,39.91741],[-121.64156,39.91745],[-121.64164,39.91751],[-121.64171,39.91758],[-121.64174,39.91765],[-121.64175,39.9177],[-121.64175,39.91775],[-121.64165,39.91814],[-121.64165,39.91822],[-121.64166,39.9184],[-121.64169,39.91855],[-121.64172,39.91866],[-121.64175,39.91881],[-121.64179,39.91895],[-121.64184,39.91909],[-121.64187,39.91915],[-121.64191,39.9192],[-121.64195,39.91924],[-121.64199,39.91928],[-121.64208,39.91933],[-121.64212,39.91934],[-121.64221,39.91936],[-121.64226,39.91936],[-121.64232,39.91934],[-121.64237,39.91931],[-121.64243,39.91924],[-121.64255,39.91915],[-121.64274,39.91906],[-121.64282,39.91904],[-121.64294,39.91903],[-121.64302,39.91902],[-121.6431,39.91903],[-121.6432,39.91906],[-121.64404,39.91944],[-121.64463,39.91964],[-121.64468,39.91965],[-121.64476,39.91966],[-121.64487,39.91966],[-121.64499,39.91968],[-121.64514,39.91971],[-121.64552,39.91989],[-121.6456,39.91995],[-121.64568,39.92004],[-121.64575,39.92012],[-121.64579,39.92021],[-121.64582,39.92029],[-121.64592,39.92081],[-121.64593,39.92101],[-121.64597,39.92132],[-121.64599,39.9214],[-121.64602,39.92146],[-121.64606,39.9215],[-121.6461,39.92153],[-121.64616,39.92154],[-121.64622,39.92155],[-121.64628,39.92153],[-121.64632,39.92151],[-121.64639,39.92145],[-121.64668,39.92111],[-121.64679,39.92099],[-121.64687,39.92093],[-121.64704,39.92081],[-121.64712,39.92077],[-121.64728,39.92074],[-121.64737,39.92075],[-121.64747,39.92077],[-121.64753,39.9208],[-121.64767,39.92087],[-121.64772,39.92091],[-121.64789,39.92107],[-121.6485,39.9217],[-121.64878,39.92193],[-121.64893,39.92201],[-121.64911,39.92209],[-121.64944,39.92221],[-121.64989,39.92239]]}},{"type":"Feature","properties":{"name":"Lassen Trail","road_class":"unclassified","surface":"unpaved","source":"Caltrans All Roads + OpenStreetMap explicit surface","source_detail":"osm way 10630648; Caltrans All Roads public-network geometry match","source_tile":"166/387","public_network_source":"Caltrans All Roads (ARNOLD/HPMS)","surface_source":"OpenStreetMap explicit surface tag","caltrans_match_coverage":0.907,"verified_length_m":28325},"geometry":{"type":"LineString","coordinates":[[-121.66589,40.16988],[-121.6659,40.17013],[-121.66599,40.1705],[-121.66601,40.1707],[-121.66598,40.17085],[-121.66603,40.171],[-121.66627,40.17138],[-121.66685,40.17207],[-121.667,40.17232],[-121.66718,40.17267],[-121.66725,40.17286],[-121.66727,40.17305],[-121.66725,40.17315],[-121.6672,40.17333],[-121.6671,40.17349],[-121.66686,40.17376],[-121.66685,40.17383],[-121.66685,40.17404],[-121.66703,40.1745],[-121.6671,40.1746],[-121.66725,40.17471],[-121.66734,40.17475],[-121.66763,40.17482],[-121.66779,40.1749],[-121.66794,40.17499],[-121.66805,40.17512],[-121.66808,40.1752],[-121.66809,40.17535],[-121.66805,40.1755],[-121.66771,40.17592],[-121.66755,40.17621],[-121.66749,40.17638],[-121.66747,40.17651],[-121.66747,40.17675],[-121.66751,40.17726],[-121.66746,40.17738],[-121.6674,40.17745],[-121.66723,40.17756],[-121.66706,40.17762],[-121.6669,40.17763],[-121.66664,40.17763],[-121.66652,40.1776],[-121.666,40.17754],[-121.6659,40.17751],[-121.66576,40.17742],[-121.66529,40.17704],[-121.66514,40.17699],[-121.66502,40.17699],[-121.66472,40.17722],[-121.66455,40.17747],[-121.66445,40.17755],[-121.66437,40.17759],[-121.66289,40.17806],[-121.66265,40.17814],[-121.66242,40.17826],[-121.66228,40.17828],[-121.66172,40.17817],[-121.66142,40.17816],[-121.66122,40.17818],[-121.66084,40.17826],[-121.6606,40.17837],[-121.66044,40.17846],[-121.6601,40.17871],[-121.65989,40.17882],[-121.65977,40.17887],[-121.65942,40.17907],[-121.65894,40.17929],[-121.65856,40.17938],[-121.65815,40.17952],[-121.65799,40.17964],[-121.65789,40.1798],[-121.6578,40.17988],[-121.65762,40.18],[-121.65743,40.18007],[-121.65705,40.18017],[-121.65593,40.18029],[-121.65584,40.18035],[-121.65574,40.18053],[-121.65535,40.18091],[-121.65532,40.18107],[-121.65525,40.18118],[-121.65516,40.1813],[-121.65496,40.18138],[-121.65467,40.18145],[-121.65411,40.18153],[-121.65387,40.1816],[-121.65356,40.18171],[-121.65328,40.18184],[-121.65301,40.182],[-121.65271,40.18222],[-121.65186,40.18291],[-121.65167,40.18309],[-121.65152,40.1832],[-121.65117,40.18338],[-121.65035,40.18355],[-121.65011,40.18372],[-121.64999,40.18387],[-121.64996,40.18397],[-121.64997,40.18404],[-121.65002,40.1845],[-121.64993,40.18495],[-121.64967,40.18536],[-121.64965,40.18548],[-121.64954,40.18564],[-121.64915,40.18627],[-121.64876,40.18655],[-121.64817,40.1868],[-121.64803,40.18696],[-121.64767,40.18821],[-121.64739,40.18861],[-121.64707,40.18878],[-121.64668,40.18906],[-121.64625,40.18916],[-121.64548,40.18915],[-121.64512,40.18923],[-121.64478,40.18941],[-121.64436,40.18991],[-121.64338,40.19035],[-121.64215,40.19084],[-121.64138,40.19133],[-121.6398,40.19191],[-121.63907,40.19243],[-121.63845,40.19309],[-121.63792,40.19339],[-121.63713,40.19359],[-121.6367,40.19377],[-121.6364,40.19379],[-121.63581,40.19369],[-121.63555,40.19353],[-121.63475,40.19255],[-121.63458,40.19248],[-121.63421,40.19246],[-121.63406,40.1925],[-121.63344,40.19281],[-121.63308,40.19288],[-121.63283,40.19282],[-121.63254,40.19245],[-121.63229,40.19239],[-121.63206,40.19254],[-121.63198,40.19276],[-121.6306,40.194],[-121.62847,40.19478],[-121.62735,40.19545],[-121.62726,40.19561],[-121.6272,40.19588],[-121.62712,40.19615],[-121.62689,40.19638],[-121.62673,40.19648],[-121.62666,40.19651],[-121.6266,40.1965],[-121.62648,40.19642],[-121.62612,40.19626],[-121.62592,40.1962],[-121.62545,40.19617],[-121.62509,40.19607],[-121.62441,40.19593],[-121.62374,40.19577],[-121.62273,40.19566],[-121.62254,40.19561],[-121.62246,40.19555],[-121.62241,40.19538],[-121.6225,40.19513],[-121.62252,40.19487],[-121.62247,40.19474],[-121.62201,40.19422],[-121.62195,40.19413],[-121.62177,40.194],[-121.62165,40.19397],[-121.6214,40.19396],[-121.62099,40.194],[-121.62066,40.1939],[-121.62037,40.19372],[-121.62014,40.1937],[-121.6192,40.19371],[-121.6187,40.19378],[-121.6183,40.1939],[-121.61748,40.19421],[-121.61697,40.19443],[-121.61599,40.19499],[-121.61547,40.19521],[-121.61501,40.19545],[-121.61481,40.19557],[-121.61464,40.19571],[-121.61444,40.19603],[-121.61436,40.19626],[-121.61428,40.19676],[-121.61424,40.1974],[-121.61418,40.1976],[-121.61388,40.19807],[-121.61322,40.19872],[-121.61285,40.19915],[-121.61269,40.1993],[-121.61259,40.19937],[-121.61238,40.19946],[-121.61217,40.1996],[-121.61204,40.19972],[-121.61197,40.19987],[-121.61175,40.20022],[-121.61144,40.20052],[-121.61046,40.20088],[-121.60961,40.20114],[-121.6089,40.20121],[-121.60837,40.20108],[-121.60806,40.20092],[-121.60793,40.20071],[-121.60799,40.20046],[-121.60917,40.19932],[-121.60945,40.19854],[-121.60941,40.19785],[-121.60901,40.19726],[-121.6082,40.1969],[-121.60761,40.19684],[-121.60608,40.19683],[-121.60489,40.19661],[-121.60439,40.19665],[-121.60365,40.19709],[-121.60288,40.19718],[-121.60246,40.19713],[-121.6023,40.19682],[-121.60188,40.19613],[-121.60129,40.19598],[-121.60011,40.19621],[-121.5986,40.19682],[-121.59816,40.19703],[-121.59789,40.19706],[-121.59773,40.19688],[-121.59777,40.19645],[-121.59684,40.19456],[-121.59642,40.19434],[-121.59562,40.19418],[-121.59453,40.19344],[-121.59404,40.19343],[-121.59363,40.19363],[-121.59258,40.19451],[-121.59129,40.19581],[-121.59041,40.19615],[-121.58781,40.19777],[-121.58745,40.19807],[-121.58726,40.19807],[-121.58702,40.19791],[-121.58636,40.1966],[-121.58612,40.1965],[-121.58564,40.19654],[-121.58285,40.19769],[-121.58235,40.19797],[-121.58166,40.19813],[-121.58033,40.19866],[-121.57974,40.19915],[-121.57946,40.19928],[-121.57917,40.19927],[-121.57914,40.19915],[-121.57961,40.19794],[-121.58,40.19747],[-121.58049,40.19713],[-121.58132,40.19563],[-121.5814,40.19506],[-121.58164,40.19476],[-121.58168,40.19428],[-121.58216,40.19343],[-121.58216,40.19287],[-121.58192,40.19214],[-121.58216,40.19102],[-121.58202,40.19041],[-121.58108,40.18941],[-121.58024,40.18849],[-121.57952,40.18818],[-121.57905,40.18817],[-121.57798,40.18859],[-121.57742,40.18888],[-121.57713,40.18886],[-121.57687,40.18868],[-121.57654,40.18787],[-121.57614,40.1877],[-121.57486,40.18752],[-121.57403,40.18764],[-121.57339,40.18751],[-121.57298,40.18754],[-121.57274,40.18743],[-121.57272,40.18723],[-121.57308,40.18698],[-121.57349,40.18693],[-121.57393,40.18692],[-121.57457,40.18664],[-121.57513,40.18612],[-121.57658,40.18521],[-121.57862,40.18418],[-121.57942,40.18388],[-121.58111,40.18343],[-121.58188,40.18292],[-121.58201,40.18246],[-121.5818,40.18174],[-121.58152,40.18154],[-121.58112,40.18135],[-121.58107,40.18118],[-121.58117,40.18095],[-121.58169,40.18078],[-121.58207,40.18058],[-121.58273,40.17984],[-121.58274,40.17956],[-121.58267,40.17935],[-121.58252,40.1792],[-121.5822,40.17912],[-121.58208,40.17907],[-121.58203,40.17893],[-121.58224,40.17802],[-121.58223,40.17792],[-121.5822,40.17783],[-121.58177,40.17743],[-121.58167,40.17703],[-121.58139,40.17678],[-121.58108,40.17673],[-121.5805,40.17687],[-121.58032,40.17682],[-121.58029,40.1767],[-121.58073,40.17627],[-121.58102,40.17516],[-121.58162,40.17455],[-121.58195,40.17423],[-121.58196,40.17396],[-121.58149,40.17376],[-121.58065,40.17368],[-121.57982,40.17386],[-121.57959,40.17387],[-121.57912,40.17374],[-121.57886,40.17373],[-121.57771,40.17388],[-121.5774,40.17403],[-121.5773,40.17423],[-121.57701,40.17426],[-121.57691,40.1742],[-121.57693,40.174],[-121.57834,40.17317],[-121.57913,40.17281],[-121.57973,40.17272],[-121.58035,40.17239],[-121.58062,40.17237],[-121.5811,40.17213],[-121.5814,40.17159],[-121.58164,40.1714],[-121.58232,40.17123],[-121.58302,40.17093],[-121.58338,40.17036],[-121.58347,40.16982],[-121.58372,40.16958],[-121.58398,40.16948],[-121.58435,40.16961],[-121.58462,40.1696],[-121.58515,40.16931],[-121.5856,40.16935],[-121.58582,40.16923],[-121.58615,40.16871],[-121.58647,40.16845],[-121.5872,40.16772],[-121.58746,40.16734],[-121.58791,40.16727],[-121.58842,40.16743],[-121.58883,40.16745],[-121.5893,40.16763],[-121.58963,40.16763],[-121.59025,40.16739],[-121.59074,40.16748],[-121.59133,40.16828],[-121.59138,40.16892],[-121.59138,40.16926],[-121.59154,40.16931],[-121.59161,40.16921],[-121.59155,40.16886],[-121.5917,40.16845],[-121.59141,40.16783],[-121.59125,40.16692],[-121.59114,40.16661],[-121.59085,40.16636],[-121.59041,40.16631],[-121.59011,40.16618],[-121.58972,40.16623],[-121.58958,40.16636],[-121.58905,40.16645],[-121.58857,40.16636],[-121.58854,40.16622],[-121.58888,40.16617],[-121.58919,40.16624],[-121.5897,40.16603],[-121.58994,40.16553],[-121.59029,40.16546],[-121.59056,40.16552],[-121.59089,40.1657],[-121.59113,40.16567],[-121.59128,40.16551],[-121.59152,40.16544],[-121.59199,40.16545],[-121.59247,40.16559],[-121.59292,40.16616],[-121.59305,40.16637],[-121.59334,40.16644],[-121.59362,40.16632],[-121.59415,40.16565],[-121.59427,40.1654],[-121.59423,40.16514],[-121.59388,40.16458],[-121.59388,40.16442],[-121.59421,40.16422],[-121.59528,40.16411],[-121.59589,40.16415],[-121.59641,40.16402],[-121.59653,40.16385],[-121.59665,40.16375],[-121.59688,40.16372],[-121.59714,40.16386],[-121.59813,40.16408],[-121.59845,40.16431],[-121.5986,40.16453],[-121.59879,40.16466],[-121.5991,40.16471],[-121.59975,40.16456],[-121.60021,40.16443],[-121.6007,40.16438],[-121.60092,40.16421],[-121.60098,40.16389],[-121.60115,40.16329],[-121.60119,40.16286],[-121.6013,40.16274],[-121.60148,40.1627],[-121.6021,40.16302],[-121.60231,40.16327],[-121.60236,40.16349],[-121.60245,40.16358],[-121.60259,40.16356],[-121.60264,40.1634],[-121.60227,40.16283],[-121.6022,40.16217],[-121.602,40.16118],[-121.60188,40.16091],[-121.60168,40.16082],[-121.60145,40.16088],[-121.60125,40.16124],[-121.60075,40.16202],[-121.60037,40.16237],[-121.60012,40.16244],[-121.59997,40.16237],[-121.60001,40.16221],[-121.60036,40.162],[-121.60066,40.16165],[-121.60081,40.16133],[-121.60069,40.16096],[-121.60074,40.16076],[-121.60091,40.16056],[-121.601,40.16036],[-121.60099,40.15994],[-121.6009,40.15965],[-121.60087,40.15948],[-121.60109,40.15932],[-121.60152,40.1594],[-121.60196,40.15968],[-121.60229,40.16028],[-121.60268,40.16058],[-121.60292,40.16076],[-121.60298,40.16107],[-121.60318,40.16139],[-121.60375,40.16166],[-121.60385,40.16187],[-121.6038,40.16225],[-121.60388,40.16257],[-121.60418,40.16305],[-121.60483,40.16352],[-121.60539,40.16363],[-121.60583,40.1638],[-121.60663,40.1639],[-121.60708,40.16406],[-121.60756,40.16407],[-121.60865,40.1639],[-121.61008,40.16376],[-121.61061,40.16368],[-121.61091,40.16368],[-121.6112,40.16384],[-121.61196,40.16403],[-121.61323,40.16399],[-121.61384,40.16382],[-121.61445,40.16344],[-121.61521,40.1629],[-121.61546,40.16285],[-121.61564,40.16293],[-121.61584,40.16331],[-121.61599,40.16347],[-121.61664,40.16365],[-121.61724,40.16376],[-121.61795,40.16358],[-121.61868,40.16307],[-121.61964,40.16271],[-121.62007,40.16239],[-121.6206,40.16217],[-121.62109,40.16218],[-121.62155,40.16207],[-121.62204,40.16181],[-121.62228,40.1618],[-121.62246,40.16193],[-121.62285,40.16211],[-121.62342,40.16217],[-121.62409,40.16207],[-121.62441,40.16196],[-121.62448,40.16185],[-121.62437,40.16176],[-121.62419,40.16178],[-121.62397,40.16194],[-121.62373,40.16199],[-121.62337,40.16199],[-121.62285,40.16184],[-121.62255,40.16142],[-121.62218,40.16126],[-121.6218,40.1613],[-121.62144,40.16126],[-121.62055,40.16094],[-121.62013,40.16055],[-121.62,40.15984],[-121.61954,40.15959],[-121.61879,40.15974],[-121.61816,40.15966],[-121.61734,40.15981],[-121.61695,40.15978],[-121.6167,40.15949],[-121.61667,40.15848],[-121.61664,40.15821],[-121.6161,40.15765],[-121.61544,40.15665],[-121.61538,40.15624],[-121.61527,40.15598],[-121.6149,40.15562],[-121.61433,40.15503],[-121.61375,40.15455],[-121.61284,40.15399],[-121.61171,40.15382],[-121.61139,40.15389],[-121.61131,40.1541],[-121.61139,40.15452],[-121.61115,40.15478],[-121.61078,40.15486],[-121.61042,40.15478],[-121.61003,40.15446],[-121.60941,40.1542],[-121.60894,40.1542],[-121.6086,40.1544],[-121.6084,40.15447],[-121.60784,40.15445],[-121.60755,40.15435],[-121.60709,40.15394],[-121.60563,40.1533],[-121.60521,40.15294],[-121.60496,40.15228],[-121.60465,40.15208],[-121.60435,40.15211],[-121.60385,40.15259],[-121.60359,40.15332],[-121.60339,40.15356],[-121.60311,40.15363],[-121.60256,40.1536],[-121.60225,40.15367],[-121.60174,40.15393],[-121.60145,40.15425],[-121.60112,40.15444],[-121.60018,40.15456],[-121.59964,40.15452],[-121.59902,40.1542],[-121.59861,40.15414],[-121.59789,40.15424],[-121.5963,40.1541],[-121.59579,40.15397],[-121.59402,40.15299],[-121.59366,40.15273],[-121.59356,40.15247],[-121.59356,40.15157],[-121.59342,40.15134],[-121.59229,40.15065],[-121.59141,40.14993],[-121.59099,40.14984],[-121.59074,40.14987],[-121.59018,40.15042],[-121.59006,40.15097],[-121.59056,40.15178],[-121.59068,40.15205],[-121.59061,40.15226],[-121.59033,40.15238]]}}]}