{"type":"FeatureCollection","features":[{"type":"Feature","properties":{"name":"(unnamed public road)","road_class":"track","surface":"dirt","source":"Caltrans All Roads + OpenStreetMap explicit surface","source_detail":"osm way 10310476; Caltrans All Roads public-network geometry match","source_tile":"165/391","public_network_source":"Caltrans All Roads (ARNOLD/HPMS)","surface_source":"OpenStreetMap explicit surface tag","caltrans_match_coverage":1.0,"verified_length_m":912},"geometry":{"type":"LineString","coordinates":[[-121.96951,39.05668],[-121.96947,39.05658],[-121.96944,39.05646],[-121.96942,39.05636],[-121.9694,39.05555],[-121.96943,39.05466],[-121.96943,39.05388],[-121.96945,39.05276],[-121.96946,39.05155],[-121.96947,39.05063],[-121.96947,39.04987],[-121.96947,39.04928],[-121.96948,39.04867],[-121.96948,39.04856],[-121.96949,39.04853],[-121.9695,39.0485],[-121.96952,39.04848],[-121.96954,39.04845]]}},{"type":"Feature","properties":{"name":"(unnamed public road)","road_class":"track","surface":"dirt","source":"Caltrans All Roads + OpenStreetMap explicit surface","source_detail":"osm way 1004205301; Caltrans All Roads public-network geometry match","source_tile":"165/391","public_network_source":"Caltrans All Roads (ARNOLD/HPMS)","surface_source":"OpenStreetMap explicit surface tag","caltrans_match_coverage":1.0,"verified_length_m":788},"geometry":{"type":"LineString","coordinates":[[-121.96915,39.05668],[-121.96918,39.05696],[-121.96919,39.05699],[-121.96919,39.05708],[-121.9692,39.05741],[-121.96919,39.05786],[-121.96918,39.05839],[-121.96918,39.05891],[-121.96917,39.05965],[-121.96915,39.06023],[-121.96915,39.06038],[-121.96915,39.0607],[-121.96914,39.0612],[-121.96914,39.06169],[-121.96913,39.06206],[-121.96913,39.06243],[-121.96912,39.06293],[-121.96912,39.06319],[-121.96908,39.06362],[-121.96908,39.0637],[-121.96906,39.0638]]}}]}