{"type":"FeatureCollection","features":[{"type":"Feature","properties":{"name":"(unnamed public road)","road_class":"track","source":"OpenStreetMap","source_detail":"osm way 1527427825","source_tile":"179/414","surface_inferred":true},"geometry":{"type":"LineString","coordinates":[[-116.78677,32.55703],[-116.78651,32.5571],[-116.78631,32.55718],[-116.78624,32.55721],[-116.78621,32.55726],[-116.78617,32.55737],[-116.78612,32.55742],[-116.78598,32.55749],[-116.78594,32.55758],[-116.7859,32.55769],[-116.78574,32.55781],[-116.78561,32.55786],[-116.7855,32.55783],[-116.7854,32.55777],[-116.78534,32.55769],[-116.78533,32.55755],[-116.78539,32.55745],[-116.7855,32.55739],[-116.78564,32.55731],[-116.78575,32.55721],[-116.78582,32.55711],[-116.78585,32.55698],[-116.78581,32.5568],[-116.7857,32.55643],[-116.78569,32.5563],[-116.78568,32.55593],[-116.78571,32.55584],[-116.78581,32.55566],[-116.78592,32.55551],[-116.78614,32.55533],[-116.78633,32.55522],[-116.78655,32.55511],[-116.78679,32.55503],[-116.78706,32.55488],[-116.78724,32.55475],[-116.78735,32.55459],[-116.78749,32.55436],[-116.78757,32.55427],[-116.78767,32.55421],[-116.78803,32.55409],[-116.78819,32.55407],[-116.78838,32.55409],[-116.78847,32.5541],[-116.78854,32.55409],[-116.78856,32.55403],[-116.78849,32.55397],[-116.78828,32.55386],[-116.78804,32.55377],[-116.78775,32.55374],[-116.7875,32.55373],[-116.78731,32.55378],[-116.78705,32.55386],[-116.78691,32.55393],[-116.78683,32.55394],[-116.78674,32.55391],[-116.78669,32.55384],[-116.78659,32.55367],[-116.7865,32.55362],[-116.78636,32.5536],[-116.78578,32.55359],[-116.78565,32.55361],[-116.78547,32.55377],[-116.78525,32.55396],[-116.78515,32.55401],[-116.78509,32.554],[-116.78507,32.55397],[-116.7851,32.55392],[-116.7852,32.55386],[-116.78543,32.55358],[-116.78551,32.55347],[-116.78591,32.55329],[-116.78596,32.55326],[-116.78601,32.55318],[-116.78602,32.55307],[-116.78614,32.55278],[-116.78627,32.55255],[-116.78638,32.55248],[-116.7865,32.55247],[-116.78682,32.55261],[-116.78692,32.5527],[-116.78701,32.5528],[-116.78711,32.55285],[-116.78719,32.55285],[-116.78726,32.55279],[-116.78726,32.5527],[-116.78728,32.55263],[-116.78733,32.55259],[-116.78747,32.55248],[-116.78756,32.55241],[-116.78766,32.55237],[-116.78776,32.5523],[-116.78782,32.55219],[-116.78792,32.55213],[-116.7881,32.55207],[-116.78822,32.55206],[-116.78849,32.5521],[-116.7888,32.55207],[-116.78889,32.552],[-116.78914,32.55169],[-116.78956,32.5513],[-116.78967,32.55115],[-116.78984,32.5508],[-116.78995,32.55068],[-116.79019,32.55052],[-116.79035,32.55037],[-116.79051,32.55018],[-116.79072,32.55011],[-116.79087,32.55005],[-116.79101,32.5499],[-116.79115,32.5498],[-116.79149,32.54964],[-116.7916,32.54956],[-116.79187,32.54928],[-116.79192,32.54915],[-116.79193,32.54906],[-116.79189,32.54896],[-116.7917,32.54861],[-116.7916,32.54849],[-116.79149,32.54842],[-116.79135,32.54837],[-116.79129,32.54833],[-116.79129,32.54829],[-116.79135,32.54825],[-116.79144,32.54823],[-116.79161,32.54822],[-116.79171,32.54816],[-116.79218,32.5477],[-116.79229,32.54765],[-116.79243,32.54765],[-116.79254,32.54762],[-116.7926,32.54753],[-116.79268,32.54738],[-116.79275,32.54727],[-116.79277,32.54707],[-116.79276,32.54691],[-116.79267,32.54677]]}}]}