{"type":"FeatureCollection","features":[{"type":"Feature","properties":{"name":"Onaga Trail","road_class":"track","surface":"dirt","source":"Caltrans All Roads + OpenStreetMap explicit surface","source_detail":"osm way 7195674; Caltrans All Roads public-network geometry match","source_tile":"181/408","public_network_source":"Caltrans All Roads (ARNOLD/HPMS)","surface_source":"OpenStreetMap explicit surface tag","caltrans_match_coverage":1.0,"verified_length_m":628},"geometry":{"type":"LineString","coordinates":[[-116.36155,34.11255],[-116.36173,34.11246],[-116.36207,34.11241],[-116.36256,34.11244],[-116.36277,34.11245],[-116.36329,34.1124],[-116.36343,34.11243],[-116.36371,34.11241],[-116.36392,34.11245],[-116.36455,34.1124],[-116.36549,34.11247],[-116.36743,34.11245],[-116.3675,34.11245],[-116.36769,34.11245],[-116.36823,34.11245],[-116.36831,34.11245]]}},{"type":"Feature","properties":{"name":"Sunway Drive","road_class":"track","surface":"unpaved","source":"Caltrans All Roads + OpenStreetMap explicit surface","source_detail":"osm way 7203785; Caltrans All Roads public-network geometry match","source_tile":"181/408","public_network_source":"Caltrans All Roads (ARNOLD/HPMS)","surface_source":"OpenStreetMap explicit surface tag","caltrans_match_coverage":1.0,"verified_length_m":718},"geometry":{"type":"LineString","coordinates":[[-116.36177,34.17493],[-116.36185,34.17493],[-116.36267,34.17491],[-116.36301,34.1749],[-116.36371,34.17491],[-116.36521,34.17494],[-116.36736,34.17492],[-116.36956,34.1749]]}},{"type":"Feature","properties":{"name":"La Crescenta Drive","road_class":"track","surface":"unpaved","source":"Caltrans All Roads + OpenStreetMap explicit surface","source_detail":"osm way 7391026; Caltrans All Roads public-network geometry match","source_tile":"181/408","public_network_source":"Caltrans All Roads (ARNOLD/HPMS)","surface_source":"OpenStreetMap explicit surface tag","caltrans_match_coverage":1.0,"verified_length_m":1617},"geometry":{"type":"LineString","coordinates":[[-116.35185,34.20394],[-116.35629,34.20389],[-116.35913,34.20387],[-116.36067,34.20385],[-116.3649,34.20389],[-116.36499,34.20389],[-116.36639,34.20386],[-116.3669,34.20389],[-116.36707,34.20389],[-116.36735,34.20388],[-116.36752,34.20388],[-116.36941,34.20384]]}},{"type":"Feature","properties":{"name":"(unnamed public road)","road_class":"track","surface":"unpaved","source":"Caltrans All Roads + OpenStreetMap explicit surface","source_detail":"osm way 290770244; Caltrans All Roads public-network geometry match","source_tile":"181/408","public_network_source":"Caltrans All Roads (ARNOLD/HPMS)","surface_source":"OpenStreetMap explicit surface tag","caltrans_match_coverage":0.94,"verified_length_m":2929},"geometry":{"type":"LineString","coordinates":[[-116.35813,34.11443],[-116.35797,34.11466],[-116.35765,34.11499],[-116.3575,34.11515],[-116.3574,34.11532],[-116.35718,34.11575],[-116.35696,34.11612],[-116.35676,34.11645],[-116.35654,34.11668],[-116.35619,34.11698],[-116.35599,34.11718],[-116.35574,34.11751],[-116.35549,34.11779],[-116.35526,34.11805],[-116.35513,34.11827],[-116.3551,34.11849],[-116.35506,34.11893],[-116.355,34.11922],[-116.35486,34.11943],[-116.35469,34.11972],[-116.35458,34.11993],[-116.3545,34.12022],[-116.3545,34.12049],[-116.35444,34.12074],[-116.35438,34.12103],[-116.35434,34.12135],[-116.35428,34.12205],[-116.35427,34.12229],[-116.35428,34.12273],[-116.35424,34.12325],[-116.35418,34.12364],[-116.35404,34.12404],[-116.35392,34.12457],[-116.35384,34.12506],[-116.35373,34.12563],[-116.3537,34.12602],[-116.35371,34.12628],[-116.35377,34.12648],[-116.35387,34.12661],[-116.35408,34.12665],[-116.35458,34.12659],[-116.35502,34.12654],[-116.35535,34.12651],[-116.35593,34.1265],[-116.35627,34.12648],[-116.35674,34.12645],[-116.35712,34.12644],[-116.35755,34.12643],[-116.35803,34.12643],[-116.35864,34.12648],[-116.35973,34.12648],[-116.36037,34.12652],[-116.36101,34.12656],[-116.36143,34.1266],[-116.36254,34.12658],[-116.36381,34.12661],[-116.36428,34.1266],[-116.3656,34.12661],[-116.3664,34.12658],[-116.36857,34.12666],[-116.36926,34.12666],[-116.36985,34.12674]]}},{"type":"Feature","properties":{"name":"Chollita Road","road_class":"track","surface":"unpaved","source":"Caltrans All Roads + OpenStreetMap explicit surface","source_detail":"osm way 7205706; Caltrans All Roads public-network geometry match","source_tile":"181/408","public_network_source":"Caltrans All Roads (ARNOLD/HPMS)","surface_source":"OpenStreetMap explicit surface tag","caltrans_match_coverage":1.0,"verified_length_m":558},"geometry":{"type":"LineString","coordinates":[[-116.25729,34.13687],[-116.25742,34.13687],[-116.25846,34.1369],[-116.26027,34.13693],[-116.26335,34.13691]]}},{"type":"Feature","properties":{"name":"Bourbon Street","road_class":"track","surface":"dirt","source":"Caltrans All Roads + OpenStreetMap explicit surface","source_detail":"osm way 7234708; Caltrans All Roads public-network geometry match","source_tile":"181/408","public_network_source":"Caltrans All Roads (ARNOLD/HPMS)","surface_source":"OpenStreetMap explicit surface tag","caltrans_match_coverage":1.0,"verified_length_m":912},"geometry":{"type":"LineString","coordinates":[[-116.33034,34.1476],[-116.33079,34.14778],[-116.33161,34.14821],[-116.33171,34.14852],[-116.33183,34.14876],[-116.3323,34.14913],[-116.33267,34.1493],[-116.33282,34.14936],[-116.33302,34.14943],[-116.33486,34.14944],[-116.33661,34.14948],[-116.33792,34.14948],[-116.33796,34.14948],[-116.33905,34.14949],[-116.3393,34.14951]]}},{"type":"Feature","properties":{"name":"Border Avenue","road_class":"track","surface":"unpaved","source":"Caltrans All Roads + OpenStreetMap explicit surface","source_detail":"osm way 7249418; Caltrans All Roads public-network geometry match","source_tile":"181/408","public_network_source":"Caltrans All Roads (ARNOLD/HPMS)","surface_source":"OpenStreetMap explicit surface tag","caltrans_match_coverage":1.0,"verified_length_m":1786},"geometry":{"type":"LineString","coordinates":[[-116.29987,34.13502],[-116.29982,34.1354],[-116.29979,34.13836],[-116.29979,34.13888],[-116.29984,34.14174],[-116.29986,34.14221],[-116.29988,34.14248],[-116.29997,34.14307],[-116.29999,34.14313],[-116.3,34.14331],[-116.30004,34.14382],[-116.29983,34.14492],[-116.29985,34.14554],[-116.29985,34.14567],[-116.29984,34.1462],[-116.29991,34.14732],[-116.29996,34.14845],[-116.29996,34.149],[-116.29999,34.14935],[-116.29995,34.14955],[-116.3,34.15076],[-116.29994,34.15114]]}},{"type":"Feature","properties":{"name":"Sahara Terrace","road_class":"track","surface":"sand","tracktype":"grade5","source":"Caltrans All Roads + OpenStreetMap explicit surface","source_detail":"osm way 7280968; Caltrans All Roads public-network geometry match","source_tile":"181/408","public_network_source":"Caltrans All Roads (ARNOLD/HPMS)","surface_source":"OpenStreetMap explicit surface tag","caltrans_match_coverage":1.0,"verified_length_m":791},"geometry":{"type":"LineString","coordinates":[[-116.28606,34.22241],[-116.28603,34.22598],[-116.28607,34.22957]]}},{"type":"Feature","properties":{"name":"Sunny Sands Drive","road_class":"unclassified","surface":"dirt","source":"Caltrans All Roads + OpenStreetMap explicit surface","source_detail":"osm way 7302390; Caltrans All Roads public-network geometry match","source_tile":"181/408","public_network_source":"Caltrans All Roads (ARNOLD/HPMS)","surface_source":"OpenStreetMap explicit surface tag","caltrans_match_coverage":1.0,"verified_length_m":3876},"geometry":{"type":"LineString","coordinates":[[-116.31693,34.20034],[-116.31474,34.20036],[-116.31256,34.20037],[-116.31038,34.20043],[-116.30791,34.20046],[-116.30701,34.20045],[-116.30593,34.20048],[-116.30375,34.20053],[-116.30151,34.20057],[-116.29931,34.2006],[-116.29512,34.20059],[-116.29296,34.20061],[-116.29076,34.2006],[-116.28966,34.2006],[-116.28847,34.20061],[-116.28711,34.20062],[-116.2863,34.2006],[-116.2842,34.20064],[-116.28297,34.20059],[-116.28199,34.20061],[-116.27991,34.20061],[-116.2776,34.20055],[-116.27683,34.20062],[-116.27671,34.20069],[-116.27642,34.20089],[-116.2759,34.20098],[-116.27571,34.20095],[-116.27525,34.20069],[-116.27511,34.20059]]}},{"type":"Feature","properties":{"name":"Foothill Drive","road_class":"track","surface":"unpaved","source":"Caltrans All Roads + OpenStreetMap explicit surface","source_detail":"osm way 7303119; Caltrans All Roads public-network geometry match","source_tile":"181/408","public_network_source":"Caltrans All Roads (ARNOLD/HPMS)","surface_source":"OpenStreetMap explicit surface tag","caltrans_match_coverage":1.0,"verified_length_m":1355},"geometry":{"type":"LineString","coordinates":[[-116.23843,34.12421],[-116.24275,34.1242],[-116.24526,34.12418],[-116.24542,34.12418],[-116.24712,34.12418],[-116.24988,34.12411],[-116.25088,34.12411],[-116.25313,34.12412]]}},{"type":"Feature","properties":{"name":"Arizona Avenue","road_class":"track","surface":"unpaved","source":"Caltrans All Roads + OpenStreetMap explicit surface","source_detail":"osm way 7316108; Caltrans All Roads public-network geometry match","source_tile":"181/408","public_network_source":"Caltrans All Roads (ARNOLD/HPMS)","surface_source":"OpenStreetMap explicit surface tag","caltrans_match_coverage":1.0,"verified_length_m":616},"geometry":{"type":"LineString","coordinates":[[-116.26688,34.12953],[-116.26685,34.1351]]}},{"type":"Feature","properties":{"name":"Sahara Terrace","road_class":"track","surface":"sand","tracktype":"grade5","source":"Caltrans All Roads + OpenStreetMap explicit surface","source_detail":"osm way 7330272; Caltrans All Roads public-network geometry match","source_tile":"181/408","public_network_source":"Caltrans All Roads (ARNOLD/HPMS)","surface_source":"OpenStreetMap explicit surface tag","caltrans_match_coverage":1.0,"verified_length_m":811},"geometry":{"type":"LineString","coordinates":[[-116.28607,34.22957],[-116.28599,34.2305],[-116.28603,34.2314],[-116.28601,34.23282],[-116.28601,34.23326],[-116.28596,34.2369]]}},{"type":"Feature","properties":{"name":"Neptune Avenue","road_class":"track","surface":"unpaved","source":"Caltrans All Roads + OpenStreetMap explicit surface","source_detail":"osm way 7346292; Caltrans All Roads public-network geometry match","source_tile":"181/408","public_network_source":"Caltrans All Roads (ARNOLD/HPMS)","surface_source":"OpenStreetMap explicit surface tag","caltrans_match_coverage":1.0,"verified_length_m":561},"geometry":{"type":"LineString","coordinates":[[-116.29312,34.12955],[-116.2932,34.12959],[-116.29323,34.12965],[-116.29325,34.13047],[-116.29323,34.13139],[-116.29325,34.13257],[-116.29324,34.13367],[-116.29322,34.13458]]}},{"type":"Feature","properties":{"name":"El Cajon Drive","road_class":"track","surface":"unpaved","source":"Caltrans All Roads + OpenStreetMap explicit surface","source_detail":"osm way 7352477; Caltrans All Roads public-network geometry match","source_tile":"181/408","public_network_source":"Caltrans All Roads (ARNOLD/HPMS)","surface_source":"OpenStreetMap explicit surface tag","caltrans_match_coverage":1.0,"verified_length_m":704},"geometry":{"type":"LineString","coordinates":[[-116.35173,34.12652],[-116.35162,34.12675],[-116.34953,34.12675],[-116.34799,34.12674],[-116.34428,34.12673]]}},{"type":"Feature","properties":{"name":"La Brisa Drive","road_class":"track","surface":"unpaved","source":"Caltrans All Roads + OpenStreetMap explicit surface","source_detail":"osm way 7352567; Caltrans All Roads public-network geometry match","source_tile":"181/408","public_network_source":"Caltrans All Roads (ARNOLD/HPMS)","surface_source":"OpenStreetMap explicit surface tag","caltrans_match_coverage":1.0,"verified_length_m":1602},"geometry":{"type":"LineString","coordinates":[[-116.36057,34.2078],[-116.36047,34.20781],[-116.36022,34.20781],[-116.3594,34.20779],[-116.35627,34.2078],[-116.35584,34.2078],[-116.35563,34.20779],[-116.35485,34.20779],[-116.35253,34.20778],[-116.35184,34.20778],[-116.34964,34.20776],[-116.34753,34.20775],[-116.34317,34.20771]]}},{"type":"Feature","properties":{"name":"Littlefield Road","road_class":"unclassified","surface":"dirt","source":"Caltrans All Roads + OpenStreetMap explicit surface","source_detail":"osm way 7375534; Caltrans All Roads public-network geometry match","source_tile":"181/408","public_network_source":"Caltrans All Roads (ARNOLD/HPMS)","surface_source":"OpenStreetMap explicit surface tag","caltrans_match_coverage":1.0,"verified_length_m":1602},"geometry":{"type":"LineString","coordinates":[[-116.27288,34.23691],[-116.27286,34.23786],[-116.27285,34.23866],[-116.27287,34.2395],[-116.27288,34.24046],[-116.27288,34.24227],[-116.27285,34.24409],[-116.27283,34.2452],[-116.27284,34.24558],[-116.27284,34.24589],[-116.27285,34.24638],[-116.27284,34.2469],[-116.27284,34.24715],[-116.27286,34.24776],[-116.27285,34.24865],[-116.27284,34.24949],[-116.27285,34.24953],[-116.27286,34.2498],[-116.27284,34.25047],[-116.27282,34.25104],[-116.27283,34.2514]]}},{"type":"Feature","properties":{"name":"Demense Road","road_class":"track","surface":"unpaved","source":"Caltrans All Roads + OpenStreetMap explicit surface","source_detail":"osm way 7392774; Caltrans All Roads public-network geometry match","source_tile":"181/408","public_network_source":"Caltrans All Roads (ARNOLD/HPMS)","surface_source":"OpenStreetMap explicit surface tag","caltrans_match_coverage":1.0,"verified_length_m":528},"geometry":{"type":"LineString","coordinates":[[-116.34964,34.20776],[-116.34955,34.21141],[-116.34954,34.21254]]}},{"type":"Feature","properties":{"name":"Kimberly Road","road_class":"track","surface":"unpaved","source":"Caltrans All Roads + OpenStreetMap explicit surface","source_detail":"osm way 7407774; Caltrans All Roads public-network geometry match","source_tile":"181/408","public_network_source":"Caltrans All Roads (ARNOLD/HPMS)","surface_source":"OpenStreetMap explicit surface tag","caltrans_match_coverage":1.0,"verified_length_m":522},"geometry":{"type":"LineString","coordinates":[[-116.26911,34.12412],[-116.27106,34.1241],[-116.27126,34.12407],[-116.27148,34.12407],[-116.27192,34.12411],[-116.27208,34.12411],[-116.27228,34.12409],[-116.27351,34.1241],[-116.27453,34.12411],[-116.27471,34.12412],[-116.27476,34.1241]]}},{"type":"Feature","properties":{"name":"Sunever Road","road_class":"unclassified","surface":"dirt","source":"Caltrans All Roads + OpenStreetMap explicit surface","source_detail":"osm way 7415251; Caltrans All Roads public-network geometry match","source_tile":"181/408","public_network_source":"Caltrans All Roads (ARNOLD/HPMS)","surface_source":"OpenStreetMap explicit surface tag","caltrans_match_coverage":0.983,"verified_length_m":1596},"geometry":{"type":"LineString","coordinates":[[-116.26195,34.23691],[-116.26198,34.23867],[-116.26197,34.23958],[-116.26197,34.24047],[-116.26197,34.2405],[-116.26195,34.24413],[-116.26195,34.24612],[-116.26196,34.24789],[-116.26195,34.24924],[-116.26195,34.25],[-116.26195,34.25087],[-116.26194,34.25135]]}},{"type":"Feature","properties":{"name":"Sun View Road","road_class":"track","surface":"unpaved","source":"Caltrans All Roads + OpenStreetMap explicit surface","source_detail":"osm way 7422144; Caltrans All Roads public-network geometry match","source_tile":"181/408","public_network_source":"Caltrans All Roads (ARNOLD/HPMS)","surface_source":"OpenStreetMap explicit surface tag","caltrans_match_coverage":1.0,"verified_length_m":999},"geometry":{"type":"LineString","coordinates":[[-116.24275,34.1206],[-116.24275,34.12074],[-116.24275,34.1242],[-116.24275,34.12521],[-116.24276,34.12624],[-116.24277,34.12783],[-116.24281,34.12964]]}},{"type":"Feature","properties":{"name":"Cottonwood Drive","road_class":"track","surface":"unpaved","source":"Caltrans All Roads + OpenStreetMap explicit surface","source_detail":"osm way 7437607; Caltrans All Roads public-network geometry match","source_tile":"181/408","public_network_source":"Caltrans All Roads (ARNOLD/HPMS)","surface_source":"OpenStreetMap explicit surface tag","caltrans_match_coverage":1.0,"verified_length_m":1019},"geometry":{"type":"LineString","coordinates":[[-116.28875,34.12956],[-116.29104,34.12956],[-116.29312,34.12955],[-116.29958,34.12955],[-116.2998,34.12949]]}},{"type":"Feature","properties":{"name":"Sun View Avenue","road_class":"track","surface":"unpaved","source":"Caltrans All Roads + OpenStreetMap explicit surface","source_detail":"osm way 7438967; Caltrans All Roads public-network geometry match","source_tile":"181/408","public_network_source":"Caltrans All Roads (ARNOLD/HPMS)","surface_source":"OpenStreetMap explicit surface tag","caltrans_match_coverage":1.0,"verified_length_m":613},"geometry":{"type":"LineString","coordinates":[[-116.24281,34.12964],[-116.24274,34.13148],[-116.24282,34.13518]]}},{"type":"Feature","properties":{"name":"Bonita Avenue","road_class":"track","surface":"unpaved","source":"Caltrans All Roads + OpenStreetMap explicit surface","source_detail":"osm way 7462624; Caltrans All Roads public-network geometry match","source_tile":"181/408","public_network_source":"Caltrans All Roads (ARNOLD/HPMS)","surface_source":"OpenStreetMap explicit surface tag","caltrans_match_coverage":1.0,"verified_length_m":3205},"geometry":{"type":"LineString","coordinates":[[-116.36522,34.16402],[-116.36523,34.16574],[-116.36522,34.16765],[-116.36523,34.16918],[-116.36523,34.16982],[-116.36523,34.17008],[-116.36524,34.17126],[-116.36522,34.17322],[-116.36521,34.17494],[-116.36519,34.17673],[-116.36524,34.1785],[-116.36522,34.17913],[-116.36519,34.18075],[-116.36513,34.18208],[-116.3651,34.18582],[-116.36503,34.18745],[-116.36504,34.18939],[-116.365,34.19028],[-116.36501,34.19301]]}},{"type":"Feature","properties":{"name":"La Ferney Avenue","road_class":"track","surface":"unpaved","source":"Caltrans All Roads + OpenStreetMap explicit surface","source_detail":"osm way 7469235; Caltrans All Roads public-network geometry match","source_tile":"181/408","public_network_source":"Caltrans All Roads (ARNOLD/HPMS)","surface_source":"OpenStreetMap explicit surface tag","caltrans_match_coverage":1.0,"verified_length_m":970},"geometry":{"type":"LineString","coordinates":[[-116.27351,34.13731],[-116.27349,34.13813],[-116.27352,34.1394],[-116.27349,34.14131],[-116.27349,34.14246],[-116.27345,34.14608]]}},{"type":"Feature","properties":{"name":"Petunia Drive","road_class":"track","surface":"unpaved","source":"Caltrans All Roads + OpenStreetMap explicit surface","source_detail":"osm way 7497651; Caltrans All Roads public-network geometry match","source_tile":"181/408","public_network_source":"Caltrans All Roads (ARNOLD/HPMS)","surface_source":"OpenStreetMap explicit surface tag","caltrans_match_coverage":1.0,"verified_length_m":1234},"geometry":{"type":"LineString","coordinates":[[-116.29553,34.14415],[-116.29722,34.14402],[-116.29845,34.14388],[-116.30004,34.14382],[-116.30085,34.14375],[-116.30285,34.14368],[-116.30343,34.14364],[-116.30421,34.14361],[-116.3046,34.14358],[-116.3057,34.14362],[-116.30592,34.14365],[-116.30611,34.14373],[-116.30619,34.1438],[-116.30628,34.14401],[-116.30635,34.14406],[-116.30646,34.14408],[-116.30863,34.14405]]}},{"type":"Feature","properties":{"name":"Verbena Road","road_class":"track","surface":"unpaved","source":"Caltrans All Roads + OpenStreetMap explicit surface","source_detail":"osm way 7503292; Caltrans All Roads public-network geometry match","source_tile":"181/408","public_network_source":"Caltrans All Roads (ARNOLD/HPMS)","surface_source":"OpenStreetMap explicit surface tag","caltrans_match_coverage":1.0,"verified_length_m":546},"geometry":{"type":"LineString","coordinates":[[-116.25748,34.13872],[-116.25902,34.13869],[-116.26022,34.13871],[-116.26053,34.13869],[-116.2634,34.13872]]}},{"type":"Feature","properties":{"name":"Winters Road","road_class":"unclassified","surface":"dirt","source":"Caltrans All Roads + OpenStreetMap explicit surface","source_detail":"osm way 148014077; Caltrans All Roads public-network geometry match","source_tile":"181/408","public_network_source":"Caltrans All Roads (ARNOLD/HPMS)","surface_source":"OpenStreetMap explicit surface tag","caltrans_match_coverage":1.0,"verified_length_m":4821},"geometry":{"type":"LineString","coordinates":[[-116.29912,34.23694],[-116.30045,34.23693],[-116.30344,34.23693],[-116.30773,34.23693],[-116.31199,34.23695],[-116.31414,34.23693],[-116.31658,34.23696],[-116.31874,34.23694],[-116.32079,34.23691],[-116.32316,34.23694],[-116.32535,34.23691],[-116.32564,34.23691],[-116.32965,34.23689],[-116.33416,34.23689],[-116.33632,34.23685],[-116.33733,34.23681],[-116.33841,34.23681],[-116.33946,34.23681],[-116.34067,34.23682],[-116.3429,34.23684],[-116.34504,34.23686],[-116.34509,34.23686],[-116.34716,34.2369],[-116.34909,34.23696],[-116.34949,34.23697],[-116.3505,34.23691],[-116.35149,34.237]]}},{"type":"Feature","properties":{"name":"Rice Avenue","road_class":"track","surface":"unpaved","source":"Caltrans All Roads + OpenStreetMap explicit surface","source_detail":"osm way 202054762; Caltrans All Roads public-network geometry match","source_tile":"181/408","public_network_source":"Caltrans All Roads (ARNOLD/HPMS)","surface_source":"OpenStreetMap explicit surface tag","caltrans_match_coverage":1.0,"verified_length_m":2312},"geometry":{"type":"LineString","coordinates":[[-116.28224,34.13506],[-116.28225,34.13755],[-116.28225,34.13892],[-116.28225,34.13911],[-116.28223,34.14161],[-116.28223,34.14178],[-116.28222,34.14223],[-116.28224,34.14501],[-116.28224,34.14514],[-116.28224,34.14588],[-116.28224,34.14973],[-116.2822,34.15091],[-116.28218,34.15125],[-116.28217,34.15156],[-116.28219,34.15333],[-116.28218,34.15512],[-116.28214,34.15597]]}},{"type":"Feature","properties":{"name":"Saddleback Road","road_class":"track","surface":"dirt","source":"Caltrans All Roads + OpenStreetMap explicit surface","source_detail":"osm way 202054766; Caltrans All Roads public-network geometry match","source_tile":"181/408","public_network_source":"Caltrans All Roads (ARNOLD/HPMS)","surface_source":"OpenStreetMap explicit surface tag","caltrans_match_coverage":1.0,"verified_length_m":680},"geometry":{"type":"LineString","coordinates":[[-116.33036,34.13495],[-116.3304,34.13514],[-116.33043,34.13577],[-116.33042,34.1363],[-116.3304,34.1404],[-116.33039,34.14043],[-116.33039,34.1411]]}},{"type":"Feature","properties":{"name":"Hollinger Road","road_class":"track","surface":"unpaved","source":"Caltrans All Roads + OpenStreetMap explicit surface","source_detail":"osm way 202054783; Caltrans All Roads public-network geometry match","source_tile":"181/408","public_network_source":"Caltrans All Roads (ARNOLD/HPMS)","surface_source":"OpenStreetMap explicit surface tag","caltrans_match_coverage":1.0,"verified_length_m":2039},"geometry":{"type":"LineString","coordinates":[[-116.26465,34.13511],[-116.26455,34.13558],[-116.26461,34.13644],[-116.26461,34.13692],[-116.26463,34.13949],[-116.26463,34.13961],[-116.26464,34.14149],[-116.26463,34.14194],[-116.26463,34.14246],[-116.26459,34.14619],[-116.26451,34.14629],[-116.26451,34.1464],[-116.26459,34.14663],[-116.26463,34.14688],[-116.26465,34.14988],[-116.26463,34.15074],[-116.26461,34.15172],[-116.26468,34.15351]]}},{"type":"Feature","properties":{"name":"Neptune Avenue","road_class":"track","surface":"unpaved","source":"Caltrans All Roads + OpenStreetMap explicit surface","source_detail":"osm way 282198185; Caltrans All Roads public-network geometry match","source_tile":"181/408","public_network_source":"Caltrans All Roads (ARNOLD/HPMS)","surface_source":"OpenStreetMap explicit surface tag","caltrans_match_coverage":1.0,"verified_length_m":553},"geometry":{"type":"LineString","coordinates":[[-116.29322,34.13503],[-116.2933,34.14003]]}},{"type":"Feature","properties":{"name":"Cottonwood Drive","road_class":"track","surface":"unpaved","source":"Caltrans All Roads + OpenStreetMap explicit surface","source_detail":"osm way 289080756; Caltrans All Roads public-network geometry match","source_tile":"181/408","public_network_source":"Caltrans All Roads (ARNOLD/HPMS)","surface_source":"OpenStreetMap explicit surface tag","caltrans_match_coverage":1.0,"verified_length_m":2435},"geometry":{"type":"LineString","coordinates":[[-116.22952,34.1297],[-116.22976,34.12971],[-116.23167,34.1297],[-116.23434,34.12969],[-116.24145,34.12966],[-116.24212,34.12964],[-116.24281,34.12964],[-116.24299,34.12966],[-116.24318,34.12968],[-116.2469,34.12965],[-116.24712,34.12964],[-116.24732,34.1296],[-116.24777,34.12961],[-116.25088,34.12961],[-116.25162,34.12961],[-116.25593,34.12955]]}},{"type":"Feature","properties":{"name":"Onaga Trail","road_class":"unclassified","surface":"dirt","source":"Caltrans All Roads + OpenStreetMap explicit surface","source_detail":"osm way 290237872; Caltrans All Roads public-network geometry match","source_tile":"181/408","public_network_source":"Caltrans All Roads (ARNOLD/HPMS)","surface_source":"OpenStreetMap explicit surface tag","caltrans_match_coverage":1.0,"verified_length_m":746},"geometry":{"type":"LineString","coordinates":[[-116.30804,34.11253],[-116.30952,34.11258],[-116.30955,34.11258],[-116.31078,34.11253],[-116.31096,34.11253],[-116.31115,34.11252],[-116.31143,34.11252],[-116.31151,34.11252],[-116.31186,34.11251],[-116.31192,34.11251],[-116.31216,34.11251],[-116.31303,34.11252],[-116.31317,34.11252],[-116.31411,34.11253],[-116.31421,34.11248],[-116.31427,34.11231],[-116.31429,34.11204],[-116.31429,34.1118],[-116.31435,34.11169],[-116.31448,34.11166],[-116.31469,34.11168],[-116.3149,34.11173],[-116.31501,34.11178],[-116.31523,34.11187]]}},{"type":"Feature","properties":{"name":"Onaga Trail","road_class":"unclassified","surface":"unpaved","source":"Caltrans All Roads + OpenStreetMap explicit surface","source_detail":"osm way 290237875; Caltrans All Roads public-network geometry match","source_tile":"181/408","public_network_source":"Caltrans All Roads (ARNOLD/HPMS)","surface_source":"OpenStreetMap explicit surface tag","caltrans_match_coverage":1.0,"verified_length_m":2268},"geometry":{"type":"LineString","coordinates":[[-116.30804,34.11253],[-116.30761,34.11259],[-116.30747,34.11259],[-116.30717,34.11259],[-116.30697,34.11259],[-116.30394,34.11256],[-116.30353,34.11257],[-116.30271,34.11257],[-116.30267,34.11257],[-116.30259,34.11257],[-116.30195,34.11257],[-116.30117,34.11258],[-116.30066,34.11258],[-116.30035,34.11258],[-116.29679,34.11258],[-116.29675,34.1125],[-116.29616,34.11251],[-116.29573,34.11256],[-116.29549,34.11254],[-116.29495,34.11255],[-116.29465,34.11255],[-116.29446,34.11253],[-116.29429,34.11255],[-116.29386,34.11257],[-116.29357,34.11257],[-116.29306,34.11261],[-116.29262,34.1126],[-116.29232,34.11263],[-116.29189,34.11261],[-116.2915,34.11262],[-116.2912,34.11264],[-116.29087,34.11266],[-116.29069,34.11262],[-116.29021,34.11263],[-116.28991,34.11261],[-116.28963,34.11262],[-116.28939,34.11263],[-116.28909,34.11261],[-116.28884,34.11263],[-116.28851,34.11264],[-116.28819,34.11264],[-116.28804,34.11261],[-116.28781,34.11256],[-116.28712,34.11259],[-116.28676,34.11258],[-116.28641,34.11254],[-116.28595,34.11241],[-116.28566,34.11231],[-116.28549,34.11219],[-116.28518,34.11211],[-116.28499,34.11211],[-116.28467,34.11211],[-116.28436,34.11212],[-116.28402,34.11215],[-116.28368,34.11222]]}},{"type":"Feature","properties":{"name":"Sunset Road","road_class":"track","surface":"dirt","source":"Caltrans All Roads + OpenStreetMap explicit surface","source_detail":"osm way 290770255; Caltrans All Roads public-network geometry match","source_tile":"181/408","public_network_source":"Caltrans All Roads (ARNOLD/HPMS)","surface_source":"OpenStreetMap explicit surface tag","caltrans_match_coverage":0.977,"verified_length_m":1260},"geometry":{"type":"LineString","coordinates":[[-116.31759,34.09516],[-116.3175,34.09514],[-116.31738,34.09506],[-116.31732,34.09499],[-116.31732,34.09497],[-116.31732,34.09492],[-116.31734,34.09485],[-116.3174,34.09481],[-116.31749,34.09481],[-116.31757,34.09484],[-116.31762,34.09489],[-116.31766,34.09495],[-116.31766,34.095],[-116.31765,34.09505],[-116.31759,34.09516],[-116.31763,34.09524],[-116.31777,34.09532],[-116.31791,34.09539],[-116.3181,34.09564],[-116.31813,34.09571],[-116.31814,34.09586],[-116.31811,34.09608],[-116.31816,34.09633],[-116.31814,34.09646],[-116.31811,34.09657],[-116.31811,34.09686],[-116.31806,34.09699],[-116.3179,34.09716],[-116.31786,34.09724],[-116.31785,34.09728],[-116.31797,34.09783],[-116.31798,34.09788],[-116.31807,34.0982],[-116.31807,34.09824],[-116.31807,34.09841],[-116.31807,34.0989],[-116.31801,34.09922],[-116.31801,34.0994],[-116.31801,34.09964],[-116.31802,34.09985],[-116.31802,34.10016],[-116.31803,34.10121],[-116.31804,34.10219],[-116.31804,34.1023],[-116.31806,34.10333],[-116.31806,34.10339],[-116.31804,34.10528]]}},{"type":"Feature","properties":{"name":"Sunny Vista Road","road_class":"track","surface":"dirt","source":"Caltrans All Roads + OpenStreetMap explicit surface","source_detail":"osm way 293329602; Caltrans All Roads public-network geometry match","source_tile":"181/408","public_network_source":"Caltrans All Roads (ARNOLD/HPMS)","surface_source":"OpenStreetMap explicit surface tag","caltrans_match_coverage":1.0,"verified_length_m":1579},"geometry":{"type":"LineString","coordinates":[[-116.33476,34.13516],[-116.33476,34.13523],[-116.33476,34.13579],[-116.33475,34.1364],[-116.33475,34.13687],[-116.33476,34.13745],[-116.33476,34.13849],[-116.33476,34.1395],[-116.33475,34.13986],[-116.33475,34.13997],[-116.33475,34.14027],[-116.33475,34.14208],[-116.33475,34.14226],[-116.33475,34.14391],[-116.33476,34.14465],[-116.33477,34.14545],[-116.33479,34.14655],[-116.33484,34.14883],[-116.33486,34.14944]]}},{"type":"Feature","properties":{"name":"(unnamed public road)","road_class":"track","surface":"unpaved","source":"Caltrans All Roads + OpenStreetMap explicit surface","source_detail":"osm way 486879515; Caltrans All Roads public-network geometry match","source_tile":"181/408","public_network_source":"Caltrans All Roads (ARNOLD/HPMS)","surface_source":"OpenStreetMap explicit surface tag","caltrans_match_coverage":1.0,"verified_length_m":580},"geometry":{"type":"LineString","coordinates":[[-116.29535,34.10499],[-116.29536,34.10512],[-116.2953,34.1053],[-116.29521,34.10548],[-116.29524,34.1056],[-116.29545,34.10569],[-116.29582,34.1059],[-116.29588,34.10594],[-116.29599,34.10603],[-116.29622,34.10631],[-116.29622,34.10636],[-116.29623,34.10644],[-116.2963,34.10666],[-116.29646,34.10696],[-116.29658,34.10724],[-116.29666,34.10768],[-116.29662,34.10805],[-116.29663,34.10832],[-116.29667,34.10858],[-116.29669,34.10871],[-116.29668,34.10878],[-116.29666,34.10885],[-116.29662,34.10896],[-116.29661,34.10903],[-116.2966,34.1091],[-116.29666,34.10953],[-116.29675,34.10973]]}},{"type":"Feature","properties":{"name":"(unnamed public road)","road_class":"track","surface":"sand","source":"Caltrans All Roads + OpenStreetMap explicit surface","source_detail":"osm way 669040953; Caltrans All Roads public-network geometry match","source_tile":"181/408","public_network_source":"Caltrans All Roads (ARNOLD/HPMS)","surface_source":"OpenStreetMap explicit surface tag","caltrans_match_coverage":1.0,"verified_length_m":606},"geometry":{"type":"LineString","coordinates":[[-116.22298,34.13534],[-116.22083,34.13534],[-116.22067,34.13535],[-116.22051,34.13535],[-116.22034,34.13535],[-116.2164,34.13533]]}},{"type":"Feature","properties":{"name":"(unnamed public road)","road_class":"track","surface":"unpaved","source":"Caltrans All Roads + OpenStreetMap explicit surface","source_detail":"osm way 672814832; Caltrans All Roads public-network geometry match","source_tile":"181/408","public_network_source":"Caltrans All Roads (ARNOLD/HPMS)","surface_source":"OpenStreetMap explicit surface tag","caltrans_match_coverage":0.908,"verified_length_m":1386},"geometry":{"type":"LineString","coordinates":[[-116.30863,34.14571],[-116.30832,34.14569],[-116.30807,34.14571],[-116.30775,34.14578],[-116.30753,34.14579],[-116.30681,34.14575],[-116.30535,34.14569],[-116.30429,34.14563],[-116.30416,34.14561],[-116.30352,34.14554],[-116.30314,34.1455],[-116.30266,34.14552],[-116.30225,34.14552],[-116.30184,34.14552],[-116.30149,34.14558],[-116.30083,34.14557],[-116.29994,34.14567],[-116.29985,34.14567],[-116.29945,34.14569],[-116.29917,34.1457],[-116.2989,34.14572],[-116.2985,34.14578],[-116.29809,34.14582],[-116.29752,34.14583],[-116.29702,34.14584],[-116.29617,34.14586],[-116.29569,34.14584],[-116.29572,34.14545],[-116.29573,34.14519],[-116.29569,34.14486],[-116.29565,34.14465],[-116.29557,34.14446],[-116.29553,34.14415]]}},{"type":"Feature","properties":{"name":"(unnamed public road)","road_class":"track","surface":"unpaved","source":"Caltrans All Roads + OpenStreetMap explicit surface","source_detail":"osm way 807310063; Caltrans All Roads public-network geometry match","source_tile":"181/408","public_network_source":"Caltrans All Roads (ARNOLD/HPMS)","surface_source":"OpenStreetMap explicit surface tag","caltrans_match_coverage":0.907,"verified_length_m":901},"geometry":{"type":"LineString","coordinates":[[-116.34428,34.12673],[-116.34417,34.12673],[-116.34401,34.12674],[-116.34376,34.12671],[-116.34363,34.12672],[-116.34337,34.12671],[-116.34318,34.12667],[-116.34308,34.12663],[-116.34304,34.12661],[-116.34296,34.12654],[-116.3429,34.1264],[-116.34286,34.12634],[-116.34277,34.12628],[-116.34262,34.12627],[-116.34182,34.12625],[-116.34108,34.12628],[-116.34077,34.12625],[-116.34036,34.12624],[-116.34025,34.12623],[-116.34014,34.12621],[-116.33983,34.12613],[-116.33933,34.12603],[-116.33921,34.12603],[-116.33891,34.126],[-116.33828,34.12592],[-116.33821,34.12592],[-116.33782,34.12588],[-116.33693,34.12583],[-116.33605,34.12588],[-116.335,34.12585],[-116.33481,34.12586]]}},{"type":"Feature","properties":{"name":"Cottonwood Drive","road_class":"track","surface":"unpaved","source":"Caltrans All Roads + OpenStreetMap explicit surface","source_detail":"osm way 875552972; Caltrans All Roads public-network geometry match","source_tile":"181/408","public_network_source":"Caltrans All Roads (ARNOLD/HPMS)","surface_source":"OpenStreetMap explicit surface tag","caltrans_match_coverage":1.0,"verified_length_m":1010},"geometry":{"type":"LineString","coordinates":[[-116.25593,34.12955],[-116.2582,34.12953],[-116.25916,34.12959],[-116.261,34.12955],[-116.26432,34.12955],[-116.26471,34.1295],[-116.2658,34.12953],[-116.26688,34.12953]]}},{"type":"Feature","properties":{"name":"La Brisa Drive","road_class":"track","surface":"unpaved","source":"Caltrans All Roads + OpenStreetMap explicit surface","source_detail":"osm way 1205559080; Caltrans All Roads public-network geometry match","source_tile":"181/408","public_network_source":"Caltrans All Roads (ARNOLD/HPMS)","surface_source":"OpenStreetMap explicit surface tag","caltrans_match_coverage":1.0,"verified_length_m":811},"geometry":{"type":"LineString","coordinates":[[-116.34317,34.20771],[-116.33436,34.2078]]}},{"type":"Feature","properties":{"name":"Kuna Avenue","road_class":"track","surface":"dirt","source":"Caltrans All Roads + OpenStreetMap explicit surface","source_detail":"osm way 1313879593; Caltrans All Roads public-network geometry match","source_tile":"181/408","public_network_source":"Caltrans All Roads (ARNOLD/HPMS)","surface_source":"OpenStreetMap explicit surface tag","caltrans_match_coverage":1.0,"verified_length_m":835},"geometry":{"type":"LineString","coordinates":[[-116.35149,34.237],[-116.35157,34.23744],[-116.35145,34.23791],[-116.35155,34.23851],[-116.35151,34.23894],[-116.35143,34.23946],[-116.35144,34.24015],[-116.35142,34.24062],[-116.35151,34.24087],[-116.35155,34.24146],[-116.35156,34.24213],[-116.35154,34.24257],[-116.35124,34.24302],[-116.35122,34.24314],[-116.35149,34.24326],[-116.35155,34.24348],[-116.35157,34.24431]]}}]}