{"type":"FeatureCollection","features":[{"type":"Feature","properties":{"name":"Calle Desierto","road_class":"track","surface":"unpaved","source":"Caltrans All Roads + OpenStreetMap explicit surface","source_detail":"osm way 7178482; Caltrans All Roads public-network geometry match","source_tile":"181/409","public_network_source":"Caltrans All Roads (ARNOLD/HPMS)","surface_source":"OpenStreetMap explicit surface tag","caltrans_match_coverage":1.0,"verified_length_m":596},"geometry":{"type":"LineString","coordinates":[[-116.36878,33.80548],[-116.36234,33.80552]]}},{"type":"Feature","properties":{"name":"Thousand Palms Canyon Road","road_class":"unclassified","surface":"unpaved","tracktype":"grade3","source":"Caltrans All Roads + OpenStreetMap explicit surface","source_detail":"osm way 7114394; Caltrans All Roads public-network geometry match","source_tile":"181/409","public_network_source":"Caltrans All Roads (ARNOLD/HPMS)","surface_source":"OpenStreetMap explicit surface tag","caltrans_match_coverage":1.0,"verified_length_m":2811},"geometry":{"type":"LineString","coordinates":[[-116.30178,33.87555],[-116.30173,33.87564],[-116.3017,33.87566],[-116.30167,33.87567],[-116.30163,33.87569],[-116.30112,33.87581],[-116.30104,33.87584],[-116.30095,33.87587],[-116.30086,33.87591],[-116.29654,33.87826],[-116.28735,33.88291],[-116.2872,33.88298],[-116.28704,33.88305],[-116.28686,33.88312],[-116.28604,33.88345],[-116.28583,33.88353],[-116.28452,33.8841],[-116.28235,33.885],[-116.28132,33.88558],[-116.28101,33.88578],[-116.28089,33.88587],[-116.28075,33.88601],[-116.28068,33.88607],[-116.28044,33.88627],[-116.28033,33.88636],[-116.28024,33.88645],[-116.27971,33.88713],[-116.27959,33.88727],[-116.27946,33.88741],[-116.27936,33.88749],[-116.27927,33.88755],[-116.27916,33.88761],[-116.27903,33.88768],[-116.27889,33.88776],[-116.27876,33.88786],[-116.27864,33.88797],[-116.2785,33.88811],[-116.27839,33.88821],[-116.27672,33.88953]]}}]}