{"type":"FeatureCollection","features":[{"type":"Feature","properties":{"name":"Oasis Street","road_class":"unclassified","surface":"dirt","source":"Caltrans All Roads + OpenStreetMap explicit surface","source_detail":"osm way 187997895; Caltrans All Roads public-network geometry match","source_tile":"181/410","public_network_source":"Caltrans All Roads (ARNOLD/HPMS)","surface_source":"OpenStreetMap explicit surface tag","caltrans_match_coverage":1.0,"verified_length_m":800},"geometry":{"type":"LineString","coordinates":[[-116.22526,33.65662],[-116.22526,33.65634],[-116.22512,33.65297],[-116.22498,33.64939]]}}]}