{"type":"FeatureCollection","features":[{"type":"Feature","properties":{"name":"Old Borrego Springs Road","road_class":"track","surface":"dirt","tracktype":"grade4","source":"Caltrans All Roads + OpenStreetMap explicit surface","source_detail":"osm way 1063630094; Caltrans All Roads public-network geometry match","source_tile":"181/412","public_network_source":"Caltrans All Roads (ARNOLD/HPMS)","surface_source":"OpenStreetMap explicit surface tag","caltrans_match_coverage":1.0,"verified_length_m":5161},"geometry":{"type":"LineString","coordinates":[[-116.29545,33.13712],[-116.29547,33.13719],[-116.29548,33.13736],[-116.29553,33.13743],[-116.29558,33.13748],[-116.29562,33.13752],[-116.29563,33.13753],[-116.29567,33.13759],[-116.29574,33.13788],[-116.29576,33.13798],[-116.29577,33.13809],[-116.29583,33.13834],[-116.29592,33.13868],[-116.29592,33.13904],[-116.29598,33.13953],[-116.29602,33.13981],[-116.29612,33.14006],[-116.29627,33.14024],[-116.2963,33.14028],[-116.29641,33.14044],[-116.29644,33.14059],[-116.29657,33.14072],[-116.29681,33.14085],[-116.29707,33.14095],[-116.29724,33.14105],[-116.29748,33.14115],[-116.29758,33.14121],[-116.29768,33.14136],[-116.2978,33.14155],[-116.29785,33.14162],[-116.29784,33.14173],[-116.2978,33.14181],[-116.29766,33.14195],[-116.29739,33.14215],[-116.29715,33.14228],[-116.29619,33.14258],[-116.29545,33.14295],[-116.29474,33.14335],[-116.29454,33.14352],[-116.29432,33.14385],[-116.29403,33.14431],[-116.2938,33.14475],[-116.29353,33.1453],[-116.29347,33.14554],[-116.29342,33.14601],[-116.29327,33.14664],[-116.29319,33.14681],[-116.29306,33.14692],[-116.29205,33.14755],[-116.29129,33.14804],[-116.29089,33.14835],[-116.29062,33.14856],[-116.29041,33.14875],[-116.28938,33.14973],[-116.28862,33.15057],[-116.28827,33.15102],[-116.28817,33.15123],[-116.28777,33.15218],[-116.28746,33.15292],[-116.28732,33.15316],[-116.28727,33.1534],[-116.28638,33.15554],[-116.28611,33.15627],[-116.28593,33.15695],[-116.28586,33.15726],[-116.28587,33.15765],[-116.28609,33.15903],[-116.28622,33.15939],[-116.28638,33.15968],[-116.28655,33.15993],[-116.28696,33.16043],[-116.28802,33.16144],[-116.28837,33.16182],[-116.28846,33.16195],[-116.28861,33.16223],[-116.2888,33.16253],[-116.28897,33.16284],[-116.28908,33.16318],[-116.2891,33.16335],[-116.28909,33.16349],[-116.28909,33.16357],[-116.28891,33.16409],[-116.28889,33.16419],[-116.2889,33.16434],[-116.2891,33.16473],[-116.28912,33.16482],[-116.28911,33.16509],[-116.28885,33.16598],[-116.28883,33.16613],[-116.28883,33.16658],[-116.2888,33.16701],[-116.28878,33.1671],[-116.28859,33.16751],[-116.28833,33.16828],[-116.28823,33.16847],[-116.2882,33.16875],[-116.28797,33.16919],[-116.28765,33.1698],[-116.28746,33.17033],[-116.28734,33.17062],[-116.28732,33.17078],[-116.28738,33.17109],[-116.28783,33.17186],[-116.2881,33.17239],[-116.2887,33.17311],[-116.28954,33.17432],[-116.28989,33.17463],[-116.29015,33.17491],[-116.29071,33.1755],[-116.29182,33.17645],[-116.29213,33.17675]]}}]}