{"type":"FeatureCollection","features":[{"type":"Feature","properties":{"name":"(unnamed public road)","road_class":"unclassified","surface":"unpaved","source":"Caltrans All Roads + OpenStreetMap explicit surface","source_detail":"osm way 5939634; Caltrans All Roads public-network geometry match","source_tile":"181/413","public_network_source":"Caltrans All Roads (ARNOLD/HPMS)","surface_source":"OpenStreetMap explicit surface tag","caltrans_match_coverage":1.0,"verified_length_m":2522},"geometry":{"type":"LineString","coordinates":[[-116.35124,32.60444],[-116.3512,32.60448],[-116.35117,32.60457],[-116.35122,32.6095],[-116.35121,32.61042],[-116.3512,32.61084],[-116.35114,32.61103],[-116.35108,32.61122],[-116.35112,32.61132],[-116.35117,32.61149],[-116.35119,32.61165],[-116.35119,32.61193],[-116.35123,32.62039],[-116.35119,32.62405],[-116.35375,32.62618],[-116.35385,32.62627]]}},{"type":"Feature","properties":{"name":"Manzanita-Cottonwood Road","road_class":"track","surface":"dirt","tracktype":"grade3","source":"Caltrans All Roads + OpenStreetMap explicit surface","source_detail":"osm way 5974156; Caltrans All Roads public-network geometry match","source_tile":"181/413","public_network_source":"Caltrans All Roads (ARNOLD/HPMS)","surface_source":"OpenStreetMap explicit surface tag","caltrans_match_coverage":1.0,"verified_length_m":1753},"geometry":{"type":"LineString","coordinates":[[-116.30923,32.7623],[-116.30925,32.76244],[-116.30925,32.76263],[-116.30921,32.76279],[-116.30919,32.76312],[-116.30914,32.76324],[-116.30895,32.76348],[-116.30893,32.76356],[-116.30892,32.76373],[-116.3089,32.76385],[-116.30889,32.76394],[-116.30886,32.76411],[-116.3088,32.76421],[-116.30874,32.76443],[-116.3087,32.76462],[-116.30856,32.76504],[-116.30854,32.76542],[-116.30855,32.76553],[-116.30862,32.76567],[-116.30867,32.76587],[-116.30869,32.76595],[-116.30876,32.76619],[-116.30878,32.76633],[-116.30894,32.76685],[-116.30893,32.76696],[-116.30899,32.76734],[-116.30908,32.76789],[-116.30904,32.76806],[-116.30911,32.76834],[-116.30912,32.76856],[-116.30913,32.76881],[-116.30907,32.76905],[-116.3091,32.76928],[-116.30921,32.76952],[-116.30922,32.76961],[-116.3092,32.76972],[-116.30912,32.76981],[-116.309,32.77008],[-116.30903,32.77027],[-116.30899,32.77044],[-116.30902,32.77056],[-116.30901,32.77078],[-116.30896,32.77089],[-116.30895,32.77096],[-116.30895,32.77107],[-116.30901,32.77114],[-116.30907,32.77126],[-116.30915,32.77149],[-116.3093,32.77194],[-116.30936,32.77234],[-116.30937,32.77254],[-116.3094,32.77273],[-116.30967,32.7733],[-116.30974,32.77362],[-116.30995,32.77429],[-116.31004,32.7747],[-116.31004,32.77522],[-116.30998,32.77549],[-116.30989,32.77575],[-116.30989,32.776],[-116.30995,32.7763],[-116.30991,32.77647],[-116.30982,32.77673],[-116.30952,32.77728],[-116.30938,32.77766]]}},{"type":"Feature","properties":{"name":"Lost Valley Road","road_class":"track","surface":"dirt","tracktype":"grade3","source":"Caltrans All Roads + OpenStreetMap explicit surface","source_detail":"osm way 5982108; Caltrans All Roads public-network geometry match","source_tile":"181/413","public_network_source":"Caltrans All Roads (ARNOLD/HPMS)","surface_source":"OpenStreetMap explicit surface tag","caltrans_match_coverage":0.987,"verified_length_m":3986},"geometry":{"type":"LineString","coordinates":[[-116.27535,32.76015],[-116.27642,32.7604],[-116.27676,32.76052],[-116.27687,32.76058],[-116.27697,32.76066],[-116.27704,32.76073],[-116.27708,32.76084],[-116.27721,32.76125],[-116.27727,32.76134],[-116.27742,32.7614],[-116.2783,32.76161],[-116.27849,32.76167],[-116.27863,32.76173],[-116.27887,32.7618],[-116.27905,32.76179],[-116.27928,32.76184],[-116.2795,32.76181],[-116.27976,32.76175],[-116.27987,32.76159],[-116.28002,32.76149],[-116.28004,32.76134],[-116.27999,32.76128],[-116.2799,32.76124],[-116.27987,32.76117],[-116.27991,32.76112],[-116.28003,32.7611],[-116.28011,32.76113],[-116.28012,32.76124],[-116.28017,32.76137],[-116.28032,32.76143],[-116.28051,32.76144],[-116.28068,32.76144],[-116.28102,32.76131],[-116.28125,32.76125],[-116.28144,32.76126],[-116.28157,32.76129],[-116.28188,32.76139],[-116.28248,32.76177],[-116.28277,32.7621],[-116.283,32.76226],[-116.2833,32.76237],[-116.28369,32.76251],[-116.28391,32.76256],[-116.28413,32.76253],[-116.28452,32.76252],[-116.28504,32.76255],[-116.28539,32.76262],[-116.28577,32.76266],[-116.28606,32.76266],[-116.28635,32.76265],[-116.2872,32.76249],[-116.28777,32.76246],[-116.28827,32.76253],[-116.28853,32.76254],[-116.2888,32.76253],[-116.28907,32.76248],[-116.28933,32.76239],[-116.28955,32.76232],[-116.29028,32.76228],[-116.29042,32.76225],[-116.29049,32.76222],[-116.29098,32.7619],[-116.29132,32.76162],[-116.29151,32.76142],[-116.29165,32.76123],[-116.29184,32.76098],[-116.29195,32.76076],[-116.29205,32.76065],[-116.29226,32.76051],[-116.29238,32.76041],[-116.29247,32.76025],[-116.29253,32.76012],[-116.29268,32.75973],[-116.29292,32.75944],[-116.29294,32.75929],[-116.29292,32.75907],[-116.29294,32.75882],[-116.29301,32.75855],[-116.29332,32.75767],[-116.29365,32.75702],[-116.29378,32.7568],[-116.29409,32.75644],[-116.29409,32.75634],[-116.29409,32.75599],[-116.29414,32.75575],[-116.29418,32.75563],[-116.29429,32.75545],[-116.29443,32.75532],[-116.29493,32.75478],[-116.29507,32.75464],[-116.29519,32.75455],[-116.29552,32.75441],[-116.29562,32.75434],[-116.2958,32.7543],[-116.29713,32.75385],[-116.29782,32.75366],[-116.29799,32.75362],[-116.29816,32.75364],[-116.29835,32.75367],[-116.29865,32.7537],[-116.29927,32.75369],[-116.29936,32.75367],[-116.29966,32.75356],[-116.29979,32.75355],[-116.29999,32.75361],[-116.30024,32.75367],[-116.30043,32.75368],[-116.3007,32.75366],[-116.3009,32.75369],[-116.3011,32.75376],[-116.30133,32.75379],[-116.30145,32.75384],[-116.30162,32.75386],[-116.30217,32.75386],[-116.30235,32.75383],[-116.30348,32.75345],[-116.30358,32.75337],[-116.30376,32.75314],[-116.30391,32.75307],[-116.30477,32.75296],[-116.305,32.75295],[-116.3053,32.75303],[-116.30544,32.75301],[-116.30667,32.75262],[-116.30675,32.75258],[-116.3069,32.75246],[-116.30719,32.75216],[-116.30737,32.75205],[-116.30816,32.75151],[-116.30825,32.75139]]}},{"type":"Feature","properties":{"name":"Manzanita-Cottonwood Road","road_class":"track","surface":"dirt","tracktype":"grade3","source":"Caltrans All Roads + OpenStreetMap explicit surface","source_detail":"osm way 6029529; Caltrans All Roads public-network geometry match","source_tile":"181/413","public_network_source":"Caltrans All Roads (ARNOLD/HPMS)","surface_source":"OpenStreetMap explicit surface tag","caltrans_match_coverage":1.0,"verified_length_m":1640},"geometry":{"type":"LineString","coordinates":[[-116.30825,32.75139],[-116.30839,32.75148],[-116.30852,32.75146],[-116.30868,32.75143],[-116.30911,32.75118],[-116.30926,32.75109],[-116.30991,32.75086],[-116.3101,32.75084],[-116.31038,32.75082],[-116.31062,32.75092],[-116.31153,32.75155],[-116.312,32.75194],[-116.31208,32.75202],[-116.31216,32.75218],[-116.31223,32.75235],[-116.31238,32.75331],[-116.31237,32.75358],[-116.31219,32.75399],[-116.31135,32.75504],[-116.31116,32.75535],[-116.31102,32.75558],[-116.31078,32.75629],[-116.31064,32.75657],[-116.31013,32.75741],[-116.30994,32.75785],[-116.3099,32.75804],[-116.30985,32.75841],[-116.30986,32.75867],[-116.30998,32.75953],[-116.30995,32.75983],[-116.3099,32.75998],[-116.30981,32.76022],[-116.3095,32.7608],[-116.30939,32.76105],[-116.30938,32.76123],[-116.30924,32.76154],[-116.30923,32.76167],[-116.30931,32.76177],[-116.30923,32.7623]]}},{"type":"Feature","properties":{"name":"McCain Valley Road","road_class":"unclassified","surface":"gravel","tracktype":"grade2","source":"Caltrans All Roads + OpenStreetMap explicit surface","source_detail":"osm way 6053858; Caltrans All Roads public-network geometry match","source_tile":"181/413","public_network_source":"Caltrans All Roads (ARNOLD/HPMS)","surface_source":"OpenStreetMap explicit surface tag","caltrans_match_coverage":0.99,"verified_length_m":15415},"geometry":{"type":"LineString","coordinates":[[-116.25835,32.71395],[-116.25838,32.71426],[-116.25832,32.71471],[-116.25826,32.71516],[-116.25827,32.71547],[-116.25887,32.71828],[-116.25907,32.71909],[-116.25921,32.72072],[-116.25927,32.72139],[-116.25945,32.72161],[-116.26106,32.72304],[-116.26116,32.72311],[-116.2615,32.72336],[-116.26166,32.72343],[-116.26192,32.7235],[-116.2626,32.72367],[-116.26311,32.72379],[-116.26418,32.72393],[-116.26529,32.72411],[-116.26548,32.72411],[-116.26561,32.72406],[-116.26605,32.72373],[-116.26624,32.72366],[-116.26649,32.72369],[-116.26725,32.72392],[-116.26749,32.72395],[-116.26771,32.72393],[-116.26911,32.72368],[-116.26926,32.72368],[-116.2694,32.72371],[-116.2695,32.72375],[-116.27026,32.72428],[-116.27043,32.72444],[-116.27239,32.72678],[-116.27283,32.72735],[-116.27303,32.72772],[-116.27325,32.72838],[-116.27344,32.72875],[-116.2735,32.72881],[-116.27376,32.72896],[-116.2739,32.72908],[-116.27443,32.72972],[-116.27456,32.72988],[-116.27472,32.73035],[-116.27486,32.73098],[-116.27485,32.73127],[-116.2746,32.73203],[-116.27449,32.73274],[-116.2745,32.73304],[-116.2747,32.73369],[-116.27486,32.73448],[-116.27522,32.73554],[-116.27539,32.73593],[-116.27542,32.73607],[-116.27539,32.73626],[-116.27521,32.7366],[-116.27496,32.73728],[-116.27486,32.73759],[-116.27483,32.73775],[-116.27483,32.73794],[-116.27494,32.73868],[-116.27492,32.73913],[-116.27478,32.74052],[-116.27463,32.74166],[-116.27457,32.742],[-116.27365,32.74484],[-116.27359,32.74517],[-116.27356,32.74541],[-116.2736,32.74623],[-116.27392,32.74744],[-116.27413,32.74776],[-116.27423,32.74796],[-116.27437,32.74847],[-116.2744,32.74866],[-116.27435,32.74882],[-116.27423,32.74905],[-116.27418,32.74921],[-116.27417,32.74941],[-116.2743,32.75024],[-116.27431,32.75045],[-116.27426,32.75063],[-116.27412,32.7508],[-116.2737,32.75121],[-116.27346,32.75142],[-116.27297,32.75176],[-116.27223,32.75231],[-116.27202,32.75254],[-116.27194,32.75273],[-116.27192,32.75297],[-116.27196,32.75323],[-116.27209,32.7537],[-116.27224,32.75421],[-116.27235,32.75442],[-116.27254,32.75468],[-116.2727,32.75486],[-116.27292,32.75504],[-116.27369,32.75554],[-116.27382,32.75566],[-116.2749,32.75691],[-116.27562,32.75767],[-116.27576,32.75777],[-116.27591,32.75782],[-116.27665,32.75792],[-116.2772,32.7579],[-116.27759,32.75789],[-116.27783,32.75792],[-116.27808,32.75799],[-116.2783,32.7581],[-116.27852,32.75823],[-116.27867,32.75834],[-116.2789,32.75857],[-116.2794,32.75912],[-116.28017,32.76022],[-116.28032,32.76046],[-116.2804,32.76069],[-116.28051,32.76144],[-116.28066,32.76265],[-116.28071,32.76284],[-116.28079,32.76307],[-116.28092,32.76328],[-116.28162,32.76417],[-116.28192,32.76468],[-116.28224,32.76536],[-116.2824,32.76576],[-116.28253,32.76634],[-116.28263,32.7668],[-116.28268,32.76709],[-116.28265,32.76833],[-116.28271,32.76901],[-116.28276,32.76934],[-116.28289,32.7698],[-116.28309,32.77026],[-116.28339,32.77083],[-116.28362,32.77109],[-116.28375,32.77119],[-116.28378,32.77123],[-116.28405,32.77139],[-116.28439,32.7715],[-116.28742,32.77214],[-116.28847,32.77234],[-116.28871,32.77241],[-116.28983,32.77285],[-116.29029,32.773],[-116.29085,32.77312],[-116.29163,32.77321],[-116.29277,32.77329],[-116.29376,32.77339],[-116.29894,32.77413],[-116.30112,32.77443],[-116.30189,32.77454],[-116.30353,32.77479],[-116.30386,32.77488],[-116.30411,32.77502],[-116.30602,32.77623],[-116.30634,32.7764],[-116.30651,32.7765],[-116.30683,32.77665],[-116.30877,32.77749],[-116.3091,32.7776],[-116.30938,32.77766],[-116.30963,32.77767],[-116.30986,32.77766],[-116.31056,32.77758],[-116.31238,32.77732],[-116.31262,32.77731],[-116.31284,32.77735],[-116.31511,32.77796],[-116.31551,32.77803],[-116.31828,32.77826],[-116.31862,32.77832],[-116.32374,32.78017],[-116.32397,32.78028],[-116.32498,32.78085],[-116.3253,32.78106],[-116.32586,32.78148],[-116.32747,32.78269],[-116.32805,32.78325],[-116.3282,32.7834],[-116.32859,32.78376],[-116.32887,32.78419],[-116.32993,32.78611],[-116.33072,32.78761],[-116.33254,32.79101],[-116.33343,32.79273],[-116.33421,32.79421],[-116.33443,32.79447],[-116.33465,32.79471],[-116.33585,32.79585],[-116.33637,32.79643],[-116.33679,32.79694],[-116.33703,32.79735],[-116.33768,32.79896],[-116.33795,32.79955],[-116.33825,32.80022],[-116.33865,32.80104],[-116.33907,32.80211],[-116.33979,32.80385],[-116.34052,32.80775],[-116.34055,32.80791]]}},{"type":"Feature","properties":{"name":"McCain Valley Road","road_class":"track","surface":"dirt","tracktype":"grade3","source":"Caltrans All Roads + OpenStreetMap explicit surface","source_detail":"osm way 1133025700; Caltrans All Roads public-network geometry match","source_tile":"181/413","public_network_source":"Caltrans All Roads (ARNOLD/HPMS)","surface_source":"OpenStreetMap explicit surface tag","caltrans_match_coverage":0.994,"verified_length_m":1893},"geometry":{"type":"LineString","coordinates":[[-116.34055,32.80791],[-116.34082,32.80877],[-116.34146,32.81098],[-116.34185,32.81233],[-116.34235,32.81365],[-116.34251,32.81432],[-116.34371,32.8177],[-116.3439,32.8183],[-116.34402,32.81878],[-116.34472,32.82171],[-116.34491,32.82256],[-116.34512,32.82348],[-116.3452,32.82343],[-116.34533,32.82344],[-116.34534,32.82352],[-116.34519,32.82359],[-116.34496,32.82361],[-116.34484,32.82361],[-116.34481,32.82353],[-116.34489,32.8235],[-116.34502,32.8235],[-116.34512,32.82348]]}},{"type":"Feature","properties":{"name":"BLM","road_class":"track","surface":"dirt","tracktype":"grade3","source":"Caltrans All Roads + OpenStreetMap explicit surface","source_detail":"osm way 1154174067; Caltrans All Roads public-network geometry match","source_tile":"181/413","public_network_source":"Caltrans All Roads (ARNOLD/HPMS)","surface_source":"OpenStreetMap explicit surface tag","caltrans_match_coverage":1.0,"verified_length_m":1051},"geometry":{"type":"LineString","coordinates":[[-116.33072,32.78761],[-116.33082,32.78821],[-116.33099,32.78859],[-116.33104,32.78881],[-116.33138,32.78941],[-116.33151,32.78972],[-116.33159,32.79039],[-116.3316,32.7908],[-116.33168,32.79128],[-116.33167,32.79201],[-116.33163,32.7921],[-116.3316,32.79253],[-116.33156,32.79298],[-116.33141,32.79358],[-116.3307,32.79442],[-116.32969,32.79537],[-116.32959,32.79556],[-116.32943,32.79642]]}}]}