{"type":"FeatureCollection","features":[{"type":"Feature","properties":{"name":"STORMY SADDLE ROAD","source":"Bureau of Land Management","source_detail":"BLM GTLF OBJECTID 153942","source_id":"{3D9DDC6A-AA12-4DA1-B27B-B244B7D33467}","road_class":"transportation_system_-_road","surface":"aggregate","vehicle_class":"2wd_low","allowed_mode":"unk","access_restriction":"none","seasonal_restriction":"no","gis_miles":0.10340148},"geometry":{"type":"LineString","coordinates":[[-123.77405,41.02038],[-123.77402,41.02035],[-123.77398,41.02031],[-123.77394,41.02028],[-123.7739,41.02025],[-123.77386,41.02021],[-123.77382,41.02018],[-123.77378,41.02014],[-123.77374,41.02011],[-123.77371,41.02007],[-123.77368,41.02003],[-123.77365,41.01999],[-123.77363,41.01995],[-123.7736,41.01991],[-123.77358,41.01987],[-123.77355,41.01983],[-123.77353,41.01979],[-123.77351,41.01974],[-123.77349,41.0197],[-123.77347,41.01966],[-123.77345,41.01962],[-123.77342,41.01958],[-123.7734,41.01954],[-123.77338,41.01949],[-123.77335,41.01945],[-123.77332,41.01941],[-123.77329,41.01938],[-123.77326,41.01933],[-123.77323,41.0193],[-123.7732,41.01926],[-123.77316,41.01922],[-123.77313,41.01919],[-123.7731,41.01915],[-123.77306,41.01911],[-123.77305,41.0191],[-123.77305,41.0191]]}},{"type":"Feature","properties":{"name":"STORMY SADDLE ROAD","source":"Bureau of Land Management","source_detail":"BLM GTLF OBJECTID 154982","source_id":"{A01024F9-0B7D-430E-A252-1F01437438DD}","road_class":"transportation_system_-_road","surface":"aggregate","vehicle_class":"2wd_low","allowed_mode":"unk","access_restriction":"none","seasonal_restriction":"no","gis_miles":0.38809151},"geometry":{"type":"LineString","coordinates":[[-123.77935,41.02],[-123.77938,41.01998],[-123.77941,41.01996],[-123.77944,41.01996],[-123.77947,41.01995],[-123.77951,41.01995],[-123.77954,41.01995],[-123.77958,41.01996],[-123.77961,41.01996],[-123.77964,41.01997],[-123.77967,41.01998],[-123.77971,41.01998],[-123.77974,41.01999],[-123.77978,41.02],[-123.77981,41.02],[-123.77984,41.01999],[-123.77988,41.01999],[-123.77991,41.01999],[-123.77994,41.01998],[-123.77997,41.01997],[-123.78,41.01996],[-123.78004,41.01995],[-123.78007,41.01994],[-123.78011,41.01994],[-123.78014,41.01994],[-123.78017,41.01994],[-123.7802,41.01995],[-123.78024,41.01997],[-123.78027,41.01998],[-123.7803,41.01999],[-123.78032,41.02001],[-123.78035,41.02003],[-123.78037,41.02005],[-123.78039,41.02007],[-123.78042,41.02009],[-123.78044,41.02011],[-123.78047,41.02012],[-123.7805,41.02014],[-123.78052,41.02015],[-123.78056,41.02016],[-123.78059,41.02017],[-123.78063,41.02017],[-123.78066,41.02018],[-123.7807,41.02018],[-123.78073,41.02018],[-123.78077,41.02018],[-123.7808,41.02018],[-123.78084,41.02018],[-123.78087,41.02018],[-123.78091,41.02017],[-123.78094,41.02017],[-123.78098,41.02016],[-123.78101,41.02015],[-123.78104,41.02014],[-123.78107,41.02013],[-123.7811,41.02012],[-123.78113,41.02012],[-123.78116,41.02011],[-123.78119,41.02011],[-123.78122,41.0201],[-123.78126,41.0201],[-123.78129,41.02011],[-123.78132,41.02011],[-123.78136,41.02012],[-123.78138,41.02013],[-123.78141,41.02015],[-123.78143,41.02017],[-123.78146,41.02019],[-123.78148,41.02021],[-123.7815,41.02024],[-123.78151,41.02026],[-123.78153,41.02029],[-123.78155,41.02031],[-123.78157,41.02034],[-123.78159,41.02036],[-123.7816,41.02039],[-123.78162,41.02041],[-123.78165,41.02043],[-123.78167,41.02045],[-123.78169,41.02047],[-123.78172,41.02049],[-123.78175,41.0205],[-123.78178,41.02051],[-123.78182,41.02051],[-123.78186,41.02051],[-123.78189,41.02051],[-123.78193,41.0205],[-123.78196,41.02049],[-123.78199,41.02047],[-123.78202,41.02046],[-123.78204,41.02045],[-123.78207,41.02043],[-123.7821,41.02042],[-123.78212,41.0204],[-123.78215,41.02038],[-123.78218,41.02037],[-123.78221,41.02036],[-123.78225,41.02035],[-123.78228,41.02034],[-123.78231,41.02033],[-123.78234,41.02031],[-123.78238,41.0203],[-123.7824,41.02029],[-123.78243,41.02028],[-123.78246,41.02028],[-123.78249,41.02027],[-123.78251,41.02026],[-123.78254,41.02025],[-123.78258,41.02025],[-123.78261,41.02024],[-123.78265,41.02023],[-123.78269,41.02022],[-123.78272,41.02021],[-123.78275,41.02019],[-123.78278,41.02018],[-123.78281,41.02017],[-123.78284,41.02015],[-123.78287,41.02013],[-123.78289,41.02011],[-123.78292,41.02009],[-123.78294,41.02007],[-123.78296,41.02005],[-123.78298,41.02003],[-123.78301,41.02001],[-123.78303,41.02],[-123.78306,41.01998],[-123.78308,41.01996],[-123.78311,41.01995],[-123.78313,41.01993],[-123.78315,41.01992],[-123.78318,41.01991],[-123.78319,41.0199],[-123.7832,41.01989],[-123.78321,41.01988],[-123.78323,41.01987],[-123.78325,41.01985],[-123.78327,41.01983],[-123.78328,41.01981],[-123.7833,41.01979],[-123.78332,41.01978],[-123.78334,41.01976],[-123.78334,41.01975],[-123.78335,41.01973],[-123.78338,41.01972],[-123.7834,41.0197],[-123.78343,41.01969],[-123.78346,41.01967],[-123.78349,41.01966],[-123.78352,41.01965],[-123.78356,41.01965],[-123.78359,41.01965],[-123.78363,41.01965],[-123.78366,41.01967],[-123.78368,41.01968],[-123.78371,41.01971],[-123.78373,41.01973],[-123.78375,41.01975],[-123.78377,41.01977],[-123.78379,41.0198],[-123.7838,41.01982],[-123.78381,41.01985],[-123.78381,41.01988],[-123.78382,41.01991],[-123.78383,41.01993],[-123.78384,41.01996],[-123.78385,41.01999],[-123.78386,41.02001],[-123.78387,41.02004],[-123.78388,41.02007],[-123.78389,41.0201],[-123.7839,41.02013],[-123.78391,41.02015],[-123.78392,41.02018],[-123.78394,41.02021],[-123.78396,41.02023],[-123.78398,41.02025],[-123.784,41.02027],[-123.78403,41.02029],[-123.78406,41.0203],[-123.78409,41.02032],[-123.78412,41.02033],[-123.78416,41.02033],[-123.7842,41.02034],[-123.78423,41.02034],[-123.78427,41.02033],[-123.7843,41.02033],[-123.78434,41.02033],[-123.78437,41.02032],[-123.7844,41.02031],[-123.78444,41.02031],[-123.78447,41.0203],[-123.78451,41.0203],[-123.78454,41.02029],[-123.78457,41.02028],[-123.78461,41.02028],[-123.78464,41.02027],[-123.78468,41.02026],[-123.78471,41.02025],[-123.78474,41.02025],[-123.78477,41.02024],[-123.78481,41.02024],[-123.78485,41.02023],[-123.78488,41.02023],[-123.78491,41.02022],[-123.78495,41.02022],[-123.78498,41.02021],[-123.78502,41.02021],[-123.78505,41.0202],[-123.78509,41.02019],[-123.78512,41.02019],[-123.78515,41.02018],[-123.78518,41.02017],[-123.78522,41.02016],[-123.78525,41.02015],[-123.78529,41.02014],[-123.78531,41.02014],[-123.78532,41.02013],[-123.78534,41.02013]]}},{"type":"Feature","properties":{"name":"Unnamed BLM route","source":"Bureau of Land Management","source_detail":"BLM GTLF OBJECTID 156210","source_id":"{008754DD-A960-4306-A149-FFBFCD3E67F3}","road_class":"transportation_system_-_primitive_road","surface":"natural","vehicle_class":"4wd_high_clearance_specialized","allowed_mode":"unk","access_restriction":"unknown","seasonal_restriction":"no","gis_miles":0.31509266},"geometry":{"type":"LineString","coordinates":[[-123.77988,41.00704],[-123.77989,41.00708],[-123.77991,41.00713],[-123.77993,41.00717],[-123.77997,41.0072],[-123.78002,41.00723],[-123.78007,41.00726],[-123.78011,41.00729],[-123.78015,41.00732],[-123.78017,41.00736],[-123.78019,41.00741],[-123.7802,41.00745],[-123.7802,41.0075],[-123.7802,41.00754],[-123.7802,41.00759],[-123.78021,41.00763],[-123.78021,41.00768],[-123.78022,41.00772],[-123.78024,41.00777],[-123.78025,41.00781],[-123.78027,41.00785],[-123.7803,41.00789],[-123.78032,41.00793],[-123.78034,41.00797],[-123.78037,41.00801],[-123.7804,41.00805],[-123.78044,41.00809],[-123.78048,41.00813],[-123.78051,41.00816],[-123.78054,41.0082],[-123.78057,41.00824],[-123.7806,41.00827],[-123.78065,41.0083],[-123.7807,41.00833],[-123.78075,41.00835],[-123.78079,41.00838],[-123.78083,41.00842],[-123.78086,41.00846],[-123.78088,41.0085],[-123.78089,41.00855],[-123.78089,41.00859],[-123.7809,41.00864],[-123.78091,41.00868],[-123.78092,41.00873],[-123.78092,41.00877],[-123.78092,41.00882],[-123.78092,41.00886],[-123.78092,41.00891],[-123.78092,41.00895],[-123.78091,41.009],[-123.78091,41.00904],[-123.78091,41.00909],[-123.78092,41.00913],[-123.78094,41.00917],[-123.78097,41.00921],[-123.781,41.00925],[-123.78105,41.00928],[-123.78109,41.00931],[-123.78114,41.00934],[-123.7812,41.00935],[-123.78126,41.00935],[-123.78132,41.00935],[-123.78137,41.00935],[-123.78143,41.00934],[-123.78149,41.00933],[-123.78155,41.00932],[-123.7816,41.0093],[-123.78165,41.00927],[-123.78168,41.00923],[-123.78171,41.00919],[-123.78172,41.00915],[-123.78174,41.0091],[-123.78177,41.00906],[-123.7818,41.00903],[-123.78183,41.00899],[-123.78185,41.00894],[-123.78186,41.0089],[-123.78185,41.00885],[-123.78182,41.00881],[-123.7818,41.00877],[-123.78179,41.00872],[-123.78174,41.0087],[-123.78169,41.00868],[-123.78167,41.00864],[-123.78167,41.00859],[-123.78167,41.00854],[-123.78166,41.0085],[-123.78166,41.00845],[-123.78165,41.00841],[-123.78165,41.00836],[-123.78165,41.00832],[-123.78165,41.00827],[-123.78164,41.00823],[-123.78164,41.00818],[-123.78164,41.00814],[-123.78164,41.00809],[-123.78166,41.00805],[-123.78168,41.008],[-123.78171,41.00797],[-123.78173,41.00793],[-123.78176,41.00789],[-123.78181,41.00781]]}},{"type":"Feature","properties":{"name":"LACKS CREEK ROAD","source":"Bureau of Land Management","source_detail":"BLM GTLF OBJECTID 157715","source_id":"{66F83808-9DEE-43A7-890A-51479A96BD0B}","road_class":"transportation_system_-_road","surface":"natural_improved","vehicle_class":"2wd_low","allowed_mode":"unk","access_restriction":"none","seasonal_restriction":"no","gis_miles":1.41850569},"geometry":{"type":"LineString","coordinates":[[-123.79755,40.9864],[-123.79759,40.98642],[-123.79759,40.98642],[-123.79762,40.98642],[-123.79764,40.98642],[-123.79769,40.98641],[-123.79771,40.98641],[-123.79776,40.98641],[-123.79782,40.98641],[-123.79788,40.98641],[-123.79794,40.9864],[-123.798,40.9864],[-123.79806,40.9864],[-123.79812,40.9864],[-123.79817,40.98641],[-123.79823,40.98642],[-123.79828,40.98644],[-123.79834,40.98646],[-123.79839,40.98648],[-123.79845,40.98649],[-123.79851,40.9865],[-123.79856,40.98651],[-123.79862,40.98652],[-123.79868,40.98652],[-123.79874,40.98652],[-123.7988,40.98652],[-123.79886,40.98652],[-123.79892,40.98652],[-123.79898,40.98651],[-123.79904,40.98651],[-123.7991,40.98651],[-123.79916,40.98652],[-123.79922,40.98653],[-123.79928,40.98653],[-123.79934,40.98653],[-123.79939,40.98654],[-123.79945,40.98654],[-123.79951,40.98654],[-123.79957,40.98654],[-123.79963,40.98654],[-123.7997,40.98653],[-123.79974,40.98655],[-123.79978,40.98658],[-123.79982,40.98662],[-123.79986,40.98666],[-123.7999,40.98669],[-123.79993,40.98673],[-123.79996,40.98677],[-123.79998,40.98681],[-123.8,40.98685],[-123.80003,40.98689],[-123.80005,40.98694],[-123.80006,40.98698],[-123.80008,40.98702],[-123.8001,40.98707],[-123.80011,40.98711],[-123.80012,40.98716],[-123.80012,40.9872],[-123.80013,40.98725],[-123.80014,40.98729],[-123.80016,40.98733],[-123.80019,40.98737],[-123.80021,40.98741],[-123.80024,40.98746],[-123.80027,40.9875],[-123.80031,40.98753],[-123.80035,40.98756],[-123.80039,40.98759],[-123.80043,40.98763],[-123.80048,40.98765],[-123.80053,40.98768],[-123.80057,40.98771],[-123.80062,40.98774],[-123.80067,40.98776],[-123.80072,40.98779],[-123.80077,40.98781],[-123.80082,40.98784],[-123.80087,40.98787],[-123.80091,40.98789],[-123.80096,40.98792],[-123.80101,40.98795],[-123.80106,40.98797],[-123.8011,40.988],[-123.80115,40.98803],[-123.80119,40.98806],[-123.80124,40.98809],[-123.80128,40.98812],[-123.80133,40.98815],[-123.80138,40.98817],[-123.80144,40.98819],[-123.80149,40.98821],[-123.80154,40.98823],[-123.8016,40.98825],[-123.80165,40.98827],[-123.8017,40.98829],[-123.80176,40.98829],[-123.80182,40.98828],[-123.80188,40.98826],[-123.80193,40.98824],[-123.80198,40.98821],[-123.80203,40.98818],[-123.80207,40.98815],[-123.8021,40.98811],[-123.80212,40.98807],[-123.80215,40.98803],[-123.80217,40.98799],[-123.8022,40.98795],[-123.80222,40.98791],[-123.80224,40.98786],[-123.80226,40.98782],[-123.80228,40.98778],[-123.8023,40.98773],[-123.80232,40.98769],[-123.80234,40.98765],[-123.80236,40.98761],[-123.80238,40.98756],[-123.80239,40.98752],[-123.80241,40.98748],[-123.80242,40.98743],[-123.80244,40.98739],[-123.80245,40.98735],[-123.80247,40.9873],[-123.8025,40.98726],[-123.80252,40.98722],[-123.80255,40.98718],[-123.80259,40.98714],[-123.80262,40.98711],[-123.80266,40.98707],[-123.80271,40.98704],[-123.80275,40.98701],[-123.8028,40.98699],[-123.80285,40.98697],[-123.80291,40.98697],[-123.80298,40.98697],[-123.80304,40.98697],[-123.8031,40.98697],[-123.80316,40.98697],[-123.80322,40.98697],[-123.80328,40.98697],[-123.80334,40.98698],[-123.8034,40.98699],[-123.80345,40.98699],[-123.80351,40.98699],[-123.80357,40.987],[-123.80363,40.98699],[-123.80369,40.98699],[-123.80375,40.98699],[-123.80381,40.98698],[-123.80387,40.98698],[-123.80392,40.98696],[-123.80398,40.98694],[-123.80404,40.98693],[-123.80409,40.98691],[-123.80415,40.9869],[-123.80421,40.9869],[-123.80427,40.98689],[-123.80433,40.98688],[-123.80439,40.98688],[-123.80445,40.98689],[-123.8045,40.9869],[-123.80455,40.98693],[-123.80461,40.98695],[-123.80467,40.98699],[-123.8047,40.98702],[-123.80474,40.98706],[-123.80477,40.98709],[-123.80479,40.98714],[-123.8048,40.98718],[-123.8048,40.98723],[-123.8048,40.98727],[-123.8048,40.98732],[-123.80481,40.98736],[-123.80482,40.98741],[-123.80483,40.98745],[-123.80484,40.9875],[-123.80485,40.98754],[-123.80486,40.98758],[-123.80487,40.98763],[-123.80489,40.98767],[-123.8049,40.98772],[-123.80492,40.98776],[-123.80494,40.9878],[-123.80496,40.98784],[-123.80498,40.98788],[-123.805,40.98793],[-123.80501,40.98797],[-123.80503,40.98802],[-123.80504,40.98806],[-123.80506,40.9881],[-123.80509,40.98814],[-123.80513,40.98817],[-123.80517,40.98821],[-123.8052,40.98824],[-123.80524,40.98828],[-123.80529,40.98831],[-123.80534,40.98833],[-123.80538,40.98837],[-123.80539,40.98841],[-123.8054,40.98846],[-123.80541,40.9885],[-123.80542,40.98855],[-123.80544,40.98859],[-123.80545,40.98863],[-123.80545,40.98868],[-123.80545,40.98872],[-123.80547,40.98877],[-123.80549,40.98881],[-123.80551,40.98885],[-123.80554,40.98889],[-123.80558,40.98892],[-123.80562,40.98896],[-123.80567,40.98898],[-123.80572,40.98901],[-123.80577,40.98903],[-123.80583,40.98904],[-123.80588,40.98906],[-123.80593,40.98909],[-123.80596,40.98913],[-123.806,40.98916],[-123.80602,40.9892],[-123.80605,40.98924],[-123.80607,40.98929],[-123.80608,40.98933],[-123.8061,40.98937],[-123.80612,40.98941],[-123.80614,40.98946],[-123.80617,40.9895],[-123.80619,40.98954],[-123.80621,40.98958],[-123.80624,40.98962],[-123.80628,40.98966],[-123.80632,40.98969],[-123.80637,40.98972],[-123.80641,40.98975],[-123.80647,40.98977],[-123.80652,40.98979],[-123.80657,40.98981],[-123.80663,40.98982],[-123.80668,40.98984],[-123.80674,40.98986],[-123.80678,40.98989],[-123.80684,40.98991],[-123.80689,40.98993],[-123.80695,40.98994],[-123.807,40.98996],[-123.80704,40.98999],[-123.80706,40.99003],[-123.80705,40.99008],[-123.80702,40.99012],[-123.80698,40.99015],[-123.80693,40.99018],[-123.80687,40.99019],[-123.80681,40.9902],[-123.80675,40.9902],[-123.80669,40.99019],[-123.80663,40.99019],[-123.80657,40.99019],[-123.80651,40.99018],[-123.80645,40.99017],[-123.8064,40.99016],[-123.80634,40.99016],[-123.80628,40.99014],[-123.80622,40.99013],[-123.80617,40.99012],[-123.80611,40.9901],[-123.80605,40.99009],[-123.806,40.99007],[-123.80594,40.99005],[-123.80589,40.99004],[-123.80583,40.99002],[-123.80578,40.99001],[-123.80573,40.98998],[-123.80569,40.98995],[-123.80564,40.98992],[-123.8056,40.98989],[-123.80555,40.98986],[-123.80551,40.98983],[-123.80546,40.9898],[-123.80542,40.98977],[-123.80537,40.98974],[-123.80532,40.98973],[-123.80526,40.98974],[-123.80519,40.98975],[-123.80516,40.98978],[-123.80517,40.98982],[-123.80519,40.98987],[-123.80522,40.98991],[-123.80525,40.98994],[-123.80529,40.98998],[-123.80533,40.99001],[-123.80537,40.99005],[-123.80541,40.99008],[-123.80545,40.99011],[-123.80549,40.99014],[-123.80554,40.99017],[-123.80558,40.9902],[-123.80563,40.99023],[-123.80567,40.99026],[-123.80572,40.99029],[-123.80576,40.99032],[-123.80581,40.99035],[-123.80585,40.99038],[-123.8059,40.99041],[-123.80594,40.99044],[-123.80599,40.99047],[-123.80603,40.9905],[-123.80608,40.99053],[-123.80612,40.99055],[-123.80617,40.99058],[-123.80621,40.99061],[-123.80626,40.99064],[-123.8063,40.99067],[-123.80635,40.9907],[-123.80639,40.99073],[-123.80644,40.99076],[-123.80649,40.99079],[-123.80653,40.99081],[-123.80658,40.99084],[-123.80663,40.99087],[-123.80665,40.99091],[-123.80667,40.99095],[-123.80669,40.99099],[-123.8067,40.99104],[-123.80672,40.99108],[-123.80674,40.99112],[-123.80676,40.99117],[-123.80678,40.99121],[-123.80681,40.99125],[-123.80684,40.99128],[-123.80688,40.99132],[-123.80691,40.99135],[-123.80694,40.99139],[-123.80698,40.99143],[-123.80702,40.99147],[-123.80706,40.9915],[-123.80708,40.99152],[-123.8071,40.99154],[-123.80712,40.99157],[-123.8071,40.99161],[-123.80707,40.99164],[-123.80706,40.99166],[-123.80703,40.9917],[-123.807,40.99173],[-123.80695,40.99176],[-123.80689,40.99176],[-123.80684,40.99175],[-123.80678,40.99174],[-123.80672,40.99172],[-123.80667,40.99172],[-123.80661,40.9917],[-123.80655,40.99169],[-123.80649,40.99168],[-123.80643,40.99167],[-123.80638,40.99166],[-123.80632,40.99164],[-123.80626,40.99163],[-123.8062,40.99162],[-123.80615,40.9916],[-123.80609,40.99159],[-123.80603,40.99158],[-123.80598,40.99156],[-123.80593,40.99154],[-123.80587,40.99152],[-123.80582,40.99151],[-123.80576,40.9915],[-123.8057,40.99149],[-123.80564,40.99149],[-123.80558,40.99149],[-123.80552,40.99148],[-123.80546,40.99147],[-123.8054,40.99146],[-123.80534,40.99145],[-123.80529,40.99144],[-123.80523,40.99145],[-123.80513,40.9915],[-123.80513,40.99154],[-123.80513,40.99159],[-123.80514,40.99163],[-123.80516,40.99167],[-123.8052,40.99171],[-123.80524,40.99174],[-123.80529,40.99177],[-123.80534,40.99179],[-123.80539,40.99182],[-123.80544,40.99183],[-123.8055,40.99186],[-123.80555,40.99188],[-123.8056,40.9919],[-123.80565,40.99193],[-123.80569,40.99196],[-123.80573,40.99199],[-123.80576,40.99203],[-123.80578,40.99207],[-123.80578,40.99212],[-123.80577,40.99216],[-123.80576,40.99221],[-123.80574,40.99225],[-123.80573,40.9923],[-123.80572,40.99234],[-123.80571,40.99239],[-123.8057,40.99243],[-123.80569,40.99248],[-123.80568,40.99252],[-123.80569,40.99257],[-123.8057,40.99261],[-123.80573,40.99265],[-123.80575,40.99269],[-123.80579,40.99273],[-123.80582,40.99276],[-123.80586,40.9928],[-123.80589,40.99283],[-123.80593,40.99287],[-123.80597,40.99291],[-123.806,40.99294],[-123.80604,40.99298],[-123.80607,40.99302],[-123.8061,40.99306],[-123.80612,40.9931],[-123.80614,40.99314],[-123.80615,40.99319],[-123.80614,40.99323],[-123.80612,40.99328],[-123.8061,40.99332],[-123.80606,40.99336],[-123.80602,40.99338],[-123.80596,40.99339],[-123.8059,40.99339],[-123.80583,40.99339],[-123.80578,40.99338],[-123.80572,40.99337],[-123.80567,40.99334],[-123.80561,40.99333],[-123.80556,40.9933],[-123.80551,40.99329],[-123.80545,40.99327],[-123.8054,40.99324],[-123.80535,40.99322],[-123.8053,40.9932],[-123.80525,40.99318],[-123.8052,40.99315],[-123.80515,40.99313],[-123.8051,40.9931],[-123.80505,40.99307],[-123.805,40.99305],[-123.80496,40.99302],[-123.80491,40.99299],[-123.80486,40.99296],[-123.80481,40.99294],[-123.80477,40.99291],[-123.80472,40.99288],[-123.80468,40.99284],[-123.80463,40.99281],[-123.80459,40.99279],[-123.80453,40.99278],[-123.80446,40.99279],[-123.8044,40.9928],[-123.80436,40.99283],[-123.80435,40.99286],[-123.80436,40.99291],[-123.80438,40.99296]]}},{"type":"Feature","properties":{"name":"Unnamed BLM route","source":"Bureau of Land Management","source_detail":"BLM GTLF OBJECTID 158515","source_id":"{79ED8B3A-2143-48CE-B8CD-7F7DEF71CB34}","road_class":"transportation_system_-_primitive_road","surface":"natural","vehicle_class":"4wd_low","allowed_mode":"unk","access_restriction":"none","seasonal_restriction":"unk","gis_miles":0.03585425},"geometry":{"type":"LineString","coordinates":[[-123.79198,40.99153],[-123.79198,40.99153],[-123.79194,40.99153],[-123.79188,40.99153],[-123.79182,40.99153],[-123.79176,40.99152],[-123.7917,40.99152],[-123.79164,40.99151],[-123.79158,40.99152],[-123.79152,40.99152],[-123.79146,40.99152],[-123.79141,40.99153],[-123.79131,40.99156]]}},{"type":"Feature","properties":{"name":"Unnamed BLM route","source":"Bureau of Land Management","source_detail":"BLM GTLF OBJECTID 158542","source_id":"{721E9857-D860-4644-95CC-2B15D660DD29}","road_class":"transportation_system_-_primitive_road","surface":"natural","vehicle_class":"4wd_low","allowed_mode":"unk","access_restriction":"none","seasonal_restriction":"unk","gis_miles":0.0376679},"geometry":{"type":"LineString","coordinates":[[-123.78288,41.01091],[-123.78292,41.01089],[-123.78297,41.01088],[-123.78303,41.01088],[-123.78309,41.01088],[-123.78315,41.0109],[-123.7832,41.01092],[-123.78326,41.01093],[-123.78332,41.01093],[-123.78337,41.01092],[-123.78343,41.0109],[-123.78348,41.01088],[-123.78354,41.01089]]}},{"type":"Feature","properties":{"name":"PINE RIDGE CAMPING SPUR","source":"Bureau of Land Management","source_detail":"BLM GTLF OBJECTID 159009","source_id":"{4B85CB87-8703-4CDE-8EF2-60B89AF3E9ED}","road_class":"transportation_system_-_primitive_road","surface":"aggregate","vehicle_class":"4wd_low","allowed_mode":"unk","access_restriction":"none","seasonal_restriction":"unk","gis_miles":0.25572299},"geometry":{"type":"LineString","coordinates":[[-123.78483,41.00093],[-123.78482,41.00093],[-123.78468,41.00099],[-123.78449,41.00103],[-123.78429,41.00104],[-123.78408,41.00101],[-123.78368,41.00096],[-123.78339,41.00083],[-123.78318,41.00077],[-123.78309,41.00072],[-123.783,41.00066],[-123.78297,41.00063],[-123.78295,41.00061],[-123.78292,41.00059],[-123.78289,41.00057],[-123.78287,41.00057],[-123.78285,41.00056],[-123.7828,41.00056],[-123.78278,41.00055],[-123.78273,41.00056],[-123.7827,41.00056],[-123.78268,41.00056],[-123.78266,41.00056],[-123.78263,41.00057],[-123.78261,41.00057],[-123.78258,41.00058],[-123.78256,41.00059],[-123.78253,41.00059],[-123.78251,41.00061],[-123.7825,41.00062],[-123.78248,41.00063],[-123.78246,41.00065],[-123.78245,41.00067],[-123.78243,41.00068],[-123.78242,41.0007],[-123.78242,41.00072],[-123.78241,41.00074],[-123.7824,41.00076],[-123.7824,41.00078],[-123.78238,41.00081],[-123.78237,41.00083],[-123.78237,41.00085],[-123.78236,41.00087],[-123.78235,41.00089],[-123.78234,41.0009],[-123.78233,41.00094],[-123.78231,41.00097],[-123.7823,41.001],[-123.78229,41.00102],[-123.78227,41.00105],[-123.78226,41.00108],[-123.78225,41.00111],[-123.78223,41.00115],[-123.78222,41.00118],[-123.78221,41.00119],[-123.78219,41.00122],[-123.78218,41.00124],[-123.78217,41.00126],[-123.78216,41.00128],[-123.78214,41.0013],[-123.78212,41.00132],[-123.7821,41.00133],[-123.78207,41.00135],[-123.78203,41.00137],[-123.78199,41.00138],[-123.78196,41.0014],[-123.78193,41.00142],[-123.78189,41.00143],[-123.78185,41.00145],[-123.78181,41.00147],[-123.78179,41.00149],[-123.78178,41.00153],[-123.78177,41.00154],[-123.78175,41.00158],[-123.78175,41.0016],[-123.78175,41.00161],[-123.78174,41.00163],[-123.78174,41.00165],[-123.78174,41.00169],[-123.78174,41.00172],[-123.78175,41.00175],[-123.78175,41.00179],[-123.78175,41.0018],[-123.78175,41.00184],[-123.78176,41.00187],[-123.78175,41.00189],[-123.78175,41.00192],[-123.78174,41.00196],[-123.78173,41.00198],[-123.78172,41.00199],[-123.78172,41.00201],[-123.78169,41.00204],[-123.78168,41.00205],[-123.78166,41.00207],[-123.78163,41.00209],[-123.78159,41.00211],[-123.78157,41.00213],[-123.78157,41.00213],[-123.78152,41.00215],[-123.78132,41.00218],[-123.78105,41.00221],[-123.78072,41.00217],[-123.7805,41.00219],[-123.78021,41.0023],[-123.77996,41.00242],[-123.77986,41.00248]]}},{"type":"Feature","properties":{"name":"33011: PINE RIDGE ROAD","source":"Bureau of Land Management","source_detail":"BLM GTLF OBJECTID 160368","source_id":"{6084EFF4-A91C-4A2D-901C-0B3F28721F09}","road_class":"transportation_system_-_road","surface":"natural_improved","vehicle_class":"2wd_low","allowed_mode":"unk","access_restriction":"none","seasonal_restriction":"no","gis_miles":1.62402748},"geometry":{"type":"LineString","coordinates":[[-123.78495,41.00061],[-123.78494,41.00064],[-123.78491,41.00071],[-123.7849,41.00076],[-123.78489,41.00078],[-123.78486,41.00085],[-123.78484,41.00091],[-123.78483,41.00093],[-123.78482,41.00097],[-123.7848,41.00102],[-123.78478,41.00107],[-123.78475,41.00111],[-123.78472,41.00114],[-123.7847,41.00116],[-123.78468,41.00119],[-123.78467,41.0012],[-123.78464,41.00122],[-123.78462,41.00125],[-123.78459,41.00128],[-123.78456,41.0013],[-123.78453,41.00133],[-123.78451,41.00136],[-123.78448,41.00139],[-123.78445,41.00142],[-123.78442,41.00145],[-123.78439,41.00148],[-123.78435,41.00151],[-123.78432,41.00155],[-123.78428,41.00159],[-123.78425,41.00164],[-123.78422,41.00167],[-123.78418,41.00171],[-123.78415,41.00175],[-123.78411,41.00179],[-123.78407,41.00183],[-123.78402,41.00188],[-123.78398,41.00192],[-123.78392,41.00195],[-123.78388,41.00199],[-123.78383,41.00202],[-123.78378,41.00206],[-123.78375,41.00211],[-123.78373,41.00217],[-123.78373,41.00223],[-123.78375,41.00229],[-123.78377,41.00235],[-123.78378,41.00242],[-123.7838,41.00249],[-123.78381,41.00256],[-123.78382,41.00264],[-123.78382,41.00271],[-123.78383,41.00278],[-123.78384,41.00284],[-123.78385,41.00289],[-123.78386,41.00294],[-123.78387,41.00298],[-123.78388,41.00303],[-123.78389,41.00308],[-123.7839,41.00313],[-123.78392,41.00319],[-123.78394,41.00326],[-123.78397,41.00333],[-123.78399,41.0034],[-123.78403,41.00347],[-123.78406,41.00354],[-123.7841,41.00361],[-123.78413,41.00368],[-123.78416,41.00375],[-123.78419,41.00382],[-123.7842,41.00389],[-123.78422,41.00397],[-123.78423,41.00404],[-123.78424,41.00411],[-123.78425,41.00416],[-123.78426,41.0042],[-123.78426,41.00423],[-123.78427,41.00425],[-123.78428,41.00428],[-123.78428,41.0043],[-123.78429,41.00432],[-123.7843,41.00435],[-123.78432,41.00437],[-123.78433,41.0044],[-123.78435,41.00443],[-123.78437,41.00446],[-123.7844,41.0045],[-123.78443,41.00453],[-123.78446,41.00457],[-123.7845,41.0046],[-123.78453,41.00464],[-123.78457,41.00468],[-123.78461,41.00472],[-123.78464,41.00475],[-123.78467,41.00477],[-123.7847,41.00479],[-123.78474,41.00482],[-123.78477,41.00485],[-123.7848,41.00488],[-123.78483,41.00492],[-123.78485,41.00495],[-123.78486,41.00499],[-123.78487,41.00502],[-123.78488,41.00504],[-123.78489,41.00508],[-123.78489,41.00511],[-123.7849,41.00516],[-123.78491,41.0052],[-123.78493,41.00526],[-123.78494,41.00532],[-123.78496,41.00537],[-123.78498,41.00543],[-123.785,41.00549],[-123.78502,41.00555],[-123.78503,41.0056],[-123.78504,41.00566],[-123.78503,41.00571],[-123.78501,41.00576],[-123.78499,41.00582],[-123.78496,41.00587],[-123.78494,41.00592],[-123.78492,41.00596],[-123.78491,41.00596],[-123.78491,41.00597],[-123.78488,41.00603],[-123.78485,41.00609],[-123.78481,41.00615],[-123.78478,41.00621],[-123.78475,41.00627],[-123.78472,41.00633],[-123.7847,41.0064],[-123.78467,41.00646],[-123.78463,41.00652],[-123.78457,41.00658],[-123.7845,41.00661],[-123.78445,41.00663],[-123.78443,41.00663],[-123.78438,41.00665],[-123.78435,41.00666],[-123.78431,41.00667],[-123.78427,41.00668],[-123.78424,41.0067],[-123.78421,41.00671],[-123.78417,41.00674],[-123.78413,41.00676],[-123.78408,41.00679],[-123.78403,41.00681],[-123.78398,41.00683],[-123.78393,41.00685],[-123.78388,41.00685],[-123.78383,41.00686],[-123.78377,41.00687],[-123.78372,41.00688],[-123.78367,41.00688],[-123.78363,41.00689],[-123.78358,41.0069],[-123.78354,41.0069],[-123.78349,41.00691],[-123.78344,41.00691],[-123.7834,41.00692],[-123.78335,41.00692],[-123.7833,41.00693],[-123.78324,41.00693],[-123.78318,41.00694],[-123.78311,41.00694],[-123.78306,41.00693],[-123.783,41.00694],[-123.78294,41.00695],[-123.78289,41.00697],[-123.78283,41.00699],[-123.78277,41.00701],[-123.7827,41.00704],[-123.78262,41.00706],[-123.78256,41.00707],[-123.78252,41.00709],[-123.78249,41.0071],[-123.78246,41.00711],[-123.78244,41.00712],[-123.78241,41.00713],[-123.78239,41.00714],[-123.78234,41.00716],[-123.78229,41.00718],[-123.78224,41.0072],[-123.78218,41.00724],[-123.78214,41.00729],[-123.7821,41.00734],[-123.78207,41.00739],[-123.78203,41.00745],[-123.782,41.0075],[-123.78196,41.00756],[-123.78191,41.00761],[-123.78186,41.00766],[-123.78183,41.00772],[-123.78181,41.00776],[-123.78181,41.00779],[-123.78181,41.00781],[-123.78181,41.00781],[-123.78181,41.00781],[-123.7818,41.00784],[-123.78181,41.00786],[-123.78181,41.00788],[-123.78182,41.0079],[-123.78183,41.00792],[-123.78185,41.00795],[-123.78186,41.00797],[-123.78187,41.008],[-123.78188,41.00803],[-123.7819,41.00806],[-123.78191,41.0081],[-123.78193,41.00815],[-123.78195,41.0082],[-123.78197,41.00826],[-123.78199,41.00832],[-123.78202,41.00839],[-123.78204,41.00846],[-123.78206,41.00852],[-123.78209,41.00858],[-123.78213,41.00865],[-123.78217,41.00871],[-123.78223,41.00878],[-123.78229,41.00885],[-123.78236,41.00891],[-123.78243,41.00897],[-123.7825,41.00903],[-123.78257,41.00909],[-123.78264,41.00916],[-123.78271,41.00921],[-123.78278,41.00926],[-123.78286,41.00931],[-123.78294,41.00935],[-123.78303,41.00938],[-123.78313,41.0094],[-123.78322,41.00942],[-123.78332,41.00944],[-123.78341,41.00946],[-123.7835,41.00949],[-123.78358,41.00954],[-123.78363,41.00959],[-123.78368,41.00966],[-123.78371,41.00973],[-123.78373,41.00981],[-123.78373,41.00988],[-123.78373,41.00996],[-123.78374,41.01003],[-123.78376,41.0101],[-123.78379,41.01017],[-123.78384,41.01023],[-123.7839,41.01028],[-123.78394,41.01033],[-123.78397,41.01037],[-123.78399,41.0104],[-123.784,41.01042],[-123.78401,41.01044],[-123.78401,41.01047],[-123.784,41.0105],[-123.78399,41.01053],[-123.78397,41.01057],[-123.78393,41.01061],[-123.78388,41.01064],[-123.78383,41.01068],[-123.78376,41.01072],[-123.7837,41.01076],[-123.78364,41.0108],[-123.78358,41.01085],[-123.78354,41.01089],[-123.78352,41.0109],[-123.78348,41.01094],[-123.78344,41.01099],[-123.78341,41.01104],[-123.78338,41.01109],[-123.78336,41.01114],[-123.78334,41.01119],[-123.78333,41.01124],[-123.78333,41.01129],[-123.78333,41.01134],[-123.78334,41.0114],[-123.78336,41.01146],[-123.78338,41.01152],[-123.78341,41.01158],[-123.78343,41.01165],[-123.78344,41.01173],[-123.78345,41.01181],[-123.78347,41.01189],[-123.7835,41.01197],[-123.78354,41.01204],[-123.78358,41.01212],[-123.78362,41.01219],[-123.78366,41.01226],[-123.78368,41.01234],[-123.78368,41.01241],[-123.78367,41.01249],[-123.78365,41.01256],[-123.78364,41.01263],[-123.78362,41.01271],[-123.7836,41.01278],[-123.78359,41.01284],[-123.78359,41.0129],[-123.7836,41.01295],[-123.78364,41.01299],[-123.78369,41.01303],[-123.78375,41.01306],[-123.78382,41.01309],[-123.78391,41.01311],[-123.78399,41.01314],[-123.78409,41.01316],[-123.78419,41.01319],[-123.78429,41.0132],[-123.7844,41.01322],[-123.78452,41.01324],[-123.78463,41.01327],[-123.78472,41.01331],[-123.78481,41.01335],[-123.78489,41.0134],[-123.78496,41.01345],[-123.78503,41.0135],[-123.78509,41.01355],[-123.78515,41.0136],[-123.78521,41.01366],[-123.78525,41.01372],[-123.78528,41.01378],[-123.78529,41.01384],[-123.7853,41.01389],[-123.78531,41.01395],[-123.78531,41.014],[-123.78532,41.01405],[-123.78533,41.0141],[-123.78534,41.01416],[-123.78534,41.01421],[-123.78534,41.01427],[-123.78533,41.01432],[-123.78531,41.01437],[-123.7853,41.01441],[-123.78529,41.01445],[-123.78527,41.01449],[-123.78525,41.01453],[-123.78524,41.01457],[-123.78523,41.01461],[-123.78521,41.01464],[-123.7852,41.01468],[-123.78518,41.01472],[-123.78515,41.01476],[-123.78512,41.01479],[-123.78508,41.01484],[-123.78504,41.01488],[-123.78499,41.01493],[-123.78495,41.01498],[-123.78491,41.01504],[-123.78488,41.01511],[-123.78485,41.01517],[-123.78483,41.01524],[-123.78479,41.0153],[-123.78477,41.01537],[-123.78473,41.01544],[-123.7847,41.01551],[-123.78467,41.01557],[-123.78463,41.01563],[-123.7846,41.0157],[-123.78458,41.01576],[-123.78456,41.01582],[-123.78455,41.01588],[-123.78454,41.01595],[-123.78454,41.01601],[-123.78455,41.01607],[-123.78456,41.01614],[-123.78458,41.01621],[-123.7846,41.01629],[-123.78463,41.01636],[-123.78466,41.01643],[-123.78469,41.01651],[-123.78472,41.01658],[-123.78476,41.01666],[-123.7848,41.01674],[-123.78485,41.01682],[-123.78491,41.0169],[-123.78496,41.01697],[-123.785,41.01705],[-123.78503,41.01712],[-123.78505,41.0172],[-123.78507,41.01728],[-123.78509,41.01736],[-123.78509,41.01743],[-123.78511,41.01751],[-123.78513,41.01758],[-123.78516,41.01765],[-123.78521,41.01772],[-123.78525,41.0178],[-123.78529,41.01788],[-123.78533,41.01795],[-123.78536,41.01801],[-123.78538,41.01805],[-123.78539,41.01808],[-123.7854,41.0181],[-123.78541,41.01812],[-123.78542,41.01814],[-123.78545,41.01817],[-123.78546,41.0182],[-123.78548,41.01824],[-123.7855,41.01829],[-123.78552,41.01833],[-123.78554,41.01838],[-123.78558,41.01842],[-123.78562,41.01848],[-123.78566,41.01853],[-123.78571,41.01858],[-123.78575,41.01863],[-123.78579,41.01868],[-123.78581,41.01873],[-123.78582,41.01877],[-123.78581,41.01882],[-123.7858,41.01886],[-123.78578,41.0189],[-123.78576,41.01894],[-123.78574,41.01898],[-123.78572,41.01903],[-123.7857,41.01909],[-123.78568,41.01915],[-123.78565,41.0192],[-123.78561,41.01926],[-123.78556,41.01932],[-123.78551,41.01938],[-123.78546,41.01943],[-123.78542,41.01949],[-123.78538,41.01955],[-123.78535,41.01961],[-123.78534,41.01968],[-123.78534,41.01975],[-123.78534,41.01982],[-123.78535,41.01988],[-123.78535,41.01993],[-123.78535,41.01997],[-123.78534,41.02001],[-123.78533,41.02005],[-123.78532,41.02008],[-123.78531,41.0201],[-123.78531,41.02011],[-123.78531,41.02014]]}}]}