{"type":"FeatureCollection","features":[{"type":"Feature","properties":{"name":"SADDLE MTN","source":"Bureau of Land Management","source_detail":"BLM GTLF OBJECTID 156389","source_id":"{282B1695-0146-4185-9148-45740F6F0E79}","road_class":"transportation_system_-_primitive_road","surface":"natural_improved","vehicle_class":"4wd_low","allowed_mode":"unk","access_restriction":"not_listed","seasonal_restriction":"not_listed","gis_miles":3.51285543},"geometry":{"type":"LineString","coordinates":[[-124.06734,40.10534],[-124.06734,40.10532],[-124.06734,40.1053],[-124.06734,40.10528],[-124.06734,40.10524],[-124.06735,40.1052],[-124.06736,40.10516],[-124.0674,40.105],[-124.06747,40.10489],[-124.06761,40.10474],[-124.06787,40.10414],[-124.0679,40.10406],[-124.06805,40.10402],[-124.06831,40.10398],[-124.0686,40.10405],[-124.06883,40.10414],[-124.06903,40.10415],[-124.0692,40.10403],[-124.06946,40.10396],[-124.0697,40.10404],[-124.06991,40.10418],[-124.07011,40.10431],[-124.07025,40.10447],[-124.07031,40.10469],[-124.07051,40.10482],[-124.07071,40.10494],[-124.0709,40.10505],[-124.07107,40.10508],[-124.07128,40.1051],[-124.07154,40.1051],[-124.07174,40.1051],[-124.07182,40.10515],[-124.07172,40.10522],[-124.07157,40.1053],[-124.07161,40.10544],[-124.07174,40.10557],[-124.07187,40.10573],[-124.07199,40.10586],[-124.07219,40.10593],[-124.07238,40.10606],[-124.07275,40.10627],[-124.0728,40.10644],[-124.0728,40.10692],[-124.07282,40.10708],[-124.07299,40.10724],[-124.07306,40.10749],[-124.07302,40.10766],[-124.07293,40.10776],[-124.07291,40.10822],[-124.07285,40.10839],[-124.07271,40.10851],[-124.07253,40.10858],[-124.07242,40.10868],[-124.07239,40.1088],[-124.07252,40.10882],[-124.07264,40.10876],[-124.0728,40.10866],[-124.07303,40.10854],[-124.07321,40.10835],[-124.07338,40.10807],[-124.07355,40.10791],[-124.07372,40.10776],[-124.0739,40.10758],[-124.07397,40.10739],[-124.07396,40.10719],[-124.07392,40.10702],[-124.0739,40.10684],[-124.07399,40.10654],[-124.07408,40.10634],[-124.07413,40.10613],[-124.07419,40.10595],[-124.07432,40.1057],[-124.0746,40.10535],[-124.07492,40.10522],[-124.07505,40.10515],[-124.07518,40.10506],[-124.07538,40.10489],[-124.07556,40.10478],[-124.07573,40.10463],[-124.07583,40.10447],[-124.07593,40.10434],[-124.07614,40.10419],[-124.07618,40.10408],[-124.07624,40.10395],[-124.07628,40.10386],[-124.07629,40.10384],[-124.07629,40.10383],[-124.07631,40.1038],[-124.07634,40.10377],[-124.0764,40.10376],[-124.0764,40.10376],[-124.07654,40.10384],[-124.07672,40.10394],[-124.07682,40.10403],[-124.07685,40.10414],[-124.07674,40.10429],[-124.0765,40.10449],[-124.07621,40.10471],[-124.07587,40.10495],[-124.07557,40.10517],[-124.07534,40.10534],[-124.07522,40.10549],[-124.07532,40.10563],[-124.07551,40.10579],[-124.07562,40.10605],[-124.07559,40.10631],[-124.07562,40.10657],[-124.07566,40.10687],[-124.07573,40.10715],[-124.07582,40.10739],[-124.07586,40.10763],[-124.07602,40.10787],[-124.07628,40.10808],[-124.07646,40.1083],[-124.07645,40.1086],[-124.07651,40.10886],[-124.07657,40.10909],[-124.07671,40.10926],[-124.07709,40.10933],[-124.07742,40.1094],[-124.07766,40.1095],[-124.07791,40.10963],[-124.07819,40.10964],[-124.07843,40.10961],[-124.07868,40.10966],[-124.07896,40.10973],[-124.07922,40.10975],[-124.07946,40.10981],[-124.07953,40.10997],[-124.07951,40.11014],[-124.07943,40.1103],[-124.07942,40.1105],[-124.07949,40.1107],[-124.07956,40.11104],[-124.07961,40.11142],[-124.07947,40.11183],[-124.07952,40.11203],[-124.07959,40.11224],[-124.07968,40.11246],[-124.07972,40.11273],[-124.07974,40.11298],[-124.07975,40.11319],[-124.07991,40.1134],[-124.08016,40.1138],[-124.08034,40.11424],[-124.08048,40.11439],[-124.08046,40.11468],[-124.08045,40.11493],[-124.08044,40.11515],[-124.08051,40.11535],[-124.08063,40.11555],[-124.0808,40.11572],[-124.08092,40.11591],[-124.08097,40.11612],[-124.08101,40.11634],[-124.0811,40.11655],[-124.08124,40.11686],[-124.08139,40.11696],[-124.08157,40.11714],[-124.08178,40.11728],[-124.08193,40.11742],[-124.08207,40.11753],[-124.08239,40.1177],[-124.08249,40.11787],[-124.08258,40.11804],[-124.08261,40.11823],[-124.08258,40.11844],[-124.08261,40.11863],[-124.08265,40.1188],[-124.08274,40.11894],[-124.08282,40.11907],[-124.08287,40.11919],[-124.08291,40.11934],[-124.08291,40.11952],[-124.08279,40.11972],[-124.08265,40.11991],[-124.08252,40.12008],[-124.0824,40.12023],[-124.08226,40.12039],[-124.08206,40.12068],[-124.08205,40.12087],[-124.08214,40.12099],[-124.08227,40.1211],[-124.0824,40.12126],[-124.08241,40.12149],[-124.08237,40.12172],[-124.08227,40.12191],[-124.0822,40.12211],[-124.08209,40.12228],[-124.08199,40.12245],[-124.08198,40.1226],[-124.08194,40.12288],[-124.08191,40.12305],[-124.08187,40.12321],[-124.0819,40.12335],[-124.08209,40.12352],[-124.08217,40.12373],[-124.08225,40.12393],[-124.08245,40.12409],[-124.08261,40.1243],[-124.0826,40.12454],[-124.08254,40.12477],[-124.0826,40.12497],[-124.08284,40.12508],[-124.08307,40.12523],[-124.08331,40.12538],[-124.08361,40.1255],[-124.08394,40.12564],[-124.08416,40.12576],[-124.08428,40.12598],[-124.08437,40.12619],[-124.08453,40.12643],[-124.08466,40.12666],[-124.08473,40.12688],[-124.08485,40.12709],[-124.08494,40.12726],[-124.08511,40.12745],[-124.08537,40.12808],[-124.08541,40.12822],[-124.08544,40.12834],[-124.08551,40.12857],[-124.08557,40.12875],[-124.08559,40.12886],[-124.08558,40.12899],[-124.08555,40.12913],[-124.08552,40.12926],[-124.08553,40.12935],[-124.08559,40.12941],[-124.08591,40.12965],[-124.08675,40.12999],[-124.08699,40.13],[-124.08714,40.13],[-124.08728,40.13],[-124.08807,40.13044],[-124.08828,40.13049],[-124.08886,40.13104],[-124.08901,40.13115],[-124.09001,40.13179],[-124.09011,40.13192],[-124.0902,40.13205],[-124.09029,40.13221],[-124.0904,40.1323],[-124.09056,40.13242]]}},{"type":"Feature","properties":{"name":"33031: FINLEY RIDGE","source":"Bureau of Land Management","source_detail":"BLM GTLF OBJECTID 159166","source_id":"{F3DDDD33-974A-4A48-8081-EF1267B88484}","road_class":"transportation_system_-_primitive_road","surface":"natural","vehicle_class":"4wd_low","allowed_mode":"unk","access_restriction":"unknown","seasonal_restriction":"not_listed","gis_miles":1.13482294},"geometry":{"type":"LineString","coordinates":[[-124.04259,40.09118],[-124.04242,40.09122],[-124.04219,40.09144],[-124.04204,40.09147],[-124.0415,40.09134],[-124.04139,40.09133],[-124.04131,40.09144],[-124.04134,40.09151],[-124.0414,40.0916],[-124.04136,40.09168],[-124.04133,40.09183],[-124.04125,40.09204],[-124.0411,40.09216],[-124.04106,40.09227],[-124.04112,40.09237],[-124.04112,40.09243],[-124.04108,40.09259],[-124.04098,40.0927],[-124.0408,40.09276],[-124.04051,40.09275],[-124.04011,40.09259],[-124.03994,40.09254],[-124.03982,40.09258],[-124.03962,40.0927],[-124.03895,40.09277],[-124.03846,40.09263],[-124.03791,40.09278],[-124.03766,40.09291],[-124.03681,40.09294],[-124.03668,40.09298],[-124.03646,40.09295],[-124.03621,40.09293],[-124.03607,40.09296],[-124.03588,40.0931],[-124.03573,40.09312],[-124.03557,40.0931],[-124.03533,40.09309],[-124.03501,40.09331],[-124.03501,40.09359],[-124.03481,40.09366],[-124.03475,40.09366],[-124.03444,40.09352],[-124.03428,40.0935],[-124.0336,40.0935],[-124.03341,40.09354],[-124.0332,40.09361],[-124.03307,40.09366],[-124.03297,40.0937],[-124.03289,40.09377],[-124.03286,40.0938],[-124.03284,40.09382],[-124.03281,40.09386],[-124.03267,40.09401],[-124.03247,40.09403],[-124.03233,40.09409],[-124.03182,40.09423],[-124.03141,40.09424],[-124.03095,40.09393],[-124.03084,40.09392],[-124.03054,40.09384],[-124.02931,40.09381],[-124.02922,40.09383],[-124.02917,40.09385],[-124.02911,40.09387],[-124.02904,40.0939],[-124.0289,40.09396],[-124.02877,40.09402],[-124.02865,40.09404],[-124.02843,40.09412],[-124.02836,40.09418],[-124.02824,40.09427],[-124.02791,40.09448],[-124.02786,40.0945],[-124.02781,40.09453],[-124.0277,40.09461],[-124.02763,40.09466],[-124.02756,40.09469],[-124.02746,40.09473],[-124.02737,40.09476],[-124.02729,40.09478],[-124.02723,40.0948],[-124.02719,40.09481],[-124.02715,40.09482],[-124.02694,40.09488],[-124.02683,40.0949],[-124.02668,40.09494],[-124.0265,40.09497],[-124.02636,40.095],[-124.02627,40.09505],[-124.02611,40.09512],[-124.02604,40.09513],[-124.02599,40.09514],[-124.02596,40.09514],[-124.02591,40.09514],[-124.0254,40.09512],[-124.02539,40.09509],[-124.02532,40.09509],[-124.02528,40.0951],[-124.02525,40.09512],[-124.02517,40.09514],[-124.02512,40.09516],[-124.02509,40.09517],[-124.02504,40.09518],[-124.02499,40.09518],[-124.02494,40.09518],[-124.02489,40.09518],[-124.02484,40.09519]]}}]}