{"type":"FeatureCollection","features":[{"type":"Feature","properties":{"name":"(unnamed public road)","road_class":"track","surface":"sand","tracktype":"grade5","source":"Caltrans All Roads + OpenStreetMap explicit surface","source_detail":"osm way 10359403; Caltrans All Roads public-network geometry match","source_tile":"175/399","public_network_source":"Caltrans All Roads (ARNOLD/HPMS)","surface_source":"OpenStreetMap explicit surface tag","caltrans_match_coverage":1.0,"verified_length_m":2580},"geometry":{"type":"LineString","coordinates":[[-118.26083,36.84266],[-118.26077,36.84276],[-118.26075,36.84284],[-118.26075,36.84293],[-118.26077,36.84301],[-118.26099,36.84348],[-118.26102,36.84353],[-118.26112,36.84371],[-118.26112,36.84379],[-118.26109,36.8439],[-118.26101,36.84399],[-118.26078,36.84413],[-118.26052,36.84432],[-118.26047,36.84437],[-118.26041,36.84449],[-118.26037,36.84467],[-118.26036,36.84481],[-118.26038,36.84521],[-118.26035,36.84529],[-118.2603,36.84536],[-118.26019,36.84544],[-118.26014,36.84554],[-118.26008,36.84573],[-118.26008,36.84582],[-118.26011,36.84593],[-118.26016,36.84602],[-118.26021,36.84608],[-118.26039,36.84623],[-118.26057,36.84635],[-118.26107,36.84672],[-118.26164,36.84719],[-118.26196,36.84746],[-118.26212,36.84765],[-118.26227,36.84783],[-118.26234,36.84797],[-118.26238,36.8481],[-118.26237,36.84824],[-118.26235,36.84838],[-118.26227,36.84868],[-118.26219,36.84924],[-118.26221,36.84937],[-118.26226,36.84946],[-118.26236,36.84956],[-118.26392,36.8506],[-118.26403,36.85071],[-118.26409,36.85078],[-118.26415,36.85088],[-118.26508,36.8526],[-118.26519,36.85278],[-118.26523,36.85283],[-118.26596,36.85338],[-118.26695,36.85406],[-118.26806,36.85481],[-118.26904,36.85552],[-118.27007,36.85625],[-118.2707,36.85668],[-118.27077,36.85675],[-118.27129,36.85766],[-118.27169,36.85831],[-118.27177,36.85844],[-118.2719,36.85855],[-118.27198,36.8586],[-118.27307,36.85914],[-118.27434,36.85984],[-118.27492,36.86015],[-118.27502,36.86017],[-118.2751,36.86016],[-118.27531,36.86015]]}},{"type":"Feature","properties":{"name":"14S102","road_class":"track","surface":"unpaved","source":"Caltrans All Roads + OpenStreetMap explicit surface","source_detail":"osm way 10361347; Caltrans All Roads public-network geometry match","source_tile":"175/399","public_network_source":"Caltrans All Roads (ARNOLD/HPMS)","surface_source":"OpenStreetMap explicit surface tag","caltrans_match_coverage":1.0,"verified_length_m":1616},"geometry":{"type":"LineString","coordinates":[[-118.25994,36.73171],[-118.2602,36.73151],[-118.26053,36.73125],[-118.26071,36.73117],[-118.26088,36.73109],[-118.26108,36.73099],[-118.26122,36.73087],[-118.26143,36.73066],[-118.26164,36.73033],[-118.26173,36.7302],[-118.2618,36.72989],[-118.26186,36.72977],[-118.26194,36.72968],[-118.26211,36.72952],[-118.2622,36.72946],[-118.26234,36.72937],[-118.2625,36.72924],[-118.26277,36.72893],[-118.26325,36.72841],[-118.26351,36.72823],[-118.26364,36.72811],[-118.26378,36.72795],[-118.26393,36.72788],[-118.26414,36.72778],[-118.26463,36.72744],[-118.26523,36.727],[-118.26584,36.72659],[-118.26598,36.72644],[-118.26711,36.72554],[-118.26743,36.72525],[-118.26796,36.72489],[-118.26828,36.72465],[-118.26879,36.72443],[-118.26889,36.72435],[-118.26902,36.72414],[-118.2691,36.72405],[-118.2692,36.72389],[-118.26927,36.72381],[-118.26935,36.72376],[-118.26984,36.72347],[-118.26994,36.72344],[-118.27011,36.72341],[-118.27018,36.72337],[-118.27024,36.72329],[-118.27063,36.723],[-118.27081,36.72289],[-118.27093,36.72283],[-118.27107,36.72274],[-118.27115,36.72265],[-118.27136,36.72252],[-118.27168,36.72227],[-118.27205,36.72212],[-118.27221,36.72199],[-118.27233,36.72194],[-118.27244,36.72192],[-118.27279,36.72189]]}},{"type":"Feature","properties":{"name":"(unnamed public road)","road_class":"track","surface":"dirt","tracktype":"grade3","source":"Caltrans All Roads + OpenStreetMap explicit surface","source_detail":"osm way 10363556; Caltrans All Roads public-network geometry match","source_tile":"175/399","public_network_source":"Caltrans All Roads (ARNOLD/HPMS)","surface_source":"OpenStreetMap explicit surface tag","caltrans_match_coverage":0.936,"verified_length_m":1071},"geometry":{"type":"LineString","coordinates":[[-118.14192,36.79765],[-118.14183,36.79756],[-118.14175,36.79753],[-118.14159,36.79751],[-118.14065,36.79753],[-118.14032,36.79755],[-118.14012,36.79758],[-118.13996,36.79763],[-118.13969,36.79784],[-118.13918,36.79812],[-118.1391,36.79822],[-118.13903,36.79832],[-118.13881,36.79833],[-118.13862,36.7983],[-118.13782,36.7983],[-118.13654,36.79837],[-118.13471,36.79846],[-118.13276,36.79853],[-118.13188,36.79857],[-118.13145,36.79861],[-118.1311,36.79859],[-118.13087,36.7986],[-118.13036,36.79865]]}},{"type":"Feature","properties":{"name":"(unnamed public road)","road_class":"track","surface":"dirt","source":"Caltrans All Roads + OpenStreetMap explicit surface","source_detail":"osm way 10366585; Caltrans All Roads public-network geometry match","source_tile":"175/399","public_network_source":"Caltrans All Roads (ARNOLD/HPMS)","surface_source":"OpenStreetMap explicit surface tag","caltrans_match_coverage":1.0,"verified_length_m":535},"geometry":{"type":"LineString","coordinates":[[-118.13374,36.60806],[-118.13367,36.60805],[-118.13358,36.60808],[-118.13342,36.60818],[-118.13329,36.60826],[-118.13312,36.60835],[-118.13266,36.60859],[-118.13255,36.60862],[-118.13242,36.60863],[-118.13234,36.60862],[-118.13208,36.60854],[-118.13197,36.60853],[-118.13179,36.60856],[-118.13157,36.60856],[-118.13145,36.60858],[-118.13107,36.60872],[-118.1309,36.60878],[-118.13046,36.60898],[-118.13007,36.60909],[-118.12993,36.60917],[-118.12982,36.60927],[-118.12965,36.60956],[-118.12934,36.61011],[-118.12928,36.61017],[-118.12919,36.61025],[-118.12901,36.61036]]}},{"type":"Feature","properties":{"name":"(unnamed public road)","road_class":"track","surface":"unpaved","source":"Caltrans All Roads + OpenStreetMap explicit surface","source_detail":"osm way 10366932; Caltrans All Roads public-network geometry match","source_tile":"175/399","public_network_source":"Caltrans All Roads (ARNOLD/HPMS)","surface_source":"OpenStreetMap explicit surface tag","caltrans_match_coverage":0.949,"verified_length_m":4524},"geometry":{"type":"LineString","coordinates":[[-118.16575,36.79741],[-118.16563,36.79318],[-118.16561,36.79011],[-118.16556,36.78242],[-118.16566,36.78027],[-118.16562,36.77985],[-118.16565,36.77866],[-118.16562,36.77766],[-118.16563,36.77712],[-118.16564,36.77708],[-118.16559,36.7769],[-118.16563,36.77665],[-118.16563,36.77603],[-118.16561,36.77599],[-118.16564,36.77431],[-118.16563,36.7741],[-118.16564,36.77312],[-118.16562,36.77273],[-118.1656,36.77268],[-118.16561,36.77258],[-118.16563,36.77247],[-118.16563,36.77226],[-118.16565,36.7719],[-118.16564,36.77067],[-118.16561,36.77032],[-118.16562,36.77028],[-118.16562,36.76973],[-118.1656,36.76969],[-118.16562,36.76702],[-118.16559,36.76663],[-118.16549,36.76641],[-118.16548,36.76637],[-118.16539,36.76622],[-118.16535,36.76619],[-118.16528,36.76571],[-118.16526,36.76303],[-118.16532,36.7627],[-118.16541,36.76261],[-118.16556,36.7625],[-118.16656,36.76203],[-118.16677,36.7619],[-118.16683,36.76184],[-118.16694,36.76169],[-118.16727,36.76107],[-118.16774,36.76009],[-118.16775,36.76],[-118.16763,36.75982],[-118.16659,36.75844],[-118.16647,36.75827],[-118.16642,36.75817],[-118.16644,36.75807],[-118.16652,36.75798],[-118.16663,36.75792],[-118.16686,36.75783]]}},{"type":"Feature","properties":{"name":"(unnamed public road)","road_class":"unclassified","surface":"unpaved","source":"Caltrans All Roads + OpenStreetMap explicit surface","source_detail":"osm way 10368912; Caltrans All Roads public-network geometry match","source_tile":"175/399","public_network_source":"Caltrans All Roads (ARNOLD/HPMS)","surface_source":"OpenStreetMap explicit surface tag","caltrans_match_coverage":0.998,"verified_length_m":3157},"geometry":{"type":"LineString","coordinates":[[-118.18291,36.82426],[-118.18345,36.82471],[-118.18352,36.82476],[-118.18362,36.82482],[-118.18371,36.82485],[-118.18393,36.82489],[-118.18575,36.82497],[-118.18647,36.82496],[-118.18736,36.82492],[-118.18808,36.82487],[-118.18847,36.82483],[-118.18881,36.82477],[-118.18947,36.8246],[-118.18994,36.82446],[-118.19018,36.82435],[-118.19045,36.82417],[-118.19098,36.82372],[-118.19286,36.82219],[-118.19324,36.82194],[-118.1939,36.82138],[-118.19443,36.82096],[-118.19457,36.82086],[-118.19726,36.81873],[-118.19883,36.8174],[-118.1991,36.81727],[-118.19928,36.81725],[-118.19949,36.81728],[-118.20198,36.81787],[-118.20222,36.81783],[-118.20233,36.8178],[-118.20237,36.81777],[-118.20239,36.81774],[-118.20239,36.8177],[-118.20232,36.8176],[-118.20217,36.81749],[-118.20211,36.81722],[-118.20196,36.81438],[-118.20198,36.81398],[-118.20197,36.81372],[-118.2019,36.81355],[-118.2017,36.81312],[-118.20124,36.81228],[-118.20113,36.81195],[-118.20099,36.8114],[-118.20098,36.81127],[-118.20098,36.81106],[-118.2011,36.81081],[-118.20138,36.81044],[-118.20156,36.81025],[-118.20168,36.81016],[-118.20209,36.81006],[-118.20339,36.80955]]}},{"type":"Feature","properties":{"name":"13S101","road_class":"track","surface":"sand","tracktype":"grade5","source":"Caltrans All Roads + OpenStreetMap explicit surface","source_detail":"osm way 10370266; Caltrans All Roads public-network geometry match","source_tile":"175/399","public_network_source":"Caltrans All Roads (ARNOLD/HPMS)","surface_source":"OpenStreetMap explicit surface tag","caltrans_match_coverage":1.0,"verified_length_m":693},"geometry":{"type":"LineString","coordinates":[[-118.27799,36.84352],[-118.27779,36.84356],[-118.27624,36.84411],[-118.27606,36.84416],[-118.27595,36.84417],[-118.27489,36.84418],[-118.27475,36.84417],[-118.27459,36.84412],[-118.27451,36.84407],[-118.27443,36.844],[-118.27437,36.84388],[-118.27436,36.84378],[-118.27438,36.84369],[-118.27439,36.84364],[-118.2745,36.84344],[-118.2745,36.84337],[-118.27447,36.84332],[-118.27442,36.84329],[-118.27427,36.84326],[-118.27375,36.84324],[-118.27335,36.84322],[-118.27282,36.84315],[-118.27241,36.84314],[-118.27227,36.84313],[-118.27207,36.84308],[-118.27184,36.84298],[-118.27174,36.84292],[-118.27157,36.84274]]}},{"type":"Feature","properties":{"name":"(unnamed public road)","road_class":"track","surface":"sand","tracktype":"grade5","source":"Caltrans All Roads + OpenStreetMap explicit surface","source_detail":"osm way 10371923; Caltrans All Roads public-network geometry match","source_tile":"175/399","public_network_source":"Caltrans All Roads (ARNOLD/HPMS)","surface_source":"OpenStreetMap explicit surface tag","caltrans_match_coverage":1.0,"verified_length_m":602},"geometry":{"type":"LineString","coordinates":[[-118.2561,36.83636],[-118.25621,36.83638],[-118.25651,36.83632],[-118.25929,36.83605],[-118.26068,36.83595],[-118.26177,36.83591],[-118.26197,36.83589],[-118.26202,36.83587],[-118.2623,36.83567],[-118.26239,36.83563],[-118.2627,36.83558]]}},{"type":"Feature","properties":{"name":"(unnamed public road)","road_class":"track","surface":"unpaved","source":"Caltrans All Roads + OpenStreetMap explicit surface","source_detail":"osm way 10373077; Caltrans All Roads public-network geometry match","source_tile":"175/399","public_network_source":"Caltrans All Roads (ARNOLD/HPMS)","surface_source":"OpenStreetMap explicit surface tag","caltrans_match_coverage":0.884,"verified_length_m":5262},"geometry":{"type":"LineString","coordinates":[[-118.20601,36.85519],[-118.2064,36.8551],[-118.20733,36.85513],[-118.20874,36.85511],[-118.21018,36.8551],[-118.21259,36.85511],[-118.21375,36.85513],[-118.21324,36.85455],[-118.21226,36.85352],[-118.21187,36.85309],[-118.21168,36.85272],[-118.21137,36.85203],[-118.21131,36.85199],[-118.21121,36.85198],[-118.21114,36.8519],[-118.21055,36.85073],[-118.20914,36.84799],[-118.20914,36.84795],[-118.20907,36.84779],[-118.20818,36.84617],[-118.20727,36.84446],[-118.20591,36.84188],[-118.20549,36.84112],[-118.20529,36.84069],[-118.2045,36.8393],[-118.20261,36.83578],[-118.2024,36.83534],[-118.20219,36.83501],[-118.20177,36.83428],[-118.20136,36.83342],[-118.19937,36.8298],[-118.19769,36.82664],[-118.19632,36.82424],[-118.19471,36.82111],[-118.19457,36.82106],[-118.19443,36.82096],[-118.19436,36.82089],[-118.19432,36.82081],[-118.1943,36.82068],[-118.19394,36.81842],[-118.19394,36.81824],[-118.19399,36.81814],[-118.19405,36.81802],[-118.19408,36.81792],[-118.1941,36.81782],[-118.19409,36.81778],[-118.19403,36.81773],[-118.19401,36.8177],[-118.19389,36.81759],[-118.19378,36.81749]]}},{"type":"Feature","properties":{"name":"14S102B","road_class":"track","surface":"unpaved","source":"Caltrans All Roads + OpenStreetMap explicit surface","source_detail":"osm way 10373334; Caltrans All Roads public-network geometry match","source_tile":"175/399","public_network_source":"Caltrans All Roads (ARNOLD/HPMS)","surface_source":"OpenStreetMap explicit surface tag","caltrans_match_coverage":0.983,"verified_length_m":1199},"geometry":{"type":"LineString","coordinates":[[-118.26828,36.72465],[-118.26908,36.72489],[-118.26937,36.725],[-118.26953,36.72503],[-118.26998,36.72504],[-118.2701,36.72506],[-118.2705,36.72522],[-118.27067,36.72526],[-118.27123,36.72537],[-118.27177,36.72555],[-118.27189,36.72563],[-118.27201,36.72574],[-118.27211,36.72587],[-118.27218,36.72605],[-118.27229,36.7265],[-118.27241,36.7267],[-118.27265,36.72695],[-118.27286,36.72709],[-118.27293,36.72716],[-118.27297,36.72725],[-118.273,36.72737],[-118.27301,36.72751],[-118.27304,36.72756],[-118.2732,36.72771],[-118.27327,36.7278],[-118.27348,36.7282],[-118.27356,36.72826],[-118.27365,36.7283],[-118.27375,36.72831],[-118.27394,36.72828],[-118.27411,36.72823],[-118.27496,36.72792],[-118.27554,36.72769],[-118.27586,36.72757],[-118.27637,36.72743],[-118.27663,36.72738],[-118.27677,36.72737],[-118.27804,36.72733],[-118.27831,36.72732],[-118.27858,36.72731],[-118.27897,36.72699]]}},{"type":"Feature","properties":{"name":"Hogback Road","road_class":"unclassified","surface":"unpaved","source":"Caltrans All Roads + OpenStreetMap explicit surface","source_detail":"osm way 10375656; Caltrans All Roads public-network geometry match","source_tile":"175/399","public_network_source":"Caltrans All Roads (ARNOLD/HPMS)","surface_source":"OpenStreetMap explicit surface tag","caltrans_match_coverage":1.0,"verified_length_m":9266},"geometry":{"type":"LineString","coordinates":[[-118.13986,36.65825],[-118.14065,36.65714],[-118.14069,36.65703],[-118.14071,36.65692],[-118.1407,36.65681],[-118.14032,36.65568],[-118.13989,36.6545],[-118.13987,36.6544],[-118.13989,36.65432],[-118.13996,36.65415],[-118.14002,36.65404],[-118.14012,36.65392],[-118.14037,36.65364],[-118.14077,36.65322],[-118.14133,36.65281],[-118.1416,36.65263],[-118.14175,36.65255],[-118.14185,36.6525],[-118.14203,36.65245],[-118.14243,36.65238],[-118.14258,36.65233],[-118.14272,36.65225],[-118.14339,36.65169],[-118.14365,36.65146],[-118.14379,36.65125],[-118.14397,36.65095],[-118.14412,36.65062],[-118.14413,36.65051],[-118.14409,36.65039],[-118.14401,36.65029],[-118.14395,36.65025],[-118.14384,36.65019],[-118.14297,36.64976],[-118.14285,36.64968],[-118.14278,36.6496],[-118.14273,36.6495],[-118.1427,36.6494],[-118.14263,36.64848],[-118.14261,36.6483],[-118.14315,36.64774],[-118.14329,36.64762],[-118.14336,36.64757],[-118.14367,36.64741],[-118.14402,36.64728],[-118.14427,36.6472],[-118.14438,36.64717],[-118.1447,36.64704],[-118.14496,36.64691],[-118.14503,36.64688],[-118.14513,36.64684],[-118.14523,36.64682],[-118.14527,36.64683],[-118.14532,36.64684],[-118.14541,36.64687],[-118.14564,36.64702],[-118.14616,36.64741],[-118.14684,36.64793],[-118.14698,36.64802],[-118.14731,36.64818],[-118.14756,36.64828],[-118.14804,36.64843],[-118.14818,36.64846],[-118.1484,36.64849],[-118.14867,36.64849],[-118.15116,36.6485],[-118.15332,36.64848],[-118.15564,36.64848],[-118.15582,36.64846],[-118.15597,36.64844],[-118.15623,36.64838],[-118.15641,36.64832],[-118.15689,36.64813],[-118.15714,36.64802],[-118.1573,36.64796],[-118.15748,36.64791],[-118.15791,36.64783],[-118.15851,36.64775],[-118.15886,36.64769],[-118.15903,36.64764],[-118.15922,36.64754],[-118.15937,36.64744],[-118.15951,36.64731],[-118.15994,36.64681],[-118.16048,36.64609],[-118.16089,36.64552],[-118.16189,36.6442],[-118.16196,36.64411],[-118.16266,36.64316],[-118.16346,36.64209],[-118.16366,36.64175],[-118.16397,36.64111],[-118.16439,36.64035],[-118.16451,36.64019],[-118.16461,36.64007],[-118.16491,36.63982],[-118.16521,36.6396],[-118.16539,36.63942],[-118.16678,36.63784],[-118.16776,36.63671],[-118.16871,36.6355],[-118.16897,36.6351],[-118.16903,36.63504],[-118.16913,36.63497],[-118.16928,36.6349],[-118.16933,36.63487],[-118.16939,36.63481],[-118.16945,36.63473],[-118.16954,36.6345],[-118.16963,36.63435],[-118.16971,36.63427],[-118.16996,36.63407],[-118.17079,36.63351],[-118.17089,36.63343],[-118.17102,36.6333],[-118.17114,36.63312],[-118.17123,36.63297],[-118.17147,36.63263],[-118.17152,36.63259],[-118.17172,36.6325],[-118.17201,36.63233],[-118.17208,36.63227],[-118.17215,36.63217],[-118.17217,36.63205],[-118.17215,36.63162],[-118.17218,36.63146],[-118.17221,36.63139],[-118.17273,36.63068],[-118.17279,36.6306],[-118.17287,36.63053],[-118.1735,36.63012],[-118.1737,36.62996],[-118.17378,36.62989],[-118.17385,36.6298],[-118.17388,36.62976],[-118.17391,36.62972],[-118.17396,36.62959],[-118.17404,36.62936],[-118.17412,36.62926],[-118.17425,36.62912],[-118.17444,36.62898],[-118.1749,36.62867],[-118.17552,36.62817],[-118.17574,36.62803],[-118.17605,36.62785],[-118.1765,36.62763],[-118.17659,36.62756],[-118.17666,36.62748],[-118.17675,36.62731],[-118.17685,36.6272],[-118.17697,36.62712],[-118.17705,36.62708],[-118.17721,36.62704],[-118.17764,36.62698],[-118.17779,36.62694],[-118.1779,36.62689],[-118.178,36.62682],[-118.17803,36.6268],[-118.1787,36.62588],[-118.17907,36.62542],[-118.17914,36.62536],[-118.17918,36.62534],[-118.17927,36.62531],[-118.17944,36.62528],[-118.17961,36.62528],[-118.18017,36.62538],[-118.1803,36.62539],[-118.18046,36.62538],[-118.18063,36.62534],[-118.18073,36.62529],[-118.18124,36.62501],[-118.18181,36.62471],[-118.18194,36.62462],[-118.18203,36.62455],[-118.18212,36.62447],[-118.18243,36.62404],[-118.18269,36.62376],[-118.18299,36.62349],[-118.18314,36.62338],[-118.18321,36.62334],[-118.18328,36.62331],[-118.18502,36.62279],[-118.18748,36.62202],[-118.18879,36.62162],[-118.19311,36.6202],[-118.19317,36.62018],[-118.19335,36.62009],[-118.19348,36.62003],[-118.19357,36.61996],[-118.19365,36.61991],[-118.194,36.61965],[-118.19453,36.61921],[-118.1948,36.61898],[-118.19517,36.61868],[-118.19576,36.61818],[-118.19607,36.61793],[-118.19669,36.61748],[-118.1983,36.61622],[-118.19847,36.61612],[-118.19907,36.61579],[-118.19942,36.6156],[-118.19957,36.61552],[-118.2,36.61524],[-118.20128,36.61435],[-118.20222,36.6136],[-118.20248,36.61335],[-118.20399,36.61166],[-118.20479,36.61078],[-118.20487,36.61068],[-118.20552,36.60967],[-118.20597,36.60885],[-118.20621,36.60845]]}},{"type":"Feature","properties":{"name":"South Oak Creek Road","road_class":"unclassified","surface":"unpaved","tracktype":"grade2","source":"Caltrans All Roads + OpenStreetMap explicit surface","source_detail":"osm way 10377039; Caltrans All Roads public-network geometry match","source_tile":"175/399","public_network_source":"Caltrans All Roads (ARNOLD/HPMS)","surface_source":"OpenStreetMap explicit surface tag","caltrans_match_coverage":1.0,"verified_length_m":2277},"geometry":{"type":"LineString","coordinates":[[-118.2454,36.82961],[-118.2459,36.82957],[-118.24609,36.82954],[-118.24623,36.8295],[-118.24643,36.82943],[-118.24674,36.82931],[-118.24691,36.82923],[-118.24762,36.82884],[-118.25069,36.82727],[-118.25722,36.82391],[-118.25737,36.8238],[-118.25754,36.82365],[-118.25898,36.82202],[-118.25927,36.82176],[-118.25959,36.82158],[-118.25994,36.82142],[-118.26135,36.82086],[-118.2623,36.82045],[-118.26247,36.82032],[-118.26266,36.8201],[-118.2628,36.81992],[-118.26311,36.81927],[-118.26356,36.81862],[-118.26365,36.81852],[-118.26396,36.8183],[-118.26405,36.8182],[-118.26411,36.81808],[-118.26422,36.81772],[-118.26429,36.81758],[-118.26441,36.81744],[-118.26451,36.81733],[-118.26473,36.81719],[-118.26482,36.81717]]}},{"type":"Feature","properties":{"name":"Foothill Road","road_class":"unclassified","surface":"unpaved","source":"Caltrans All Roads + OpenStreetMap explicit surface","source_detail":"osm way 10379216; Caltrans All Roads public-network geometry match","source_tile":"175/399","public_network_source":"Caltrans All Roads (ARNOLD/HPMS)","surface_source":"OpenStreetMap explicit surface tag","caltrans_match_coverage":1.0,"verified_length_m":4467},"geometry":{"type":"LineString","coordinates":[[-118.26535,36.77513],[-118.26551,36.7745],[-118.26573,36.77386],[-118.26579,36.77364],[-118.26582,36.77343],[-118.26579,36.77305],[-118.26574,36.77268],[-118.26547,36.77151],[-118.26495,36.76942],[-118.2648,36.76872],[-118.26406,36.76573],[-118.26308,36.76137],[-118.26292,36.76055],[-118.26268,36.75983],[-118.26261,36.75969],[-118.2625,36.75954],[-118.26232,36.75936],[-118.26211,36.75917],[-118.26047,36.75794],[-118.26034,36.75782],[-118.26017,36.75744],[-118.26012,36.75725],[-118.26009,36.75703],[-118.2601,36.75534],[-118.26007,36.754],[-118.26008,36.74915],[-118.26011,36.74901],[-118.26023,36.74871],[-118.26033,36.74855],[-118.26047,36.7484],[-118.26254,36.74677],[-118.26331,36.74613],[-118.26368,36.74574],[-118.26381,36.74554],[-118.26417,36.74483],[-118.2642,36.74474],[-118.26421,36.74455],[-118.26421,36.74451],[-118.26419,36.74443],[-118.26411,36.74431],[-118.26381,36.74404],[-118.26377,36.74395],[-118.26377,36.74385],[-118.26383,36.74365],[-118.26386,36.74344],[-118.26385,36.74323],[-118.26386,36.74298],[-118.26393,36.7425],[-118.26392,36.74215],[-118.26394,36.74207],[-118.26397,36.74198],[-118.26432,36.7415],[-118.26444,36.74127],[-118.26446,36.7412],[-118.26445,36.74101],[-118.26443,36.7409],[-118.26432,36.74059],[-118.26433,36.74052],[-118.26439,36.74042],[-118.26486,36.73995],[-118.26523,36.73966],[-118.26528,36.73959],[-118.26531,36.73951],[-118.2653,36.73942],[-118.26518,36.73919],[-118.26488,36.73853],[-118.26484,36.73838],[-118.26483,36.73789],[-118.26495,36.73763]]}},{"type":"Feature","properties":{"name":"(unnamed public road)","road_class":"track","surface":"dirt","source":"Caltrans All Roads + OpenStreetMap explicit surface","source_detail":"osm way 249662969; Caltrans All Roads public-network geometry match","source_tile":"176/399","public_network_source":"Caltrans All Roads (ARNOLD/HPMS)","surface_source":"OpenStreetMap explicit surface tag","caltrans_match_coverage":0.962,"verified_length_m":820},"geometry":{"type":"LineString","coordinates":[[-118.12901,36.61036],[-118.12873,36.60999],[-118.12864,36.60983],[-118.12853,36.60951],[-118.12841,36.6092],[-118.1279,36.6085],[-118.12784,36.60845],[-118.1272,36.60805],[-118.12704,36.60794],[-118.12665,36.60765],[-118.12648,36.60755],[-118.12637,36.60749],[-118.12604,36.60727],[-118.12549,36.60685],[-118.12537,36.60672],[-118.12512,36.60645],[-118.12461,36.60597],[-118.12379,36.60568],[-118.1234,36.60534],[-118.12302,36.60499]]}},{"type":"Feature","properties":{"name":"Northwest Movie Flat","road_class":"track","surface":"compacted","tracktype":"grade2","source":"Caltrans All Roads + OpenStreetMap explicit surface","source_detail":"osm way 249662972; Caltrans All Roads public-network geometry match","source_tile":"175/399","public_network_source":"Caltrans All Roads (ARNOLD/HPMS)","surface_source":"OpenStreetMap explicit surface tag","caltrans_match_coverage":1.0,"verified_length_m":540},"geometry":{"type":"LineString","coordinates":[[-118.12805,36.60978],[-118.12843,36.60956],[-118.12853,36.60951],[-118.12929,36.60914],[-118.12997,36.60864],[-118.13026,36.60855],[-118.13066,36.60847],[-118.1313,36.60811],[-118.13164,36.60794],[-118.13193,36.60767],[-118.13207,36.60765],[-118.13221,36.60769],[-118.13232,36.60768],[-118.13244,36.60762],[-118.13255,36.60752],[-118.13269,36.60751],[-118.13275,36.60749],[-118.13278,36.60746],[-118.13275,36.60741],[-118.13268,36.6074],[-118.1326,36.60745],[-118.13255,36.60752]]}},{"type":"Feature","properties":{"name":"Manzanar Reward Road","road_class":"unclassified","surface":"compacted","tracktype":"grade2","source":"Caltrans All Roads + OpenStreetMap explicit surface","source_detail":"osm way 370464603; Caltrans All Roads public-network geometry match","source_tile":"175/399","public_network_source":"Caltrans All Roads (ARNOLD/HPMS)","surface_source":"OpenStreetMap explicit surface tag","caltrans_match_coverage":1.0,"verified_length_m":528},"geometry":{"type":"LineString","coordinates":[[-118.14446,36.73702],[-118.14382,36.73735],[-118.14341,36.73754],[-118.14223,36.73804],[-118.14072,36.73874],[-118.14026,36.73895],[-118.13994,36.73907],[-118.13968,36.73914],[-118.13944,36.73921],[-118.13925,36.73927]]}},{"type":"Feature","properties":{"name":"(unnamed public road)","road_class":"track","surface":"sand","tracktype":"grade5","source":"Caltrans All Roads + OpenStreetMap explicit surface","source_detail":"osm way 409597144; Caltrans All Roads public-network geometry match","source_tile":"175/399","public_network_source":"Caltrans All Roads (ARNOLD/HPMS)","surface_source":"OpenStreetMap explicit surface tag","caltrans_match_coverage":1.0,"verified_length_m":540},"geometry":{"type":"LineString","coordinates":[[-118.25963,36.84011],[-118.25969,36.84005],[-118.25971,36.84],[-118.25973,36.83982],[-118.25975,36.83978],[-118.25983,36.83972],[-118.25995,36.83962],[-118.25999,36.83955],[-118.26005,36.8394],[-118.26008,36.83929],[-118.26005,36.83905],[-118.26007,36.83889],[-118.26012,36.83868],[-118.2602,36.83855],[-118.26032,36.83846],[-118.26046,36.83833],[-118.26049,36.83825],[-118.26051,36.83816],[-118.26054,36.83795],[-118.26057,36.8376],[-118.26074,36.83707],[-118.26099,36.83657],[-118.26116,36.83634],[-118.26126,36.83625],[-118.26137,36.83617],[-118.26156,36.83607],[-118.26182,36.83597],[-118.26197,36.83589]]}},{"type":"Feature","properties":{"name":"Foothill Road","road_class":"track","surface":"unpaved","source":"Caltrans All Roads + OpenStreetMap explicit surface","source_detail":"osm way 430131711; Caltrans All Roads public-network geometry match","source_tile":"175/399","public_network_source":"Caltrans All Roads (ARNOLD/HPMS)","surface_source":"OpenStreetMap explicit surface tag","caltrans_match_coverage":1.0,"verified_length_m":818},"geometry":{"type":"LineString","coordinates":[[-118.26495,36.73763],[-118.26478,36.73755],[-118.26468,36.7375],[-118.2646,36.73748],[-118.26399,36.73726],[-118.26376,36.73711],[-118.26369,36.73703],[-118.26351,36.73676],[-118.26275,36.73599],[-118.26215,36.73535],[-118.26124,36.73423],[-118.26112,36.73403],[-118.26076,36.73337],[-118.26062,36.73289],[-118.26032,36.73239],[-118.25999,36.73198],[-118.25991,36.73184],[-118.25994,36.73171]]}},{"type":"Feature","properties":{"name":"(unnamed public road)","road_class":"track","surface":"dirt","tracktype":"grade3","source":"Caltrans All Roads + OpenStreetMap explicit surface","source_detail":"osm way 468915732; Caltrans All Roads public-network geometry match","source_tile":"175/399","public_network_source":"Caltrans All Roads (ARNOLD/HPMS)","surface_source":"OpenStreetMap explicit surface tag","caltrans_match_coverage":1.0,"verified_length_m":2001},"geometry":{"type":"LineString","coordinates":[[-118.13069,36.63465],[-118.13077,36.63449],[-118.13088,36.63431],[-118.13099,36.63416],[-118.13108,36.63403],[-118.13122,36.6338],[-118.13134,36.63357],[-118.13138,36.63348],[-118.1314,36.63343],[-118.13141,36.63337],[-118.13142,36.6333],[-118.13143,36.63323],[-118.13142,36.63311],[-118.13134,36.63287],[-118.13127,36.63269],[-118.13124,36.63259],[-118.13125,36.63249],[-118.13124,36.63237],[-118.1312,36.63221],[-118.13111,36.63193],[-118.13094,36.63155],[-118.13084,36.63136],[-118.13078,36.63128],[-118.13073,36.63122],[-118.13058,36.63111],[-118.13053,36.63103],[-118.13052,36.63095],[-118.13052,36.63089],[-118.13052,36.6308],[-118.13055,36.63073],[-118.1306,36.63064],[-118.13071,36.6305],[-118.13075,36.63042],[-118.13077,36.63034],[-118.13075,36.63026],[-118.1306,36.63008],[-118.13058,36.63003],[-118.13057,36.62999],[-118.13058,36.62993],[-118.13061,36.62989],[-118.13066,36.62985],[-118.13071,36.62982],[-118.13094,36.62976],[-118.13125,36.62967],[-118.13141,36.62962],[-118.13182,36.62946],[-118.1319,36.62944],[-118.13203,36.62944],[-118.13221,36.62942],[-118.1324,36.62941],[-118.1325,36.6294],[-118.13284,36.62936],[-118.1331,36.62936],[-118.13313,36.62935],[-118.13361,36.62926],[-118.1338,36.62923],[-118.13388,36.62921],[-118.13394,36.62918],[-118.13402,36.6291],[-118.13419,36.6289],[-118.13433,36.62874],[-118.13438,36.62871],[-118.13445,36.62866],[-118.13487,36.62853],[-118.13506,36.62845],[-118.1352,36.62842],[-118.13527,36.62841],[-118.13541,36.62842],[-118.13568,36.62849],[-118.13578,36.6285],[-118.13587,36.6285],[-118.13596,36.6285],[-118.13603,36.62852],[-118.13618,36.62861],[-118.13623,36.62863],[-118.13629,36.62864],[-118.13636,36.62862],[-118.13642,36.62859],[-118.13665,36.62842],[-118.13679,36.62832],[-118.13685,36.62826],[-118.1369,36.62818],[-118.13695,36.62809],[-118.13697,36.62801],[-118.13697,36.62793],[-118.13695,36.62776],[-118.13691,36.62762],[-118.13686,36.6274],[-118.13686,36.62726],[-118.13688,36.62717],[-118.13699,36.62695],[-118.13702,36.62686],[-118.13703,36.62679],[-118.13701,36.62665],[-118.137,36.62658],[-118.13701,36.62649],[-118.13704,36.62638],[-118.13708,36.62632],[-118.13713,36.62627],[-118.13735,36.62613],[-118.13756,36.62602],[-118.13771,36.62594],[-118.13799,36.62569],[-118.13831,36.62545],[-118.13849,36.62527],[-118.13855,36.62519],[-118.13864,36.62504],[-118.13869,36.62499],[-118.13874,36.62494],[-118.13881,36.62489],[-118.13888,36.62485],[-118.13899,36.62475],[-118.13909,36.62465],[-118.13937,36.62443],[-118.13944,36.62434],[-118.13952,36.62426],[-118.13958,36.62422],[-118.13964,36.6242],[-118.13971,36.6242],[-118.13977,36.6242],[-118.13984,36.62421],[-118.13996,36.62421],[-118.14001,36.6242],[-118.14007,36.62418],[-118.14011,36.62416],[-118.14015,36.62413],[-118.14018,36.6241],[-118.14022,36.62405],[-118.14023,36.62399],[-118.14024,36.62394],[-118.14023,36.62389],[-118.14024,36.62384],[-118.14027,36.6238],[-118.14032,36.62376],[-118.14036,36.62375],[-118.14043,36.62374],[-118.1405,36.62374],[-118.14061,36.62374],[-118.14102,36.62366],[-118.1412,36.62361],[-118.14164,36.62348],[-118.14172,36.62347],[-118.1418,36.62347],[-118.1419,36.62347],[-118.14198,36.62346],[-118.14203,36.62345]]}},{"type":"Feature","properties":{"name":"(unnamed public road)","road_class":"track","surface":"dirt","tracktype":"grade4","source":"Caltrans All Roads + OpenStreetMap explicit surface","source_detail":"osm way 468915738; Caltrans All Roads public-network geometry match","source_tile":"175/399","public_network_source":"Caltrans All Roads (ARNOLD/HPMS)","surface_source":"OpenStreetMap explicit surface tag","caltrans_match_coverage":1.0,"verified_length_m":1082},"geometry":{"type":"LineString","coordinates":[[-118.13153,36.64871],[-118.13207,36.64866],[-118.13247,36.64861],[-118.13267,36.64856],[-118.13303,36.64843],[-118.13366,36.64812],[-118.13376,36.64805],[-118.13387,36.64795],[-118.13399,36.64786],[-118.13414,36.64777],[-118.13441,36.64757],[-118.13452,36.64753],[-118.13469,36.64751],[-118.1349,36.64751],[-118.13501,36.6475],[-118.13529,36.64742],[-118.13568,36.64732],[-118.13593,36.64721],[-118.13602,36.64718],[-118.13618,36.64719],[-118.13674,36.64727],[-118.13696,36.64731],[-118.13709,36.64735],[-118.13737,36.64752],[-118.13761,36.64765],[-118.13789,36.64786],[-118.13805,36.64792],[-118.13873,36.64809],[-118.13921,36.64817],[-118.13944,36.64824],[-118.13978,36.64838],[-118.14009,36.64852],[-118.1405,36.64875],[-118.14062,36.64877],[-118.14074,36.64875],[-118.14084,36.64869],[-118.14101,36.64859],[-118.14108,36.64848],[-118.14117,36.64843],[-118.14125,36.64841],[-118.1414,36.6484],[-118.1416,36.64831],[-118.14175,36.64826],[-118.14202,36.64823],[-118.1424,36.64815]]}},{"type":"Feature","properties":{"name":"Moffat Ranch Road","road_class":"unclassified","surface":"compacted","tracktype":"grade2","source":"Caltrans All Roads + OpenStreetMap explicit surface","source_detail":"osm way 468915739; Caltrans All Roads public-network geometry match","source_tile":"176/399","public_network_source":"Caltrans All Roads (ARNOLD/HPMS)","surface_source":"OpenStreetMap explicit surface tag","caltrans_match_coverage":1.0,"verified_length_m":5729},"geometry":{"type":"LineString","coordinates":[[-118.11077,36.68409],[-118.11083,36.68398],[-118.11104,36.68358],[-118.1111,36.6834],[-118.11113,36.68322],[-118.11114,36.68298],[-118.11108,36.68263],[-118.11101,36.68228],[-118.111,36.68215],[-118.111,36.68207],[-118.11097,36.68188],[-118.11096,36.6817],[-118.11097,36.6816],[-118.11097,36.68146],[-118.11101,36.68127],[-118.11105,36.68117],[-118.11112,36.68106],[-118.11138,36.6809],[-118.11249,36.68031],[-118.11303,36.68],[-118.11351,36.67977],[-118.11384,36.67963],[-118.1142,36.67952],[-118.11476,36.67939],[-118.11494,36.67933],[-118.11511,36.67926],[-118.11556,36.67901],[-118.11641,36.67853],[-118.11658,36.67846],[-118.11678,36.67842],[-118.11698,36.67841],[-118.11741,36.67843],[-118.11758,36.67842],[-118.11783,36.67837],[-118.11875,36.67814],[-118.11892,36.67808],[-118.11906,36.67802],[-118.11959,36.67773],[-118.11985,36.67757],[-118.12001,36.67746],[-118.12008,36.67736],[-118.12017,36.67726],[-118.12025,36.67719],[-118.12034,36.67714],[-118.12061,36.67705],[-118.12071,36.67702],[-118.12083,36.67696],[-118.12092,36.67689],[-118.12104,36.67679],[-118.12132,36.67655],[-118.12175,36.67616],[-118.12263,36.67563],[-118.12294,36.67548],[-118.12326,36.67533],[-118.12354,36.67522],[-118.12365,36.67517],[-118.12376,36.67511],[-118.1239,36.67497],[-118.12414,36.67483],[-118.12429,36.67476],[-118.12445,36.67472],[-118.12463,36.67468],[-118.12475,36.67464],[-118.12487,36.67458],[-118.12499,36.67448],[-118.12544,36.67396],[-118.12554,36.67389],[-118.12572,36.67381],[-118.12603,36.67369],[-118.12621,36.6736],[-118.12663,36.6734],[-118.12675,36.67336],[-118.12697,36.67329],[-118.1271,36.67323],[-118.12718,36.67317],[-118.12729,36.67309],[-118.12739,36.67297],[-118.12745,36.67287],[-118.12755,36.67261],[-118.12761,36.67252],[-118.12771,36.67242],[-118.12788,36.67226],[-118.12803,36.67217],[-118.12861,36.6719],[-118.12879,36.6718],[-118.12916,36.67154],[-118.1293,36.67147],[-118.12943,36.67141],[-118.12968,36.67133],[-118.13103,36.67101],[-118.13185,36.67085],[-118.13205,36.6708],[-118.1322,36.67075],[-118.13232,36.67067],[-118.13253,36.67053],[-118.13266,36.67046],[-118.13301,36.67038],[-118.13318,36.67033],[-118.13355,36.67019],[-118.13403,36.66999],[-118.13463,36.66971],[-118.13487,36.66958],[-118.13514,36.66942],[-118.13524,36.66932],[-118.13546,36.66896],[-118.13554,36.66887],[-118.13563,36.66879],[-118.13576,36.66871],[-118.13613,36.66852],[-118.13622,36.66845],[-118.13634,36.66831],[-118.13654,36.66815],[-118.13693,36.6679],[-118.13715,36.66772],[-118.13736,36.66752],[-118.13752,36.66734],[-118.13766,36.66719],[-118.13779,36.66701],[-118.13786,36.66684],[-118.13789,36.66658],[-118.13791,36.66645],[-118.13826,36.66575],[-118.13874,36.66478],[-118.13906,36.66417],[-118.13927,36.66369],[-118.13934,36.6635],[-118.13938,36.66332],[-118.13937,36.6631],[-118.13926,36.66204],[-118.13927,36.66192],[-118.1393,36.66178],[-118.13934,36.66171],[-118.13939,36.66162],[-118.13946,36.66154],[-118.13986,36.66105],[-118.13992,36.66094],[-118.13996,36.66084],[-118.13999,36.66069],[-118.14003,36.66039],[-118.14003,36.66021],[-118.14002,36.66],[-118.13992,36.6592],[-118.1399,36.65888],[-118.13986,36.65825],[-118.13977,36.65719],[-118.13968,36.65614],[-118.13966,36.65603],[-118.13962,36.65592],[-118.13953,36.65581],[-118.1394,36.65564],[-118.13915,36.65535],[-118.13883,36.65501],[-118.13872,36.65484],[-118.13863,36.65468],[-118.13854,36.65446],[-118.13853,36.65434],[-118.13855,36.6542],[-118.13864,36.65404],[-118.13866,36.65394],[-118.13862,36.6538],[-118.13847,36.65352],[-118.13815,36.6528],[-118.13802,36.65242],[-118.13794,36.6522],[-118.13787,36.65209],[-118.1378,36.652],[-118.1377,36.65196],[-118.13753,36.65191],[-118.1369,36.65192],[-118.1367,36.65191],[-118.13654,36.65187],[-118.13603,36.65168],[-118.13589,36.6516],[-118.13574,36.65147],[-118.13512,36.65089],[-118.13484,36.65061],[-118.13469,36.65048],[-118.1345,36.65037],[-118.13415,36.65017],[-118.13374,36.6499],[-118.13348,36.64979],[-118.13327,36.64974],[-118.13307,36.64969],[-118.13294,36.64966],[-118.13264,36.64957],[-118.13201,36.6495],[-118.13177,36.64944],[-118.13164,36.64939],[-118.13154,36.64932],[-118.13144,36.64923],[-118.13138,36.64915],[-118.13133,36.64901],[-118.13132,36.64892]]}},{"type":"Feature","properties":{"name":"North Oak Creek Road","road_class":"unclassified","surface":"unpaved","tracktype":"grade2","source":"Caltrans All Roads + OpenStreetMap explicit surface","source_detail":"osm way 470109406; Caltrans All Roads public-network geometry match","source_tile":"175/399","public_network_source":"Caltrans All Roads (ARNOLD/HPMS)","surface_source":"OpenStreetMap explicit surface tag","caltrans_match_coverage":1.0,"verified_length_m":7134},"geometry":{"type":"LineString","coordinates":[[-118.2454,36.82961],[-118.24597,36.82969],[-118.24605,36.82971],[-118.24627,36.82978],[-118.24644,36.82987],[-118.24656,36.82996],[-118.24664,36.83003],[-118.2467,36.8301],[-118.24696,36.83043],[-118.24704,36.83051],[-118.24724,36.83067],[-118.24758,36.83089],[-118.24784,36.83102],[-118.24821,36.83118],[-118.24842,36.83124],[-118.2486,36.83129],[-118.24941,36.83145],[-118.2501,36.83156],[-118.25233,36.832],[-118.25244,36.83203],[-118.25277,36.83212],[-118.25316,36.83228],[-118.25328,36.83234],[-118.25345,36.83244],[-118.25378,36.83265],[-118.25486,36.83331],[-118.25516,36.83353],[-118.25532,36.83369],[-118.25548,36.83387],[-118.25558,36.83401],[-118.25587,36.83446],[-118.25608,36.83485],[-118.25617,36.83504],[-118.25621,36.83516],[-118.25627,36.83542],[-118.25628,36.83559],[-118.25625,36.8358],[-118.2561,36.83636],[-118.25578,36.83753],[-118.25552,36.83831],[-118.2555,36.83845],[-118.25549,36.83856],[-118.2555,36.83866],[-118.25555,36.8388],[-118.25559,36.83887],[-118.2557,36.83899],[-118.25583,36.83908],[-118.25598,36.83915],[-118.25616,36.8392],[-118.25862,36.83951],[-118.25877,36.83954],[-118.25903,36.83964],[-118.25917,36.83972],[-118.2593,36.8398],[-118.25943,36.83991],[-118.25963,36.84011],[-118.25981,36.84046],[-118.26024,36.84174],[-118.26043,36.84228],[-118.26045,36.84234],[-118.26054,36.84246],[-118.26065,36.84256],[-118.26072,36.84261],[-118.26083,36.84266],[-118.26236,36.84323],[-118.26268,36.84336],[-118.26279,36.84339],[-118.2629,36.84339],[-118.26301,36.84337],[-118.2631,36.84332],[-118.26316,36.84327],[-118.26321,36.8432],[-118.2633,36.84302],[-118.26348,36.84264],[-118.26355,36.84254],[-118.26362,36.84249],[-118.26373,36.84247],[-118.26388,36.84248],[-118.26399,36.84251],[-118.26409,36.84257],[-118.26437,36.84287],[-118.2644,36.8429],[-118.26444,36.84296],[-118.26446,36.84303],[-118.26448,36.84313],[-118.26447,36.84333],[-118.26444,36.84358],[-118.26446,36.8437],[-118.2645,36.84378],[-118.26456,36.84385],[-118.26461,36.84389],[-118.26477,36.84395],[-118.26491,36.844],[-118.26672,36.84446],[-118.26808,36.84482],[-118.26827,36.84486],[-118.26848,36.84489],[-118.26994,36.84493],[-118.27004,36.84494],[-118.27022,36.84499],[-118.27046,36.8451],[-118.27064,36.84522],[-118.27117,36.84562],[-118.27135,36.84573],[-118.27154,36.84581],[-118.27392,36.84651],[-118.27421,36.84662],[-118.27545,36.84721],[-118.27556,36.84725],[-118.27569,36.84727],[-118.27582,36.84725],[-118.27594,36.84721],[-118.276,36.84716],[-118.27605,36.84707],[-118.27615,36.84665],[-118.27623,36.84642],[-118.27637,36.84611],[-118.27665,36.84543],[-118.277,36.84461],[-118.27714,36.84441],[-118.27799,36.84352],[-118.27897,36.84251],[-118.27906,36.84245],[-118.27917,36.84242],[-118.27929,36.84241],[-118.2794,36.84244],[-118.2795,36.84249],[-118.27998,36.84293],[-118.28098,36.84379],[-118.28279,36.84531],[-118.28299,36.84547],[-118.28403,36.8462],[-118.28415,36.84628],[-118.28426,36.84632],[-118.28435,36.84633],[-118.28446,36.84631],[-118.28456,36.84627],[-118.28464,36.84621],[-118.28469,36.84613],[-118.28471,36.84604],[-118.28454,36.8454],[-118.28453,36.84533],[-118.28454,36.84527],[-118.28457,36.84521],[-118.28464,36.84515],[-118.28472,36.84511],[-118.28479,36.84509],[-118.28488,36.84508],[-118.28496,36.8451],[-118.28535,36.84524],[-118.28571,36.84543],[-118.2859,36.84557],[-118.28621,36.84586],[-118.28629,36.84592],[-118.28636,36.84596],[-118.28641,36.84598],[-118.28648,36.84599],[-118.28656,36.84598],[-118.28667,36.84596],[-118.28671,36.84593],[-118.28678,36.84586],[-118.28681,36.8458],[-118.28682,36.84572],[-118.28681,36.8456],[-118.28669,36.84536],[-118.28663,36.84521],[-118.28662,36.84516],[-118.28664,36.8451],[-118.28674,36.84501],[-118.28682,36.84498],[-118.28696,36.84498],[-118.28713,36.84504],[-118.2876,36.84535],[-118.28771,36.84547],[-118.28773,36.84552],[-118.28774,36.84557],[-118.28775,36.84563],[-118.28773,36.84569],[-118.28765,36.84584],[-118.28739,36.84608],[-118.28715,36.84634],[-118.28697,36.84657],[-118.28692,36.84668],[-118.28692,36.84673],[-118.28695,36.84683],[-118.28698,36.84689],[-118.28706,36.84698],[-118.28712,36.84701],[-118.28722,36.84703],[-118.28733,36.84705],[-118.28743,36.84704],[-118.28759,36.84702],[-118.28808,36.84689],[-118.28847,36.84678],[-118.28879,36.84674],[-118.28895,36.84675],[-118.28926,36.84685],[-118.29029,36.84736],[-118.29044,36.84742],[-118.29104,36.84758],[-118.29185,36.84776],[-118.29247,36.84786],[-118.29273,36.84788],[-118.29289,36.84787],[-118.2931,36.84785],[-118.29337,36.84781],[-118.29416,36.84766],[-118.29443,36.84759],[-118.29458,36.84753],[-118.29491,36.84734],[-118.29549,36.84707],[-118.29615,36.84671],[-118.29627,36.84662],[-118.29636,36.84654],[-118.29654,36.84632],[-118.29763,36.84474]]}},{"type":"Feature","properties":{"name":"13S101","road_class":"track","surface":"sand","tracktype":"grade5","source":"Caltrans All Roads + OpenStreetMap explicit surface","source_detail":"osm way 470112686; Caltrans All Roads public-network geometry match","source_tile":"175/399","public_network_source":"Caltrans All Roads (ARNOLD/HPMS)","surface_source":"OpenStreetMap explicit surface tag","caltrans_match_coverage":1.0,"verified_length_m":1039},"geometry":{"type":"LineString","coordinates":[[-118.27157,36.84274],[-118.27127,36.84266],[-118.27088,36.8426],[-118.27025,36.84252],[-118.27003,36.84249],[-118.2698,36.84243],[-118.26953,36.84235],[-118.26942,36.84235],[-118.26931,36.84237],[-118.2686,36.84257],[-118.26814,36.84271],[-118.26802,36.84271],[-118.26758,36.84264],[-118.26645,36.8425],[-118.26615,36.84248],[-118.266,36.84244],[-118.26589,36.8424],[-118.26566,36.84232],[-118.26526,36.84217],[-118.26511,36.84211],[-118.26492,36.84203],[-118.26437,36.84175],[-118.26423,36.84172],[-118.26368,36.84175],[-118.26358,36.84177],[-118.26345,36.84181],[-118.26301,36.84199],[-118.26288,36.84202],[-118.26184,36.84214],[-118.26118,36.84215],[-118.26103,36.84217],[-118.26087,36.84223],[-118.26072,36.8423],[-118.26061,36.84231],[-118.26051,36.8423],[-118.26043,36.84228]]}},{"type":"Feature","properties":{"name":"South Oak Creek Road","road_class":"track","surface":"unpaved","source":"Caltrans All Roads + OpenStreetMap explicit surface","source_detail":"osm way 470113243; Caltrans All Roads public-network geometry match","source_tile":"175/399","public_network_source":"Caltrans All Roads (ARNOLD/HPMS)","surface_source":"OpenStreetMap explicit surface tag","caltrans_match_coverage":1.0,"verified_length_m":2475},"geometry":{"type":"LineString","coordinates":[[-118.27389,36.81013],[-118.27401,36.81007],[-118.27426,36.80995],[-118.27454,36.80983],[-118.27501,36.80973],[-118.27544,36.80962],[-118.27572,36.80951],[-118.27602,36.80945],[-118.27623,36.80938],[-118.27713,36.80897],[-118.27723,36.80891],[-118.27732,36.80882],[-118.27737,36.80872],[-118.2774,36.8086],[-118.27745,36.80825],[-118.27746,36.80802],[-118.27746,36.80785],[-118.27754,36.80758],[-118.27762,36.80746],[-118.27771,36.80734],[-118.27786,36.80721],[-118.27813,36.80702],[-118.27882,36.80661],[-118.27908,36.8065],[-118.27936,36.80642],[-118.27961,36.80638],[-118.27991,36.80633],[-118.28016,36.80631],[-118.28041,36.80629],[-118.28076,36.80628],[-118.2809,36.80628],[-118.28106,36.80631],[-118.28114,36.8063],[-118.28121,36.80627],[-118.28128,36.80624],[-118.28134,36.80622],[-118.28161,36.8062],[-118.28194,36.80621],[-118.28242,36.80628],[-118.2826,36.80628],[-118.28278,36.80625],[-118.28286,36.80622],[-118.28308,36.80612],[-118.28327,36.80597],[-118.28354,36.80585],[-118.28406,36.80566],[-118.28424,36.80555],[-118.28437,36.80551],[-118.28452,36.80549],[-118.28524,36.80529],[-118.28537,36.80523],[-118.28581,36.80517],[-118.28603,36.80512],[-118.28613,36.80509],[-118.28627,36.80501],[-118.28681,36.80477],[-118.28686,36.80471],[-118.28691,36.80449],[-118.28695,36.80444],[-118.28722,36.80431],[-118.2873,36.80429],[-118.28766,36.80431],[-118.28819,36.80436],[-118.28832,36.80435],[-118.28843,36.80432],[-118.28853,36.80428],[-118.28861,36.80422],[-118.28874,36.80403],[-118.2888,36.80397],[-118.28892,36.80391],[-118.28911,36.80382],[-118.28934,36.80377],[-118.28946,36.80374],[-118.28956,36.80369],[-118.28987,36.80353],[-118.29005,36.80345],[-118.29012,36.80344],[-118.29029,36.80342],[-118.29043,36.80345],[-118.29054,36.80347],[-118.29071,36.80347],[-118.29085,36.80345],[-118.29111,36.80338],[-118.29121,36.80337],[-118.2917,36.80342],[-118.29179,36.80341],[-118.2919,36.80338],[-118.29197,36.80337],[-118.29204,36.8034],[-118.29217,36.80349],[-118.29227,36.80354],[-118.29238,36.80356],[-118.29253,36.80357],[-118.29271,36.80356],[-118.29295,36.80351],[-118.29341,36.80346],[-118.29349,36.80343],[-118.29377,36.80319],[-118.29385,36.80316],[-118.2941,36.80314],[-118.29499,36.80309],[-118.29518,36.80307],[-118.29556,36.80298],[-118.29572,36.8029],[-118.29591,36.80275],[-118.29601,36.80271],[-118.29645,36.80261],[-118.29654,36.80257],[-118.29683,36.80235],[-118.29703,36.80225],[-118.29724,36.80218],[-118.29728,36.80214],[-118.29735,36.80198]]}},{"type":"Feature","properties":{"name":"(unnamed public road)","road_class":"unclassified","surface":"unpaved","source":"Caltrans All Roads + OpenStreetMap explicit surface","source_detail":"osm way 489407801; Caltrans All Roads public-network geometry match","source_tile":"175/399","public_network_source":"Caltrans All Roads (ARNOLD/HPMS)","surface_source":"OpenStreetMap explicit surface tag","caltrans_match_coverage":1.0,"verified_length_m":825},"geometry":{"type":"LineString","coordinates":[[-118.1504,36.75076],[-118.15045,36.7507],[-118.15047,36.75068],[-118.15058,36.75063],[-118.15108,36.75048],[-118.15428,36.74944],[-118.15439,36.7494],[-118.15616,36.74865],[-118.15719,36.74814],[-118.15844,36.74722]]}},{"type":"Feature","properties":{"name":"(unnamed public road)","road_class":"track","surface":"dirt","source":"Caltrans All Roads + OpenStreetMap explicit surface","source_detail":"osm way 593137460; Caltrans All Roads public-network geometry match","source_tile":"175/399","public_network_source":"Caltrans All Roads (ARNOLD/HPMS)","surface_source":"OpenStreetMap explicit surface tag","caltrans_match_coverage":1.0,"verified_length_m":501},"geometry":{"type":"LineString","coordinates":[[-118.12537,36.60672],[-118.12553,36.60662],[-118.12572,36.60646],[-118.12601,36.6063],[-118.12629,36.60617],[-118.12663,36.60607],[-118.12682,36.60598],[-118.12707,36.60586],[-118.12727,36.60572],[-118.12759,36.60561],[-118.12779,36.60556],[-118.12811,36.60545],[-118.12837,36.60536],[-118.12851,36.60528],[-118.1286,36.60523],[-118.12863,36.60512],[-118.12846,36.60492],[-118.12807,36.60485],[-118.12789,36.60497],[-118.12766,36.60518],[-118.1276,36.60524],[-118.12749,36.60535],[-118.12736,36.60542]]}},{"type":"Feature","properties":{"name":"(unnamed public road)","road_class":"track","surface":"ground","tracktype":"grade5","source":"Caltrans All Roads + OpenStreetMap explicit surface","source_detail":"osm way 593144585; Caltrans All Roads public-network geometry match","source_tile":"175/399","public_network_source":"Caltrans All Roads (ARNOLD/HPMS)","surface_source":"OpenStreetMap explicit surface tag","caltrans_match_coverage":1.0,"verified_length_m":807},"geometry":{"type":"LineString","coordinates":[[-118.1837,36.59948],[-118.18357,36.59966],[-118.18343,36.59985],[-118.18337,36.59994],[-118.18301,36.60007],[-118.18238,36.60039],[-118.18233,36.60039],[-118.18215,36.60029],[-118.18198,36.6003],[-118.18181,36.60036],[-118.18152,36.60047],[-118.18147,36.60045],[-118.18131,36.60029],[-118.18102,36.60019],[-118.18086,36.60006],[-118.18069,36.59993],[-118.18044,36.59986],[-118.18029,36.59986],[-118.1799,36.59996],[-118.17961,36.59999],[-118.17942,36.60006],[-118.17925,36.60013],[-118.17908,36.60012],[-118.17889,36.60009],[-118.1785,36.60013],[-118.17833,36.60022],[-118.17758,36.60036],[-118.1771,36.60033],[-118.17696,36.60035],[-118.17665,36.60021],[-118.17652,36.60022],[-118.17637,36.60027],[-118.1763,36.60025],[-118.1761,36.60005],[-118.17604,36.59982]]}},{"type":"Feature","properties":{"name":"(unnamed public road)","road_class":"unclassified","surface":"unpaved","source":"Caltrans All Roads + OpenStreetMap explicit surface","source_detail":"osm way 826018391; Caltrans All Roads public-network geometry match","source_tile":"175/399","public_network_source":"Caltrans All Roads (ARNOLD/HPMS)","surface_source":"OpenStreetMap explicit surface tag","caltrans_match_coverage":0.898,"verified_length_m":3185},"geometry":{"type":"LineString","coordinates":[[-118.1612,36.73244],[-118.16153,36.73337],[-118.16186,36.73454],[-118.16214,36.73611],[-118.16228,36.73677],[-118.16433,36.73957],[-118.16463,36.73975],[-118.16489,36.7399],[-118.16502,36.74026],[-118.16517,36.7407],[-118.1657,36.74151],[-118.16588,36.74175],[-118.16811,36.74477],[-118.17007,36.74743],[-118.1701,36.7478],[-118.17001,36.75147],[-118.17004,36.7535],[-118.17055,36.7543],[-118.17113,36.75506],[-118.17125,36.7552],[-118.17133,36.75528],[-118.17125,36.75538],[-118.17096,36.7555],[-118.17045,36.75571],[-118.16993,36.75601],[-118.16948,36.7561],[-118.16901,36.75631],[-118.16852,36.75672],[-118.16806,36.7571],[-118.1676,36.75749]]}},{"type":"Feature","properties":{"name":"(unnamed public road)","road_class":"track","surface":"unpaved","source":"Caltrans All Roads + OpenStreetMap explicit surface","source_detail":"osm way 1000072600; Caltrans All Roads public-network geometry match","source_tile":"176/399","public_network_source":"Caltrans All Roads (ARNOLD/HPMS)","surface_source":"OpenStreetMap explicit surface tag","caltrans_match_coverage":0.942,"verified_length_m":9563},"geometry":{"type":"LineString","coordinates":[[-118.13926,36.79857],[-118.1391,36.79822],[-118.13896,36.79816],[-118.13871,36.79805],[-118.1386,36.79796],[-118.13859,36.79793],[-118.13855,36.79783],[-118.13848,36.79758],[-118.13841,36.79707],[-118.13828,36.79662],[-118.13828,36.79652],[-118.13835,36.79628],[-118.13832,36.7961],[-118.13824,36.79595],[-118.13817,36.79586],[-118.1378,36.79549],[-118.13775,36.79542],[-118.13775,36.79531],[-118.13799,36.79426],[-118.13811,36.79391],[-118.13902,36.79232],[-118.13966,36.79103],[-118.13973,36.79086],[-118.13978,36.79068],[-118.13972,36.7904],[-118.13972,36.79036],[-118.13989,36.78918],[-118.13991,36.78823],[-118.13997,36.78742],[-118.14001,36.78648],[-118.14006,36.78588],[-118.14082,36.7818],[-118.14112,36.78059],[-118.14125,36.77994],[-118.14128,36.77959],[-118.14134,36.77944],[-118.14137,36.77934],[-118.14174,36.77665],[-118.14175,36.77646],[-118.14183,36.77579],[-118.14186,36.77563],[-118.14193,36.77511],[-118.14196,36.77491],[-118.14199,36.77461],[-118.14204,36.7741],[-118.14209,36.7737],[-118.14212,36.77349],[-118.14212,36.77345],[-118.14217,36.7731],[-118.14218,36.77298],[-118.14219,36.77291],[-118.1422,36.7728],[-118.14221,36.77273],[-118.14228,36.77216],[-118.14238,36.77086],[-118.14239,36.7705],[-118.14239,36.77043],[-118.14238,36.77037],[-118.14243,36.77017],[-118.14245,36.76998],[-118.14269,36.76908],[-118.14274,36.76841],[-118.14275,36.76838],[-118.14281,36.76729],[-118.14272,36.76583],[-118.14264,36.76535],[-118.14264,36.76506],[-118.14244,36.76407],[-118.14238,36.76369],[-118.14227,36.76324],[-118.14196,36.76222],[-118.14178,36.7615],[-118.14171,36.76131],[-118.14148,36.76075],[-118.14131,36.76039],[-118.14112,36.76013],[-118.14058,36.75951],[-118.13931,36.75825],[-118.13858,36.75748],[-118.13702,36.75577],[-118.13678,36.7555],[-118.1365,36.75522],[-118.13524,36.75442],[-118.13508,36.7543],[-118.13457,36.7538],[-118.13452,36.75372],[-118.13429,36.75324],[-118.13411,36.75298],[-118.13356,36.75228],[-118.13335,36.75207],[-118.13317,36.75193],[-118.13262,36.75166],[-118.13227,36.75151],[-118.13201,36.75142],[-118.13162,36.75137],[-118.1308,36.7514],[-118.13042,36.75135],[-118.13029,36.75093],[-118.13027,36.7503],[-118.13016,36.74921],[-118.13012,36.74904],[-118.13001,36.74881],[-118.1298,36.74852],[-118.12896,36.74754],[-118.12792,36.7464],[-118.12788,36.74633],[-118.12783,36.74629],[-118.12729,36.74564],[-118.12708,36.74531],[-118.12692,36.74499],[-118.12657,36.74417],[-118.12618,36.74284],[-118.12615,36.74259],[-118.12618,36.74236],[-118.12648,36.74116],[-118.12654,36.74055],[-118.12664,36.74013],[-118.12666,36.73996],[-118.12663,36.73985],[-118.12639,36.73964],[-118.12627,36.7394],[-118.12624,36.73914],[-118.12614,36.73892],[-118.1257,36.73813],[-118.12501,36.73702],[-118.12491,36.73682],[-118.12501,36.73664],[-118.12516,36.73651],[-118.12546,36.73636],[-118.12553,36.73628],[-118.12557,36.73615],[-118.12557,36.73611],[-118.12553,36.73604],[-118.12547,36.73599],[-118.12527,36.73601],[-118.125,36.73613],[-118.12444,36.73639],[-118.12432,36.73637],[-118.12427,36.73634],[-118.1242,36.73624],[-118.12414,36.73606],[-118.12403,36.73544],[-118.12391,36.73479],[-118.1238,36.73366],[-118.12379,36.73362],[-118.1238,36.73323],[-118.12381,36.73311],[-118.12393,36.73268],[-118.12422,36.73125],[-118.1243,36.73068],[-118.12436,36.73043],[-118.12448,36.7301],[-118.12453,36.73001],[-118.12471,36.72959],[-118.12477,36.72947],[-118.12481,36.72935],[-118.12484,36.72929],[-118.12488,36.72914],[-118.12487,36.72902],[-118.12476,36.72882],[-118.12466,36.72871],[-118.12463,36.72866],[-118.12447,36.72851],[-118.12446,36.72848],[-118.12434,36.72838],[-118.12405,36.72802],[-118.1239,36.72779],[-118.12388,36.72771],[-118.12384,36.72766],[-118.12379,36.72748],[-118.12376,36.72741],[-118.12377,36.72736],[-118.12354,36.72644],[-118.12353,36.72625],[-118.12358,36.72594],[-118.12387,36.72512],[-118.12396,36.72456],[-118.12397,36.72374],[-118.12399,36.72361],[-118.12406,36.72344],[-118.12426,36.72311],[-118.12447,36.72257],[-118.12452,36.72222],[-118.12432,36.72183],[-118.12415,36.7212],[-118.12407,36.7211],[-118.12388,36.72093],[-118.1238,36.72083]]}},{"type":"Feature","properties":{"name":"(unnamed public road)","road_class":"track","surface":"unpaved","source":"Caltrans All Roads + OpenStreetMap explicit surface","source_detail":"osm way 1000073246; Caltrans All Roads public-network geometry match","source_tile":"175/399","public_network_source":"Caltrans All Roads (ARNOLD/HPMS)","surface_source":"OpenStreetMap explicit surface tag","caltrans_match_coverage":1.0,"verified_length_m":2603},"geometry":{"type":"LineString","coordinates":[[-118.17491,36.79754],[-118.17511,36.79767],[-118.1755,36.79788],[-118.17571,36.79795],[-118.17576,36.79795],[-118.17597,36.79805],[-118.17727,36.79853],[-118.17915,36.79928],[-118.17918,36.79931],[-118.18043,36.79974],[-118.18192,36.80013],[-118.18223,36.80024],[-118.18256,36.80036],[-118.18289,36.80051],[-118.18296,36.80053],[-118.18312,36.8006],[-118.18339,36.80077],[-118.18346,36.80103],[-118.18353,36.80126],[-118.18355,36.80171],[-118.1837,36.80385],[-118.18385,36.80525],[-118.18386,36.80714],[-118.18383,36.80782],[-118.1838,36.80798],[-118.18378,36.80825],[-118.18375,36.80846],[-118.18369,36.80857],[-118.18352,36.80876],[-118.18347,36.80878],[-118.18341,36.80884],[-118.18287,36.80908],[-118.18234,36.80927],[-118.17673,36.81135],[-118.17468,36.8121]]}},{"type":"Feature","properties":{"name":"(unnamed public road)","road_class":"track","surface":"unpaved","source":"Caltrans All Roads + OpenStreetMap explicit surface","source_detail":"osm way 1000073254; Caltrans All Roads public-network geometry match","source_tile":"175/399","public_network_source":"Caltrans All Roads (ARNOLD/HPMS)","surface_source":"OpenStreetMap explicit surface tag","caltrans_match_coverage":1.0,"verified_length_m":949},"geometry":{"type":"LineString","coordinates":[[-118.16561,36.79011],[-118.16767,36.79011],[-118.16772,36.7901],[-118.16813,36.79007],[-118.16909,36.79011],[-118.17293,36.79007],[-118.17437,36.79006],[-118.17466,36.79011],[-118.17547,36.79018],[-118.17591,36.7901],[-118.17621,36.79002]]}},{"type":"Feature","properties":{"name":"(unnamed public road)","road_class":"track","surface":"unpaved","source":"Caltrans All Roads + OpenStreetMap explicit surface","source_detail":"osm way 1000073259; Caltrans All Roads public-network geometry match","source_tile":"175/399","public_network_source":"Caltrans All Roads (ARNOLD/HPMS)","surface_source":"OpenStreetMap explicit surface tag","caltrans_match_coverage":1.0,"verified_length_m":810},"geometry":{"type":"LineString","coordinates":[[-118.16563,36.77226],[-118.16557,36.77228],[-118.16554,36.77232],[-118.1654,36.77264],[-118.16523,36.77273],[-118.16491,36.77304],[-118.16481,36.77309],[-118.16456,36.77315],[-118.16399,36.77322],[-118.16144,36.77347],[-118.16096,36.7735],[-118.1602,36.77351],[-118.15927,36.77353],[-118.15794,36.7736],[-118.15773,36.77363],[-118.15755,36.77356],[-118.15733,36.7733]]}},{"type":"Feature","properties":{"name":"(unnamed public road)","road_class":"track","surface":"unpaved","source":"Caltrans All Roads + OpenStreetMap explicit surface","source_detail":"osm way 1000965638; Caltrans All Roads public-network geometry match","source_tile":"176/399","public_network_source":"Caltrans All Roads (ARNOLD/HPMS)","surface_source":"OpenStreetMap explicit surface tag","caltrans_match_coverage":0.951,"verified_length_m":2326},"geometry":{"type":"LineString","coordinates":[[-118.11798,36.82983],[-118.11856,36.82946],[-118.1189,36.82926],[-118.11907,36.82919],[-118.11923,36.82915],[-118.11943,36.82903],[-118.11967,36.82894],[-118.12005,36.82893],[-118.12052,36.82893],[-118.1208,36.829],[-118.12121,36.8292],[-118.12144,36.82926],[-118.1217,36.8292],[-118.12201,36.82926],[-118.12229,36.82931],[-118.12254,36.8295],[-118.12287,36.82981],[-118.12286,36.82995],[-118.12294,36.83005],[-118.12295,36.83018],[-118.12288,36.8305],[-118.12285,36.83072],[-118.12274,36.83093],[-118.1227,36.83112],[-118.12278,36.8313],[-118.1232,36.83177],[-118.12367,36.83216],[-118.12397,36.8323],[-118.12428,36.83239],[-118.12451,36.83251],[-118.12473,36.8327],[-118.12484,36.8329],[-118.12494,36.83309],[-118.1251,36.8333],[-118.1253,36.83346],[-118.12546,36.83359],[-118.12603,36.83416],[-118.12636,36.83462],[-118.1267,36.83511],[-118.12683,36.83536],[-118.12685,36.83567],[-118.12686,36.836],[-118.12699,36.83637],[-118.12712,36.83685],[-118.12721,36.83723],[-118.12722,36.83776],[-118.12731,36.83833],[-118.12746,36.83923],[-118.12761,36.83953],[-118.12785,36.83982],[-118.12803,36.84],[-118.12815,36.84032],[-118.12829,36.84082],[-118.12837,36.84114],[-118.12848,36.84129],[-118.12866,36.8414],[-118.12893,36.84144],[-118.12918,36.84144],[-118.12955,36.84137],[-118.12971,36.84136],[-118.13007,36.84142],[-118.13056,36.84155],[-118.13089,36.84166],[-118.13107,36.84174],[-118.13138,36.84192],[-118.13153,36.84198],[-118.13167,36.842],[-118.1318,36.84199],[-118.13203,36.84193],[-118.1322,36.84186],[-118.13236,36.84177],[-118.13243,36.84169]]}},{"type":"Feature","properties":{"name":"(unnamed public road)","road_class":"track","surface":"dirt","tracktype":"grade3","source":"Caltrans All Roads + OpenStreetMap explicit surface","source_detail":"osm way 1000975063; Caltrans All Roads public-network geometry match","source_tile":"175/399","public_network_source":"Caltrans All Roads (ARNOLD/HPMS)","surface_source":"OpenStreetMap explicit surface tag","caltrans_match_coverage":1.0,"verified_length_m":792},"geometry":{"type":"LineString","coordinates":[[-118.12537,36.80453],[-118.12535,36.8044],[-118.12537,36.80428],[-118.12543,36.80412],[-118.12544,36.80401],[-118.12543,36.80376],[-118.12548,36.80358],[-118.12554,36.80345],[-118.12563,36.80326],[-118.12603,36.80271],[-118.12639,36.80219],[-118.12685,36.80148],[-118.12715,36.80105],[-118.12737,36.80075],[-118.12751,36.80059],[-118.12894,36.79918],[-118.12913,36.79902],[-118.12937,36.79888],[-118.12967,36.79879],[-118.12996,36.79871]]}},{"type":"Feature","properties":{"name":"(unnamed public road)","road_class":"track","surface":"unpaved","source":"Caltrans All Roads + OpenStreetMap explicit surface","source_detail":"osm way 1000975065; Caltrans All Roads public-network geometry match","source_tile":"175/399","public_network_source":"Caltrans All Roads (ARNOLD/HPMS)","surface_source":"OpenStreetMap explicit surface tag","caltrans_match_coverage":0.866,"verified_length_m":675},"geometry":{"type":"LineString","coordinates":[[-118.13042,36.75135],[-118.13031,36.75152],[-118.13005,36.75239],[-118.1297,36.75308],[-118.12943,36.75371],[-118.12939,36.75389],[-118.12942,36.7547],[-118.12932,36.75507],[-118.12931,36.75524],[-118.12931,36.75538],[-118.12932,36.75567],[-118.12932,36.75598],[-118.1293,36.75616],[-118.12915,36.75635],[-118.12894,36.75667],[-118.12881,36.75682],[-118.12868,36.75689],[-118.12858,36.75692],[-118.12839,36.75696]]}},{"type":"Feature","properties":{"name":"(unnamed public road)","road_class":"track","surface":"unpaved","source":"Caltrans All Roads + OpenStreetMap explicit surface","source_detail":"osm way 1000975066; Caltrans All Roads public-network geometry match","source_tile":"175/399","public_network_source":"Caltrans All Roads (ARNOLD/HPMS)","surface_source":"OpenStreetMap explicit surface tag","caltrans_match_coverage":1.0,"verified_length_m":1179},"geometry":{"type":"LineString","coordinates":[[-118.12961,36.78405],[-118.13057,36.78391],[-118.13068,36.78392],[-118.13191,36.78368],[-118.13246,36.78337],[-118.13426,36.78216],[-118.13606,36.78112],[-118.1361,36.78111],[-118.13772,36.78032],[-118.13834,36.78005],[-118.1386,36.77996],[-118.13873,36.77993],[-118.13938,36.77982],[-118.14117,36.77959],[-118.14128,36.77959]]}},{"type":"Feature","properties":{"name":"Manzanar Reward Road","road_class":"unclassified","surface":"compacted","tracktype":"grade2","source":"Caltrans All Roads + OpenStreetMap explicit surface","source_detail":"osm way 1000975069; Caltrans All Roads public-network geometry match","source_tile":"175/399","public_network_source":"Caltrans All Roads (ARNOLD/HPMS)","surface_source":"OpenStreetMap explicit surface tag","caltrans_match_coverage":1.0,"verified_length_m":1121},"geometry":{"type":"LineString","coordinates":[[-118.13902,36.73935],[-118.13874,36.73944],[-118.13855,36.73947],[-118.13837,36.73947],[-118.13815,36.73945],[-118.1378,36.7394],[-118.13753,36.73938],[-118.13641,36.73939],[-118.13616,36.73939],[-118.13366,36.73939],[-118.13267,36.7394],[-118.12916,36.73939],[-118.12649,36.73939]]}},{"type":"Feature","properties":{"name":"(unnamed public road)","road_class":"track","surface":"dirt","tracktype":"grade3","source":"Caltrans All Roads + OpenStreetMap explicit surface","source_detail":"osm way 1001626544; Caltrans All Roads public-network geometry match","source_tile":"175/399","public_network_source":"Caltrans All Roads (ARNOLD/HPMS)","surface_source":"OpenStreetMap explicit surface tag","caltrans_match_coverage":1.0,"verified_length_m":520},"geometry":{"type":"LineString","coordinates":[[-118.20294,36.79704],[-118.20339,36.79709],[-118.20381,36.79706],[-118.20431,36.79693],[-118.20442,36.7969],[-118.20526,36.79666],[-118.20561,36.79662],[-118.2058,36.79657],[-118.20613,36.79642],[-118.20679,36.79616],[-118.20715,36.796],[-118.20756,36.79573],[-118.20815,36.79527]]}},{"type":"Feature","properties":{"name":"(unnamed public road)","road_class":"track","surface":"unpaved","source":"Caltrans All Roads + OpenStreetMap explicit surface","source_detail":"osm way 1001635992; Caltrans All Roads public-network geometry match","source_tile":"175/399","public_network_source":"Caltrans All Roads (ARNOLD/HPMS)","surface_source":"OpenStreetMap explicit surface tag","caltrans_match_coverage":1.0,"verified_length_m":988},"geometry":{"type":"LineString","coordinates":[[-118.23488,36.86609],[-118.23428,36.86632],[-118.23328,36.86655],[-118.23292,36.86664],[-118.23237,36.86681],[-118.23134,36.86711],[-118.23102,36.86724],[-118.22825,36.86854],[-118.22498,36.87005]]}},{"type":"Feature","properties":{"name":"(unnamed public road)","road_class":"track","surface":"unpaved","source":"Caltrans All Roads + OpenStreetMap explicit surface","source_detail":"osm way 1002834566; Caltrans All Roads public-network geometry match","source_tile":"175/399","public_network_source":"Caltrans All Roads (ARNOLD/HPMS)","surface_source":"OpenStreetMap explicit surface tag","caltrans_match_coverage":1.0,"verified_length_m":509},"geometry":{"type":"LineString","coordinates":[[-118.20244,36.7805],[-118.20202,36.78039],[-118.20129,36.78025],[-118.20063,36.78024],[-118.20036,36.78022],[-118.2002,36.78018],[-118.20002,36.78012],[-118.19981,36.78003],[-118.19968,36.78001],[-118.19956,36.78002],[-118.19925,36.78017],[-118.19902,36.78025],[-118.19835,36.78033],[-118.19817,36.7803],[-118.19784,36.78047],[-118.19759,36.78063],[-118.19708,36.7808]]}},{"type":"Feature","properties":{"name":"(unnamed public road)","road_class":"track","surface":"sand","tracktype":"grade5","source":"Caltrans All Roads + OpenStreetMap explicit surface","source_detail":"osm way 1016202409; Caltrans All Roads public-network geometry match","source_tile":"175/399","public_network_source":"Caltrans All Roads (ARNOLD/HPMS)","surface_source":"OpenStreetMap explicit surface tag","caltrans_match_coverage":1.0,"verified_length_m":2498},"geometry":{"type":"LineString","coordinates":[[-118.21697,36.8228],[-118.21851,36.82308],[-118.22037,36.82381],[-118.22139,36.82402],[-118.22221,36.82447],[-118.22275,36.82478],[-118.22337,36.82532],[-118.22444,36.82582],[-118.22544,36.82622],[-118.22593,36.82626],[-118.22697,36.82642],[-118.22774,36.82637],[-118.22926,36.82621],[-118.2306,36.82643],[-118.23216,36.82674],[-118.23337,36.82692],[-118.23439,36.82695],[-118.23546,36.82705],[-118.23573,36.82709],[-118.23588,36.82714],[-118.23659,36.82742],[-118.23672,36.82745],[-118.23744,36.82752],[-118.23758,36.82756],[-118.23785,36.82765],[-118.23822,36.82774],[-118.23849,36.82777],[-118.23938,36.82783],[-118.24004,36.82792],[-118.24119,36.82818],[-118.24174,36.82845],[-118.24274,36.82952]]}},{"type":"Feature","properties":{"name":"Moffat Ranch Road","road_class":"unclassified","surface":"compacted","tracktype":"grade2","source":"Caltrans All Roads + OpenStreetMap explicit surface","source_detail":"osm way 1143779130; Caltrans All Roads public-network geometry match","source_tile":"175/399","public_network_source":"Caltrans All Roads (ARNOLD/HPMS)","surface_source":"OpenStreetMap explicit surface tag","caltrans_match_coverage":1.0,"verified_length_m":706},"geometry":{"type":"LineString","coordinates":[[-118.13132,36.64892],[-118.13136,36.64883],[-118.13146,36.64875],[-118.13153,36.64871],[-118.13217,36.64835],[-118.13274,36.64799],[-118.1329,36.64787],[-118.13308,36.64772],[-118.13329,36.64747],[-118.1337,36.64692],[-118.13402,36.64643],[-118.13415,36.64629],[-118.1344,36.64607],[-118.13496,36.64567],[-118.13539,36.6455],[-118.13591,36.64517],[-118.13603,36.64505],[-118.13607,36.64495],[-118.1362,36.64453],[-118.13636,36.64424]]}},{"type":"Feature","properties":{"name":"(unnamed public road)","road_class":"track","surface":"compacted","tracktype":"grade2","source":"Caltrans All Roads + OpenStreetMap explicit surface","source_detail":"osm way 1143779165; Caltrans All Roads public-network geometry match","source_tile":"175/399","public_network_source":"Caltrans All Roads (ARNOLD/HPMS)","surface_source":"OpenStreetMap explicit surface tag","caltrans_match_coverage":1.0,"verified_length_m":965},"geometry":{"type":"LineString","coordinates":[[-118.12542,36.61099],[-118.12579,36.61088],[-118.12611,36.61078],[-118.1264,36.61069],[-118.12663,36.61061],[-118.1268,36.61054],[-118.12737,36.61032],[-118.12766,36.61026],[-118.12787,36.61023],[-118.12809,36.61022],[-118.12826,36.61024],[-118.12875,36.61034],[-118.12901,36.61036],[-118.12909,36.61036],[-118.12927,36.61035],[-118.12943,36.61033],[-118.12965,36.6103],[-118.12993,36.61024],[-118.13041,36.6101],[-118.13045,36.61009],[-118.13064,36.61005],[-118.13084,36.61003],[-118.1312,36.61003],[-118.13141,36.61006],[-118.13158,36.61006],[-118.13173,36.61003],[-118.13191,36.60998],[-118.13229,36.60988],[-118.1325,36.60983],[-118.13264,36.60978],[-118.1332,36.60953],[-118.13335,36.60944],[-118.13348,36.60932],[-118.13358,36.6092],[-118.13376,36.6089],[-118.13381,36.60873],[-118.13382,36.60862],[-118.1338,36.60851],[-118.13377,36.60838],[-118.13379,36.6083],[-118.1339,36.60819],[-118.13393,36.6081],[-118.13392,36.60804],[-118.13386,36.60801],[-118.13377,36.60803],[-118.13374,36.60806],[-118.13374,36.6081],[-118.13374,36.60823],[-118.13379,36.6083]]}},{"type":"Feature","properties":{"name":"Hogback Road","road_class":"unclassified","surface":"unpaved","source":"Caltrans All Roads + OpenStreetMap explicit surface","source_detail":"osm way 1158027213; Caltrans All Roads public-network geometry match","source_tile":"175/400","public_network_source":"Caltrans All Roads (ARNOLD/HPMS)","surface_source":"OpenStreetMap explicit surface tag","caltrans_match_coverage":1.0,"verified_length_m":1344},"geometry":{"type":"LineString","coordinates":[[-118.20621,36.60845],[-118.20637,36.60818],[-118.20661,36.60772],[-118.20688,36.6072],[-118.20697,36.60694],[-118.20699,36.60683],[-118.207,36.60673],[-118.20699,36.60662],[-118.2069,36.60619],[-118.20686,36.60587],[-118.20675,36.60538],[-118.2067,36.60525],[-118.20661,36.60512],[-118.2064,36.60492],[-118.20636,36.60484],[-118.20636,36.60479],[-118.20639,36.60452],[-118.20649,36.60407],[-118.20663,36.60357],[-118.20672,36.60312],[-118.20684,36.60269],[-118.20696,36.60219],[-118.20708,36.60163],[-118.2072,36.60119],[-118.20719,36.60109],[-118.20717,36.60099],[-118.20711,36.60042],[-118.207,36.59963],[-118.20696,36.59925],[-118.20696,36.5991],[-118.20697,36.59905],[-118.20709,36.59874],[-118.20712,36.59859],[-118.20711,36.59831],[-118.20711,36.59822],[-118.20709,36.59813],[-118.2069,36.59763],[-118.20679,36.59737],[-118.2067,36.5972],[-118.20661,36.5971],[-118.20639,36.59692],[-118.20631,36.59688],[-118.20623,36.59684]]}},{"type":"Feature","properties":{"name":"Movie Road","road_class":"unclassified","surface":"compacted","tracktype":"grade2","source":"Caltrans All Roads + OpenStreetMap explicit surface","source_detail":"osm way 10378014; Caltrans All Roads public-network geometry match","source_tile":"176/399","public_network_source":"Caltrans All Roads (ARNOLD/HPMS)","surface_source":"OpenStreetMap explicit surface tag","caltrans_match_coverage":1.0,"verified_length_m":8256},"geometry":{"type":"LineString","coordinates":[[-118.1178,36.5992],[-118.11819,36.59924],[-118.1185,36.59932],[-118.11872,36.59939],[-118.11883,36.59945],[-118.11898,36.59954],[-118.11919,36.59972],[-118.1195,36.60001],[-118.11974,36.60029],[-118.11993,36.60054],[-118.12022,36.60096],[-118.12035,36.60117],[-118.12046,36.6014],[-118.12056,36.60164],[-118.1207,36.60197],[-118.12082,36.60222],[-118.12097,36.60246],[-118.12113,36.6027],[-118.12135,36.60301],[-118.12148,36.60323],[-118.12157,36.60343],[-118.12164,36.60372],[-118.12169,36.60395],[-118.12175,36.60414],[-118.12187,36.60442],[-118.12208,36.60477],[-118.1226,36.60557],[-118.12291,36.60599],[-118.12337,36.60662],[-118.12369,36.60709],[-118.12402,36.60762],[-118.12436,36.60814],[-118.12471,36.60858],[-118.12491,36.60878],[-118.12505,36.60893],[-118.12522,36.60917],[-118.12537,36.60937],[-118.12544,36.60951],[-118.12549,36.60965],[-118.12554,36.60983],[-118.12558,36.61],[-118.12563,36.61023],[-118.12569,36.61048],[-118.1257,36.61061],[-118.12569,36.6107],[-118.12564,36.61081],[-118.12555,36.6109],[-118.12542,36.61099],[-118.12502,36.6111],[-118.12488,36.61114],[-118.12473,36.61116],[-118.12454,36.6112],[-118.12432,36.6112],[-118.12351,36.61111],[-118.12337,36.61111],[-118.12323,36.61113],[-118.12302,36.61118],[-118.12255,36.61132],[-118.12237,36.61137],[-118.12209,36.61147],[-118.12196,36.61151],[-118.12156,36.61164],[-118.1214,36.61171],[-118.12065,36.61214],[-118.12052,36.61221],[-118.12041,36.61225],[-118.12028,36.61228],[-118.12014,36.61227],[-118.12,36.61221],[-118.11961,36.61202],[-118.11941,36.61198],[-118.11922,36.61196],[-118.11904,36.61197],[-118.11878,36.612],[-118.1186,36.61205],[-118.1184,36.61216],[-118.11833,36.6122],[-118.11824,36.61224],[-118.11807,36.61226],[-118.11788,36.61226],[-118.11774,36.61227],[-118.11763,36.61231],[-118.11757,36.61235],[-118.11755,36.61243],[-118.11755,36.61249],[-118.11756,36.61259],[-118.11762,36.61278],[-118.11772,36.61313],[-118.1178,36.6134],[-118.11788,36.61364],[-118.11791,36.61376],[-118.11801,36.61401],[-118.11807,36.61415],[-118.11815,36.61426],[-118.11846,36.61474],[-118.11854,36.6149],[-118.11872,36.61536],[-118.11879,36.61556],[-118.11899,36.61606],[-118.11907,36.61628],[-118.11923,36.61674],[-118.11929,36.61686],[-118.11936,36.61696],[-118.11945,36.61705],[-118.11956,36.61711],[-118.11978,36.61723],[-118.11992,36.61734],[-118.12002,36.61743],[-118.12011,36.61757],[-118.12017,36.61774],[-118.12023,36.61798],[-118.12023,36.61814],[-118.1202,36.61827],[-118.12009,36.61841],[-118.1197,36.6187],[-118.1194,36.61894],[-118.11907,36.61919],[-118.1184,36.61971],[-118.11802,36.62001],[-118.1174,36.6205],[-118.11677,36.62099],[-118.11642,36.62126],[-118.11623,36.62141],[-118.11602,36.62156],[-118.11549,36.62188],[-118.11501,36.62214],[-118.11459,36.62236],[-118.11442,36.62245],[-118.11431,36.62252],[-118.11417,36.62262],[-118.11409,36.62272],[-118.11403,36.62282],[-118.11399,36.62295],[-118.11388,36.62425],[-118.11387,36.62444],[-118.11387,36.62458],[-118.1139,36.6247],[-118.11395,36.62482],[-118.11403,36.62493],[-118.11415,36.62503],[-118.11468,36.62535],[-118.11628,36.62621],[-118.1165,36.62634],[-118.11664,36.62647],[-118.1172,36.62711],[-118.11861,36.62873],[-118.11976,36.63008],[-118.12058,36.63104],[-118.12082,36.63132],[-118.12099,36.63153],[-118.12107,36.63164],[-118.12114,36.63178],[-118.12121,36.63198],[-118.12172,36.63358],[-118.12197,36.63435],[-118.12209,36.6347],[-118.12213,36.63482],[-118.12221,36.63495],[-118.12232,36.63504],[-118.12272,36.63528],[-118.12318,36.63562],[-118.12328,36.63569],[-118.12338,36.63573],[-118.1235,36.63576],[-118.12363,36.63577],[-118.12377,36.63574],[-118.12389,36.6357],[-118.12457,36.63532],[-118.12483,36.63516],[-118.12536,36.63487],[-118.12553,36.63479],[-118.12574,36.6347],[-118.12614,36.63456],[-118.12697,36.6343],[-118.12727,36.63422],[-118.12752,36.63418],[-118.12801,36.63413],[-118.12832,36.6341],[-118.12855,36.63411],[-118.12878,36.63413],[-118.12904,36.63419],[-118.12973,36.63439],[-118.13069,36.63465],[-118.13177,36.63497],[-118.13193,36.63503],[-118.13205,36.63508],[-118.13216,36.63516],[-118.13226,36.63526],[-118.13235,36.63537],[-118.13313,36.63663],[-118.1334,36.63707],[-118.13389,36.63787],[-118.13524,36.64008],[-118.1354,36.64033],[-118.13554,36.64055],[-118.13595,36.64121],[-118.13605,36.64139],[-118.13613,36.64158],[-118.13618,36.64178],[-118.13621,36.64201],[-118.13632,36.64372],[-118.13636,36.64424],[-118.13639,36.64438],[-118.13644,36.64448],[-118.13651,36.64455],[-118.13661,36.64462],[-118.13675,36.64468],[-118.1369,36.6447],[-118.13705,36.6447],[-118.13832,36.64448],[-118.13869,36.64442],[-118.1389,36.64441],[-118.13904,36.64443],[-118.1392,36.64447],[-118.13933,36.64456],[-118.13993,36.64516],[-118.14041,36.64564],[-118.14071,36.64596],[-118.14085,36.64613],[-118.14096,36.64635],[-118.14149,36.64736],[-118.14158,36.6475],[-118.14167,36.64761],[-118.1418,36.64771],[-118.1424,36.64815],[-118.14261,36.6483]]}},{"type":"Feature","properties":{"name":"Manzanar Reward Road","road_class":"unclassified","surface":"compacted","tracktype":"grade2","source":"Caltrans All Roads + OpenStreetMap explicit surface","source_detail":"osm way 89477408; Caltrans All Roads public-network geometry match","source_tile":"176/399","public_network_source":"Caltrans All Roads (ARNOLD/HPMS)","surface_source":"OpenStreetMap explicit surface tag","caltrans_match_coverage":1.0,"verified_length_m":1943},"geometry":{"type":"LineString","coordinates":[[-118.12644,36.73939],[-118.12627,36.7394],[-118.12226,36.73939],[-118.11471,36.73938],[-118.11457,36.73938],[-118.11441,36.73941],[-118.11429,36.73945],[-118.11418,36.73951],[-118.11409,36.73959],[-118.11369,36.74003],[-118.1136,36.74012],[-118.11339,36.74028],[-118.11331,36.74032],[-118.11311,36.7404],[-118.11233,36.74071],[-118.1121,36.74076],[-118.11194,36.74078],[-118.11174,36.74078],[-118.11139,36.74073],[-118.11114,36.74068],[-118.11092,36.7406],[-118.11077,36.74053],[-118.11061,36.74042],[-118.10978,36.73973],[-118.10961,36.73961],[-118.1095,36.73955],[-118.1094,36.73951],[-118.10927,36.73948],[-118.10903,36.73943],[-118.10876,36.73939],[-118.10849,36.73938],[-118.10753,36.7394],[-118.10649,36.7394],[-118.10586,36.7394]]}},{"type":"Feature","properties":{"name":"(unnamed public road)","road_class":"track","surface":"unpaved","source":"Caltrans All Roads + OpenStreetMap explicit surface","source_detail":"osm way 1088904122; Caltrans All Roads public-network geometry match","source_tile":"176/399","public_network_source":"Caltrans All Roads (ARNOLD/HPMS)","surface_source":"OpenStreetMap explicit surface tag","caltrans_match_coverage":1.0,"verified_length_m":707},"geometry":{"type":"LineString","coordinates":[[-118.11806,36.70685],[-118.11817,36.70684],[-118.11835,36.7068],[-118.11855,36.70672],[-118.11878,36.70667],[-118.11925,36.70664],[-118.1197,36.70666],[-118.11999,36.7067],[-118.12354,36.7067],[-118.12411,36.70668],[-118.12439,36.70666],[-118.12478,36.70667],[-118.12497,36.70669],[-118.12514,36.70672],[-118.12528,36.70679],[-118.12542,36.70684],[-118.12549,36.70686],[-118.12559,36.70683],[-118.12564,36.7068],[-118.12566,36.70672],[-118.12566,36.70668],[-118.12566,36.70662]]}},{"type":"Feature","properties":{"name":"Moffat Ranch Road","road_class":"track","surface":"unpaved","tracktype":"grade2","source":"Caltrans All Roads + OpenStreetMap explicit surface","source_detail":"osm way 1143779129; Caltrans All Roads public-network geometry match","source_tile":"176/399","public_network_source":"Caltrans All Roads (ARNOLD/HPMS)","surface_source":"OpenStreetMap explicit surface tag","caltrans_match_coverage":1.0,"verified_length_m":2099},"geometry":{"type":"LineString","coordinates":[[-118.13132,36.64892],[-118.13123,36.64887],[-118.13112,36.64881],[-118.13096,36.64874],[-118.13012,36.64841],[-118.12976,36.64828],[-118.12959,36.64826],[-118.12948,36.64823],[-118.12935,36.64822],[-118.12923,36.64821],[-118.12891,36.64822],[-118.12861,36.64827],[-118.12825,36.64839],[-118.12811,36.64842],[-118.12798,36.64843],[-118.12788,36.64844],[-118.12772,36.64843],[-118.12733,36.64839],[-118.12666,36.64831],[-118.12656,36.6483],[-118.12631,36.64831],[-118.12607,36.64834],[-118.12559,36.64835],[-118.12524,36.6484],[-118.12495,36.64841],[-118.12488,36.64842],[-118.1246,36.6485],[-118.12356,36.64867],[-118.12254,36.64886],[-118.12241,36.64887],[-118.12187,36.64877],[-118.12149,36.64872],[-118.12133,36.64872],[-118.12118,36.64875],[-118.12103,36.64881],[-118.12102,36.64884],[-118.12078,36.64899],[-118.12056,36.6491],[-118.12044,36.6491],[-118.12036,36.64909],[-118.11988,36.64889],[-118.11982,36.64884],[-118.1197,36.64852],[-118.11961,36.64836],[-118.11959,36.64818],[-118.11952,36.64794],[-118.11947,36.64789],[-118.11934,36.64783],[-118.11887,36.64774],[-118.11844,36.64764],[-118.1182,36.64754],[-118.11812,36.64754],[-118.11804,36.64757],[-118.11754,36.64781],[-118.11748,36.64782],[-118.11743,36.64779],[-118.1174,36.64774],[-118.1174,36.64767],[-118.11756,36.64745],[-118.11757,36.64738],[-118.11754,36.64722],[-118.1175,36.64715],[-118.11744,36.6471],[-118.11721,36.647],[-118.1171,36.64695],[-118.11698,36.64686],[-118.11688,36.64675],[-118.11675,36.64653],[-118.1167,36.64638],[-118.11668,36.64609],[-118.11664,36.64601],[-118.11642,36.64577],[-118.11634,36.64572],[-118.1162,36.64568],[-118.11608,36.64566],[-118.11589,36.64566],[-118.11567,36.64572],[-118.11527,36.64586],[-118.11519,36.6459],[-118.11495,36.64604],[-118.11487,36.64605],[-118.11477,36.64604],[-118.11451,36.64592],[-118.11426,36.64579],[-118.11419,36.64579],[-118.11367,36.64595],[-118.11351,36.64594],[-118.11306,36.64576],[-118.11292,36.64574],[-118.11234,36.64574],[-118.11179,36.64573]]}},{"type":"Feature","properties":{"name":"(unnamed public road)","road_class":"track","surface":"dirt","tracktype":"grade3","source":"Caltrans All Roads + OpenStreetMap explicit surface","source_detail":"osm way 593146862; Caltrans All Roads public-network geometry match","source_tile":"176/400","public_network_source":"Caltrans All Roads (ARNOLD/HPMS)","surface_source":"OpenStreetMap explicit surface tag","caltrans_match_coverage":0.988,"verified_length_m":1004},"geometry":{"type":"LineString","coordinates":[[-118.1178,36.5992],[-118.11798,36.59897],[-118.11811,36.59881],[-118.11825,36.59866],[-118.11839,36.59848],[-118.1187,36.59819],[-118.11884,36.59803],[-118.11897,36.59791],[-118.11913,36.59781],[-118.11929,36.59773],[-118.11952,36.5976],[-118.11973,36.59746],[-118.12004,36.59726],[-118.12025,36.59714],[-118.12042,36.59707],[-118.12055,36.59702],[-118.12066,36.59695],[-118.1209,36.59685],[-118.12101,36.59678],[-118.12111,36.59672],[-118.12117,36.59671],[-118.12123,36.59671],[-118.12138,36.5967],[-118.12181,36.59661],[-118.1222,36.59658],[-118.12268,36.59651],[-118.12298,36.59651],[-118.12339,36.59651],[-118.1239,36.59652],[-118.12426,36.59653],[-118.12436,36.59651],[-118.12449,36.59646],[-118.12459,36.59638],[-118.12495,36.59617],[-118.12502,36.59609],[-118.1251,36.59596],[-118.12517,36.59591],[-118.12528,36.59586],[-118.12546,36.59585],[-118.12574,36.5958],[-118.12594,36.59575],[-118.12603,36.5957],[-118.12614,36.59557],[-118.12619,36.59553],[-118.12627,36.59553],[-118.12637,36.59553],[-118.12652,36.5955],[-118.12663,36.59539],[-118.12674,36.59533],[-118.1269,36.59529],[-118.12703,36.59528],[-118.12715,36.5953]]}}]}