{"type":"FeatureCollection","features":[{"type":"Feature","properties":{"name":"Beartrap South Road","road_class":"track","surface":"compacted","tracktype":"grade2","source":"Caltrans All Roads + OpenStreetMap explicit surface","source_detail":"osm way 113104289; Caltrans All Roads public-network geometry match","source_tile":"175/402","public_network_source":"Caltrans All Roads (ARNOLD/HPMS)","surface_source":"OpenStreetMap explicit surface tag","caltrans_match_coverage":1.0,"verified_length_m":4377},"geometry":{"type":"LineString","coordinates":[[-118.29925,36.04112],[-118.29896,36.04094],[-118.2986,36.04078],[-118.29817,36.04065],[-118.29758,36.04056],[-118.29679,36.04063],[-118.29646,36.04074],[-118.29607,36.04093],[-118.29562,36.04122],[-118.29532,36.04138],[-118.29515,36.04139],[-118.29497,36.04134],[-118.29472,36.04107],[-118.2945,36.04084],[-118.29441,36.04067],[-118.29441,36.04054],[-118.29462,36.04016],[-118.29471,36.03983],[-118.29467,36.03958],[-118.2945,36.03934],[-118.29419,36.03904],[-118.29381,36.03886],[-118.29341,36.03874],[-118.29316,36.03867],[-118.29299,36.0385],[-118.29294,36.0382],[-118.29285,36.038],[-118.29266,36.0378],[-118.29194,36.03736],[-118.29131,36.03695],[-118.29099,36.03679],[-118.29041,36.03663],[-118.28996,36.03655],[-118.28964,36.03652],[-118.28946,36.03644],[-118.28937,36.0363],[-118.28934,36.03608],[-118.28939,36.03564],[-118.28935,36.03531],[-118.28915,36.03469],[-118.28899,36.03435],[-118.28812,36.0336],[-118.2878,36.0334],[-118.28728,36.03324],[-118.28644,36.03301],[-118.28615,36.03291],[-118.28598,36.03276],[-118.28595,36.03265],[-118.28595,36.03248],[-118.28617,36.03167],[-118.28631,36.03113],[-118.28629,36.03083],[-118.28617,36.03067],[-118.28595,36.03046],[-118.28493,36.02983],[-118.28436,36.02951],[-118.28417,36.02935],[-118.28407,36.02914],[-118.28408,36.02894],[-118.28419,36.02851],[-118.2843,36.02827],[-118.28448,36.02808],[-118.28493,36.02781],[-118.2851,36.02767],[-118.28514,36.02749],[-118.28509,36.02718],[-118.285,36.02694],[-118.28491,36.02676],[-118.2847,36.02662],[-118.28425,36.02639],[-118.28395,36.02622],[-118.28379,36.02608],[-118.28348,36.02567],[-118.28328,36.02543],[-118.28307,36.02532],[-118.28273,36.02525],[-118.28159,36.02517],[-118.28094,36.02513],[-118.28044,36.02506],[-118.28026,36.02499],[-118.28008,36.02484],[-118.27997,36.02463],[-118.27982,36.02395],[-118.27975,36.02371],[-118.27955,36.02348],[-118.27933,36.02339],[-118.27864,36.02317],[-118.27837,36.02317],[-118.27812,36.02322],[-118.27725,36.02354],[-118.27698,36.02365],[-118.27676,36.02393],[-118.27669,36.02416],[-118.27657,36.02482],[-118.27636,36.02555],[-118.27614,36.0262],[-118.27589,36.02642],[-118.27563,36.02658],[-118.27494,36.02679],[-118.27412,36.02706],[-118.27327,36.02737],[-118.27204,36.02801],[-118.27101,36.02855]]}},{"type":"Feature","properties":{"name":"Mahogany Road","road_class":"track","surface":"compacted","tracktype":"grade2","source":"Caltrans All Roads + OpenStreetMap explicit surface","source_detail":"osm way 113104296; Caltrans All Roads public-network geometry match","source_tile":"175/402","public_network_source":"Caltrans All Roads (ARNOLD/HPMS)","surface_source":"OpenStreetMap explicit surface tag","caltrans_match_coverage":0.98,"verified_length_m":5135},"geometry":{"type":"LineString","coordinates":[[-118.22613,36.05709],[-118.22661,36.05637],[-118.2268,36.05618],[-118.22691,36.05598],[-118.22696,36.05568],[-118.22706,36.05509],[-118.22705,36.05484],[-118.22703,36.05471],[-118.22691,36.05459],[-118.22669,36.05423],[-118.22669,36.05392],[-118.2268,36.05351],[-118.22681,36.05317],[-118.22675,36.05292],[-118.22662,36.05276],[-118.2264,36.0526],[-118.22628,36.05245],[-118.22622,36.05227],[-118.22612,36.05199],[-118.22585,36.05171],[-118.22567,36.05158],[-118.22494,36.05126],[-118.22481,36.05118],[-118.22473,36.05104],[-118.22472,36.05088],[-118.22477,36.05073],[-118.22488,36.05061],[-118.225,36.05053],[-118.22522,36.05042],[-118.22535,36.05033],[-118.22552,36.05005],[-118.2262,36.04939],[-118.22663,36.04892],[-118.22734,36.04868],[-118.22779,36.04859],[-118.22812,36.0485],[-118.22841,36.0483],[-118.22861,36.04794],[-118.22908,36.04766],[-118.22961,36.04755],[-118.22981,36.04739],[-118.22986,36.04713],[-118.22975,36.04697],[-118.22962,36.04685],[-118.22915,36.04678],[-118.22846,36.04672],[-118.22788,36.04693],[-118.22763,36.04699],[-118.22725,36.04692],[-118.22708,36.04678],[-118.22649,36.046],[-118.22595,36.04567],[-118.22562,36.04557],[-118.22528,36.0453],[-118.2252,36.04485],[-118.22524,36.04383],[-118.22549,36.04301],[-118.22549,36.0424],[-118.22545,36.04194],[-118.22542,36.04168],[-118.2252,36.04137],[-118.22493,36.04108],[-118.22437,36.0411],[-118.22394,36.04099],[-118.2235,36.04077],[-118.223,36.04047],[-118.22281,36.04005],[-118.22268,36.03968],[-118.2225,36.03957],[-118.22205,36.03941],[-118.22163,36.03931],[-118.22131,36.03914],[-118.22125,36.03891],[-118.22126,36.03867],[-118.22148,36.03819],[-118.22193,36.0378],[-118.22236,36.03746],[-118.22262,36.03736],[-118.22272,36.03711],[-118.22288,36.03648],[-118.22322,36.03572],[-118.22367,36.03485],[-118.22404,36.03458],[-118.22437,36.0345],[-118.22503,36.03453],[-118.22564,36.03473],[-118.22588,36.03492],[-118.22615,36.03521],[-118.22638,36.03533],[-118.22658,36.0353],[-118.22676,36.03513],[-118.22667,36.03474],[-118.22653,36.03436],[-118.22626,36.03408],[-118.22625,36.0338],[-118.22628,36.03333],[-118.22642,36.03275],[-118.22634,36.0323],[-118.22637,36.03213],[-118.22648,36.03195],[-118.22696,36.03182],[-118.2273,36.03175],[-118.22749,36.03167],[-118.22758,36.03151],[-118.22747,36.03128],[-118.22718,36.03109],[-118.22681,36.03095],[-118.22612,36.03067],[-118.2257,36.03059],[-118.22507,36.03055],[-118.22459,36.03047],[-118.22384,36.03038],[-118.22355,36.03031],[-118.22304,36.03012],[-118.22218,36.02996],[-118.2214,36.02985],[-118.2207,36.02978],[-118.22043,36.02969],[-118.21998,36.02946],[-118.21893,36.02943],[-118.21822,36.02947]]}},{"type":"Feature","properties":{"name":"Lookout Mountain Road","road_class":"track","surface":"compacted","tracktype":"grade2","source":"Caltrans All Roads + OpenStreetMap explicit surface","source_detail":"osm way 113484305; Caltrans All Roads public-network geometry match","source_tile":"175/402","public_network_source":"Caltrans All Roads (ARNOLD/HPMS)","surface_source":"OpenStreetMap explicit surface tag","caltrans_match_coverage":1.0,"verified_length_m":3708},"geometry":{"type":"LineString","coordinates":[[-118.31956,36.02281],[-118.31928,36.0232],[-118.319,36.02352],[-118.31832,36.02414],[-118.31789,36.02455],[-118.31785,36.02479],[-118.31791,36.02506],[-118.31788,36.02564],[-118.31778,36.0266],[-118.31776,36.02687],[-118.31784,36.02724],[-118.31794,36.0276],[-118.31828,36.02827],[-118.31844,36.02853],[-118.31852,36.02873],[-118.31859,36.02929],[-118.31866,36.0298],[-118.31879,36.03002],[-118.31893,36.03018],[-118.31914,36.03034],[-118.31935,36.03048],[-118.31958,36.03064],[-118.31984,36.03072],[-118.32003,36.03075],[-118.32029,36.03079],[-118.32052,36.03085],[-118.32069,36.03096],[-118.32084,36.03112],[-118.32118,36.03151],[-118.32129,36.03165],[-118.3214,36.03188],[-118.3216,36.03259],[-118.32165,36.03282],[-118.32173,36.03301],[-118.32189,36.03317],[-118.32267,36.03379],[-118.323,36.03403],[-118.32329,36.03416],[-118.32359,36.03426],[-118.32389,36.03431],[-118.32415,36.03433],[-118.3247,36.03427],[-118.32531,36.03419],[-118.3256,36.03417],[-118.32585,36.03417],[-118.32624,36.03435],[-118.32639,36.03452],[-118.32654,36.03487],[-118.32692,36.03553],[-118.32708,36.03576],[-118.32779,36.03642],[-118.32833,36.0369],[-118.32863,36.03714],[-118.32869,36.03721],[-118.32871,36.03729],[-118.32871,36.03737],[-118.32868,36.03767],[-118.32864,36.03775],[-118.32861,36.03783],[-118.32863,36.03789],[-118.32869,36.03806],[-118.32885,36.03829],[-118.32927,36.03873],[-118.32992,36.03953],[-118.33047,36.03997],[-118.33056,36.04007],[-118.33075,36.04041],[-118.33097,36.04066],[-118.3313,36.04092],[-118.33154,36.04109],[-118.3322,36.04164],[-118.3325,36.04189],[-118.33273,36.04213],[-118.33313,36.04276],[-118.33328,36.04311],[-118.33335,36.04336],[-118.33344,36.04356],[-118.33356,36.04371],[-118.33375,36.04386],[-118.33395,36.04407],[-118.33405,36.04433],[-118.3341,36.0448],[-118.33411,36.04514],[-118.33409,36.0457],[-118.33418,36.04602],[-118.33432,36.04639],[-118.33446,36.04703],[-118.33446,36.04728],[-118.33443,36.04756],[-118.33435,36.04784],[-118.33427,36.04827],[-118.33417,36.04867],[-118.33407,36.04915],[-118.33409,36.04932],[-118.33414,36.04947]]}},{"type":"Feature","properties":{"name":"Bald Mountain Lookout Road","road_class":"track","surface":"compacted","tracktype":"grade2","source":"Caltrans All Roads + OpenStreetMap explicit surface","source_detail":"osm way 10679356; Caltrans All Roads public-network geometry match","source_tile":"175/402","public_network_source":"Caltrans All Roads (ARNOLD/HPMS)","surface_source":"OpenStreetMap explicit surface tag","caltrans_match_coverage":0.866,"verified_length_m":3440},"geometry":{"type":"LineString","coordinates":[[-118.26624,36.0317],[-118.26614,36.03171],[-118.26607,36.03172],[-118.26605,36.03167],[-118.26606,36.03142],[-118.26607,36.03111],[-118.26617,36.03058],[-118.26624,36.03013],[-118.2665,36.02988],[-118.26668,36.02962],[-118.26676,36.02945],[-118.26669,36.02924],[-118.26641,36.02905],[-118.26564,36.02862],[-118.26507,36.02822],[-118.26484,36.02807],[-118.26464,36.02785],[-118.26455,36.02765],[-118.26462,36.02743],[-118.26475,36.02728],[-118.26511,36.02705],[-118.26523,36.02693],[-118.26526,36.02675],[-118.26517,36.0265],[-118.26504,36.02625],[-118.2648,36.026],[-118.26438,36.02578],[-118.2641,36.0257],[-118.26387,36.02566],[-118.26373,36.02572],[-118.26363,36.02595],[-118.26322,36.02668],[-118.26305,36.02689],[-118.2627,36.02708],[-118.26237,36.02717],[-118.26184,36.0273],[-118.26146,36.0273],[-118.26118,36.02736],[-118.26103,36.02747],[-118.26092,36.02773],[-118.26088,36.02803],[-118.26095,36.02852],[-118.26088,36.02872],[-118.26075,36.02885],[-118.26059,36.02889],[-118.25992,36.02904],[-118.25946,36.02924],[-118.25917,36.02927],[-118.25894,36.02933],[-118.25862,36.02939],[-118.2585,36.02933],[-118.25827,36.02901],[-118.25786,36.02849],[-118.25748,36.02808],[-118.25705,36.02772],[-118.25683,36.02741],[-118.25673,36.02712],[-118.25673,36.02693],[-118.25678,36.02677],[-118.2569,36.02649],[-118.25698,36.02624],[-118.25702,36.02596],[-118.25711,36.02586],[-118.25742,36.02559],[-118.25748,36.02546],[-118.25751,36.02534],[-118.25762,36.02527],[-118.25789,36.02508],[-118.25804,36.02488],[-118.25808,36.02462],[-118.25814,36.0245],[-118.25846,36.02418],[-118.25883,36.02395],[-118.2589,36.02379],[-118.2589,36.02349],[-118.25879,36.02325],[-118.2587,36.02303],[-118.2587,36.0226],[-118.25866,36.02242],[-118.25865,36.02231],[-118.25875,36.02218],[-118.25911,36.02203],[-118.25915,36.02194],[-118.25908,36.02185],[-118.25869,36.02192],[-118.25841,36.02201],[-118.25802,36.02217],[-118.25784,36.02232],[-118.2577,36.02266],[-118.25757,36.02277],[-118.2574,36.02279],[-118.25724,36.02273],[-118.25689,36.02241],[-118.25686,36.02231],[-118.25696,36.02221],[-118.25682,36.02205],[-118.2566,36.02195],[-118.25627,36.02184],[-118.25593,36.02179],[-118.25563,36.02173],[-118.2553,36.02159],[-118.25503,36.02155],[-118.25495,36.02152],[-118.25488,36.02141],[-118.25483,36.02123],[-118.2548,36.021],[-118.25471,36.02071],[-118.25459,36.02058],[-118.25437,36.02044],[-118.25396,36.02017],[-118.25354,36.01983],[-118.25341,36.0197],[-118.25336,36.01962],[-118.25339,36.01951],[-118.25351,36.01947],[-118.25375,36.0194],[-118.25394,36.0194],[-118.25408,36.01947],[-118.25411,36.01955],[-118.2541,36.01968]]}},{"type":"Feature","properties":{"name":"Corral Meadow Road","road_class":"track","surface":"compacted","tracktype":"grade2","source":"Caltrans All Roads + OpenStreetMap explicit surface","source_detail":"osm way 1292526370; Caltrans All Roads public-network geometry match","source_tile":"175/402","public_network_source":"Caltrans All Roads (ARNOLD/HPMS)","surface_source":"OpenStreetMap explicit surface tag","caltrans_match_coverage":0.946,"verified_length_m":1451},"geometry":{"type":"LineString","coordinates":[[-118.36541,36.03197],[-118.36512,36.03205],[-118.36475,36.03208],[-118.3642,36.03191],[-118.36363,36.03165],[-118.36326,36.03145],[-118.36299,36.03141],[-118.36257,36.03166],[-118.36218,36.03177],[-118.36192,36.03195],[-118.36167,36.03199],[-118.36135,36.03203],[-118.3612,36.03202],[-118.36111,36.032],[-118.3609,36.03194],[-118.36064,36.03183],[-118.36048,36.03179],[-118.3603,36.03176],[-118.3601,36.03168],[-118.35997,36.03161],[-118.35979,36.03151],[-118.35948,36.0313],[-118.35913,36.03105],[-118.359,36.03099],[-118.35884,36.03099],[-118.35862,36.03104],[-118.35809,36.03117],[-118.35793,36.03121],[-118.35778,36.03119],[-118.3577,36.03115],[-118.35762,36.03106],[-118.35758,36.03087],[-118.35743,36.03061],[-118.35738,36.03047],[-118.35727,36.03016],[-118.35714,36.03007],[-118.35688,36.03002],[-118.35656,36.02995],[-118.35636,36.02992],[-118.35616,36.0299],[-118.35599,36.02992],[-118.35578,36.03001],[-118.35554,36.03027],[-118.35528,36.03053],[-118.35525,36.03077],[-118.35522,36.03095],[-118.35514,36.03119],[-118.35508,36.03137],[-118.35503,36.03152],[-118.35479,36.03179],[-118.35466,36.03203],[-118.35453,36.03211],[-118.35434,36.03219],[-118.35421,36.03233],[-118.35409,36.0328],[-118.35383,36.03332]]}},{"type":"Feature","properties":{"name":"Cherry Hill Road","road_class":"track","surface":"dirt","tracktype":"grade3","source":"Caltrans All Roads + OpenStreetMap explicit surface","source_detail":"osm way 10432415; Caltrans All Roads public-network geometry match","source_tile":"175/402","public_network_source":"Caltrans All Roads (ARNOLD/HPMS)","surface_source":"OpenStreetMap explicit surface tag","caltrans_match_coverage":0.897,"verified_length_m":4819},"geometry":{"type":"LineString","coordinates":[[-118.32602,35.78822],[-118.32577,35.78811],[-118.32561,35.78808],[-118.32539,35.7881],[-118.32528,35.7881],[-118.32517,35.78807],[-118.32482,35.78793],[-118.32442,35.78783],[-118.3243,35.78779],[-118.32419,35.78774],[-118.32412,35.78768],[-118.32395,35.78753],[-118.32378,35.78736],[-118.32366,35.78728],[-118.32352,35.78722],[-118.32342,35.7872],[-118.32329,35.78718],[-118.32273,35.78715],[-118.32255,35.78717],[-118.32242,35.78719],[-118.32229,35.78726],[-118.32199,35.78744],[-118.32189,35.78749],[-118.32178,35.78752],[-118.32165,35.78753],[-118.32125,35.78753],[-118.32108,35.78753],[-118.32088,35.78756],[-118.32065,35.78765],[-118.32036,35.78778],[-118.32023,35.78787],[-118.32018,35.78794],[-118.32015,35.78804],[-118.32012,35.7885],[-118.32009,35.78864],[-118.32005,35.78874],[-118.31989,35.78906],[-118.3198,35.78921],[-118.31967,35.78936],[-118.31957,35.78944],[-118.31943,35.78954],[-118.31928,35.78959],[-118.31897,35.78965],[-118.3188,35.78969],[-118.31863,35.78974],[-118.31838,35.78985],[-118.31817,35.78993],[-118.31786,35.79006],[-118.31764,35.79019],[-118.31745,35.79026],[-118.31728,35.79031],[-118.31715,35.79032],[-118.31692,35.79031],[-118.31678,35.79033],[-118.31631,35.79049],[-118.31587,35.79067],[-118.31522,35.79092],[-118.31497,35.791],[-118.31468,35.79105],[-118.31455,35.79109],[-118.31439,35.79122],[-118.31431,35.79137],[-118.3143,35.79152],[-118.31436,35.79165],[-118.31442,35.79172],[-118.31451,35.79178],[-118.31482,35.79191],[-118.31504,35.79204],[-118.31522,35.79224],[-118.31565,35.7928],[-118.31586,35.79303],[-118.31599,35.79307],[-118.31614,35.79309],[-118.31628,35.79305],[-118.31649,35.79295],[-118.31668,35.7928],[-118.31681,35.79271],[-118.31695,35.7927],[-118.3171,35.79271],[-118.31726,35.79275],[-118.31752,35.79291],[-118.31761,35.79299],[-118.31767,35.79312],[-118.31767,35.79329],[-118.31761,35.79347],[-118.31747,35.79369],[-118.31735,35.79394],[-118.31732,35.79409],[-118.31738,35.79427],[-118.31747,35.79434],[-118.31761,35.79441],[-118.31795,35.79457],[-118.31809,35.79466],[-118.31816,35.79475],[-118.31817,35.79491],[-118.31814,35.79505],[-118.31792,35.79544],[-118.31781,35.79571],[-118.31774,35.79594],[-118.31777,35.79609],[-118.31785,35.79622],[-118.31804,35.79637],[-118.31812,35.79648],[-118.31819,35.79663],[-118.31817,35.79684],[-118.31793,35.79748],[-118.31785,35.79781],[-118.31788,35.79802],[-118.31794,35.79819],[-118.31809,35.79846],[-118.31848,35.7991],[-118.31862,35.79944],[-118.31867,35.79965],[-118.31861,35.79981],[-118.31844,35.79995],[-118.31811,35.80012],[-118.31787,35.8002],[-118.31772,35.80022],[-118.31758,35.8002],[-118.31706,35.80005],[-118.31692,35.80005],[-118.31674,35.80008],[-118.31601,35.80045],[-118.31591,35.80054],[-118.31585,35.80065],[-118.31586,35.80077],[-118.31601,35.80112],[-118.31601,35.80129],[-118.31594,35.80141],[-118.31579,35.80151],[-118.31562,35.80154],[-118.31542,35.8015],[-118.31525,35.80142],[-118.31489,35.8011],[-118.31472,35.80098],[-118.31446,35.80087],[-118.31241,35.80034],[-118.31189,35.80022],[-118.31036,35.79983],[-118.30999,35.79972],[-118.30969,35.79968],[-118.3093,35.79965],[-118.30856,35.79965],[-118.30832,35.79966],[-118.30804,35.79968],[-118.3071,35.79984],[-118.30643,35.79996],[-118.30574,35.80011],[-118.30489,35.80025],[-118.30458,35.80032],[-118.30433,35.80039],[-118.30421,35.80047],[-118.30408,35.80064],[-118.30404,35.80081],[-118.30406,35.80097],[-118.3041,35.80112],[-118.30441,35.80146],[-118.30449,35.80159],[-118.30452,35.80179],[-118.30448,35.80197],[-118.30437,35.80211],[-118.30373,35.80279],[-118.30315,35.80326],[-118.30234,35.80371],[-118.3018,35.80403],[-118.30149,35.80418],[-118.2996,35.80524]]}},{"type":"Feature","properties":{"name":"Poison Creek Road","road_class":"track","surface":"dirt","tracktype":"grade3","source":"Caltrans All Roads + OpenStreetMap explicit surface","source_detail":"osm way 10648717; Caltrans All Roads public-network geometry match","source_tile":"175/402","public_network_source":"Caltrans All Roads (ARNOLD/HPMS)","surface_source":"OpenStreetMap explicit surface tag","caltrans_match_coverage":1.0,"verified_length_m":6925},"geometry":{"type":"LineString","coordinates":[[-118.38779,35.92133],[-118.38789,35.9213],[-118.38799,35.92124],[-118.38809,35.92115],[-118.38819,35.92109],[-118.38834,35.92106],[-118.38857,35.92104],[-118.38877,35.92105],[-118.38897,35.92108],[-118.38912,35.92111],[-118.38923,35.92112],[-118.38936,35.92113],[-118.38958,35.92112],[-118.38974,35.92108],[-118.38985,35.92104],[-118.39017,35.92088],[-118.39025,35.92082],[-118.3903,35.92076],[-118.39036,35.92067],[-118.39053,35.92027],[-118.39062,35.92004],[-118.39076,35.91978],[-118.39088,35.91952],[-118.39098,35.91927],[-118.391,35.91914],[-118.39101,35.91898],[-118.39104,35.91879],[-118.39108,35.91869],[-118.39124,35.9185],[-118.39133,35.91842],[-118.39141,35.91837],[-118.3915,35.91834],[-118.39161,35.91831],[-118.39182,35.91824],[-118.39205,35.91818],[-118.39217,35.91814],[-118.39235,35.91809],[-118.39243,35.91805],[-118.39247,35.918],[-118.39248,35.91794],[-118.39245,35.91782],[-118.39246,35.91775],[-118.39249,35.9177],[-118.39254,35.91766],[-118.3926,35.91762],[-118.39271,35.91759],[-118.39279,35.91757],[-118.39289,35.91757],[-118.39297,35.91757],[-118.39304,35.91759],[-118.3931,35.91762],[-118.39317,35.91767],[-118.39328,35.91777],[-118.39338,35.91788],[-118.39345,35.91802],[-118.39352,35.91812],[-118.3936,35.91822],[-118.39367,35.91831],[-118.39375,35.91839],[-118.39383,35.91844],[-118.39393,35.91849],[-118.39418,35.9186],[-118.39432,35.91864],[-118.39444,35.91864],[-118.39453,35.91862],[-118.39464,35.91856],[-118.39473,35.91849],[-118.39486,35.91837],[-118.395,35.91833],[-118.3951,35.91834],[-118.39518,35.91837],[-118.39524,35.91842],[-118.39529,35.9185],[-118.39532,35.91857],[-118.39533,35.91882],[-118.39536,35.91893],[-118.39541,35.91902],[-118.39553,35.91911],[-118.39574,35.91922],[-118.39583,35.91925],[-118.39595,35.91928],[-118.39622,35.91932],[-118.39629,35.91934],[-118.39641,35.91938],[-118.3965,35.91943],[-118.39655,35.91947],[-118.39659,35.91953],[-118.3966,35.91961],[-118.39659,35.91971],[-118.39655,35.91985],[-118.39651,35.92013],[-118.39647,35.92033],[-118.39648,35.92039],[-118.39652,35.92043],[-118.39658,35.92046],[-118.39666,35.92047],[-118.39672,35.92045],[-118.39677,35.92043],[-118.3968,35.9204],[-118.39691,35.92018],[-118.39696,35.92009],[-118.39709,35.91992],[-118.39728,35.91971],[-118.39742,35.9195],[-118.39743,35.91943],[-118.39738,35.91918],[-118.39733,35.919],[-118.39731,35.9189],[-118.39728,35.91881],[-118.39727,35.91873],[-118.39727,35.91864],[-118.39728,35.91855],[-118.39731,35.91841],[-118.39737,35.91829],[-118.39739,35.91817],[-118.39742,35.91799],[-118.3975,35.91777],[-118.39759,35.91754],[-118.3976,35.91745],[-118.3976,35.91718],[-118.39763,35.91699],[-118.39764,35.91681],[-118.39764,35.91667],[-118.39764,35.91653],[-118.39763,35.91623],[-118.39761,35.91606],[-118.39761,35.91594],[-118.39765,35.91585],[-118.39776,35.9158],[-118.39787,35.91578],[-118.39807,35.91577],[-118.3982,35.91576],[-118.39841,35.91571],[-118.39862,35.91564],[-118.39872,35.91559],[-118.39883,35.9155],[-118.39899,35.91542],[-118.39907,35.91534],[-118.39917,35.9153],[-118.3993,35.91528],[-118.39941,35.91525],[-118.39953,35.91518],[-118.39973,35.91504],[-118.39991,35.91496],[-118.40002,35.91494],[-118.40012,35.91497],[-118.40017,35.91501],[-118.40022,35.91509],[-118.40027,35.9152],[-118.40043,35.91536],[-118.4005,35.91545],[-118.40058,35.91563],[-118.40064,35.91571],[-118.40074,35.91579],[-118.40084,35.91586],[-118.40097,35.91593],[-118.40113,35.91598],[-118.40127,35.91601],[-118.40179,35.91609],[-118.40188,35.91609],[-118.40199,35.91607],[-118.40206,35.91604],[-118.40215,35.91597],[-118.40235,35.91576],[-118.40241,35.91571],[-118.4025,35.91567],[-118.40258,35.91566],[-118.40264,35.91568],[-118.40269,35.91571],[-118.40274,35.91576],[-118.40278,35.91583],[-118.40278,35.91594],[-118.40277,35.91605],[-118.40267,35.91626],[-118.40267,35.91633],[-118.40269,35.91637],[-118.40274,35.91642],[-118.403,35.91654],[-118.40321,35.91662],[-118.4035,35.91669],[-118.40361,35.91671],[-118.40375,35.91673],[-118.40396,35.91674],[-118.40413,35.91673],[-118.40421,35.91672],[-118.40439,35.91673],[-118.4045,35.91676],[-118.40459,35.91679],[-118.4047,35.91685],[-118.40487,35.91695],[-118.40493,35.91701],[-118.40496,35.91705],[-118.40503,35.91722],[-118.40512,35.9175],[-118.40519,35.9176],[-118.4053,35.91773],[-118.40538,35.9178],[-118.40557,35.91792],[-118.40562,35.91797],[-118.40581,35.91822],[-118.40593,35.9184],[-118.40597,35.91851],[-118.40598,35.91861],[-118.40595,35.91874],[-118.4059,35.91885],[-118.40585,35.91894],[-118.40578,35.91908],[-118.40575,35.91918],[-118.40568,35.91949],[-118.40565,35.9196],[-118.40558,35.91968],[-118.40551,35.91973],[-118.4054,35.91988],[-118.40522,35.92016],[-118.40495,35.92049],[-118.40483,35.92073],[-118.40466,35.92137],[-118.40465,35.92149],[-118.40468,35.92167],[-118.40469,35.92175],[-118.40467,35.92182],[-118.40462,35.92191],[-118.40452,35.92203],[-118.40444,35.92209],[-118.40436,35.92214],[-118.40432,35.9222],[-118.4043,35.92226],[-118.40431,35.92237],[-118.40432,35.92244],[-118.40435,35.92249],[-118.40444,35.92255],[-118.40456,35.92262],[-118.40468,35.92266],[-118.40481,35.92269],[-118.40496,35.9227],[-118.40509,35.9227],[-118.40535,35.92266],[-118.40564,35.9226],[-118.40572,35.92258],[-118.4058,35.92255],[-118.40616,35.92237],[-118.40643,35.92226],[-118.40657,35.92222],[-118.40673,35.92215],[-118.40685,35.92207],[-118.40696,35.92196],[-118.40708,35.92175],[-118.40713,35.92158],[-118.40716,35.92152],[-118.40725,35.92143],[-118.40743,35.92128],[-118.40751,35.92121],[-118.40762,35.92103],[-118.40769,35.92094],[-118.40782,35.92081],[-118.40792,35.92073],[-118.4081,35.92064],[-118.40823,35.92061],[-118.40831,35.92059],[-118.40837,35.92059],[-118.40843,35.92059],[-118.40848,35.9206],[-118.40854,35.92063],[-118.40859,35.92067],[-118.40863,35.92076],[-118.40864,35.92084],[-118.40866,35.92106],[-118.40869,35.92114],[-118.4088,35.92131],[-118.40883,35.92138],[-118.40885,35.92145],[-118.40886,35.92154],[-118.40884,35.92173],[-118.40885,35.9218],[-118.40889,35.92185],[-118.40897,35.92193],[-118.40915,35.92208],[-118.40925,35.92219],[-118.40938,35.92238],[-118.40958,35.9227],[-118.40964,35.92276],[-118.40973,35.92279],[-118.40983,35.92279],[-118.40996,35.92277],[-118.4101,35.92275],[-118.41022,35.92272],[-118.41032,35.9227],[-118.41055,35.92268],[-118.41074,35.92263],[-118.41093,35.92261],[-118.4113,35.92254],[-118.4114,35.92252],[-118.41156,35.92247],[-118.41169,35.92242],[-118.41177,35.9224],[-118.41187,35.9224],[-118.41196,35.92241],[-118.41223,35.92248],[-118.41251,35.92249],[-118.41281,35.92248],[-118.41305,35.92249],[-118.41325,35.92249],[-118.41362,35.92254],[-118.41372,35.92253],[-118.41381,35.92252],[-118.41391,35.92249],[-118.41415,35.92242],[-118.41449,35.92229],[-118.4146,35.92228],[-118.41478,35.92229],[-118.41496,35.92232],[-118.41514,35.92236],[-118.41526,35.92241],[-118.41542,35.92248],[-118.41556,35.92256],[-118.41568,35.92265],[-118.41576,35.92273],[-118.41581,35.9228],[-118.41588,35.92293],[-118.41589,35.92302],[-118.41589,35.92313],[-118.4159,35.92321],[-118.41594,35.9233],[-118.41604,35.92345],[-118.41615,35.92358],[-118.41627,35.92373],[-118.41633,35.92386],[-118.41639,35.92396],[-118.41653,35.92415],[-118.41669,35.92432],[-118.41702,35.92463],[-118.4171,35.92471],[-118.41717,35.92483],[-118.41721,35.92492],[-118.41723,35.92501],[-118.41726,35.92519],[-118.41731,35.92526],[-118.41767,35.92547],[-118.41775,35.92552],[-118.41781,35.92559],[-118.41785,35.92566],[-118.41792,35.92575],[-118.41798,35.92585],[-118.41804,35.92592],[-118.41831,35.92612],[-118.41846,35.92624],[-118.41854,35.92633],[-118.41859,35.9264],[-118.41862,35.92647],[-118.41863,35.92659],[-118.41865,35.92664],[-118.41873,35.92671],[-118.41882,35.92679],[-118.41892,35.92684],[-118.41905,35.92697],[-118.41914,35.92705],[-118.41931,35.92712],[-118.41941,35.92716],[-118.41948,35.92718],[-118.41965,35.92722],[-118.41984,35.92723],[-118.42,35.92719],[-118.42021,35.92712],[-118.42039,35.92706],[-118.42062,35.927],[-118.42079,35.92698],[-118.42094,35.92699],[-118.42102,35.92703],[-118.42113,35.92703],[-118.42121,35.92702],[-118.42132,35.92699],[-118.42142,35.92697],[-118.42154,35.92698],[-118.42176,35.92697],[-118.42192,35.92701],[-118.42214,35.92702],[-118.42237,35.92702],[-118.42256,35.927],[-118.42279,35.92699],[-118.423,35.92699],[-118.4233,35.92702],[-118.42389,35.92707],[-118.42401,35.92709],[-118.42431,35.92717],[-118.42458,35.92722],[-118.42467,35.92723],[-118.42474,35.92725],[-118.42481,35.92728],[-118.42488,35.92734],[-118.42491,35.9274],[-118.4249,35.92749],[-118.42488,35.92765],[-118.42487,35.92774],[-118.4249,35.92782],[-118.42505,35.92796],[-118.4251,35.92803],[-118.42511,35.92807],[-118.42512,35.92815],[-118.42509,35.92819],[-118.42492,35.92833],[-118.42486,35.92841],[-118.42485,35.92845],[-118.42488,35.92857],[-118.42492,35.92867],[-118.42496,35.92873],[-118.42501,35.92876],[-118.42518,35.9288],[-118.42539,35.92887],[-118.42558,35.92895],[-118.42572,35.929],[-118.42582,35.92902],[-118.42593,35.92902],[-118.42602,35.92901],[-118.42635,35.92894],[-118.42684,35.92887],[-118.427,35.92887],[-118.4271,35.92888],[-118.4272,35.92893],[-118.42725,35.92899],[-118.4273,35.92915],[-118.42732,35.92918],[-118.42741,35.92928],[-118.42749,35.92934],[-118.42754,35.92938],[-118.42754,35.92945],[-118.42753,35.92949],[-118.42748,35.92955],[-118.42737,35.92961],[-118.42716,35.92961],[-118.42705,35.92964],[-118.42696,35.92971],[-118.42692,35.92978],[-118.42685,35.92984],[-118.42678,35.92986],[-118.42662,35.9299],[-118.42643,35.92992],[-118.42629,35.92994],[-118.42612,35.92996],[-118.42606,35.92996],[-118.42596,35.92995],[-118.42589,35.92995],[-118.42584,35.92997],[-118.42581,35.93],[-118.42578,35.93005],[-118.4258,35.93013],[-118.42587,35.93026],[-118.42589,35.93031],[-118.42588,35.93039],[-118.42582,35.93049],[-118.4258,35.93053],[-118.4258,35.93061],[-118.42584,35.93072],[-118.42584,35.93082],[-118.42579,35.93091],[-118.42573,35.93102],[-118.42566,35.9311],[-118.4256,35.93114],[-118.42544,35.93116],[-118.42516,35.93113],[-118.42501,35.93108],[-118.42474,35.93104],[-118.42469,35.93101],[-118.42448,35.93093],[-118.42438,35.93088],[-118.4243,35.93086],[-118.42424,35.93087],[-118.42418,35.9309],[-118.42412,35.93092],[-118.42404,35.93093],[-118.42396,35.93094],[-118.42377,35.93097],[-118.42364,35.931],[-118.42342,35.93103],[-118.4232,35.93101],[-118.42311,35.93102],[-118.42304,35.93106],[-118.42297,35.93116],[-118.42294,35.93126],[-118.42296,35.93136],[-118.42295,35.93143],[-118.42293,35.93155],[-118.42282,35.93166],[-118.42281,35.9317]]}},{"type":"Feature","properties":{"name":"Packsaddle Canyon Road","road_class":"track","surface":"dirt","tracktype":"grade3","source":"Caltrans All Roads + OpenStreetMap explicit surface","source_detail":"osm way 10675110; Caltrans All Roads public-network geometry match","source_tile":"175/402","public_network_source":"Caltrans All Roads (ARNOLD/HPMS)","surface_source":"OpenStreetMap explicit surface tag","caltrans_match_coverage":1.0,"verified_length_m":2509},"geometry":{"type":"LineString","coordinates":[[-118.40131,35.93336],[-118.4014,35.93341],[-118.40155,35.9335],[-118.40172,35.93356],[-118.40192,35.93356],[-118.40285,35.93348],[-118.40299,35.93349],[-118.40309,35.93353],[-118.40315,35.93359],[-118.4032,35.9337],[-118.40324,35.9338],[-118.4033,35.93387],[-118.4037,35.93418],[-118.40375,35.93427],[-118.40374,35.93436],[-118.40366,35.93445],[-118.40282,35.93493],[-118.40272,35.93501],[-118.40264,35.93515],[-118.40265,35.93526],[-118.4027,35.93536],[-118.40279,35.93544],[-118.40293,35.93554],[-118.40305,35.93564],[-118.40314,35.93572],[-118.40323,35.93584],[-118.40331,35.936],[-118.40337,35.93615],[-118.40349,35.9363],[-118.40367,35.93647],[-118.40385,35.93657],[-118.40409,35.93664],[-118.40434,35.93667],[-118.40451,35.93666],[-118.40461,35.93666],[-118.40509,35.93679],[-118.40528,35.93686],[-118.4055,35.93698],[-118.4057,35.93703],[-118.40587,35.93704],[-118.40598,35.93702],[-118.40633,35.93694],[-118.40649,35.93693],[-118.40657,35.93694],[-118.40666,35.937],[-118.40681,35.93712],[-118.40694,35.93719],[-118.40706,35.93722],[-118.40718,35.93721],[-118.40775,35.9371],[-118.40809,35.93705],[-118.40826,35.93705],[-118.40846,35.93709],[-118.40868,35.9371],[-118.40895,35.93706],[-118.40914,35.93709],[-118.40975,35.93709],[-118.41,35.93711],[-118.41039,35.93714],[-118.41058,35.93714],[-118.4107,35.9371],[-118.41078,35.93704],[-118.41098,35.93669],[-118.41103,35.93656],[-118.41113,35.93606],[-118.4112,35.93595],[-118.41132,35.93587],[-118.41145,35.93585],[-118.41156,35.93587],[-118.41167,35.93593],[-118.41174,35.936],[-118.4118,35.93612],[-118.41183,35.93628],[-118.41194,35.93653],[-118.41203,35.93661],[-118.41217,35.93667],[-118.41229,35.93667],[-118.41308,35.93654],[-118.41339,35.93642],[-118.41368,35.93633],[-118.41393,35.93628],[-118.4142,35.93627],[-118.41452,35.9363],[-118.41508,35.93633],[-118.41566,35.93629],[-118.41609,35.93623],[-118.41657,35.93612],[-118.41721,35.93599],[-118.41756,35.93582],[-118.41808,35.93571],[-118.4186,35.93559],[-118.41905,35.93555],[-118.41941,35.93549],[-118.41987,35.93536],[-118.42013,35.93527],[-118.42029,35.93525],[-118.42043,35.93527],[-118.42069,35.93533],[-118.4209,35.93534],[-118.42201,35.93516],[-118.42232,35.93516],[-118.4226,35.93519]]}},{"type":"Feature","properties":{"name":"Poison Meadow Road","road_class":"track","surface":"compacted","tracktype":"grade2","source":"Caltrans All Roads + OpenStreetMap explicit surface","source_detail":"osm way 10675306; Caltrans All Roads public-network geometry match","source_tile":"175/402","public_network_source":"Caltrans All Roads (ARNOLD/HPMS)","surface_source":"OpenStreetMap explicit surface tag","caltrans_match_coverage":0.981,"verified_length_m":5340},"geometry":{"type":"LineString","coordinates":[[-118.38705,35.92442],[-118.3869,35.92444],[-118.38675,35.92451],[-118.38665,35.92463],[-118.38655,35.92492],[-118.38647,35.92505],[-118.38614,35.9252],[-118.38591,35.92538],[-118.38551,35.92584],[-118.38542,35.92603],[-118.38545,35.92613],[-118.38572,35.92647],[-118.38588,35.92678],[-118.38614,35.92723],[-118.3863,35.92746],[-118.38638,35.92803],[-118.38636,35.92818],[-118.38629,35.9284],[-118.38632,35.92857],[-118.38668,35.929],[-118.38682,35.92919],[-118.38689,35.9294],[-118.38689,35.92962],[-118.38699,35.9301],[-118.38705,35.93044],[-118.38713,35.93068],[-118.38717,35.93099],[-118.38715,35.93141],[-118.38717,35.93198],[-118.38712,35.9322],[-118.38704,35.93242],[-118.38694,35.93253],[-118.38675,35.93264],[-118.38653,35.93271],[-118.38631,35.93274],[-118.38591,35.93274],[-118.38558,35.93275],[-118.38514,35.9328],[-118.38464,35.93285],[-118.38412,35.93294],[-118.38335,35.93309],[-118.38297,35.93322],[-118.38269,35.93333],[-118.38227,35.93344],[-118.38207,35.93352],[-118.38198,35.93358],[-118.3819,35.93367],[-118.38186,35.93379],[-118.38176,35.93404],[-118.3818,35.93415],[-118.3818,35.93423],[-118.38188,35.9343],[-118.38203,35.93438],[-118.38234,35.93447],[-118.38247,35.93453],[-118.38262,35.93463],[-118.38278,35.93476],[-118.38292,35.93492],[-118.38335,35.93532],[-118.3836,35.9356],[-118.38377,35.93573],[-118.38403,35.93588],[-118.38419,35.93595],[-118.38453,35.93607],[-118.38468,35.93614],[-118.38484,35.93623],[-118.38495,35.93633],[-118.38501,35.93646],[-118.38501,35.93659],[-118.38494,35.9367],[-118.38476,35.93703],[-118.38459,35.93719],[-118.38441,35.93731],[-118.38405,35.93746],[-118.38375,35.93758],[-118.38345,35.93777],[-118.38333,35.93789],[-118.38325,35.93805],[-118.38316,35.93817],[-118.38294,35.93841],[-118.38283,35.93862],[-118.38265,35.93877],[-118.3825,35.93885],[-118.38242,35.93893],[-118.38241,35.93904],[-118.38273,35.9396],[-118.38305,35.93988],[-118.38332,35.94014],[-118.38367,35.94047],[-118.38382,35.94066],[-118.38387,35.94083],[-118.38383,35.94147],[-118.38388,35.9416],[-118.38401,35.94166],[-118.38493,35.94183],[-118.38581,35.94184],[-118.38602,35.9418],[-118.38687,35.9414],[-118.38711,35.94133],[-118.3873,35.94129],[-118.38754,35.94129],[-118.38787,35.94141],[-118.38801,35.94152],[-118.38805,35.94164],[-118.38802,35.94177],[-118.38793,35.94198],[-118.38792,35.9421],[-118.38798,35.94228],[-118.38812,35.94253],[-118.38824,35.94283],[-118.38832,35.94313],[-118.38834,35.94327],[-118.38834,35.94354],[-118.38829,35.94372],[-118.38817,35.94413],[-118.38808,35.94455],[-118.38791,35.94516],[-118.38785,35.94531],[-118.38777,35.94541],[-118.38751,35.94563],[-118.38699,35.94604],[-118.3865,35.94633],[-118.38631,35.94648],[-118.3862,35.94659],[-118.38616,35.94667],[-118.38616,35.94673],[-118.38619,35.94681],[-118.38629,35.94694],[-118.38645,35.94717],[-118.38654,35.94726],[-118.38666,35.94732],[-118.38679,35.94742],[-118.3869,35.94754],[-118.38703,35.94781],[-118.38714,35.94805],[-118.38722,35.94822],[-118.38725,35.94833],[-118.38726,35.94846],[-118.38724,35.94862],[-118.38717,35.94911],[-118.38709,35.94941],[-118.38706,35.94955],[-118.38696,35.95015],[-118.38694,35.95032],[-118.3869,35.95044],[-118.38675,35.95071],[-118.3866,35.95101],[-118.38638,35.95124],[-118.38604,35.95166],[-118.38584,35.95182],[-118.38561,35.95199],[-118.38553,35.95213],[-118.38548,35.95223],[-118.38531,35.95256],[-118.38528,35.95271],[-118.38536,35.95333],[-118.38532,35.95352],[-118.38501,35.95405],[-118.38493,35.95424],[-118.38486,35.95434],[-118.38475,35.95445],[-118.38471,35.95455],[-118.38468,35.95476],[-118.38471,35.95485],[-118.38481,35.95491],[-118.38503,35.95498],[-118.38517,35.95499],[-118.3854,35.95495],[-118.38563,35.9549],[-118.3858,35.95483],[-118.38627,35.95472],[-118.38675,35.95468],[-118.38686,35.95465],[-118.38694,35.95459],[-118.38713,35.95444],[-118.38721,35.9544],[-118.38729,35.95438],[-118.38742,35.95441],[-118.3877,35.95447],[-118.38783,35.95453],[-118.38789,35.95462],[-118.38791,35.95478],[-118.38782,35.95496],[-118.38754,35.95532],[-118.38736,35.95551],[-118.38722,35.95563],[-118.38719,35.95577],[-118.3872,35.95608],[-118.38716,35.95636],[-118.38722,35.95679],[-118.38741,35.95743]]}},{"type":"Feature","properties":{"name":"Corral Meadow Road","road_class":"track","surface":"compacted","tracktype":"grade2","source":"Caltrans All Roads + OpenStreetMap explicit surface","source_detail":"osm way 10675610; Caltrans All Roads public-network geometry match","source_tile":"175/402","public_network_source":"Caltrans All Roads (ARNOLD/HPMS)","surface_source":"OpenStreetMap explicit surface tag","caltrans_match_coverage":1.0,"verified_length_m":2405},"geometry":{"type":"LineString","coordinates":[[-118.36525,36.01014],[-118.36518,36.01036],[-118.36508,36.01054],[-118.36505,36.0108],[-118.36509,36.01107],[-118.36511,36.01137],[-118.36495,36.01173],[-118.36496,36.01232],[-118.36505,36.01263],[-118.36525,36.01289],[-118.36573,36.0132],[-118.36599,36.01358],[-118.36627,36.01377],[-118.36688,36.01407],[-118.36734,36.01447],[-118.36756,36.01468],[-118.36759,36.0149],[-118.36752,36.01514],[-118.36753,36.01516],[-118.36732,36.0154],[-118.36705,36.01566],[-118.36683,36.01591],[-118.36678,36.01612],[-118.36683,36.01631],[-118.36715,36.01694],[-118.36731,36.01742],[-118.36735,36.01794],[-118.36746,36.01824],[-118.3678,36.01904],[-118.36781,36.01916],[-118.36778,36.01939],[-118.36761,36.01973],[-118.36768,36.0199],[-118.36791,36.02026],[-118.36869,36.0213],[-118.36913,36.02159],[-118.36937,36.02184],[-118.36962,36.02229],[-118.36981,36.02273],[-118.36976,36.02323],[-118.36968,36.02387],[-118.36957,36.02419],[-118.3692,36.02463],[-118.36883,36.02546],[-118.36882,36.02588],[-118.3689,36.02642],[-118.36897,36.02666],[-118.36915,36.02689],[-118.36933,36.02713],[-118.36939,36.02734],[-118.36931,36.02753],[-118.36917,36.02768],[-118.36892,36.02783],[-118.36867,36.02802],[-118.36812,36.02893],[-118.36808,36.02913],[-118.36809,36.02942]]}},{"type":"Feature","properties":{"name":"Highway Pm 99","road_class":"track","surface":"unpaved","source":"Caltrans All Roads + OpenStreetMap explicit surface","source_detail":"osm way 10678570; Caltrans All Roads public-network geometry match","source_tile":"175/402","public_network_source":"Caltrans All Roads (ARNOLD/HPMS)","surface_source":"OpenStreetMap explicit surface tag","caltrans_match_coverage":1.0,"verified_length_m":694},"geometry":{"type":"LineString","coordinates":[[-118.45718,35.87474],[-118.45726,35.87506],[-118.45729,35.87526],[-118.45728,35.87537],[-118.45721,35.87544],[-118.45704,35.87552],[-118.45687,35.87561],[-118.45679,35.87561],[-118.45664,35.87557],[-118.45642,35.87548],[-118.45622,35.87542],[-118.45607,35.87542],[-118.45582,35.87549],[-118.45525,35.87564],[-118.45492,35.87565],[-118.45442,35.87573],[-118.45415,35.87578],[-118.45401,35.87577],[-118.45368,35.87567],[-118.45326,35.87556],[-118.45258,35.87542],[-118.45192,35.87534],[-118.45099,35.87528],[-118.45065,35.8753]]}},{"type":"Feature","properties":{"name":"Cherry Hill Road","road_class":"unclassified","surface":"compacted","tracktype":"grade2","source":"Caltrans All Roads + OpenStreetMap explicit surface","source_detail":"osm way 10681057; Caltrans All Roads public-network geometry match","source_tile":"175/402","public_network_source":"Caltrans All Roads (ARNOLD/HPMS)","surface_source":"OpenStreetMap explicit surface tag","caltrans_match_coverage":1.0,"verified_length_m":24213},"geometry":{"type":"LineString","coordinates":[[-118.2996,35.80524],[-118.29907,35.80557],[-118.29884,35.80591],[-118.29882,35.80631],[-118.29889,35.80679],[-118.29892,35.80728],[-118.29901,35.80749],[-118.2992,35.80773],[-118.29952,35.80793],[-118.30149,35.80861],[-118.30373,35.80957],[-118.304,35.80976],[-118.30414,35.80996],[-118.30475,35.81193],[-118.30502,35.81263],[-118.30518,35.81295],[-118.30623,35.81414],[-118.30658,35.81461],[-118.30681,35.81481],[-118.30685,35.81493],[-118.30694,35.81542],[-118.30699,35.8155],[-118.3077,35.8161],[-118.30804,35.81636],[-118.30822,35.81649],[-118.30834,35.81662],[-118.30841,35.81684],[-118.30843,35.81707],[-118.30839,35.81737],[-118.30831,35.81772],[-118.30835,35.81803],[-118.30845,35.81821],[-118.30869,35.81834],[-118.30895,35.81841],[-118.3091,35.81842],[-118.30999,35.81833],[-118.31112,35.81827],[-118.31206,35.81825],[-118.31236,35.8182],[-118.31329,35.81789],[-118.3136,35.81781],[-118.31522,35.81754],[-118.31583,35.81741],[-118.31608,35.81739],[-118.31696,35.81742],[-118.31759,35.81744],[-118.3179,35.81746],[-118.31846,35.81746],[-118.31871,35.81754],[-118.31896,35.81767],[-118.31914,35.81789],[-118.3196,35.819],[-118.31984,35.81943],[-118.31994,35.81956],[-118.3206,35.81999],[-118.32118,35.82033],[-118.32162,35.82054],[-118.32185,35.82058],[-118.32211,35.82056],[-118.32239,35.8205],[-118.32451,35.81963],[-118.32555,35.81919],[-118.32573,35.81915],[-118.32596,35.81917],[-118.32613,35.81923],[-118.32631,35.81934],[-118.32653,35.81959],[-118.32682,35.82008],[-118.32703,35.82034],[-118.32717,35.82044],[-118.3276,35.82063],[-118.32802,35.82085],[-118.32825,35.82093],[-118.3284,35.82096],[-118.32858,35.82095],[-118.32947,35.82074],[-118.32974,35.82076],[-118.33011,35.82083],[-118.33048,35.82095],[-118.33075,35.82098],[-118.33162,35.82089],[-118.33177,35.82089],[-118.33191,35.82092],[-118.33206,35.82102],[-118.33243,35.82137],[-118.33287,35.82186],[-118.33323,35.82212],[-118.33376,35.82239],[-118.33394,35.82242],[-118.33408,35.82242],[-118.33429,35.82237],[-118.3346,35.82222],[-118.33498,35.82198],[-118.33536,35.82178],[-118.33562,35.82168],[-118.33587,35.82167],[-118.33615,35.82171],[-118.3364,35.82177],[-118.33658,35.82185],[-118.33675,35.82199],[-118.33683,35.82215],[-118.33695,35.82236],[-118.33723,35.82318],[-118.33741,35.8238],[-118.33741,35.82405],[-118.33734,35.82433],[-118.33711,35.82508],[-118.33698,35.82538],[-118.33683,35.82565],[-118.33668,35.8258],[-118.33648,35.82594],[-118.33619,35.82609],[-118.33599,35.82621],[-118.33575,35.82642],[-118.33564,35.82655],[-118.33552,35.82678],[-118.33546,35.82702],[-118.33536,35.82728],[-118.33524,35.82777],[-118.33521,35.82801],[-118.33515,35.8283],[-118.33507,35.82856],[-118.33484,35.82904],[-118.33453,35.82978],[-118.33444,35.82995],[-118.33432,35.83011],[-118.334,35.83039],[-118.33389,35.83055],[-118.3339,35.8307],[-118.33396,35.83085],[-118.33414,35.83116],[-118.33444,35.83153],[-118.33487,35.8323],[-118.33495,35.83253],[-118.33498,35.83285],[-118.33494,35.833],[-118.33485,35.83311],[-118.33437,35.83341],[-118.33355,35.8339],[-118.33331,35.83411],[-118.33325,35.83428],[-118.33331,35.83452],[-118.33342,35.83463],[-118.33361,35.83468],[-118.33382,35.8347],[-118.33463,35.83461],[-118.33538,35.83469],[-118.33562,35.83472],[-118.33679,35.83515],[-118.33693,35.83516],[-118.33707,35.83514],[-118.33807,35.8347],[-118.33837,35.83456],[-118.33858,35.83446],[-118.33873,35.83441],[-118.33885,35.83442],[-118.33903,35.83447],[-118.33921,35.83455],[-118.33934,35.83463],[-118.33953,35.8348],[-118.33983,35.83504],[-118.34064,35.83558],[-118.34084,35.83565],[-118.34101,35.83568],[-118.34118,35.83569],[-118.34137,35.83567],[-118.34154,35.83568],[-118.34169,35.83573],[-118.34183,35.8358],[-118.34198,35.83591],[-118.34211,35.8361],[-118.34229,35.83653],[-118.34241,35.8369],[-118.34248,35.83727],[-118.34252,35.83749],[-118.34252,35.83767],[-118.34248,35.83783],[-118.3421,35.8385],[-118.34198,35.83869],[-118.34183,35.8388],[-118.34164,35.83886],[-118.34145,35.8389],[-118.34129,35.83897],[-118.34109,35.8391],[-118.34046,35.83966],[-118.34024,35.83987],[-118.34011,35.84006],[-118.34006,35.84022],[-118.34009,35.84042],[-118.34016,35.84062],[-118.34031,35.84084],[-118.3405,35.84101],[-118.34067,35.84108],[-118.3409,35.84113],[-118.34147,35.84114],[-118.34177,35.84117],[-118.34196,35.84125],[-118.34219,35.84143],[-118.34243,35.84172],[-118.34267,35.84218],[-118.34286,35.84242],[-118.34321,35.84269],[-118.34369,35.84297],[-118.34417,35.84341],[-118.34448,35.84387],[-118.3446,35.8441],[-118.34464,35.84431],[-118.3448,35.84601],[-118.34477,35.84652],[-118.34476,35.84691],[-118.34483,35.84715],[-118.34522,35.84794],[-118.3455,35.84838],[-118.34573,35.84886],[-118.34577,35.84912],[-118.34589,35.8507],[-118.34585,35.85113],[-118.34589,35.8514],[-118.34596,35.8516],[-118.34609,35.85181],[-118.34623,35.85211],[-118.34623,35.85243],[-118.34615,35.85294],[-118.34605,35.85334],[-118.34603,35.85364],[-118.34604,35.85389],[-118.34612,35.85426],[-118.34625,35.85483],[-118.3463,35.85512],[-118.34627,35.85552],[-118.34622,35.85581],[-118.34569,35.85728],[-118.34555,35.8578],[-118.34541,35.85815],[-118.34505,35.85869],[-118.34486,35.85921],[-118.34478,35.85951],[-118.34475,35.85988],[-118.34478,35.86011],[-118.34487,35.86032],[-118.34523,35.86112],[-118.34549,35.86176],[-118.34569,35.86212],[-118.34588,35.8624],[-118.3462,35.8627],[-118.3467,35.86305],[-118.34697,35.86319],[-118.34761,35.86343],[-118.34797,35.86362],[-118.34817,35.86375],[-118.34839,35.86392],[-118.34867,35.86431],[-118.34879,35.86444],[-118.34894,35.86451],[-118.34907,35.86453],[-118.34925,35.86452],[-118.3497,35.86444],[-118.3502,35.8643],[-118.35042,35.86429],[-118.35059,35.86434],[-118.35068,35.86445],[-118.35073,35.86459],[-118.35072,35.86476],[-118.35042,35.86569],[-118.35035,35.86602],[-118.35032,35.86621],[-118.3504,35.8667],[-118.35037,35.86687],[-118.35026,35.86707],[-118.35025,35.86721],[-118.35028,35.86738],[-118.35039,35.86763],[-118.35047,35.8678],[-118.35069,35.86797],[-118.35082,35.86802],[-118.35098,35.86807],[-118.35112,35.86814],[-118.35126,35.86826],[-118.35132,35.8684],[-118.35135,35.86855],[-118.35135,35.86889],[-118.35137,35.86952],[-118.3514,35.86977],[-118.35151,35.87016],[-118.35163,35.87049],[-118.35164,35.87057],[-118.35163,35.87068],[-118.35154,35.87076],[-118.35136,35.87091],[-118.35111,35.87114],[-118.35102,35.87124],[-118.35096,35.87138],[-118.35097,35.87153],[-118.35103,35.87165],[-118.3512,35.87178],[-118.35146,35.87193],[-118.35156,35.87203],[-118.35159,35.87214],[-118.35158,35.87224],[-118.3515,35.87232],[-118.35127,35.87252],[-118.35115,35.87265],[-118.35111,35.8728],[-118.35111,35.87305],[-118.35119,35.87353],[-118.35137,35.87378],[-118.35208,35.8746],[-118.35291,35.8756],[-118.3534,35.87613],[-118.35369,35.87661],[-118.35383,35.87696],[-118.35392,35.87736],[-118.35391,35.87755],[-118.3538,35.87772],[-118.35338,35.87806],[-118.35283,35.87852],[-118.35059,35.88029],[-118.35004,35.88075],[-118.34946,35.88139],[-118.34903,35.88198],[-118.34868,35.88241],[-118.34839,35.88271],[-118.34815,35.88288],[-118.34733,35.88335],[-118.34604,35.88407],[-118.34497,35.88469],[-118.3445,35.88493],[-118.34389,35.88529],[-118.34354,35.88553],[-118.34346,35.88564],[-118.34335,35.88586],[-118.34311,35.88646],[-118.34302,35.88679],[-118.34275,35.88833],[-118.34271,35.88856],[-118.34269,35.88878],[-118.34278,35.88904],[-118.34299,35.88923],[-118.34332,35.88943],[-118.34565,35.89096],[-118.34606,35.89123],[-118.34741,35.89213],[-118.34813,35.89268],[-118.34848,35.89302],[-118.34904,35.89368],[-118.34966,35.89438],[-118.34983,35.89465],[-118.34985,35.89489],[-118.34974,35.89523],[-118.34949,35.89566],[-118.34943,35.89583],[-118.34943,35.89597],[-118.34957,35.89617],[-118.34969,35.8963],[-118.34988,35.89634],[-118.35078,35.89626],[-118.35111,35.8963],[-118.35136,35.89638],[-118.3519,35.89667],[-118.35216,35.89678],[-118.35244,35.89688],[-118.35298,35.89709],[-118.35331,35.89725],[-118.35359,35.89746],[-118.35407,35.89803],[-118.35443,35.89828],[-118.35484,35.89851],[-118.35542,35.89895],[-118.35614,35.89948],[-118.35626,35.89963],[-118.35651,35.90019],[-118.35665,35.90039],[-118.35699,35.90074],[-118.35702,35.90085],[-118.35707,35.90114],[-118.3572,35.90148],[-118.35739,35.90169],[-118.35757,35.90182],[-118.35804,35.90209],[-118.35812,35.90217],[-118.35832,35.90241],[-118.35857,35.90267],[-118.35897,35.90297],[-118.35911,35.90315],[-118.35916,35.90329],[-118.3592,35.90373],[-118.35927,35.90386],[-118.35942,35.90394],[-118.35962,35.90397],[-118.36014,35.90393],[-118.36043,35.90397],[-118.36116,35.90428],[-118.36135,35.90439],[-118.36215,35.90519],[-118.3623,35.9053],[-118.36281,35.90561],[-118.36291,35.90576],[-118.36304,35.90647],[-118.36307,35.90668],[-118.36321,35.90681],[-118.36374,35.90711],[-118.36403,35.90736],[-118.36411,35.90749],[-118.36415,35.90795],[-118.36425,35.90804],[-118.36451,35.90814],[-118.36469,35.90826],[-118.36593,35.90955],[-118.36608,35.90974],[-118.3661,35.90987],[-118.36607,35.91],[-118.36552,35.91066],[-118.36543,35.91085],[-118.3654,35.91097],[-118.36545,35.91111],[-118.36556,35.91121],[-118.36572,35.91127],[-118.36589,35.91124],[-118.36634,35.91101],[-118.36657,35.91099],[-118.36681,35.91101],[-118.36716,35.91109],[-118.36776,35.91124],[-118.36893,35.91132],[-118.36928,35.9114],[-118.36957,35.91156],[-118.37009,35.91197],[-118.37032,35.91214],[-118.3707,35.91231],[-118.37088,35.91247],[-118.37094,35.91261],[-118.37114,35.913],[-118.37133,35.91316],[-118.37165,35.91331],[-118.37202,35.91342],[-118.37221,35.91353],[-118.37234,35.91368],[-118.37237,35.91384],[-118.37232,35.91424],[-118.37242,35.91463],[-118.37245,35.91487],[-118.37255,35.91509],[-118.37268,35.91523],[-118.37291,35.91538],[-118.37302,35.91548],[-118.37326,35.91586],[-118.37343,35.91595],[-118.3738,35.91606],[-118.37409,35.9162],[-118.37465,35.91658],[-118.37497,35.91678],[-118.37514,35.91691],[-118.37554,35.91737],[-118.37597,35.91775],[-118.37667,35.91814],[-118.37726,35.91843],[-118.37778,35.91861],[-118.37849,35.91882],[-118.37869,35.91885],[-118.37895,35.91885],[-118.37924,35.91889],[-118.37962,35.91904],[-118.37999,35.91908],[-118.38028,35.9191],[-118.38067,35.91909],[-118.38093,35.91905],[-118.38109,35.91904],[-118.38126,35.91909],[-118.38136,35.91917],[-118.38146,35.9194],[-118.38164,35.91957],[-118.3818,35.91963],[-118.38207,35.91964],[-118.38225,35.91968],[-118.38262,35.91984],[-118.38278,35.91987],[-118.38314,35.91985],[-118.38333,35.91979],[-118.38347,35.91968],[-118.38377,35.91936],[-118.38389,35.91926],[-118.384,35.91924],[-118.38411,35.91927],[-118.38418,35.91933],[-118.38422,35.91941],[-118.38423,35.91952],[-118.38421,35.91963],[-118.38409,35.91995],[-118.38407,35.92008],[-118.38408,35.9202],[-118.38414,35.92028],[-118.38424,35.92034],[-118.38436,35.92036],[-118.38446,35.92033],[-118.38479,35.92016],[-118.38492,35.92012],[-118.38505,35.92015],[-118.38511,35.92021],[-118.38523,35.9204],[-118.38534,35.92053],[-118.3856,35.92072],[-118.38576,35.92089],[-118.38594,35.92113],[-118.38612,35.92119],[-118.38624,35.92116],[-118.38657,35.92102],[-118.38674,35.92097],[-118.3869,35.92097],[-118.38742,35.9211],[-118.38767,35.9212],[-118.38775,35.92127],[-118.38779,35.92133],[-118.3878,35.92146],[-118.38775,35.92156],[-118.38755,35.92174],[-118.38723,35.92194],[-118.38692,35.92222],[-118.38688,35.92237],[-118.38687,35.92303],[-118.38686,35.92325],[-118.38698,35.92385],[-118.38697,35.92416],[-118.38705,35.92442],[-118.38714,35.92463],[-118.3874,35.92494],[-118.38752,35.92504],[-118.38785,35.92522],[-118.38792,35.92532],[-118.38806,35.92568],[-118.38832,35.92628],[-118.38868,35.92658],[-118.38883,35.92664],[-118.38921,35.92676],[-118.38938,35.92687],[-118.38954,35.92701],[-118.38981,35.92739],[-118.39009,35.92767],[-118.39057,35.92838],[-118.39067,35.92846],[-118.3908,35.92849],[-118.3909,35.92848],[-118.39136,35.92837],[-118.39149,35.9284],[-118.39163,35.92846],[-118.39175,35.92856],[-118.39226,35.92897],[-118.39248,35.92912],[-118.39301,35.92937],[-118.39325,35.92953],[-118.39341,35.92958],[-118.39354,35.92958],[-118.39366,35.92952],[-118.39397,35.92931],[-118.39432,35.92915],[-118.39463,35.92896],[-118.39487,35.92884],[-118.39516,35.92877],[-118.39554,35.92872],[-118.39605,35.92878],[-118.39624,35.92878],[-118.3964,35.92881],[-118.39661,35.92893],[-118.39684,35.92917],[-118.39709,35.9293],[-118.39717,35.92937],[-118.39718,35.92949],[-118.3971,35.92969],[-118.39707,35.92982],[-118.39712,35.92998],[-118.39723,35.93008],[-118.39736,35.9301],[-118.39752,35.93008],[-118.39785,35.92993],[-118.39801,35.92992],[-118.39829,35.92995],[-118.39846,35.92994],[-118.39868,35.92989],[-118.39889,35.92989],[-118.3991,35.92994],[-118.39922,35.92996],[-118.39945,35.92996],[-118.39981,35.9299],[-118.39999,35.92989],[-118.40007,35.92993],[-118.40013,35.93],[-118.40014,35.93033],[-118.40005,35.93046],[-118.40001,35.93058],[-118.40004,35.93069],[-118.40015,35.93077],[-118.40035,35.93086],[-118.40044,35.93096],[-118.40047,35.9311],[-118.40047,35.93129],[-118.40037,35.93141],[-118.40023,35.93147],[-118.40008,35.93147],[-118.39986,35.93142],[-118.39965,35.93135],[-118.39934,35.93133],[-118.39917,35.9314],[-118.3991,35.93153],[-118.39912,35.93163],[-118.39924,35.93183],[-118.39939,35.93193],[-118.39973,35.93198],[-118.39989,35.93204],[-118.40002,35.93227],[-118.40026,35.93259],[-118.40045,35.93267],[-118.40074,35.93269],[-118.40116,35.93266],[-118.40138,35.93269],[-118.40149,35.93277],[-118.40154,35.93288],[-118.40153,35.93301],[-118.40131,35.93336],[-118.40111,35.93349],[-118.40091,35.93358],[-118.40085,35.93365],[-118.40082,35.9337],[-118.40082,35.93379],[-118.40089,35.93388],[-118.40107,35.93399],[-118.40123,35.93402],[-118.40145,35.934],[-118.40158,35.93402],[-118.40165,35.93407],[-118.40172,35.93417],[-118.40174,35.93424],[-118.40165,35.93438],[-118.4015,35.93449],[-118.40129,35.93451],[-118.4011,35.93449],[-118.40076,35.93441],[-118.4,35.93453],[-118.39974,35.93451],[-118.39952,35.93451],[-118.399,35.93478],[-118.39886,35.93495],[-118.39877,35.93513],[-118.39869,35.93521],[-118.39851,35.93526],[-118.39834,35.93524],[-118.39822,35.93515],[-118.39819,35.93509],[-118.39818,35.93498],[-118.39821,35.93489],[-118.39852,35.93455],[-118.39855,35.93446],[-118.39855,35.93433],[-118.39846,35.9342],[-118.39836,35.93415],[-118.39822,35.93418],[-118.39753,35.93457],[-118.39714,35.93477],[-118.39692,35.93483],[-118.39676,35.93484]]}},{"type":"Feature","properties":{"name":"Big Meadow Road","road_class":"track","surface":"compacted","tracktype":"grade2","source":"Caltrans All Roads + OpenStreetMap explicit surface","source_detail":"osm way 10681082; Caltrans All Roads public-network geometry match","source_tile":"175/402","public_network_source":"Caltrans All Roads (ARNOLD/HPMS)","surface_source":"OpenStreetMap explicit surface tag","caltrans_match_coverage":1.0,"verified_length_m":9487},"geometry":{"type":"LineString","coordinates":[[-118.34565,35.89096],[-118.34503,35.8907],[-118.3447,35.89057],[-118.34441,35.89052],[-118.34399,35.89049],[-118.34373,35.89051],[-118.34347,35.89056],[-118.34263,35.89081],[-118.34233,35.89092],[-118.34212,35.89107],[-118.34198,35.89122],[-118.34175,35.89154],[-118.34145,35.89176],[-118.34112,35.89202],[-118.34014,35.89295],[-118.33994,35.89317],[-118.33967,35.89368],[-118.33958,35.89415],[-118.33948,35.89441],[-118.33914,35.89492],[-118.33882,35.89562],[-118.33868,35.89602],[-118.33849,35.89633],[-118.3383,35.89663],[-118.33808,35.89699],[-118.33803,35.89707],[-118.33793,35.89716],[-118.33779,35.89724],[-118.33761,35.8973],[-118.3375,35.89732],[-118.33735,35.89729],[-118.33712,35.89716],[-118.33697,35.89706],[-118.33678,35.89688],[-118.33638,35.89638],[-118.33626,35.89614],[-118.33623,35.89599],[-118.33626,35.89582],[-118.33638,35.89556],[-118.33655,35.89527],[-118.3367,35.89505],[-118.33682,35.89475],[-118.33685,35.89455],[-118.33683,35.89423],[-118.33676,35.89397],[-118.33661,35.8936],[-118.33636,35.89311],[-118.33612,35.89262],[-118.33591,35.89214],[-118.33539,35.89135],[-118.33528,35.89114],[-118.33517,35.89081],[-118.3347,35.89014],[-118.33458,35.8899],[-118.33446,35.88953],[-118.33432,35.88924],[-118.33414,35.88894],[-118.33391,35.88855],[-118.33369,35.88834],[-118.33344,35.88813],[-118.33319,35.88786],[-118.33295,35.88748],[-118.33215,35.88649],[-118.33204,35.88624],[-118.33192,35.88558],[-118.3319,35.88508],[-118.332,35.88475],[-118.3322,35.88434],[-118.33237,35.88414],[-118.33267,35.88382],[-118.33279,35.88364],[-118.33283,35.88345],[-118.33288,35.88275],[-118.33284,35.88243],[-118.33276,35.88219],[-118.3326,35.88185],[-118.33248,35.88166],[-118.33217,35.88134],[-118.33182,35.881],[-118.33165,35.88078],[-118.33144,35.88045],[-118.33084,35.8795],[-118.33048,35.87907],[-118.33019,35.87876],[-118.32985,35.87831],[-118.32973,35.87823],[-118.32956,35.87814],[-118.32931,35.87806],[-118.32886,35.87796],[-118.32864,35.87785],[-118.32847,35.87776],[-118.32809,35.87748],[-118.32788,35.8773],[-118.32747,35.87682],[-118.32735,35.87669],[-118.32715,35.87653],[-118.32705,35.87642],[-118.32698,35.87632],[-118.32695,35.87618],[-118.32696,35.87553],[-118.32665,35.87486],[-118.32653,35.87456],[-118.32652,35.87435],[-118.32656,35.87399],[-118.32655,35.87385],[-118.3263,35.87332],[-118.32624,35.87311],[-118.3259,35.87259],[-118.3258,35.87243],[-118.32579,35.87226],[-118.32586,35.87211],[-118.32601,35.87201],[-118.32627,35.87179],[-118.32649,35.87151],[-118.3266,35.87132],[-118.32669,35.8712],[-118.32691,35.87097],[-118.32695,35.87087],[-118.32697,35.87073],[-118.32694,35.87054],[-118.32682,35.87014],[-118.32679,35.8699],[-118.32679,35.86969],[-118.32671,35.86942],[-118.32662,35.86916],[-118.32648,35.86883],[-118.32644,35.86788],[-118.32644,35.86778],[-118.32637,35.86721],[-118.32634,35.86684],[-118.3264,35.86659],[-118.32651,35.86592],[-118.32667,35.8655],[-118.32678,35.86538],[-118.32691,35.86525],[-118.32698,35.86508],[-118.32699,35.86495],[-118.32696,35.86488],[-118.3267,35.86467],[-118.3266,35.86454],[-118.3265,35.8644],[-118.32652,35.86422],[-118.32661,35.8641],[-118.32669,35.86398],[-118.32676,35.86376],[-118.32677,35.86365],[-118.32684,35.86355],[-118.32708,35.86336],[-118.32726,35.86324],[-118.32758,35.86312],[-118.3277,35.86308],[-118.32782,35.86292],[-118.32781,35.86282],[-118.32776,35.8627],[-118.32767,35.86262],[-118.32748,35.86245],[-118.32743,35.86237],[-118.32744,35.8623],[-118.32759,35.86203],[-118.32765,35.86193],[-118.32766,35.8618],[-118.32762,35.86168],[-118.32754,35.8616],[-118.32731,35.86147],[-118.32694,35.8613],[-118.32685,35.86121],[-118.32676,35.8611],[-118.32674,35.86098],[-118.32679,35.86088],[-118.3269,35.86079],[-118.32702,35.86075],[-118.32717,35.86071],[-118.32748,35.86066],[-118.32796,35.86056],[-118.32825,35.86048],[-118.32842,35.86042],[-118.32886,35.86027],[-118.32895,35.86017],[-118.32898,35.86009],[-118.32896,35.85994],[-118.32889,35.85975],[-118.32888,35.8596],[-118.32889,35.85949],[-118.32893,35.8593],[-118.32901,35.85914],[-118.32908,35.85905],[-118.32924,35.85892],[-118.32947,35.8588],[-118.3296,35.85876],[-118.3298,35.85874],[-118.33043,35.85873],[-118.33071,35.85875],[-118.33089,35.8588],[-118.33104,35.85886],[-118.33124,35.85898],[-118.33131,35.85904],[-118.33134,35.85917],[-118.3313,35.85986],[-118.33131,35.86035],[-118.33138,35.86075],[-118.33143,35.8609],[-118.3315,35.86099],[-118.33164,35.86105],[-118.33186,35.8611],[-118.3322,35.86116],[-118.33237,35.86115],[-118.33251,35.86112],[-118.33261,35.86108],[-118.33281,35.861],[-118.33295,35.86096],[-118.33307,35.86095],[-118.33354,35.86101],[-118.33379,35.86107],[-118.33398,35.8611],[-118.33426,35.86111],[-118.33466,35.86116],[-118.3348,35.86116],[-118.33498,35.86116],[-118.33513,35.86117],[-118.33525,35.86121],[-118.33561,35.86142],[-118.33596,35.86169],[-118.33616,35.86176],[-118.33665,35.86188],[-118.33683,35.86198],[-118.33692,35.86207],[-118.33704,35.86228],[-118.33707,35.86248],[-118.33703,35.86268],[-118.33694,35.86295],[-118.3369,35.86316],[-118.33692,35.8635],[-118.33701,35.86372],[-118.33711,35.86387],[-118.33736,35.86416],[-118.33743,35.86433],[-118.33747,35.86453],[-118.33744,35.86477],[-118.33737,35.86502],[-118.33736,35.86512],[-118.33736,35.86527],[-118.33746,35.8655],[-118.33763,35.86571],[-118.3377,35.86588],[-118.33772,35.86641],[-118.33775,35.86658],[-118.33784,35.86672],[-118.33799,35.86685],[-118.33822,35.86691],[-118.33853,35.86695],[-118.33865,35.86693],[-118.33878,35.8669],[-118.33892,35.86683],[-118.33911,35.86672],[-118.33922,35.86668],[-118.33934,35.86666],[-118.33951,35.86665],[-118.33965,35.8667],[-118.33976,35.86676],[-118.34012,35.86713],[-118.34037,35.8675],[-118.34047,35.86758],[-118.3407,35.86771],[-118.34092,35.86785],[-118.34112,35.86798],[-118.34127,35.86806],[-118.34144,35.86812],[-118.34154,35.86814],[-118.34177,35.86812],[-118.34193,35.86809],[-118.34218,35.868],[-118.34238,35.86796],[-118.34254,35.86794],[-118.34273,35.86795],[-118.34288,35.86797],[-118.34324,35.86804],[-118.34342,35.86805],[-118.34355,35.86803],[-118.3437,35.86795],[-118.34395,35.86781],[-118.34414,35.86771],[-118.34446,35.86757],[-118.34468,35.86746],[-118.34483,35.86733],[-118.34506,35.86704],[-118.34527,35.86674],[-118.3454,35.86667],[-118.34554,35.86661],[-118.34567,35.86659],[-118.34584,35.86662],[-118.34599,35.86666],[-118.34609,35.86675],[-118.34617,35.8669],[-118.34635,35.86734],[-118.34643,35.86742],[-118.34657,35.86748],[-118.34685,35.86758],[-118.34705,35.86772],[-118.34725,35.86788],[-118.3479,35.86813],[-118.34803,35.86822],[-118.34828,35.86852],[-118.34871,35.86874],[-118.3488,35.86884],[-118.34885,35.86897],[-118.34886,35.86923],[-118.3489,35.86935],[-118.349,35.86951],[-118.34925,35.86978],[-118.34967,35.8701],[-118.3499,35.87032],[-118.35005,35.87051],[-118.35014,35.87072],[-118.35027,35.87107],[-118.35028,35.87117],[-118.35029,35.87136],[-118.35034,35.8716],[-118.35043,35.87177],[-118.35073,35.87203],[-118.35084,35.87219],[-118.35088,35.87228],[-118.35091,35.87243],[-118.35091,35.87265],[-118.35099,35.87304],[-118.35109,35.87339],[-118.35119,35.87353]]}},{"type":"Feature","properties":{"name":"North Rattlesnake Road","road_class":"track","surface":"compacted","tracktype":"grade2","source":"Caltrans All Roads + OpenStreetMap explicit surface","source_detail":"osm way 10681524; Caltrans All Roads public-network geometry match","source_tile":"175/402","public_network_source":"Caltrans All Roads (ARNOLD/HPMS)","surface_source":"OpenStreetMap explicit surface tag","caltrans_match_coverage":1.0,"verified_length_m":1942},"geometry":{"type":"LineString","coordinates":[[-118.26535,35.8111],[-118.26554,35.81118],[-118.26722,35.8122],[-118.26785,35.81256],[-118.26866,35.81305],[-118.26904,35.81327],[-118.26941,35.81347],[-118.26961,35.81355],[-118.26982,35.81361],[-118.27014,35.81364],[-118.27129,35.81367],[-118.27261,35.81368],[-118.27318,35.81372],[-118.2736,35.81374],[-118.274,35.81372],[-118.27451,35.81363],[-118.2748,35.81352],[-118.27503,35.8133],[-118.27535,35.81294],[-118.27549,35.81273],[-118.27556,35.81255],[-118.27555,35.81238],[-118.27544,35.81187],[-118.27545,35.81165],[-118.2755,35.8114],[-118.27562,35.81118],[-118.27598,35.81084],[-118.27686,35.81015],[-118.27726,35.80988],[-118.27759,35.80973],[-118.27791,35.80964],[-118.27831,35.80958],[-118.27955,35.80938],[-118.28018,35.80927],[-118.2805,35.8092],[-118.28076,35.80908],[-118.28109,35.80888],[-118.2816,35.80847],[-118.28222,35.80802]]}},{"type":"Feature","properties":{"name":"Taylor Road","road_class":"track","surface":"compacted","tracktype":"grade2","source":"Caltrans All Roads + OpenStreetMap explicit surface","source_detail":"osm way 10681726; Caltrans All Roads public-network geometry match","source_tile":"175/402","public_network_source":"Caltrans All Roads (ARNOLD/HPMS)","surface_source":"OpenStreetMap explicit surface tag","caltrans_match_coverage":1.0,"verified_length_m":9240},"geometry":{"type":"LineString","coordinates":[[-118.26631,35.84023],[-118.26642,35.84024],[-118.26656,35.84028],[-118.26682,35.84025],[-118.26695,35.84009],[-118.26704,35.84003],[-118.26717,35.84001],[-118.26733,35.84004],[-118.26751,35.84006],[-118.26767,35.84003],[-118.26818,35.8399],[-118.26836,35.83988],[-118.2686,35.83992],[-118.2688,35.83999],[-118.26907,35.8402],[-118.26935,35.84031],[-118.26949,35.84033],[-118.26958,35.84032],[-118.26981,35.84016],[-118.26995,35.84013],[-118.27016,35.84012],[-118.27023,35.8401],[-118.27049,35.83982],[-118.27052,35.83969],[-118.2705,35.83955],[-118.27045,35.83936],[-118.27042,35.8392],[-118.27039,35.83894],[-118.27038,35.83855],[-118.27036,35.83847],[-118.27026,35.83839],[-118.27015,35.83832],[-118.27012,35.83819],[-118.2702,35.83802],[-118.2702,35.83793],[-118.27003,35.83763],[-118.26994,35.83755],[-118.26964,35.83736],[-118.26945,35.83721],[-118.26938,35.83713],[-118.26936,35.83702],[-118.26938,35.83694],[-118.26951,35.83688],[-118.26968,35.83683],[-118.26985,35.83681],[-118.27008,35.83683],[-118.27046,35.83693],[-118.27092,35.83704],[-118.27132,35.83712],[-118.27148,35.83714],[-118.2717,35.83715],[-118.27218,35.83713],[-118.27245,35.83711],[-118.27261,35.83715],[-118.27278,35.8373],[-118.27285,35.83733],[-118.27297,35.83734],[-118.27319,35.83732],[-118.27331,35.83734],[-118.27387,35.83745],[-118.27397,35.83746],[-118.27406,35.83744],[-118.27432,35.83735],[-118.27466,35.83714],[-118.27486,35.837],[-118.275,35.83695],[-118.27514,35.83693],[-118.27529,35.83695],[-118.27541,35.83693],[-118.27545,35.83687],[-118.27554,35.83657],[-118.27557,35.83623],[-118.27563,35.83597],[-118.27569,35.83588],[-118.27582,35.83571],[-118.27599,35.83558],[-118.27612,35.83553],[-118.2764,35.83549],[-118.27649,35.83544],[-118.27679,35.83518],[-118.277,35.83491],[-118.2771,35.83483],[-118.27719,35.83466],[-118.27723,35.83455],[-118.27751,35.83395],[-118.27751,35.83392],[-118.27749,35.83386],[-118.27734,35.83374],[-118.27692,35.83333],[-118.27668,35.83302],[-118.2765,35.83263],[-118.27632,35.83206],[-118.27608,35.83138],[-118.27581,35.83054],[-118.27552,35.82971],[-118.2754,35.82886],[-118.27538,35.82857],[-118.27544,35.82786],[-118.27543,35.82749],[-118.27548,35.82674],[-118.27546,35.82597],[-118.27552,35.82541],[-118.27552,35.8252],[-118.27549,35.825],[-118.2754,35.82481],[-118.27531,35.82462],[-118.27518,35.82445],[-118.27508,35.82434],[-118.2748,35.82412],[-118.27431,35.82375],[-118.27373,35.82329],[-118.2734,35.82304],[-118.27292,35.8227],[-118.27181,35.82182],[-118.2717,35.8217],[-118.27131,35.82112],[-118.27104,35.82076],[-118.27076,35.82037],[-118.2702,35.8196],[-118.27006,35.81943],[-118.26985,35.81919],[-118.26943,35.81884],[-118.26907,35.81858],[-118.2687,35.81834],[-118.26789,35.81786],[-118.26701,35.8173],[-118.26648,35.81694],[-118.26608,35.81674],[-118.26575,35.81663],[-118.26537,35.81656],[-118.2649,35.81652],[-118.26442,35.8165],[-118.26386,35.81646],[-118.26355,35.81641],[-118.26337,35.81635],[-118.26322,35.81624],[-118.26309,35.81611],[-118.26301,35.81598],[-118.26299,35.81585],[-118.26303,35.8157],[-118.26312,35.81555],[-118.26325,35.81541],[-118.26339,35.81533],[-118.26381,35.81514],[-118.26409,35.81499],[-118.26424,35.81485],[-118.26433,35.81467],[-118.2644,35.81444],[-118.26446,35.81398],[-118.26461,35.81334],[-118.26471,35.81269],[-118.2648,35.81218],[-118.26488,35.81182],[-118.26495,35.81158],[-118.26508,35.81139],[-118.26535,35.8111],[-118.26517,35.81094],[-118.26503,35.81076],[-118.26493,35.81058],[-118.2649,35.81041],[-118.26488,35.8102],[-118.26492,35.81005],[-118.26499,35.80991],[-118.26512,35.80974],[-118.26589,35.80909],[-118.26625,35.80877],[-118.26717,35.80797],[-118.26749,35.80767],[-118.26773,35.80736],[-118.26847,35.80621],[-118.26867,35.80594],[-118.26937,35.80496],[-118.26953,35.80479],[-118.26975,35.80462],[-118.27003,35.80445],[-118.27043,35.80419],[-118.27106,35.8038],[-118.27189,35.80327],[-118.27208,35.80317],[-118.27224,35.80313],[-118.27245,35.80311],[-118.27264,35.80313],[-118.27291,35.8032],[-118.27363,35.80349],[-118.27394,35.80359],[-118.27413,35.80364],[-118.27434,35.80366],[-118.27456,35.80364],[-118.27488,35.80358],[-118.27519,35.80351],[-118.27541,35.80349],[-118.27569,35.80349],[-118.27591,35.80355],[-118.2761,35.80365],[-118.27629,35.80378],[-118.2765,35.80404],[-118.27683,35.80452],[-118.27711,35.80492],[-118.27763,35.80571],[-118.27787,35.80605],[-118.27809,35.80635],[-118.27829,35.80654],[-118.27854,35.8067],[-118.27881,35.80682],[-118.27957,35.80712],[-118.28172,35.80783],[-118.28222,35.80802],[-118.28291,35.80821],[-118.28341,35.80841],[-118.28386,35.80859],[-118.28407,35.80869],[-118.28422,35.8088],[-118.28432,35.80896],[-118.2844,35.80918],[-118.2845,35.80955],[-118.28458,35.8097],[-118.28467,35.80979],[-118.28481,35.80988],[-118.28498,35.80995],[-118.28524,35.80998],[-118.28571,35.81006],[-118.28621,35.81012],[-118.28646,35.81013],[-118.2887,35.80994],[-118.29004,35.80986],[-118.29065,35.80981],[-118.29164,35.80977],[-118.29195,35.8097],[-118.29289,35.80942],[-118.2931,35.8093],[-118.29324,35.80919],[-118.29357,35.80879],[-118.29404,35.80827],[-118.29414,35.80809],[-118.29419,35.80793],[-118.29427,35.80731],[-118.29437,35.80684],[-118.29446,35.80666],[-118.29463,35.8065],[-118.29485,35.80636],[-118.29518,35.80624],[-118.29603,35.80594],[-118.29661,35.80577],[-118.29713,35.80563],[-118.29777,35.8055],[-118.29798,35.80541],[-118.29815,35.80529],[-118.29843,35.8051],[-118.29864,35.80497],[-118.29882,35.80489],[-118.29899,35.80485],[-118.29921,35.80487],[-118.29937,35.80493],[-118.29948,35.80504],[-118.2996,35.80524]]}},{"type":"Feature","properties":{"name":"Boone Meadow Road","road_class":"track","surface":"compacted","tracktype":"grade2","source":"Caltrans All Roads + OpenStreetMap explicit surface","source_detail":"osm way 113484317; Caltrans All Roads public-network geometry match","source_tile":"175/402","public_network_source":"Caltrans All Roads (ARNOLD/HPMS)","surface_source":"OpenStreetMap explicit surface tag","caltrans_match_coverage":1.0,"verified_length_m":5018},"geometry":{"type":"LineString","coordinates":[[-118.33224,36.02029],[-118.3325,36.01939],[-118.3325,36.01915],[-118.33233,36.01884],[-118.33198,36.01846],[-118.33141,36.01801],[-118.33076,36.01745],[-118.33033,36.01729],[-118.32995,36.01725],[-118.32962,36.01721],[-118.32926,36.01706],[-118.32894,36.0169],[-118.32866,36.01668],[-118.32848,36.01637],[-118.32849,36.01618],[-118.32858,36.01582],[-118.32885,36.01535],[-118.3289,36.01514],[-118.32881,36.01478],[-118.3283,36.01417],[-118.32781,36.01371],[-118.32718,36.01312],[-118.32665,36.0125],[-118.32643,36.01229],[-118.32638,36.01208],[-118.32646,36.01186],[-118.32663,36.01172],[-118.32734,36.01137],[-118.32772,36.01113],[-118.32795,36.0111],[-118.32837,36.01133],[-118.32869,36.01161],[-118.32888,36.01165],[-118.32952,36.01151],[-118.33012,36.01141],[-118.33034,36.01141],[-118.33072,36.01151],[-118.33093,36.01149],[-118.33103,36.01136],[-118.33101,36.01115],[-118.33082,36.01096],[-118.33009,36.01069],[-118.32942,36.01057],[-118.32921,36.01048],[-118.3291,36.01031],[-118.32905,36.00973],[-118.32913,36.00925],[-118.32918,36.00855],[-118.32919,36.00809],[-118.32917,36.00725],[-118.32905,36.00686],[-118.32889,36.00625],[-118.32886,36.00586],[-118.32876,36.0055],[-118.32831,36.00477],[-118.32819,36.00462],[-118.32795,36.00447],[-118.32769,36.00441],[-118.32682,36.00437],[-118.32651,36.00441],[-118.32597,36.00454],[-118.32572,36.00455],[-118.32558,36.0045],[-118.32549,36.00438],[-118.32538,36.00397],[-118.3252,36.0037],[-118.32501,36.0035],[-118.32482,36.00341],[-118.32449,36.00328],[-118.32432,36.00316],[-118.32401,36.00292],[-118.32383,36.00269],[-118.3238,36.00253],[-118.32385,36.00225],[-118.324,36.00192],[-118.32449,36.00143],[-118.32476,36.0012],[-118.32492,36.00117],[-118.32508,36.0012],[-118.32518,36.0014],[-118.32518,36.00175],[-118.32517,36.00224],[-118.32511,36.00277],[-118.32519,36.00295],[-118.32534,36.0031],[-118.3257,36.0034],[-118.32596,36.0036],[-118.3261,36.00366],[-118.32632,36.00361],[-118.32686,36.00328],[-118.32711,36.00315],[-118.32733,36.00312],[-118.32754,36.00317],[-118.32782,36.00323],[-118.32834,36.00317],[-118.32891,36.0032],[-118.32921,36.00326],[-118.32959,36.00344],[-118.3301,36.00383],[-118.33046,36.00416],[-118.33069,36.00428],[-118.33091,36.00428],[-118.3311,36.00422],[-118.33137,36.00396],[-118.33157,36.00364],[-118.33176,36.0033],[-118.33203,36.00299],[-118.3323,36.00289],[-118.33254,36.00285],[-118.33285,36.00269],[-118.33304,36.0025],[-118.33336,36.00218],[-118.33353,36.0021],[-118.33374,36.00209],[-118.33398,36.00215],[-118.33418,36.00234],[-118.33445,36.00268],[-118.33466,36.00282],[-118.33499,36.00297],[-118.33516,36.00311],[-118.33518,36.00329],[-118.33496,36.00364],[-118.33493,36.00384],[-118.33503,36.00399],[-118.33517,36.00408],[-118.33537,36.00417],[-118.33559,36.00415],[-118.33587,36.00381],[-118.33602,36.00356],[-118.33619,36.00346],[-118.3364,36.00343],[-118.33669,36.00342],[-118.33704,36.00337],[-118.3373,36.00326],[-118.3374,36.00312]]}},{"type":"Feature","properties":{"name":"Salmon Creek Road","road_class":"track","surface":"compacted","tracktype":"grade2","source":"Caltrans All Roads + OpenStreetMap explicit surface","source_detail":"osm way 113484333; Caltrans All Roads public-network geometry match","source_tile":"175/402","public_network_source":"Caltrans All Roads (ARNOLD/HPMS)","surface_source":"OpenStreetMap explicit surface tag","caltrans_match_coverage":0.998,"verified_length_m":6537},"geometry":{"type":"LineString","coordinates":[[-118.36608,35.90974],[-118.36586,35.90885],[-118.36564,35.90853],[-118.36545,35.90812],[-118.36537,35.90794],[-118.36521,35.90776],[-118.36507,35.90762],[-118.36502,35.9075],[-118.36505,35.9073],[-118.36508,35.90709],[-118.36504,35.90681],[-118.36498,35.90655],[-118.36505,35.90645],[-118.36514,35.90638],[-118.36552,35.90632],[-118.36587,35.90621],[-118.36617,35.90612],[-118.36632,35.90606],[-118.36639,35.90595],[-118.36626,35.90567],[-118.3662,35.90542],[-118.36618,35.90531],[-118.36622,35.90519],[-118.36628,35.90511],[-118.36636,35.90506],[-118.36675,35.905],[-118.36699,35.90497],[-118.36717,35.90497],[-118.36753,35.90503],[-118.36792,35.9051],[-118.36809,35.90512],[-118.36822,35.9051],[-118.36833,35.90503],[-118.36839,35.90497],[-118.36839,35.90486],[-118.3683,35.90475],[-118.36794,35.90453],[-118.36766,35.90426],[-118.36755,35.90412],[-118.36744,35.9039],[-118.36738,35.90381],[-118.36729,35.90375],[-118.36699,35.90362],[-118.36684,35.9035],[-118.36666,35.90332],[-118.36655,35.90319],[-118.36644,35.90309],[-118.36625,35.90298],[-118.36615,35.90291],[-118.36609,35.90283],[-118.36605,35.90273],[-118.36605,35.90258],[-118.36601,35.90242],[-118.36592,35.9023],[-118.36574,35.90214],[-118.36549,35.90198],[-118.36537,35.90185],[-118.3653,35.90171],[-118.36526,35.90158],[-118.36531,35.90147],[-118.36539,35.90138],[-118.36544,35.90126],[-118.36542,35.90115],[-118.36539,35.90104],[-118.36542,35.90095],[-118.36538,35.90083],[-118.36523,35.90069],[-118.36491,35.90047],[-118.36479,35.90041],[-118.36458,35.90036],[-118.36436,35.90036],[-118.36418,35.90039],[-118.36407,35.90037],[-118.36397,35.90033],[-118.36388,35.90021],[-118.36385,35.90006],[-118.36386,35.89985],[-118.36382,35.89975],[-118.36352,35.89938],[-118.36345,35.89924],[-118.36348,35.89913],[-118.36355,35.89901],[-118.36371,35.89893],[-118.36382,35.89891],[-118.36476,35.89902],[-118.36487,35.89899],[-118.36494,35.89895],[-118.36502,35.89889],[-118.36512,35.89886],[-118.36527,35.89887],[-118.36583,35.89898],[-118.36601,35.8991],[-118.36613,35.89934],[-118.36624,35.8994],[-118.36635,35.89944],[-118.3665,35.89943],[-118.3666,35.8994],[-118.36666,35.89936],[-118.36673,35.89931],[-118.36684,35.89928],[-118.36701,35.89927],[-118.36731,35.89927],[-118.36764,35.89928],[-118.3683,35.89931],[-118.36865,35.89927],[-118.36894,35.89922],[-118.36905,35.89919],[-118.36919,35.89914],[-118.36932,35.89905],[-118.3697,35.89878],[-118.3699,35.89867],[-118.36998,35.89862],[-118.37002,35.89855],[-118.37003,35.89844],[-118.36999,35.89832],[-118.36988,35.8982],[-118.36974,35.89804],[-118.36969,35.89797],[-118.36968,35.89781],[-118.36973,35.89764],[-118.36983,35.89754],[-118.37014,35.89731],[-118.37029,35.89717],[-118.37044,35.89707],[-118.37059,35.89701],[-118.37076,35.89696],[-118.37093,35.89694],[-118.37118,35.89692],[-118.37137,35.89693],[-118.37177,35.89701],[-118.37199,35.89701],[-118.37226,35.89699],[-118.3724,35.89695],[-118.37251,35.89689],[-118.37281,35.89664],[-118.37294,35.8965],[-118.37304,35.89635],[-118.3732,35.89626],[-118.37358,35.89613],[-118.3739,35.89606],[-118.37406,35.89599],[-118.3744,35.89581],[-118.37477,35.89558],[-118.37497,35.8954],[-118.37542,35.89483],[-118.37561,35.89476],[-118.37571,35.89476],[-118.3758,35.89482],[-118.3759,35.89493],[-118.37596,35.8951],[-118.37594,35.89546],[-118.37594,35.8957],[-118.37607,35.89606],[-118.37632,35.89627],[-118.37657,35.89663],[-118.37674,35.897],[-118.37705,35.89733],[-118.37728,35.89745],[-118.37743,35.8975],[-118.37775,35.89757],[-118.37826,35.89775],[-118.37846,35.8978],[-118.37874,35.89794],[-118.37891,35.89806],[-118.37904,35.89814],[-118.37912,35.8983],[-118.37918,35.89848],[-118.37924,35.89861],[-118.3793,35.89869],[-118.37947,35.89877],[-118.37967,35.89884],[-118.38005,35.89893],[-118.38017,35.89894],[-118.38039,35.89889],[-118.38058,35.89889],[-118.38073,35.89894],[-118.38082,35.89904],[-118.38085,35.89921],[-118.38081,35.89932],[-118.38067,35.89952],[-118.38052,35.89963],[-118.38038,35.89984],[-118.38034,35.90018],[-118.38021,35.90053],[-118.38026,35.90071],[-118.38034,35.90085],[-118.3805,35.90095],[-118.38076,35.90093],[-118.38096,35.9009],[-118.38194,35.90082],[-118.38225,35.90085],[-118.3827,35.90083],[-118.38306,35.90064],[-118.38343,35.90059],[-118.38367,35.90044],[-118.38403,35.90019],[-118.3842,35.90003],[-118.38451,35.89989],[-118.38485,35.8999],[-118.38497,35.89995],[-118.38498,35.9001],[-118.38487,35.90038],[-118.38483,35.90068],[-118.38495,35.90094],[-118.38515,35.90112],[-118.38535,35.90125],[-118.38555,35.90144],[-118.38576,35.90174],[-118.38595,35.90195],[-118.38615,35.90204],[-118.38639,35.90209],[-118.38661,35.90223],[-118.38717,35.90285],[-118.38738,35.903],[-118.38772,35.90322],[-118.38784,35.90341],[-118.38802,35.90351],[-118.38826,35.90355],[-118.38862,35.90357],[-118.38892,35.90356],[-118.38929,35.90347],[-118.38952,35.90336],[-118.39004,35.90319],[-118.39043,35.90312],[-118.39054,35.9031],[-118.39063,35.90304],[-118.39072,35.90282],[-118.39081,35.90268],[-118.39092,35.90261],[-118.3911,35.90256],[-118.39131,35.90244],[-118.39158,35.90225],[-118.3918,35.90205],[-118.39193,35.90202],[-118.39208,35.90203],[-118.39226,35.90213],[-118.39233,35.90227],[-118.39239,35.9026],[-118.39237,35.90271],[-118.39242,35.90281],[-118.39253,35.90289],[-118.39272,35.90299],[-118.39296,35.90315],[-118.39339,35.90339],[-118.39362,35.90365],[-118.39391,35.90378],[-118.39405,35.9038],[-118.39436,35.90383],[-118.39451,35.90381],[-118.39467,35.90377],[-118.39477,35.90376],[-118.39484,35.90377],[-118.39511,35.90399],[-118.39526,35.90406],[-118.39537,35.90409],[-118.39559,35.90406],[-118.39568,35.90408],[-118.39589,35.90417],[-118.39609,35.90424],[-118.39615,35.90429],[-118.39618,35.90436],[-118.39615,35.90446],[-118.39602,35.90467],[-118.39595,35.90482],[-118.39591,35.90502],[-118.39594,35.90531],[-118.39601,35.90546],[-118.39619,35.90562],[-118.39642,35.90575],[-118.39662,35.90583],[-118.39675,35.90585],[-118.39687,35.90585],[-118.39695,35.90583],[-118.39702,35.90578],[-118.39717,35.90562],[-118.39724,35.90558],[-118.39735,35.90559],[-118.39759,35.90566],[-118.39787,35.90579],[-118.39803,35.9059],[-118.39814,35.90602],[-118.39835,35.90634],[-118.39864,35.90658],[-118.39881,35.90673],[-118.39895,35.90681],[-118.39928,35.90693],[-118.39948,35.90702]]}},{"type":"Feature","properties":{"name":"Horse Meadow Road","road_class":"track","surface":"compacted","tracktype":"grade2","source":"Caltrans All Roads + OpenStreetMap explicit surface","source_detail":"osm way 113484356; Caltrans All Roads public-network geometry match","source_tile":"175/402","public_network_source":"Caltrans All Roads (ARNOLD/HPMS)","surface_source":"OpenStreetMap explicit surface tag","caltrans_match_coverage":0.97,"verified_length_m":2181},"geometry":{"type":"LineString","coordinates":[[-118.37202,35.91342],[-118.37214,35.91331],[-118.37229,35.91321],[-118.37244,35.91317],[-118.3729,35.91308],[-118.37378,35.9128],[-118.37408,35.91273],[-118.37441,35.91268],[-118.3746,35.91258],[-118.3747,35.9124],[-118.37473,35.91201],[-118.37471,35.91191],[-118.37466,35.91183],[-118.37453,35.91176],[-118.37403,35.91165],[-118.37378,35.91164],[-118.37342,35.91167],[-118.3731,35.91166],[-118.37261,35.91162],[-118.37244,35.91166],[-118.37231,35.91174],[-118.37197,35.91203],[-118.37183,35.91212],[-118.3717,35.91217],[-118.3716,35.91217],[-118.37151,35.91212],[-118.37141,35.91196],[-118.37127,35.9118],[-118.37098,35.91162],[-118.37085,35.91149],[-118.37076,35.91134],[-118.37061,35.91089],[-118.37056,35.91063],[-118.3705,35.91045],[-118.37033,35.91022],[-118.36981,35.90965],[-118.36943,35.90947],[-118.36933,35.90939],[-118.36929,35.90929],[-118.36933,35.9092],[-118.36943,35.90914],[-118.36957,35.90913],[-118.36985,35.90917],[-118.37023,35.90919],[-118.37057,35.90922],[-118.37096,35.90937],[-118.37139,35.90958],[-118.37174,35.90979],[-118.3719,35.90974],[-118.372,35.90964],[-118.37197,35.90952],[-118.37184,35.90943],[-118.37172,35.90926],[-118.3717,35.90914],[-118.37209,35.90869],[-118.37215,35.90853],[-118.37213,35.90824],[-118.37222,35.90796],[-118.37237,35.90777],[-118.37261,35.90756],[-118.37335,35.907],[-118.37358,35.90675],[-118.37385,35.90657],[-118.37388,35.90645],[-118.37386,35.90615],[-118.37392,35.90591],[-118.37404,35.90573],[-118.37417,35.90558],[-118.37442,35.90541],[-118.37453,35.90528],[-118.37458,35.90507],[-118.37462,35.90486],[-118.37458,35.9046],[-118.3745,35.90449],[-118.37419,35.90421],[-118.37405,35.90405],[-118.37397,35.90394],[-118.37389,35.90377],[-118.3738,35.90367],[-118.3736,35.90355],[-118.37338,35.9034],[-118.37315,35.9033],[-118.3731,35.90325]]}},{"type":"Feature","properties":{"name":"Poison Meadow Spur","road_class":"track","surface":"compacted","tracktype":"grade2","source":"Caltrans All Roads + OpenStreetMap explicit surface","source_detail":"osm way 402969626; Caltrans All Roads public-network geometry match","source_tile":"175/402","public_network_source":"Caltrans All Roads (ARNOLD/HPMS)","surface_source":"OpenStreetMap explicit surface tag","caltrans_match_coverage":1.0,"verified_length_m":704},"geometry":{"type":"LineString","coordinates":[[-118.39143,35.95149],[-118.39158,35.95157],[-118.39166,35.95162],[-118.39175,35.95163],[-118.3918,35.9516],[-118.39182,35.95156],[-118.39181,35.95147],[-118.39177,35.95142],[-118.3917,35.9514],[-118.39161,35.9514],[-118.39143,35.95149],[-118.39107,35.95148],[-118.3909,35.95144],[-118.39056,35.9513],[-118.39035,35.95119],[-118.39016,35.95104],[-118.38976,35.9506],[-118.38951,35.95025],[-118.38949,35.95015],[-118.38949,35.95005],[-118.38956,35.9499],[-118.38961,35.94972],[-118.38962,35.94961],[-118.38958,35.94926],[-118.38951,35.94916],[-118.38944,35.9491],[-118.38934,35.94907],[-118.38918,35.94906],[-118.38902,35.9491],[-118.38877,35.9492],[-118.38856,35.94923],[-118.38817,35.94923],[-118.38805,35.94924],[-118.38791,35.94929],[-118.38775,35.94938],[-118.38753,35.94956],[-118.38742,35.94962],[-118.38733,35.94963],[-118.38725,35.94959],[-118.38718,35.94954],[-118.38709,35.94941]]}},{"type":"Feature","properties":{"name":"Forest Route 24S89","road_class":"track","surface":"unpaved","source":"Caltrans All Roads + OpenStreetMap explicit surface","source_detail":"osm way 402970729; Caltrans All Roads public-network geometry match","source_tile":"175/402","public_network_source":"Caltrans All Roads (ARNOLD/HPMS)","surface_source":"OpenStreetMap explicit surface tag","caltrans_match_coverage":1.0,"verified_length_m":2801},"geometry":{"type":"LineString","coordinates":[[-118.46477,35.89309],[-118.46461,35.89309],[-118.46451,35.89307],[-118.46442,35.89303],[-118.46436,35.89299],[-118.46426,35.89286],[-118.46412,35.89261],[-118.46406,35.89257],[-118.4635,35.89238],[-118.46342,35.89234],[-118.46335,35.89227],[-118.46328,35.89204],[-118.46323,35.89185],[-118.46309,35.8917],[-118.46285,35.89138],[-118.46245,35.89111],[-118.46241,35.89109],[-118.46272,35.89146],[-118.46278,35.89159],[-118.46281,35.89183],[-118.46279,35.89195],[-118.46275,35.89201],[-118.46263,35.89211],[-118.46262,35.89218],[-118.46263,35.89226],[-118.46268,35.89234],[-118.46287,35.89253],[-118.46293,35.89273],[-118.4629,35.89286],[-118.46279,35.8932],[-118.46275,35.89356],[-118.46269,35.89366],[-118.46261,35.89374],[-118.46194,35.89399],[-118.46189,35.89408],[-118.46187,35.89415],[-118.46188,35.8942],[-118.46195,35.89426],[-118.46211,35.89432],[-118.46214,35.8944],[-118.46215,35.8945],[-118.46209,35.89461],[-118.46183,35.89494],[-118.46181,35.8951],[-118.46181,35.89517],[-118.46184,35.89521],[-118.46211,35.89537],[-118.46219,35.89546],[-118.46222,35.89556],[-118.46221,35.89568],[-118.46222,35.89575],[-118.46223,35.89578],[-118.46229,35.89582],[-118.46319,35.89615],[-118.46326,35.89621],[-118.46328,35.89627],[-118.46316,35.89634],[-118.46301,35.89634],[-118.46274,35.89627],[-118.46245,35.89628],[-118.46221,35.89634],[-118.46208,35.89633],[-118.46182,35.89628],[-118.46149,35.89614],[-118.46131,35.89597],[-118.46115,35.89595],[-118.46101,35.89595],[-118.46057,35.89618],[-118.46046,35.89629],[-118.46041,35.89636],[-118.46029,35.89638],[-118.4602,35.89636],[-118.46005,35.89625],[-118.45996,35.89621],[-118.45956,35.89626],[-118.45949,35.89626],[-118.4594,35.89619],[-118.45938,35.89607],[-118.45956,35.89581],[-118.45956,35.8957],[-118.45946,35.8956],[-118.45898,35.8954],[-118.45851,35.89549],[-118.45842,35.89545],[-118.45842,35.89534],[-118.45851,35.8949],[-118.45844,35.89482],[-118.45817,35.8947],[-118.458,35.89453],[-118.45801,35.89443],[-118.45801,35.89415],[-118.45791,35.894],[-118.45779,35.89395],[-118.4577,35.89395],[-118.45727,35.89408],[-118.45718,35.8941],[-118.45707,35.89408],[-118.457,35.89402],[-118.45698,35.89395],[-118.45713,35.89373],[-118.45716,35.8937],[-118.45745,35.8934],[-118.4577,35.89331],[-118.45777,35.89324],[-118.45791,35.89291],[-118.45803,35.89274],[-118.45801,35.89264],[-118.45793,35.89262],[-118.45723,35.89233],[-118.45712,35.89225],[-118.45686,35.8919],[-118.45685,35.89183],[-118.45686,35.89177],[-118.45699,35.89165],[-118.45702,35.89153],[-118.45701,35.89135],[-118.45672,35.89124],[-118.45644,35.89119],[-118.45636,35.89118],[-118.45632,35.89115],[-118.4563,35.89106],[-118.45635,35.89096],[-118.45657,35.89058],[-118.45654,35.89044],[-118.45642,35.89037],[-118.45606,35.89017],[-118.45562,35.88999],[-118.45563,35.88983],[-118.45569,35.88978],[-118.45619,35.88958],[-118.45638,35.88942],[-118.45638,35.88927],[-118.45626,35.88918],[-118.45601,35.88903],[-118.45558,35.88892],[-118.45503,35.88873]]}},{"type":"Feature","properties":{"name":"Forest Route 22S51","road_class":"track","surface":"unpaved","source":"Caltrans All Roads + OpenStreetMap explicit surface","source_detail":"osm way 615115724; Caltrans All Roads public-network geometry match","source_tile":"175/402","public_network_source":"Caltrans All Roads (ARNOLD/HPMS)","surface_source":"OpenStreetMap explicit surface tag","caltrans_match_coverage":1.0,"verified_length_m":995},"geometry":{"type":"LineString","coordinates":[[-118.46618,35.97399],[-118.46622,35.97395],[-118.46623,35.9739],[-118.46621,35.97388],[-118.46619,35.97384],[-118.46615,35.97381],[-118.46577,35.97368],[-118.46542,35.97353],[-118.46527,35.97351],[-118.4652,35.9735],[-118.4649,35.97352],[-118.46469,35.97352],[-118.46456,35.97349],[-118.46447,35.97344],[-118.46443,35.97341],[-118.46434,35.97319],[-118.46427,35.97309],[-118.46419,35.973],[-118.46408,35.97293],[-118.46398,35.9729],[-118.46378,35.97286],[-118.46372,35.97282],[-118.46332,35.97247],[-118.46284,35.97212],[-118.46244,35.97194],[-118.46216,35.97178],[-118.46192,35.97165],[-118.46155,35.97156],[-118.46147,35.97159],[-118.46124,35.9718],[-118.46063,35.97215],[-118.46027,35.97228],[-118.46016,35.97236],[-118.4601,35.97237],[-118.46003,35.97236],[-118.45999,35.97231],[-118.45999,35.97226],[-118.46001,35.97222],[-118.46008,35.97217],[-118.46048,35.97181],[-118.46055,35.9717],[-118.46058,35.97159],[-118.46056,35.97148],[-118.46055,35.97138],[-118.46048,35.97113],[-118.46043,35.97104],[-118.46038,35.97099],[-118.4602,35.97088],[-118.46014,35.97083],[-118.46,35.97078],[-118.45991,35.97077],[-118.45977,35.97083],[-118.45949,35.97105],[-118.45939,35.97115],[-118.45932,35.9712]]}},{"type":"Feature","properties":{"name":"Cannell Road","road_class":"track","surface":"compacted","tracktype":"grade2","source":"Caltrans All Roads + OpenStreetMap explicit surface","source_detail":"osm way 824009290; Caltrans All Roads public-network geometry match","source_tile":"175/402","public_network_source":"Caltrans All Roads (ARNOLD/HPMS)","surface_source":"OpenStreetMap explicit surface tag","caltrans_match_coverage":1.0,"verified_length_m":8606},"geometry":{"type":"LineString","coordinates":[[-118.33675,35.82199],[-118.33653,35.82145],[-118.33624,35.82072],[-118.33595,35.82027],[-118.33564,35.81996],[-118.3356,35.81986],[-118.33555,35.81965],[-118.33568,35.81941],[-118.33589,35.81916],[-118.33629,35.819],[-118.33722,35.8189],[-118.33768,35.81868],[-118.33868,35.81802],[-118.33916,35.81781],[-118.33952,35.8178],[-118.3399,35.81787],[-118.34044,35.81802],[-118.34118,35.81862],[-118.34171,35.81894],[-118.34193,35.81916],[-118.34222,35.81949],[-118.34276,35.82034],[-118.34339,35.82126],[-118.34391,35.82185],[-118.3443,35.82207],[-118.34469,35.82218],[-118.34508,35.82225],[-118.34557,35.82223],[-118.34623,35.82215],[-118.34656,35.82213],[-118.34677,35.82229],[-118.34692,35.82266],[-118.3469,35.82285],[-118.34681,35.82311],[-118.34683,35.82335],[-118.34691,35.82352],[-118.3471,35.82377],[-118.34734,35.82413],[-118.34776,35.82461],[-118.3483,35.82504],[-118.34888,35.82541],[-118.34916,35.82563],[-118.34933,35.82597],[-118.34943,35.82611],[-118.34954,35.82619],[-118.34972,35.82624],[-118.34995,35.82627],[-118.35014,35.82622],[-118.35038,35.82608],[-118.35081,35.8259],[-118.35109,35.82586],[-118.35127,35.82588],[-118.35153,35.82599],[-118.35199,35.82624],[-118.35456,35.82757],[-118.35524,35.82811],[-118.35588,35.82867],[-118.35715,35.8299],[-118.35743,35.83026],[-118.35763,35.83055],[-118.35782,35.83074],[-118.35803,35.8308],[-118.35834,35.83079],[-118.35863,35.83074],[-118.35892,35.83071],[-118.35927,35.83077],[-118.35966,35.83099],[-118.36013,35.83127],[-118.36054,35.83143],[-118.3612,35.83163],[-118.36165,35.83178],[-118.36244,35.832],[-118.36264,35.83204],[-118.36287,35.83201],[-118.36305,35.83193],[-118.36359,35.83156],[-118.36387,35.83123],[-118.36414,35.83091],[-118.36431,35.83053],[-118.36448,35.82989],[-118.36466,35.8292],[-118.36466,35.82879],[-118.36446,35.82807],[-118.36429,35.82739],[-118.36422,35.82703],[-118.36415,35.82685],[-118.36377,35.82603],[-118.36372,35.82581],[-118.36366,35.82524],[-118.36361,35.82446],[-118.36346,35.82352],[-118.36338,35.82267],[-118.36325,35.82185],[-118.36316,35.82159],[-118.36292,35.82128],[-118.36278,35.82108],[-118.36263,35.81999],[-118.36251,35.81946],[-118.36246,35.8192],[-118.36238,35.81872],[-118.3623,35.81832],[-118.36221,35.8181],[-118.36203,35.8177],[-118.36164,35.81694],[-118.3615,35.81669],[-118.36147,35.81653],[-118.36146,35.81633],[-118.36149,35.81598],[-118.36148,35.81584],[-118.36146,35.8157],[-118.3614,35.81552],[-118.36126,35.81531],[-118.36083,35.81487],[-118.36064,35.81464],[-118.36053,35.81446],[-118.36046,35.81432],[-118.36041,35.81413],[-118.3604,35.81385],[-118.36041,35.81363],[-118.36038,35.81341],[-118.36005,35.81194],[-118.36,35.81172],[-118.35994,35.8116],[-118.3595,35.81091],[-118.3594,35.8108],[-118.35922,35.81068],[-118.35907,35.81061],[-118.3589,35.8105],[-118.3587,35.81033],[-118.3581,35.80969],[-118.358,35.80958],[-118.35786,35.80936],[-118.35726,35.80861],[-118.35717,35.80845],[-118.35709,35.80829],[-118.35696,35.80786],[-118.35679,35.80717],[-118.35677,35.80683],[-118.35678,35.80657],[-118.35676,35.80645],[-118.35659,35.80613],[-118.35637,35.80565],[-118.35627,35.80539],[-118.35619,35.80512],[-118.35611,35.80482],[-118.35589,35.80426],[-118.35543,35.80339],[-118.35473,35.80226],[-118.35454,35.80193],[-118.35449,35.80171],[-118.35447,35.80131],[-118.35451,35.801],[-118.35451,35.80083],[-118.35438,35.80038],[-118.35435,35.80001],[-118.35434,35.79974],[-118.35435,35.79952],[-118.35446,35.79899],[-118.35451,35.79864],[-118.35449,35.79843],[-118.3544,35.79818],[-118.35434,35.79797],[-118.35434,35.79785],[-118.35438,35.79769],[-118.35442,35.79759],[-118.35451,35.79747],[-118.35463,35.79735],[-118.35511,35.79698],[-118.35525,35.7968],[-118.35534,35.79658],[-118.35539,35.7963],[-118.35539,35.79607],[-118.35533,35.79585],[-118.35525,35.79562],[-118.35528,35.79546],[-118.35562,35.79493],[-118.35576,35.79475],[-118.3559,35.79463],[-118.35611,35.79452],[-118.35651,35.79434],[-118.35671,35.79428],[-118.35693,35.79424],[-118.35717,35.79422],[-118.35776,35.79423],[-118.35806,35.79426],[-118.35915,35.79445],[-118.35946,35.79449],[-118.36004,35.7945],[-118.36029,35.79447],[-118.36047,35.79442],[-118.36064,35.79433],[-118.36142,35.79381],[-118.36155,35.7937]]}},{"type":"Feature","properties":{"name":"Salmon Group Camp Road","road_class":"track","surface":"compacted","tracktype":"grade2","source":"Caltrans All Roads + OpenStreetMap explicit surface","source_detail":"osm way 1300406466; Caltrans All Roads public-network geometry match","source_tile":"175/402","public_network_source":"Caltrans All Roads (ARNOLD/HPMS)","surface_source":"OpenStreetMap explicit surface tag","caltrans_match_coverage":1.0,"verified_length_m":1550},"geometry":{"type":"LineString","coordinates":[[-118.35125,35.89121],[-118.35131,35.89127],[-118.35151,35.89135],[-118.35167,35.89152],[-118.35188,35.89214],[-118.35191,35.89238],[-118.35229,35.89289],[-118.35232,35.89304],[-118.35231,35.89317],[-118.35226,35.89335],[-118.35231,35.89346],[-118.35246,35.89355],[-118.35276,35.89372],[-118.35286,35.89384],[-118.35289,35.89401],[-118.35288,35.89435],[-118.35282,35.8946],[-118.35271,35.89483],[-118.35256,35.895],[-118.35252,35.89508],[-118.35258,35.89523],[-118.35271,35.89531],[-118.35327,35.89541],[-118.3535,35.89549],[-118.35401,35.89563],[-118.35436,35.89577],[-118.35455,35.8958],[-118.35488,35.89582],[-118.35503,35.89586],[-118.3551,35.89603],[-118.35527,35.89707],[-118.35545,35.89757],[-118.3556,35.89781],[-118.35574,35.89802],[-118.3561,35.89846],[-118.35621,35.89853],[-118.35644,35.89858],[-118.35663,35.89869],[-118.35693,35.89894],[-118.35706,35.89912],[-118.35711,35.89928],[-118.35714,35.89961],[-118.3572,35.89993],[-118.35723,35.90017],[-118.3573,35.90026],[-118.3574,35.90031],[-118.35757,35.90037],[-118.35769,35.90042],[-118.35779,35.90051],[-118.35777,35.90061],[-118.35745,35.90104],[-118.35743,35.90117],[-118.35744,35.90139],[-118.35757,35.90153],[-118.35772,35.90175],[-118.35797,35.90199],[-118.35804,35.90209]]}}]}