{"type":"FeatureCollection","features":[{"type":"Feature","properties":{"name":"Rattlesnake Canyon Road","road_class":"track","surface":"dirt","tracktype":"grade4","source":"Caltrans All Roads + OpenStreetMap explicit surface","source_detail":"osm way 7129690; Caltrans All Roads public-network geometry match","source_tile":"180/407","public_network_source":"Caltrans All Roads (ARNOLD/HPMS)","surface_source":"OpenStreetMap explicit surface tag","caltrans_match_coverage":1.0,"verified_length_m":1416},"geometry":{"type":"LineString","coordinates":[[-116.70538,34.33517],[-116.70548,34.3352],[-116.7057,34.33544],[-116.70581,34.33556],[-116.70595,34.33577],[-116.70597,34.33602],[-116.70609,34.33628],[-116.70611,34.33634],[-116.70664,34.33684],[-116.707,34.33733],[-116.70708,34.33772],[-116.70691,34.33817],[-116.70531,34.33953],[-116.70521,34.33989],[-116.7052,34.33991],[-116.70504,34.34008],[-116.70498,34.34031],[-116.70465,34.34058],[-116.70455,34.34061],[-116.7028,34.34122],[-116.70123,34.34228],[-116.70095,34.34255],[-116.69982,34.34315],[-116.69935,34.34365],[-116.69906,34.34379],[-116.69858,34.34404]]}},{"type":"Feature","properties":{"name":"Bodick Road","road_class":"unclassified","surface":"dirt","source":"Caltrans All Roads + OpenStreetMap explicit surface","source_detail":"osm way 7201934; Caltrans All Roads public-network geometry match","source_tile":"180/407","public_network_source":"Caltrans All Roads (ARNOLD/HPMS)","surface_source":"OpenStreetMap explicit surface tag","caltrans_match_coverage":1.0,"verified_length_m":8388},"geometry":{"type":"LineString","coordinates":[[-116.48921,34.33406],[-116.48909,34.33436],[-116.48893,34.33462],[-116.48857,34.33491],[-116.48731,34.33541],[-116.48652,34.33609],[-116.48579,34.33657],[-116.48545,34.337],[-116.48467,34.33764],[-116.4844,34.33798],[-116.48405,34.33832],[-116.48372,34.3386],[-116.48302,34.33895],[-116.48179,34.3392],[-116.48027,34.3393],[-116.47992,34.33931],[-116.47883,34.33924],[-116.47875,34.33924],[-116.47779,34.33923],[-116.47736,34.33923],[-116.47668,34.33904],[-116.47633,34.339],[-116.4751,34.33897],[-116.47443,34.33901],[-116.47308,34.33899],[-116.47149,34.33899],[-116.47006,34.33901],[-116.4692,34.339],[-116.46564,34.33904],[-116.46342,34.33903],[-116.46119,34.33899],[-116.4568,34.33898],[-116.45017,34.3389],[-116.44799,34.3389],[-116.44528,34.33886],[-116.44487,34.33884],[-116.44456,34.33888],[-116.44401,34.33885],[-116.44373,34.33886],[-116.44227,34.33884],[-116.44034,34.33877],[-116.4392,34.3388],[-116.43792,34.33878],[-116.43731,34.33877],[-116.43682,34.33875],[-116.43482,34.33874],[-116.43469,34.33874],[-116.43284,34.33873],[-116.43122,34.3387],[-116.4291,34.33866],[-116.42864,34.33864],[-116.4282,34.33865],[-116.42753,34.33864],[-116.42714,34.33865],[-116.42659,34.33866],[-116.4263,34.33866],[-116.42586,34.33866],[-116.4246,34.33865],[-116.42449,34.33865],[-116.42172,34.33861],[-116.41955,34.33858],[-116.41292,34.33858],[-116.4099,34.33858],[-116.40839,34.33858],[-116.40643,34.33858],[-116.40403,34.33856],[-116.4006,34.3386]]}},{"type":"Feature","properties":{"name":"Harris Drive","road_class":"unclassified","surface":"dirt","source":"Caltrans All Roads + OpenStreetMap explicit surface","source_detail":"osm way 7311985; Caltrans All Roads public-network geometry match","source_tile":"180/407","public_network_source":"Caltrans All Roads (ARNOLD/HPMS)","surface_source":"OpenStreetMap explicit surface tag","caltrans_match_coverage":1.0,"verified_length_m":1392},"geometry":{"type":"LineString","coordinates":[[-116.44227,34.33884],[-116.43995,34.33971],[-116.43973,34.33973],[-116.43959,34.33987],[-116.43472,34.34186],[-116.43247,34.34278],[-116.43053,34.3435],[-116.42866,34.3443]]}},{"type":"Feature","properties":{"name":"Rattlesnake Canyon Road","road_class":"track","surface":"unpaved","tracktype":"grade4","source":"Caltrans All Roads + OpenStreetMap explicit surface","source_detail":"osm way 7335292; Caltrans All Roads public-network geometry match","source_tile":"180/407","public_network_source":"Caltrans All Roads (ARNOLD/HPMS)","surface_source":"OpenStreetMap explicit surface tag","caltrans_match_coverage":1.0,"verified_length_m":1261},"geometry":{"type":"LineString","coordinates":[[-116.65871,34.36089],[-116.65821,34.36133],[-116.65746,34.36193],[-116.65626,34.36297],[-116.65542,34.36382],[-116.65418,34.36529],[-116.65354,34.36619],[-116.65226,34.36798],[-116.65163,34.36872],[-116.65087,34.36979],[-116.65068,34.37007]]}},{"type":"Feature","properties":{"name":"Rattlesnake Canyon Road","road_class":"track","surface":"dirt","tracktype":"grade4","source":"Caltrans All Roads + OpenStreetMap explicit surface","source_detail":"osm way 7335338; Caltrans All Roads public-network geometry match","source_tile":"180/407","public_network_source":"Caltrans All Roads (ARNOLD/HPMS)","surface_source":"OpenStreetMap explicit surface tag","caltrans_match_coverage":1.0,"verified_length_m":4942},"geometry":{"type":"LineString","coordinates":[[-116.69858,34.34404],[-116.69822,34.34386],[-116.69788,34.34347],[-116.69721,34.34207],[-116.69705,34.34189],[-116.69668,34.34158],[-116.69629,34.34131],[-116.69625,34.3413],[-116.69607,34.34122],[-116.69569,34.34088],[-116.69493,34.34037],[-116.69476,34.34033],[-116.6933,34.33934],[-116.69225,34.33838],[-116.69101,34.33854],[-116.69007,34.33923],[-116.68982,34.33985],[-116.68927,34.34022],[-116.6885,34.34076],[-116.68786,34.34106],[-116.6864,34.34191],[-116.6859,34.34234],[-116.68471,34.34299],[-116.68383,34.34381],[-116.68311,34.34422],[-116.68278,34.34461],[-116.68145,34.34567],[-116.68051,34.34658],[-116.67942,34.34749],[-116.67875,34.34805],[-116.67723,34.34889],[-116.67574,34.34993],[-116.67535,34.3505],[-116.67482,34.35091],[-116.67455,34.3516],[-116.67386,34.35201],[-116.67319,34.35226],[-116.67278,34.35274],[-116.67137,34.35311],[-116.66847,34.35405],[-116.66745,34.35448],[-116.66585,34.35499],[-116.6651,34.35533],[-116.66272,34.35709],[-116.66121,34.35854],[-116.66035,34.35913],[-116.65871,34.36089]]}},{"type":"Feature","properties":{"name":"Mikiska Boulevard","road_class":"unclassified","surface":"dirt","source":"Caltrans All Roads + OpenStreetMap explicit surface","source_detail":"osm way 7457695; Caltrans All Roads public-network geometry match","source_tile":"180/407","public_network_source":"Caltrans All Roads (ARNOLD/HPMS)","surface_source":"OpenStreetMap explicit surface tag","caltrans_match_coverage":1.0,"verified_length_m":3664},"geometry":{"type":"LineString","coordinates":[[-116.38997,34.33656],[-116.39052,34.33656],[-116.39102,34.33674],[-116.39235,34.337],[-116.4006,34.3386],[-116.40402,34.33929],[-116.40627,34.33979],[-116.40797,34.34018],[-116.4085,34.34027],[-116.40948,34.34045],[-116.41003,34.34056],[-116.41053,34.34067],[-116.41283,34.34115],[-116.41515,34.34161],[-116.4162,34.34185],[-116.41696,34.34202],[-116.41733,34.34208],[-116.41791,34.34216],[-116.41839,34.34232],[-116.41957,34.34257],[-116.42172,34.34299],[-116.42369,34.34337],[-116.42485,34.3436],[-116.42518,34.3436],[-116.42543,34.34371],[-116.42606,34.34381],[-116.42712,34.34404],[-116.42741,34.3441],[-116.42822,34.34429],[-116.42866,34.3443]]}},{"type":"Feature","properties":{"name":"Ghost Road","road_class":"unclassified","surface":"dirt","source":"Caltrans All Roads + OpenStreetMap explicit surface","source_detail":"osm way 7492653; Caltrans All Roads public-network geometry match","source_tile":"180/407","public_network_source":"Caltrans All Roads (ARNOLD/HPMS)","surface_source":"OpenStreetMap explicit surface tag","caltrans_match_coverage":0.902,"verified_length_m":2542},"geometry":{"type":"LineString","coordinates":[[-116.4943,34.33691],[-116.49419,34.33708],[-116.49409,34.33723],[-116.49386,34.33745],[-116.49371,34.33762],[-116.49361,34.33782],[-116.49353,34.338],[-116.49348,34.33819],[-116.49285,34.33944],[-116.49261,34.33993],[-116.49261,34.34071],[-116.49261,34.34182],[-116.49261,34.34265],[-116.49261,34.34358],[-116.4926,34.34555],[-116.49257,34.34713],[-116.49251,34.35037],[-116.49254,34.352],[-116.49237,34.35273],[-116.49218,34.35334],[-116.49199,34.35393],[-116.49175,34.35466],[-116.49135,34.35589],[-116.49132,34.35633],[-116.49125,34.35717],[-116.49119,34.35782],[-116.49091,34.35942]]}},{"type":"Feature","properties":{"name":"Sandsong Road","road_class":"track","surface":"unpaved","source":"Caltrans All Roads + OpenStreetMap explicit surface","source_detail":"osm way 7506860; Caltrans All Roads public-network geometry match","source_tile":"180/407","public_network_source":"Caltrans All Roads (ARNOLD/HPMS)","surface_source":"OpenStreetMap explicit surface tag","caltrans_match_coverage":1.0,"verified_length_m":1536},"geometry":{"type":"LineString","coordinates":[[-116.49285,34.33944],[-116.49306,34.33957],[-116.49365,34.33987],[-116.4941,34.34015],[-116.49446,34.34036],[-116.49574,34.34109],[-116.49651,34.34158],[-116.49808,34.34248],[-116.50085,34.34386],[-116.50124,34.34406],[-116.50302,34.34499],[-116.50439,34.34571],[-116.50579,34.34644],[-116.50662,34.34693],[-116.50683,34.34703]]}},{"type":"Feature","properties":{"name":"Mikiska Boulevard","road_class":"track","surface":"sand","tracktype":"grade5","source":"Caltrans All Roads + OpenStreetMap explicit surface","source_detail":"osm way 207257971; Caltrans All Roads public-network geometry match","source_tile":"180/407","public_network_source":"Caltrans All Roads (ARNOLD/HPMS)","surface_source":"OpenStreetMap explicit surface tag","caltrans_match_coverage":1.0,"verified_length_m":2604},"geometry":{"type":"LineString","coordinates":[[-116.48358,34.32655],[-116.48273,34.32687],[-116.48239,34.32696],[-116.48178,34.32715],[-116.47424,34.32946],[-116.47056,34.33054],[-116.46787,34.33132],[-116.46566,34.33194],[-116.46353,34.33258],[-116.46114,34.33324],[-116.45818,34.33406],[-116.45689,34.33442]]}},{"type":"Feature","properties":{"name":"Dusty Mile Road","road_class":"unclassified","surface":"dirt","source":"Caltrans All Roads + OpenStreetMap explicit surface","source_detail":"osm way 384592627; Caltrans All Roads public-network geometry match","source_tile":"180/407","public_network_source":"Caltrans All Roads (ARNOLD/HPMS)","surface_source":"OpenStreetMap explicit surface tag","caltrans_match_coverage":1.0,"verified_length_m":2840},"geometry":{"type":"LineString","coordinates":[[-116.44815,34.31878],[-116.44808,34.32352],[-116.44807,34.32431],[-116.44801,34.32539],[-116.44807,34.32789],[-116.4481,34.32915],[-116.44807,34.33069],[-116.44806,34.33279],[-116.44804,34.335],[-116.44804,34.33506],[-116.44802,34.33543],[-116.44802,34.33655],[-116.44801,34.33698],[-116.44799,34.3389],[-116.44791,34.34152],[-116.44788,34.34246],[-116.44799,34.34397],[-116.44791,34.3442],[-116.44813,34.34438]]}},{"type":"Feature","properties":{"name":"Belfield Boulevard","road_class":"unclassified","surface":"dirt","source":"Caltrans All Roads + OpenStreetMap explicit surface","source_detail":"osm way 7369213; Caltrans All Roads public-network geometry match","source_tile":"180/408","public_network_source":"Caltrans All Roads (ARNOLD/HPMS)","surface_source":"OpenStreetMap explicit surface tag","caltrans_match_coverage":0.993,"verified_length_m":4184},"geometry":{"type":"LineString","coordinates":[[-116.40292,34.295],[-116.40242,34.29521],[-116.40173,34.29569],[-116.40143,34.29588],[-116.4012,34.29605],[-116.40104,34.29623],[-116.40095,34.29644],[-116.40087,34.29662],[-116.40079,34.29675],[-116.40071,34.29687],[-116.40062,34.29698],[-116.40044,34.29715],[-116.40023,34.29733],[-116.40008,34.29749],[-116.39993,34.29768],[-116.39981,34.29787],[-116.39971,34.29806],[-116.39954,34.29822],[-116.3994,34.29832],[-116.39925,34.29839],[-116.39899,34.29852],[-116.39866,34.2987],[-116.39816,34.29904],[-116.39756,34.29946],[-116.39724,34.29967],[-116.39696,34.29985],[-116.39649,34.30015],[-116.3963,34.3003],[-116.39619,34.30044],[-116.39609,34.30059],[-116.39605,34.30075],[-116.39602,34.30102],[-116.39605,34.30131],[-116.39611,34.30174],[-116.39622,34.30218],[-116.3964,34.30286],[-116.39653,34.30341],[-116.39657,34.30389],[-116.39652,34.3042],[-116.39648,34.30436],[-116.39648,34.30451],[-116.39648,34.30463],[-116.39654,34.30485],[-116.39667,34.30527],[-116.39675,34.30534],[-116.39686,34.30635],[-116.39703,34.30678],[-116.39714,34.30733],[-116.39696,34.31382],[-116.39691,34.31424],[-116.3967,34.31458],[-116.39642,34.31489],[-116.39344,34.31691],[-116.39329,34.31715],[-116.39293,34.31774],[-116.39275,34.31877],[-116.39188,34.32027],[-116.39181,34.32039],[-116.39102,34.32101],[-116.39017,34.32158],[-116.38892,34.32323],[-116.3886,34.32388],[-116.38818,34.32509],[-116.38784,34.32641],[-116.38778,34.32703],[-116.38781,34.32733],[-116.38783,34.32753]]}}]}