{"type":"FeatureCollection","features":[{"type":"Feature","properties":{"name":"Elm Street","road_class":"track","surface":"unpaved","tracktype":"grade3","source":"Caltrans All Roads + OpenStreetMap explicit surface","source_detail":"osm way 101478012; Caltrans All Roads public-network geometry match","source_tile":"180/409","public_network_source":"Caltrans All Roads (ARNOLD/HPMS)","surface_source":"OpenStreetMap explicit surface tag","caltrans_match_coverage":0.972,"verified_length_m":3392},"geometry":{"type":"LineString","coordinates":[[-116.75435,33.91988],[-116.7542,33.91993],[-116.75402,33.91996],[-116.75383,33.91997],[-116.75341,33.92001],[-116.75122,33.92014],[-116.7506,33.92018],[-116.74825,33.92035],[-116.74725,33.92044],[-116.74653,33.92057],[-116.74621,33.92063],[-116.74559,33.92078],[-116.74395,33.92143],[-116.74312,33.92169],[-116.7421,33.92215],[-116.74152,33.92233],[-116.74036,33.92277],[-116.73884,33.92335],[-116.7386,33.9234],[-116.73709,33.92353],[-116.73523,33.92371],[-116.73477,33.92365],[-116.73139,33.92308],[-116.72688,33.92233],[-116.72449,33.9219],[-116.71998,33.92115],[-116.71978,33.92113],[-116.71941,33.92105],[-116.71875,33.92095]]}},{"type":"Feature","properties":{"name":"South Ridge Spur","road_class":"track","surface":"dirt","tracktype":"grade3","source":"Caltrans All Roads + OpenStreetMap explicit surface","source_detail":"osm way 7026136; Caltrans All Roads public-network geometry match","source_tile":"180/409","public_network_source":"Caltrans All Roads (ARNOLD/HPMS)","surface_source":"OpenStreetMap explicit surface tag","caltrans_match_coverage":0.934,"verified_length_m":713},"geometry":{"type":"LineString","coordinates":[[-116.69774,33.73526],[-116.69767,33.73474],[-116.69762,33.73404],[-116.69746,33.73294],[-116.69765,33.73236],[-116.69786,33.73209],[-116.69797,33.73162],[-116.69838,33.73138],[-116.6986,33.73133],[-116.69904,33.73134],[-116.69924,33.73125],[-116.69942,33.73117],[-116.69991,33.73102],[-116.70023,33.73084],[-116.70057,33.73084],[-116.70093,33.7307]]}},{"type":"Feature","properties":{"name":"Power Line Road","road_class":"track","surface":"dirt","source":"Caltrans All Roads + OpenStreetMap explicit surface","source_detail":"osm way 7106497; Caltrans All Roads public-network geometry match","source_tile":"180/409","public_network_source":"Caltrans All Roads (ARNOLD/HPMS)","surface_source":"OpenStreetMap explicit surface tag","caltrans_match_coverage":0.972,"verified_length_m":4150},"geometry":{"type":"LineString","coordinates":[[-116.58022,33.93307],[-116.57604,33.93311],[-116.57578,33.93311],[-116.57514,33.93311],[-116.57257,33.93311],[-116.57052,33.9331],[-116.57022,33.9331],[-116.56938,33.9331],[-116.56704,33.93311],[-116.56575,33.93311],[-116.56495,33.93314],[-116.56473,33.93315],[-116.56352,33.93314],[-116.56311,33.93312],[-116.56169,33.93315],[-116.56084,33.93313],[-116.55504,33.93316],[-116.54988,33.93316],[-116.54958,33.93313],[-116.54903,33.93273],[-116.5454,33.92976],[-116.54519,33.92959],[-116.5441,33.92876],[-116.544,33.92867],[-116.54379,33.92844],[-116.54372,33.92838],[-116.54366,33.92832],[-116.54357,33.92825],[-116.54337,33.9281],[-116.54313,33.92796],[-116.53929,33.92486]]}},{"type":"Feature","properties":{"name":"Anita Road","road_class":"track","surface":"unpaved","source":"Caltrans All Roads + OpenStreetMap explicit surface","source_detail":"osm way 7174925; Caltrans All Roads public-network geometry match","source_tile":"180/409","public_network_source":"Caltrans All Roads (ARNOLD/HPMS)","surface_source":"OpenStreetMap explicit surface tag","caltrans_match_coverage":0.996,"verified_length_m":1190},"geometry":{"type":"LineString","coordinates":[[-116.59286,33.9117],[-116.59301,33.91138],[-116.59313,33.90876],[-116.59322,33.90782],[-116.5932,33.90538],[-116.59317,33.90437],[-116.59324,33.90314],[-116.59321,33.90217],[-116.59312,33.90199],[-116.59313,33.90172],[-116.59315,33.90145],[-116.59327,33.90129],[-116.59358,33.90118]]}},{"type":"Feature","properties":{"name":"16th Avenue","road_class":"track","surface":"dirt","source":"Caltrans All Roads + OpenStreetMap explicit surface","source_detail":"osm way 7272642; Caltrans All Roads public-network geometry match","source_tile":"180/409","public_network_source":"Caltrans All Roads (ARNOLD/HPMS)","surface_source":"OpenStreetMap explicit surface tag","caltrans_match_coverage":0.999,"verified_length_m":1434},"geometry":{"type":"LineString","coordinates":[[-116.5978,33.93189],[-116.59566,33.93194],[-116.59515,33.93213],[-116.595,33.93216],[-116.59486,33.93218],[-116.59327,33.93219],[-116.59261,33.93221],[-116.58891,33.93221],[-116.58508,33.9322],[-116.58393,33.93217],[-116.58337,33.93227],[-116.58286,33.93218],[-116.58236,33.93215]]}},{"type":"Feature","properties":{"name":"South Ridge Road","road_class":"track","surface":"dirt","tracktype":"grade3","source":"Caltrans All Roads + OpenStreetMap explicit surface","source_detail":"osm way 7290741; Caltrans All Roads public-network geometry match","source_tile":"180/409","public_network_source":"Caltrans All Roads (ARNOLD/HPMS)","surface_source":"OpenStreetMap explicit surface tag","caltrans_match_coverage":1.0,"verified_length_m":670},"geometry":{"type":"LineString","coordinates":[[-116.70686,33.73746],[-116.70695,33.73732],[-116.70718,33.73707],[-116.70724,33.73702],[-116.70727,33.73695],[-116.70735,33.73669],[-116.70733,33.73654],[-116.70719,33.73649],[-116.70689,33.7365],[-116.70683,33.73659],[-116.70678,33.73672],[-116.70662,33.73685],[-116.7064,33.737],[-116.70619,33.73707],[-116.70605,33.73703],[-116.70584,33.73687],[-116.70563,33.7368],[-116.7055,33.73681],[-116.70541,33.73681],[-116.70511,33.73693],[-116.70501,33.73696],[-116.70476,33.73691],[-116.70458,33.73692],[-116.70438,33.73687],[-116.70436,33.73666],[-116.70422,33.73662],[-116.704,33.73687],[-116.70391,33.73709],[-116.70376,33.73724],[-116.70362,33.73728],[-116.70345,33.73726],[-116.70323,33.73711],[-116.70338,33.73672],[-116.70338,33.73656]]}},{"type":"Feature","properties":{"name":"Annandale Avenue","road_class":"unclassified","surface":"compacted","tracktype":"grade2","source":"Caltrans All Roads + OpenStreetMap explicit surface","source_detail":"osm way 7323469; Caltrans All Roads public-network geometry match","source_tile":"180/409","public_network_source":"Caltrans All Roads (ARNOLD/HPMS)","surface_source":"OpenStreetMap explicit surface tag","caltrans_match_coverage":1.0,"verified_length_m":1237},"geometry":{"type":"LineString","coordinates":[[-116.52386,33.99064],[-116.52319,33.99088],[-116.5211,33.9917],[-116.51998,33.99216],[-116.51947,33.9925],[-116.51911,33.99286],[-116.51854,33.99353],[-116.51829,33.99403],[-116.51783,33.99517],[-116.51771,33.9956],[-116.51773,33.99623],[-116.51761,33.99657],[-116.51754,33.99757],[-116.5175,33.998],[-116.5174,33.99867],[-116.51712,33.99911]]}},{"type":"Feature","properties":{"name":"Via Florencia","road_class":"unclassified","surface":"unpaved","source":"Caltrans All Roads + OpenStreetMap explicit surface","source_detail":"osm way 129381169; Caltrans All Roads public-network geometry match","source_tile":"180/409","public_network_source":"Caltrans All Roads (ARNOLD/HPMS)","surface_source":"OpenStreetMap explicit surface tag","caltrans_match_coverage":1.0,"verified_length_m":1010},"geometry":{"type":"LineString","coordinates":[[-116.40446,33.79259],[-116.40353,33.79261],[-116.40289,33.79261],[-116.40236,33.79267],[-116.40158,33.79268],[-116.40142,33.79268],[-116.40123,33.79268],[-116.40072,33.79264],[-116.40052,33.79264],[-116.39975,33.79264],[-116.39903,33.79264],[-116.39492,33.79264],[-116.39355,33.79269]]}},{"type":"Feature","properties":{"name":"Diablo Road","road_class":"unclassified","surface":"dirt","source":"Caltrans All Roads + OpenStreetMap explicit surface","source_detail":"osm way 135678513; Caltrans All Roads public-network geometry match","source_tile":"180/409","public_network_source":"Caltrans All Roads (ARNOLD/HPMS)","surface_source":"OpenStreetMap explicit surface tag","caltrans_match_coverage":1.0,"verified_length_m":1283},"geometry":{"type":"LineString","coordinates":[[-116.58027,33.92153],[-116.58027,33.92108],[-116.58026,33.91953],[-116.58026,33.91841],[-116.58025,33.91763],[-116.58024,33.91679],[-116.5802,33.9158],[-116.58019,33.91401],[-116.58018,33.91267],[-116.58021,33.91116],[-116.58016,33.91064],[-116.58009,33.91023],[-116.58016,33.90994]]}},{"type":"Feature","properties":{"name":"Mission Creek Road","road_class":"unclassified","surface":"dirt","motor_vehicle":"yes","access":"yes","source":"Caltrans All Roads + OpenStreetMap explicit surface","source_detail":"osm way 175014850; Caltrans All Roads public-network geometry match","source_tile":"180/409","public_network_source":"Caltrans All Roads (ARNOLD/HPMS)","surface_source":"OpenStreetMap explicit surface tag","caltrans_match_coverage":1.0,"verified_length_m":3588},"geometry":{"type":"LineString","coordinates":[[-116.58351,33.98445],[-116.58371,33.98465],[-116.58397,33.98505],[-116.58417,33.98648],[-116.58443,33.98682],[-116.58446,33.98687],[-116.58759,33.99247],[-116.58786,33.99274],[-116.58844,33.99312],[-116.58888,33.99346],[-116.59015,33.9943],[-116.5915,33.99502],[-116.59361,33.99613],[-116.59393,33.99638],[-116.59432,33.99693],[-116.59451,33.99709],[-116.59476,33.99717],[-116.5959,33.99726],[-116.59714,33.99744],[-116.59903,33.99751],[-116.5999,33.99759],[-116.60101,33.99774],[-116.60172,33.99789],[-116.60286,33.99815],[-116.60352,33.99834],[-116.60426,33.99859],[-116.60454,33.99865],[-116.60491,33.99861],[-116.60528,33.99852],[-116.60604,33.99823],[-116.60643,33.99816],[-116.60705,33.99817],[-116.60747,33.9982],[-116.60996,33.99886],[-116.61045,33.99904],[-116.61091,33.99924],[-116.61114,33.99945],[-116.61177,34.00007],[-116.61212,34.00045],[-116.6124,34.00068],[-116.6125,34.00077]]}},{"type":"Feature","properties":{"name":"Mission Creek Road","road_class":"unclassified","surface":"dirt","tracktype":"grade2","motor_vehicle":"permit","access":"yes","source":"Caltrans All Roads + OpenStreetMap explicit surface","source_detail":"osm way 233471965; Caltrans All Roads public-network geometry match","source_tile":"180/409","public_network_source":"Caltrans All Roads (ARNOLD/HPMS)","surface_source":"OpenStreetMap explicit surface tag","caltrans_match_coverage":0.945,"verified_length_m":1633},"geometry":{"type":"LineString","coordinates":[[-116.6125,34.00077],[-116.61268,34.00086],[-116.61322,34.00116],[-116.6146,34.00211],[-116.61543,34.00252],[-116.61628,34.0032],[-116.61684,34.00367],[-116.61752,34.00404],[-116.6181,34.00453],[-116.61852,34.00497],[-116.6192,34.00558],[-116.61949,34.00592],[-116.61983,34.0066],[-116.62017,34.00688],[-116.62087,34.00728],[-116.62178,34.00772],[-116.62257,34.0084],[-116.62292,34.00877],[-116.62319,34.009],[-116.6238,34.00923],[-116.62455,34.00951],[-116.62527,34.00972],[-116.62553,34.00996],[-116.62565,34.01005],[-116.62579,34.0101]]}},{"type":"Feature","properties":{"name":"(unnamed public road)","road_class":"track","surface":"dirt","source":"Caltrans All Roads + OpenStreetMap explicit surface","source_detail":"osm way 296790561; Caltrans All Roads public-network geometry match","source_tile":"180/409","public_network_source":"Caltrans All Roads (ARNOLD/HPMS)","surface_source":"OpenStreetMap explicit surface tag","caltrans_match_coverage":0.966,"verified_length_m":1827},"geometry":{"type":"LineString","coordinates":[[-116.37238,33.79164],[-116.37233,33.79178],[-116.3723,33.79181],[-116.37226,33.79182],[-116.37221,33.79179],[-116.37213,33.79172],[-116.37203,33.79169],[-116.37169,33.79166],[-116.37155,33.79167],[-116.37144,33.79171],[-116.37134,33.7918],[-116.37126,33.79191],[-116.3712,33.79203],[-116.37113,33.79212],[-116.37105,33.7922],[-116.37103,33.79227],[-116.37103,33.79237],[-116.37108,33.7925],[-116.37108,33.79297],[-116.37108,33.79347],[-116.37105,33.79378],[-116.37102,33.79391],[-116.37096,33.79403],[-116.37092,33.79415],[-116.37093,33.79458],[-116.37103,33.79465],[-116.37109,33.79471],[-116.37111,33.79478],[-116.38072,33.80048],[-116.38283,33.80173],[-116.3829,33.80179],[-116.38294,33.8018],[-116.38314,33.80178]]}},{"type":"Feature","properties":{"name":"Power Line Road","road_class":"track","surface":"dirt","source":"Caltrans All Roads + OpenStreetMap explicit surface","source_detail":"osm way 867546881; Caltrans All Roads public-network geometry match","source_tile":"180/409","public_network_source":"Caltrans All Roads (ARNOLD/HPMS)","surface_source":"OpenStreetMap explicit surface tag","caltrans_match_coverage":0.973,"verified_length_m":1555},"geometry":{"type":"LineString","coordinates":[[-116.59765,33.93302],[-116.59763,33.93303],[-116.59544,33.933],[-116.58892,33.93303],[-116.58864,33.93302],[-116.58784,33.93301],[-116.58742,33.93307],[-116.58701,33.93306],[-116.58653,33.93303],[-116.58563,33.93305],[-116.58534,33.93304],[-116.58261,33.93305],[-116.58208,33.93304],[-116.58196,33.93302],[-116.58196,33.93285],[-116.58211,33.93254],[-116.58222,33.93236],[-116.58236,33.93215]]}},{"type":"Feature","properties":{"name":"Vista de Oro","road_class":"track","surface":"sand","tracktype":"grade4","source":"Caltrans All Roads + OpenStreetMap explicit surface","source_detail":"osm way 1252745687; Caltrans All Roads public-network geometry match","source_tile":"180/409","public_network_source":"Caltrans All Roads (ARNOLD/HPMS)","surface_source":"OpenStreetMap explicit surface tag","caltrans_match_coverage":1.0,"verified_length_m":1175},"geometry":{"type":"LineString","coordinates":[[-116.37086,33.80595],[-116.37087,33.80599],[-116.37096,33.80881],[-116.371,33.81091],[-116.37105,33.81265],[-116.37118,33.8129],[-116.37125,33.81655]]}},{"type":"Feature","properties":{"name":"(unnamed public road)","road_class":"unclassified","surface":"dirt","source":"Caltrans All Roads + OpenStreetMap explicit surface","source_detail":"osm way 1316289986; Caltrans All Roads public-network geometry match","source_tile":"180/409","public_network_source":"Caltrans All Roads (ARNOLD/HPMS)","surface_source":"OpenStreetMap explicit surface tag","caltrans_match_coverage":0.91,"verified_length_m":3428},"geometry":{"type":"LineString","coordinates":[[-116.45752,33.9469],[-116.45729,33.94702],[-116.45667,33.94749],[-116.45508,33.94951],[-116.45169,33.95379],[-116.44868,33.95757],[-116.44822,33.95803],[-116.44704,33.95876],[-116.44644,33.95918],[-116.44639,33.9592],[-116.44589,33.95958],[-116.44545,33.95998],[-116.44521,33.96025],[-116.4447,33.96095],[-116.44424,33.96166],[-116.44411,33.9619],[-116.44395,33.96242],[-116.44391,33.96264],[-116.44384,33.96286],[-116.44378,33.96312],[-116.44377,33.96332],[-116.44379,33.96351],[-116.44404,33.9646],[-116.44418,33.96558],[-116.44419,33.96596],[-116.44424,33.96631],[-116.44425,33.96688],[-116.4443,33.96747],[-116.44444,33.96803],[-116.4445,33.96856],[-116.44464,33.96912],[-116.44462,33.9695],[-116.44453,33.97041],[-116.44454,33.9708],[-116.44442,33.97102],[-116.44432,33.9711],[-116.44416,33.97113],[-116.44397,33.9711],[-116.44381,33.97107],[-116.44375,33.97097],[-116.44374,33.97087],[-116.44378,33.97063],[-116.44377,33.97051],[-116.44372,33.97039],[-116.44355,33.97013],[-116.44353,33.96986],[-116.44346,33.96981],[-116.44338,33.96983],[-116.44334,33.96993],[-116.44333,33.97018],[-116.44338,33.97046],[-116.44337,33.97057],[-116.4432,33.97069]]}},{"type":"Feature","properties":{"name":"May Valley Road","road_class":"track","surface":"dirt","source":"Caltrans All Roads + OpenStreetMap explicit surface","source_detail":"osm way 7165286; Caltrans All Roads public-network geometry match","source_tile":"180/410","public_network_source":"Caltrans All Roads (ARNOLD/HPMS)","surface_source":"OpenStreetMap explicit surface tag","caltrans_match_coverage":1.0,"verified_length_m":2691},"geometry":{"type":"LineString","coordinates":[[-116.69561,33.71568],[-116.69575,33.71574],[-116.69599,33.71583],[-116.69621,33.71588],[-116.6963,33.71593],[-116.69637,33.71599],[-116.69642,33.71608],[-116.69645,33.71618],[-116.69651,33.71629],[-116.69661,33.7165],[-116.69673,33.71669],[-116.69687,33.71688],[-116.69713,33.71717],[-116.69728,33.71733],[-116.69738,33.71743],[-116.69757,33.71765],[-116.69785,33.71799],[-116.69835,33.71851],[-116.6985,33.71868],[-116.69864,33.71883],[-116.69878,33.71898],[-116.69885,33.71908],[-116.69899,33.7193],[-116.69912,33.7195],[-116.69919,33.71957],[-116.69943,33.71973],[-116.69965,33.71997],[-116.69969,33.72002],[-116.69977,33.72008],[-116.69986,33.72012],[-116.69997,33.72016],[-116.70007,33.72016],[-116.70013,33.72017],[-116.70019,33.72018],[-116.70024,33.72022],[-116.70035,33.72037],[-116.70044,33.72047],[-116.70051,33.72058],[-116.70052,33.72066],[-116.70052,33.72079],[-116.70053,33.72086],[-116.70055,33.72092],[-116.70061,33.721],[-116.70068,33.72107],[-116.70076,33.72111],[-116.70089,33.72115],[-116.70097,33.72118],[-116.70105,33.72124],[-116.7011,33.72132],[-116.70123,33.72157],[-116.70132,33.72172],[-116.70139,33.72182],[-116.70144,33.72186],[-116.70149,33.7219],[-116.70154,33.72193],[-116.70161,33.72193],[-116.70165,33.72192],[-116.7017,33.7219],[-116.70172,33.72186],[-116.70174,33.7218],[-116.70175,33.72174],[-116.70176,33.72169],[-116.7018,33.72165],[-116.70185,33.7216],[-116.70193,33.72156],[-116.70204,33.72152],[-116.70215,33.72152],[-116.70225,33.72154],[-116.70236,33.72157],[-116.70243,33.72159],[-116.70246,33.7216],[-116.70283,33.72176],[-116.70292,33.72181],[-116.70305,33.72188],[-116.7031,33.7219],[-116.70314,33.72191],[-116.70319,33.72189],[-116.70324,33.72185],[-116.70329,33.72179],[-116.70334,33.72176],[-116.70343,33.72174],[-116.70352,33.72175],[-116.70359,33.72175],[-116.70372,33.72173],[-116.70391,33.72168],[-116.70409,33.72167],[-116.7042,33.72165],[-116.7043,33.72163],[-116.70441,33.72162],[-116.70452,33.72164],[-116.70467,33.72171],[-116.70472,33.72176],[-116.70481,33.7219],[-116.70502,33.7222],[-116.70511,33.72226],[-116.70521,33.72229],[-116.70528,33.7223],[-116.70536,33.7223],[-116.70543,33.72231],[-116.70549,33.72232],[-116.70555,33.72235],[-116.70559,33.72241],[-116.70564,33.72245],[-116.70567,33.72248],[-116.70573,33.72248],[-116.70578,33.72247],[-116.70585,33.72244],[-116.70595,33.72243],[-116.70602,33.72243],[-116.70611,33.72246],[-116.70618,33.72249],[-116.70621,33.72254],[-116.70622,33.7226],[-116.70622,33.72268],[-116.7062,33.72275],[-116.70613,33.72292],[-116.70613,33.72299],[-116.70615,33.72303],[-116.70617,33.72306],[-116.70623,33.72311],[-116.7063,33.72317],[-116.70633,33.72323],[-116.70635,33.72327],[-116.70635,33.72342],[-116.70634,33.72351],[-116.70633,33.72357],[-116.7063,33.72362],[-116.70616,33.72384],[-116.70602,33.72398],[-116.70597,33.72404],[-116.70593,33.72415],[-116.70589,33.72431],[-116.70588,33.72437],[-116.70589,33.7244],[-116.70593,33.72443],[-116.70601,33.72448],[-116.70609,33.72451],[-116.70615,33.72455],[-116.70619,33.7246],[-116.70624,33.7247],[-116.70632,33.72477],[-116.70649,33.72486],[-116.70668,33.725],[-116.70678,33.72508],[-116.70688,33.72518],[-116.70693,33.72528],[-116.70694,33.72541],[-116.70694,33.72545],[-116.70699,33.72549],[-116.70704,33.7255],[-116.70711,33.72551],[-116.70725,33.72552],[-116.70739,33.72557],[-116.70746,33.72558],[-116.70753,33.72558],[-116.70766,33.72556],[-116.70772,33.72554],[-116.7078,33.72553],[-116.70788,33.72554],[-116.70793,33.72558],[-116.70802,33.72569],[-116.70814,33.7258],[-116.70826,33.72593],[-116.70831,33.72599],[-116.70836,33.72602],[-116.70843,33.72603],[-116.70854,33.72603],[-116.70875,33.72602],[-116.70883,33.72604],[-116.70889,33.72607],[-116.70894,33.72613],[-116.709,33.72628],[-116.70904,33.72633],[-116.70908,33.72637],[-116.7094,33.72659],[-116.70949,33.72667],[-116.70953,33.72671],[-116.70957,33.72676],[-116.70959,33.72682],[-116.70961,33.72689],[-116.70963,33.72696],[-116.70966,33.72705],[-116.70973,33.72716],[-116.70983,33.72729],[-116.70996,33.72742],[-116.71003,33.72749],[-116.71004,33.72753],[-116.71005,33.72759],[-116.71004,33.72768],[-116.71002,33.72778],[-116.71,33.72789],[-116.70996,33.72796],[-116.70995,33.72803],[-116.70996,33.72811],[-116.70997,33.72819],[-116.70995,33.72827],[-116.7099,33.72834],[-116.70986,33.72837],[-116.70978,33.7284],[-116.70966,33.72846],[-116.70962,33.72851],[-116.70961,33.72854],[-116.70962,33.72857],[-116.70965,33.72861],[-116.70972,33.72866],[-116.70993,33.72879],[-116.71027,33.72901],[-116.7105,33.72915],[-116.71059,33.72921],[-116.71067,33.72922],[-116.71077,33.72924],[-116.71083,33.72924],[-116.71096,33.72926],[-116.7113,33.72933],[-116.71144,33.72935],[-116.71164,33.72938],[-116.7118,33.72938],[-116.7119,33.72939],[-116.71203,33.72941],[-116.71227,33.72952],[-116.71252,33.72964],[-116.71261,33.72969],[-116.71267,33.72975]]}},{"type":"Feature","properties":{"name":"Calle Desierto","road_class":"track","surface":"unpaved","source":"Caltrans All Roads + OpenStreetMap explicit surface","source_detail":"osm way 7178482; Caltrans All Roads public-network geometry match","source_tile":"181/409","public_network_source":"Caltrans All Roads (ARNOLD/HPMS)","surface_source":"OpenStreetMap explicit surface tag","caltrans_match_coverage":1.0,"verified_length_m":596},"geometry":{"type":"LineString","coordinates":[[-116.36878,33.80548],[-116.36234,33.80552]]}}]}