{"type":"FeatureCollection","features":[{"type":"Feature","properties":{"name":"Old RR Grade","source":"Bureau of Land Management","source_detail":"BLM GTLF OBJECTID 156692","source_id":"{2D00AC76-FAE5-4395-9334-058D6A7BAEAB}","road_class":"transportation_system_-_primitive_road","surface":"natural_improved","vehicle_class":"4wd_low","allowed_mode":"unk","access_restriction":"unknown","seasonal_restriction":"not_listed","gis_miles":21.16764086},"geometry":{"type":"LineString","coordinates":[[-116.11853,35.53264],[-116.11856,35.53258]]}},{"type":"Feature","properties":{"name":"Old RR Grade","source":"Bureau of Land Management","source_detail":"BLM GTLF OBJECTID 157642","source_id":"{E71F1A62-7471-48F7-ADF9-57CF82DCC9DD}","road_class":"transportation_system_-_primitive_road","surface":"natural_improved","vehicle_class":"4wd_low","allowed_mode":"unk","access_restriction":"unknown","seasonal_restriction":"not_listed","gis_miles":21.16764086},"geometry":{"type":"LineString","coordinates":[[-116.11956,35.57494],[-116.1196,35.57499],[-116.11973,35.57506],[-116.11976,35.57508]]}},{"type":"Feature","properties":{"name":"Old RR Grade","source":"Bureau of Land Management","source_detail":"BLM GTLF OBJECTID 158449","source_id":"{3EE6498E-77C6-4A8F-A72A-9CBE30373BEA}","road_class":"transportation_system_-_primitive_road","surface":"natural_improved","vehicle_class":"4wd_low","allowed_mode":"unk","access_restriction":"unknown","seasonal_restriction":"not_listed","gis_miles":21.16764086},"geometry":{"type":"LineString","coordinates":[[-116.11577,35.56221],[-116.11581,35.56235],[-116.11583,35.56247]]}}]}