{"type":"FeatureCollection","features":[{"type":"Feature","properties":{"name":"Unnamed BLM route","source":"Bureau of Land Management","source_detail":"BLM GTLF OBJECTID 154984","source_id":"{8267D666-EF6C-4BA7-9054-A000DF4E4E5B}","road_class":"transportation_system_-_primitive_road","surface":"natural_improved","vehicle_class":"4wd_low","allowed_mode":"unk","access_restriction":"unknown","seasonal_restriction":"not_listed","gis_miles":1.29331589},"geometry":{"type":"LineString","coordinates":[[-116.35128,34.32],[-116.35166,34.32068],[-116.35189,34.321],[-116.35239,34.32169],[-116.35237,34.32206],[-116.35235,34.3244],[-116.35236,34.32527],[-116.3523,34.32621],[-116.3522,34.33061],[-116.35216,34.33286],[-116.35208,34.33465],[-116.35199,34.33799],[-116.35196,34.33851]]}},{"type":"Feature","properties":{"name":"Unnamed BLM route","source":"Bureau of Land Management","source_detail":"BLM GTLF OBJECTID 155841","source_id":"{D5404505-5871-46BB-9800-DFD93AA9002B}","road_class":"transportation_system_-_primitive_road","surface":"natural_improved","vehicle_class":"4wd_low","allowed_mode":"unk","access_restriction":"unknown","seasonal_restriction":"not_listed","gis_miles":0.04034259},"geometry":{"type":"LineString","coordinates":[[-116.35199,34.33799],[-116.35206,34.33817],[-116.3522,34.33835],[-116.35225,34.33844],[-116.35222,34.33852]]}},{"type":"Feature","properties":{"name":"Unnamed BLM route","source":"Bureau of Land Management","source_detail":"BLM GTLF OBJECTID 157350","source_id":"{37E246FA-79B4-4135-B56D-561F8D9930E8}","road_class":"transportation_system_-_primitive_road","surface":"natural_improved","vehicle_class":"4wd_low","allowed_mode":"unk","access_restriction":"unknown","seasonal_restriction":"not_listed","gis_miles":0.03851704},"geometry":{"type":"LineString","coordinates":[[-116.35189,34.321],[-116.35161,34.32086],[-116.35137,34.32081],[-116.35128,34.32079]]}}]}