{"type":"FeatureCollection","features":[{"type":"Feature","properties":{"name":"Eureka Valley Road","road_class":"unclassified","surface":"compacted","tracktype":"grade2","source":"Caltrans All Roads + OpenStreetMap explicit surface","source_detail":"osm way 98681356; Caltrans All Roads public-network geometry match","source_tile":"177/397","public_network_source":"Caltrans All Roads (ARNOLD/HPMS)","surface_source":"OpenStreetMap explicit surface tag","caltrans_match_coverage":1.0,"verified_length_m":19956},"geometry":{"type":"LineString","coordinates":[[-117.76578,37.33548],[-117.76579,37.33566],[-117.76581,37.3358],[-117.76605,37.3364],[-117.7661,37.33647],[-117.76619,37.33657],[-117.76649,37.33682],[-117.76663,37.33699],[-117.76704,37.33766],[-117.76726,37.33804],[-117.76731,37.3382],[-117.76729,37.33836],[-117.76709,37.33889],[-117.76699,37.33921],[-117.76683,37.33946],[-117.76666,37.33974],[-117.7664,37.34037],[-117.76635,37.34054],[-117.76637,37.34069],[-117.76645,37.34087],[-117.76662,37.34113],[-117.76683,37.34133],[-117.76749,37.34175],[-117.76822,37.34212],[-117.76851,37.34228],[-117.76877,37.34248],[-117.77076,37.34448],[-117.77093,37.34464],[-117.77139,37.34493],[-117.77256,37.34575],[-117.77298,37.34613],[-117.77374,37.34682],[-117.77398,37.34701],[-117.7744,37.34721],[-117.77456,37.34732],[-117.77504,37.3478],[-117.77539,37.3482],[-117.77553,37.34835],[-117.77565,37.34841],[-117.77595,37.34851],[-117.77628,37.34864],[-117.7765,37.34866],[-117.77677,37.3486],[-117.77697,37.3485],[-117.77716,37.34838],[-117.77736,37.34826],[-117.77756,37.34818],[-117.7778,37.34812],[-117.77808,37.3481],[-117.77833,37.34812],[-117.77876,37.34827],[-117.77905,37.34834],[-117.77929,37.34837],[-117.77959,37.34837],[-117.77981,37.34842],[-117.7804,37.34868],[-117.78107,37.34901],[-117.78141,37.34921],[-117.78185,37.34951],[-117.78275,37.3501],[-117.78357,37.35074],[-117.78426,37.35134],[-117.78446,37.35154],[-117.78469,37.35192],[-117.78484,37.35222],[-117.78504,37.35242],[-117.7852,37.35253],[-117.78539,37.35264],[-117.78584,37.35285],[-117.78636,37.35319],[-117.78674,37.35349],[-117.78705,37.35371],[-117.78729,37.35382],[-117.78762,37.35397],[-117.78791,37.35416],[-117.78828,37.35445],[-117.78874,37.35479],[-117.78929,37.3552],[-117.7901,37.35575],[-117.79032,37.35594],[-117.79052,37.35612],[-117.79085,37.35643],[-117.79101,37.35653],[-117.79131,37.35659],[-117.79241,37.35678],[-117.79284,37.35688],[-117.79345,37.35708],[-117.79431,37.35737],[-117.79457,37.35746],[-117.79485,37.35761],[-117.79544,37.35804],[-117.79686,37.35923],[-117.797,37.35934],[-117.79715,37.35942],[-117.79732,37.35949],[-117.79762,37.35957],[-117.79802,37.35962],[-117.79848,37.35962],[-117.79882,37.35958],[-117.79902,37.35951],[-117.79929,37.35938],[-117.79957,37.35928],[-117.80006,37.35918],[-117.80044,37.35916],[-117.8009,37.35918],[-117.80124,37.35921],[-117.80144,37.35928],[-117.80161,37.35939],[-117.80179,37.35955],[-117.80194,37.35962],[-117.80218,37.35967],[-117.80236,37.35971],[-117.80262,37.35988],[-117.80273,37.35993],[-117.80289,37.35996],[-117.80315,37.35995],[-117.80334,37.35997],[-117.80353,37.36005],[-117.80409,37.36038],[-117.80479,37.36076],[-117.80594,37.36148],[-117.8076,37.36257],[-117.80852,37.36328],[-117.80929,37.36393],[-117.80976,37.36431],[-117.81039,37.36486],[-117.8117,37.36566],[-117.81186,37.36578],[-117.812,37.3659],[-117.81264,37.36656],[-117.81305,37.36697],[-117.81417,37.36798],[-117.8145,37.36827],[-117.81493,37.36866],[-117.81627,37.36984],[-117.81713,37.37058],[-117.81794,37.37127],[-117.81993,37.37297],[-117.82121,37.37407],[-117.82216,37.3749],[-117.8226,37.37527],[-117.82377,37.3763],[-117.82458,37.37701],[-117.82563,37.37791],[-117.82615,37.37837],[-117.82688,37.37902],[-117.82972,37.38143],[-117.83015,37.38176],[-117.83072,37.38214],[-117.83188,37.38285],[-117.83238,37.38314],[-117.83277,37.38336],[-117.83402,37.38408],[-117.83506,37.38474],[-117.83617,37.38555],[-117.83673,37.38594],[-117.83694,37.38608],[-117.83716,37.38621],[-117.83737,37.3863],[-117.8383,37.38661],[-117.8385,37.38671],[-117.83867,37.38682],[-117.83881,37.38697],[-117.83891,37.38718],[-117.83906,37.38744],[-117.83921,37.38764],[-117.83946,37.38788],[-117.84015,37.38861],[-117.84045,37.38886],[-117.84077,37.3891],[-117.84113,37.38933],[-117.84149,37.3896],[-117.84187,37.38997],[-117.84267,37.39079],[-117.84297,37.39108],[-117.84404,37.39193],[-117.84443,37.39227],[-117.84477,37.39264],[-117.84517,37.39306],[-117.84562,37.39339],[-117.84603,37.39363],[-117.84634,37.39386],[-117.84673,37.39422],[-117.84709,37.39466],[-117.84736,37.39502],[-117.84779,37.39597],[-117.84792,37.39621],[-117.84901,37.39787],[-117.84922,37.39827],[-117.84938,37.39859],[-117.84953,37.39876],[-117.85064,37.39964],[-117.85102,37.39992],[-117.85146,37.40015],[-117.85261,37.40079],[-117.85305,37.40107],[-117.8543,37.40193],[-117.85462,37.40213],[-117.85481,37.40228],[-117.85492,37.40241],[-117.85502,37.40257],[-117.85514,37.40283],[-117.85522,37.40314],[-117.85533,37.40349],[-117.85542,37.40368],[-117.8556,37.4039],[-117.85689,37.40508],[-117.85709,37.40525],[-117.85724,37.40536],[-117.8578,37.40572],[-117.85807,37.40595],[-117.85827,37.40617],[-117.85916,37.40736],[-117.86022,37.4088],[-117.86114,37.40981],[-117.8624,37.41122],[-117.86419,37.413],[-117.8645,37.41346],[-117.86471,37.4137],[-117.86516,37.41413],[-117.86546,37.41446],[-117.86568,37.41476],[-117.86598,37.41513],[-117.86615,37.41531],[-117.86688,37.41594],[-117.86721,37.41627],[-117.86755,37.4167],[-117.86777,37.41692],[-117.86799,37.41711],[-117.86865,37.41777],[-117.86885,37.41794],[-117.86903,37.41804],[-117.86928,37.41812],[-117.86976,37.4182],[-117.87011,37.41827],[-117.87042,37.41831],[-117.87082,37.41837],[-117.87105,37.41844],[-117.87125,37.41855],[-117.87149,37.41873],[-117.87188,37.41916],[-117.87209,37.41941],[-117.8723,37.41975],[-117.87279,37.4207],[-117.87342,37.42261],[-117.87361,37.42304],[-117.87394,37.42356],[-117.87414,37.42384],[-117.87432,37.42403],[-117.87451,37.42418],[-117.87485,37.42437],[-117.87518,37.42456],[-117.87942,37.42711],[-117.87956,37.42721],[-117.8797,37.42736],[-117.87984,37.42762],[-117.88077,37.42955],[-117.88148,37.43094],[-117.88204,37.43211],[-117.8825,37.43302],[-117.8826,37.43317],[-117.883,37.4335],[-117.88443,37.43456],[-117.88512,37.43505],[-117.88527,37.43517],[-117.88585,37.43574],[-117.88618,37.43596],[-117.8868,37.43609],[-117.88761,37.43623],[-117.88882,37.43649],[-117.88934,37.43665],[-117.88985,37.43691],[-117.89095,37.43753],[-117.89164,37.43799],[-117.89198,37.43833],[-117.89218,37.4387],[-117.89226,37.43898],[-117.8924,37.44004],[-117.89257,37.44086],[-117.89282,37.44177],[-117.89311,37.44252],[-117.89359,37.44349],[-117.89396,37.44418],[-117.89419,37.44466],[-117.89529,37.44609],[-117.89542,37.44628],[-117.89551,37.44646],[-117.89559,37.44667],[-117.89685,37.45095],[-117.89789,37.45427],[-117.89843,37.45607],[-117.89863,37.45679],[-117.8987,37.45697],[-117.89878,37.45707],[-117.89885,37.45713],[-117.8991,37.45727],[-117.89932,37.45737],[-117.89947,37.45746],[-117.89955,37.45754],[-117.8996,37.45766],[-117.89963,37.45792],[-117.89963,37.45837],[-117.89962,37.45961],[-117.89965,37.45971],[-117.89972,37.4598],[-117.89985,37.4599],[-117.90007,37.46003],[-117.90028,37.46023],[-117.90042,37.46046],[-117.90068,37.46096],[-117.90084,37.46117],[-117.90105,37.46137],[-117.90115,37.46144],[-117.90151,37.46164],[-117.90193,37.46178],[-117.90293,37.46197],[-117.90367,37.46204],[-117.90399,37.46209],[-117.90431,37.46219],[-117.90464,37.46231],[-117.90499,37.46239],[-117.90593,37.46248],[-117.90603,37.4625]]}},{"type":"Feature","properties":{"name":"Death Valley - Big Pine Road","road_class":"unclassified","surface":"compacted","tracktype":"grade2","source":"Caltrans All Roads + OpenStreetMap explicit surface","source_detail":"osm way 1158104003; Caltrans All Roads public-network geometry match","source_tile":"177/397","public_network_source":"Caltrans All Roads (ARNOLD/HPMS)","surface_source":"OpenStreetMap explicit surface tag","caltrans_match_coverage":1.0,"verified_length_m":11104},"geometry":{"type":"LineString","coordinates":[[-117.76398,37.22769],[-117.76543,37.2283],[-117.76711,37.22902],[-117.76855,37.22963],[-117.77008,37.2303],[-117.77461,37.23224],[-117.77683,37.23323],[-117.78119,37.23521],[-117.78274,37.23596],[-117.7859,37.23743],[-117.78808,37.23846],[-117.79131,37.23995],[-117.79562,37.24197],[-117.79712,37.24271],[-117.79853,37.24343],[-117.80002,37.2442],[-117.80274,37.24561],[-117.80573,37.24718],[-117.81149,37.25018],[-117.82183,37.25544],[-117.82643,37.25779],[-117.83099,37.26009],[-117.83395,37.26162],[-117.83846,37.26387],[-117.84146,37.26539],[-117.84298,37.26615],[-117.84854,37.26887],[-117.85314,37.27116],[-117.85512,37.27213],[-117.8577,37.27343],[-117.86221,37.27563],[-117.86846,37.27871],[-117.87095,37.27995]]}}]}