{"type":"FeatureCollection","features":[{"type":"Feature","properties":{"name":"Mountain View Road","road_class":"unclassified","surface":"unpaved","source":"Caltrans All Roads + OpenStreetMap explicit surface","source_detail":"osm way 7145712; Caltrans All Roads public-network geometry match","source_tile":"177/406","public_network_source":"Caltrans All Roads (ARNOLD/HPMS)","surface_source":"OpenStreetMap explicit surface tag","caltrans_match_coverage":1.0,"verified_length_m":4048},"geometry":{"type":"LineString","coordinates":[[-117.54289,34.66006],[-117.54286,34.66368],[-117.54288,34.6673],[-117.54298,34.66904],[-117.54293,34.67091],[-117.54297,34.67448],[-117.54252,34.67552],[-117.54205,34.67614],[-117.54204,34.67647],[-117.54232,34.67739],[-117.54314,34.67988],[-117.54372,34.6809],[-117.54423,34.68194],[-117.54466,34.68341],[-117.54506,34.68382],[-117.54749,34.68607],[-117.54893,34.68784],[-117.54983,34.6892],[-117.55069,34.6901],[-117.55181,34.6907],[-117.5527,34.691],[-117.55342,34.69134],[-117.55452,34.69211],[-117.55494,34.69258]]}},{"type":"Feature","properties":{"name":"Desert Flower Road","road_class":"unclassified","surface":"unpaved","source":"Caltrans All Roads + OpenStreetMap explicit surface","source_detail":"osm way 7169340; Caltrans All Roads public-network geometry match","source_tile":"177/406","public_network_source":"Caltrans All Roads (ARNOLD/HPMS)","surface_source":"OpenStreetMap explicit surface tag","caltrans_match_coverage":0.978,"verified_length_m":1702},"geometry":{"type":"LineString","coordinates":[[-117.56192,34.64548],[-117.56109,34.64553],[-117.55889,34.64558],[-117.55662,34.64559],[-117.55453,34.64561],[-117.55215,34.64563],[-117.54998,34.64562],[-117.54776,34.64564],[-117.54598,34.64566],[-117.54458,34.64568],[-117.54393,34.64567],[-117.54334,34.64565]]}},{"type":"Feature","properties":{"name":"Tularosa Drive","road_class":"track","surface":"unpaved","source":"Caltrans All Roads + OpenStreetMap explicit surface","source_detail":"osm way 7172344; Caltrans All Roads public-network geometry match","source_tile":"177/406","public_network_source":"Caltrans All Roads (ARNOLD/HPMS)","surface_source":"OpenStreetMap explicit surface tag","caltrans_match_coverage":1.0,"verified_length_m":1326},"geometry":{"type":"LineString","coordinates":[[-117.53417,34.67091],[-117.5348,34.67085],[-117.53511,34.67073],[-117.53542,34.67055],[-117.53564,34.67031],[-117.53585,34.66991],[-117.53596,34.66975],[-117.5362,34.6692],[-117.53631,34.66867],[-117.53636,34.66728],[-117.53639,34.66621],[-117.53653,34.66557],[-117.53669,34.66503],[-117.53697,34.66445],[-117.5371,34.66424],[-117.53756,34.66347],[-117.53765,34.6632],[-117.53799,34.66243],[-117.5384,34.66106],[-117.53853,34.66014]]}},{"type":"Feature","properties":{"name":"Imperial Road","road_class":"track","surface":"unpaved","source":"Caltrans All Roads + OpenStreetMap explicit surface","source_detail":"osm way 7186559; Caltrans All Roads public-network geometry match","source_tile":"177/406","public_network_source":"Caltrans All Roads (ARNOLD/HPMS)","surface_source":"OpenStreetMap explicit surface tag","caltrans_match_coverage":1.0,"verified_length_m":1623},"geometry":{"type":"LineString","coordinates":[[-117.54318,34.65288],[-117.54522,34.65291],[-117.5459,34.65291],[-117.54756,34.65291],[-117.55046,34.65283],[-117.55198,34.65283],[-117.55429,34.65283],[-117.55663,34.65285],[-117.55889,34.65286],[-117.5609,34.65283]]}},{"type":"Feature","properties":{"name":"Johnson Road","road_class":"unclassified","surface":"unpaved","source":"Caltrans All Roads + OpenStreetMap explicit surface","source_detail":"osm way 7189139; Caltrans All Roads public-network geometry match","source_tile":"177/406","public_network_source":"Caltrans All Roads (ARNOLD/HPMS)","surface_source":"OpenStreetMap explicit surface tag","caltrans_match_coverage":1.0,"verified_length_m":1613},"geometry":{"type":"LineString","coordinates":[[-117.56114,34.6601],[-117.56118,34.66751],[-117.56125,34.6691],[-117.56123,34.67068],[-117.56127,34.67271],[-117.56128,34.67469]]}},{"type":"Feature","properties":{"name":"Tesoro Road","road_class":"track","surface":"unpaved","source":"Caltrans All Roads + OpenStreetMap explicit surface","source_detail":"osm way 7208048; Caltrans All Roads public-network geometry match","source_tile":"177/406","public_network_source":"Caltrans All Roads (ARNOLD/HPMS)","surface_source":"OpenStreetMap explicit surface tag","caltrans_match_coverage":1.0,"verified_length_m":1576},"geometry":{"type":"LineString","coordinates":[[-117.56128,34.67469],[-117.56168,34.67468],[-117.56267,34.67472],[-117.56604,34.6747],[-117.5679,34.67472],[-117.56995,34.67474],[-117.57127,34.67479],[-117.57849,34.67496]]}},{"type":"Feature","properties":{"name":"Tesoro Road","road_class":"unclassified","surface":"unpaved","source":"Caltrans All Roads + OpenStreetMap explicit surface","source_detail":"osm way 7208060; Caltrans All Roads public-network geometry match","source_tile":"177/406","public_network_source":"Caltrans All Roads (ARNOLD/HPMS)","surface_source":"OpenStreetMap explicit surface tag","caltrans_match_coverage":1.0,"verified_length_m":1615},"geometry":{"type":"LineString","coordinates":[[-117.54297,34.67448],[-117.54086,34.67448],[-117.53946,34.67448],[-117.53857,34.67446],[-117.53686,34.67446],[-117.53632,34.67445],[-117.53417,34.67445],[-117.53185,34.67448],[-117.52965,34.67446],[-117.52743,34.67444],[-117.52533,34.67439]]}},{"type":"Feature","properties":{"name":"Johnson Road","road_class":"unclassified","surface":"unpaved","source":"Caltrans All Roads + OpenStreetMap explicit surface","source_detail":"osm way 7212726; Caltrans All Roads public-network geometry match","source_tile":"177/406","public_network_source":"Caltrans All Roads (ARNOLD/HPMS)","surface_source":"OpenStreetMap explicit surface tag","caltrans_match_coverage":0.972,"verified_length_m":2631},"geometry":{"type":"LineString","coordinates":[[-117.56098,34.63634],[-117.56098,34.63726],[-117.56104,34.63831],[-117.56108,34.64005],[-117.56108,34.64105],[-117.56112,34.6423],[-117.56109,34.64369],[-117.56109,34.64553],[-117.56112,34.64678],[-117.56091,34.64722],[-117.56082,34.64917],[-117.5609,34.65104],[-117.5609,34.65283],[-117.5609,34.65297],[-117.56087,34.65368],[-117.56094,34.65468],[-117.56106,34.65646],[-117.56105,34.65703],[-117.56113,34.65824],[-117.56114,34.6601]]}},{"type":"Feature","properties":{"name":"El Paso Road","road_class":"track","surface":"unpaved","source":"Caltrans All Roads + OpenStreetMap explicit surface","source_detail":"osm way 7219749; Caltrans All Roads public-network geometry match","source_tile":"177/406","public_network_source":"Caltrans All Roads (ARNOLD/HPMS)","surface_source":"OpenStreetMap explicit surface tag","caltrans_match_coverage":1.0,"verified_length_m":993},"geometry":{"type":"LineString","coordinates":[[-117.55215,34.64563],[-117.55216,34.64748],[-117.55215,34.64919],[-117.5521,34.65007],[-117.5521,34.65018],[-117.55205,34.65106],[-117.55198,34.65283],[-117.55191,34.65461]]}},{"type":"Feature","properties":{"name":"Mirage Lake Road","road_class":"track","surface":"unpaved","source":"Caltrans All Roads + OpenStreetMap explicit surface","source_detail":"osm way 7219825; Caltrans All Roads public-network geometry match","source_tile":"177/406","public_network_source":"Caltrans All Roads (ARNOLD/HPMS)","surface_source":"OpenStreetMap explicit surface tag","caltrans_match_coverage":1.0,"verified_length_m":616},"geometry":{"type":"LineString","coordinates":[[-117.52516,34.60174],[-117.52815,34.60552],[-117.52873,34.60646]]}},{"type":"Feature","properties":{"name":"Sanburg Avenue","road_class":"track","surface":"unpaved","source":"Caltrans All Roads + OpenStreetMap explicit surface","source_detail":"osm way 7232779; Caltrans All Roads public-network geometry match","source_tile":"177/406","public_network_source":"Caltrans All Roads (ARNOLD/HPMS)","surface_source":"OpenStreetMap explicit surface tag","caltrans_match_coverage":1.0,"verified_length_m":1445},"geometry":{"type":"LineString","coordinates":[[-117.50011,34.60881],[-117.50013,34.61056],[-117.50005,34.61245],[-117.50005,34.61268],[-117.50018,34.61474],[-117.50025,34.61599],[-117.50048,34.61613],[-117.50077,34.61621],[-117.50077,34.6165],[-117.50074,34.62089],[-117.50071,34.62161]]}},{"type":"Feature","properties":{"name":"Canasta Drive","road_class":"track","surface":"unpaved","source":"Caltrans All Roads + OpenStreetMap explicit surface","source_detail":"osm way 7262169; Caltrans All Roads public-network geometry match","source_tile":"177/406","public_network_source":"Caltrans All Roads (ARNOLD/HPMS)","surface_source":"OpenStreetMap explicit surface tag","caltrans_match_coverage":1.0,"verified_length_m":1336},"geometry":{"type":"LineString","coordinates":[[-117.54286,34.66368],[-117.54179,34.6638],[-117.54153,34.66404],[-117.5411,34.66482],[-117.54085,34.66558],[-117.54077,34.6664],[-117.54077,34.66728],[-117.54069,34.66886],[-117.54,34.67044],[-117.53979,34.67077],[-117.53945,34.67142],[-117.53904,34.67217],[-117.53879,34.67267],[-117.53865,34.67303],[-117.53859,34.67344],[-117.53857,34.67446]]}},{"type":"Feature","properties":{"name":"Mesquite Road","road_class":"track","surface":"unpaved","source":"Caltrans All Roads + OpenStreetMap explicit surface","source_detail":"osm way 7275812; Caltrans All Roads public-network geometry match","source_tile":"177/406","public_network_source":"Caltrans All Roads (ARNOLD/HPMS)","surface_source":"OpenStreetMap explicit surface tag","caltrans_match_coverage":1.0,"verified_length_m":1583},"geometry":{"type":"LineString","coordinates":[[-117.53411,34.66013],[-117.53414,34.66366],[-117.53413,34.66726],[-117.53414,34.66859],[-117.53417,34.67091],[-117.53417,34.67445]]}},{"type":"Feature","properties":{"name":"Mesquite Road","road_class":"track","surface":"unpaved","source":"Caltrans All Roads + OpenStreetMap explicit surface","source_detail":"osm way 7275940; Caltrans All Roads public-network geometry match","source_tile":"177/406","public_network_source":"Caltrans All Roads (ARNOLD/HPMS)","surface_source":"OpenStreetMap explicit surface tag","caltrans_match_coverage":1.0,"verified_length_m":770},"geometry":{"type":"LineString","coordinates":[[-117.53408,34.61661],[-117.5341,34.61704],[-117.53412,34.61822],[-117.53412,34.61957],[-117.53416,34.61991],[-117.53414,34.62096],[-117.53415,34.622],[-117.53417,34.62265],[-117.53416,34.62286],[-117.53415,34.62321],[-117.53414,34.62357]]}},{"type":"Feature","properties":{"name":"Sierra Vista Drive","road_class":"track","surface":"unpaved","source":"Caltrans All Roads + OpenStreetMap explicit surface","source_detail":"osm way 7277262; Caltrans All Roads public-network geometry match","source_tile":"177/406","public_network_source":"Caltrans All Roads (ARNOLD/HPMS)","surface_source":"OpenStreetMap explicit surface tag","caltrans_match_coverage":1.0,"verified_length_m":928},"geometry":{"type":"LineString","coordinates":[[-117.56094,34.65468],[-117.55958,34.65482],[-117.55832,34.65513],[-117.55739,34.65556],[-117.55715,34.65577],[-117.55695,34.65596],[-117.55652,34.65619],[-117.5562,34.65646],[-117.55576,34.6568],[-117.55542,34.65707],[-117.55521,34.65731],[-117.55477,34.65772],[-117.55435,34.65843],[-117.55407,34.65918],[-117.55402,34.65981]]}},{"type":"Feature","properties":{"name":"Flora Vista Drive","road_class":"track","surface":"unpaved","source":"Caltrans All Roads + OpenStreetMap explicit surface","source_detail":"osm way 7281361; Caltrans All Roads public-network geometry match","source_tile":"177/406","public_network_source":"Caltrans All Roads (ARNOLD/HPMS)","surface_source":"OpenStreetMap explicit surface tag","caltrans_match_coverage":1.0,"verified_length_m":787},"geometry":{"type":"LineString","coordinates":[[-117.54241,34.62106],[-117.54165,34.62117],[-117.54108,34.62132],[-117.53989,34.62162],[-117.53893,34.62188],[-117.53805,34.62192],[-117.53726,34.62185],[-117.53659,34.62204],[-117.53587,34.62236],[-117.53493,34.62265],[-117.53417,34.62265]]}},{"type":"Feature","properties":{"name":"Airosa Drive","road_class":"track","surface":"unpaved","source":"Caltrans All Roads + OpenStreetMap explicit surface","source_detail":"osm way 7302801; Caltrans All Roads public-network geometry match","source_tile":"177/406","public_network_source":"Caltrans All Roads (ARNOLD/HPMS)","surface_source":"OpenStreetMap explicit surface tag","caltrans_match_coverage":1.0,"verified_length_m":516},"geometry":{"type":"LineString","coordinates":[[-117.56433,34.66752],[-117.56435,34.66833],[-117.56403,34.66901],[-117.5635,34.66975],[-117.56258,34.6706],[-117.56179,34.67068],[-117.56123,34.67068]]}},{"type":"Feature","properties":{"name":"Hess Ranch Road","road_class":"unclassified","surface":"unpaved","source":"Caltrans All Roads + OpenStreetMap explicit surface","source_detail":"osm way 7310721; Caltrans All Roads public-network geometry match","source_tile":"177/406","public_network_source":"Caltrans All Roads (ARNOLD/HPMS)","surface_source":"OpenStreetMap explicit surface tag","caltrans_match_coverage":1.0,"verified_length_m":2231},"geometry":{"type":"LineString","coordinates":[[-117.60718,34.66765],[-117.60984,34.6677],[-117.61406,34.66773],[-117.61661,34.6677],[-117.61764,34.66774],[-117.62518,34.66771],[-117.63155,34.66775]]}},{"type":"Feature","properties":{"name":"Hess Ranch Road","road_class":"unclassified","surface":"unpaved","source":"Caltrans All Roads + OpenStreetMap explicit surface","source_detail":"osm way 7310728; Caltrans All Roads public-network geometry match","source_tile":"177/406","public_network_source":"Caltrans All Roads (ARNOLD/HPMS)","surface_source":"OpenStreetMap explicit surface tag","caltrans_match_coverage":0.998,"verified_length_m":781},"geometry":{"type":"LineString","coordinates":[[-117.59641,34.66776],[-117.60079,34.66787],[-117.60425,34.66798],[-117.60442,34.66798],[-117.60472,34.66772],[-117.60473,34.66765]]}},{"type":"Feature","properties":{"name":"El Mirage Lake Road","road_class":"track","surface":"unpaved","source":"Caltrans All Roads + OpenStreetMap explicit surface","source_detail":"osm way 7312468; Caltrans All Roads public-network geometry match","source_tile":"177/406","public_network_source":"Caltrans All Roads (ARNOLD/HPMS)","surface_source":"OpenStreetMap explicit surface tag","caltrans_match_coverage":1.0,"verified_length_m":1258},"geometry":{"type":"LineString","coordinates":[[-117.52516,34.60174],[-117.5251,34.60582],[-117.52514,34.61005],[-117.52513,34.61312]]}},{"type":"Feature","properties":{"name":"El Mirage Lake Road","road_class":"track","surface":"unpaved","source":"Caltrans All Roads + OpenStreetMap explicit surface","source_detail":"osm way 7312483; Caltrans All Roads public-network geometry match","source_tile":"177/406","public_network_source":"Caltrans All Roads (ARNOLD/HPMS)","surface_source":"OpenStreetMap explicit surface tag","caltrans_match_coverage":1.0,"verified_length_m":1372},"geometry":{"type":"LineString","coordinates":[[-117.52873,34.60646],[-117.52923,34.60766],[-117.52968,34.60904],[-117.52989,34.61005],[-117.5303,34.61064],[-117.53551,34.61513],[-117.53565,34.61525],[-117.53593,34.61546],[-117.5363,34.61572],[-117.53704,34.61637]]}},{"type":"Feature","properties":{"name":"Las Flores Drive","road_class":"track","surface":"unpaved","source":"Caltrans All Roads + OpenStreetMap explicit surface","source_detail":"osm way 7340462; Caltrans All Roads public-network geometry match","source_tile":"177/406","public_network_source":"Caltrans All Roads (ARNOLD/HPMS)","surface_source":"OpenStreetMap explicit surface tag","caltrans_match_coverage":1.0,"verified_length_m":1712},"geometry":{"type":"LineString","coordinates":[[-117.55889,34.64558],[-117.55894,34.64623],[-117.55884,34.64682],[-117.55864,34.64719],[-117.5585,34.64732],[-117.55843,34.64739],[-117.5571,34.64864],[-117.55689,34.64869],[-117.55618,34.6493],[-117.55553,34.64985],[-117.55551,34.64997],[-117.55518,34.6501],[-117.55441,34.65065],[-117.55389,34.65091],[-117.55306,34.65107],[-117.55205,34.65106],[-117.55055,34.65093],[-117.54968,34.65102],[-117.54941,34.65111],[-117.54854,34.65147],[-117.54813,34.65176],[-117.54777,34.6521],[-117.54762,34.65236],[-117.54756,34.65258],[-117.54756,34.65291],[-117.54748,34.65337],[-117.54739,34.6536],[-117.54722,34.65385],[-117.54651,34.6544],[-117.54632,34.65457]]}},{"type":"Feature","properties":{"name":"Riqueza Road","road_class":"track","surface":"unpaved","source":"Caltrans All Roads + OpenStreetMap explicit surface","source_detail":"osm way 7340587; Caltrans All Roads public-network geometry match","source_tile":"177/406","public_network_source":"Caltrans All Roads (ARNOLD/HPMS)","surface_source":"OpenStreetMap explicit surface tag","caltrans_match_coverage":1.0,"verified_length_m":1178},"geometry":{"type":"LineString","coordinates":[[-117.52539,34.66373],[-117.52535,34.66547],[-117.52536,34.66722],[-117.52533,34.6708],[-117.52533,34.67439]]}},{"type":"Feature","properties":{"name":"Lucero Drive","road_class":"track","surface":"unpaved","source":"Caltrans All Roads + OpenStreetMap explicit surface","source_detail":"osm way 7352066; Caltrans All Roads public-network geometry match","source_tile":"177/406","public_network_source":"Caltrans All Roads (ARNOLD/HPMS)","surface_source":"OpenStreetMap explicit surface tag","caltrans_match_coverage":1.0,"verified_length_m":649},"geometry":{"type":"LineString","coordinates":[[-117.54776,34.64564],[-117.54777,34.64626],[-117.54774,34.64667],[-117.5477,34.64684],[-117.54744,34.64715],[-117.54688,34.64767],[-117.54675,34.64778],[-117.54656,34.6479],[-117.5455,34.64876],[-117.54515,34.64902],[-117.5448,34.64922],[-117.54438,34.64929],[-117.54376,34.64933],[-117.54329,34.64925]]}},{"type":"Feature","properties":{"name":"Dos Rios Drive","road_class":"track","surface":"unpaved","source":"Caltrans All Roads + OpenStreetMap explicit surface","source_detail":"osm way 7359631; Caltrans All Roads public-network geometry match","source_tile":"177/406","public_network_source":"Caltrans All Roads (ARNOLD/HPMS)","surface_source":"OpenStreetMap explicit surface tag","caltrans_match_coverage":1.0,"verified_length_m":845},"geometry":{"type":"LineString","coordinates":[[-117.56683,34.66752],[-117.56682,34.66796],[-117.56661,34.66863],[-117.5662,34.66927],[-117.56524,34.67045],[-117.5651,34.67061],[-117.56487,34.67098],[-117.56416,34.67193],[-117.56377,34.67232],[-117.56309,34.67256],[-117.56216,34.67267],[-117.56127,34.67271]]}},{"type":"Feature","properties":{"name":"Colina Drive","road_class":"track","surface":"unpaved","source":"Caltrans All Roads + OpenStreetMap explicit surface","source_detail":"osm way 7363665; Caltrans All Roads public-network geometry match","source_tile":"177/406","public_network_source":"Caltrans All Roads (ARNOLD/HPMS)","surface_source":"OpenStreetMap explicit surface tag","caltrans_match_coverage":1.0,"verified_length_m":1502},"geometry":{"type":"LineString","coordinates":[[-117.5319,34.66267],[-117.53162,34.66266],[-117.53057,34.6628],[-117.53014,34.66305],[-117.52918,34.6642],[-117.52859,34.66492],[-117.52766,34.66607],[-117.5275,34.66657],[-117.52749,34.66723],[-117.52751,34.67001],[-117.52749,34.67087],[-117.52747,34.67177],[-117.52743,34.67444]]}},{"type":"Feature","properties":{"name":"Buena Drive","road_class":"track","surface":"unpaved","source":"Caltrans All Roads + OpenStreetMap explicit surface","source_detail":"osm way 7366776; Caltrans All Roads public-network geometry match","source_tile":"177/406","public_network_source":"Caltrans All Roads (ARNOLD/HPMS)","surface_source":"OpenStreetMap explicit surface tag","caltrans_match_coverage":1.0,"verified_length_m":1504},"geometry":{"type":"LineString","coordinates":[[-117.55389,34.65091],[-117.5539,34.6511],[-117.55407,34.65129],[-117.55425,34.65198],[-117.55429,34.65283],[-117.55404,34.65357],[-117.55322,34.65427],[-117.55251,34.65454],[-117.55191,34.65461],[-117.55033,34.65458],[-117.54951,34.65476],[-117.54863,34.65523],[-117.54814,34.65558],[-117.54785,34.65584],[-117.54766,34.65597],[-117.5473,34.65627],[-117.54728,34.65637],[-117.54708,34.65643],[-117.54652,34.65695],[-117.54627,34.65716],[-117.546,34.65739],[-117.54507,34.65797],[-117.54455,34.65815],[-117.54383,34.65829],[-117.54299,34.65831]]}},{"type":"Feature","properties":{"name":"Del Camro Drive","road_class":"track","surface":"unpaved","source":"Caltrans All Roads + OpenStreetMap explicit surface","source_detail":"osm way 7402743; Caltrans All Roads public-network geometry match","source_tile":"177/406","public_network_source":"Caltrans All Roads (ARNOLD/HPMS)","surface_source":"OpenStreetMap explicit surface tag","caltrans_match_coverage":1.0,"verified_length_m":625},"geometry":{"type":"LineString","coordinates":[[-117.56106,34.65646],[-117.56021,34.65655],[-117.55962,34.65668],[-117.55877,34.65698],[-117.55831,34.65727],[-117.55789,34.65757],[-117.5569,34.65851],[-117.55671,34.65906],[-117.55643,34.65965],[-117.5564,34.65993]]}},{"type":"Feature","properties":{"name":"Imperial Road","road_class":"track","surface":"unpaved","source":"Caltrans All Roads + OpenStreetMap explicit surface","source_detail":"osm way 7420192; Caltrans All Roads public-network geometry match","source_tile":"177/406","public_network_source":"Caltrans All Roads (ARNOLD/HPMS)","surface_source":"OpenStreetMap explicit surface tag","caltrans_match_coverage":1.0,"verified_length_m":799},"geometry":{"type":"LineString","coordinates":[[-117.57003,34.65293],[-117.5722,34.65294],[-117.57351,34.65295],[-117.57411,34.65296],[-117.57442,34.65297],[-117.57875,34.65298]]}},{"type":"Feature","properties":{"name":"Colusa Road","road_class":"unclassified","surface":"unpaved","source":"Caltrans All Roads + OpenStreetMap explicit surface","source_detail":"osm way 7426937; Caltrans All Roads public-network geometry match","source_tile":"177/406","public_network_source":"Caltrans All Roads (ARNOLD/HPMS)","surface_source":"OpenStreetMap explicit surface tag","caltrans_match_coverage":1.0,"verified_length_m":1808},"geometry":{"type":"LineString","coordinates":[[-117.53414,34.63102],[-117.53432,34.63095],[-117.53881,34.63094],[-117.54305,34.63087],[-117.5482,34.63086],[-117.5497,34.63088],[-117.54991,34.63088],[-117.55386,34.63091]]}},{"type":"Feature","properties":{"name":"El Medio Road","road_class":"unclassified","surface":"unpaved","source":"Caltrans All Roads + OpenStreetMap explicit surface","source_detail":"osm way 7442391; Caltrans All Roads public-network geometry match","source_tile":"177/406","public_network_source":"Caltrans All Roads (ARNOLD/HPMS)","surface_source":"OpenStreetMap explicit surface tag","caltrans_match_coverage":1.0,"verified_length_m":1916},"geometry":{"type":"LineString","coordinates":[[-117.56989,34.64283],[-117.56989,34.64317],[-117.5699,34.64408],[-117.56997,34.64506],[-117.57001,34.64551],[-117.57002,34.65085],[-117.57003,34.65293],[-117.57005,34.65469],[-117.57004,34.65555],[-117.57004,34.65635],[-117.57004,34.65656],[-117.57006,34.65835],[-117.57006,34.65972],[-117.57006,34.66016]]}},{"type":"Feature","properties":{"name":"El Medio Road","road_class":"track","surface":"unpaved","source":"Caltrans All Roads + OpenStreetMap explicit surface","source_detail":"osm way 7442410; Caltrans All Roads public-network geometry match","source_tile":"177/406","public_network_source":"Caltrans All Roads (ARNOLD/HPMS)","surface_source":"OpenStreetMap explicit surface tag","caltrans_match_coverage":1.0,"verified_length_m":792},"geometry":{"type":"LineString","coordinates":[[-117.56992,34.66758],[-117.56996,34.66927],[-117.56995,34.67131],[-117.56993,34.67318],[-117.56995,34.67474]]}},{"type":"Feature","properties":{"name":"Madera Road","road_class":"track","surface":"unpaved","source":"Caltrans All Roads + OpenStreetMap explicit surface","source_detail":"osm way 7445727; Caltrans All Roads public-network geometry match","source_tile":"177/406","public_network_source":"Caltrans All Roads (ARNOLD/HPMS)","surface_source":"OpenStreetMap explicit surface tag","caltrans_match_coverage":1.0,"verified_length_m":1591},"geometry":{"type":"LineString","coordinates":[[-117.57854,34.6676],[-117.57643,34.66773],[-117.57467,34.66771],[-117.56992,34.66758],[-117.56804,34.66756],[-117.56683,34.66752],[-117.56433,34.66752],[-117.56347,34.66758],[-117.56118,34.66751]]}},{"type":"Feature","properties":{"name":"Madera Road","road_class":"track","surface":"unpaved","source":"Caltrans All Roads + OpenStreetMap explicit surface","source_detail":"osm way 7445738; Caltrans All Roads public-network geometry match","source_tile":"177/406","public_network_source":"Caltrans All Roads (ARNOLD/HPMS)","surface_source":"OpenStreetMap explicit surface tag","caltrans_match_coverage":1.0,"verified_length_m":1604},"geometry":{"type":"LineString","coordinates":[[-117.52536,34.66722],[-117.52642,34.66723],[-117.52749,34.66723],[-117.52972,34.66727],[-117.5307,34.66725],[-117.5319,34.66725],[-117.53342,34.66724],[-117.53413,34.66726],[-117.53636,34.66728],[-117.53855,34.66728],[-117.54077,34.66728],[-117.54288,34.6673]]}},{"type":"Feature","properties":{"name":"East Avenue C","road_class":"track","surface":"unpaved","source":"Caltrans All Roads + OpenStreetMap explicit surface","source_detail":"osm way 7446308; Caltrans All Roads public-network geometry match","source_tile":"177/406","public_network_source":"Caltrans All Roads (ARNOLD/HPMS)","surface_source":"OpenStreetMap explicit surface tag","caltrans_match_coverage":1.0,"verified_length_m":4941},"geometry":{"type":"LineString","coordinates":[[-117.61424,34.7922],[-117.61873,34.79237],[-117.6222,34.79248],[-117.62352,34.79252],[-117.628,34.79266],[-117.63075,34.79277],[-117.63242,34.79283],[-117.6326,34.79284],[-117.63303,34.7929],[-117.63372,34.79304],[-117.63419,34.79319],[-117.63447,34.79327],[-117.63455,34.79328],[-117.63463,34.79327],[-117.63509,34.79315],[-117.63567,34.79303],[-117.63606,34.79294],[-117.63669,34.79288],[-117.63707,34.79283],[-117.63752,34.79276],[-117.63824,34.79268],[-117.63896,34.79251],[-117.63938,34.79242],[-117.63964,34.79239],[-117.63989,34.79238],[-117.64098,34.79246],[-117.64185,34.79248],[-117.64432,34.79235],[-117.64804,34.79203],[-117.65024,34.79169],[-117.6535,34.79102],[-117.6556,34.79075],[-117.65638,34.79078],[-117.65677,34.79075],[-117.65829,34.79061],[-117.65865,34.79057],[-117.66076,34.79056],[-117.663,34.79054],[-117.66398,34.79044],[-117.66501,34.79052],[-117.66639,34.79063],[-117.66784,34.79074]]}},{"type":"Feature","properties":{"name":"Del Sol Drive","road_class":"track","surface":"unpaved","source":"Caltrans All Roads + OpenStreetMap explicit surface","source_detail":"osm way 7465972; Caltrans All Roads public-network geometry match","source_tile":"177/406","public_network_source":"Caltrans All Roads (ARNOLD/HPMS)","surface_source":"OpenStreetMap explicit surface tag","caltrans_match_coverage":1.0,"verified_length_m":970},"geometry":{"type":"LineString","coordinates":[[-117.54998,34.64562],[-117.55001,34.6465],[-117.54993,34.64704],[-117.54979,34.64748],[-117.54961,34.6478],[-117.54909,34.64841],[-117.54892,34.64854],[-117.54827,34.64906],[-117.54808,34.64923],[-117.54672,34.6503],[-117.54649,34.65045],[-117.5461,34.65068],[-117.54478,34.65101],[-117.54388,34.65109],[-117.54323,34.65112]]}},{"type":"Feature","properties":{"name":"La Rosa Drive","road_class":"track","surface":"unpaved","source":"Caltrans All Roads + OpenStreetMap explicit surface","source_detail":"osm way 7473476; Caltrans All Roads public-network geometry match","source_tile":"177/406","public_network_source":"Caltrans All Roads (ARNOLD/HPMS)","surface_source":"OpenStreetMap explicit surface tag","caltrans_match_coverage":1.0,"verified_length_m":596},"geometry":{"type":"LineString","coordinates":[[-117.52975,34.66013],[-117.52977,34.66069],[-117.52939,34.66132],[-117.529,34.66161],[-117.52852,34.66194],[-117.52726,34.66279],[-117.52649,34.66328],[-117.52601,34.66355],[-117.52539,34.66373]]}},{"type":"Feature","properties":{"name":"Sierra Road","road_class":"track","surface":"unpaved","source":"Caltrans All Roads + OpenStreetMap explicit surface","source_detail":"osm way 7477796; Caltrans All Roads public-network geometry match","source_tile":"177/406","public_network_source":"Caltrans All Roads (ARNOLD/HPMS)","surface_source":"OpenStreetMap explicit surface tag","caltrans_match_coverage":1.0,"verified_length_m":1204},"geometry":{"type":"LineString","coordinates":[[-117.54289,34.66006],[-117.54103,34.66015],[-117.53853,34.66014],[-117.53789,34.66014],[-117.53691,34.66014],[-117.53635,34.66012],[-117.53411,34.66013],[-117.53296,34.66013],[-117.53191,34.66013],[-117.5311,34.66015],[-117.53046,34.66012],[-117.52975,34.66013]]}},{"type":"Feature","properties":{"name":"Sierra Road","road_class":"track","surface":"unpaved","source":"Caltrans All Roads + OpenStreetMap explicit surface","source_detail":"osm way 7477822; Caltrans All Roads public-network geometry match","source_tile":"177/406","public_network_source":"Caltrans All Roads (ARNOLD/HPMS)","surface_source":"OpenStreetMap explicit surface tag","caltrans_match_coverage":1.0,"verified_length_m":1636},"geometry":{"type":"LineString","coordinates":[[-117.57854,34.6676],[-117.58995,34.66771],[-117.59641,34.66776]]}},{"type":"Feature","properties":{"name":"Sierra Road","road_class":"track","surface":"unpaved","source":"Caltrans All Roads + OpenStreetMap explicit surface","source_detail":"osm way 7477927; Caltrans All Roads public-network geometry match","source_tile":"177/406","public_network_source":"Caltrans All Roads (ARNOLD/HPMS)","surface_source":"OpenStreetMap explicit surface tag","caltrans_match_coverage":1.0,"verified_length_m":1673},"geometry":{"type":"LineString","coordinates":[[-117.56114,34.6601],[-117.55867,34.65997],[-117.55712,34.65993],[-117.5564,34.65993],[-117.55575,34.6599],[-117.55402,34.65981],[-117.55172,34.65977],[-117.54391,34.66002],[-117.54289,34.66006]]}},{"type":"Feature","properties":{"name":"Bonita Vista Drive","road_class":"track","surface":"unpaved","source":"Caltrans All Roads + OpenStreetMap explicit surface","source_detail":"osm way 7480579; Caltrans All Roads public-network geometry match","source_tile":"177/406","public_network_source":"Caltrans All Roads (ARNOLD/HPMS)","surface_source":"OpenStreetMap explicit surface tag","caltrans_match_coverage":1.0,"verified_length_m":837},"geometry":{"type":"LineString","coordinates":[[-117.54246,34.61851],[-117.54156,34.61871],[-117.54139,34.61885],[-117.54067,34.61945],[-117.54039,34.61959],[-117.53983,34.61986],[-117.53903,34.62006],[-117.53621,34.62018],[-117.53549,34.62038],[-117.53446,34.62094],[-117.53414,34.62096]]}},{"type":"Feature","properties":{"name":"(unnamed public road)","road_class":"track","surface":"unpaved","source":"Caltrans All Roads + OpenStreetMap explicit surface","source_detail":"osm way 7483463; Caltrans All Roads public-network geometry match","source_tile":"177/406","public_network_source":"Caltrans All Roads (ARNOLD/HPMS)","surface_source":"OpenStreetMap explicit surface tag","caltrans_match_coverage":1.0,"verified_length_m":1657},"geometry":{"type":"LineString","coordinates":[[-117.54103,34.66015],[-117.54066,34.66159],[-117.53992,34.66316],[-117.53934,34.66419],[-117.53893,34.66494],[-117.53888,34.6658],[-117.53855,34.66728],[-117.53836,34.66908],[-117.53813,34.6697],[-117.53772,34.67044],[-117.53756,34.67077],[-117.53741,34.67107],[-117.53716,34.67146],[-117.53694,34.6719],[-117.53673,34.67234],[-117.53658,34.67266],[-117.53633,34.67341],[-117.53632,34.67445]]}},{"type":"Feature","properties":{"name":"Kenwood Avenue","road_class":"track","surface":"unpaved","source":"Caltrans All Roads + OpenStreetMap explicit surface","source_detail":"osm way 7483996; Caltrans All Roads public-network geometry match","source_tile":"177/406","public_network_source":"Caltrans All Roads (ARNOLD/HPMS)","surface_source":"OpenStreetMap explicit surface tag","caltrans_match_coverage":1.0,"verified_length_m":3262},"geometry":{"type":"LineString","coordinates":[[-117.57849,34.67496],[-117.57902,34.67495],[-117.58329,34.67497],[-117.5877,34.67497],[-117.59461,34.67504],[-117.5963,34.67502],[-117.60085,34.67491],[-117.60559,34.67501],[-117.60726,34.67504],[-117.60961,34.67508],[-117.61411,34.67515]]}},{"type":"Feature","properties":{"name":"Largo Vista Drive","road_class":"track","surface":"unpaved","source":"Caltrans All Roads + OpenStreetMap explicit surface","source_detail":"osm way 7487098; Caltrans All Roads public-network geometry match","source_tile":"177/406","public_network_source":"Caltrans All Roads (ARNOLD/HPMS)","surface_source":"OpenStreetMap explicit surface tag","caltrans_match_coverage":1.0,"verified_length_m":915},"geometry":{"type":"LineString","coordinates":[[-117.54909,34.64841],[-117.54971,34.64879],[-117.55047,34.64907],[-117.55161,34.64919],[-117.55215,34.64919],[-117.55282,34.64906],[-117.55381,34.64876],[-117.55465,34.64829],[-117.55489,34.64813],[-117.55625,34.64678],[-117.55653,34.64634],[-117.55662,34.64559]]}},{"type":"Feature","properties":{"name":"Dorado Drive","road_class":"track","surface":"unpaved","source":"Caltrans All Roads + OpenStreetMap explicit surface","source_detail":"osm way 7487893; Caltrans All Roads public-network geometry match","source_tile":"177/406","public_network_source":"Caltrans All Roads (ARNOLD/HPMS)","surface_source":"OpenStreetMap explicit surface tag","caltrans_match_coverage":1.0,"verified_length_m":1590},"geometry":{"type":"LineString","coordinates":[[-117.56082,34.64917],[-117.55998,34.64917],[-117.55857,34.64987],[-117.55705,34.65113],[-117.55678,34.65187],[-117.55672,34.65202],[-117.55663,34.65285],[-117.55648,34.65363],[-117.55632,34.65385],[-117.55476,34.65527],[-117.55378,34.65589],[-117.55347,34.65607],[-117.55276,34.65627],[-117.55186,34.65631],[-117.55092,34.65637],[-117.55004,34.65669],[-117.5488,34.6575],[-117.54853,34.65754]]}},{"type":"Feature","properties":{"name":"Cedros Drive","road_class":"track","surface":"unpaved","source":"Caltrans All Roads + OpenStreetMap explicit surface","source_detail":"osm way 7497214; Caltrans All Roads public-network geometry match","source_tile":"177/406","public_network_source":"Caltrans All Roads (ARNOLD/HPMS)","surface_source":"OpenStreetMap explicit surface tag","caltrans_match_coverage":1.0,"verified_length_m":608},"geometry":{"type":"LineString","coordinates":[[-117.56995,34.67131],[-117.56957,34.67129],[-117.56868,34.67136],[-117.56793,34.67148],[-117.56732,34.67169],[-117.56691,34.67216],[-117.56642,34.67308],[-117.56608,34.67376],[-117.56604,34.6747]]}},{"type":"Feature","properties":{"name":"Santa Fe Drive","road_class":"track","surface":"unpaved","source":"Caltrans All Roads + OpenStreetMap explicit surface","source_detail":"osm way 7500843; Caltrans All Roads public-network geometry match","source_tile":"177/406","public_network_source":"Caltrans All Roads (ARNOLD/HPMS)","surface_source":"OpenStreetMap explicit surface tag","caltrans_match_coverage":1.0,"verified_length_m":702},"geometry":{"type":"LineString","coordinates":[[-117.53635,34.66012],[-117.5359,34.66255],[-117.53548,34.66331],[-117.53519,34.6635],[-117.53478,34.66362],[-117.53414,34.66366],[-117.53226,34.66364],[-117.5319,34.66366]]}},{"type":"Feature","properties":{"name":"Alta Vista Drive","road_class":"track","surface":"unpaved","source":"Caltrans All Roads + OpenStreetMap explicit surface","source_detail":"osm way 7502677; Caltrans All Roads public-network geometry match","source_tile":"177/406","public_network_source":"Caltrans All Roads (ARNOLD/HPMS)","surface_source":"OpenStreetMap explicit surface tag","caltrans_match_coverage":1.0,"verified_length_m":799},"geometry":{"type":"LineString","coordinates":[[-117.5319,34.66725],[-117.5319,34.67],[-117.53188,34.67089],[-117.53188,34.67173],[-117.53185,34.67448]]}},{"type":"Feature","properties":{"name":"Paisano Drive","road_class":"track","surface":"unpaved","source":"Caltrans All Roads + OpenStreetMap explicit surface","source_detail":"osm way 7503380; Caltrans All Roads public-network geometry match","source_tile":"177/406","public_network_source":"Caltrans All Roads (ARNOLD/HPMS)","surface_source":"OpenStreetMap explicit surface tag","caltrans_match_coverage":1.0,"verified_length_m":593},"geometry":{"type":"LineString","coordinates":[[-117.52859,34.66492],[-117.52921,34.66541],[-117.52946,34.66571],[-117.52962,34.66629],[-117.52972,34.66727],[-117.52971,34.66998]]}},{"type":"Feature","properties":{"name":"Linson Street","road_class":"track","surface":"unpaved","source":"Caltrans All Roads + OpenStreetMap explicit surface","source_detail":"osm way 7508657; Caltrans All Roads public-network geometry match","source_tile":"177/406","public_network_source":"Caltrans All Roads (ARNOLD/HPMS)","surface_source":"OpenStreetMap explicit surface tag","caltrans_match_coverage":0.902,"verified_length_m":541},"geometry":{"type":"LineString","coordinates":[[-117.53704,34.61637],[-117.53908,34.6164],[-117.54041,34.61643],[-117.54198,34.61636],[-117.54216,34.61628],[-117.54235,34.61624],[-117.54262,34.61622],[-117.54291,34.61621]]}},{"type":"Feature","properties":{"name":"Alta Vista Road","road_class":"track","surface":"unpaved","source":"Caltrans All Roads + OpenStreetMap explicit surface","source_detail":"osm way 7517250; Caltrans All Roads public-network geometry match","source_tile":"177/406","public_network_source":"Caltrans All Roads (ARNOLD/HPMS)","surface_source":"OpenStreetMap explicit surface tag","caltrans_match_coverage":1.0,"verified_length_m":787},"geometry":{"type":"LineString","coordinates":[[-117.53191,34.66013],[-117.5319,34.66267],[-117.5319,34.66366],[-117.53186,34.66639],[-117.5319,34.66725]]}},{"type":"Feature","properties":{"name":"EM 4800","road_class":"track","surface":"sand","tracktype":"grade5","source":"Caltrans All Roads + OpenStreetMap explicit surface","source_detail":"osm way 13271225; Caltrans All Roads public-network geometry match","source_tile":"177/406","public_network_source":"Caltrans All Roads (ARNOLD/HPMS)","surface_source":"OpenStreetMap explicit surface tag","caltrans_match_coverage":1.0,"verified_length_m":920},"geometry":{"type":"LineString","coordinates":[[-117.74742,34.71554],[-117.74538,34.71635],[-117.7436,34.71705],[-117.7435,34.71709],[-117.74343,34.71712],[-117.74228,34.71758],[-117.74222,34.7176],[-117.74173,34.71781],[-117.73835,34.71914]]}},{"type":"Feature","properties":{"name":"Mountain View Road","road_class":"unclassified","surface":"unpaved","source":"Caltrans All Roads + OpenStreetMap explicit surface","source_detail":"osm way 28671903; Caltrans All Roads public-network geometry match","source_tile":"177/406","public_network_source":"Caltrans All Roads (ARNOLD/HPMS)","surface_source":"OpenStreetMap explicit surface tag","caltrans_match_coverage":1.0,"verified_length_m":2033},"geometry":{"type":"LineString","coordinates":[[-117.54305,34.63087],[-117.54317,34.63242],[-117.54321,34.637],[-117.54324,34.63805],[-117.54329,34.64182],[-117.54328,34.64358],[-117.54328,34.64424],[-117.54333,34.64512],[-117.54334,34.64565],[-117.54324,34.64666],[-117.54326,34.64743],[-117.54329,34.64925]]}},{"type":"Feature","properties":{"name":"Shadow Mountain Road","road_class":"track","surface":"compacted","source":"Caltrans All Roads + OpenStreetMap explicit surface","source_detail":"osm way 177783053; Caltrans All Roads public-network geometry match","source_tile":"177/406","public_network_source":"Caltrans All Roads (ARNOLD/HPMS)","surface_source":"OpenStreetMap explicit surface tag","caltrans_match_coverage":1.0,"verified_length_m":6143},"geometry":{"type":"LineString","coordinates":[[-117.52939,34.72365],[-117.52902,34.72364],[-117.52827,34.72369],[-117.52495,34.72383],[-117.50961,34.72458],[-117.50759,34.72466],[-117.50407,34.72483],[-117.50289,34.72488],[-117.50091,34.72496],[-117.4982,34.72509],[-117.49472,34.72526],[-117.48992,34.72549],[-117.48544,34.72571],[-117.48092,34.72591],[-117.47643,34.72613],[-117.47217,34.72633],[-117.46612,34.72662],[-117.46282,34.72676],[-117.46236,34.72678]]}},{"type":"Feature","properties":{"name":"Sheep Creek Road","road_class":"track","surface":"unpaved","source":"Caltrans All Roads + OpenStreetMap explicit surface","source_detail":"osm way 514072109; Caltrans All Roads public-network geometry match","source_tile":"177/406","public_network_source":"Caltrans All Roads (ARNOLD/HPMS)","surface_source":"OpenStreetMap explicit surface tag","caltrans_match_coverage":0.956,"verified_length_m":2254},"geometry":{"type":"LineString","coordinates":[[-117.57861,34.64722],[-117.57875,34.65102],[-117.57877,34.6516],[-117.57877,34.65243],[-117.57875,34.65298],[-117.57875,34.65475],[-117.57874,34.65541],[-117.57875,34.65645],[-117.57874,34.65729],[-117.57874,34.65834],[-117.57881,34.66013],[-117.57881,34.66014],[-117.57874,34.66112],[-117.5787,34.66207],[-117.57866,34.66244],[-117.57865,34.6633],[-117.57855,34.66407],[-117.57852,34.66464],[-117.57854,34.6676]]}},{"type":"Feature","properties":{"name":"El Paseo Road","road_class":"track","surface":"unpaved","source":"Caltrans All Roads + OpenStreetMap explicit surface","source_detail":"osm way 514072115; Caltrans All Roads public-network geometry match","source_tile":"177/406","public_network_source":"Caltrans All Roads (ARNOLD/HPMS)","surface_source":"OpenStreetMap explicit surface tag","caltrans_match_coverage":1.0,"verified_length_m":571},"geometry":{"type":"LineString","coordinates":[[-117.55191,34.65461],[-117.55186,34.65631],[-117.55173,34.65798],[-117.55176,34.65915],[-117.55174,34.65953],[-117.55172,34.65977]]}},{"type":"Feature","properties":{"name":"Bella Vista Drive","road_class":"track","surface":"unpaved","source":"Caltrans All Roads + OpenStreetMap explicit surface","source_detail":"osm way 514072116; Caltrans All Roads public-network geometry match","source_tile":"177/406","public_network_source":"Caltrans All Roads (ARNOLD/HPMS)","surface_source":"OpenStreetMap explicit surface tag","caltrans_match_coverage":1.0,"verified_length_m":803},"geometry":{"type":"LineString","coordinates":[[-117.54291,34.6235],[-117.54255,34.62351],[-117.5421,34.62351],[-117.53414,34.62357]]}},{"type":"Feature","properties":{"name":"EM 4800","road_class":"track","surface":"sand","tracktype":"grade5","source":"Caltrans All Roads + OpenStreetMap explicit surface","source_detail":"osm way 792746899; Caltrans All Roads public-network geometry match","source_tile":"177/406","public_network_source":"Caltrans All Roads (ARNOLD/HPMS)","surface_source":"OpenStreetMap explicit surface tag","caltrans_match_coverage":0.876,"verified_length_m":14655},"geometry":{"type":"LineString","coordinates":[[-117.6672,34.75284],[-117.66674,34.75304],[-117.66536,34.7536],[-117.66341,34.75445],[-117.66126,34.75532],[-117.65936,34.75613],[-117.65913,34.75622],[-117.65861,34.75644],[-117.65841,34.75653],[-117.65716,34.75705],[-117.65705,34.7571],[-117.65408,34.75836],[-117.65113,34.75959],[-117.64906,34.76047],[-117.64506,34.76215],[-117.63999,34.76428],[-117.63585,34.76603],[-117.63216,34.76756],[-117.62953,34.76867],[-117.62721,34.76964],[-117.62371,34.77112],[-117.61448,34.77499],[-117.60811,34.77765],[-117.58778,34.78619],[-117.57172,34.79293],[-117.57159,34.79299],[-117.5715,34.79302],[-117.57104,34.79322],[-117.53915,34.80658],[-117.52427,34.81281]]}},{"type":"Feature","properties":{"name":"Meridian Road","road_class":"track","surface":"unpaved","source":"Caltrans All Roads + OpenStreetMap explicit surface","source_detail":"osm way 831560586; Caltrans All Roads public-network geometry match","source_tile":"177/406","public_network_source":"Caltrans All Roads (ARNOLD/HPMS)","surface_source":"OpenStreetMap explicit surface tag","caltrans_match_coverage":1.0,"verified_length_m":808},"geometry":{"type":"LineString","coordinates":[[-117.58731,34.60199],[-117.58731,34.60212],[-117.58735,34.60243],[-117.5873,34.60271],[-117.58728,34.60312],[-117.5873,34.60549],[-117.58731,34.60737],[-117.5873,34.6085],[-117.58725,34.60929]]}},{"type":"Feature","properties":{"name":"260th Street East","road_class":"track","surface":"unpaved","source":"Caltrans All Roads + OpenStreetMap explicit surface","source_detail":"osm way 1067880030; Caltrans All Roads public-network geometry match","source_tile":"177/406","public_network_source":"Caltrans All Roads (ARNOLD/HPMS)","surface_source":"OpenStreetMap explicit surface tag","caltrans_match_coverage":1.0,"verified_length_m":857},"geometry":{"type":"LineString","coordinates":[[-117.6668,34.63478],[-117.66687,34.6365],[-117.66678,34.63871],[-117.66684,34.64253]]}},{"type":"Feature","properties":{"name":"Mountain View Road","road_class":"unclassified","surface":"unpaved","source":"Caltrans All Roads + OpenStreetMap explicit surface","source_detail":"osm way 1170366650; Caltrans All Roads public-network geometry match","source_tile":"177/406","public_network_source":"Caltrans All Roads (ARNOLD/HPMS)","surface_source":"OpenStreetMap explicit surface tag","caltrans_match_coverage":1.0,"verified_length_m":1196},"geometry":{"type":"LineString","coordinates":[[-117.54329,34.64925],[-117.54323,34.65112],[-117.54318,34.65288],[-117.54318,34.65318],[-117.54317,34.65342],[-117.54318,34.65404],[-117.54314,34.65475],[-117.54311,34.65535],[-117.54309,34.65645],[-117.54299,34.65831],[-117.54289,34.66006]]}},{"type":"Feature","properties":{"name":"(unnamed public road)","road_class":"unclassified","surface":"unpaved","source":"Caltrans All Roads + OpenStreetMap explicit surface","source_detail":"osm way 1343424840; Caltrans All Roads public-network geometry match","source_tile":"177/406","public_network_source":"Caltrans All Roads (ARNOLD/HPMS)","surface_source":"OpenStreetMap explicit surface tag","caltrans_match_coverage":1.0,"verified_length_m":1593},"geometry":{"type":"LineString","coordinates":[[-117.59672,34.68944],[-117.59804,34.68943],[-117.59985,34.68942],[-117.60151,34.68941],[-117.6039,34.6894],[-117.606,34.6894],[-117.60791,34.68941],[-117.6095,34.68942],[-117.61138,34.68942],[-117.61314,34.68943],[-117.61412,34.6895]]}},{"type":"Feature","properties":{"name":"Johnson Road","road_class":"track","surface":"unpaved","source":"Caltrans All Roads + OpenStreetMap explicit surface","source_detail":"osm way 7213069; Caltrans All Roads public-network geometry match","source_tile":"177/407","public_network_source":"Caltrans All Roads (ARNOLD/HPMS)","surface_source":"OpenStreetMap explicit surface tag","caltrans_match_coverage":1.0,"verified_length_m":3377},"geometry":{"type":"LineString","coordinates":[[-117.56013,34.57136],[-117.56014,34.57278],[-117.56017,34.57637],[-117.56027,34.58243],[-117.56029,34.58723],[-117.56041,34.59114],[-117.5605,34.60191]]}}]}