{"type":"FeatureCollection","features":[{"type":"Feature","properties":{"name":"Indian Truck Trail","road_class":"track","surface":"dirt","source":"Caltrans All Roads + OpenStreetMap explicit surface","source_detail":"osm way 7154731; Caltrans All Roads public-network geometry match","source_tile":"177/410","public_network_source":"Caltrans All Roads (ARNOLD/HPMS)","surface_source":"OpenStreetMap explicit surface tag","caltrans_match_coverage":0.884,"verified_length_m":8631},"geometry":{"type":"LineString","coordinates":[[-117.45451,33.73303],[-117.45466,33.73295],[-117.45487,33.7329],[-117.45504,33.73282],[-117.45523,33.73278],[-117.45546,33.73278],[-117.45557,33.73273],[-117.4558,33.73243],[-117.4559,33.73225],[-117.45591,33.73223],[-117.45594,33.73204],[-117.45592,33.7318],[-117.45574,33.73161],[-117.45563,33.73154],[-117.45552,33.73149],[-117.4553,33.73129],[-117.45518,33.73125],[-117.45507,33.73117],[-117.45496,33.73078],[-117.45502,33.73069],[-117.45518,33.73067],[-117.45536,33.73062],[-117.45536,33.73054],[-117.4553,33.73045],[-117.45528,33.73024],[-117.45516,33.73013],[-117.45508,33.72992],[-117.45505,33.72979],[-117.45506,33.72965],[-117.45523,33.72946],[-117.45538,33.72943],[-117.45549,33.72943],[-117.45564,33.72956],[-117.45583,33.72972],[-117.45588,33.7298],[-117.4559,33.72991],[-117.45598,33.73003],[-117.45608,33.73014],[-117.45618,33.73021],[-117.45615,33.73032],[-117.45618,33.7304],[-117.45623,33.73045],[-117.45636,33.73051],[-117.45647,33.73057],[-117.45654,33.73066],[-117.45667,33.73078],[-117.45676,33.73079],[-117.45686,33.73077],[-117.45691,33.73073],[-117.4569,33.73064],[-117.4568,33.73057],[-117.4567,33.73046],[-117.45659,33.73019],[-117.45655,33.73004],[-117.45651,33.72987],[-117.45654,33.72975],[-117.45665,33.72971],[-117.45675,33.72976],[-117.45686,33.72984],[-117.45701,33.72986],[-117.45718,33.72981],[-117.45738,33.72973],[-117.45773,33.72973],[-117.45793,33.72976],[-117.45813,33.72975],[-117.45847,33.72971],[-117.45871,33.72963],[-117.45884,33.72951],[-117.45892,33.72939],[-117.45903,33.7291],[-117.45907,33.72897],[-117.45922,33.72874],[-117.45932,33.72858],[-117.45945,33.72848],[-117.45963,33.72835],[-117.45977,33.72827],[-117.45993,33.72827],[-117.46012,33.72834],[-117.46041,33.72845],[-117.46059,33.72846],[-117.46078,33.72838],[-117.46092,33.72832],[-117.46105,33.72824],[-117.46112,33.72811],[-117.4611,33.72795],[-117.4611,33.72789],[-117.46114,33.72785],[-117.46137,33.72783],[-117.46142,33.72773],[-117.46139,33.72764],[-117.46134,33.72753],[-117.46133,33.72744],[-117.46142,33.72736],[-117.4616,33.72736],[-117.46182,33.72739],[-117.46214,33.72724],[-117.46225,33.72711],[-117.46236,33.7269],[-117.46246,33.72683],[-117.46274,33.72679],[-117.46293,33.72678],[-117.46309,33.72678],[-117.4632,33.7267],[-117.46321,33.72655],[-117.46351,33.72647],[-117.46367,33.72642],[-117.46374,33.7263],[-117.46382,33.72626],[-117.46403,33.72623],[-117.46417,33.7261],[-117.4644,33.72603],[-117.46444,33.72593],[-117.46438,33.72587],[-117.46418,33.72586],[-117.46398,33.72591],[-117.4638,33.72589],[-117.46356,33.72585],[-117.46347,33.72579],[-117.46347,33.72564],[-117.46338,33.72556],[-117.46333,33.72552],[-117.46338,33.72545],[-117.46348,33.72538],[-117.46347,33.72531],[-117.46328,33.72522],[-117.46322,33.72513],[-117.46314,33.72502],[-117.463,33.72496],[-117.46284,33.72484],[-117.46268,33.72478],[-117.46254,33.72474],[-117.46242,33.72466],[-117.46229,33.72454],[-117.46228,33.72445],[-117.46246,33.72433],[-117.46264,33.72425],[-117.4628,33.72426],[-117.46299,33.72421],[-117.46322,33.72425],[-117.46341,33.72429],[-117.46358,33.72438],[-117.4636,33.72448],[-117.46356,33.7246],[-117.46355,33.72476],[-117.46356,33.7249],[-117.46363,33.72502],[-117.46389,33.72519],[-117.46404,33.72521],[-117.46417,33.72516],[-117.46439,33.72506],[-117.46463,33.72492],[-117.4649,33.72489],[-117.46507,33.72486],[-117.46531,33.72474],[-117.46551,33.72471],[-117.4657,33.7247],[-117.46583,33.72469],[-117.466,33.72462],[-117.46614,33.72467],[-117.46626,33.72478],[-117.46638,33.72493],[-117.46646,33.72509],[-117.46644,33.72524],[-117.46651,33.72529],[-117.46666,33.72535],[-117.46672,33.72545],[-117.46667,33.72558],[-117.46657,33.72564],[-117.46653,33.7258],[-117.46646,33.72595],[-117.46634,33.72601],[-117.46616,33.726],[-117.46599,33.72604],[-117.46586,33.72599],[-117.46575,33.72599],[-117.46566,33.72603],[-117.46564,33.72621],[-117.46576,33.72635],[-117.46583,33.72652],[-117.46591,33.72659],[-117.46612,33.72666],[-117.46626,33.72667],[-117.46638,33.7266],[-117.46643,33.72648],[-117.46655,33.72648],[-117.4667,33.72656],[-117.46686,33.72661],[-117.467,33.72661],[-117.46709,33.72656],[-117.46712,33.72644],[-117.46718,33.72633],[-117.46726,33.72621],[-117.46735,33.72614],[-117.46751,33.72609],[-117.46766,33.72601],[-117.46792,33.72567],[-117.46799,33.72547],[-117.46808,33.72543],[-117.4682,33.72547],[-117.46837,33.72548],[-117.46851,33.72543],[-117.46864,33.72538],[-117.4689,33.72539],[-117.4692,33.72532],[-117.46934,33.72526],[-117.46944,33.72515],[-117.46955,33.7251],[-117.46968,33.72508],[-117.46975,33.72499],[-117.4698,33.72488],[-117.46988,33.72483],[-117.47002,33.72484],[-117.47014,33.72489],[-117.47022,33.72497],[-117.4703,33.72514],[-117.47042,33.72518],[-117.47058,33.7252],[-117.47068,33.72525],[-117.47079,33.72543],[-117.47093,33.72568],[-117.47096,33.72588],[-117.47099,33.72596],[-117.4711,33.72598],[-117.4712,33.72595],[-117.47136,33.72595],[-117.47158,33.72603],[-117.47169,33.72614],[-117.47177,33.72621],[-117.47186,33.72628],[-117.47199,33.72643],[-117.47218,33.72657],[-117.47221,33.72667],[-117.47221,33.72689],[-117.47219,33.72696],[-117.47224,33.72703],[-117.47235,33.7271],[-117.47262,33.72717],[-117.47274,33.72713],[-117.47278,33.72706],[-117.47273,33.72697],[-117.47257,33.7269],[-117.47251,33.72682],[-117.47242,33.72659],[-117.47224,33.72623],[-117.47215,33.72605],[-117.47203,33.72593],[-117.47195,33.72578],[-117.47193,33.7257],[-117.47201,33.72564],[-117.47213,33.7256],[-117.4722,33.7255],[-117.47235,33.72537],[-117.47237,33.72526],[-117.4723,33.72504],[-117.47232,33.72483],[-117.47239,33.72472],[-117.47265,33.7245],[-117.47277,33.7243],[-117.47276,33.72421],[-117.47271,33.72404],[-117.47273,33.72397],[-117.47279,33.72392],[-117.47288,33.72379],[-117.47296,33.72353],[-117.47305,33.72348],[-117.47314,33.72348],[-117.4733,33.72365],[-117.47354,33.72369],[-117.47376,33.72366],[-117.4739,33.72369],[-117.47397,33.72367],[-117.47405,33.72359],[-117.47412,33.72353],[-117.47424,33.72353],[-117.47433,33.72362],[-117.47452,33.72359],[-117.47464,33.72353],[-117.4747,33.72338],[-117.47478,33.72323],[-117.47482,33.72302],[-117.47491,33.72292],[-117.47506,33.7229],[-117.4752,33.72297],[-117.4753,33.72308],[-117.47538,33.72321],[-117.47537,33.72335],[-117.47541,33.72353],[-117.47547,33.7236],[-117.4756,33.72358],[-117.47577,33.72347],[-117.47589,33.72344],[-117.47613,33.72341],[-117.47621,33.72347],[-117.47637,33.72352],[-117.47651,33.72361],[-117.47667,33.72362],[-117.47679,33.72354],[-117.47704,33.72346],[-117.47732,33.72327],[-117.47746,33.72322],[-117.47778,33.72322],[-117.47812,33.72319],[-117.47827,33.72314],[-117.47848,33.72308],[-117.47867,33.72304],[-117.47908,33.72292],[-117.47925,33.72287],[-117.47945,33.7228],[-117.47971,33.72277],[-117.47991,33.72284],[-117.48011,33.72286],[-117.48028,33.72283],[-117.48047,33.72274],[-117.48074,33.72251],[-117.48089,33.72243],[-117.48107,33.72236],[-117.4812,33.72227],[-117.4813,33.72219],[-117.48141,33.72216],[-117.48158,33.72217],[-117.48172,33.72219],[-117.48179,33.72215],[-117.48181,33.72205],[-117.48185,33.72196],[-117.48194,33.72192],[-117.48213,33.72191],[-117.48234,33.72181],[-117.48241,33.7218],[-117.48254,33.7217],[-117.48278,33.7217],[-117.4829,33.72163],[-117.48314,33.72161],[-117.48344,33.72166],[-117.48358,33.72168],[-117.48385,33.72166],[-117.484,33.7219],[-117.48412,33.72204],[-117.4843,33.72231],[-117.48427,33.72249],[-117.4841,33.72276],[-117.48411,33.72295],[-117.48402,33.72322],[-117.48405,33.72355],[-117.48418,33.72363],[-117.48431,33.72363],[-117.4845,33.72359],[-117.48471,33.72349],[-117.48483,33.72344],[-117.48501,33.72344],[-117.48516,33.7235],[-117.48531,33.72361],[-117.48545,33.72378],[-117.48556,33.72399],[-117.48568,33.72402],[-117.48586,33.724],[-117.48611,33.724],[-117.48639,33.72411],[-117.48665,33.72427],[-117.48679,33.72446],[-117.48689,33.72457],[-117.48699,33.72456],[-117.48708,33.72447],[-117.48722,33.72434],[-117.48731,33.7242],[-117.48735,33.72404],[-117.48742,33.72397],[-117.48775,33.72381],[-117.48791,33.72373],[-117.48795,33.72361],[-117.48794,33.72342],[-117.48793,33.72314],[-117.48796,33.72303],[-117.48808,33.72297],[-117.48829,33.72293],[-117.4885,33.72289],[-117.48865,33.72283],[-117.48873,33.72273],[-117.48878,33.72254],[-117.48878,33.72242],[-117.48872,33.7223],[-117.48857,33.72218],[-117.48848,33.72206],[-117.48858,33.72184],[-117.48846,33.72165],[-117.48831,33.72149],[-117.48819,33.72141],[-117.48808,33.72127],[-117.48811,33.72118],[-117.48825,33.72114],[-117.48843,33.72106],[-117.48846,33.72096],[-117.48855,33.72076],[-117.48868,33.72059],[-117.48877,33.72057],[-117.48891,33.72051],[-117.48903,33.72022],[-117.48913,33.72012],[-117.48927,33.72006],[-117.48941,33.71989],[-117.48966,33.71989],[-117.48986,33.71989],[-117.49,33.71984],[-117.49013,33.71968],[-117.49017,33.71953],[-117.49021,33.71946],[-117.49029,33.71944],[-117.49043,33.71946],[-117.49049,33.71939],[-117.49054,33.71931],[-117.49063,33.71927],[-117.49085,33.71927],[-117.49102,33.71925],[-117.49112,33.71919],[-117.49116,33.71909],[-117.49122,33.71903],[-117.49141,33.71898],[-117.49153,33.71889],[-117.49163,33.71872],[-117.49173,33.71866],[-117.49205,33.71867],[-117.49213,33.71863],[-117.49224,33.71851],[-117.49237,33.71846],[-117.49251,33.71841],[-117.49268,33.71844],[-117.4928,33.71842],[-117.4929,33.71834],[-117.493,33.71817],[-117.49323,33.71798],[-117.49341,33.71787],[-117.49354,33.71784],[-117.49374,33.71792],[-117.49382,33.7179],[-117.4939,33.71781],[-117.49425,33.71772],[-117.49448,33.71772],[-117.49479,33.71769],[-117.49494,33.71762],[-117.49519,33.71745],[-117.49522,33.71738],[-117.49518,33.71703],[-117.49528,33.71694],[-117.49551,33.71685],[-117.49556,33.71676],[-117.49556,33.71658],[-117.49548,33.71638],[-117.49527,33.71622],[-117.49522,33.71614],[-117.49522,33.71599],[-117.49524,33.71585],[-117.49535,33.71571],[-117.49551,33.71554],[-117.49569,33.71533],[-117.49585,33.7152],[-117.49595,33.71507],[-117.496,33.71495],[-117.49607,33.71478],[-117.49614,33.71462],[-117.4962,33.71437],[-117.49631,33.71421],[-117.49633,33.71403],[-117.49649,33.71374],[-117.4965,33.71365],[-117.49641,33.7135],[-117.49638,33.71344],[-117.49639,33.71337],[-117.49649,33.71324],[-117.49649,33.71315],[-117.49646,33.71312],[-117.49637,33.71303],[-117.49629,33.71296],[-117.49627,33.71288],[-117.49628,33.71276],[-117.49636,33.71266],[-117.49646,33.71257],[-117.49664,33.7125],[-117.49684,33.71245],[-117.49701,33.7124],[-117.49723,33.71231],[-117.49743,33.71223],[-117.4976,33.71218],[-117.49772,33.71209],[-117.49775,33.7119],[-117.4978,33.71178],[-117.49789,33.71175],[-117.4981,33.71184],[-117.49829,33.71181],[-117.49849,33.71171],[-117.49856,33.71159],[-117.4985,33.71139],[-117.49852,33.7112],[-117.4986,33.711],[-117.49857,33.71075],[-117.49868,33.71066],[-117.49882,33.71064],[-117.49901,33.71065],[-117.49915,33.71067],[-117.49924,33.71065],[-117.4993,33.71063],[-117.49931,33.71056],[-117.49918,33.7104],[-117.49902,33.71025],[-117.49886,33.71023]]}},{"type":"Feature","properties":{"name":"North Main Divide Road","road_class":"unclassified","surface":"dirt","tracktype":"grade2","source":"Caltrans All Roads + OpenStreetMap explicit surface","source_detail":"osm way 13287702; Caltrans All Roads public-network geometry match","source_tile":"177/410","public_network_source":"Caltrans All Roads (ARNOLD/HPMS)","surface_source":"OpenStreetMap explicit surface tag","caltrans_match_coverage":0.989,"verified_length_m":10402},"geometry":{"type":"LineString","coordinates":[[-117.53372,33.71404],[-117.53374,33.71404],[-117.53376,33.71403],[-117.53377,33.71399],[-117.53373,33.71382],[-117.53366,33.71342],[-117.53356,33.71308],[-117.53321,33.71286],[-117.53283,33.71286],[-117.53259,33.71289],[-117.53229,33.713],[-117.53214,33.71304],[-117.53182,33.71308],[-117.53161,33.71307],[-117.53151,33.71305],[-117.53141,33.71302],[-117.53133,33.71298],[-117.53127,33.71293],[-117.53122,33.71285],[-117.5312,33.71279],[-117.5312,33.71269],[-117.53124,33.71259],[-117.53133,33.71245],[-117.53144,33.71231],[-117.53148,33.71221],[-117.53158,33.71209],[-117.53172,33.71199],[-117.53197,33.71178],[-117.53208,33.71172],[-117.53221,33.71166],[-117.53229,33.71161],[-117.53235,33.71156],[-117.53245,33.71145],[-117.5325,33.71141],[-117.53254,33.7114],[-117.53259,33.71141],[-117.53262,33.71143],[-117.53262,33.71147],[-117.53259,33.71153],[-117.53245,33.71166],[-117.53203,33.71197],[-117.53195,33.71203],[-117.5319,33.71212],[-117.53187,33.71223],[-117.53187,33.7123],[-117.53188,33.71235],[-117.53191,33.71239],[-117.53198,33.71243],[-117.53208,33.71245],[-117.5322,33.71244],[-117.53237,33.7124],[-117.53253,33.71236],[-117.53267,33.71233],[-117.53281,33.71232],[-117.53302,33.71236],[-117.53322,33.71242],[-117.53364,33.71259],[-117.5338,33.71265],[-117.53392,33.71266],[-117.53401,33.71265],[-117.53411,33.71261],[-117.53419,33.71255],[-117.53439,33.71237],[-117.53448,33.71229],[-117.53469,33.71218],[-117.53485,33.71209],[-117.53495,33.71199],[-117.535,33.71188],[-117.53503,33.7117],[-117.5351,33.71136],[-117.53512,33.71124],[-117.53513,33.7112],[-117.53516,33.71116],[-117.53523,33.7111],[-117.53544,33.71099],[-117.53553,33.71092],[-117.5356,33.71083],[-117.53567,33.7107],[-117.53575,33.71056],[-117.53577,33.71052],[-117.53584,33.71037],[-117.53606,33.70999],[-117.53618,33.70981],[-117.53625,33.7097],[-117.5363,33.70957],[-117.53632,33.70943],[-117.5363,33.70922],[-117.53629,33.70889],[-117.53628,33.70871],[-117.53629,33.70854],[-117.53629,33.70844],[-117.53626,33.70832],[-117.53621,33.70817],[-117.53611,33.7079],[-117.53608,33.70773],[-117.53602,33.70756],[-117.53598,33.7074],[-117.53591,33.70725],[-117.53584,33.70715],[-117.53575,33.70708],[-117.53561,33.70698],[-117.53544,33.70691],[-117.53533,33.70684],[-117.53525,33.70677],[-117.53516,33.70666],[-117.53494,33.70645],[-117.53475,33.70628],[-117.53456,33.70614],[-117.53447,33.70612],[-117.53436,33.70612],[-117.53426,33.70619],[-117.53418,33.70628],[-117.53411,33.7064],[-117.53405,33.70647],[-117.53398,33.70651],[-117.5339,33.70651],[-117.53384,33.70649],[-117.53381,33.70646],[-117.53382,33.70641],[-117.53385,33.70636],[-117.534,33.7062],[-117.53408,33.70607],[-117.53415,33.70593],[-117.53424,33.70582],[-117.53435,33.70577],[-117.53448,33.70575],[-117.53461,33.70579],[-117.53475,33.70587],[-117.5353,33.70626],[-117.53547,33.70635],[-117.53565,33.70642],[-117.5358,33.70647],[-117.53596,33.70653],[-117.53618,33.70663],[-117.53643,33.70675],[-117.53656,33.70684],[-117.53667,33.70694],[-117.53674,33.70705],[-117.53682,33.7072],[-117.5369,33.70741],[-117.53697,33.70761],[-117.53704,33.70778],[-117.53712,33.70792],[-117.5372,33.70808],[-117.53723,33.70818],[-117.53727,33.70831],[-117.53732,33.70859],[-117.53734,33.70868],[-117.53738,33.70878],[-117.53744,33.70887],[-117.53753,33.70899],[-117.53759,33.70906],[-117.53762,33.70911],[-117.53764,33.70916],[-117.53763,33.70924],[-117.53761,33.70931],[-117.5376,33.70938],[-117.53762,33.70944],[-117.53766,33.70949],[-117.5377,33.70956],[-117.53779,33.70971],[-117.53784,33.70984],[-117.53789,33.71003],[-117.53792,33.71012],[-117.53795,33.71018],[-117.53801,33.71026],[-117.53812,33.71033],[-117.53822,33.71041],[-117.53834,33.71055],[-117.53837,33.7106],[-117.53839,33.71067],[-117.53838,33.71074],[-117.53832,33.71079],[-117.53815,33.71089],[-117.53791,33.71097],[-117.53758,33.71109],[-117.53747,33.71114],[-117.53739,33.71121],[-117.53736,33.7113],[-117.53736,33.71136],[-117.53738,33.7114],[-117.53743,33.71146],[-117.53747,33.71151],[-117.53753,33.71165],[-117.53767,33.71198],[-117.53771,33.71212],[-117.53772,33.71229],[-117.5377,33.71247],[-117.53766,33.71263],[-117.53762,33.71284],[-117.5376,33.71296],[-117.53761,33.71304],[-117.53766,33.71311],[-117.53774,33.71316],[-117.53787,33.71323],[-117.538,33.7133],[-117.5381,33.71335],[-117.53812,33.7134],[-117.53812,33.71345],[-117.53808,33.7135],[-117.53793,33.71362],[-117.53779,33.71369],[-117.53768,33.71374],[-117.53757,33.7138],[-117.53746,33.71387],[-117.53738,33.71396],[-117.53734,33.71403],[-117.53731,33.7141],[-117.53731,33.71416],[-117.53733,33.71422],[-117.53738,33.71429],[-117.53744,33.71434],[-117.53749,33.7144],[-117.53755,33.7145],[-117.53756,33.71457],[-117.53759,33.71464],[-117.53763,33.71472],[-117.53773,33.71482],[-117.53781,33.71493],[-117.53797,33.71518],[-117.53813,33.71539],[-117.53814,33.71546],[-117.53812,33.71552],[-117.53806,33.7156],[-117.53797,33.71566],[-117.53781,33.71579],[-117.53774,33.71586],[-117.53769,33.71594],[-117.53766,33.71604],[-117.53761,33.71624],[-117.53761,33.71629],[-117.53763,33.71633],[-117.53766,33.71636],[-117.53772,33.71639],[-117.53781,33.71643],[-117.53789,33.71647],[-117.53794,33.71652],[-117.53797,33.71657],[-117.53798,33.71665],[-117.53796,33.71674],[-117.53795,33.71681],[-117.53796,33.71689],[-117.53801,33.71695],[-117.5381,33.71705],[-117.5383,33.71722],[-117.53848,33.71737],[-117.53858,33.71743],[-117.53869,33.71749],[-117.53879,33.71751],[-117.53889,33.7175],[-117.53899,33.71746],[-117.53914,33.71738],[-117.53919,33.71736],[-117.53926,33.71733],[-117.53943,33.71729],[-117.53953,33.71722],[-117.53965,33.71715],[-117.53974,33.71711],[-117.53986,33.71712],[-117.53996,33.71714],[-117.54014,33.71723],[-117.54017,33.71726],[-117.54026,33.71735],[-117.54034,33.71753],[-117.5404,33.7176],[-117.54046,33.71763],[-117.54055,33.71767],[-117.54077,33.71772],[-117.54097,33.71777],[-117.54109,33.71779],[-117.54118,33.71777],[-117.54138,33.71769],[-117.54156,33.71761],[-117.54175,33.71752],[-117.54189,33.71744],[-117.54203,33.71733],[-117.54215,33.71725],[-117.54225,33.7172],[-117.5424,33.71715],[-117.54247,33.71713],[-117.54255,33.71713],[-117.54265,33.71713],[-117.54284,33.71716],[-117.54295,33.71715],[-117.54302,33.71711],[-117.5431,33.71703],[-117.54321,33.7169],[-117.54338,33.7168],[-117.54358,33.71672],[-117.54393,33.7166],[-117.54404,33.71659],[-117.54414,33.71659],[-117.54422,33.71662],[-117.54438,33.71671],[-117.54453,33.71677],[-117.54464,33.71679],[-117.54485,33.7168],[-117.54506,33.71679],[-117.5452,33.71678],[-117.5453,33.71675],[-117.54537,33.71675],[-117.54544,33.71677],[-117.54561,33.71688],[-117.54598,33.71709],[-117.54625,33.7172],[-117.54635,33.7172],[-117.5465,33.71715],[-117.54664,33.71712],[-117.54681,33.71709],[-117.54694,33.71702],[-117.54705,33.71686],[-117.54762,33.71612],[-117.54812,33.71559],[-117.5487,33.71522],[-117.54937,33.71493],[-117.54971,33.71444],[-117.55004,33.71395],[-117.55027,33.71376],[-117.55056,33.71363],[-117.55092,33.71365],[-117.55146,33.71375],[-117.55175,33.71377],[-117.55197,33.71375],[-117.55246,33.71356],[-117.55265,33.71348],[-117.55277,33.71337],[-117.55288,33.71315],[-117.55302,33.71302],[-117.55322,33.71288],[-117.55339,33.7127],[-117.55356,33.71251],[-117.55379,33.71228],[-117.55402,33.71209],[-117.55418,33.71197],[-117.55429,33.71197],[-117.55436,33.71203],[-117.55437,33.7121],[-117.55429,33.71224],[-117.554,33.7127],[-117.55358,33.7133],[-117.55333,33.71372],[-117.55315,33.71389],[-117.55299,33.71397],[-117.55273,33.71417],[-117.55222,33.71432],[-117.55202,33.71446],[-117.55153,33.71457],[-117.55137,33.71475],[-117.55105,33.71508],[-117.55087,33.71531],[-117.55082,33.7156],[-117.55066,33.71585],[-117.55033,33.71622],[-117.55018,33.71679],[-117.55024,33.71713],[-117.55021,33.71739],[-117.54994,33.71759],[-117.5497,33.71789],[-117.54962,33.71821],[-117.5496,33.71847],[-117.54908,33.71913],[-117.54898,33.71938],[-117.549,33.71968],[-117.54907,33.71993],[-117.54906,33.72019],[-117.54916,33.72042],[-117.54916,33.72055],[-117.54883,33.72068],[-117.54853,33.72098],[-117.54812,33.72137],[-117.54771,33.72157],[-117.54746,33.72186],[-117.54744,33.72208],[-117.54754,33.72231],[-117.54762,33.72257],[-117.54761,33.72275],[-117.54753,33.72286],[-117.54725,33.72311],[-117.54717,33.72325],[-117.54711,33.72345],[-117.54694,33.72384],[-117.5468,33.72416],[-117.54665,33.72433],[-117.54652,33.72463],[-117.54635,33.72489],[-117.54609,33.72516],[-117.546,33.72542],[-117.54613,33.72562],[-117.54628,33.72582],[-117.54644,33.72593],[-117.54655,33.72603],[-117.54653,33.72614],[-117.54641,33.72631],[-117.54636,33.72665],[-117.54646,33.72678],[-117.54659,33.72686],[-117.54687,33.72706],[-117.54692,33.72718],[-117.54694,33.7276],[-117.54688,33.7279],[-117.54689,33.72815],[-117.54691,33.72827],[-117.54694,33.72844],[-117.547,33.72864],[-117.547,33.72873],[-117.54698,33.72881],[-117.54693,33.72886],[-117.54686,33.72889],[-117.54676,33.72891],[-117.54663,33.72891],[-117.54643,33.72889],[-117.54623,33.72889],[-117.5461,33.72891],[-117.54598,33.72893],[-117.54532,33.729],[-117.54514,33.72911],[-117.5449,33.72919],[-117.54449,33.72914],[-117.54381,33.72953],[-117.54341,33.72975],[-117.54306,33.72997],[-117.54253,33.73021],[-117.54235,33.7304],[-117.54204,33.73085],[-117.54159,33.73128],[-117.54103,33.73177],[-117.54096,33.73194],[-117.54093,33.73273],[-117.54087,33.73293],[-117.54068,33.73318],[-117.54064,33.73341],[-117.54048,33.73367],[-117.54041,33.73388],[-117.54038,33.73413],[-117.54017,33.73447],[-117.54008,33.73466],[-117.53999,33.73475],[-117.53996,33.73478],[-117.53978,33.7351],[-117.53924,33.73537],[-117.53897,33.73556],[-117.53881,33.73581],[-117.5391,33.73609],[-117.53919,33.73626],[-117.53908,33.73643],[-117.53885,33.73661],[-117.53874,33.73687],[-117.53879,33.73719],[-117.53864,33.73747],[-117.53869,33.73766],[-117.5388,33.73781],[-117.53881,33.73796],[-117.53865,33.73811],[-117.53842,33.73822],[-117.53794,33.73847],[-117.53792,33.73849],[-117.53777,33.73867],[-117.5378,33.7389],[-117.53792,33.73909],[-117.53819,33.73936],[-117.53834,33.73963],[-117.53851,33.73985],[-117.53847,33.74],[-117.53821,33.74017],[-117.53752,33.74043],[-117.53703,33.7408],[-117.53687,33.74093],[-117.53671,33.74128],[-117.53662,33.74157],[-117.5366,33.74184],[-117.53661,33.74221],[-117.53655,33.74249],[-117.53654,33.74282],[-117.53657,33.74308],[-117.5365,33.74351],[-117.53659,33.74396],[-117.53641,33.74468],[-117.53638,33.74521],[-117.53635,33.74577],[-117.53632,33.74589],[-117.53625,33.74602],[-117.53614,33.74613],[-117.53598,33.74625],[-117.53584,33.74638],[-117.53571,33.74651],[-117.5356,33.74667],[-117.53532,33.74709],[-117.53518,33.74728],[-117.53507,33.7474],[-117.535,33.74751],[-117.535,33.74767]]}},{"type":"Feature","properties":{"name":"(unnamed public road)","road_class":"track","surface":"unpaved","source":"Caltrans All Roads + OpenStreetMap explicit surface","source_detail":"osm way 7024461; Caltrans All Roads public-network geometry match","source_tile":"177/410","public_network_source":"Caltrans All Roads (ARNOLD/HPMS)","surface_source":"OpenStreetMap explicit surface tag","caltrans_match_coverage":1.0,"verified_length_m":1284},"geometry":{"type":"LineString","coordinates":[[-117.50468,33.52897],[-117.50442,33.52902],[-117.50395,33.52972],[-117.50342,33.53031],[-117.50296,33.53094],[-117.50217,33.53166],[-117.50152,33.53231],[-117.50081,33.53284],[-117.50052,33.53326],[-117.50037,33.53332],[-117.50027,33.53343],[-117.50024,33.53351],[-117.50024,33.53374],[-117.50019,33.53381],[-117.50011,33.53389],[-117.49974,33.53401],[-117.49958,33.53404],[-117.4995,33.53412],[-117.4994,33.53434],[-117.49935,33.5344],[-117.49924,33.53442],[-117.49843,33.53465],[-117.49803,33.53473],[-117.49771,33.53489],[-117.49737,33.5351],[-117.49725,33.5354],[-117.49715,33.53553],[-117.49702,33.53567],[-117.49689,33.53572],[-117.49653,33.53567],[-117.49627,33.53561],[-117.49483,33.53559]]}},{"type":"Feature","properties":{"name":"(unnamed public road)","road_class":"unclassified","surface":"unpaved","source":"Caltrans All Roads + OpenStreetMap explicit surface","source_detail":"osm way 7057913; Caltrans All Roads public-network geometry match","source_tile":"177/410","public_network_source":"Caltrans All Roads (ARNOLD/HPMS)","surface_source":"OpenStreetMap explicit surface tag","caltrans_match_coverage":0.962,"verified_length_m":1986},"geometry":{"type":"LineString","coordinates":[[-117.51029,33.50988],[-117.51028,33.50966],[-117.5106,33.50902],[-117.51076,33.50838],[-117.51096,33.50815],[-117.51111,33.50789],[-117.51111,33.50758],[-117.51127,33.50733],[-117.51157,33.50664],[-117.51157,33.50632],[-117.51137,33.50617],[-117.51111,33.50613],[-117.51084,33.50616],[-117.51034,33.50635],[-117.50988,33.50659],[-117.50973,33.50666],[-117.50947,33.50675],[-117.50915,33.50682],[-117.50861,33.50704],[-117.5084,33.50712],[-117.50816,33.50725],[-117.50785,33.50736],[-117.50752,33.5075],[-117.50659,33.50761],[-117.50632,33.50767],[-117.50542,33.50777],[-117.50471,33.5078],[-117.50399,33.5079],[-117.5034,33.50796],[-117.50325,33.50796],[-117.50317,33.50797],[-117.50267,33.50809],[-117.50227,33.50815],[-117.50174,33.50844],[-117.50143,33.50857],[-117.5012,33.50874],[-117.50103,33.50892],[-117.50088,33.50904],[-117.50074,33.5091],[-117.50041,33.50922],[-117.49998,33.5094],[-117.49906,33.5098],[-117.49836,33.50976],[-117.49792,33.50971],[-117.49759,33.5096],[-117.49677,33.50925],[-117.49599,33.50898]]}},{"type":"Feature","properties":{"name":"North Main Divide Road","road_class":"unclassified","surface":"dirt","source":"Caltrans All Roads + OpenStreetMap explicit surface","source_detail":"osm way 7085513; Caltrans All Roads public-network geometry match","source_tile":"177/410","public_network_source":"Caltrans All Roads (ARNOLD/HPMS)","surface_source":"OpenStreetMap explicit surface tag","caltrans_match_coverage":0.923,"verified_length_m":3324},"geometry":{"type":"LineString","coordinates":[[-117.51883,33.70823],[-117.51889,33.70839],[-117.51882,33.70853],[-117.51881,33.7087],[-117.51873,33.70884],[-117.5187,33.70895],[-117.51876,33.70907],[-117.5189,33.7092],[-117.51908,33.70947],[-117.51927,33.70963],[-117.51941,33.70976],[-117.5195,33.70983],[-117.51953,33.70996],[-117.51954,33.71018],[-117.51945,33.71024],[-117.51937,33.71029],[-117.51931,33.71035],[-117.5193,33.71048],[-117.51922,33.71054],[-117.51912,33.71053],[-117.51907,33.71052],[-117.51891,33.71038],[-117.51877,33.7103],[-117.51855,33.71023],[-117.51834,33.71016],[-117.5182,33.71016],[-117.51803,33.7102],[-117.51787,33.71021],[-117.51775,33.7102],[-117.51766,33.71015],[-117.51761,33.71011],[-117.51742,33.71009],[-117.51734,33.71006],[-117.51723,33.71002],[-117.51714,33.71],[-117.51707,33.71004],[-117.51704,33.71011],[-117.51705,33.71017],[-117.51708,33.71024],[-117.51714,33.71029],[-117.51721,33.71032],[-117.51733,33.71036],[-117.51747,33.71042],[-117.51755,33.71053],[-117.51756,33.71066],[-117.51763,33.71088],[-117.51762,33.71095],[-117.51753,33.711],[-117.5173,33.71099],[-117.51712,33.71094],[-117.51697,33.71091],[-117.51684,33.71093],[-117.51676,33.71094],[-117.51666,33.71096],[-117.51661,33.71095],[-117.51656,33.71093],[-117.51652,33.71088],[-117.51644,33.71073],[-117.5164,33.71066],[-117.51622,33.71056],[-117.5161,33.71048],[-117.51596,33.71043],[-117.51579,33.71047],[-117.51555,33.71063],[-117.51546,33.71072],[-117.51543,33.71077],[-117.5153,33.71082],[-117.5151,33.71084],[-117.51496,33.71081],[-117.51484,33.71076],[-117.51472,33.71066],[-117.51454,33.71051],[-117.51437,33.71041],[-117.51429,33.71035],[-117.5143,33.71028],[-117.51444,33.71018],[-117.51451,33.71004],[-117.51441,33.70996],[-117.51426,33.70993],[-117.51406,33.70997],[-117.51372,33.71005],[-117.51355,33.71006],[-117.5134,33.71006],[-117.51327,33.71004],[-117.51315,33.71006],[-117.51304,33.71003],[-117.51293,33.70996],[-117.51283,33.70984],[-117.51274,33.70968],[-117.51264,33.70965],[-117.51247,33.70971],[-117.51234,33.70971],[-117.51201,33.70969],[-117.51171,33.70975],[-117.51144,33.70977],[-117.51119,33.70975],[-117.51113,33.70971],[-117.51107,33.70962],[-117.51105,33.70949],[-117.51104,33.70932],[-117.51099,33.70923],[-117.51088,33.70918],[-117.51066,33.70914],[-117.51056,33.70911],[-117.51054,33.70904],[-117.51056,33.70894],[-117.51063,33.70883],[-117.51076,33.70873],[-117.51086,33.7086],[-117.51091,33.70846],[-117.51088,33.70839],[-117.51078,33.70839],[-117.51068,33.70843],[-117.51057,33.70848],[-117.51045,33.70852],[-117.51031,33.70856],[-117.50986,33.70883],[-117.50976,33.70901],[-117.50979,33.70931],[-117.50971,33.70936],[-117.50964,33.70936],[-117.5094,33.70926],[-117.50915,33.70919],[-117.50902,33.70913],[-117.50897,33.70906],[-117.50895,33.70899],[-117.50889,33.70893],[-117.50872,33.70885],[-117.5086,33.7087],[-117.50838,33.70829],[-117.50817,33.70806],[-117.50812,33.70798],[-117.50807,33.70787],[-117.50798,33.70761],[-117.50791,33.70748],[-117.50774,33.70743],[-117.50754,33.70743],[-117.50722,33.70747],[-117.50696,33.70742],[-117.50674,33.70731],[-117.50654,33.70717],[-117.50639,33.70711],[-117.50614,33.70716],[-117.50602,33.70725],[-117.50582,33.70735],[-117.50558,33.70748],[-117.5052,33.70771],[-117.50508,33.70786],[-117.505,33.70796],[-117.5047,33.70812],[-117.50444,33.7082],[-117.50416,33.70824],[-117.50374,33.70825],[-117.50353,33.70825],[-117.50332,33.70829],[-117.50306,33.7084],[-117.50281,33.70847],[-117.50255,33.70846],[-117.50227,33.70852],[-117.50208,33.70851],[-117.50185,33.70842],[-117.5017,33.70829],[-117.50151,33.708],[-117.5014,33.70794],[-117.50047,33.70791],[-117.50033,33.70781],[-117.50021,33.70762],[-117.50013,33.70757],[-117.49983,33.70759],[-117.49951,33.70755],[-117.49922,33.70745],[-117.4991,33.70731],[-117.499,33.70717],[-117.49887,33.70713],[-117.49872,33.70713],[-117.49858,33.70715],[-117.49838,33.7071],[-117.49834,33.70702],[-117.49837,33.70693],[-117.49849,33.70671],[-117.49847,33.70658],[-117.49836,33.70634],[-117.49844,33.70612],[-117.49842,33.70602],[-117.49835,33.70592],[-117.49816,33.70582],[-117.49792,33.70566],[-117.49772,33.70559],[-117.49753,33.70553],[-117.49733,33.7055],[-117.49715,33.70546]]}},{"type":"Feature","properties":{"name":"Indian Truck Trail","road_class":"track","surface":"dirt","source":"Caltrans All Roads + OpenStreetMap explicit surface","source_detail":"osm way 7085676; Caltrans All Roads public-network geometry match","source_tile":"177/410","public_network_source":"Caltrans All Roads (ARNOLD/HPMS)","surface_source":"OpenStreetMap explicit surface tag","caltrans_match_coverage":0.927,"verified_length_m":1363},"geometry":{"type":"LineString","coordinates":[[-117.50151,33.708],[-117.50145,33.70806],[-117.50153,33.7082],[-117.50157,33.70827],[-117.50158,33.70838],[-117.50158,33.70848],[-117.50158,33.70857],[-117.5016,33.70865],[-117.50183,33.70874],[-117.50198,33.70889],[-117.50205,33.70896],[-117.50212,33.70905],[-117.5023,33.70909],[-117.50247,33.70908],[-117.50272,33.70898],[-117.50293,33.709],[-117.50334,33.70894],[-117.50375,33.70892],[-117.50449,33.70896],[-117.5047,33.70901],[-117.50483,33.70913],[-117.50496,33.7092],[-117.5051,33.70924],[-117.50538,33.70922],[-117.50547,33.70929],[-117.50549,33.70936],[-117.50542,33.7094],[-117.50523,33.70937],[-117.50506,33.70934],[-117.50481,33.70927],[-117.50467,33.70922],[-117.50449,33.70919],[-117.50433,33.70922],[-117.5042,33.70924],[-117.50401,33.70925],[-117.50354,33.70941],[-117.50337,33.70947],[-117.50322,33.70955],[-117.50302,33.70962],[-117.50279,33.7097],[-117.50249,33.70982],[-117.50231,33.70986],[-117.50215,33.70984],[-117.50208,33.70982],[-117.50191,33.70971],[-117.50178,33.70964],[-117.50154,33.70966],[-117.50132,33.70956],[-117.50101,33.70945],[-117.50082,33.70924],[-117.50064,33.70894],[-117.50052,33.70893],[-117.50041,33.70902],[-117.50024,33.70921],[-117.50011,33.70926],[-117.49999,33.70926],[-117.49986,33.70922],[-117.4998,33.70912],[-117.49971,33.70895],[-117.49964,33.70879],[-117.49956,33.70874],[-117.49945,33.70874],[-117.49941,33.70878],[-117.49939,33.70885],[-117.49917,33.70919],[-117.49907,33.70929],[-117.49892,33.70935],[-117.49884,33.70947],[-117.49865,33.70982],[-117.49862,33.70996],[-117.49857,33.7101],[-117.49861,33.71019],[-117.49874,33.71024],[-117.49886,33.71023]]}},{"type":"Feature","properties":{"name":"(unnamed public road)","road_class":"unclassified","surface":"unpaved","source":"Caltrans All Roads + OpenStreetMap explicit surface","source_detail":"osm way 13288083; Caltrans All Roads public-network geometry match","source_tile":"177/410","public_network_source":"Caltrans All Roads (ARNOLD/HPMS)","surface_source":"OpenStreetMap explicit surface tag","caltrans_match_coverage":1.0,"verified_length_m":984},"geometry":{"type":"LineString","coordinates":[[-117.50983,33.51089],[-117.51052,33.51067],[-117.51065,33.51052],[-117.51083,33.51057],[-117.51098,33.51057],[-117.51116,33.51053],[-117.51146,33.51033],[-117.5116,33.51027],[-117.51174,33.51029],[-117.51185,33.51038],[-117.5119,33.51049],[-117.5119,33.51078],[-117.51194,33.51098],[-117.51209,33.51126],[-117.51216,33.51141],[-117.51225,33.51176],[-117.51225,33.51233],[-117.5124,33.51272],[-117.51277,33.51313],[-117.51289,33.51327],[-117.5129,33.51337],[-117.51275,33.51361],[-117.51258,33.51388],[-117.51245,33.51423],[-117.51237,33.51473],[-117.51232,33.51507],[-117.5124,33.5153],[-117.51264,33.51558],[-117.51288,33.516],[-117.51299,33.51616],[-117.51309,33.51643],[-117.51319,33.51664],[-117.51339,33.51677]]}},{"type":"Feature","properties":{"name":"North Main Divide Road","road_class":"unclassified","surface":"dirt","source":"Caltrans All Roads + OpenStreetMap explicit surface","source_detail":"osm way 13364870; Caltrans All Roads public-network geometry match","source_tile":"177/410","public_network_source":"Caltrans All Roads (ARNOLD/HPMS)","surface_source":"OpenStreetMap explicit surface tag","caltrans_match_coverage":1.0,"verified_length_m":749},"geometry":{"type":"LineString","coordinates":[[-117.51883,33.70823],[-117.5185,33.70807],[-117.51833,33.708],[-117.51819,33.70795],[-117.51813,33.70789],[-117.51817,33.70782],[-117.51839,33.70771],[-117.51873,33.70754],[-117.51886,33.70749],[-117.519,33.70749],[-117.51924,33.70757],[-117.51937,33.7076],[-117.51951,33.7076],[-117.51964,33.70757],[-117.5201,33.70739],[-117.5202,33.70736],[-117.5203,33.70737],[-117.52041,33.70742],[-117.52064,33.70757],[-117.52082,33.7077],[-117.52088,33.70774],[-117.52094,33.70776],[-117.52101,33.70777],[-117.52107,33.70776],[-117.52116,33.70773],[-117.52127,33.70766],[-117.52135,33.70764],[-117.52142,33.70764],[-117.52157,33.70765],[-117.52163,33.70765],[-117.52169,33.70764],[-117.52178,33.7076],[-117.52188,33.70755],[-117.52193,33.70754],[-117.52198,33.70754],[-117.52201,33.70758],[-117.52198,33.70763],[-117.52188,33.70769],[-117.52168,33.70777],[-117.52155,33.70783],[-117.52142,33.70787],[-117.52125,33.70799],[-117.5211,33.70805],[-117.52093,33.7081],[-117.52069,33.7081],[-117.52056,33.70806],[-117.52045,33.70807],[-117.52034,33.70813],[-117.52026,33.70821],[-117.52022,33.70829],[-117.52022,33.70836],[-117.52023,33.70843],[-117.52032,33.70849],[-117.52051,33.70851],[-117.5207,33.70854],[-117.5208,33.70858]]}},{"type":"Feature","properties":{"name":"North Main Divide Road","road_class":"unclassified","surface":"dirt","source":"Caltrans All Roads + OpenStreetMap explicit surface","source_detail":"osm way 13364879; Caltrans All Roads public-network geometry match","source_tile":"177/410","public_network_source":"Caltrans All Roads (ARNOLD/HPMS)","surface_source":"OpenStreetMap explicit surface tag","caltrans_match_coverage":1.0,"verified_length_m":5688},"geometry":{"type":"LineString","coordinates":[[-117.49715,33.70546],[-117.49706,33.7054],[-117.49684,33.70503],[-117.49668,33.7049],[-117.49649,33.7049],[-117.49626,33.70495],[-117.49589,33.70499],[-117.49579,33.70498],[-117.49573,33.70487],[-117.4957,33.70472],[-117.49571,33.70455],[-117.49562,33.70431],[-117.49557,33.70409],[-117.49546,33.70362],[-117.49536,33.70353],[-117.49523,33.70354],[-117.49498,33.70362],[-117.49486,33.70364],[-117.49467,33.70364],[-117.49452,33.70362],[-117.49437,33.70356],[-117.4941,33.70355],[-117.49399,33.70354],[-117.49384,33.70349],[-117.49362,33.70344],[-117.4934,33.70344],[-117.49322,33.70348],[-117.49302,33.70354],[-117.4927,33.70357],[-117.49235,33.70354],[-117.49207,33.70343],[-117.49183,33.70327],[-117.49144,33.70326],[-117.49132,33.7032],[-117.49115,33.70306],[-117.49114,33.70296],[-117.49119,33.70283],[-117.4912,33.70272],[-117.49113,33.70253],[-117.49105,33.70248],[-117.49095,33.70245],[-117.49082,33.70247],[-117.49066,33.70254],[-117.4904,33.70272],[-117.49017,33.70279],[-117.48988,33.70291],[-117.48973,33.70293],[-117.48951,33.70301],[-117.48941,33.70303],[-117.48933,33.70299],[-117.4892,33.7029],[-117.48917,33.70272],[-117.48908,33.70253],[-117.48902,33.70244],[-117.48869,33.70241],[-117.48857,33.70247],[-117.48848,33.70251],[-117.48839,33.70251],[-117.48833,33.70248],[-117.4882,33.70246],[-117.48807,33.7025],[-117.48788,33.70249],[-117.48781,33.70242],[-117.48781,33.70236],[-117.48774,33.70233],[-117.48764,33.70235],[-117.48732,33.70259],[-117.48722,33.7027],[-117.48713,33.70274],[-117.487,33.70274],[-117.48684,33.70279],[-117.48664,33.70292],[-117.48647,33.70313],[-117.48634,33.7032],[-117.48589,33.70346],[-117.48572,33.70356],[-117.48554,33.70359],[-117.48542,33.70354],[-117.48514,33.70343],[-117.48495,33.70338],[-117.48476,33.70332],[-117.4846,33.70324],[-117.4843,33.70311],[-117.48404,33.70306],[-117.48373,33.70299],[-117.48334,33.70289],[-117.4829,33.70271],[-117.48255,33.70265],[-117.48197,33.70243],[-117.48188,33.70244],[-117.48135,33.70274],[-117.48096,33.70288],[-117.48078,33.70291],[-117.48072,33.70289],[-117.48059,33.70282],[-117.48049,33.7028],[-117.48037,33.70282],[-117.48015,33.70293],[-117.48004,33.70297],[-117.47994,33.70297],[-117.4798,33.70296],[-117.47968,33.70288],[-117.47961,33.70281],[-117.47954,33.70276],[-117.47948,33.70272],[-117.47934,33.7027],[-117.4792,33.70264],[-117.479,33.70261],[-117.47883,33.70266],[-117.47868,33.70265],[-117.47852,33.70261],[-117.47823,33.70253],[-117.47803,33.70255],[-117.47784,33.70255],[-117.47768,33.7025],[-117.47722,33.70222],[-117.47716,33.70211],[-117.47718,33.70195],[-117.47715,33.70182],[-117.4769,33.70135],[-117.4767,33.70116],[-117.47655,33.70103],[-117.47623,33.70095],[-117.47594,33.70091],[-117.47561,33.70091],[-117.47544,33.70083],[-117.47535,33.70075],[-117.47532,33.7007],[-117.47527,33.70054],[-117.47504,33.7001],[-117.47481,33.69987],[-117.47472,33.69977],[-117.47471,33.69961],[-117.47465,33.69947],[-117.47455,33.69935],[-117.47442,33.69925],[-117.47435,33.69919],[-117.47427,33.69912],[-117.47418,33.69904],[-117.47403,33.69885],[-117.47381,33.69877],[-117.47363,33.69865],[-117.47356,33.69857],[-117.47356,33.69849],[-117.47365,33.69843],[-117.4738,33.69829],[-117.4738,33.69813],[-117.47361,33.69784],[-117.47333,33.69753],[-117.47292,33.69732],[-117.4728,33.69729],[-117.47249,33.69723],[-117.47232,33.69718],[-117.47222,33.69707],[-117.47215,33.69694],[-117.4721,33.69671],[-117.47193,33.69633],[-117.47185,33.69605],[-117.47182,33.69579],[-117.47179,33.6956],[-117.47161,33.69543],[-117.47154,33.69536],[-117.47152,33.69527],[-117.47153,33.69516],[-117.4715,33.69505],[-117.47145,33.69492],[-117.47149,33.69481],[-117.4716,33.69469],[-117.47166,33.69457],[-117.47161,33.69445],[-117.47143,33.69442],[-117.47108,33.69447],[-117.47094,33.69446],[-117.47084,33.69436],[-117.47076,33.6943],[-117.47063,33.6943],[-117.47042,33.69435],[-117.47034,33.69436],[-117.47027,33.69431],[-117.47001,33.69418],[-117.46975,33.69415],[-117.46964,33.69417],[-117.4694,33.69428],[-117.46921,33.69431],[-117.46845,33.69437],[-117.46833,33.69433],[-117.46824,33.69424],[-117.46791,33.69378],[-117.46786,33.69363],[-117.46788,33.69334],[-117.46782,33.69317],[-117.46781,33.69304],[-117.46774,33.69295],[-117.46762,33.6929],[-117.46742,33.69291],[-117.46723,33.69295],[-117.46693,33.69307],[-117.46679,33.69313],[-117.4667,33.69309],[-117.46666,33.69298],[-117.46649,33.69288],[-117.46632,33.69274],[-117.46612,33.69268],[-117.46604,33.69262],[-117.46604,33.69249],[-117.46606,33.69238],[-117.46603,33.69226],[-117.46591,33.69215],[-117.46552,33.69207],[-117.46543,33.69202],[-117.46543,33.69195],[-117.46553,33.69187],[-117.46568,33.69168],[-117.46581,33.69159],[-117.46616,33.69145],[-117.46631,33.69135],[-117.46634,33.69125],[-117.46631,33.69115],[-117.46614,33.69103],[-117.46578,33.69091],[-117.46574,33.69082],[-117.46578,33.69075],[-117.46592,33.69069],[-117.46615,33.69053],[-117.46634,33.6904],[-117.46649,33.6902],[-117.46646,33.69006],[-117.4662,33.68977],[-117.46603,33.68967],[-117.46577,33.68979],[-117.46559,33.68983],[-117.46544,33.68996],[-117.46529,33.69],[-117.46499,33.68998],[-117.46489,33.69002],[-117.46473,33.69012],[-117.46453,33.69011],[-117.46436,33.69013],[-117.46425,33.69012],[-117.46413,33.69006],[-117.46395,33.69008],[-117.46381,33.69014],[-117.46371,33.69024],[-117.46354,33.69024],[-117.46347,33.69011],[-117.46331,33.69],[-117.46317,33.68978],[-117.46312,33.68974],[-117.46304,33.68975],[-117.46296,33.68976],[-117.46285,33.68974],[-117.46262,33.68968],[-117.46238,33.68965],[-117.46214,33.6895],[-117.46129,33.68914],[-117.46102,33.68896],[-117.46087,33.68893],[-117.46043,33.68892],[-117.46029,33.68889],[-117.46015,33.68882],[-117.46,33.68871],[-117.45961,33.68843],[-117.45913,33.68843],[-117.45899,33.68839],[-117.4588,33.68833],[-117.45869,33.68832],[-117.45854,33.6883],[-117.45844,33.68826],[-117.45823,33.68823],[-117.45812,33.68823],[-117.45805,33.68834],[-117.45804,33.68851],[-117.45802,33.68865],[-117.45766,33.68899],[-117.45743,33.6891],[-117.45701,33.68914],[-117.45684,33.68913],[-117.45664,33.68913],[-117.45639,33.68916],[-117.45595,33.68916]]}},{"type":"Feature","properties":{"name":"North Main Divide Road","road_class":"unclassified","surface":"dirt","tracktype":"grade2","source":"Caltrans All Roads + OpenStreetMap explicit surface","source_detail":"osm way 13364887; Caltrans All Roads public-network geometry match","source_tile":"177/410","public_network_source":"Caltrans All Roads (ARNOLD/HPMS)","surface_source":"OpenStreetMap explicit surface tag","caltrans_match_coverage":1.0,"verified_length_m":3056},"geometry":{"type":"LineString","coordinates":[[-117.45595,33.68916],[-117.45588,33.6891],[-117.4559,33.68896],[-117.45602,33.68882],[-117.45621,33.68875],[-117.45631,33.68871],[-117.45636,33.68865],[-117.45639,33.68857],[-117.45646,33.68837],[-117.45662,33.68801],[-117.45666,33.68791],[-117.45671,33.68784],[-117.45669,33.68775],[-117.45645,33.68763],[-117.45633,33.68757],[-117.45627,33.68748],[-117.4563,33.68739],[-117.45642,33.68727],[-117.4565,33.68699],[-117.45641,33.68671],[-117.45641,33.68655],[-117.4565,33.68648],[-117.45673,33.6864],[-117.45703,33.68627],[-117.45726,33.6861],[-117.4574,33.68577],[-117.45749,33.6854],[-117.4575,33.68536],[-117.45748,33.68531],[-117.45742,33.68521],[-117.45726,33.68504],[-117.45705,33.68487],[-117.45692,33.68475],[-117.4567,33.6845],[-117.45656,33.6844],[-117.45641,33.68433],[-117.45611,33.68425],[-117.45596,33.68422],[-117.45584,33.68415],[-117.45578,33.68408],[-117.45562,33.68387],[-117.45551,33.68373],[-117.4554,33.68369],[-117.45525,33.68369],[-117.45506,33.68368],[-117.45488,33.68365],[-117.45473,33.68359],[-117.45456,33.68359],[-117.45447,33.68358],[-117.45439,33.68355],[-117.45438,33.68346],[-117.45442,33.68339],[-117.4545,33.68331],[-117.45499,33.68261],[-117.45512,33.68248],[-117.45528,33.68234],[-117.4555,33.68223],[-117.45579,33.68217],[-117.45604,33.68214],[-117.45622,33.6821],[-117.45643,33.68202],[-117.45652,33.68194],[-117.45666,33.68173],[-117.45678,33.68152],[-117.45691,33.68143],[-117.45702,33.68141],[-117.45719,33.68142],[-117.45743,33.68144],[-117.45754,33.68139],[-117.45761,33.68131],[-117.45768,33.68114],[-117.45782,33.68098],[-117.45798,33.68087],[-117.45812,33.68085],[-117.45833,33.68086],[-117.45871,33.68093],[-117.45884,33.68096],[-117.45897,33.68099],[-117.45906,33.68099],[-117.45916,33.68091],[-117.45916,33.68081],[-117.45913,33.68071],[-117.45901,33.68059],[-117.45892,33.6805],[-117.45879,33.68047],[-117.4585,33.68043],[-117.45832,33.68033],[-117.45823,33.68032],[-117.45816,33.68029],[-117.45812,33.68022],[-117.45806,33.68013],[-117.45792,33.68004],[-117.45776,33.67998],[-117.45751,33.67995],[-117.45735,33.67991],[-117.45719,33.67986],[-117.45707,33.6798],[-117.457,33.67969],[-117.45705,33.67955],[-117.45731,33.67933],[-117.45749,33.67918],[-117.45757,33.6791],[-117.45757,33.67901],[-117.45752,33.67881],[-117.45744,33.6786],[-117.45736,33.67838],[-117.45732,33.67817],[-117.4573,33.67802],[-117.45733,33.67791],[-117.45755,33.67735],[-117.4576,33.67722],[-117.45766,33.67706],[-117.4577,33.67694],[-117.45777,33.67684],[-117.45789,33.6768],[-117.45803,33.67681],[-117.45808,33.67685],[-117.45809,33.677],[-117.45812,33.67711],[-117.45823,33.67735],[-117.45833,33.67768],[-117.4584,33.67774],[-117.45851,33.67772],[-117.45863,33.67762],[-117.45877,33.67756],[-117.45901,33.67751],[-117.45921,33.67742],[-117.45934,33.67732],[-117.45944,33.67719],[-117.45946,33.67704],[-117.45945,33.67686],[-117.45943,33.67651],[-117.45944,33.67631],[-117.4595,33.67601],[-117.45963,33.67562],[-117.45965,33.67532],[-117.45967,33.67517],[-117.45971,33.67503],[-117.45977,33.67492],[-117.45983,33.67478],[-117.45983,33.67468],[-117.45979,33.6745],[-117.45973,33.67429],[-117.45977,33.67421],[-117.45989,33.67417],[-117.46006,33.6741],[-117.46012,33.67392],[-117.46027,33.67379],[-117.46033,33.67367],[-117.46028,33.67358],[-117.45989,33.6733],[-117.45979,33.6732],[-117.45975,33.67299],[-117.45978,33.67253],[-117.45989,33.67235],[-117.46016,33.6716],[-117.46018,33.67145]]}},{"type":"Feature","properties":{"name":"North Main Divide Road","road_class":"unclassified","surface":"dirt","source":"Caltrans All Roads + OpenStreetMap explicit surface","source_detail":"osm way 40829135; Caltrans All Roads public-network geometry match","source_tile":"177/410","public_network_source":"Caltrans All Roads (ARNOLD/HPMS)","surface_source":"OpenStreetMap explicit surface tag","caltrans_match_coverage":0.979,"verified_length_m":3026},"geometry":{"type":"LineString","coordinates":[[-117.53372,33.71404],[-117.5337,33.71403],[-117.53368,33.71402],[-117.53367,33.714],[-117.53365,33.71394],[-117.53362,33.71388],[-117.53356,33.7138],[-117.53347,33.71373],[-117.53329,33.71359],[-117.53321,33.71353],[-117.53316,33.71352],[-117.5331,33.71351],[-117.53301,33.71351],[-117.53287,33.71352],[-117.53279,33.71353],[-117.53272,33.71354],[-117.53247,33.71361],[-117.53224,33.71368],[-117.53175,33.71384],[-117.53158,33.71388],[-117.53142,33.7139],[-117.53117,33.71392],[-117.53092,33.7139],[-117.53041,33.71387],[-117.53022,33.71385],[-117.53012,33.71382],[-117.53006,33.71375],[-117.53002,33.71368],[-117.52995,33.7136],[-117.52985,33.71355],[-117.5297,33.71352],[-117.52949,33.71351],[-117.52931,33.7135],[-117.52907,33.71345],[-117.52889,33.71343],[-117.52876,33.71346],[-117.52865,33.71352],[-117.52843,33.71361],[-117.52822,33.71368],[-117.52776,33.7138],[-117.52763,33.71385],[-117.52752,33.71391],[-117.52742,33.71399],[-117.52725,33.71412],[-117.5271,33.71421],[-117.52698,33.71427],[-117.52682,33.7143],[-117.52668,33.7143],[-117.52654,33.7143],[-117.52643,33.71432],[-117.52634,33.71437],[-117.52625,33.71445],[-117.52604,33.71476],[-117.52573,33.71502],[-117.52554,33.71527],[-117.52535,33.71544],[-117.52511,33.71566],[-117.52496,33.71594],[-117.5248,33.7162],[-117.52453,33.71643],[-117.52437,33.71648],[-117.52427,33.71653],[-117.52417,33.71661],[-117.5241,33.71664],[-117.52404,33.71665],[-117.52397,33.71663],[-117.52383,33.71653],[-117.52305,33.71607],[-117.52295,33.71604],[-117.52285,33.71604],[-117.52272,33.71611],[-117.52255,33.71621],[-117.52242,33.71626],[-117.52232,33.71628],[-117.52222,33.71629],[-117.52206,33.7163],[-117.52192,33.71636],[-117.5218,33.71638],[-117.52171,33.71638],[-117.5215,33.71639],[-117.5213,33.71641],[-117.52116,33.71638],[-117.52109,33.71639],[-117.52103,33.71642],[-117.52097,33.71648],[-117.52079,33.71656],[-117.52067,33.71664],[-117.52061,33.71669],[-117.52058,33.71675],[-117.52049,33.7168],[-117.52032,33.71684],[-117.52017,33.71687],[-117.52003,33.71692],[-117.51977,33.717],[-117.51968,33.71699],[-117.51962,33.71695],[-117.51956,33.71687],[-117.51961,33.71676],[-117.51981,33.71669],[-117.51998,33.71661],[-117.52042,33.71637],[-117.52057,33.71612],[-117.52072,33.71607],[-117.52105,33.71605],[-117.52129,33.716],[-117.52159,33.71597],[-117.52208,33.71582],[-117.52227,33.71573],[-117.52252,33.71535],[-117.52263,33.71523],[-117.5228,33.71518],[-117.52312,33.71523],[-117.52323,33.7153],[-117.52349,33.71549],[-117.5237,33.71552],[-117.52384,33.71541],[-117.52386,33.71523],[-117.52393,33.7149],[-117.52396,33.71448],[-117.52403,33.71415],[-117.52426,33.71392],[-117.52414,33.71375],[-117.52375,33.71363],[-117.52366,33.71333],[-117.5235,33.71308],[-117.52356,33.71295],[-117.52354,33.71275],[-117.52347,33.7125],[-117.52354,33.71232],[-117.52377,33.71219],[-117.52397,33.71194],[-117.52401,33.71177],[-117.52392,33.71136],[-117.52394,33.71117],[-117.52358,33.71092],[-117.52334,33.7106],[-117.52319,33.71032],[-117.52289,33.71021],[-117.52279,33.71009],[-117.52267,33.70999],[-117.52252,33.70963],[-117.52247,33.70943],[-117.52243,33.70934],[-117.52106,33.70867],[-117.5208,33.70858]]}},{"type":"Feature","properties":{"name":"(unnamed public road)","road_class":"unclassified","surface":"unpaved","source":"Caltrans All Roads + OpenStreetMap explicit surface","source_detail":"osm way 465254396; Caltrans All Roads public-network geometry match","source_tile":"177/410","public_network_source":"Caltrans All Roads (ARNOLD/HPMS)","surface_source":"OpenStreetMap explicit surface tag","caltrans_match_coverage":1.0,"verified_length_m":1383},"geometry":{"type":"LineString","coordinates":[[-117.53873,33.46467],[-117.53883,33.46493],[-117.53893,33.46517],[-117.539,33.4655],[-117.53906,33.46568],[-117.53917,33.46582],[-117.53931,33.46592],[-117.53953,33.466],[-117.54,33.46615],[-117.54089,33.46641],[-117.54111,33.46646],[-117.54126,33.46645],[-117.54137,33.46643],[-117.54166,33.46633],[-117.54202,33.46617],[-117.54219,33.46614],[-117.54285,33.46616],[-117.54327,33.46618],[-117.5434,33.46624],[-117.54345,33.46629],[-117.54348,33.46635],[-117.54348,33.46641],[-117.54346,33.46645],[-117.5434,33.46653],[-117.54333,33.46657],[-117.54324,33.46665],[-117.54325,33.46682],[-117.54365,33.46699],[-117.54401,33.46701],[-117.54447,33.46697],[-117.54488,33.46689],[-117.54518,33.4669],[-117.54571,33.467],[-117.54615,33.46722],[-117.54674,33.46754],[-117.54719,33.46816],[-117.54737,33.46871],[-117.54748,33.46902],[-117.54766,33.4692],[-117.54827,33.46961],[-117.54847,33.46983],[-117.54873,33.47002],[-117.54896,33.47006],[-117.54946,33.47009]]}},{"type":"Feature","properties":{"name":"(unnamed public road)","road_class":"track","surface":"unpaved","source":"Caltrans All Roads + OpenStreetMap explicit surface","source_detail":"osm way 474874782; Caltrans All Roads public-network geometry match","source_tile":"177/410","public_network_source":"Caltrans All Roads (ARNOLD/HPMS)","surface_source":"OpenStreetMap explicit surface tag","caltrans_match_coverage":1.0,"verified_length_m":967},"geometry":{"type":"LineString","coordinates":[[-117.59834,33.4981],[-117.59799,33.49706],[-117.59784,33.49628],[-117.5979,33.49543],[-117.59796,33.49465],[-117.598,33.49423],[-117.59784,33.49383],[-117.5974,33.49324],[-117.59693,33.49265],[-117.59677,33.49223],[-117.59661,33.49181],[-117.59651,33.4917],[-117.59645,33.49167],[-117.59623,33.49163],[-117.5961,33.49151],[-117.59604,33.49129],[-117.59586,33.49086],[-117.59564,33.49054],[-117.5956,33.49047],[-117.59546,33.49019],[-117.59539,33.49007]]}},{"type":"Feature","properties":{"name":"Trabuco Creek Road","road_class":"unclassified","surface":"unpaved","access":"yes","source":"Caltrans All Roads + OpenStreetMap explicit surface","source_detail":"osm way 538122065; Caltrans All Roads public-network geometry match","source_tile":"177/410","public_network_source":"Caltrans All Roads (ARNOLD/HPMS)","surface_source":"OpenStreetMap explicit surface tag","caltrans_match_coverage":1.0,"verified_length_m":3410},"geometry":{"type":"LineString","coordinates":[[-117.55452,33.67202],[-117.55461,33.67202],[-117.55476,33.672],[-117.55486,33.67199],[-117.55493,33.67197],[-117.55511,33.67195],[-117.55526,33.67192],[-117.55534,33.67189],[-117.55542,33.67186],[-117.55556,33.67184],[-117.55591,33.67184],[-117.55629,33.67186],[-117.55669,33.67187],[-117.55676,33.67186],[-117.55693,33.67184],[-117.55712,33.67185],[-117.55749,33.67187],[-117.55765,33.67188],[-117.55777,33.67189],[-117.55797,33.67187],[-117.55816,33.67182],[-117.55832,33.67178],[-117.55854,33.67175],[-117.55876,33.67175],[-117.55897,33.67174],[-117.55912,33.67171],[-117.55922,33.6717],[-117.55936,33.67169],[-117.55946,33.6717],[-117.55955,33.67173],[-117.55966,33.67175],[-117.55978,33.67172],[-117.55991,33.67164],[-117.56032,33.67137],[-117.56079,33.67096],[-117.56102,33.67064],[-117.56108,33.67026],[-117.56125,33.66998],[-117.56217,33.66937],[-117.56277,33.66899],[-117.56315,33.66881],[-117.56337,33.66874],[-117.5636,33.6687],[-117.56399,33.66863],[-117.56437,33.66863],[-117.56451,33.66862],[-117.56472,33.66853],[-117.56525,33.66829],[-117.56585,33.66789],[-117.56639,33.66758],[-117.56715,33.66725],[-117.56749,33.66703],[-117.56759,33.66692],[-117.56761,33.66687],[-117.56782,33.6666],[-117.56793,33.66652],[-117.56812,33.66639],[-117.57015,33.66508],[-117.57145,33.66425],[-117.57249,33.6636],[-117.57262,33.66349],[-117.57277,33.66331],[-117.57314,33.66272],[-117.57328,33.66243],[-117.5734,33.66227],[-117.57361,33.66214],[-117.57377,33.66209],[-117.57391,33.66207],[-117.57397,33.66206],[-117.57416,33.66199],[-117.57427,33.6619],[-117.57429,33.66189],[-117.57436,33.66181],[-117.57444,33.66172],[-117.57481,33.66151],[-117.57514,33.66134],[-117.57535,33.66123],[-117.57548,33.66119],[-117.57561,33.66115],[-117.57588,33.66106],[-117.57596,33.66103],[-117.57625,33.66092],[-117.57683,33.66083],[-117.57726,33.66084],[-117.57786,33.66082],[-117.57831,33.66079],[-117.57957,33.66077],[-117.57985,33.66078],[-117.58034,33.6608],[-117.58059,33.6608],[-117.58112,33.66072],[-117.58204,33.66055],[-117.58249,33.66046],[-117.58281,33.66038],[-117.58309,33.66028],[-117.58343,33.66014],[-117.58366,33.66007],[-117.58396,33.65999],[-117.58421,33.65986],[-117.58438,33.65975],[-117.58469,33.65955],[-117.5849,33.65946],[-117.58502,33.6594],[-117.58532,33.65937],[-117.58545,33.65931],[-117.58553,33.65922],[-117.5856,33.65912]]}},{"type":"Feature","properties":{"name":"West Bank Arroyo Trabuco Trail","road_class":"track","surface":"ground","source":"Caltrans All Roads + OpenStreetMap explicit surface","source_detail":"osm way 1010373907; Caltrans All Roads public-network geometry match","source_tile":"177/410","public_network_source":"Caltrans All Roads (ARNOLD/HPMS)","surface_source":"OpenStreetMap explicit surface tag","caltrans_match_coverage":1.0,"verified_length_m":1103},"geometry":{"type":"LineString","coordinates":[[-117.63889,33.58083],[-117.63883,33.58086],[-117.63877,33.58088],[-117.63872,33.5808],[-117.63876,33.58061],[-117.63891,33.58022],[-117.63899,33.57997],[-117.63908,33.57978],[-117.63919,33.5797],[-117.63925,33.57968],[-117.63936,33.57967],[-117.63963,33.57957],[-117.64011,33.57923],[-117.64056,33.57883],[-117.64084,33.57857],[-117.64104,33.57827],[-117.64104,33.57804],[-117.64108,33.57785],[-117.6412,33.57772],[-117.64149,33.57757],[-117.64172,33.57739],[-117.64186,33.57725],[-117.64191,33.57717],[-117.64194,33.5771],[-117.64199,33.5769],[-117.64204,33.57667],[-117.64212,33.57655],[-117.64239,33.57629],[-117.64251,33.57614],[-117.64262,33.57599],[-117.64269,33.57583],[-117.64304,33.57539],[-117.64328,33.5752],[-117.64369,33.57478],[-117.64429,33.5743],[-117.64491,33.57378],[-117.6452,33.57349],[-117.64553,33.57331]]}},{"type":"Feature","properties":{"name":"North Main Divide Road","road_class":"unclassified","surface":"dirt","tracktype":"grade2","source":"Caltrans All Roads + OpenStreetMap explicit surface","source_detail":"osm way 1065350600; Caltrans All Roads public-network geometry match","source_tile":"177/410","public_network_source":"Caltrans All Roads (ARNOLD/HPMS)","surface_source":"OpenStreetMap explicit surface tag","caltrans_match_coverage":1.0,"verified_length_m":2717},"geometry":{"type":"LineString","coordinates":[[-117.46018,33.67145],[-117.46013,33.67138],[-117.46007,33.67135],[-117.45997,33.67133],[-117.45972,33.67132],[-117.45961,33.67134],[-117.45952,33.67139],[-117.45929,33.67157],[-117.45922,33.67159],[-117.45914,33.6716],[-117.45906,33.67157],[-117.4589,33.67139],[-117.45859,33.67098],[-117.45836,33.67059],[-117.45826,33.67052],[-117.45814,33.67047],[-117.458,33.67045],[-117.45764,33.67045],[-117.45752,33.6704],[-117.45747,33.67033],[-117.45747,33.67025],[-117.45752,33.66989],[-117.4575,33.66976],[-117.45746,33.6697],[-117.45722,33.66956],[-117.45671,33.66922],[-117.45659,33.6691],[-117.45651,33.66893],[-117.45616,33.66852],[-117.45581,33.66809],[-117.45566,33.66799],[-117.45545,33.66792],[-117.45504,33.66785],[-117.45481,33.66783],[-117.45466,33.66786],[-117.45437,33.66793],[-117.4542,33.66791],[-117.45401,33.66784],[-117.45389,33.6677],[-117.45385,33.66749],[-117.4538,33.66732],[-117.45371,33.66724],[-117.45349,33.66718],[-117.45328,33.66712],[-117.45319,33.66708],[-117.45317,33.66702],[-117.45317,33.66684],[-117.45317,33.66667],[-117.45313,33.66655],[-117.45262,33.66586],[-117.45242,33.66568],[-117.45234,33.66558],[-117.45223,33.66534],[-117.45219,33.66517],[-117.45228,33.66465],[-117.45226,33.66456],[-117.45224,33.66453],[-117.45217,33.66452],[-117.45185,33.66457],[-117.45169,33.66455],[-117.45149,33.6645],[-117.45123,33.6644],[-117.45102,33.66431],[-117.45098,33.66424],[-117.45096,33.66405],[-117.45097,33.66389],[-117.45102,33.66374],[-117.45117,33.66354],[-117.45132,33.66339],[-117.45156,33.66324],[-117.45176,33.66312],[-117.45181,33.66304],[-117.4518,33.66297],[-117.45173,33.6629],[-117.45165,33.6628],[-117.4516,33.66268],[-117.45161,33.66257],[-117.45173,33.66243],[-117.45208,33.66215],[-117.45221,33.66204],[-117.45221,33.66192],[-117.45214,33.66185],[-117.452,33.66177],[-117.45189,33.66167],[-117.45176,33.66154],[-117.45164,33.66142],[-117.45158,33.66133],[-117.45158,33.66117],[-117.45164,33.66104],[-117.45176,33.66092],[-117.452,33.66075],[-117.45207,33.6606],[-117.45208,33.66052],[-117.45205,33.66045],[-117.45196,33.66035],[-117.4519,33.6603],[-117.45182,33.66023],[-117.45169,33.66006],[-117.45162,33.65985],[-117.45151,33.65964],[-117.45135,33.65949],[-117.45115,33.65942],[-117.45095,33.65943],[-117.45067,33.65953],[-117.45045,33.65965],[-117.45032,33.65977],[-117.45027,33.65987],[-117.45026,33.66002],[-117.45032,33.66016],[-117.45043,33.66026],[-117.45053,33.66036],[-117.45064,33.66053],[-117.45062,33.66076],[-117.45051,33.66094],[-117.45032,33.66107],[-117.45009,33.66117],[-117.44981,33.66115],[-117.44951,33.66101],[-117.44922,33.66084],[-117.44882,33.66066],[-117.44871,33.66063],[-117.44859,33.66064],[-117.44849,33.66065],[-117.44839,33.6607],[-117.4482,33.66082],[-117.44797,33.661],[-117.4479,33.66112],[-117.44789,33.66126],[-117.44794,33.66141],[-117.44804,33.6616],[-117.44809,33.6618],[-117.4481,33.66191],[-117.44807,33.66213],[-117.44798,33.66226],[-117.44793,33.66237]]}},{"type":"Feature","properties":{"name":"Tenaja Truck Trail","road_class":"unclassified","surface":"unpaved","source":"Caltrans All Roads + OpenStreetMap explicit surface","source_detail":"osm way 7301908; Caltrans All Roads public-network geometry match","source_tile":"178/410","public_network_source":"Caltrans All Roads (ARNOLD/HPMS)","surface_source":"OpenStreetMap explicit surface tag","caltrans_match_coverage":0.959,"verified_length_m":3689},"geometry":{"type":"LineString","coordinates":[[-117.42567,33.61623],[-117.42562,33.61615],[-117.42573,33.61597],[-117.42575,33.61573],[-117.42572,33.61567],[-117.42569,33.61554],[-117.42566,33.61537],[-117.42553,33.61514],[-117.42542,33.61506],[-117.42494,33.61474],[-117.42462,33.61457],[-117.42428,33.61447],[-117.42411,33.61444],[-117.42407,33.61443],[-117.42377,33.61445],[-117.42374,33.61445],[-117.42352,33.61449],[-117.42333,33.61452],[-117.4233,33.61453],[-117.42319,33.61457],[-117.42305,33.6147],[-117.42279,33.61493],[-117.42243,33.6152],[-117.42221,33.61537],[-117.42205,33.61548],[-117.42196,33.61553],[-117.42187,33.61554],[-117.42159,33.61554],[-117.42139,33.61553],[-117.42123,33.61554],[-117.42109,33.61556],[-117.42089,33.61559],[-117.42064,33.61564],[-117.4198,33.61579],[-117.41946,33.61587],[-117.41915,33.61594],[-117.41842,33.61596],[-117.41821,33.6156],[-117.41803,33.61535],[-117.41798,33.6153],[-117.41796,33.6153],[-117.4179,33.61528],[-117.41781,33.61528],[-117.41775,33.61534],[-117.41764,33.61546],[-117.41753,33.61556],[-117.41739,33.61561],[-117.41728,33.61557],[-117.41718,33.61539],[-117.41714,33.61475],[-117.41698,33.61447],[-117.41687,33.61428],[-117.41683,33.61421],[-117.41681,33.61417],[-117.41669,33.61395],[-117.41669,33.61372],[-117.41682,33.61344],[-117.41696,33.61329],[-117.41696,33.61313],[-117.41687,33.61293],[-117.41672,33.61275],[-117.41661,33.6125],[-117.41664,33.61233],[-117.41667,33.61211],[-117.41664,33.61152],[-117.41686,33.61142],[-117.41691,33.61122],[-117.4168,33.61102],[-117.41676,33.6109],[-117.41677,33.61078],[-117.41661,33.61043],[-117.41631,33.6103],[-117.41543,33.61036],[-117.41472,33.61064],[-117.41426,33.61091],[-117.4141,33.61096],[-117.41389,33.6109],[-117.41378,33.61065],[-117.41389,33.61037],[-117.41386,33.61006],[-117.41375,33.60993],[-117.41339,33.60991],[-117.41314,33.61008],[-117.41276,33.61059],[-117.41261,33.61065],[-117.41232,33.61058],[-117.41162,33.6106],[-117.4111,33.61043],[-117.41067,33.61047],[-117.41025,33.61056],[-117.41005,33.61054],[-117.40979,33.61027],[-117.40944,33.60964],[-117.40903,33.60926],[-117.40887,33.60907],[-117.40886,33.60883],[-117.40876,33.60863],[-117.40846,33.6084],[-117.40847,33.60786],[-117.40853,33.60765],[-117.40871,33.60691],[-117.40874,33.60645],[-117.40867,33.6059],[-117.40867,33.60572],[-117.4084,33.60532],[-117.40827,33.60518],[-117.40817,33.60509],[-117.40809,33.60507],[-117.40711,33.60478],[-117.40689,33.60465],[-117.4068,33.60434],[-117.40663,33.60408],[-117.40649,33.60397],[-117.40641,33.60391],[-117.40611,33.60385],[-117.40577,33.6038],[-117.4055,33.60371],[-117.40529,33.60369],[-117.40484,33.60372],[-117.40416,33.60378],[-117.40375,33.60382],[-117.40329,33.60408],[-117.4032,33.60411],[-117.40315,33.60412],[-117.40247,33.60423]]}}]}