{"type":"FeatureCollection","features":[{"type":"Feature","properties":{"name":"Coxey Truck Trail","road_class":"track","surface":"compacted","tracktype":"grade3","source":"Caltrans All Roads + OpenStreetMap explicit surface","source_detail":"osm way 7380571; Caltrans All Roads public-network geometry match","source_tile":"179/407","public_network_source":"Caltrans All Roads (ARNOLD/HPMS)","surface_source":"OpenStreetMap explicit surface tag","caltrans_match_coverage":1.0,"verified_length_m":6556},"geometry":{"type":"LineString","coordinates":[[-117.06413,34.34321],[-117.06409,34.34341],[-117.06416,34.34363],[-117.06443,34.34386],[-117.06474,34.34412],[-117.06517,34.34442],[-117.06567,34.34461],[-117.06577,34.3447],[-117.06581,34.3449],[-117.06587,34.34507],[-117.06599,34.34518],[-117.06664,34.34541],[-117.0668,34.3455],[-117.06705,34.34581],[-117.06728,34.34598],[-117.06773,34.34624],[-117.06783,34.34652],[-117.06793,34.34668],[-117.06812,34.34678],[-117.06835,34.34678],[-117.06867,34.34668],[-117.069,34.34663],[-117.06946,34.34672],[-117.06962,34.3467],[-117.07,34.34656],[-117.07028,34.34645],[-117.07053,34.34641],[-117.07066,34.34646],[-117.07089,34.34663],[-117.07102,34.34665],[-117.07124,34.34654],[-117.07135,34.34655],[-117.07151,34.34661],[-117.07164,34.34663],[-117.07198,34.34652],[-117.07242,34.34618],[-117.07278,34.34607],[-117.07295,34.34609],[-117.0732,34.34635],[-117.07341,34.34647],[-117.07357,34.34648],[-117.07372,34.34638],[-117.07392,34.34618],[-117.07399,34.34615],[-117.07418,34.34605],[-117.07457,34.34605],[-117.07481,34.34617],[-117.07487,34.34645],[-117.07498,34.34661],[-117.07518,34.34674],[-117.07538,34.34675],[-117.07577,34.3466],[-117.07593,34.34661],[-117.07636,34.34674],[-117.07695,34.34682],[-117.07731,34.34687],[-117.07759,34.34697],[-117.07772,34.34697],[-117.07799,34.34686],[-117.07827,34.34683],[-117.07849,34.34675],[-117.07853,34.34673],[-117.07877,34.3466],[-117.07908,34.34654],[-117.07964,34.34654],[-117.08008,34.34639],[-117.08036,34.34633],[-117.08086,34.34616],[-117.081,34.34606],[-117.08135,34.34587],[-117.08168,34.34578],[-117.08293,34.34576],[-117.08316,34.34578],[-117.08331,34.34587],[-117.08353,34.34614],[-117.08373,34.34631],[-117.08409,34.34654],[-117.08433,34.34665],[-117.08487,34.34677],[-117.0854,34.34711],[-117.08554,34.34727],[-117.08563,34.34749],[-117.0856,34.34775],[-117.08549,34.34804],[-117.0855,34.34815],[-117.08568,34.34822],[-117.08582,34.34819],[-117.08612,34.34797],[-117.08635,34.34785],[-117.08659,34.34784],[-117.08686,34.34794],[-117.08723,34.34805],[-117.08758,34.34807],[-117.08778,34.34813],[-117.08799,34.34831],[-117.08814,34.34839],[-117.08863,34.34848],[-117.08878,34.34855],[-117.08896,34.34865],[-117.08929,34.3487],[-117.08949,34.34872],[-117.08966,34.3488],[-117.08975,34.3489],[-117.08987,34.349],[-117.09036,34.34924],[-117.09041,34.34939],[-117.0905,34.34952],[-117.09078,34.34976],[-117.0909,34.34996],[-117.09109,34.35012],[-117.09123,34.35026],[-117.09145,34.35046],[-117.09152,34.35066],[-117.09165,34.35085],[-117.09182,34.35091],[-117.09241,34.35092],[-117.09266,34.35095],[-117.09277,34.35105],[-117.09301,34.3514],[-117.09323,34.35149],[-117.0938,34.35147],[-117.09406,34.35151],[-117.09432,34.35162],[-117.09458,34.35179],[-117.09489,34.35207],[-117.09488,34.35228],[-117.0949,34.35269],[-117.09502,34.35304],[-117.09509,34.35324],[-117.09515,34.35374],[-117.09524,34.35401],[-117.09543,34.35421],[-117.09563,34.35447],[-117.09604,34.35488],[-117.09606,34.35491],[-117.09617,34.35503],[-117.09627,34.35542],[-117.09639,34.356],[-117.09638,34.35615],[-117.09629,34.3564],[-117.09624,34.35655],[-117.09625,34.35681],[-117.09623,34.35698],[-117.09594,34.35742],[-117.09564,34.35786],[-117.09524,34.35843],[-117.09509,34.35859],[-117.09479,34.35879],[-117.09468,34.359],[-117.09467,34.35934],[-117.09463,34.35955],[-117.09467,34.35986],[-117.09468,34.35992],[-117.09458,34.3603],[-117.09449,34.36054],[-117.09436,34.36076],[-117.09411,34.36103],[-117.09386,34.36125],[-117.09381,34.36135],[-117.0938,34.36141],[-117.09384,34.36195],[-117.09378,34.36204],[-117.09365,34.36212],[-117.09344,34.36211],[-117.09318,34.36201],[-117.09293,34.36191],[-117.09282,34.36183],[-117.09275,34.36184],[-117.09273,34.36188],[-117.09274,34.36202],[-117.09278,34.36217],[-117.09288,34.36236],[-117.0929,34.36247],[-117.09304,34.36259],[-117.09313,34.36268],[-117.09316,34.36286],[-117.09316,34.36303],[-117.09305,34.36327],[-117.09292,34.36344],[-117.09287,34.36354],[-117.09289,34.36374],[-117.09286,34.36386],[-117.09274,34.36396],[-117.09266,34.36402],[-117.0926,34.36412],[-117.09263,34.36428],[-117.09269,34.3646],[-117.09272,34.36466],[-117.09283,34.3647],[-117.09295,34.36467],[-117.093,34.36459],[-117.09302,34.3644],[-117.0931,34.3643],[-117.09323,34.3643],[-117.09337,34.36436],[-117.09356,34.36439],[-117.09366,34.36435],[-117.0937,34.36424],[-117.09372,34.36409],[-117.09376,34.36402],[-117.09383,34.36398],[-117.09397,34.36401],[-117.09409,34.36412],[-117.09432,34.36423],[-117.09444,34.36428],[-117.0945,34.36434],[-117.09462,34.36446],[-117.0947,34.36458],[-117.09475,34.36474],[-117.09488,34.36491],[-117.09512,34.36524],[-117.09535,34.36557],[-117.09549,34.36574],[-117.09567,34.3659],[-117.09588,34.36603],[-117.09614,34.36615],[-117.09652,34.36645],[-117.09666,34.36651],[-117.09699,34.36657],[-117.09718,34.36665],[-117.09737,34.36674],[-117.09773,34.3667],[-117.09791,34.36664],[-117.09812,34.3666],[-117.09836,34.36651],[-117.09851,34.36639],[-117.09873,34.3661],[-117.09898,34.36575],[-117.09921,34.36561],[-117.09951,34.36542],[-117.09984,34.36526],[-117.10028,34.36512],[-117.10071,34.36494],[-117.10095,34.36489],[-117.10128,34.36487],[-117.10161,34.36482],[-117.10189,34.36468],[-117.10218,34.3646],[-117.10233,34.36457],[-117.10273,34.36458],[-117.10303,34.36455],[-117.10331,34.36451],[-117.10333,34.36451],[-117.10345,34.36451],[-117.10363,34.36452],[-117.10384,34.36454],[-117.10395,34.36455],[-117.10402,34.36457],[-117.10403,34.36457]]}},{"type":"Feature","properties":{"name":"Cactus Flat Road","road_class":"track","surface":"dirt","tracktype":"grade3","source":"Caltrans All Roads + OpenStreetMap explicit surface","source_detail":"osm way 7127405; Caltrans All Roads public-network geometry match","source_tile":"179/407","public_network_source":"Caltrans All Roads (ARNOLD/HPMS)","surface_source":"OpenStreetMap explicit surface tag","caltrans_match_coverage":1.0,"verified_length_m":1858},"geometry":{"type":"LineString","coordinates":[[-116.81829,34.32199],[-116.81789,34.32225],[-116.81724,34.32357],[-116.81707,34.32389],[-116.81641,34.32445],[-116.816,34.32455],[-116.81575,34.32466],[-116.81575,34.32488],[-116.81575,34.32503],[-116.81562,34.32519],[-116.81557,34.32535],[-116.81551,34.32537],[-116.81519,34.32544],[-116.81496,34.32555],[-116.81487,34.32558],[-116.81477,34.3256],[-116.81465,34.32563],[-116.81454,34.32563],[-116.81427,34.32565],[-116.81407,34.32583],[-116.81395,34.32612],[-116.81394,34.32615],[-116.81392,34.32618],[-116.81385,34.32623],[-116.81369,34.32628],[-116.81356,34.3264],[-116.81334,34.32643],[-116.81324,34.32647],[-116.81314,34.32652],[-116.81293,34.32658],[-116.81278,34.32667],[-116.81256,34.32677],[-116.81232,34.32696],[-116.8123,34.32697],[-116.81226,34.32704],[-116.8121,34.32708],[-116.81208,34.32723],[-116.8121,34.32735],[-116.81209,34.32742],[-116.81194,34.32747],[-116.81178,34.32752],[-116.81165,34.32766],[-116.81144,34.32768],[-116.81114,34.32774],[-116.81104,34.32778],[-116.81094,34.32784],[-116.81081,34.32799],[-116.81059,34.32801],[-116.81038,34.3281],[-116.81032,34.32815],[-116.81027,34.32828],[-116.81016,34.32839],[-116.81,34.32845],[-116.80983,34.32847],[-116.8097,34.32856],[-116.80956,34.3286],[-116.80941,34.32863],[-116.80926,34.32866],[-116.80899,34.32863],[-116.80884,34.32858],[-116.80872,34.32867],[-116.8086,34.3288],[-116.80845,34.32892],[-116.80837,34.32895],[-116.80832,34.32895],[-116.80829,34.32897],[-116.80827,34.32904],[-116.80825,34.32915],[-116.80814,34.32927],[-116.80807,34.32938],[-116.80771,34.32948],[-116.80745,34.32957],[-116.80724,34.32968],[-116.80712,34.32969],[-116.80688,34.32959],[-116.80664,34.32953],[-116.80646,34.32943],[-116.80636,34.32941],[-116.80625,34.32944],[-116.8062,34.32958],[-116.80622,34.3297],[-116.80632,34.32981],[-116.80644,34.32992],[-116.80648,34.33003],[-116.80653,34.33018],[-116.80653,34.33034],[-116.80653,34.33045],[-116.8065,34.33055],[-116.80648,34.3306],[-116.80647,34.33066],[-116.80647,34.33072],[-116.80643,34.33076],[-116.80629,34.33085],[-116.80615,34.33094],[-116.80598,34.33104],[-116.80594,34.33106],[-116.8059,34.33107],[-116.80581,34.33108],[-116.80563,34.33102],[-116.80548,34.33095],[-116.80534,34.33087],[-116.80516,34.33071]]}},{"type":"Feature","properties":{"name":"Burnt Flat Road","road_class":"track","surface":"dirt","tracktype":"grade3","source":"Caltrans All Roads + OpenStreetMap explicit surface","source_detail":"osm way 7132389; Caltrans All Roads public-network geometry match","source_tile":"179/408","public_network_source":"Caltrans All Roads (ARNOLD/HPMS)","surface_source":"OpenStreetMap explicit surface tag","caltrans_match_coverage":1.0,"verified_length_m":1361},"geometry":{"type":"LineString","coordinates":[[-116.84714,34.30499],[-116.84731,34.30512],[-116.84757,34.30528],[-116.84776,34.30537],[-116.84795,34.30567],[-116.84807,34.306],[-116.84828,34.30639],[-116.84853,34.30683],[-116.84877,34.30712],[-116.84903,34.30734],[-116.84915,34.30756],[-116.84923,34.30773],[-116.8493,34.30782],[-116.84957,34.30795],[-116.8498,34.30809],[-116.84994,34.30839],[-116.85001,34.30869],[-116.84994,34.30926],[-116.84996,34.30942],[-116.85003,34.30955],[-116.85034,34.30988],[-116.85077,34.31028],[-116.8509,34.31052],[-116.85094,34.31069],[-116.85093,34.31097],[-116.851,34.31126],[-116.85104,34.3114],[-116.8511,34.31155],[-116.85125,34.31168],[-116.85139,34.31209],[-116.8516,34.31237],[-116.85174,34.31258],[-116.85196,34.31294],[-116.85229,34.31322],[-116.85233,34.31336],[-116.85234,34.31374],[-116.85252,34.31399],[-116.8528,34.31453],[-116.85314,34.31502],[-116.85316,34.31511],[-116.85312,34.31519],[-116.85315,34.31533],[-116.85322,34.31567]]}},{"type":"Feature","properties":{"name":"Hepburn Mine Road 3n32","road_class":"track","surface":"dirt","tracktype":"grade3","source":"Caltrans All Roads + OpenStreetMap explicit surface","source_detail":"osm way 7146732; Caltrans All Roads public-network geometry match","source_tile":"179/408","public_network_source":"Caltrans All Roads (ARNOLD/HPMS)","surface_source":"OpenStreetMap explicit surface tag","caltrans_match_coverage":1.0,"verified_length_m":1926},"geometry":{"type":"LineString","coordinates":[[-116.87044,34.30161],[-116.87046,34.30186],[-116.87013,34.30272],[-116.86985,34.30369],[-116.86997,34.30389],[-116.87012,34.30413],[-116.87023,34.30448],[-116.87022,34.3051],[-116.87013,34.3055],[-116.86995,34.3057],[-116.86988,34.30578],[-116.86992,34.30588],[-116.87011,34.30602],[-116.87018,34.30613],[-116.87028,34.30626],[-116.87045,34.30681],[-116.87054,34.30697],[-116.87066,34.30711],[-116.87069,34.30714],[-116.8709,34.30749],[-116.87097,34.3076],[-116.87114,34.30774],[-116.8713,34.30795],[-116.87147,34.30842],[-116.87168,34.30865],[-116.87176,34.30874],[-116.87186,34.30891],[-116.87182,34.30914],[-116.87174,34.30931],[-116.87158,34.30959],[-116.87132,34.31016],[-116.87123,34.31049],[-116.87125,34.31069],[-116.87138,34.31081],[-116.87146,34.31089],[-116.87148,34.31102],[-116.87154,34.31116],[-116.8717,34.3113],[-116.87182,34.31151],[-116.87193,34.31158],[-116.87204,34.31175],[-116.87216,34.31196],[-116.8723,34.31219],[-116.87237,34.31231],[-116.87249,34.31249],[-116.87259,34.31255],[-116.87264,34.31291],[-116.87276,34.31324],[-116.87286,34.31342],[-116.87296,34.31356],[-116.87316,34.31375],[-116.87337,34.31389],[-116.87363,34.314],[-116.87369,34.3141],[-116.87377,34.31416],[-116.87391,34.3142],[-116.8741,34.31426],[-116.87415,34.31435],[-116.87412,34.31453],[-116.87411,34.31466],[-116.87414,34.31477],[-116.87415,34.31493],[-116.87406,34.31509],[-116.87392,34.3154],[-116.87385,34.31569],[-116.87391,34.31585],[-116.87391,34.31601],[-116.87381,34.31617],[-116.87377,34.31627],[-116.87384,34.3165],[-116.8739,34.31699],[-116.87398,34.31723]]}},{"type":"Feature","properties":{"name":"Holcomb Valley Road","road_class":"unclassified","surface":"compacted","tracktype":"grade2","source":"Caltrans All Roads + OpenStreetMap explicit surface","source_detail":"osm way 7208156; Caltrans All Roads public-network geometry match","source_tile":"179/407","public_network_source":"Caltrans All Roads (ARNOLD/HPMS)","surface_source":"OpenStreetMap explicit surface tag","caltrans_match_coverage":1.0,"verified_length_m":551},"geometry":{"type":"LineString","coordinates":[[-116.92735,34.30961],[-116.92765,34.30976],[-116.92794,34.30989],[-116.9287,34.31049],[-116.92923,34.31113],[-116.92954,34.31161],[-116.92959,34.31197],[-116.92968,34.31211],[-116.93019,34.31262],[-116.9304,34.31264],[-116.93063,34.3126],[-116.93091,34.3126],[-116.93121,34.31265],[-116.93139,34.31275]]}},{"type":"Feature","properties":{"name":"Holcomb Creek Road","road_class":"track","surface":"dirt","tracktype":"grade3","source":"Caltrans All Roads + OpenStreetMap explicit surface","source_detail":"osm way 7208182; Caltrans All Roads public-network geometry match","source_tile":"179/407","public_network_source":"Caltrans All Roads (ARNOLD/HPMS)","surface_source":"OpenStreetMap explicit surface tag","caltrans_match_coverage":1.0,"verified_length_m":1450},"geometry":{"type":"LineString","coordinates":[[-116.94555,34.30834],[-116.94556,34.30842],[-116.94555,34.30858],[-116.9455,34.30881],[-116.94549,34.30892],[-116.94556,34.30898],[-116.94568,34.30898],[-116.94578,34.30892],[-116.946,34.3088],[-116.94627,34.30869],[-116.94645,34.30865],[-116.94659,34.30872],[-116.9467,34.30881],[-116.94682,34.30888],[-116.94717,34.30899],[-116.94727,34.30907],[-116.94731,34.30917],[-116.94729,34.30933],[-116.94724,34.30949],[-116.94717,34.3097],[-116.94709,34.30997],[-116.94706,34.31015],[-116.94708,34.31031],[-116.94719,34.31037],[-116.94732,34.31038],[-116.94742,34.31031],[-116.94752,34.31026],[-116.94767,34.31023],[-116.94789,34.31019],[-116.94829,34.31018],[-116.94859,34.31023],[-116.94878,34.31028],[-116.94887,34.3104],[-116.94922,34.31062],[-116.94941,34.31075],[-116.94961,34.31083],[-116.94965,34.31091],[-116.94963,34.31102],[-116.94956,34.31117],[-116.94958,34.31125],[-116.94976,34.31136],[-116.94987,34.31138],[-116.94995,34.31136],[-116.95011,34.31139],[-116.95027,34.31147],[-116.95043,34.31152],[-116.95059,34.31151],[-116.95075,34.31141],[-116.95085,34.3114],[-116.95094,34.3114],[-116.95138,34.31159],[-116.95183,34.3117],[-116.95226,34.31177],[-116.95277,34.31175],[-116.95319,34.31171],[-116.95342,34.31174],[-116.95366,34.31183],[-116.954,34.31184],[-116.95432,34.31188],[-116.95445,34.31191],[-116.95455,34.31195],[-116.95469,34.3121],[-116.95481,34.31226],[-116.95493,34.31232],[-116.95506,34.3123],[-116.95514,34.31227],[-116.95527,34.31214],[-116.9554,34.31209],[-116.95557,34.3121],[-116.95578,34.3122],[-116.95587,34.31228],[-116.95596,34.31242],[-116.95603,34.31246],[-116.95613,34.31247],[-116.95623,34.31242],[-116.95628,34.31233],[-116.95635,34.3122],[-116.95645,34.31206],[-116.95651,34.31204],[-116.95658,34.31201]]}},{"type":"Feature","properties":{"name":"Wright Mine Road","road_class":"track","surface":"dirt","tracktype":"grade3","source":"Caltrans All Roads + OpenStreetMap explicit surface","source_detail":"osm way 7257755; Caltrans All Roads public-network geometry match","source_tile":"179/407","public_network_source":"Caltrans All Roads (ARNOLD/HPMS)","surface_source":"OpenStreetMap explicit surface tag","caltrans_match_coverage":1.0,"verified_length_m":2477},"geometry":{"type":"LineString","coordinates":[[-117.0095,34.32037],[-117.00955,34.32061],[-117.00967,34.3208],[-117.00989,34.32113],[-117.01,34.32146],[-117.01003,34.32154],[-117.01008,34.32191],[-117.0102,34.32229],[-117.0103,34.32265],[-117.01036,34.323],[-117.01035,34.3233],[-117.01026,34.32353],[-117.01005,34.32387],[-117.00931,34.3247],[-117.00874,34.32521],[-117.00826,34.32554],[-117.00779,34.3259],[-117.00756,34.32614],[-117.00744,34.32633],[-117.00722,34.32671],[-117.00708,34.32692],[-117.00693,34.32707],[-117.00657,34.32731],[-117.00652,34.32735],[-117.00624,34.32766],[-117.00614,34.3278],[-117.00616,34.32799],[-117.00615,34.32863],[-117.00614,34.32882],[-117.00611,34.32927],[-117.00605,34.32963],[-117.006,34.33013],[-117.00594,34.33039],[-117.00579,34.33081],[-117.00547,34.3314],[-117.00532,34.33175],[-117.00525,34.33204],[-117.00519,34.33235],[-117.00509,34.33272],[-117.00497,34.333],[-117.00482,34.33342],[-117.00477,34.33357],[-117.00473,34.33371],[-117.00465,34.3339],[-117.00449,34.3341],[-117.00438,34.33422],[-117.00419,34.33432],[-117.00392,34.3344],[-117.00352,34.33458],[-117.0031,34.33479],[-117.00288,34.3349],[-117.00272,34.33502],[-117.00262,34.33513],[-117.00241,34.33528],[-117.00213,34.3355],[-117.00187,34.33577],[-117.00178,34.33594],[-117.00169,34.33618],[-117.00162,34.3363],[-117.00143,34.33651],[-117.00135,34.33667],[-117.00128,34.33677],[-117.00127,34.33686],[-117.00126,34.337],[-117.00121,34.33718],[-117.00115,34.33735],[-117.00107,34.3375],[-117.00088,34.33775],[-117.00076,34.33809],[-117.00062,34.33824],[-117.00048,34.33838],[-117.00034,34.33848],[-117.00019,34.33864],[-117.00001,34.33876],[-116.99982,34.33888],[-116.99977,34.33895],[-116.99976,34.33902],[-116.99977,34.33911],[-116.99981,34.33936],[-116.99983,34.33943],[-116.9998,34.33948]]}},{"type":"Feature","properties":{"name":"Holcomb Valley Road","road_class":"track","surface":"dirt","tracktype":"grade3","source":"Caltrans All Roads + OpenStreetMap explicit surface","source_detail":"osm way 7258531; Caltrans All Roads public-network geometry match","source_tile":"179/407","public_network_source":"Caltrans All Roads (ARNOLD/HPMS)","surface_source":"OpenStreetMap explicit surface tag","caltrans_match_coverage":1.0,"verified_length_m":5560},"geometry":{"type":"LineString","coordinates":[[-117.01029,34.31984],[-117.01,34.31998],[-117.00966,34.32025],[-117.0095,34.32037],[-117.00895,34.32083],[-117.00832,34.32128],[-117.00801,34.32142],[-117.00663,34.32222],[-117.00621,34.32256],[-117.006,34.32274],[-117.00571,34.32282],[-117.00529,34.32298],[-117.00514,34.32302],[-117.00493,34.32307],[-117.00437,34.32313],[-117.00396,34.32312],[-117.0036,34.32303],[-117.0032,34.3228],[-117.00238,34.32268],[-117.0021,34.32268],[-117.00196,34.32274],[-117.00124,34.3231],[-117.00085,34.3233],[-116.99987,34.32373],[-116.99959,34.32394],[-116.99916,34.32416],[-116.99846,34.32461],[-116.99803,34.32473],[-116.99776,34.32475],[-116.99749,34.32475],[-116.99677,34.32467],[-116.99604,34.32439],[-116.99511,34.32411],[-116.99445,34.32404],[-116.9941,34.32392],[-116.99357,34.32361],[-116.99305,34.32344],[-116.99232,34.32307],[-116.99199,34.32286],[-116.9916,34.32268],[-116.9912,34.3224],[-116.99044,34.32202],[-116.99014,34.32196],[-116.9899,34.322],[-116.98931,34.32205],[-116.98895,34.32202],[-116.98883,34.322],[-116.98873,34.32207],[-116.98861,34.3223],[-116.98859,34.32259],[-116.98861,34.32287],[-116.98837,34.3233],[-116.98787,34.32369],[-116.98738,34.32392],[-116.98714,34.32398],[-116.98699,34.3241],[-116.98668,34.32415],[-116.98632,34.3241],[-116.98582,34.32395],[-116.98531,34.32372],[-116.98497,34.32348],[-116.9841,34.32339],[-116.98383,34.32321],[-116.98316,34.32297],[-116.98281,34.32289],[-116.98258,34.32286],[-116.98248,34.32293],[-116.98244,34.3231],[-116.98253,34.3233],[-116.98284,34.32371],[-116.983,34.32409],[-116.98308,34.32434],[-116.98309,34.32452],[-116.98299,34.32455],[-116.98278,34.32449],[-116.9826,34.32448],[-116.98248,34.32453],[-116.98229,34.32461],[-116.98196,34.32447],[-116.98167,34.32436],[-116.98142,34.3243],[-116.98101,34.32424],[-116.98076,34.32418],[-116.98029,34.32395],[-116.98012,34.32394],[-116.98001,34.32402],[-116.97938,34.32454],[-116.9791,34.32486],[-116.9786,34.32528],[-116.97829,34.32553],[-116.97801,34.32568],[-116.9775,34.32597],[-116.97702,34.32623],[-116.97613,34.32636],[-116.97548,34.32652],[-116.97468,34.32681],[-116.97417,34.32683],[-116.9737,34.32678],[-116.97333,34.32658],[-116.97317,34.32651],[-116.97289,34.3265],[-116.97229,34.3264],[-116.97204,34.32639],[-116.97177,34.3265],[-116.97125,34.3269],[-116.97116,34.32704],[-116.971,34.32708],[-116.97035,34.32691],[-116.96974,34.3269],[-116.9693,34.32711],[-116.96921,34.32711],[-116.96912,34.32711],[-116.96898,34.32705],[-116.96893,34.32696],[-116.96887,34.32673],[-116.96882,34.32667],[-116.96875,34.32661],[-116.96827,34.32638],[-116.96789,34.32619],[-116.96771,34.32611],[-116.9675,34.3261],[-116.96708,34.32616],[-116.96674,34.32634],[-116.96644,34.32646],[-116.96499,34.32661],[-116.96432,34.32685],[-116.96375,34.32695],[-116.96347,34.327],[-116.96279,34.32716],[-116.96198,34.32713],[-116.96149,34.32705],[-116.96133,34.32708],[-116.96093,34.3275],[-116.96059,34.32778]]}},{"type":"Feature","properties":{"name":"Furnace Road","road_class":"track","surface":"dirt","tracktype":"grade3","source":"Caltrans All Roads + OpenStreetMap explicit surface","source_detail":"osm way 7258994; Caltrans All Roads public-network geometry match","source_tile":"179/407","public_network_source":"Caltrans All Roads (ARNOLD/HPMS)","surface_source":"OpenStreetMap explicit surface tag","caltrans_match_coverage":1.0,"verified_length_m":775},"geometry":{"type":"LineString","coordinates":[[-116.93165,34.31365],[-116.93153,34.31388],[-116.93149,34.31412],[-116.93157,34.31444],[-116.93158,34.31461],[-116.93167,34.31483],[-116.93167,34.31516],[-116.93174,34.31561],[-116.93174,34.31582],[-116.93165,34.31606],[-116.93159,34.31661],[-116.93133,34.31729],[-116.93132,34.31741],[-116.93144,34.31754],[-116.93173,34.31769],[-116.93186,34.31782],[-116.93202,34.31827],[-116.93205,34.31853],[-116.93217,34.3188],[-116.93215,34.31939],[-116.93205,34.31969],[-116.93204,34.31977],[-116.93207,34.31986],[-116.93215,34.32004],[-116.93218,34.32029]]}},{"type":"Feature","properties":{"name":"Holcomb Valley Road","road_class":"track","surface":"dirt","tracktype":"grade3","source":"Caltrans All Roads + OpenStreetMap explicit surface","source_detail":"osm way 7266751; Caltrans All Roads public-network geometry match","source_tile":"179/408","public_network_source":"Caltrans All Roads (ARNOLD/HPMS)","surface_source":"OpenStreetMap explicit surface tag","caltrans_match_coverage":1.0,"verified_length_m":2098},"geometry":{"type":"LineString","coordinates":[[-117.02229,34.30564],[-117.0224,34.30587],[-117.02241,34.3059],[-117.02243,34.30596],[-117.02243,34.306],[-117.0224,34.30607],[-117.02239,34.30626],[-117.02248,34.30648],[-117.0225,34.30657],[-117.02253,34.30668],[-117.02253,34.30685],[-117.02246,34.30715],[-117.02228,34.30738],[-117.0222,34.30743],[-117.02201,34.30754],[-117.02185,34.30764],[-117.02163,34.30775],[-117.02135,34.3078],[-117.02108,34.30789],[-117.02072,34.30814],[-117.02039,34.3083],[-117.02021,34.30855],[-117.02026,34.30946],[-117.02022,34.30963],[-117.02002,34.31003],[-117.01988,34.31016],[-117.0197,34.31022],[-117.01948,34.31017],[-117.01919,34.31001],[-117.01902,34.31002],[-117.01882,34.31016],[-117.01831,34.31062],[-117.01789,34.31099],[-117.01746,34.31124],[-117.0164,34.31197],[-117.01602,34.31236],[-117.01582,34.31267],[-117.0154,34.31328],[-117.01518,34.31364],[-117.01497,34.31399],[-117.01478,34.31414],[-117.01433,34.3143],[-117.01388,34.31453],[-117.01354,34.31497],[-117.01341,34.31523],[-117.01334,34.31555],[-117.01319,34.31601],[-117.01286,34.31643],[-117.01227,34.31774],[-117.01205,34.31812],[-117.01178,34.3184],[-117.01146,34.31877],[-117.01053,34.31965],[-117.01029,34.31984]]}},{"type":"Feature","properties":{"name":"Coxey Truck Trail","road_class":"track","surface":"dirt","tracktype":"grade3","source":"Caltrans All Roads + OpenStreetMap explicit surface","source_detail":"osm way 7271778; Caltrans All Roads public-network geometry match","source_tile":"179/407","public_network_source":"Caltrans All Roads (ARNOLD/HPMS)","surface_source":"OpenStreetMap explicit surface tag","caltrans_match_coverage":1.0,"verified_length_m":7612},"geometry":{"type":"LineString","coordinates":[[-117.01029,34.31984],[-117.01042,34.31994],[-117.01049,34.32],[-117.01073,34.32017],[-117.01109,34.32035],[-117.01138,34.32046],[-117.01164,34.3206],[-117.0119,34.32073],[-117.012,34.32076],[-117.01221,34.32081],[-117.01235,34.32086],[-117.01276,34.32094],[-117.01317,34.32099],[-117.01366,34.32105],[-117.01413,34.32098],[-117.01441,34.32098],[-117.0147,34.32105],[-117.0148,34.32115],[-117.01499,34.32137],[-117.01511,34.32144],[-117.01529,34.32148],[-117.01553,34.32145],[-117.01575,34.32149],[-117.01616,34.32169],[-117.01635,34.32178],[-117.0166,34.32187],[-117.01682,34.32183],[-117.01707,34.32165],[-117.01735,34.32155],[-117.01759,34.32142],[-117.01779,34.32123],[-117.01794,34.32102],[-117.01845,34.32053],[-117.01851,34.32039],[-117.01848,34.31992],[-117.01856,34.31975],[-117.0188,34.31953],[-117.01942,34.3191],[-117.01968,34.3188],[-117.02019,34.31832],[-117.02067,34.31799],[-117.02114,34.31778],[-117.02159,34.31759],[-117.0218,34.31758],[-117.02236,34.31782],[-117.02295,34.3179],[-117.02349,34.31802],[-117.02434,34.31839],[-117.02461,34.31849],[-117.02485,34.3185],[-117.02572,34.31827],[-117.02646,34.31816],[-117.02667,34.31815],[-117.02691,34.31818],[-117.02734,34.31829],[-117.02793,34.31838],[-117.02853,34.31836],[-117.02876,34.31834],[-117.02897,34.31828],[-117.02938,34.31816],[-117.0299,34.31807],[-117.03015,34.31807],[-117.03037,34.31813],[-117.03057,34.31819],[-117.03073,34.31823],[-117.03101,34.3182],[-117.03113,34.31817],[-117.03125,34.31812],[-117.03133,34.318],[-117.03147,34.31786],[-117.0317,34.31778],[-117.03193,34.31777],[-117.03265,34.31775],[-117.03293,34.31762],[-117.03323,34.31737],[-117.03354,34.31697],[-117.03366,34.31688],[-117.03395,34.31682],[-117.03436,34.31661],[-117.03466,34.3164],[-117.03504,34.31624],[-117.0353,34.31605],[-117.03598,34.31577],[-117.03632,34.31571],[-117.03661,34.31573],[-117.0369,34.31576],[-117.03718,34.31591],[-117.03734,34.31596],[-117.03744,34.31595],[-117.03758,34.31581],[-117.03799,34.31557],[-117.03833,34.31551],[-117.03882,34.31555],[-117.0392,34.31562],[-117.03947,34.31574],[-117.03978,34.31604],[-117.03998,34.31617],[-117.04024,34.31619],[-117.04051,34.31615],[-117.04083,34.31595],[-117.04118,34.31584],[-117.04158,34.31578],[-117.04286,34.31545],[-117.04393,34.31523],[-117.04472,34.31512],[-117.04586,34.31517],[-117.0463,34.31522],[-117.04684,34.31543],[-117.04729,34.31569],[-117.04747,34.31576],[-117.04818,34.31587],[-117.04863,34.31597],[-117.0488,34.31607],[-117.04888,34.31624],[-117.0489,34.31657],[-117.04895,34.3168],[-117.04923,34.31699],[-117.04956,34.31703],[-117.05022,34.31693],[-117.05041,34.31692],[-117.05053,34.31696],[-117.05074,34.31728],[-117.05099,34.31748],[-117.05182,34.31765],[-117.05209,34.31771],[-117.05227,34.31772],[-117.05242,34.31766],[-117.0526,34.31738],[-117.05278,34.31723],[-117.05307,34.31708],[-117.05325,34.31703],[-117.05349,34.31702],[-117.05425,34.31703],[-117.05443,34.31709],[-117.05455,34.31722],[-117.05458,34.31738],[-117.05455,34.3176],[-117.05447,34.31774],[-117.05426,34.31807],[-117.0542,34.31824],[-117.05424,34.31851],[-117.05422,34.31866],[-117.05407,34.31912],[-117.05384,34.31956],[-117.05377,34.31983],[-117.0539,34.32038],[-117.05395,34.3206],[-117.0542,34.32118],[-117.05448,34.32142],[-117.05485,34.32161],[-117.05536,34.32185],[-117.05612,34.32217],[-117.05639,34.32236],[-117.05654,34.32274],[-117.0567,34.32298],[-117.05693,34.32314],[-117.05781,34.3236],[-117.05806,34.32358],[-117.05844,34.32378],[-117.05871,34.3241],[-117.05887,34.32448],[-117.05916,34.32486],[-117.05918,34.32505],[-117.05937,34.32543],[-117.05939,34.32572],[-117.05948,34.32585],[-117.05952,34.32623],[-117.05962,34.32661],[-117.05959,34.32677],[-117.05938,34.3272],[-117.05937,34.32737],[-117.05953,34.32772],[-117.05968,34.32787],[-117.05991,34.32799],[-117.05999,34.32816],[-117.06015,34.32826],[-117.06043,34.32832],[-117.06073,34.32848],[-117.06083,34.3286],[-117.061,34.32908],[-117.06122,34.32932],[-117.06132,34.32953],[-117.06139,34.32977],[-117.06129,34.33023],[-117.06131,34.33048],[-117.06137,34.33067],[-117.0619,34.33128],[-117.06239,34.33151],[-117.06277,34.33153],[-117.06291,34.33158],[-117.06313,34.33181],[-117.06352,34.33185],[-117.06381,34.3319],[-117.0641,34.33208],[-117.06433,34.33213],[-117.06464,34.33208],[-117.06503,34.33194],[-117.06543,34.33185],[-117.06606,34.33175],[-117.06641,34.33174],[-117.06664,34.33185],[-117.06683,34.33203],[-117.06703,34.33234],[-117.06725,34.33291],[-117.0673,34.33314],[-117.06724,34.33378],[-117.06723,34.33415],[-117.06727,34.33427],[-117.06746,34.3344],[-117.06755,34.33441],[-117.06764,34.33441],[-117.06803,34.33434],[-117.06837,34.33427],[-117.06856,34.33431],[-117.06907,34.33472]]}},{"type":"Feature","properties":{"name":"Hitchcock Road","road_class":"track","surface":"dirt","tracktype":"grade3","source":"Caltrans All Roads + OpenStreetMap explicit surface","source_detail":"osm way 7339519; Caltrans All Roads public-network geometry match","source_tile":"179/407","public_network_source":"Caltrans All Roads (ARNOLD/HPMS)","surface_source":"OpenStreetMap explicit surface tag","caltrans_match_coverage":1.0,"verified_length_m":690},"geometry":{"type":"LineString","coordinates":[[-116.95658,34.31201],[-116.95653,34.31212],[-116.95647,34.31233],[-116.95641,34.31254],[-116.95628,34.31275],[-116.9562,34.31303],[-116.95612,34.31313],[-116.95598,34.31324],[-116.95581,34.31355],[-116.9558,34.31364],[-116.9559,34.31384],[-116.95592,34.31396],[-116.95584,34.3141],[-116.95566,34.31425],[-116.95544,34.31452],[-116.9552,34.31472],[-116.95506,34.31491],[-116.95499,34.315],[-116.95477,34.31515],[-116.95456,34.31535],[-116.95453,34.31543],[-116.95457,34.31566],[-116.95476,34.31618],[-116.95489,34.31641],[-116.95495,34.3166],[-116.95497,34.31682],[-116.95502,34.317],[-116.95502,34.31718],[-116.95484,34.31757]]}},{"type":"Feature","properties":{"name":"John Bull Trail","road_class":"track","surface":"ground","tracktype":"grade3","source":"Caltrans All Roads + OpenStreetMap explicit surface","source_detail":"osm way 7359337; Caltrans All Roads public-network geometry match","source_tile":"179/407","public_network_source":"Caltrans All Roads (ARNOLD/HPMS)","surface_source":"OpenStreetMap explicit surface tag","caltrans_match_coverage":1.0,"verified_length_m":1226},"geometry":{"type":"LineString","coordinates":[[-116.90483,34.31846],[-116.90495,34.3186],[-116.90499,34.31911],[-116.90514,34.31935],[-116.90523,34.31959],[-116.90518,34.31974],[-116.90534,34.31994],[-116.90568,34.32017],[-116.90597,34.32023],[-116.90627,34.32052],[-116.90651,34.32115],[-116.90661,34.3218],[-116.90669,34.32193],[-116.90667,34.3221],[-116.90659,34.32235],[-116.90671,34.32275],[-116.90688,34.32311],[-116.90702,34.32336],[-116.90703,34.32365],[-116.9067,34.32391],[-116.90638,34.32457],[-116.90626,34.32558],[-116.90602,34.32582],[-116.90568,34.3262],[-116.90517,34.32646],[-116.90499,34.3267],[-116.90476,34.32687],[-116.9034,34.32754]]}},{"type":"Feature","properties":{"name":"Coxey Truck Trail","road_class":"track","surface":"dirt","tracktype":"grade3","source":"Caltrans All Roads + OpenStreetMap explicit surface","source_detail":"osm way 7380588; Caltrans All Roads public-network geometry match","source_tile":"179/407","public_network_source":"Caltrans All Roads (ARNOLD/HPMS)","surface_source":"OpenStreetMap explicit surface tag","caltrans_match_coverage":1.0,"verified_length_m":1338},"geometry":{"type":"LineString","coordinates":[[-117.00124,34.31086],[-117.00159,34.31095],[-117.00225,34.31126],[-117.00256,34.3115],[-117.00285,34.31183],[-117.00383,34.31314],[-117.00428,34.31368],[-117.00475,34.31504],[-117.00493,34.31538],[-117.00516,34.31571],[-117.00546,34.31612],[-117.00568,34.31631],[-117.00663,34.31683],[-117.00718,34.31706],[-117.0075,34.31723],[-117.00762,34.31732],[-117.00786,34.31763],[-117.00816,34.31797],[-117.00852,34.31843],[-117.00866,34.31861],[-117.0091,34.31895],[-117.00971,34.31943],[-117.01029,34.31984]]}},{"type":"Feature","properties":{"name":"Bessemer Mine Road","road_class":"track","surface":"dirt","source":"Caltrans All Roads + OpenStreetMap explicit surface","source_detail":"osm way 7396687; Caltrans All Roads public-network geometry match","source_tile":"179/407","public_network_source":"Caltrans All Roads (ARNOLD/HPMS)","surface_source":"OpenStreetMap explicit surface tag","caltrans_match_coverage":1.0,"verified_length_m":4543},"geometry":{"type":"LineString","coordinates":[[-116.74952,34.37762],[-116.74918,34.37819],[-116.74881,34.37888],[-116.74831,34.37971],[-116.74812,34.38007],[-116.74801,34.38035],[-116.74729,34.38222],[-116.74636,34.385],[-116.74609,34.38571],[-116.74586,34.38651],[-116.74563,34.38747],[-116.74541,34.38853],[-116.74478,34.39043],[-116.74429,34.39208],[-116.74324,34.39425],[-116.7418,34.39661],[-116.74103,34.39774],[-116.74023,34.39901],[-116.73882,34.40132],[-116.73786,34.40314],[-116.73561,34.40744],[-116.73489,34.40912],[-116.73473,34.4099],[-116.73441,34.41165],[-116.73392,34.41337],[-116.73342,34.41535],[-116.73335,34.41609],[-116.73335,34.41618]]}},{"type":"Feature","properties":{"name":"East End Road","road_class":"unclassified","surface":"unpaved","source":"Caltrans All Roads + OpenStreetMap explicit surface","source_detail":"osm way 7413035; Caltrans All Roads public-network geometry match","source_tile":"179/407","public_network_source":"Caltrans All Roads (ARNOLD/HPMS)","surface_source":"OpenStreetMap explicit surface tag","caltrans_match_coverage":1.0,"verified_length_m":5539},"geometry":{"type":"LineString","coordinates":[[-116.7627,34.44286],[-116.76655,34.44284],[-116.76666,34.44285],[-116.77089,34.4429],[-116.77521,34.44293],[-116.78022,34.44297],[-116.78184,34.44296],[-116.78828,34.44301],[-116.78839,34.44301],[-116.79205,34.44306],[-116.79717,34.44308],[-116.79866,34.44309],[-116.80183,34.44311],[-116.80581,34.44315],[-116.80911,34.44317],[-116.81031,34.44317],[-116.81093,34.44317],[-116.81143,34.44318],[-116.81466,34.4432],[-116.81627,34.44322],[-116.81729,34.44323],[-116.81748,34.44323],[-116.81842,34.44324],[-116.81859,34.44324],[-116.81906,34.44325],[-116.82037,34.44326],[-116.82069,34.44327],[-116.82208,34.44328],[-116.82303,34.44326]]}},{"type":"Feature","properties":{"name":"White Mountain Road","road_class":"track","surface":"dirt","tracktype":"grade3","source":"Caltrans All Roads + OpenStreetMap explicit surface","source_detail":"osm way 7428555; Caltrans All Roads public-network geometry match","source_tile":"179/407","public_network_source":"Caltrans All Roads (ARNOLD/HPMS)","surface_source":"OpenStreetMap explicit surface tag","caltrans_match_coverage":1.0,"verified_length_m":1039},"geometry":{"type":"LineString","coordinates":[[-117.05741,34.36006],[-117.05717,34.36016],[-117.05681,34.36015],[-117.05643,34.36021],[-117.05605,34.36015],[-117.05573,34.36021],[-117.0554,34.36018],[-117.05488,34.36023],[-117.05468,34.36021],[-117.05432,34.36015],[-117.05422,34.36015],[-117.05362,34.36045],[-117.05316,34.36083],[-117.05299,34.36094],[-117.05267,34.36108],[-117.05253,34.36113],[-117.05237,34.36123],[-117.0522,34.36131],[-117.05176,34.36146],[-117.05158,34.36149],[-117.05145,34.36154],[-117.05133,34.36161],[-117.05119,34.36163],[-117.05094,34.36166],[-117.05082,34.36169],[-117.05073,34.36173],[-117.05031,34.36203],[-117.04998,34.36209],[-117.04948,34.36206],[-117.04933,34.36205],[-117.04921,34.36209],[-117.0491,34.36216],[-117.04901,34.36227],[-117.04888,34.36235],[-117.04818,34.36257],[-117.04768,34.36269],[-117.04755,34.36269],[-117.04733,34.36263],[-117.04718,34.36261],[-117.04709,34.36259]]}},{"type":"Feature","properties":{"name":"North Peak Road","road_class":"track","surface":"dirt","tracktype":"grade3","source":"Caltrans All Roads + OpenStreetMap explicit surface","source_detail":"osm way 7428569; Caltrans All Roads public-network geometry match","source_tile":"179/407","public_network_source":"Caltrans All Roads (ARNOLD/HPMS)","surface_source":"OpenStreetMap explicit surface tag","caltrans_match_coverage":1.0,"verified_length_m":973},"geometry":{"type":"LineString","coordinates":[[-117.0384,34.36628],[-117.03831,34.36631],[-117.03822,34.36646],[-117.0382,34.36661],[-117.03822,34.36671],[-117.0382,34.36677],[-117.0381,34.36678],[-117.038,34.3667],[-117.03789,34.36665],[-117.0376,34.36658],[-117.03737,34.36637],[-117.03726,34.36633],[-117.03715,34.36631],[-117.03705,34.36625],[-117.03693,34.36614],[-117.03643,34.36602],[-117.03611,34.36591],[-117.03578,34.36576],[-117.03569,34.36575],[-117.03567,34.36583],[-117.03574,34.36595],[-117.03578,34.36613],[-117.03592,34.36638],[-117.03607,34.36654],[-117.03615,34.36668],[-117.03623,34.36693],[-117.03622,34.36704],[-117.03616,34.36712],[-117.03607,34.36715],[-117.036,34.36714],[-117.03576,34.36693],[-117.03545,34.36673],[-117.03496,34.36658],[-117.03479,34.36659],[-117.03465,34.36665],[-117.0345,34.36682],[-117.0342,34.36691],[-117.03413,34.36699],[-117.03406,34.36714],[-117.03389,34.36738],[-117.03382,34.36754],[-117.03375,34.36756],[-117.0337,34.36753],[-117.03371,34.36732],[-117.03373,34.36723],[-117.0337,34.36713],[-117.0336,34.36698],[-117.03349,34.36687],[-117.03339,34.36683],[-117.03309,34.36688],[-117.03297,34.36688],[-117.03282,34.36681],[-117.03278,34.36681],[-117.03276,34.36685],[-117.03279,34.36689],[-117.03287,34.36695],[-117.03296,34.36696]]}},{"type":"Feature","properties":{"name":"Harvey Mine Road","road_class":"track","surface":"dirt","tracktype":"grade3","source":"Caltrans All Roads + OpenStreetMap explicit surface","source_detail":"osm way 7434686; Caltrans All Roads public-network geometry match","source_tile":"179/407","public_network_source":"Caltrans All Roads (ARNOLD/HPMS)","surface_source":"OpenStreetMap explicit surface tag","caltrans_match_coverage":1.0,"verified_length_m":1303},"geometry":{"type":"LineString","coordinates":[[-116.89862,34.30905],[-116.8987,34.30906],[-116.89881,34.30914],[-116.89903,34.30937],[-116.89951,34.30979],[-116.89972,34.31022],[-116.89973,34.31033],[-116.89969,34.31047],[-116.89969,34.31049],[-116.89969,34.31059],[-116.89984,34.31082],[-116.90006,34.3109],[-116.9002,34.31099],[-116.90035,34.31114],[-116.90035,34.31121],[-116.90031,34.31136],[-116.90031,34.31151],[-116.90036,34.3116],[-116.90044,34.31165],[-116.90057,34.31169],[-116.90072,34.31181],[-116.90085,34.31186],[-116.90092,34.31193],[-116.90097,34.31212],[-116.90097,34.3123],[-116.90101,34.31244],[-116.90114,34.31254],[-116.90121,34.31264],[-116.9013,34.31273],[-116.90152,34.3129],[-116.90162,34.313],[-116.90162,34.31306],[-116.90157,34.31324],[-116.90157,34.31336],[-116.90163,34.31351],[-116.90163,34.31359],[-116.90156,34.31376],[-116.90159,34.31393],[-116.90167,34.31405],[-116.90187,34.31421],[-116.90187,34.3143],[-116.90178,34.31454],[-116.90178,34.31471],[-116.90183,34.31482],[-116.90197,34.31495],[-116.90203,34.3151],[-116.90203,34.3156],[-116.90205,34.31583],[-116.90229,34.31606],[-116.90252,34.31635],[-116.9026,34.31656],[-116.90268,34.31665],[-116.9028,34.31681],[-116.90295,34.31707],[-116.9031,34.31738],[-116.90325,34.31757],[-116.90343,34.31771],[-116.90375,34.31778],[-116.90389,34.31787],[-116.90402,34.31798],[-116.90418,34.31808],[-116.90432,34.31824],[-116.90445,34.31846],[-116.90458,34.31848],[-116.90483,34.31846]]}},{"type":"Feature","properties":{"name":"Allen Way","road_class":"track","surface":"unpaved","source":"Caltrans All Roads + OpenStreetMap explicit surface","source_detail":"osm way 7459750; Caltrans All Roads public-network geometry match","source_tile":"179/407","public_network_source":"Caltrans All Roads (ARNOLD/HPMS)","surface_source":"OpenStreetMap explicit surface tag","caltrans_match_coverage":1.0,"verified_length_m":680},"geometry":{"type":"LineString","coordinates":[[-116.94152,34.43692],[-116.94149,34.44029],[-116.9415,34.44307]]}},{"type":"Feature","properties":{"name":"Grapevine Canyon Road","road_class":"track","surface":"dirt","tracktype":"grade3","source":"Caltrans All Roads + OpenStreetMap explicit surface","source_detail":"osm way 7465468; Caltrans All Roads public-network geometry match","source_tile":"179/407","public_network_source":"Caltrans All Roads (ARNOLD/HPMS)","surface_source":"OpenStreetMap explicit surface tag","caltrans_match_coverage":1.0,"verified_length_m":3005},"geometry":{"type":"LineString","coordinates":[[-117.06413,34.34321],[-117.06395,34.34325],[-117.06376,34.34333],[-117.06357,34.34346],[-117.06343,34.34372],[-117.06288,34.34411],[-117.06268,34.34431],[-117.06256,34.34459],[-117.06252,34.34482],[-117.06253,34.34508],[-117.06267,34.34552],[-117.06268,34.3457],[-117.06225,34.34663],[-117.0619,34.34703],[-117.0616,34.34743],[-117.06132,34.3478],[-117.06106,34.34802],[-117.06092,34.34824],[-117.06061,34.34844],[-117.06017,34.34864],[-117.05993,34.3488],[-117.0598,34.34897],[-117.05974,34.34924],[-117.0598,34.35003],[-117.05984,34.35056],[-117.05983,34.35073],[-117.05965,34.35094],[-117.05931,34.35113],[-117.05906,34.35126],[-117.05895,34.3514],[-117.05885,34.35158],[-117.0588,34.35181],[-117.05876,34.352],[-117.05863,34.35218],[-117.05837,34.35238],[-117.05827,34.35248],[-117.05806,34.35293],[-117.05787,34.35314],[-117.0577,34.35347],[-117.05752,34.35366],[-117.05743,34.3539],[-117.05735,34.35432],[-117.05728,34.35444],[-117.05723,34.35464],[-117.05721,34.35506],[-117.05715,34.35573],[-117.05713,34.35613],[-117.05708,34.35634],[-117.05694,34.35673],[-117.0569,34.35701],[-117.05691,34.35778],[-117.05685,34.35807],[-117.05689,34.35845],[-117.05702,34.35907],[-117.05713,34.35945],[-117.05727,34.35969],[-117.05741,34.36006],[-117.05752,34.3603],[-117.05756,34.36049],[-117.05778,34.36091],[-117.05791,34.36117],[-117.05799,34.36146],[-117.05808,34.36163],[-117.05829,34.36188],[-117.05839,34.36212],[-117.05835,34.36232],[-117.0584,34.36248],[-117.05868,34.36286],[-117.05895,34.36317],[-117.05918,34.36343],[-117.05923,34.36362],[-117.05918,34.36388],[-117.05922,34.36408],[-117.05924,34.36436],[-117.05932,34.36462],[-117.05935,34.36468],[-117.05943,34.36482],[-117.05945,34.36503],[-117.05954,34.36516],[-117.05977,34.36539],[-117.06007,34.3659],[-117.06011,34.36617],[-117.06007,34.36663],[-117.0601,34.36689],[-117.06024,34.36709],[-117.0603,34.36746]]}},{"type":"Feature","properties":{"name":"Smarts Ranch Road","road_class":"track","surface":"compacted","tracktype":"grade4","source":"Caltrans All Roads + OpenStreetMap explicit surface","source_detail":"osm way 7472476; Caltrans All Roads public-network geometry match","source_tile":"179/407","public_network_source":"Caltrans All Roads (ARNOLD/HPMS)","surface_source":"OpenStreetMap explicit surface tag","caltrans_match_coverage":1.0,"verified_length_m":743},"geometry":{"type":"LineString","coordinates":[[-116.80481,34.31018],[-116.80511,34.31061],[-116.80537,34.31088],[-116.80552,34.31116],[-116.8057,34.31128],[-116.80587,34.31142],[-116.80613,34.31165],[-116.80666,34.31216],[-116.80671,34.3122],[-116.80681,34.31226],[-116.80698,34.31235],[-116.80733,34.31253],[-116.80764,34.3128],[-116.80815,34.31319],[-116.80843,34.31339],[-116.80861,34.31351],[-116.8092,34.31388],[-116.80956,34.31426],[-116.80978,34.31447],[-116.81021,34.31477],[-116.81044,34.31489]]}},{"type":"Feature","properties":{"name":"Carnelian Road","road_class":"track","surface":"dirt","tracktype":"grade2","source":"Caltrans All Roads + OpenStreetMap explicit surface","source_detail":"osm way 283874046; Caltrans All Roads public-network geometry match","source_tile":"179/407","public_network_source":"Caltrans All Roads (ARNOLD/HPMS)","surface_source":"OpenStreetMap explicit surface tag","caltrans_match_coverage":0.944,"verified_length_m":1039},"geometry":{"type":"LineString","coordinates":[[-116.96347,34.40376],[-116.9637,34.40378],[-116.9646,34.40377],[-116.96477,34.40378],[-116.96501,34.40375],[-116.96515,34.40374],[-116.96525,34.40376],[-116.96535,34.40382],[-116.96547,34.40384],[-116.96564,34.4038],[-116.96567,34.4038],[-116.96573,34.40379],[-116.96595,34.40379],[-116.96602,34.4038],[-116.96615,34.40381],[-116.9663,34.40382],[-116.96661,34.40379],[-116.96674,34.40378],[-116.96682,34.40378],[-116.96698,34.40377],[-116.96737,34.40379],[-116.96771,34.40375],[-116.96789,34.40375],[-116.96803,34.40377],[-116.96813,34.4038],[-116.96827,34.40387],[-116.96831,34.40387],[-116.9684,34.40387],[-116.96875,34.40385],[-116.96879,34.40385],[-116.96901,34.40383],[-116.96913,34.40383],[-116.96919,34.40383],[-116.96932,34.40386],[-116.9694,34.40392],[-116.96949,34.40402],[-116.96955,34.40422],[-116.96962,34.40433],[-116.96969,34.40439],[-116.96982,34.40443],[-116.96997,34.40446],[-116.97003,34.40449],[-116.97009,34.40449],[-116.97017,34.4045],[-116.97023,34.40451],[-116.97031,34.40454],[-116.97039,34.40456],[-116.97142,34.40483],[-116.97198,34.40498],[-116.97213,34.40505],[-116.97221,34.40506],[-116.97239,34.40512],[-116.97261,34.40517],[-116.97288,34.40528],[-116.97297,34.4053],[-116.97324,34.40542],[-116.97339,34.40545],[-116.97352,34.4055],[-116.9736,34.40553],[-116.97367,34.40553],[-116.97373,34.4055],[-116.97377,34.4055],[-116.97381,34.40552],[-116.97387,34.40558],[-116.97396,34.40566]]}},{"type":"Feature","properties":{"name":"(unnamed public road)","road_class":"track","surface":"dirt","tracktype":"grade3","source":"Caltrans All Roads + OpenStreetMap explicit surface","source_detail":"osm way 333213682; Caltrans All Roads public-network geometry match","source_tile":"179/407","public_network_source":"Caltrans All Roads (ARNOLD/HPMS)","surface_source":"OpenStreetMap explicit surface tag","caltrans_match_coverage":1.0,"verified_length_m":523},"geometry":{"type":"LineString","coordinates":[[-116.94058,34.30807],[-116.94093,34.30817],[-116.94116,34.30833],[-116.94132,34.30847],[-116.94142,34.30846],[-116.94151,34.30828],[-116.94157,34.30818],[-116.94168,34.30813],[-116.94184,34.30809],[-116.94198,34.30811],[-116.94211,34.30816],[-116.94231,34.30827],[-116.94245,34.30838],[-116.94258,34.30841],[-116.94293,34.30841],[-116.94302,34.30844],[-116.9431,34.30849],[-116.9432,34.30849],[-116.94328,34.30845],[-116.94337,34.30837],[-116.94346,34.30832],[-116.94357,34.30828],[-116.94372,34.30824],[-116.94399,34.30824],[-116.94421,34.30829],[-116.94431,34.30834],[-116.94441,34.30836],[-116.94461,34.30832],[-116.94479,34.30827],[-116.94496,34.30825],[-116.94542,34.30825],[-116.94555,34.30834]]}},{"type":"Feature","properties":{"name":"Holcomb Creek Road","road_class":"track","surface":"dirt","tracktype":"grade3","source":"Caltrans All Roads + OpenStreetMap explicit surface","source_detail":"osm way 338436617; Caltrans All Roads public-network geometry match","source_tile":"179/407","public_network_source":"Caltrans All Roads (ARNOLD/HPMS)","surface_source":"OpenStreetMap explicit surface tag","caltrans_match_coverage":1.0,"verified_length_m":550},"geometry":{"type":"LineString","coordinates":[[-116.93139,34.31275],[-116.93175,34.31262],[-116.93208,34.31245],[-116.9322,34.31235],[-116.93243,34.31217],[-116.9326,34.31211],[-116.93296,34.31207],[-116.93327,34.312],[-116.93341,34.3119],[-116.93353,34.31168],[-116.93367,34.31146],[-116.93391,34.31119],[-116.93414,34.31098],[-116.93436,34.31077],[-116.93474,34.31053],[-116.93502,34.31036],[-116.93552,34.31015],[-116.93576,34.31007],[-116.93591,34.31005],[-116.9361,34.31008]]}},{"type":"Feature","properties":{"name":"North Peak Road","road_class":"track","surface":"dirt","tracktype":"grade3","source":"Caltrans All Roads + OpenStreetMap explicit surface","source_detail":"osm way 338436623; Caltrans All Roads public-network geometry match","source_tile":"179/407","public_network_source":"Caltrans All Roads (ARNOLD/HPMS)","surface_source":"OpenStreetMap explicit surface tag","caltrans_match_coverage":1.0,"verified_length_m":1019},"geometry":{"type":"LineString","coordinates":[[-117.04709,34.36259],[-117.04701,34.3627],[-117.04694,34.36273],[-117.04673,34.36273],[-117.04661,34.36278],[-117.04631,34.36293],[-117.04594,34.36317],[-117.04568,34.36328],[-117.04549,34.36336],[-117.04524,34.36341],[-117.04508,34.36348],[-117.04496,34.36364],[-117.04484,34.36382],[-117.04468,34.36396],[-117.04449,34.36405],[-117.04431,34.3641],[-117.04391,34.36423],[-117.04343,34.36444],[-117.04305,34.36461],[-117.04293,34.36476],[-117.04279,34.36483],[-117.04253,34.36484],[-117.04218,34.36502],[-117.04199,34.36513],[-117.04197,34.36522],[-117.0421,34.36529],[-117.04217,34.36536],[-117.04219,34.36547],[-117.04218,34.36556],[-117.04209,34.36561],[-117.04192,34.36568],[-117.04184,34.36574],[-117.0417,34.36578],[-117.04157,34.3658],[-117.0413,34.36585],[-117.04122,34.36585],[-117.04105,34.36574],[-117.04097,34.36574],[-117.04091,34.36579],[-117.04091,34.36601],[-117.04085,34.36608],[-117.04074,34.36612],[-117.04045,34.3661],[-117.04018,34.36609],[-117.04,34.36606],[-117.0399,34.36606],[-117.03957,34.36615],[-117.03933,34.36616],[-117.03921,34.36619],[-117.03906,34.36629],[-117.03895,34.36631],[-117.03876,34.36628],[-117.0384,34.36628]]}},{"type":"Feature","properties":{"name":"Grapevine Canyon Road","road_class":"track","surface":"dirt","tracktype":"grade3","source":"Caltrans All Roads + OpenStreetMap explicit surface","source_detail":"osm way 338436635; Caltrans All Roads public-network geometry match","source_tile":"179/407","public_network_source":"Caltrans All Roads (ARNOLD/HPMS)","surface_source":"OpenStreetMap explicit surface tag","caltrans_match_coverage":1.0,"verified_length_m":2286},"geometry":{"type":"LineString","coordinates":[[-117.0603,34.36746],[-117.06028,34.36792],[-117.06027,34.36822],[-117.06038,34.36859],[-117.06049,34.36881],[-117.06055,34.36902],[-117.06057,34.3695],[-117.06122,34.37104],[-117.0617,34.37175],[-117.06167,34.37221],[-117.06138,34.37262],[-117.06144,34.37287],[-117.06194,34.37317],[-117.06183,34.37337],[-117.06191,34.37374],[-117.06158,34.37401],[-117.06124,34.37458],[-117.06061,34.375],[-117.06044,34.37532],[-117.0603,34.37545],[-117.05945,34.37578],[-117.05912,34.37617],[-117.05903,34.37633],[-117.05865,34.37649],[-117.05854,34.37672],[-117.05823,34.37679],[-117.05749,34.37679],[-117.05693,34.37663],[-117.05671,34.37645],[-117.0565,34.37631],[-117.05628,34.37624],[-117.05599,34.3763],[-117.05587,34.37681],[-117.05557,34.37709],[-117.05607,34.37748],[-117.05585,34.37775],[-117.05457,34.37809],[-117.05481,34.37848],[-117.05482,34.37869],[-117.05441,34.37886],[-117.0544,34.37904],[-117.05443,34.37933],[-117.05462,34.3795],[-117.05468,34.37964],[-117.05469,34.3797],[-117.05459,34.37992],[-117.05465,34.38011],[-117.05493,34.38031],[-117.05509,34.38077],[-117.05495,34.38154],[-117.05474,34.38197]]}},{"type":"Feature","properties":{"name":"FR 3N84","road_class":"track","surface":"dirt","tracktype":"grade3","source":"Caltrans All Roads + OpenStreetMap explicit surface","source_detail":"osm way 338436636; Caltrans All Roads public-network geometry match","source_tile":"179/407","public_network_source":"Caltrans All Roads (ARNOLD/HPMS)","surface_source":"OpenStreetMap explicit surface tag","caltrans_match_coverage":0.973,"verified_length_m":2273},"geometry":{"type":"LineString","coordinates":[[-116.95484,34.31757],[-116.9549,34.31763],[-116.955,34.31764],[-116.95516,34.3176],[-116.9553,34.31752],[-116.9554,34.31737],[-116.95563,34.31713],[-116.95573,34.31692],[-116.95584,34.31672],[-116.95597,34.31663],[-116.95609,34.31658],[-116.95624,34.31657],[-116.9564,34.31662],[-116.95665,34.31672],[-116.95689,34.31685],[-116.95723,34.31695],[-116.95789,34.317],[-116.95809,34.31701],[-116.95818,34.31697],[-116.95823,34.31692],[-116.95828,34.31681],[-116.95833,34.31672],[-116.95844,34.31665],[-116.95858,34.31662],[-116.95877,34.31665],[-116.95889,34.31671],[-116.95898,34.31679],[-116.95905,34.31686],[-116.95911,34.31689],[-116.95919,34.3169],[-116.95928,34.31688],[-116.95937,34.3168],[-116.95943,34.31674],[-116.95954,34.31662],[-116.95957,34.31648],[-116.95963,34.31634],[-116.95975,34.31624],[-116.95987,34.31617],[-116.96009,34.3161],[-116.96021,34.31602],[-116.96066,34.31597],[-116.96088,34.31601],[-116.96107,34.31609],[-116.96124,34.31625],[-116.96137,34.31655],[-116.9614,34.31667],[-116.96141,34.31676],[-116.96138,34.31689],[-116.96131,34.31707],[-116.96123,34.31726],[-116.96125,34.31737],[-116.96131,34.31753],[-116.96134,34.31774],[-116.96129,34.31789],[-116.96119,34.31809],[-116.96128,34.31843],[-116.96128,34.3187],[-116.96132,34.31889],[-116.96143,34.31908],[-116.96147,34.31927],[-116.96148,34.3195],[-116.96165,34.31975],[-116.96191,34.32012],[-116.96193,34.32027],[-116.96203,34.32035],[-116.9622,34.32048],[-116.96249,34.32057],[-116.96274,34.32063],[-116.96312,34.32081],[-116.96359,34.32089],[-116.964,34.32104],[-116.96439,34.32119],[-116.96475,34.3213],[-116.96504,34.32141],[-116.96534,34.32153],[-116.9655,34.32161],[-116.96562,34.32171],[-116.9658,34.32183],[-116.96597,34.32207],[-116.9661,34.32216],[-116.9664,34.32239],[-116.96649,34.3225],[-116.96656,34.32271],[-116.96666,34.32291],[-116.96703,34.32327],[-116.96733,34.32352],[-116.96769,34.32377],[-116.96795,34.32394],[-116.96811,34.32406],[-116.96822,34.32425],[-116.96827,34.32463],[-116.96824,34.32473],[-116.96816,34.32486],[-116.96817,34.32496],[-116.96822,34.32504],[-116.9685,34.32537],[-116.96849,34.32544],[-116.96844,34.32575],[-116.96849,34.32588],[-116.96882,34.32641],[-116.96888,34.32654],[-116.9689,34.32665],[-116.96887,34.32673]]}},{"type":"Feature","properties":{"name":"Holcomb Valley Road","road_class":"unclassified","surface":"compacted","tracktype":"grade2","source":"Caltrans All Roads + OpenStreetMap explicit surface","source_detail":"osm way 338438550; Caltrans All Roads public-network geometry match","source_tile":"179/408","public_network_source":"Caltrans All Roads (ARNOLD/HPMS)","surface_source":"OpenStreetMap explicit surface tag","caltrans_match_coverage":1.0,"verified_length_m":980},"geometry":{"type":"LineString","coordinates":[[-116.91772,34.30663],[-116.91808,34.30675],[-116.91858,34.30689],[-116.9198,34.30726],[-116.92071,34.30753],[-116.92115,34.30761],[-116.92181,34.30761],[-116.92217,34.30751],[-116.92251,34.30752],[-116.92303,34.30761],[-116.92352,34.30775],[-116.92383,34.30785],[-116.92419,34.308],[-116.92452,34.30809],[-116.92497,34.30815],[-116.92521,34.3082],[-116.92554,34.30831],[-116.92583,34.3084],[-116.92603,34.30847],[-116.92643,34.30884],[-116.92659,34.30891],[-116.92674,34.30905],[-116.92688,34.30927],[-116.92699,34.3094],[-116.92735,34.30961]]}},{"type":"Feature","properties":{"name":"Monarch Flat Road","road_class":"track","surface":"dirt","tracktype":"grade3","source":"Caltrans All Roads + OpenStreetMap explicit surface","source_detail":"osm way 433794880; Caltrans All Roads public-network geometry match","source_tile":"179/407","public_network_source":"Caltrans All Roads (ARNOLD/HPMS)","surface_source":"OpenStreetMap explicit surface tag","caltrans_match_coverage":0.984,"verified_length_m":2021},"geometry":{"type":"LineString","coordinates":[[-116.83157,34.35129],[-116.83141,34.3511],[-116.83118,34.3507],[-116.83095,34.35035],[-116.83088,34.35022],[-116.83085,34.3501],[-116.83084,34.34998],[-116.83085,34.3499],[-116.83086,34.34983],[-116.83086,34.34977],[-116.83084,34.34972],[-116.83077,34.34978],[-116.83069,34.34985],[-116.83061,34.35003],[-116.83053,34.35017],[-116.83048,34.35023],[-116.83043,34.35026],[-116.83037,34.35026],[-116.83034,34.35022],[-116.83035,34.35014],[-116.83036,34.35008],[-116.83038,34.35002],[-116.83044,34.34983],[-116.83063,34.34947],[-116.83042,34.34961],[-116.83022,34.34972],[-116.83018,34.34973],[-116.83006,34.34968],[-116.82992,34.34962],[-116.82981,34.34956],[-116.8297,34.34948],[-116.82961,34.34941],[-116.82954,34.34932],[-116.82947,34.34921],[-116.82943,34.34917],[-116.82938,34.34916],[-116.82933,34.34917],[-116.82913,34.34924],[-116.82907,34.34925],[-116.829,34.34926],[-116.82886,34.34925],[-116.82874,34.34927],[-116.82863,34.34927],[-116.82859,34.34927],[-116.82855,34.34926],[-116.82853,34.34922],[-116.82854,34.34918],[-116.8286,34.34914],[-116.82868,34.34909],[-116.82889,34.34901],[-116.82896,34.34896],[-116.82915,34.34882],[-116.82932,34.34868],[-116.82937,34.34862],[-116.82941,34.34859],[-116.82946,34.34858],[-116.82952,34.34859],[-116.82956,34.34862],[-116.82969,34.34872],[-116.82973,34.34875],[-116.82977,34.34877],[-116.82991,34.3488],[-116.8302,34.34881],[-116.83028,34.3488],[-116.83035,34.34877],[-116.83041,34.34874],[-116.83046,34.34869],[-116.83052,34.34863],[-116.83056,34.34857],[-116.83058,34.34853],[-116.83058,34.34847],[-116.83057,34.3484],[-116.83053,34.34834],[-116.83048,34.34829],[-116.83024,34.34808],[-116.83017,34.34801],[-116.83013,34.34794],[-116.8301,34.34788],[-116.83007,34.34786],[-116.83001,34.34785],[-116.82996,34.34786],[-116.82992,34.34789],[-116.82986,34.34796],[-116.82983,34.34798],[-116.8298,34.348],[-116.82975,34.34801],[-116.82971,34.34801],[-116.82952,34.34793],[-116.82937,34.34788],[-116.82932,34.34786],[-116.82926,34.34782],[-116.82916,34.3477],[-116.8291,34.34766],[-116.82903,34.34763],[-116.82894,34.34761],[-116.82872,34.34758],[-116.82862,34.34757],[-116.82853,34.34758],[-116.82839,34.34759],[-116.82821,34.3476],[-116.82816,34.3476],[-116.82811,34.34757],[-116.82811,34.34752],[-116.82813,34.34748],[-116.82832,34.34719],[-116.82853,34.34693],[-116.82863,34.34674],[-116.82863,34.3467],[-116.82863,34.34666],[-116.82861,34.34662],[-116.82856,34.34659],[-116.8283,34.34652],[-116.82815,34.34647],[-116.82804,34.3464],[-116.82796,34.34635],[-116.82789,34.34628],[-116.82787,34.34623],[-116.82786,34.34619],[-116.82782,34.34616],[-116.82777,34.34614],[-116.82771,34.34613],[-116.82754,34.34613],[-116.82741,34.34611],[-116.82726,34.34608],[-116.82712,34.34604],[-116.82693,34.34595],[-116.8268,34.34586],[-116.8267,34.34577],[-116.82663,34.34569],[-116.82645,34.34546],[-116.82633,34.34535],[-116.82619,34.34525],[-116.82612,34.3452],[-116.82598,34.34515],[-116.82592,34.34514],[-116.82584,34.34513],[-116.82572,34.34513],[-116.82565,34.34512],[-116.82558,34.34509],[-116.82553,34.34505],[-116.82545,34.34496],[-116.82528,34.34477],[-116.82498,34.34437],[-116.82489,34.3442],[-116.82437,34.34347],[-116.82424,34.34329],[-116.82413,34.34312],[-116.82399,34.34296],[-116.82377,34.34279],[-116.82354,34.34265],[-116.82327,34.34254],[-116.82304,34.34245],[-116.82291,34.34237],[-116.82282,34.34225],[-116.82273,34.34221],[-116.82263,34.34222]]}},{"type":"Feature","properties":{"name":"Cienega Larga Road","road_class":"track","surface":"dirt","tracktype":"grade3","source":"Caltrans All Roads + OpenStreetMap explicit surface","source_detail":"osm way 514039628; Caltrans All Roads public-network geometry match","source_tile":"179/408","public_network_source":"Caltrans All Roads (ARNOLD/HPMS)","surface_source":"OpenStreetMap explicit surface tag","caltrans_match_coverage":1.0,"verified_length_m":1196},"geometry":{"type":"LineString","coordinates":[[-117.01323,34.30412],[-117.01318,34.30418],[-117.01284,34.30463],[-117.01215,34.30545],[-117.01148,34.30636],[-117.0113,34.30675],[-117.01052,34.30758],[-117.01017,34.30782],[-117.00974,34.30819],[-117.00946,34.30838],[-117.0086,34.30871],[-117.00825,34.30886],[-117.008,34.30901],[-117.00758,34.30917],[-117.00725,34.30945],[-117.00686,34.30963],[-117.00649,34.3099],[-117.0063,34.30997],[-117.0059,34.31002],[-117.00539,34.31018],[-117.00497,34.31037],[-117.00453,34.31048],[-117.00399,34.31049],[-117.00355,34.31049]]}},{"type":"Feature","properties":{"name":"(unnamed public road)","road_class":"track","surface":"dirt","tracktype":"grade3","source":"Caltrans All Roads + OpenStreetMap explicit surface","source_detail":"osm way 662988473; Caltrans All Roads public-network geometry match","source_tile":"179/407","public_network_source":"Caltrans All Roads (ARNOLD/HPMS)","surface_source":"OpenStreetMap explicit surface tag","caltrans_match_coverage":1.0,"verified_length_m":806},"geometry":{"type":"LineString","coordinates":[[-116.84162,34.35403],[-116.84154,34.35399],[-116.84137,34.35395],[-116.84123,34.35392],[-116.84106,34.35383],[-116.84095,34.3537],[-116.84096,34.35358],[-116.84102,34.35345],[-116.84106,34.35335],[-116.84105,34.35327],[-116.84098,34.35319],[-116.84085,34.35319],[-116.84074,34.35318],[-116.84062,34.35309],[-116.84053,34.35292],[-116.84046,34.35272],[-116.84037,34.35262],[-116.84022,34.35252],[-116.83999,34.35243],[-116.83973,34.35239],[-116.83949,34.35234],[-116.83938,34.3523],[-116.83935,34.35226],[-116.83936,34.3522],[-116.83943,34.3522],[-116.83956,34.35223],[-116.83978,34.35224],[-116.84004,34.35222],[-116.84019,34.3522],[-116.84037,34.35209],[-116.84048,34.35203],[-116.84048,34.35187],[-116.8405,34.3518],[-116.84062,34.35174],[-116.84084,34.35172],[-116.84099,34.3517],[-116.84121,34.35166],[-116.8414,34.35163],[-116.84171,34.35146],[-116.8415,34.35148],[-116.84126,34.35148],[-116.84107,34.3514],[-116.84083,34.35126],[-116.84058,34.35108],[-116.84037,34.35095],[-116.8402,34.35087],[-116.84,34.3508],[-116.83969,34.3507]]}},{"type":"Feature","properties":{"name":"(unnamed public road)","road_class":"track","surface":"dirt","tracktype":"grade3","source":"Caltrans All Roads + OpenStreetMap explicit surface","source_detail":"osm way 662988474; Caltrans All Roads public-network geometry match","source_tile":"179/407","public_network_source":"Caltrans All Roads (ARNOLD/HPMS)","surface_source":"OpenStreetMap explicit surface tag","caltrans_match_coverage":0.979,"verified_length_m":1241},"geometry":{"type":"LineString","coordinates":[[-116.83569,34.34967],[-116.83558,34.34961],[-116.8355,34.3495],[-116.83541,34.34934],[-116.83537,34.34916],[-116.83534,34.34899],[-116.83532,34.34895],[-116.83524,34.34893],[-116.8352,34.34891],[-116.83517,34.34887],[-116.83518,34.3488],[-116.83522,34.34872],[-116.83525,34.34864],[-116.83524,34.34852],[-116.83516,34.34836],[-116.8351,34.34824],[-116.8351,34.34809],[-116.83509,34.34797],[-116.83499,34.34782],[-116.83493,34.34756],[-116.83476,34.34707],[-116.83458,34.34665],[-116.83445,34.34636],[-116.83421,34.34609],[-116.83399,34.34582],[-116.83379,34.34553],[-116.83355,34.34536],[-116.83342,34.34523],[-116.83334,34.34512],[-116.83313,34.34499],[-116.83293,34.34479],[-116.83263,34.34454],[-116.83254,34.3444],[-116.83238,34.34424],[-116.83233,34.34407],[-116.83228,34.34389],[-116.83218,34.34379],[-116.83215,34.34366],[-116.83213,34.34353],[-116.83215,34.34349],[-116.83213,34.34337],[-116.83215,34.34326],[-116.83233,34.34316],[-116.83251,34.34304],[-116.83264,34.34289],[-116.83273,34.34273],[-116.83271,34.3425],[-116.83268,34.34224],[-116.83266,34.34189],[-116.83267,34.34171],[-116.83271,34.34157],[-116.83279,34.34146],[-116.83298,34.34144],[-116.83334,34.3415],[-116.83377,34.34153],[-116.83409,34.34165],[-116.83434,34.34173],[-116.83445,34.3418],[-116.83457,34.34188],[-116.83467,34.34191],[-116.83484,34.3419]]}},{"type":"Feature","properties":{"name":"Allen Way","road_class":"unclassified","surface":"unpaved","source":"Caltrans All Roads + OpenStreetMap explicit surface","source_detail":"osm way 713414069; Caltrans All Roads public-network geometry match","source_tile":"179/407","public_network_source":"Caltrans All Roads (ARNOLD/HPMS)","surface_source":"OpenStreetMap explicit surface tag","caltrans_match_coverage":1.0,"verified_length_m":788},"geometry":{"type":"LineString","coordinates":[[-116.9415,34.44395],[-116.94148,34.4476],[-116.94147,34.45071],[-116.94147,34.45077],[-116.94146,34.45096],[-116.9415,34.45107]]}},{"type":"Feature","properties":{"name":"Holcomb Valley Road","road_class":"unclassified","surface":"compacted","source":"Caltrans All Roads + OpenStreetMap explicit surface","source_detail":"osm way 975313523; Caltrans All Roads public-network geometry match","source_tile":"179/407","public_network_source":"Caltrans All Roads (ARNOLD/HPMS)","surface_source":"OpenStreetMap explicit surface tag","caltrans_match_coverage":1.0,"verified_length_m":1966},"geometry":{"type":"LineString","coordinates":[[-116.94685,34.31993],[-116.9466,34.31994],[-116.94608,34.31983],[-116.94568,34.31971],[-116.94533,34.31976],[-116.94419,34.31974],[-116.94394,34.3198],[-116.94369,34.31996],[-116.94337,34.32005],[-116.94245,34.32017],[-116.94207,34.32032],[-116.9419,34.32033],[-116.94167,34.32035],[-116.94107,34.32025],[-116.9409,34.32017],[-116.94065,34.31998],[-116.94014,34.31979],[-116.93976,34.31955],[-116.93956,34.31949],[-116.93916,34.3194],[-116.93895,34.31929],[-116.93876,34.3188],[-116.93831,34.31835],[-116.93823,34.31819],[-116.93822,34.31745],[-116.93809,34.31721],[-116.9379,34.31708],[-116.93787,34.31699],[-116.93785,34.31685],[-116.93775,34.31677],[-116.93724,34.31656],[-116.9371,34.31646],[-116.93696,34.31606],[-116.93679,34.31571],[-116.93674,34.3154],[-116.93664,34.31525],[-116.93636,34.31507],[-116.93613,34.3149],[-116.93585,34.31456],[-116.93566,34.31441],[-116.93561,34.3143],[-116.93572,34.31379],[-116.93563,34.3136],[-116.93548,34.31354],[-116.93531,34.31361],[-116.93494,34.31404],[-116.93462,34.31418],[-116.93419,34.31432],[-116.93376,34.31433],[-116.93308,34.31445],[-116.93272,34.31446],[-116.93243,34.31436],[-116.93199,34.31418],[-116.93165,34.31365]]}},{"type":"Feature","properties":{"name":"Wright Mine Road","road_class":"track","surface":"dirt","tracktype":"grade3","source":"Caltrans All Roads + OpenStreetMap explicit surface","source_detail":"osm way 1073691731; Caltrans All Roads public-network geometry match","source_tile":"179/407","public_network_source":"Caltrans All Roads (ARNOLD/HPMS)","surface_source":"OpenStreetMap explicit surface tag","caltrans_match_coverage":1.0,"verified_length_m":1037},"geometry":{"type":"LineString","coordinates":[[-116.9998,34.33948],[-116.99972,34.33961],[-116.99952,34.33966],[-116.99934,34.3397],[-116.99882,34.33999],[-116.99822,34.34032],[-116.99794,34.34037],[-116.9977,34.34037],[-116.99745,34.34032],[-116.99724,34.34027],[-116.99713,34.34026],[-116.99707,34.34034],[-116.99711,34.3404],[-116.99734,34.34053],[-116.99753,34.34074],[-116.99766,34.34104],[-116.99776,34.34121],[-116.99783,34.34128],[-116.99791,34.34133],[-116.99832,34.34134],[-116.99846,34.34132],[-116.9986,34.34131],[-116.99867,34.34133],[-116.99871,34.34139],[-116.99871,34.34159],[-116.99874,34.3417],[-116.99886,34.34184],[-116.99895,34.34204],[-116.99904,34.34238],[-116.99905,34.34258],[-116.99914,34.3429],[-116.99922,34.34319],[-116.99947,34.34362],[-116.99948,34.34412],[-116.99939,34.34424],[-116.99926,34.34428],[-116.99919,34.34422],[-116.99914,34.34405],[-116.99887,34.34356],[-116.99875,34.34339],[-116.99856,34.34332],[-116.99827,34.34325],[-116.9981,34.3432],[-116.99798,34.3431]]}},{"type":"Feature","properties":{"name":"Coxey Truck Trail","road_class":"track","surface":"compacted","tracktype":"grade3","source":"Caltrans All Roads + OpenStreetMap explicit surface","source_detail":"osm way 1073987720; Caltrans All Roads public-network geometry match","source_tile":"179/407","public_network_source":"Caltrans All Roads (ARNOLD/HPMS)","surface_source":"OpenStreetMap explicit surface tag","caltrans_match_coverage":1.0,"verified_length_m":1227},"geometry":{"type":"LineString","coordinates":[[-117.06907,34.33472],[-117.0691,34.33487],[-117.06891,34.33538],[-117.06866,34.33563],[-117.06863,34.33584],[-117.06869,34.33603],[-117.06864,34.33619],[-117.06847,34.33635],[-117.06819,34.33645],[-117.06766,34.33673],[-117.06709,34.33694],[-117.06659,34.33721],[-117.0657,34.33777],[-117.06528,34.33813],[-117.06501,34.33827],[-117.06472,34.33833],[-117.06451,34.33844],[-117.06432,34.3386],[-117.0642,34.33879],[-117.06416,34.33914],[-117.06411,34.33932],[-117.06378,34.33964],[-117.06359,34.3399],[-117.06349,34.34014],[-117.06349,34.34034],[-117.06356,34.34051],[-117.06379,34.34063],[-117.0639,34.34079],[-117.06398,34.34105],[-117.0641,34.34138],[-117.06433,34.34164],[-117.06441,34.34178],[-117.06441,34.34195],[-117.06418,34.34228],[-117.06427,34.34257],[-117.06432,34.34288],[-117.06422,34.34309],[-117.06413,34.34321]]}},{"type":"Feature","properties":{"name":"Holcomb Valley Road","road_class":"track","surface":"dirt","tracktype":"grade3","source":"Caltrans All Roads + OpenStreetMap explicit surface","source_detail":"osm way 1074292520; Caltrans All Roads public-network geometry match","source_tile":"179/407","public_network_source":"Caltrans All Roads (ARNOLD/HPMS)","surface_source":"OpenStreetMap explicit surface tag","caltrans_match_coverage":1.0,"verified_length_m":1938},"geometry":{"type":"LineString","coordinates":[[-116.96059,34.32778],[-116.96011,34.32787],[-116.9593,34.32784],[-116.95851,34.3275],[-116.95802,34.32714],[-116.95773,34.32683],[-116.95757,34.32659],[-116.95759,34.32648],[-116.95769,34.32634],[-116.9577,34.32623],[-116.95759,34.32607],[-116.95726,34.32589],[-116.95693,34.32555],[-116.95611,34.32503],[-116.95493,34.32465],[-116.9541,34.3242],[-116.95386,34.32372],[-116.95363,34.32308],[-116.95369,34.32272],[-116.95358,34.32248],[-116.95313,34.32118],[-116.95324,34.32055],[-116.95323,34.32028],[-116.95307,34.31992],[-116.95286,34.31974],[-116.95276,34.31968],[-116.95261,34.31971],[-116.95232,34.31995],[-116.95208,34.32005],[-116.95174,34.32008],[-116.95154,34.32017],[-116.95127,34.32052],[-116.95112,34.32064],[-116.95088,34.32067],[-116.95037,34.32049],[-116.95018,34.32038],[-116.94968,34.31994],[-116.94948,34.31985],[-116.94919,34.31984],[-116.94891,34.31975],[-116.94851,34.31976],[-116.94771,34.31985],[-116.94734,34.31985],[-116.94685,34.31993]]}},{"type":"Feature","properties":{"name":"Monarch Flat Road","road_class":"track","surface":"dirt","tracktype":"grade3","source":"Caltrans All Roads + OpenStreetMap explicit surface","source_detail":"osm way 1075214775; Caltrans All Roads public-network geometry match","source_tile":"179/407","public_network_source":"Caltrans All Roads (ARNOLD/HPMS)","surface_source":"OpenStreetMap explicit surface tag","caltrans_match_coverage":0.99,"verified_length_m":2531},"geometry":{"type":"LineString","coordinates":[[-116.84679,34.35192],[-116.84622,34.35207],[-116.84615,34.3521],[-116.84608,34.35215],[-116.84604,34.35221],[-116.84585,34.35247],[-116.84579,34.35254],[-116.84571,34.35259],[-116.84548,34.35274],[-116.84531,34.35283],[-116.84514,34.35289],[-116.84507,34.35293],[-116.84502,34.35298],[-116.84498,34.35304],[-116.84498,34.3531],[-116.845,34.35318],[-116.84501,34.35325],[-116.84499,34.35332],[-116.84495,34.35339],[-116.84478,34.35343],[-116.84451,34.35356],[-116.84421,34.35366],[-116.84412,34.35369],[-116.84406,34.35373],[-116.84397,34.35378],[-116.84391,34.35379],[-116.84385,34.35379],[-116.84363,34.35371],[-116.84355,34.35365],[-116.8435,34.3536],[-116.8434,34.35347],[-116.84337,34.35344],[-116.84332,34.35341],[-116.84303,34.35327],[-116.84297,34.35327],[-116.84291,34.35328],[-116.84285,34.35331],[-116.84233,34.35378],[-116.84225,34.35383],[-116.84218,34.35387],[-116.84198,34.35394],[-116.84165,34.35402],[-116.84162,34.35403],[-116.84133,34.35407],[-116.84124,34.35407],[-116.84117,34.35406],[-116.84081,34.35399],[-116.84077,34.35397],[-116.84073,34.35392],[-116.84072,34.35382],[-116.84069,34.35375],[-116.84063,34.3536],[-116.84051,34.35332],[-116.84048,34.35327],[-116.84043,34.35323],[-116.84038,34.35321],[-116.84033,34.3532],[-116.84029,34.35321],[-116.84022,34.35326],[-116.84018,34.35333],[-116.84011,34.35343],[-116.84008,34.35347],[-116.84003,34.35351],[-116.83993,34.35356],[-116.83977,34.35362],[-116.83969,34.35363],[-116.83953,34.35364],[-116.83945,34.35363],[-116.83937,34.3536],[-116.83911,34.35352],[-116.839,34.3535],[-116.83891,34.35349],[-116.83884,34.3535],[-116.83872,34.35352],[-116.83862,34.35351],[-116.83853,34.35349],[-116.83845,34.35346],[-116.83839,34.35341],[-116.83834,34.35334],[-116.83819,34.35313],[-116.83812,34.35309],[-116.83805,34.35308],[-116.83798,34.35308],[-116.83773,34.35314],[-116.83768,34.35316],[-116.83764,34.3532],[-116.83757,34.3533],[-116.83756,34.35335],[-116.83755,34.35341],[-116.83754,34.35348],[-116.83751,34.35351],[-116.83747,34.35353],[-116.83742,34.35353],[-116.83737,34.3535],[-116.83731,34.35341],[-116.83729,34.35335],[-116.83729,34.3533],[-116.83733,34.35314],[-116.83736,34.35299],[-116.83738,34.35293],[-116.83743,34.35289],[-116.83749,34.35286],[-116.83766,34.35283],[-116.8379,34.35273],[-116.83798,34.35272],[-116.83808,34.35271],[-116.83819,34.35271],[-116.83827,34.35269],[-116.83834,34.35265],[-116.83839,34.3526],[-116.83843,34.35254],[-116.83846,34.35246],[-116.83846,34.35239],[-116.83843,34.35231],[-116.83838,34.35222],[-116.83814,34.35192],[-116.83807,34.3518],[-116.83799,34.3517],[-116.83797,34.35165],[-116.83799,34.3516],[-116.83805,34.35156],[-116.83851,34.35142],[-116.83883,34.35136],[-116.83902,34.35131],[-116.83908,34.35131],[-116.83912,34.35131],[-116.83938,34.35136],[-116.83959,34.35137],[-116.83965,34.35136],[-116.83969,34.35134],[-116.83973,34.3513],[-116.83978,34.35123],[-116.83979,34.35115],[-116.8398,34.35107],[-116.83972,34.35078],[-116.83969,34.3507],[-116.83968,34.35068],[-116.83965,34.35062],[-116.83954,34.35051],[-116.83946,34.35046],[-116.83939,34.35042],[-116.83919,34.35036],[-116.8391,34.35033],[-116.83847,34.35002],[-116.83821,34.34988],[-116.83792,34.34977],[-116.83769,34.34971],[-116.83728,34.34961],[-116.83695,34.34948],[-116.83658,34.34938],[-116.8364,34.34934],[-116.83632,34.34933],[-116.83623,34.34936],[-116.83607,34.3495],[-116.83599,34.34954],[-116.83569,34.34967],[-116.83552,34.34975],[-116.83533,34.34983],[-116.8352,34.34988],[-116.83514,34.34992],[-116.83508,34.34996],[-116.83499,34.35005],[-116.83493,34.35008],[-116.83486,34.35011],[-116.83479,34.35011],[-116.83458,34.35013],[-116.83448,34.35015],[-116.83439,34.35018],[-116.83433,34.35021],[-116.8341,34.35034],[-116.83388,34.35051],[-116.8338,34.35055],[-116.83371,34.35059],[-116.83341,34.35068],[-116.83336,34.3507],[-116.8333,34.35073],[-116.83304,34.35088],[-116.83296,34.35092],[-116.83286,34.35094],[-116.83277,34.35094],[-116.83257,34.35094],[-116.83251,34.35094],[-116.83244,34.35096],[-116.83157,34.35129]]}},{"type":"Feature","properties":{"name":"Furnace Road","road_class":"track","surface":"dirt","tracktype":"grade3","source":"Caltrans All Roads + OpenStreetMap explicit surface","source_detail":"osm way 1075802506; Caltrans All Roads public-network geometry match","source_tile":"179/407","public_network_source":"Caltrans All Roads (ARNOLD/HPMS)","surface_source":"OpenStreetMap explicit surface tag","caltrans_match_coverage":1.0,"verified_length_m":925},"geometry":{"type":"LineString","coordinates":[[-116.9324,34.32199],[-116.93237,34.32221],[-116.93239,34.32236],[-116.93226,34.32254],[-116.93216,34.32292],[-116.9321,34.32317],[-116.93189,34.32336],[-116.93168,34.32356],[-116.93169,34.32375],[-116.93153,34.32387],[-116.93134,34.32405],[-116.93119,34.32412],[-116.93104,34.32416],[-116.9306,34.3242],[-116.93016,34.32411],[-116.92998,34.32407],[-116.92981,34.32406],[-116.92961,34.32411],[-116.92956,34.32419],[-116.9294,34.32453],[-116.92944,34.32468],[-116.92937,34.32535],[-116.92933,34.32542],[-116.92918,34.3254],[-116.92911,34.32532],[-116.92901,34.32517],[-116.92887,34.32508],[-116.92872,34.32504],[-116.9285,34.32503],[-116.9284,34.32502],[-116.92798,34.32495],[-116.92777,34.32481],[-116.92696,34.32426],[-116.92692,34.32424],[-116.92679,34.32427],[-116.92671,34.32434],[-116.92668,34.32443],[-116.92673,34.32457],[-116.92679,34.32469],[-116.92679,34.32475],[-116.92672,34.32482]]}},{"type":"Feature","properties":{"name":"John Bull Flat Road","road_class":"track","surface":"dirt","tracktype":"grade3","source":"Caltrans All Roads + OpenStreetMap explicit surface","source_detail":"osm way 1335136894; Caltrans All Roads public-network geometry match","source_tile":"179/407","public_network_source":"Caltrans All Roads (ARNOLD/HPMS)","surface_source":"OpenStreetMap explicit surface tag","caltrans_match_coverage":1.0,"verified_length_m":806},"geometry":{"type":"LineString","coordinates":[[-116.90925,34.31333],[-116.90898,34.31347],[-116.90874,34.31366],[-116.90859,34.31371],[-116.90829,34.31373],[-116.90789,34.31375],[-116.90771,34.31381],[-116.90764,34.31394],[-116.90767,34.31411],[-116.90768,34.31427],[-116.90756,34.31447],[-116.90748,34.31466],[-116.9075,34.31478],[-116.9075,34.31484],[-116.9074,34.31498],[-116.90721,34.31512],[-116.90703,34.31518],[-116.90699,34.31524],[-116.90695,34.31537],[-116.90689,34.31545],[-116.90675,34.31553],[-116.9067,34.31559],[-116.90634,34.31573],[-116.90616,34.31583],[-116.90599,34.31599],[-116.90591,34.31613],[-116.90578,34.31626],[-116.90566,34.31641],[-116.9056,34.31655],[-116.90562,34.31663],[-116.90556,34.3167],[-116.90545,34.31673],[-116.90532,34.31671],[-116.90513,34.31672],[-116.90502,34.31678],[-116.90489,34.31704],[-116.90487,34.31718],[-116.90491,34.31742],[-116.90492,34.31757],[-116.90489,34.31781],[-116.90491,34.318],[-116.90494,34.31819],[-116.90483,34.31846]]}},{"type":"Feature","properties":{"name":"Van Dusen Creek Road 3N07","road_class":"track","surface":"dirt","tracktype":"grade3","source":"Caltrans All Roads + OpenStreetMap explicit surface","source_detail":"osm way 7060575; Caltrans All Roads public-network geometry match","source_tile":"179/408","public_network_source":"Caltrans All Roads (ARNOLD/HPMS)","surface_source":"OpenStreetMap explicit surface tag","caltrans_match_coverage":0.968,"verified_length_m":1919},"geometry":{"type":"LineString","coordinates":[[-116.89862,34.30905],[-116.89836,34.30909],[-116.89813,34.30908],[-116.89802,34.3091],[-116.89791,34.30909],[-116.89783,34.30902],[-116.89777,34.30892],[-116.89762,34.30881],[-116.89745,34.30872],[-116.89736,34.3087],[-116.89727,34.30871],[-116.89717,34.30872],[-116.8971,34.30872],[-116.89705,34.30869],[-116.89699,34.30859],[-116.89693,34.30854],[-116.89671,34.30847],[-116.896,34.30832],[-116.8958,34.30825],[-116.8953,34.30795],[-116.89485,34.30777],[-116.89423,34.30743],[-116.89374,34.30726],[-116.89367,34.30725],[-116.89354,34.30724],[-116.89337,34.30725],[-116.8932,34.30723],[-116.89296,34.30715],[-116.89283,34.30705],[-116.89275,34.30698],[-116.89244,34.30689],[-116.8922,34.3068],[-116.89201,34.30677],[-116.89178,34.30668],[-116.89129,34.30639],[-116.89108,34.30624],[-116.89102,34.3061],[-116.89093,34.30606],[-116.89074,34.30611],[-116.8906,34.3061],[-116.89046,34.30602],[-116.89037,34.3058],[-116.89026,34.30564],[-116.8899,34.30546],[-116.88976,34.30541],[-116.88959,34.30541],[-116.88938,34.30537],[-116.88891,34.30529],[-116.88811,34.30512],[-116.88753,34.30488],[-116.88743,34.30484],[-116.88702,34.30453],[-116.88686,34.30445],[-116.88662,34.30431],[-116.88635,34.30412],[-116.8859,34.30377],[-116.8857,34.30372],[-116.88495,34.3036],[-116.88477,34.30353],[-116.88456,34.30339],[-116.88423,34.30334],[-116.88371,34.30321],[-116.88347,34.30315],[-116.88324,34.30321],[-116.88313,34.30329],[-116.88298,34.30336],[-116.88276,34.30342],[-116.88225,34.30332],[-116.88214,34.30326],[-116.88208,34.30323],[-116.88192,34.303],[-116.88175,34.30292],[-116.88152,34.30291],[-116.88119,34.30289],[-116.88089,34.3029],[-116.88058,34.30296],[-116.8804,34.30296]]}},{"type":"Feature","properties":{"name":"Delamar Mountain Road","road_class":"unclassified","surface":"compacted","tracktype":"grade2","source":"Caltrans All Roads + OpenStreetMap explicit surface","source_detail":"osm way 7303705; Caltrans All Roads public-network geometry match","source_tile":"179/408","public_network_source":"Caltrans All Roads (ARNOLD/HPMS)","surface_source":"OpenStreetMap explicit surface tag","caltrans_match_coverage":1.0,"verified_length_m":5032},"geometry":{"type":"LineString","coordinates":[[-116.96127,34.28904],[-116.96124,34.28915],[-116.9612,34.28924],[-116.96106,34.28945],[-116.96098,34.28966],[-116.96093,34.28985],[-116.96088,34.29012],[-116.96084,34.29031],[-116.9608,34.29043],[-116.96077,34.2905],[-116.96072,34.29055],[-116.96065,34.29058],[-116.96055,34.29059],[-116.96044,34.29058],[-116.96035,34.29056],[-116.96028,34.29055],[-116.96022,34.29055],[-116.96014,34.29058],[-116.96006,34.29063],[-116.95993,34.2908],[-116.95984,34.29092],[-116.95981,34.29097],[-116.9598,34.29103],[-116.9598,34.29116],[-116.95976,34.29132],[-116.95973,34.29141],[-116.95944,34.29181],[-116.95925,34.29208],[-116.95905,34.29231],[-116.95893,34.29239],[-116.95883,34.29243],[-116.95872,34.29243],[-116.95832,34.29241],[-116.95819,34.2924],[-116.9578,34.29231],[-116.95772,34.2923],[-116.95764,34.2923],[-116.95752,34.29233],[-116.95735,34.29238],[-116.9572,34.29239],[-116.95711,34.29241],[-116.957,34.29246],[-116.95689,34.2925],[-116.95679,34.29252],[-116.95667,34.29253],[-116.95659,34.29259],[-116.95652,34.29265],[-116.95649,34.29275],[-116.95649,34.29294],[-116.95645,34.29304],[-116.95637,34.29312],[-116.95626,34.29321],[-116.9562,34.2933],[-116.95618,34.29338],[-116.95617,34.29346],[-116.95614,34.29354],[-116.95611,34.29363],[-116.95613,34.29377],[-116.95613,34.29386],[-116.95609,34.29392],[-116.95604,34.29399],[-116.95597,34.29405],[-116.95572,34.29418],[-116.95558,34.29428],[-116.95547,34.29434],[-116.95523,34.29447],[-116.95482,34.29467],[-116.95448,34.29488],[-116.95433,34.29497],[-116.95418,34.29505],[-116.95404,34.2951],[-116.95388,34.29512],[-116.95364,34.29513],[-116.95337,34.2952],[-116.9532,34.29525],[-116.95303,34.29532],[-116.95286,34.29541],[-116.95262,34.29555],[-116.95244,34.29561],[-116.95228,34.29564],[-116.9521,34.29569],[-116.95195,34.29576],[-116.95184,34.29583],[-116.95177,34.2959],[-116.95171,34.29598],[-116.95163,34.29619],[-116.9516,34.29624],[-116.95155,34.29629],[-116.95146,34.29633],[-116.95135,34.29635],[-116.95123,34.29633],[-116.95109,34.2963],[-116.95097,34.29629],[-116.95091,34.29631],[-116.95087,34.29634],[-116.95085,34.2964],[-116.95087,34.29656],[-116.95088,34.2967],[-116.95086,34.29687],[-116.9508,34.29705],[-116.95075,34.29713],[-116.95066,34.29719],[-116.95053,34.29721],[-116.95029,34.29719],[-116.94971,34.29707],[-116.94937,34.29697],[-116.94922,34.29696],[-116.94898,34.29688],[-116.94886,34.29683],[-116.94872,34.29673],[-116.9486,34.29657],[-116.94847,34.2964],[-116.94839,34.29632],[-116.94827,34.29625],[-116.94813,34.29622],[-116.9477,34.29614],[-116.94761,34.29613],[-116.94753,34.29611],[-116.94742,34.29605],[-116.94734,34.29602],[-116.94724,34.29601],[-116.94715,34.29604],[-116.94703,34.29611],[-116.9469,34.29613],[-116.94651,34.29613],[-116.94617,34.29611],[-116.94606,34.29611],[-116.94596,34.29614],[-116.94574,34.29624],[-116.94569,34.29625],[-116.94554,34.29626],[-116.9454,34.29623],[-116.94528,34.29619],[-116.94507,34.29613],[-116.94479,34.29606],[-116.94466,34.29607],[-116.94447,34.2961],[-116.94437,34.2961],[-116.94423,34.2961],[-116.94417,34.29611],[-116.94411,34.29613],[-116.94403,34.29621],[-116.94394,34.2963],[-116.94382,34.29637],[-116.94362,34.29643],[-116.94351,34.29644],[-116.94326,34.2964],[-116.94316,34.29638],[-116.94309,34.29635],[-116.94287,34.29616],[-116.94263,34.29594],[-116.94255,34.29588],[-116.94244,34.29583],[-116.94225,34.29577],[-116.94215,34.29575],[-116.94207,34.29577],[-116.94203,34.29582],[-116.94201,34.29586],[-116.94197,34.29602],[-116.94184,34.29642],[-116.94147,34.29726],[-116.94112,34.29768],[-116.9408,34.29801],[-116.9403,34.29832],[-116.94011,34.29841],[-116.93977,34.29852],[-116.93961,34.29857],[-116.93944,34.29859],[-116.93886,34.2986],[-116.93872,34.29858],[-116.93842,34.29845],[-116.93819,34.29837],[-116.93779,34.29828],[-116.93729,34.29824],[-116.93666,34.29822],[-116.93611,34.29825],[-116.93604,34.29825],[-116.93599,34.29824],[-116.93593,34.29821],[-116.93586,34.29814],[-116.93578,34.29805],[-116.93568,34.29788],[-116.93551,34.29752],[-116.93543,34.29732],[-116.93534,34.29712],[-116.93528,34.29707],[-116.9352,34.29709],[-116.93514,34.29712],[-116.93508,34.29719],[-116.93489,34.2975],[-116.93477,34.29769],[-116.93472,34.29789],[-116.93472,34.29837],[-116.93471,34.29875],[-116.93468,34.29899],[-116.93469,34.29923],[-116.93473,34.29944],[-116.93476,34.29965],[-116.93488,34.29999],[-116.93493,34.3002],[-116.93494,34.30031],[-116.93491,34.30041],[-116.93486,34.30049],[-116.93477,34.30057],[-116.93465,34.30066],[-116.93444,34.30078],[-116.93435,34.30081],[-116.93425,34.30083],[-116.93402,34.30079],[-116.93388,34.30078],[-116.93375,34.30081],[-116.93359,34.30089],[-116.93329,34.30098],[-116.9331,34.30099],[-116.93279,34.30095],[-116.93262,34.30097],[-116.93236,34.30104],[-116.93212,34.30114],[-116.93194,34.30127],[-116.9316,34.30151],[-116.93155,34.30156],[-116.93147,34.30168],[-116.93143,34.30175],[-116.93133,34.30196],[-116.93093,34.30259],[-116.93058,34.30315],[-116.93027,34.30362],[-116.92993,34.30411],[-116.92981,34.30433],[-116.92897,34.30545],[-116.92826,34.30638],[-116.92795,34.30678],[-116.92782,34.30737],[-116.9278,34.30747],[-116.92766,34.30818],[-116.92753,34.30881],[-116.92735,34.30961]]}},{"type":"Feature","properties":{"name":"Holcomb Creek Road","road_class":"track","surface":"dirt","tracktype":"grade3","source":"Caltrans All Roads + OpenStreetMap explicit surface","source_detail":"osm way 7430500; Caltrans All Roads public-network geometry match","source_tile":"179/408","public_network_source":"Caltrans All Roads (ARNOLD/HPMS)","surface_source":"OpenStreetMap explicit surface tag","caltrans_match_coverage":1.0,"verified_length_m":3803},"geometry":{"type":"LineString","coordinates":[[-116.98316,34.30085],[-116.98303,34.30092],[-116.98291,34.30095],[-116.98277,34.30093],[-116.98266,34.3009],[-116.98244,34.30078],[-116.98235,34.30075],[-116.98217,34.30076],[-116.98204,34.30081],[-116.98197,34.30091],[-116.98189,34.30106],[-116.98174,34.30121],[-116.98119,34.30163],[-116.98097,34.30182],[-116.98077,34.30207],[-116.98065,34.30225],[-116.98042,34.30246],[-116.98023,34.30263],[-116.98008,34.30278],[-116.97969,34.30296],[-116.97937,34.3031],[-116.97902,34.30319],[-116.97872,34.30321],[-116.97845,34.3032],[-116.97812,34.30316],[-116.97782,34.30323],[-116.97758,34.30328],[-116.97739,34.30332],[-116.97704,34.30343],[-116.97664,34.30356],[-116.97641,34.30364],[-116.97587,34.30394],[-116.9757,34.304],[-116.97544,34.30398],[-116.97503,34.30396],[-116.97451,34.30387],[-116.97383,34.3039],[-116.97352,34.30396],[-116.97323,34.30405],[-116.97301,34.30419],[-116.97288,34.3043],[-116.97274,34.30439],[-116.97243,34.3045],[-116.97215,34.30464],[-116.97186,34.30481],[-116.97131,34.30497],[-116.97091,34.30505],[-116.97042,34.30504],[-116.97005,34.30508],[-116.96943,34.30504],[-116.96905,34.30507],[-116.96875,34.30506],[-116.9686,34.30511],[-116.96831,34.3054],[-116.9682,34.30541],[-116.96803,34.30532],[-116.96786,34.30531],[-116.9676,34.30534],[-116.96714,34.30549],[-116.96668,34.30566],[-116.96635,34.30575],[-116.96626,34.30583],[-116.96625,34.30601],[-116.96634,34.30623],[-116.96629,34.30654],[-116.9662,34.3068],[-116.96596,34.30699],[-116.96574,34.30721],[-116.96552,34.30732],[-116.96514,34.30767],[-116.96487,34.30788],[-116.96475,34.30805],[-116.96464,34.30826],[-116.96454,34.30862],[-116.96446,34.30871],[-116.96428,34.30881],[-116.96421,34.30888],[-116.96417,34.30919],[-116.96412,34.30927],[-116.96402,34.30928],[-116.96349,34.3093],[-116.96334,34.3093],[-116.96314,34.30935],[-116.96306,34.30933],[-116.96304,34.30927],[-116.96306,34.3092],[-116.96321,34.30911],[-116.96346,34.309],[-116.96357,34.3089],[-116.96368,34.30851],[-116.96373,34.30837],[-116.96379,34.30819],[-116.96388,34.30786],[-116.96401,34.30739],[-116.96411,34.30722],[-116.96429,34.30693],[-116.96428,34.30682],[-116.96418,34.30675],[-116.96405,34.30675],[-116.9636,34.30692],[-116.96347,34.30692],[-116.9631,34.30686],[-116.96242,34.30686],[-116.96187,34.30687],[-116.96161,34.3069],[-116.9615,34.30698],[-116.96143,34.30729],[-116.96142,34.30745],[-116.96155,34.30785],[-116.96156,34.30801],[-116.96152,34.30815],[-116.96133,34.30827],[-116.96108,34.30837],[-116.96076,34.30838],[-116.96063,34.3084],[-116.96046,34.3085],[-116.96029,34.30875],[-116.96011,34.30892],[-116.95994,34.30916],[-116.95907,34.30942],[-116.95897,34.30947],[-116.95888,34.30956],[-116.95883,34.30969],[-116.95883,34.30978],[-116.95891,34.30996],[-116.95889,34.31003],[-116.95884,34.31007],[-116.95869,34.3101],[-116.95815,34.31012],[-116.95798,34.31016],[-116.95779,34.3103],[-116.95758,34.31044],[-116.9575,34.31074],[-116.95744,34.31092],[-116.95736,34.311],[-116.9573,34.31101],[-116.95721,34.31099],[-116.9571,34.3109],[-116.95698,34.31088],[-116.95679,34.31094],[-116.95657,34.31105],[-116.95656,34.31119],[-116.95664,34.31129],[-116.9568,34.31142],[-116.95687,34.31153],[-116.9569,34.31168],[-116.95673,34.31191],[-116.95658,34.31201]]}},{"type":"Feature","properties":{"name":"Smarts Ranch Road","road_class":"track","surface":"compacted","tracktype":"grade4","source":"Caltrans All Roads + OpenStreetMap explicit surface","source_detail":"osm way 7472494; Caltrans All Roads public-network geometry match","source_tile":"179/408","public_network_source":"Caltrans All Roads (ARNOLD/HPMS)","surface_source":"OpenStreetMap explicit surface tag","caltrans_match_coverage":1.0,"verified_length_m":1292},"geometry":{"type":"LineString","coordinates":[[-116.79705,34.30251],[-116.79727,34.30258],[-116.79769,34.30268],[-116.79835,34.30288],[-116.799,34.30311],[-116.79942,34.3032],[-116.79995,34.30329],[-116.80013,34.30338],[-116.80034,34.3035],[-116.80058,34.30357],[-116.80092,34.30364],[-116.80112,34.30377],[-116.8012,34.30389],[-116.80121,34.30402],[-116.80114,34.30415],[-116.80093,34.30435],[-116.8007,34.3046],[-116.80058,34.30487],[-116.80048,34.30513],[-116.80044,34.30538],[-116.80049,34.30563],[-116.8007,34.30607],[-116.80083,34.3066],[-116.80091,34.30686],[-116.80107,34.30709],[-116.8014,34.30736],[-116.80186,34.30763],[-116.80236,34.30788],[-116.80273,34.30826],[-116.80303,34.30847],[-116.80393,34.30912],[-116.80426,34.30947],[-116.80447,34.30983],[-116.8046,34.31001],[-116.80481,34.31018]]}},{"type":"Feature","properties":{"name":"Holcomb Valley Road","road_class":"unclassified","surface":"dirt","source":"Caltrans All Roads + OpenStreetMap explicit surface","source_detail":"osm way 35601727; Caltrans All Roads public-network geometry match","source_tile":"179/408","public_network_source":"Caltrans All Roads (ARNOLD/HPMS)","surface_source":"OpenStreetMap explicit surface tag","caltrans_match_coverage":1.0,"verified_length_m":1228},"geometry":{"type":"LineString","coordinates":[[-116.82257,34.30365],[-116.82278,34.30388],[-116.82287,34.30402],[-116.82289,34.30414],[-116.82286,34.3043],[-116.82278,34.30448],[-116.82275,34.30465],[-116.82276,34.30484],[-116.82284,34.30517],[-116.82286,34.30539],[-116.8229,34.30559],[-116.82293,34.30579],[-116.8229,34.30599],[-116.8228,34.30619],[-116.82275,34.30639],[-116.82275,34.30659],[-116.82278,34.30688],[-116.82283,34.30702],[-116.8229,34.30711],[-116.82328,34.30735],[-116.8235,34.30745],[-116.82371,34.30751],[-116.82416,34.30758],[-116.82434,34.30762],[-116.82449,34.30766],[-116.82458,34.30768],[-116.82465,34.30767],[-116.82469,34.30762],[-116.8247,34.30757],[-116.82467,34.30751],[-116.82448,34.30722],[-116.82445,34.30708],[-116.8245,34.30694],[-116.82465,34.30681],[-116.82484,34.30671],[-116.82534,34.30649],[-116.82577,34.30634],[-116.82595,34.30627],[-116.82606,34.3062],[-116.82622,34.306],[-116.82685,34.3055],[-116.82822,34.30492],[-116.82981,34.3046]]}},{"type":"Feature","properties":{"name":"Coxey Truck Trail","road_class":"track","surface":"dirt","tracktype":"grade3","source":"Caltrans All Roads + OpenStreetMap explicit surface","source_detail":"osm way 338436629; Caltrans All Roads public-network geometry match","source_tile":"179/408","public_network_source":"Caltrans All Roads (ARNOLD/HPMS)","surface_source":"OpenStreetMap explicit surface tag","caltrans_match_coverage":1.0,"verified_length_m":2530},"geometry":{"type":"LineString","coordinates":[[-116.98316,34.30085],[-116.9833,34.30086],[-116.98355,34.30094],[-116.98365,34.30109],[-116.98364,34.3012],[-116.98359,34.30157],[-116.98365,34.3018],[-116.98372,34.30201],[-116.98369,34.30214],[-116.98358,34.30224],[-116.98346,34.30228],[-116.98316,34.30241],[-116.9831,34.30252],[-116.98327,34.30272],[-116.98353,34.30298],[-116.98388,34.30324],[-116.98394,34.3034],[-116.98393,34.30359],[-116.984,34.30363],[-116.98411,34.30361],[-116.98438,34.30361],[-116.98465,34.30369],[-116.98484,34.30386],[-116.98495,34.30403],[-116.98512,34.30417],[-116.98524,34.30429],[-116.98538,34.30447],[-116.98552,34.30451],[-116.98567,34.30444],[-116.98572,34.30437],[-116.98573,34.30418],[-116.98575,34.30409],[-116.9859,34.30409],[-116.98612,34.30419],[-116.98627,34.30421],[-116.98743,34.30412],[-116.98762,34.30419],[-116.98795,34.30455],[-116.9881,34.30474],[-116.98828,34.30491],[-116.98873,34.30504],[-116.98917,34.30526],[-116.98948,34.3055],[-116.98987,34.30568],[-116.99037,34.30603],[-116.99082,34.30643],[-116.99107,34.30662],[-116.99118,34.3068],[-116.99128,34.3071],[-116.9914,34.3073],[-116.99159,34.30736],[-116.99189,34.30731],[-116.99204,34.30736],[-116.99212,34.3075],[-116.99213,34.30768],[-116.99224,34.30777],[-116.99238,34.30776],[-116.9925,34.30764],[-116.99261,34.30739],[-116.99283,34.3072],[-116.99317,34.307],[-116.99357,34.30689],[-116.99398,34.30684],[-116.99424,34.30691],[-116.99456,34.30716],[-116.99473,34.30742],[-116.99479,34.30765],[-116.99471,34.308],[-116.99473,34.30811],[-116.99486,34.30817],[-116.99587,34.30825],[-116.99654,34.30831],[-116.99698,34.30835],[-116.9972,34.30841],[-116.99762,34.30892],[-116.99801,34.30926],[-116.99831,34.30944],[-116.99874,34.3096],[-116.99893,34.30973],[-116.99973,34.31058],[-116.99993,34.31067],[-117.00081,34.3108],[-117.00124,34.31086]]}},{"type":"Feature","properties":{"name":"Van Dusen Creek Road 3n07","road_class":"track","surface":"dirt","tracktype":"grade3","source":"Caltrans All Roads + OpenStreetMap explicit surface","source_detail":"osm way 975315218; Caltrans All Roads public-network geometry match","source_tile":"179/408","public_network_source":"Caltrans All Roads (ARNOLD/HPMS)","surface_source":"OpenStreetMap explicit surface tag","caltrans_match_coverage":1.0,"verified_length_m":766},"geometry":{"type":"LineString","coordinates":[[-116.90312,34.30361],[-116.90265,34.30386],[-116.90255,34.30393],[-116.90249,34.30406],[-116.90231,34.30418],[-116.90182,34.30464],[-116.90176,34.30468],[-116.90164,34.30477],[-116.90162,34.30483],[-116.90147,34.30495],[-116.90137,34.30503],[-116.90128,34.30518],[-116.90122,34.30528],[-116.90106,34.30546],[-116.90095,34.30553],[-116.90084,34.30561],[-116.90062,34.3057],[-116.9005,34.30575],[-116.90041,34.30579],[-116.90019,34.30599],[-116.89999,34.30635],[-116.89987,34.30648],[-116.89945,34.30669],[-116.8994,34.30674],[-116.89934,34.30685],[-116.89923,34.30697],[-116.89912,34.30716],[-116.89891,34.30784],[-116.89875,34.30853],[-116.89864,34.30891],[-116.89862,34.30905]]}}]}