{"type":"FeatureCollection","features":[{"type":"Feature","properties":{"name":"Stonebridge Road","road_class":"track","surface":"unpaved","source":"Caltrans All Roads + OpenStreetMap explicit surface","source_detail":"osm way 5966791; Caltrans All Roads public-network geometry match","source_tile":"179/412","public_network_source":"Caltrans All Roads (ARNOLD/HPMS)","surface_source":"OpenStreetMap explicit surface tag","caltrans_match_coverage":1.0,"verified_length_m":3368},"geometry":{"type":"LineString","coordinates":[[-117.0135,33.13883],[-117.01344,33.13866],[-117.01327,33.13842],[-117.01315,33.13834],[-117.01248,33.13832],[-117.01237,33.13834],[-117.01208,33.13845],[-117.01202,33.13849],[-117.01185,33.13866],[-117.0116,33.13878],[-117.01121,33.13893],[-117.01104,33.13907],[-117.01098,33.13916],[-117.01095,33.13924],[-117.01094,33.13947],[-117.01089,33.13963],[-117.01089,33.13971],[-117.01096,33.13991],[-117.01119,33.14019],[-117.01122,33.14027],[-117.01122,33.14041],[-117.01108,33.14061],[-117.01102,33.14072],[-117.01091,33.1413],[-117.01091,33.14135],[-117.01092,33.14144],[-117.01099,33.14171],[-117.01098,33.14177],[-117.01095,33.14184],[-117.01079,33.14201],[-117.01073,33.14205],[-117.01046,33.14212],[-117.01023,33.14224],[-117.01002,33.14228],[-117.00986,33.14233],[-117.00943,33.14272],[-117.00935,33.14274],[-117.00927,33.14272],[-117.00923,33.1427],[-117.00916,33.14262],[-117.00903,33.14251],[-117.00887,33.14247],[-117.00865,33.14245],[-117.00856,33.14246],[-117.00848,33.14245],[-117.00842,33.1424],[-117.00838,33.14217],[-117.00837,33.14215],[-117.00829,33.1419],[-117.00833,33.14166],[-117.00834,33.14147],[-117.0083,33.1413],[-117.00829,33.141],[-117.00857,33.14063],[-117.0088,33.14015],[-117.00886,33.13995],[-117.00885,33.13989],[-117.00877,33.13971],[-117.00857,33.13949],[-117.00854,33.13944],[-117.00854,33.13936],[-117.00889,33.13895],[-117.00892,33.13885],[-117.00889,33.13872],[-117.0089,33.1386],[-117.00901,33.13848],[-117.00905,33.13839],[-117.00904,33.13827],[-117.00895,33.13807],[-117.00898,33.13789],[-117.00896,33.13764],[-117.00891,33.1375],[-117.00889,33.13736],[-117.00893,33.13692],[-117.0089,33.13688],[-117.00871,33.13672],[-117.00852,33.13661],[-117.00845,33.13658],[-117.00832,33.13657],[-117.00821,33.13659],[-117.00797,33.13657],[-117.00777,33.13642],[-117.00752,33.13633],[-117.00745,33.13628],[-117.0074,33.13622],[-117.00735,33.13609],[-117.00735,33.13598],[-117.00744,33.13573],[-117.00744,33.1356],[-117.00737,33.13551],[-117.00703,33.13528],[-117.00692,33.13485],[-117.00684,33.13477],[-117.00679,33.13476],[-117.00666,33.13477],[-117.00655,33.13481],[-117.00645,33.13489],[-117.00639,33.13504],[-117.00645,33.13541],[-117.00638,33.1356],[-117.00628,33.13572],[-117.0062,33.13577],[-117.00607,33.13582],[-117.00602,33.13586],[-117.00599,33.13597],[-117.00614,33.13628],[-117.00614,33.13642],[-117.00611,33.13664],[-117.00606,33.13681],[-117.00615,33.13718],[-117.00611,33.13725],[-117.00606,33.13727],[-117.00596,33.13726],[-117.00589,33.13719],[-117.00582,33.1371],[-117.00574,33.13703],[-117.00537,33.13683],[-117.00527,33.13675],[-117.0052,33.13673],[-117.0051,33.13674],[-117.00488,33.13683],[-117.0047,33.13686],[-117.00455,33.13685],[-117.00426,33.13679],[-117.00404,33.13673],[-117.00394,33.13673],[-117.00376,33.13676],[-117.00356,33.13676],[-117.00334,33.13672],[-117.00317,33.13673],[-117.00297,33.13678],[-117.0027,33.13681],[-117.0023,33.1369],[-117.00206,33.13699],[-117.00179,33.13713],[-117.00087,33.13748],[-117.00081,33.13752],[-117.00071,33.13769],[-117.00063,33.13776],[-117.00049,33.13782],[-117.00033,33.13794],[-117.00018,33.13811],[-116.99996,33.13827],[-116.99965,33.13845],[-116.99911,33.13866],[-116.99899,33.13873],[-116.99865,33.13903],[-116.99851,33.13912],[-116.99846,33.13916],[-116.99827,33.13932],[-116.99808,33.13942],[-116.99744,33.13969],[-116.99718,33.13985],[-116.99683,33.14013],[-116.99657,33.14028],[-116.99626,33.14049],[-116.9958,33.14085]]}},{"type":"Feature","properties":{"name":"Black Mountain Road","road_class":"track","surface":"dirt","tracktype":"grade2","access":"yes","source":"Caltrans All Roads + OpenStreetMap explicit surface","source_detail":"osm way 5972434; Caltrans All Roads public-network geometry match","source_tile":"179/412","public_network_source":"Caltrans All Roads (ARNOLD/HPMS)","surface_source":"OpenStreetMap explicit surface tag","caltrans_match_coverage":1.0,"verified_length_m":6677},"geometry":{"type":"LineString","coordinates":[[-116.82022,33.15897],[-116.8202,33.15893],[-116.81999,33.15874],[-116.81982,33.15864],[-116.81971,33.15858],[-116.8196,33.15854],[-116.81944,33.15853],[-116.81926,33.15856],[-116.81911,33.15854],[-116.81897,33.15847],[-116.81883,33.15842],[-116.81871,33.15842],[-116.8186,33.15848],[-116.81846,33.15857],[-116.81837,33.1587],[-116.81831,33.15885],[-116.81824,33.15888],[-116.81817,33.15887],[-116.81805,33.15879],[-116.81795,33.15867],[-116.81781,33.15848],[-116.81774,33.15838],[-116.81756,33.15822],[-116.81742,33.1582],[-116.81727,33.15821],[-116.81707,33.15821],[-116.81689,33.15826],[-116.81669,33.15835],[-116.81656,33.15837],[-116.81641,33.15833],[-116.81627,33.15825],[-116.81612,33.15818],[-116.81606,33.15806],[-116.81609,33.15789],[-116.81627,33.15769],[-116.81632,33.15739],[-116.81638,33.15713],[-116.81658,33.15694],[-116.81665,33.15682],[-116.81669,33.15669],[-116.8167,33.15637],[-116.81675,33.15607],[-116.81673,33.15596],[-116.81651,33.15566],[-116.81653,33.15555],[-116.81667,33.15537],[-116.8168,33.15495],[-116.81682,33.15473],[-116.81692,33.15439],[-116.81699,33.1542],[-116.81705,33.15393],[-116.81723,33.15366],[-116.81729,33.15351],[-116.81732,33.15337],[-116.81732,33.15307],[-116.81741,33.15289],[-116.81779,33.15264],[-116.81791,33.15255],[-116.81799,33.15236],[-116.81814,33.15224],[-116.8182,33.15211],[-116.81854,33.15173],[-116.81862,33.1516],[-116.81866,33.15146],[-116.81867,33.15113],[-116.81877,33.15086],[-116.8188,33.15072],[-116.8188,33.15065],[-116.81869,33.15034],[-116.81863,33.15018],[-116.8186,33.14996],[-116.81863,33.14983],[-116.81886,33.14966],[-116.81895,33.14953],[-116.81905,33.14929],[-116.81917,33.14912],[-116.81923,33.14872],[-116.8193,33.14864],[-116.81945,33.14855],[-116.81971,33.14842],[-116.81982,33.14837],[-116.81996,33.14832],[-116.82008,33.14821],[-116.82013,33.1481],[-116.82014,33.14799],[-116.82025,33.14785],[-116.82048,33.14771],[-116.82057,33.14768],[-116.82077,33.14768],[-116.82094,33.14766],[-116.82104,33.14764],[-116.82115,33.14766],[-116.8213,33.14774],[-116.8214,33.14775],[-116.82158,33.14768],[-116.82172,33.14758],[-116.82183,33.14747],[-116.82197,33.14731],[-116.82203,33.14716],[-116.82204,33.14701],[-116.82204,33.14691],[-116.82204,33.14683],[-116.82212,33.14672],[-116.82218,33.14661],[-116.82221,33.1465],[-116.82226,33.14641],[-116.82239,33.14632],[-116.82257,33.14621],[-116.82266,33.14612],[-116.8227,33.14602],[-116.82274,33.14588],[-116.82278,33.14579],[-116.82287,33.14573],[-116.82298,33.14563],[-116.82301,33.14557],[-116.8231,33.14552],[-116.82324,33.14546],[-116.82342,33.14542],[-116.82357,33.1454],[-116.8238,33.14534],[-116.82395,33.14534],[-116.82423,33.14544],[-116.82441,33.14544],[-116.82458,33.14537],[-116.8247,33.14532],[-116.8248,33.1453],[-116.825,33.1453],[-116.82515,33.14527],[-116.82527,33.14519],[-116.8254,33.14514],[-116.82557,33.14511],[-116.82584,33.14513],[-116.82593,33.14513],[-116.82603,33.1451],[-116.82615,33.14503],[-116.82623,33.1449],[-116.82622,33.14475],[-116.82611,33.14454],[-116.826,33.14437],[-116.82591,33.14422],[-116.82584,33.14415],[-116.8258,33.1441],[-116.82577,33.14404],[-116.82575,33.14398],[-116.82567,33.14385],[-116.82566,33.14376],[-116.82574,33.14366],[-116.82578,33.14351],[-116.82574,33.1434],[-116.82564,33.14333],[-116.82555,33.14328],[-116.82532,33.14328],[-116.82503,33.14333],[-116.82428,33.1436],[-116.82397,33.14366],[-116.82378,33.14368],[-116.82366,33.14373],[-116.82356,33.1438],[-116.82346,33.14394],[-116.82333,33.14404],[-116.82316,33.14411],[-116.82303,33.14414],[-116.82281,33.14427],[-116.82262,33.14446],[-116.82235,33.1446],[-116.82217,33.14466],[-116.82189,33.14482],[-116.82169,33.14486],[-116.8215,33.14493],[-116.82137,33.145],[-116.82117,33.14514],[-116.82102,33.14521],[-116.82095,33.14521],[-116.82091,33.14517],[-116.8209,33.14505],[-116.82085,33.14483],[-116.82097,33.14457],[-116.82102,33.14439],[-116.82099,33.14422],[-116.82094,33.14416],[-116.82076,33.14405],[-116.82069,33.14395],[-116.82069,33.14387],[-116.82076,33.14378],[-116.82076,33.14367],[-116.82071,33.14362],[-116.82057,33.14356],[-116.82052,33.14347],[-116.82051,33.14338],[-116.82047,33.14327],[-116.82035,33.14317],[-116.82025,33.14308],[-116.82017,33.143],[-116.82005,33.14282],[-116.81992,33.14272],[-116.81977,33.14266],[-116.81975,33.14261],[-116.81976,33.14253],[-116.81982,33.1425],[-116.81992,33.1425],[-116.82008,33.14254],[-116.8202,33.14251],[-116.82031,33.1424],[-116.82042,33.14226],[-116.82048,33.14214],[-116.82048,33.14208],[-116.82044,33.14195],[-116.82042,33.14184],[-116.82048,33.1416],[-116.82057,33.14146],[-116.82066,33.14138],[-116.82095,33.14125],[-116.82104,33.14118],[-116.82107,33.14108],[-116.82113,33.14095],[-116.8212,33.14085],[-116.8213,33.14077],[-116.82143,33.14074],[-116.82169,33.14074],[-116.82176,33.14079],[-116.82176,33.14086],[-116.82173,33.14095],[-116.82171,33.14102],[-116.82174,33.14127],[-116.82171,33.14143],[-116.8217,33.14153],[-116.82176,33.14186],[-116.82181,33.14202],[-116.8218,33.14232],[-116.82181,33.14245],[-116.82186,33.14254],[-116.82193,33.1426],[-116.82198,33.1426],[-116.82204,33.14259],[-116.82211,33.14255],[-116.82226,33.14234],[-116.82239,33.1421],[-116.82254,33.14181],[-116.82262,33.14163],[-116.82266,33.14153],[-116.82277,33.1414],[-116.82292,33.1413],[-116.82301,33.14122],[-116.82307,33.14116],[-116.82317,33.14105],[-116.82323,33.14098],[-116.82338,33.14084],[-116.82348,33.1407],[-116.82356,33.14056],[-116.82372,33.14038],[-116.82386,33.14011],[-116.82394,33.14],[-116.82405,33.13995],[-116.82415,33.13996],[-116.82422,33.14],[-116.82431,33.14011],[-116.82441,33.14015],[-116.8245,33.14014],[-116.82461,33.14],[-116.82475,33.13992],[-116.82504,33.13988],[-116.82519,33.13989],[-116.82528,33.13988],[-116.82546,33.13975],[-116.82604,33.13952],[-116.82663,33.13924],[-116.82686,33.13919],[-116.82722,33.13916],[-116.82739,33.13919],[-116.82759,33.13928],[-116.82787,33.13933],[-116.82814,33.13941],[-116.82854,33.13945],[-116.82866,33.13943],[-116.82881,33.13938],[-116.82892,33.13932],[-116.82901,33.13932],[-116.82914,33.13933],[-116.82947,33.13946],[-116.82959,33.13957],[-116.82973,33.13967],[-116.82982,33.13978],[-116.82987,33.13995],[-116.82996,33.14009],[-116.83006,33.14022],[-116.83021,33.14037],[-116.83029,33.14065],[-116.83037,33.1408],[-116.83037,33.14088],[-116.83034,33.14102],[-116.83037,33.14108],[-116.83043,33.14116],[-116.83045,33.14125],[-116.83044,33.14138],[-116.83049,33.14149],[-116.83063,33.14162],[-116.83074,33.1418],[-116.83082,33.14187],[-116.8309,33.14199],[-116.83092,33.14216],[-116.83103,33.14229],[-116.83125,33.14243],[-116.83152,33.14255],[-116.8317,33.14259],[-116.83182,33.14268],[-116.83192,33.14279],[-116.83194,33.14294],[-116.83192,33.14336],[-116.83201,33.14348],[-116.8322,33.14355],[-116.83239,33.14357],[-116.83268,33.14357],[-116.83277,33.14356],[-116.83287,33.14353],[-116.83293,33.14346],[-116.83297,33.14335],[-116.83301,33.14297],[-116.83304,33.14285],[-116.8331,33.14273],[-116.83322,33.14254],[-116.83331,33.14236],[-116.83348,33.14197],[-116.83354,33.14187],[-116.83359,33.14177],[-116.83362,33.14168],[-116.83369,33.14149],[-116.83379,33.14137],[-116.83405,33.14124],[-116.83419,33.14114],[-116.8343,33.14095],[-116.83441,33.14086],[-116.83456,33.14073],[-116.83471,33.14046],[-116.83486,33.14031],[-116.83517,33.14009],[-116.83524,33.14001],[-116.83535,33.13978],[-116.8354,33.13931],[-116.83548,33.13917],[-116.83553,33.13907],[-116.83553,33.13889],[-116.83562,33.13873],[-116.83572,33.13858],[-116.8358,33.13837],[-116.83594,33.13816],[-116.83604,33.13803],[-116.8362,33.1379],[-116.83658,33.13753],[-116.83669,33.13738],[-116.83673,33.13726],[-116.83681,33.13678],[-116.83687,33.13666],[-116.83695,33.13657],[-116.83709,33.13648],[-116.83719,33.13644],[-116.83728,33.1364],[-116.83741,33.13628],[-116.83776,33.13598],[-116.83786,33.13583],[-116.83794,33.13564],[-116.83799,33.1355]]}},{"type":"Feature","properties":{"name":"Upper Santa Ysabel Road","road_class":"track","surface":"dirt","tracktype":"grade4","motor_vehicle":"yes","access":"yes","source":"Caltrans All Roads + OpenStreetMap explicit surface","source_detail":"osm way 5991284; Caltrans All Roads public-network geometry match","source_tile":"179/412","public_network_source":"Caltrans All Roads (ARNOLD/HPMS)","surface_source":"OpenStreetMap explicit surface tag","caltrans_match_coverage":1.0,"verified_length_m":2362},"geometry":{"type":"LineString","coordinates":[[-116.85014,33.14045],[-116.84992,33.14044],[-116.84972,33.14043],[-116.8495,33.14041],[-116.84935,33.14041],[-116.84914,33.14042],[-116.84886,33.14041],[-116.8486,33.14042],[-116.84834,33.14043],[-116.84815,33.14044],[-116.84809,33.14045],[-116.84804,33.14048],[-116.848,33.14052],[-116.84798,33.14056],[-116.84798,33.14062],[-116.84796,33.14067],[-116.84792,33.14076],[-116.84787,33.14083],[-116.84782,33.14088],[-116.84776,33.14091],[-116.8477,33.14092],[-116.84762,33.14091],[-116.84753,33.14089],[-116.84731,33.14083],[-116.84712,33.14079],[-116.84699,33.14079],[-116.84688,33.14081],[-116.84678,33.14086],[-116.84654,33.14102],[-116.84632,33.14112],[-116.84618,33.14116],[-116.84601,33.1412],[-116.84595,33.1412],[-116.84585,33.14119],[-116.84563,33.14115],[-116.84547,33.14111],[-116.84531,33.14109],[-116.84515,33.1411],[-116.84442,33.14113],[-116.84416,33.14115],[-116.84397,33.14114],[-116.84379,33.14117],[-116.84364,33.1412],[-116.8435,33.14123],[-116.84343,33.14123],[-116.84339,33.14121],[-116.84334,33.14116],[-116.84326,33.14106],[-116.84315,33.14097],[-116.84299,33.1409],[-116.84285,33.14089],[-116.84272,33.1409],[-116.84252,33.14092],[-116.84239,33.14096],[-116.84233,33.14097],[-116.84227,33.14095],[-116.84224,33.14092],[-116.84222,33.14086],[-116.84217,33.1408],[-116.84212,33.14077],[-116.84204,33.14073],[-116.84194,33.14072],[-116.84186,33.14066],[-116.84176,33.14056],[-116.84166,33.14048],[-116.84159,33.14046],[-116.84144,33.14042],[-116.84134,33.14039],[-116.84129,33.14036],[-116.84117,33.14027],[-116.84104,33.14024],[-116.84089,33.14023],[-116.84077,33.1402],[-116.84071,33.14017],[-116.84066,33.14014],[-116.84062,33.14009],[-116.84059,33.14003],[-116.84059,33.13997],[-116.84058,33.13992],[-116.84059,33.13987],[-116.84061,33.13984],[-116.84065,33.13983],[-116.84076,33.1398],[-116.84099,33.13972],[-116.84127,33.13956],[-116.8415,33.13942],[-116.84169,33.13931],[-116.84186,33.13916],[-116.84197,33.13907],[-116.84207,33.13897],[-116.84215,33.13886],[-116.84226,33.13867],[-116.8423,33.13859],[-116.84232,33.13852],[-116.8423,33.13847],[-116.84226,33.13844],[-116.84219,33.13842],[-116.84208,33.13843],[-116.84199,33.13843],[-116.84195,33.13841],[-116.84192,33.13837],[-116.84191,33.13833],[-116.84191,33.13826],[-116.84186,33.13817],[-116.84177,33.13809],[-116.84163,33.138],[-116.84157,33.13795],[-116.84155,33.13787],[-116.84153,33.13781],[-116.84146,33.13776],[-116.84131,33.13772],[-116.84117,33.13768],[-116.84098,33.13767],[-116.84088,33.13766],[-116.84079,33.13763],[-116.84073,33.13759],[-116.84065,33.13751],[-116.84056,33.13743],[-116.84047,33.1374],[-116.84037,33.13741],[-116.84025,33.13742],[-116.84012,33.13744],[-116.84007,33.13744],[-116.84004,33.13743],[-116.84,33.13739],[-116.83998,33.13733],[-116.83999,33.13726],[-116.84001,33.13721],[-116.84003,33.13718],[-116.84008,33.13711],[-116.84015,33.13701],[-116.8402,33.13691],[-116.84023,33.13681],[-116.84027,33.13672],[-116.84032,33.13666],[-116.84036,33.1366],[-116.84039,33.13656],[-116.8404,33.1365],[-116.8404,33.13644],[-116.84037,33.13639],[-116.8403,33.13633],[-116.8402,33.13628],[-116.84004,33.13622],[-116.83991,33.13621],[-116.83979,33.13622],[-116.83969,33.1362],[-116.83961,33.13616],[-116.83955,33.13613],[-116.83952,33.13609],[-116.8395,33.13605],[-116.83952,33.13601],[-116.83956,33.13598],[-116.83961,33.13595],[-116.83968,33.13592],[-116.83976,33.13586],[-116.83983,33.13579],[-116.83991,33.13572],[-116.83996,33.13563],[-116.84,33.13552],[-116.84003,33.13545],[-116.8401,33.13539],[-116.84027,33.13525],[-116.84041,33.13515],[-116.84052,33.13504],[-116.84058,33.13496],[-116.8406,33.13488],[-116.84057,33.13482],[-116.84053,33.13475],[-116.84046,33.13469],[-116.84039,33.13462],[-116.84036,33.13456],[-116.84034,33.13447],[-116.84035,33.13439],[-116.84042,33.13425],[-116.84048,33.13415],[-116.84053,33.13406],[-116.84056,33.13398],[-116.84056,33.13394],[-116.84054,33.1339],[-116.84049,33.13386],[-116.84041,33.13384],[-116.84035,33.13386],[-116.84024,33.1339],[-116.84017,33.13394],[-116.83994,33.13407],[-116.83971,33.13419],[-116.83956,33.13426],[-116.83936,33.13433],[-116.83902,33.13445],[-116.83888,33.13452],[-116.83877,33.13459],[-116.83871,33.13464],[-116.83865,33.13467],[-116.83851,33.13471],[-116.83827,33.13477],[-116.83817,33.1348],[-116.8381,33.13483],[-116.83807,33.13487],[-116.83805,33.13491],[-116.83805,33.13495],[-116.83809,33.13515],[-116.83808,33.13524],[-116.83805,33.13536],[-116.83799,33.1355]]}},{"type":"Feature","properties":{"name":"Orosco Ridge Road","road_class":"track","surface":"dirt","tracktype":"grade2","source":"Caltrans All Roads + OpenStreetMap explicit surface","source_detail":"osm way 6029477; Caltrans All Roads public-network geometry match","source_tile":"179/412","public_network_source":"Caltrans All Roads (ARNOLD/HPMS)","surface_source":"OpenStreetMap explicit surface tag","caltrans_match_coverage":1.0,"verified_length_m":4584},"geometry":{"type":"LineString","coordinates":[[-116.87941,33.1238],[-116.87948,33.124],[-116.87949,33.12427],[-116.87964,33.1254],[-116.87964,33.12575],[-116.87971,33.12607],[-116.8798,33.12625],[-116.88016,33.12673],[-116.88052,33.12719],[-116.88083,33.12765],[-116.88102,33.12788],[-116.88108,33.12801],[-116.88109,33.12811],[-116.88107,33.1282],[-116.88083,33.12866],[-116.88053,33.1296],[-116.88052,33.12969],[-116.88053,33.12995],[-116.88062,33.13047],[-116.88055,33.13067],[-116.88045,33.13128],[-116.8804,33.13139],[-116.88033,33.1315],[-116.88035,33.1316],[-116.88046,33.13171],[-116.88069,33.13187],[-116.88075,33.13192],[-116.88081,33.13203],[-116.88081,33.1322],[-116.88058,33.13261],[-116.88054,33.13274],[-116.88054,33.13306],[-116.88047,33.13335],[-116.88046,33.13348],[-116.88043,33.13359],[-116.88029,33.13382],[-116.88023,33.13404],[-116.88014,33.1342],[-116.88008,33.13424],[-116.87981,33.13436],[-116.87965,33.1344],[-116.87956,33.13445],[-116.87949,33.13453],[-116.87927,33.13469],[-116.87902,33.135],[-116.87894,33.13507],[-116.87877,33.13516],[-116.87848,33.13541],[-116.87842,33.13557],[-116.87845,33.13599],[-116.87838,33.13631],[-116.87835,33.13679],[-116.87836,33.13722],[-116.8783,33.13732],[-116.87804,33.1375],[-116.87781,33.13776],[-116.8777,33.13786],[-116.87757,33.13796],[-116.87751,33.13808],[-116.87752,33.13827],[-116.87757,33.13843],[-116.87757,33.13849],[-116.87757,33.13856],[-116.8776,33.13864],[-116.87766,33.13869],[-116.87799,33.13883],[-116.87809,33.13893],[-116.87809,33.13903],[-116.87766,33.13937],[-116.8776,33.13941],[-116.87755,33.13947],[-116.87753,33.1396],[-116.87754,33.13966],[-116.87749,33.13974],[-116.87733,33.13984],[-116.87711,33.1401],[-116.87685,33.14039],[-116.87663,33.14074],[-116.87653,33.14085],[-116.87644,33.14092],[-116.87641,33.14095],[-116.87634,33.14105],[-116.87624,33.14111],[-116.87603,33.14114],[-116.87596,33.14116],[-116.8759,33.14119],[-116.8759,33.14125],[-116.87596,33.14129],[-116.87606,33.14129],[-116.87616,33.14129],[-116.87625,33.14131],[-116.87657,33.14143],[-116.87669,33.14146],[-116.87686,33.14146],[-116.87696,33.14143],[-116.87702,33.1414],[-116.87718,33.14137],[-116.87728,33.14136],[-116.87784,33.14149],[-116.87789,33.14151],[-116.87799,33.1416],[-116.87807,33.14179],[-116.87817,33.14195],[-116.87829,33.14211],[-116.8784,33.1423],[-116.87846,33.14251],[-116.8785,33.14257],[-116.87856,33.14262],[-116.87878,33.14272],[-116.87918,33.14287],[-116.87929,33.14296],[-116.87939,33.14311],[-116.87955,33.14319],[-116.87966,33.14321],[-116.87978,33.14319],[-116.88013,33.14304],[-116.88026,33.14299],[-116.88033,33.14299],[-116.88043,33.14303],[-116.88053,33.14315],[-116.88058,33.14328],[-116.88069,33.14375],[-116.88085,33.14417],[-116.8808,33.14449],[-116.88063,33.14482],[-116.88062,33.14496],[-116.88066,33.14506],[-116.88068,33.14522],[-116.88065,33.14536],[-116.88068,33.14541],[-116.88076,33.1455],[-116.88078,33.14566],[-116.88068,33.14584],[-116.88066,33.14591],[-116.88068,33.14606],[-116.88074,33.14624],[-116.88079,33.14631],[-116.88091,33.1464],[-116.88126,33.14677],[-116.88164,33.14694],[-116.88172,33.14703],[-116.88175,33.1471],[-116.88176,33.14721],[-116.88174,33.14727],[-116.88174,33.1474],[-116.88176,33.14751],[-116.88175,33.14759],[-116.88171,33.14766],[-116.88157,33.14784],[-116.88145,33.14813],[-116.88133,33.14827],[-116.88129,33.14836],[-116.88129,33.14846],[-116.88135,33.14857],[-116.8815,33.14877],[-116.88146,33.14885],[-116.88138,33.14889],[-116.88124,33.14903],[-116.88123,33.14911],[-116.88129,33.14919],[-116.88144,33.14931],[-116.88148,33.14938],[-116.88142,33.14967],[-116.88145,33.14972],[-116.88155,33.14979],[-116.88158,33.14982],[-116.88158,33.14992],[-116.88156,33.15001],[-116.88145,33.15024],[-116.88144,33.15031],[-116.88148,33.15048],[-116.88162,33.15063],[-116.88173,33.15067],[-116.88194,33.15066],[-116.88201,33.15069],[-116.88208,33.15083],[-116.88214,33.1509],[-116.88222,33.15095],[-116.88242,33.15102],[-116.88268,33.15103],[-116.88279,33.15102],[-116.88303,33.15094],[-116.88323,33.15083],[-116.88336,33.15082],[-116.88344,33.15086],[-116.88382,33.15123],[-116.88388,33.15135],[-116.88387,33.15149],[-116.88376,33.15187],[-116.88361,33.1521],[-116.88334,33.15232],[-116.88327,33.15239],[-116.88309,33.15272],[-116.88308,33.1528],[-116.88319,33.15313],[-116.88322,33.15317],[-116.88335,33.15324],[-116.88365,33.15331],[-116.88408,33.15338],[-116.88419,33.15341],[-116.88436,33.15349],[-116.88464,33.15372],[-116.88486,33.15414],[-116.88492,33.15425],[-116.88502,33.15442],[-116.88503,33.1545],[-116.88503,33.15459],[-116.88501,33.15466],[-116.88492,33.15476],[-116.88478,33.15488],[-116.88455,33.15507],[-116.8845,33.15514],[-116.88445,33.15525],[-116.88443,33.15543],[-116.88446,33.15549],[-116.88447,33.15552]]}},{"type":"Feature","properties":{"name":"(unnamed public road)","road_class":"unclassified","surface":"unpaved","source":"Caltrans All Roads + OpenStreetMap explicit surface","source_detail":"osm way 465652550; Caltrans All Roads public-network geometry match","source_tile":"179/412","public_network_source":"Caltrans All Roads (ARNOLD/HPMS)","surface_source":"OpenStreetMap explicit surface tag","caltrans_match_coverage":0.862,"verified_length_m":7852},"geometry":{"type":"LineString","coordinates":[[-116.91023,33.14494],[-116.91029,33.14485],[-116.91047,33.14458],[-116.9108,33.14413],[-116.91094,33.14397],[-116.91105,33.14387],[-116.91132,33.14373],[-116.91143,33.14365],[-116.91147,33.14359],[-116.91151,33.14344],[-116.91163,33.1431],[-116.91213,33.14245],[-116.9124,33.14212],[-116.91265,33.14187],[-116.9128,33.14177],[-116.91308,33.14164],[-116.91345,33.14151],[-116.91389,33.14136],[-116.91419,33.14119],[-116.91453,33.14112],[-116.91472,33.14104],[-116.91503,33.14082],[-116.91517,33.14069],[-116.91528,33.1405],[-116.9154,33.1402],[-116.91576,33.13951],[-116.91584,33.13945],[-116.9159,33.13942],[-116.91598,33.13941],[-116.91661,33.13944],[-116.91672,33.13943],[-116.91691,33.13938],[-116.91707,33.13932],[-116.91733,33.13905],[-116.91758,33.13888],[-116.91814,33.13871],[-116.91841,33.13865],[-116.91863,33.13865],[-116.91883,33.13868],[-116.919,33.13873],[-116.91926,33.13887],[-116.91996,33.13935],[-116.92011,33.13947],[-116.92017,33.13961],[-116.9202,33.13964],[-116.92036,33.13971],[-116.92073,33.13983],[-116.92109,33.1399],[-116.92194,33.13991],[-116.9221,33.13988],[-116.92241,33.13974],[-116.92259,33.13972],[-116.9228,33.13973],[-116.92301,33.13968],[-116.9232,33.13974],[-116.92351,33.13993],[-116.9236,33.14005],[-116.92402,33.14042],[-116.92415,33.1406],[-116.92433,33.14075],[-116.9244,33.14087],[-116.92454,33.14105],[-116.92489,33.14124],[-116.92495,33.14131],[-116.92503,33.14143],[-116.92509,33.14174],[-116.92512,33.1418],[-116.92521,33.14188],[-116.92538,33.14196],[-116.92542,33.142],[-116.92542,33.14221],[-116.92561,33.14257],[-116.92591,33.14316],[-116.92601,33.14335],[-116.92625,33.14366],[-116.92648,33.14387],[-116.92682,33.14402],[-116.92707,33.14405],[-116.92742,33.14406],[-116.92798,33.14396],[-116.92818,33.1439],[-116.92841,33.14377],[-116.9287,33.14329],[-116.92875,33.14324],[-116.9293,33.14316],[-116.92966,33.14303],[-116.92989,33.1429],[-116.93078,33.14253],[-116.93087,33.14247],[-116.93092,33.1424],[-116.93114,33.14212],[-116.93124,33.14203],[-116.9314,33.1419],[-116.93172,33.14148],[-116.93175,33.1414],[-116.9318,33.14126],[-116.93183,33.14102],[-116.93186,33.14093],[-116.93193,33.14084],[-116.932,33.14076],[-116.93202,33.14066],[-116.93204,33.14044],[-116.93205,33.14035],[-116.93204,33.14023],[-116.932,33.14004],[-116.932,33.13966],[-116.93199,33.13951],[-116.93206,33.13935],[-116.93209,33.13921],[-116.93204,33.13892],[-116.93205,33.13877],[-116.93287,33.13777],[-116.93302,33.13767],[-116.93337,33.13753],[-116.93343,33.13746],[-116.93352,33.13726],[-116.93359,33.13701],[-116.93388,33.13655],[-116.93393,33.13649],[-116.93395,33.13629],[-116.93406,33.13577],[-116.93433,33.13487],[-116.93442,33.13467],[-116.93453,33.13455],[-116.93454,33.13449],[-116.9346,33.13431],[-116.93466,33.13423],[-116.93469,33.1342],[-116.93522,33.13386],[-116.93545,33.13376],[-116.93601,33.13358],[-116.93629,33.13354],[-116.9365,33.13348],[-116.93663,33.13347],[-116.93686,33.1335],[-116.93723,33.1337],[-116.93737,33.13387],[-116.93746,33.13397],[-116.9376,33.13401],[-116.93772,33.13402],[-116.93778,33.13405],[-116.93783,33.13412],[-116.9379,33.13438],[-116.93797,33.13464],[-116.938,33.1347],[-116.93808,33.1348],[-116.93893,33.13442],[-116.9397,33.13413],[-116.93997,33.134],[-116.94005,33.13397],[-116.94015,33.134],[-116.94017,33.13407],[-116.94034,33.13437],[-116.94037,33.13449],[-116.94045,33.13461],[-116.94067,33.13481],[-116.94078,33.13489],[-116.94091,33.13492],[-116.94105,33.13489],[-116.9411,33.13485],[-116.94121,33.13473],[-116.94129,33.13469],[-116.94137,33.13469],[-116.94153,33.13476],[-116.9417,33.13549],[-116.94163,33.13575],[-116.94161,33.13597],[-116.94165,33.1361],[-116.9418,33.13641],[-116.94212,33.13664],[-116.94254,33.13672],[-116.94279,33.13688],[-116.94279,33.13702],[-116.94278,33.13725],[-116.94269,33.13739],[-116.94266,33.13753],[-116.94268,33.13786],[-116.94265,33.13797],[-116.94263,33.13814],[-116.94267,33.13849],[-116.94272,33.13869],[-116.94284,33.13884],[-116.94301,33.13914],[-116.94324,33.13969],[-116.94328,33.14001],[-116.94329,33.14005],[-116.94328,33.14014],[-116.94325,33.14029],[-116.94321,33.14043],[-116.94321,33.14051],[-116.94323,33.14059],[-116.94323,33.14068],[-116.94324,33.14074],[-116.94323,33.14088],[-116.94317,33.14111],[-116.94299,33.14179],[-116.94298,33.14187],[-116.94299,33.14194],[-116.94299,33.1423],[-116.94309,33.14245],[-116.94322,33.1425],[-116.94328,33.14256],[-116.94337,33.1426],[-116.94341,33.14261],[-116.94351,33.1426],[-116.94367,33.14264],[-116.94371,33.14265],[-116.94377,33.14273],[-116.94376,33.14276],[-116.94374,33.14279],[-116.94369,33.14281],[-116.94321,33.14312],[-116.94301,33.14332],[-116.94275,33.14376],[-116.94264,33.14399],[-116.94261,33.14426],[-116.94252,33.14454],[-116.9425,33.14473],[-116.94251,33.14476],[-116.94252,33.1448],[-116.94254,33.14483],[-116.94255,33.14487],[-116.94258,33.14491],[-116.94259,33.14495],[-116.94292,33.14557],[-116.943,33.14584],[-116.94302,33.14598],[-116.94306,33.14626],[-116.94306,33.14629],[-116.9431,33.14637],[-116.9431,33.14639],[-116.94315,33.14648],[-116.9432,33.14653],[-116.94328,33.14658],[-116.94335,33.1466],[-116.94342,33.14662],[-116.94361,33.14664],[-116.94364,33.14665],[-116.94368,33.14665],[-116.9438,33.14662],[-116.94393,33.14658],[-116.94396,33.14657],[-116.944,33.14657],[-116.94405,33.14657],[-116.9441,33.14663],[-116.9441,33.14668],[-116.94409,33.14672],[-116.94402,33.14678],[-116.94399,33.14681],[-116.94398,33.14682],[-116.94394,33.14685],[-116.94392,33.14688],[-116.94381,33.14705],[-116.94373,33.14735],[-116.94373,33.1474],[-116.94371,33.14747],[-116.94367,33.14758],[-116.94366,33.14762],[-116.94366,33.14766],[-116.94388,33.14817],[-116.94406,33.14849],[-116.94412,33.14875],[-116.94424,33.14906],[-116.94434,33.14924],[-116.94438,33.1494],[-116.94461,33.15049],[-116.94469,33.15084],[-116.94472,33.15091],[-116.94483,33.15104],[-116.94507,33.15142],[-116.94524,33.15195],[-116.94538,33.15262],[-116.94537,33.15329],[-116.94535,33.15335],[-116.94535,33.15343],[-116.94536,33.15347],[-116.94537,33.15351],[-116.94537,33.15355],[-116.94545,33.15391],[-116.9455,33.154],[-116.94557,33.154],[-116.94565,33.15399],[-116.94572,33.154],[-116.94577,33.154],[-116.94583,33.154],[-116.94588,33.15408],[-116.94588,33.15414],[-116.94588,33.15418],[-116.94578,33.15433],[-116.94574,33.15439],[-116.94569,33.1545],[-116.94566,33.15454],[-116.94528,33.15495],[-116.94497,33.15539],[-116.94495,33.15542],[-116.94491,33.15559],[-116.94487,33.1557],[-116.94475,33.15612],[-116.94468,33.15643],[-116.94461,33.15657],[-116.94453,33.15677],[-116.94447,33.15701],[-116.94446,33.15705],[-116.94441,33.15734],[-116.94442,33.15752],[-116.94442,33.1576],[-116.94441,33.15764],[-116.94438,33.15771],[-116.94433,33.15777],[-116.9443,33.1578],[-116.94426,33.15783],[-116.94423,33.15785],[-116.94412,33.15788],[-116.94408,33.1579],[-116.94404,33.15791],[-116.94382,33.15805],[-116.94381,33.15809],[-116.94378,33.15813],[-116.94372,33.15824],[-116.94367,33.15839],[-116.94362,33.15863],[-116.94365,33.15871],[-116.94367,33.15882],[-116.94373,33.1591],[-116.94373,33.15914],[-116.94371,33.15922],[-116.94368,33.1593],[-116.94365,33.15937],[-116.94362,33.15945],[-116.94361,33.15948],[-116.94336,33.16016],[-116.94328,33.16031],[-116.94321,33.16037],[-116.94314,33.1604],[-116.9431,33.1604],[-116.94305,33.1604],[-116.943,33.1604],[-116.94296,33.16038],[-116.94288,33.16034],[-116.94286,33.16031],[-116.94272,33.16021],[-116.94258,33.16018],[-116.94252,33.16019],[-116.94244,33.16027],[-116.94241,33.16036],[-116.94241,33.16042]]}},{"type":"Feature","properties":{"name":"Old Yucca Trail","road_class":"track","surface":"unpaved","source":"Caltrans All Roads + OpenStreetMap explicit surface","source_detail":"osm way 5967648; Caltrans All Roads public-network geometry match","source_tile":"179/412","public_network_source":"Caltrans All Roads (ARNOLD/HPMS)","surface_source":"OpenStreetMap explicit surface tag","caltrans_match_coverage":0.973,"verified_length_m":1111},"geometry":{"type":"LineString","coordinates":[[-116.96767,33.13774],[-116.96775,33.13769],[-116.96783,33.13761],[-116.96798,33.13741],[-116.96832,33.13695],[-116.96835,33.13689],[-116.9684,33.13667],[-116.96843,33.136],[-116.96854,33.13592],[-116.96878,33.13577],[-116.96884,33.13553],[-116.96908,33.13539],[-116.96939,33.1351],[-116.96946,33.13495],[-116.96945,33.13484],[-116.96938,33.13477],[-116.96909,33.13462],[-116.96893,33.13442],[-116.96888,33.13433],[-116.96862,33.13409],[-116.96846,33.13376],[-116.96847,33.13352],[-116.9681,33.13305],[-116.96805,33.13288],[-116.96803,33.13271],[-116.96814,33.13258],[-116.96882,33.1323],[-116.96899,33.13219],[-116.96916,33.13194],[-116.96943,33.13143],[-116.96955,33.13096],[-116.96962,33.13067],[-116.96969,33.13054],[-116.96976,33.13021],[-116.9693,33.12933]]}},{"type":"Feature","properties":{"name":"Black Canyon Road","road_class":"unclassified","surface":"dirt","tracktype":"grade2","source":"Caltrans All Roads + OpenStreetMap explicit surface","source_detail":"osm way 832043195; Caltrans All Roads public-network geometry match","source_tile":"179/412","public_network_source":"Caltrans All Roads (ARNOLD/HPMS)","surface_source":"OpenStreetMap explicit surface tag","caltrans_match_coverage":1.0,"verified_length_m":3275},"geometry":{"type":"LineString","coordinates":[[-116.80185,33.12409],[-116.80189,33.12413],[-116.80191,33.12417],[-116.80192,33.12425],[-116.80193,33.12436],[-116.80192,33.12446],[-116.80191,33.12458],[-116.80191,33.12465],[-116.80194,33.12471],[-116.80213,33.12489],[-116.80218,33.12494],[-116.80221,33.125],[-116.80221,33.12508],[-116.80214,33.12546],[-116.80213,33.12556],[-116.80215,33.12569],[-116.80222,33.12578],[-116.80227,33.12591],[-116.80228,33.12602],[-116.80226,33.12615],[-116.80223,33.12625],[-116.80219,33.12634],[-116.80213,33.12643],[-116.80206,33.12652],[-116.8019,33.12664],[-116.80171,33.12676],[-116.80165,33.12682],[-116.80165,33.12691],[-116.80168,33.12701],[-116.80167,33.12707],[-116.80163,33.12719],[-116.80154,33.12732],[-116.80148,33.12745],[-116.80141,33.12751],[-116.80128,33.12759],[-116.80109,33.12765],[-116.80078,33.12771],[-116.8005,33.12779],[-116.80003,33.12797],[-116.79948,33.12819],[-116.79933,33.12823],[-116.7992,33.12825],[-116.79905,33.12826],[-116.79897,33.12828],[-116.79892,33.12833],[-116.79891,33.12839],[-116.79894,33.12855],[-116.79896,33.12878],[-116.79894,33.12901],[-116.79887,33.12923],[-116.79866,33.12949],[-116.79852,33.1296],[-116.79842,33.12967],[-116.79826,33.12977],[-116.7981,33.12991],[-116.79797,33.13008],[-116.79789,33.13016],[-116.79781,33.13021],[-116.79771,33.13027],[-116.79759,33.13034],[-116.79743,33.1304],[-116.79709,33.13047],[-116.7968,33.13052],[-116.79664,33.13055],[-116.79644,33.13054],[-116.7963,33.13053],[-116.79616,33.13049],[-116.79604,33.13047],[-116.79597,33.13046],[-116.79583,33.13046],[-116.7957,33.13048],[-116.79555,33.13055],[-116.79541,33.1306],[-116.79517,33.13067],[-116.79486,33.13073],[-116.79449,33.13081],[-116.79427,33.13087],[-116.7941,33.13092],[-116.79402,33.13098],[-116.79393,33.13114],[-116.79383,33.13137],[-116.79371,33.13168],[-116.79334,33.13219],[-116.79327,33.13231],[-116.79306,33.13291],[-116.79301,33.13298],[-116.79293,33.13303],[-116.79276,33.13309],[-116.7927,33.13314],[-116.79262,33.13327],[-116.79231,33.13359],[-116.79215,33.1338],[-116.79208,33.13393],[-116.79189,33.13425],[-116.79175,33.13439],[-116.79154,33.13461],[-116.79149,33.13472],[-116.79152,33.13496],[-116.79147,33.13507],[-116.79142,33.13515],[-116.79135,33.13527],[-116.79121,33.13544],[-116.79117,33.13556],[-116.79118,33.13572],[-116.79117,33.13579],[-116.79114,33.13586],[-116.79109,33.1359],[-116.79098,33.13598],[-116.79094,33.13604],[-116.79095,33.1361],[-116.79099,33.13617],[-116.79102,33.13622],[-116.79104,33.13631],[-116.79102,33.13644],[-116.79099,33.13652],[-116.79092,33.13667],[-116.79084,33.13678],[-116.79076,33.13701],[-116.7907,33.13727],[-116.79068,33.13734],[-116.79064,33.13741],[-116.79059,33.13746],[-116.79044,33.1376],[-116.79037,33.13766],[-116.79035,33.1377],[-116.79034,33.13776],[-116.79034,33.13784],[-116.79033,33.13796],[-116.79029,33.13807],[-116.79019,33.13818],[-116.79005,33.13832],[-116.78991,33.1384],[-116.7898,33.1385],[-116.7896,33.13868],[-116.78953,33.13876],[-116.78949,33.13885],[-116.78949,33.13895],[-116.78952,33.13907],[-116.78952,33.13914],[-116.78947,33.13932],[-116.78938,33.13949],[-116.78926,33.13969],[-116.78911,33.13989],[-116.78901,33.13999],[-116.78891,33.14012],[-116.78886,33.14024],[-116.78877,33.14043],[-116.78871,33.14059],[-116.78868,33.14066],[-116.78864,33.14072],[-116.78854,33.14078],[-116.78843,33.14083],[-116.78825,33.14086],[-116.78798,33.14089],[-116.78784,33.1409],[-116.78736,33.14092],[-116.78682,33.14099],[-116.78655,33.14102],[-116.78641,33.14103],[-116.78633,33.14106],[-116.78629,33.1411],[-116.78626,33.14115],[-116.78627,33.1412],[-116.78635,33.14129],[-116.78685,33.14152],[-116.78706,33.14164],[-116.78716,33.14169],[-116.78732,33.14182],[-116.78752,33.14202],[-116.78754,33.14205],[-116.7876,33.1421],[-116.78764,33.14213],[-116.78785,33.14227],[-116.7881,33.14238],[-116.78824,33.14247],[-116.78835,33.14263],[-116.78844,33.14281],[-116.78857,33.14298],[-116.78862,33.14309],[-116.78863,33.14317],[-116.78859,33.14326],[-116.78851,33.1434],[-116.78834,33.1436],[-116.78826,33.1437],[-116.78822,33.14379],[-116.78823,33.14383],[-116.78827,33.14388],[-116.78834,33.14392],[-116.78843,33.14394],[-116.7885,33.14399],[-116.78853,33.14404],[-116.78853,33.14412],[-116.78852,33.14418],[-116.78846,33.14425],[-116.78827,33.14437],[-116.78811,33.14446]]}},{"type":"Feature","properties":{"name":"Orosco Ridge Road","road_class":"track","surface":"dirt","tracktype":"grade2","source":"Caltrans All Roads + OpenStreetMap explicit surface","source_detail":"osm way 5967744; Caltrans All Roads public-network geometry match","source_tile":"179/412","public_network_source":"Caltrans All Roads (ARNOLD/HPMS)","surface_source":"OpenStreetMap explicit surface tag","caltrans_match_coverage":0.993,"verified_length_m":4494},"geometry":{"type":"LineString","coordinates":[[-116.87941,33.1238],[-116.87885,33.12413],[-116.87869,33.1242],[-116.87853,33.12422],[-116.87789,33.12443],[-116.87781,33.12443],[-116.87683,33.1246],[-116.87675,33.1246],[-116.87643,33.12454],[-116.87624,33.12443],[-116.87601,33.12434],[-116.87581,33.12427],[-116.87542,33.1243],[-116.87527,33.12425],[-116.87523,33.12422],[-116.87519,33.12415],[-116.87523,33.12365],[-116.87521,33.12347],[-116.87515,33.12333],[-116.87509,33.12327],[-116.87495,33.12319],[-116.87478,33.12315],[-116.87465,33.12315],[-116.8742,33.12318],[-116.87405,33.12315],[-116.87317,33.12255],[-116.87308,33.12251],[-116.87258,33.12252],[-116.87247,33.12249],[-116.87223,33.12233],[-116.87201,33.12224],[-116.87188,33.12221],[-116.87176,33.12219],[-116.87141,33.12206],[-116.87135,33.12203],[-116.87125,33.1219],[-116.87124,33.12186],[-116.87119,33.1218],[-116.8711,33.12177],[-116.87097,33.12164],[-116.87093,33.12157],[-116.87084,33.12149],[-116.87067,33.12139],[-116.87057,33.12126],[-116.87057,33.12109],[-116.87031,33.12023],[-116.87031,33.12008],[-116.87028,33.11996],[-116.86975,33.11856],[-116.86974,33.11851],[-116.86976,33.11845],[-116.86982,33.11838],[-116.8699,33.11823],[-116.86993,33.11811],[-116.87006,33.11795],[-116.87009,33.11788],[-116.87009,33.11781],[-116.87002,33.11755],[-116.87002,33.11745],[-116.87005,33.11728],[-116.87006,33.11718],[-116.87003,33.11704],[-116.87012,33.1169],[-116.87016,33.11682],[-116.87019,33.11669],[-116.87013,33.11657],[-116.87002,33.11649],[-116.86961,33.11636],[-116.86945,33.11633],[-116.86901,33.11637],[-116.86878,33.11637],[-116.86852,33.11634],[-116.86823,33.11626],[-116.86817,33.11621],[-116.86815,33.11617],[-116.86816,33.11611],[-116.86825,33.11594],[-116.86827,33.11583],[-116.86826,33.1158],[-116.86818,33.11575],[-116.86776,33.1156],[-116.86745,33.11552],[-116.86719,33.11543],[-116.86714,33.11535],[-116.86717,33.11528],[-116.86725,33.11522],[-116.86736,33.11518],[-116.86758,33.11508],[-116.86761,33.11501],[-116.86756,33.1145],[-116.86752,33.11444],[-116.86735,33.11427],[-116.86719,33.11416],[-116.867,33.11408],[-116.86678,33.11395],[-116.86663,33.11388],[-116.86622,33.11375],[-116.86614,33.1137],[-116.8659,33.11347],[-116.86568,33.11308],[-116.86566,33.11291],[-116.86559,33.11279],[-116.86549,33.11275],[-116.8654,33.11277],[-116.86535,33.1128],[-116.8653,33.11287],[-116.86527,33.113],[-116.86514,33.11326],[-116.86514,33.11354],[-116.86508,33.11361],[-116.86493,33.11373],[-116.86476,33.11392],[-116.86471,33.11395],[-116.86422,33.11413],[-116.86392,33.11419],[-116.8637,33.11421],[-116.86358,33.11419],[-116.86354,33.11413],[-116.86354,33.11408],[-116.86356,33.11403],[-116.86381,33.1139],[-116.86404,33.11387],[-116.86414,33.11382],[-116.8644,33.11346],[-116.86439,33.11341],[-116.86431,33.11332],[-116.86415,33.11327],[-116.86375,33.11306],[-116.86342,33.11282],[-116.86304,33.11259],[-116.86275,33.11237],[-116.86269,33.11234],[-116.86247,33.11229],[-116.86233,33.11222],[-116.86216,33.11209],[-116.86166,33.11192],[-116.8615,33.11184],[-116.86143,33.11173],[-116.86134,33.11169],[-116.86117,33.11165],[-116.86094,33.11147],[-116.86062,33.11138],[-116.8605,33.11126],[-116.86045,33.11113],[-116.86045,33.11102],[-116.8604,33.11093],[-116.86011,33.11077],[-116.86005,33.11071],[-116.86002,33.1106],[-116.86003,33.11048],[-116.86006,33.11042],[-116.86019,33.11028],[-116.86024,33.11019],[-116.86022,33.11008],[-116.86013,33.10992],[-116.85998,33.10976],[-116.85987,33.1095],[-116.85962,33.10915],[-116.85956,33.10892],[-116.85944,33.10881],[-116.85918,33.10865],[-116.85902,33.10853],[-116.85899,33.10844],[-116.85901,33.10835],[-116.85908,33.10823],[-116.85919,33.10788],[-116.85928,33.10767],[-116.85928,33.10756],[-116.85921,33.10751],[-116.85911,33.1075],[-116.85905,33.10753],[-116.85901,33.10761],[-116.859,33.1077],[-116.85902,33.10777],[-116.85901,33.10786],[-116.85896,33.10793],[-116.85879,33.10806],[-116.85863,33.10813],[-116.85845,33.10817],[-116.85838,33.10817],[-116.85829,33.1082],[-116.85822,33.10829],[-116.85819,33.10856],[-116.85811,33.10886],[-116.85814,33.10909],[-116.85815,33.1092],[-116.85812,33.10932],[-116.85806,33.10939],[-116.85797,33.1094],[-116.85789,33.10936],[-116.85786,33.10929],[-116.85788,33.10921],[-116.85787,33.10912],[-116.85784,33.10902],[-116.85764,33.10871],[-116.85762,33.10863],[-116.85762,33.10854],[-116.85759,33.10842],[-116.85735,33.10803],[-116.85737,33.10777],[-116.85744,33.10768],[-116.85749,33.10766],[-116.85753,33.10762],[-116.85755,33.10755],[-116.85756,33.10724],[-116.85757,33.10709],[-116.85762,33.10698],[-116.8578,33.10671],[-116.85784,33.10659],[-116.85783,33.10651],[-116.85777,33.10628],[-116.85773,33.10613],[-116.85769,33.106],[-116.85762,33.10572],[-116.8576,33.10564],[-116.85762,33.10561],[-116.85769,33.10556],[-116.85787,33.10548],[-116.85815,33.10537],[-116.85831,33.10529],[-116.8584,33.10524],[-116.85845,33.10519]]}},{"type":"Feature","properties":{"name":"Upper Santa Ysabel Road","road_class":"track","surface":"dirt","tracktype":"grade4","source":"Caltrans All Roads + OpenStreetMap explicit surface","source_detail":"osm way 5969881; Caltrans All Roads public-network geometry match","source_tile":"179/412","public_network_source":"Caltrans All Roads (ARNOLD/HPMS)","surface_source":"OpenStreetMap explicit surface tag","caltrans_match_coverage":1.0,"verified_length_m":5765},"geometry":{"type":"LineString","coordinates":[[-116.83799,33.1355],[-116.83793,33.1355],[-116.83788,33.13552],[-116.83777,33.1356],[-116.83765,33.13575],[-116.83757,33.13583],[-116.83746,33.1359],[-116.83735,33.13596],[-116.83725,33.136],[-116.83711,33.13602],[-116.83699,33.13602],[-116.83684,33.13604],[-116.83673,33.13609],[-116.83665,33.13614],[-116.83657,33.13621],[-116.83651,33.13629],[-116.83648,33.13632],[-116.83643,33.13635],[-116.83636,33.13636],[-116.83628,33.13633],[-116.83622,33.13628],[-116.83601,33.13606],[-116.8358,33.13582],[-116.83571,33.13573],[-116.83564,33.13569],[-116.83558,33.13566],[-116.83548,33.13565],[-116.8353,33.13563],[-116.83515,33.13563],[-116.83504,33.13567],[-116.83479,33.13578],[-116.83462,33.13587],[-116.83451,33.13592],[-116.83444,33.13599],[-116.8343,33.13613],[-116.83419,33.13619],[-116.83407,33.13625],[-116.83388,33.1363],[-116.83379,33.13632],[-116.83372,33.1363],[-116.83366,33.13628],[-116.83365,33.13625],[-116.83364,33.13619],[-116.83366,33.13608],[-116.83374,33.13577],[-116.83378,33.13551],[-116.83381,33.13522],[-116.83386,33.13471],[-116.83391,33.13456],[-116.83392,33.13448],[-116.83389,33.13435],[-116.83385,33.13421],[-116.83383,33.13401],[-116.83379,33.13392],[-116.83367,33.1337],[-116.83365,33.13362],[-116.83365,33.13356],[-116.83368,33.1335],[-116.83378,33.13343],[-116.83386,33.13339],[-116.83392,33.13335],[-116.83395,33.13328],[-116.83396,33.13317],[-116.83402,33.13308],[-116.83412,33.133],[-116.83421,33.13289],[-116.83425,33.13278],[-116.83425,33.1327],[-116.83412,33.13238],[-116.83406,33.13226],[-116.83399,33.1319],[-116.83391,33.13176],[-116.83381,33.13161],[-116.83375,33.13149],[-116.83372,33.13139],[-116.83373,33.13127],[-116.83373,33.13118],[-116.83373,33.13108],[-116.83374,33.13101],[-116.83377,33.13092],[-116.83385,33.13082],[-116.83391,33.13069],[-116.83393,33.13057],[-116.83394,33.1305],[-116.83393,33.13042],[-116.83389,33.13034],[-116.83385,33.13022],[-116.83383,33.13008],[-116.83382,33.13],[-116.83382,33.12994],[-116.83385,33.12981],[-116.83387,33.12975],[-116.83387,33.12967],[-116.83383,33.1296],[-116.83372,33.12948],[-116.83361,33.12938],[-116.83356,33.12928],[-116.83346,33.12911],[-116.83338,33.12897],[-116.83325,33.12876],[-116.8332,33.12869],[-116.83315,33.12866],[-116.83305,33.12861],[-116.83302,33.12855],[-116.83299,33.1285],[-116.83293,33.12842],[-116.83277,33.12826],[-116.83263,33.12808],[-116.83251,33.12791],[-116.83244,33.12778],[-116.83235,33.12762],[-116.83226,33.12753],[-116.83205,33.12743],[-116.83188,33.12737],[-116.83176,33.1274],[-116.83168,33.12739],[-116.83159,33.12736],[-116.83145,33.12735],[-116.83134,33.12737],[-116.83119,33.12742],[-116.83092,33.12757],[-116.83076,33.12764],[-116.83059,33.12776],[-116.83037,33.12786],[-116.83024,33.12796],[-116.83016,33.128],[-116.83007,33.12801],[-116.83002,33.128],[-116.82999,33.12799],[-116.82995,33.12795],[-116.8299,33.1279],[-116.82982,33.12783],[-116.82973,33.1278],[-116.8296,33.12779],[-116.82935,33.12776],[-116.82928,33.12776],[-116.8292,33.1278],[-116.82915,33.12784],[-116.82908,33.12787],[-116.82901,33.12788],[-116.82894,33.12787],[-116.8288,33.12784],[-116.8287,33.12783],[-116.82848,33.12789],[-116.82837,33.12788],[-116.82825,33.12782],[-116.82817,33.12782],[-116.82807,33.12785],[-116.82794,33.12784],[-116.82784,33.12787],[-116.82777,33.1279],[-116.8277,33.12791],[-116.82763,33.12786],[-116.82759,33.12777],[-116.82753,33.12772],[-116.82745,33.1277],[-116.82717,33.12767],[-116.82706,33.12768],[-116.82696,33.12772],[-116.82683,33.12774],[-116.82674,33.12773],[-116.82663,33.12769],[-116.82652,33.12765],[-116.82639,33.12766],[-116.82629,33.12765],[-116.82606,33.12752],[-116.82597,33.12744],[-116.8259,33.1274],[-116.82583,33.12738],[-116.82566,33.12732],[-116.82549,33.1273],[-116.82532,33.12729],[-116.8252,33.1273],[-116.82508,33.12734],[-116.82496,33.12739],[-116.82491,33.12741],[-116.82482,33.12741],[-116.82463,33.12739],[-116.82437,33.12738],[-116.82411,33.12734],[-116.82402,33.12734],[-116.82391,33.12736],[-116.82383,33.1274],[-116.82377,33.12743],[-116.82373,33.12745],[-116.8237,33.12745],[-116.82363,33.12744],[-116.82357,33.12742],[-116.82347,33.12741],[-116.82335,33.12737],[-116.82309,33.12723],[-116.82293,33.12714],[-116.82287,33.12712],[-116.82281,33.12712],[-116.82278,33.12714],[-116.82277,33.12717],[-116.82274,33.12725],[-116.82269,33.12737],[-116.82264,33.12746],[-116.82258,33.12753],[-116.8225,33.12755],[-116.82243,33.12753],[-116.82232,33.12743],[-116.82211,33.12727],[-116.82192,33.12717],[-116.82184,33.12707],[-116.82175,33.12703],[-116.82166,33.12703],[-116.82158,33.12704],[-116.82143,33.12713],[-116.82134,33.12716],[-116.82124,33.12715],[-116.82091,33.127],[-116.82076,33.12695],[-116.82069,33.12693],[-116.82059,33.12693],[-116.82051,33.12693],[-116.82042,33.12697],[-116.82033,33.12703],[-116.82029,33.12707],[-116.82019,33.12708],[-116.82008,33.12707],[-116.81996,33.12709],[-116.81981,33.12707],[-116.81967,33.12705],[-116.81955,33.12706],[-116.81933,33.12714],[-116.8192,33.12724],[-116.81906,33.12728],[-116.81893,33.1273],[-116.81888,33.12728],[-116.81882,33.12724],[-116.81876,33.12719],[-116.81872,33.12716],[-116.81866,33.12715],[-116.81858,33.12714],[-116.81839,33.12723],[-116.81803,33.12739],[-116.81786,33.12745],[-116.81773,33.12747],[-116.81767,33.12745],[-116.81763,33.1274],[-116.81762,33.1273],[-116.81764,33.12723],[-116.81776,33.12703],[-116.81783,33.1269],[-116.81786,33.12681],[-116.81786,33.12673],[-116.81783,33.12663],[-116.81784,33.12659],[-116.81792,33.12653],[-116.81794,33.1265],[-116.81796,33.12645],[-116.81795,33.12637],[-116.81791,33.12622],[-116.81784,33.12605],[-116.8178,33.12598],[-116.81773,33.1259],[-116.81762,33.1258],[-116.81747,33.12569],[-116.81743,33.12564],[-116.81742,33.12561],[-116.81746,33.12554],[-116.81752,33.12546],[-116.81754,33.12542],[-116.81757,33.12529],[-116.81757,33.12516],[-116.81754,33.12506],[-116.8175,33.12497],[-116.81743,33.12491],[-116.81735,33.12485],[-116.81726,33.12477],[-116.81719,33.12468],[-116.81713,33.12451],[-116.81712,33.12442],[-116.81713,33.12438],[-116.81717,33.12422],[-116.81721,33.12406],[-116.81723,33.12399],[-116.81722,33.1239],[-116.81718,33.12382],[-116.81714,33.12376],[-116.8171,33.12373],[-116.81701,33.1237],[-116.81686,33.12369],[-116.8166,33.1237],[-116.81637,33.12371],[-116.81625,33.12372],[-116.81615,33.12372],[-116.81606,33.12374],[-116.81591,33.1238],[-116.81569,33.12389],[-116.81504,33.12413],[-116.81482,33.12422],[-116.8147,33.12426],[-116.81466,33.12427],[-116.81462,33.12425],[-116.81458,33.12422],[-116.81455,33.1242],[-116.81453,33.12417],[-116.81444,33.12411],[-116.81434,33.12409],[-116.81427,33.12412],[-116.81414,33.1242],[-116.81405,33.12422],[-116.81399,33.12425],[-116.81393,33.12433],[-116.8139,33.12439],[-116.81387,33.12442],[-116.81383,33.12443],[-116.81378,33.12443],[-116.81375,33.12442],[-116.81372,33.12439],[-116.81367,33.1242],[-116.81366,33.12416],[-116.81363,33.12412],[-116.81359,33.12409],[-116.81355,33.12406],[-116.81331,33.12398],[-116.81314,33.12389],[-116.81299,33.12381],[-116.81275,33.12371],[-116.81256,33.1236],[-116.81238,33.12352],[-116.81217,33.1234],[-116.81206,33.12332],[-116.812,33.12328],[-116.81197,33.12323],[-116.8119,33.12309],[-116.81178,33.12299],[-116.81166,33.12289],[-116.81156,33.12283],[-116.81142,33.12279],[-116.81124,33.12278],[-116.8111,33.12275],[-116.81099,33.12273],[-116.81082,33.12267],[-116.81061,33.12257],[-116.81053,33.12254],[-116.81041,33.12252],[-116.81018,33.12253],[-116.80999,33.12257],[-116.80967,33.12264],[-116.80932,33.12282],[-116.80898,33.123],[-116.80893,33.12305],[-116.80889,33.1231],[-116.80883,33.12324],[-116.80875,33.12341],[-116.80872,33.1236],[-116.8087,33.12368],[-116.80867,33.12375],[-116.80862,33.12383],[-116.80857,33.12395],[-116.80856,33.12408],[-116.80857,33.12428],[-116.80857,33.12438],[-116.80857,33.1245],[-116.80859,33.12467],[-116.8086,33.12477],[-116.8086,33.12486],[-116.80859,33.12491],[-116.80858,33.12498],[-116.80858,33.12502],[-116.80857,33.1251],[-116.80855,33.12515],[-116.80852,33.12522],[-116.80845,33.12545],[-116.8084,33.12565],[-116.80837,33.1257],[-116.80834,33.12572],[-116.80823,33.12575],[-116.80813,33.12578],[-116.80805,33.12585],[-116.80796,33.12597],[-116.80789,33.12604],[-116.80773,33.12623],[-116.80763,33.12633],[-116.80756,33.12638],[-116.80749,33.1264],[-116.80729,33.12643],[-116.80715,33.12645],[-116.80702,33.12646],[-116.80673,33.12647],[-116.80653,33.12649],[-116.80644,33.12649],[-116.80636,33.12648],[-116.80628,33.12644],[-116.80621,33.12643],[-116.80616,33.12644],[-116.80609,33.12647],[-116.80604,33.12652],[-116.80597,33.12662],[-116.80588,33.12672],[-116.80585,33.12674],[-116.8058,33.12676],[-116.80571,33.12676],[-116.80562,33.12674],[-116.80547,33.12668],[-116.80541,33.12666],[-116.80533,33.12666],[-116.80526,33.12667],[-116.80509,33.12669],[-116.80494,33.12672],[-116.80478,33.12677],[-116.8047,33.12678],[-116.8046,33.12678],[-116.80441,33.12681],[-116.80412,33.12695],[-116.8039,33.12702],[-116.80376,33.12709],[-116.8037,33.1271],[-116.80365,33.12709],[-116.80354,33.12703],[-116.80343,33.12697],[-116.80337,33.12694],[-116.80333,33.12691],[-116.80332,33.12687],[-116.80334,33.12681],[-116.80337,33.1267],[-116.80342,33.12659],[-116.80348,33.12651],[-116.80367,33.12633],[-116.80377,33.12626],[-116.80399,33.12616],[-116.80407,33.12612],[-116.80411,33.12608],[-116.80413,33.12604],[-116.80414,33.12601],[-116.80412,33.12595],[-116.80409,33.1259],[-116.80403,33.12587],[-116.80373,33.12581],[-116.80352,33.12575],[-116.80335,33.12567],[-116.80321,33.12558],[-116.80314,33.12555],[-116.80302,33.12552],[-116.80297,33.1255],[-116.80295,33.12547],[-116.80293,33.1254],[-116.8029,33.12531],[-116.80286,33.12526],[-116.8028,33.12523],[-116.8027,33.12519],[-116.80264,33.12516],[-116.80262,33.12511],[-116.80259,33.12504],[-116.80258,33.125],[-116.80251,33.12489],[-116.80242,33.1248],[-116.80233,33.12472],[-116.80219,33.12468],[-116.80214,33.12465],[-116.80212,33.12461],[-116.80211,33.12454],[-116.80214,33.12443],[-116.80214,33.12429],[-116.80213,33.12421],[-116.8021,33.12416],[-116.80207,33.12413],[-116.80204,33.1241],[-116.80198,33.12407],[-116.80193,33.12407],[-116.80185,33.12409]]}},{"type":"Feature","properties":{"name":"(unnamed public road)","road_class":"track","surface":"unpaved","source":"Caltrans All Roads + OpenStreetMap explicit surface","source_detail":"osm way 5982635; Caltrans All Roads public-network geometry match","source_tile":"179/412","public_network_source":"Caltrans All Roads (ARNOLD/HPMS)","surface_source":"OpenStreetMap explicit surface tag","caltrans_match_coverage":1.0,"verified_length_m":972},"geometry":{"type":"LineString","coordinates":[[-116.79417,33.00401],[-116.79384,33.00347],[-116.79373,33.00336],[-116.79396,33.00321],[-116.79391,33.003],[-116.79369,33.00313],[-116.79358,33.00306],[-116.79351,33.00289],[-116.7935,33.00274],[-116.79356,33.00263],[-116.79367,33.00245],[-116.7937,33.00232],[-116.79368,33.00225],[-116.79363,33.0022],[-116.79354,33.00217],[-116.79329,33.00217],[-116.79249,33.00223],[-116.79222,33.00222],[-116.79204,33.00218],[-116.79193,33.00215],[-116.79138,33.00191],[-116.79124,33.0018],[-116.79118,33.00168],[-116.79117,33.00156],[-116.79122,33.00143],[-116.79144,33.00112],[-116.79148,33.00105],[-116.79152,33.0009],[-116.79148,33.00077],[-116.79139,33.00067],[-116.79118,33.00052],[-116.79092,33.0004],[-116.78963,33.00005],[-116.78948,33.0],[-116.78943,32.99995],[-116.78939,32.99987],[-116.78936,32.99964],[-116.78938,32.99945],[-116.78941,32.99934],[-116.78945,32.99923],[-116.78957,32.99897],[-116.7896,32.99888]]}},{"type":"Feature","properties":{"name":"Verdigris Valley Road","road_class":"unclassified","surface":"gravel","source":"Caltrans All Roads + OpenStreetMap explicit surface","source_detail":"osm way 6015981; Caltrans All Roads public-network geometry match","source_tile":"179/412","public_network_source":"Caltrans All Roads (ARNOLD/HPMS)","surface_source":"OpenStreetMap explicit surface tag","caltrans_match_coverage":1.0,"verified_length_m":601},"geometry":{"type":"LineString","coordinates":[[-116.96615,33.02601],[-116.96609,33.02628],[-116.96609,33.02659],[-116.96609,33.02708],[-116.96611,33.02716],[-116.96622,33.02731],[-116.96667,33.02761],[-116.96686,33.0277],[-116.96703,33.02778],[-116.96712,33.02786],[-116.96739,33.02804],[-116.96761,33.02813],[-116.96804,33.02823],[-116.96892,33.02852],[-116.96906,33.0286],[-116.96911,33.02864],[-116.96915,33.02875],[-116.96913,33.02938],[-116.9691,33.02959],[-116.96915,33.02992]]}},{"type":"Feature","properties":{"name":"Green Valley Truck Trail","road_class":"track","surface":"dirt","source":"Caltrans All Roads + OpenStreetMap explicit surface","source_detail":"osm way 6046566; Caltrans All Roads public-network geometry match","source_tile":"179/412","public_network_source":"Caltrans All Roads (ARNOLD/HPMS)","surface_source":"OpenStreetMap explicit surface tag","caltrans_match_coverage":1.0,"verified_length_m":3254},"geometry":{"type":"LineString","coordinates":[[-117.02408,33.01579],[-117.02403,33.01579],[-117.02395,33.01579],[-117.02384,33.0158],[-117.02356,33.0158],[-117.02231,33.01582],[-117.02227,33.0158],[-117.02215,33.01575],[-117.02213,33.01573],[-117.02205,33.0157],[-117.02166,33.01574],[-117.02148,33.01579],[-117.02139,33.01585],[-117.02129,33.01588],[-117.02106,33.01592],[-117.02091,33.01592],[-117.02075,33.01594],[-117.02052,33.01601],[-117.02023,33.01614],[-117.01985,33.01625],[-117.01979,33.01624],[-117.01968,33.01628],[-117.01962,33.01634],[-117.01947,33.01642],[-117.01927,33.01644],[-117.01918,33.01643],[-117.01905,33.01643],[-117.0186,33.01652],[-117.01838,33.01652],[-117.01821,33.01648],[-117.01787,33.01653],[-117.01749,33.01649],[-117.01736,33.01646],[-117.01698,33.01648],[-117.01681,33.01645],[-117.01665,33.01641],[-117.01653,33.01636],[-117.01647,33.01631],[-117.01637,33.01618],[-117.01634,33.01606],[-117.01635,33.01591],[-117.01632,33.01575],[-117.01624,33.01558],[-117.01617,33.0155],[-117.01611,33.01543],[-117.01582,33.0152],[-117.01572,33.01516],[-117.01558,33.01517],[-117.0154,33.01524],[-117.01511,33.01536],[-117.01498,33.01543],[-117.01476,33.01564],[-117.01455,33.01577],[-117.01408,33.01615],[-117.01384,33.01636],[-117.0137,33.01645],[-117.01347,33.01655],[-117.01306,33.01663],[-117.01268,33.01673],[-117.01241,33.01679],[-117.01189,33.01677],[-117.01173,33.01678],[-117.01123,33.01673],[-117.01083,33.01672],[-117.01036,33.01666],[-117.01017,33.01661],[-117.01007,33.0166],[-117.00984,33.01663],[-117.0095,33.01664],[-117.00925,33.01663],[-117.00903,33.01659],[-117.00822,33.01637],[-117.00797,33.01633],[-117.00766,33.0163],[-117.00639,33.01624],[-117.00631,33.01627],[-117.00613,33.01636],[-117.006,33.01649],[-117.00592,33.01664],[-117.00582,33.01677],[-117.00572,33.01685],[-117.00562,33.01699],[-117.00552,33.01723],[-117.00546,33.01733],[-117.00501,33.01772],[-117.00494,33.01778],[-117.00488,33.01786],[-117.00485,33.01807],[-117.00471,33.01831],[-117.00468,33.01841],[-117.00468,33.01849],[-117.00462,33.01855],[-117.00455,33.01857],[-117.00416,33.01845],[-117.00406,33.0185],[-117.00404,33.01854],[-117.00405,33.01861],[-117.00453,33.019],[-117.00457,33.01904],[-117.00468,33.01908],[-117.00477,33.01905],[-117.00484,33.01899],[-117.00499,33.01893],[-117.00509,33.01893],[-117.00521,33.01895],[-117.00553,33.01911],[-117.00565,33.0191],[-117.0061,33.01886],[-117.00625,33.01873],[-117.00631,33.01872],[-117.00637,33.01875],[-117.00639,33.01881],[-117.00629,33.01889],[-117.00613,33.01911],[-117.0061,33.01932],[-117.00611,33.01943],[-117.00616,33.01955],[-117.00614,33.01968],[-117.00607,33.01978],[-117.006,33.01981],[-117.00588,33.01984],[-117.00551,33.01981],[-117.00536,33.01984],[-117.00526,33.01988],[-117.0052,33.01992],[-117.00508,33.02008],[-117.00495,33.02016],[-117.00475,33.0202],[-117.0045,33.02015],[-117.00436,33.02016],[-117.0042,33.02025],[-117.00403,33.0204],[-117.00388,33.02047],[-117.00366,33.02051],[-117.0035,33.0205],[-117.00343,33.02049],[-117.00318,33.02048],[-117.00301,33.02045],[-117.00288,33.02041],[-117.00255,33.02036],[-117.00238,33.0204],[-117.00221,33.02039],[-117.00209,33.02042],[-117.00193,33.0205],[-117.0016,33.02052],[-117.00134,33.02061],[-117.00122,33.02069],[-117.00101,33.02086],[-117.00096,33.02094],[-117.00083,33.02103],[-117.00065,33.02107],[-117.00043,33.02115],[-117.00024,33.0213],[-117.00008,33.02149],[-117.00002,33.02163]]}},{"type":"Feature","properties":{"name":"Woodson Ridge Road","road_class":"track","surface":"unpaved","source":"Caltrans All Roads + OpenStreetMap explicit surface","source_detail":"osm way 6049616; Caltrans All Roads public-network geometry match","source_tile":"179/412","public_network_source":"Caltrans All Roads (ARNOLD/HPMS)","surface_source":"OpenStreetMap explicit surface tag","caltrans_match_coverage":1.0,"verified_length_m":685},"geometry":{"type":"LineString","coordinates":[[-116.9876,33.01467],[-116.98726,33.01437],[-116.98717,33.01425],[-116.98715,33.01414],[-116.98717,33.01405],[-116.98734,33.0138],[-116.9875,33.0137],[-116.98757,33.0136],[-116.98755,33.0135],[-116.98752,33.01347],[-116.98715,33.01327],[-116.98705,33.01317],[-116.98698,33.01315],[-116.98689,33.01315],[-116.98679,33.01319],[-116.98668,33.0132],[-116.98659,33.01317],[-116.98643,33.0131],[-116.98637,33.0131],[-116.98587,33.01328],[-116.98576,33.01329],[-116.98557,33.01328],[-116.98495,33.01332],[-116.98487,33.01337],[-116.98479,33.01335],[-116.9846,33.01316],[-116.98453,33.01303],[-116.98445,33.01298],[-116.98397,33.01291],[-116.98359,33.01295],[-116.98349,33.01292],[-116.98339,33.01285],[-116.98336,33.0128],[-116.98334,33.01266],[-116.98336,33.01261],[-116.98336,33.01248],[-116.98347,33.01231],[-116.98354,33.01228],[-116.98363,33.0122],[-116.98369,33.01217]]}},{"type":"Feature","properties":{"name":"Black Canyon Road","road_class":"unclassified","surface":"dirt","tracktype":"grade2","source":"Caltrans All Roads + OpenStreetMap explicit surface","source_detail":"osm way 122887703; Caltrans All Roads public-network geometry match","source_tile":"179/412","public_network_source":"Caltrans All Roads (ARNOLD/HPMS)","surface_source":"OpenStreetMap explicit surface tag","caltrans_match_coverage":1.0,"verified_length_m":5963},"geometry":{"type":"LineString","coordinates":[[-116.82838,33.09857],[-116.82807,33.0988],[-116.82792,33.09891],[-116.82774,33.09904],[-116.82738,33.09932],[-116.82723,33.0995],[-116.8271,33.09979],[-116.82711,33.09997],[-116.82718,33.10019],[-116.82718,33.10033],[-116.82713,33.10047],[-116.82703,33.10057],[-116.82689,33.10066],[-116.82673,33.1007],[-116.82659,33.1007],[-116.82619,33.10063],[-116.82603,33.10068],[-116.82593,33.10082],[-116.8259,33.10094],[-116.82594,33.10106],[-116.82601,33.10117],[-116.82615,33.10133],[-116.82621,33.10141],[-116.82623,33.10152],[-116.82618,33.1017],[-116.82615,33.1019],[-116.82607,33.10207],[-116.82588,33.1023],[-116.82579,33.10239],[-116.82566,33.10249],[-116.82558,33.10259],[-116.82546,33.10281],[-116.82531,33.10299],[-116.82507,33.10322],[-116.82492,33.10332],[-116.82485,33.1034],[-116.82478,33.10357],[-116.82466,33.10368],[-116.82452,33.10376],[-116.82434,33.10381],[-116.82425,33.10386],[-116.82411,33.10407],[-116.82402,33.10414],[-116.82354,33.10428],[-116.82334,33.10432],[-116.8232,33.10441],[-116.82244,33.1048],[-116.82218,33.10487],[-116.82201,33.10497],[-116.82195,33.10507],[-116.82196,33.10518],[-116.82202,33.10527],[-116.82214,33.1053],[-116.82235,33.10531],[-116.82259,33.10529],[-116.82293,33.10521],[-116.82315,33.10518],[-116.82338,33.10522],[-116.82345,33.10526],[-116.82352,33.10534],[-116.82355,33.10543],[-116.82361,33.10561],[-116.82368,33.10576],[-116.82382,33.10603],[-116.82382,33.10619],[-116.82379,33.10631],[-116.82373,33.10642],[-116.82359,33.10663],[-116.82341,33.10687],[-116.8232,33.10743],[-116.82319,33.10754],[-116.82322,33.10761],[-116.82331,33.10767],[-116.82345,33.10768],[-116.82376,33.1076],[-116.82423,33.10747],[-116.8248,33.10733],[-116.82496,33.10728],[-116.82529,33.1071],[-116.82554,33.10702],[-116.82574,33.10699],[-116.82604,33.10699],[-116.82617,33.10704],[-116.82623,33.10712],[-116.82621,33.10722],[-116.82612,33.10742],[-116.82604,33.10757],[-116.82589,33.10768],[-116.82538,33.10793],[-116.82518,33.10811],[-116.82504,33.10829],[-116.82487,33.10857],[-116.82474,33.10875],[-116.8246,33.10884],[-116.82443,33.1089],[-116.82385,33.10903],[-116.82361,33.10912],[-116.82339,33.10916],[-116.82287,33.10911],[-116.82272,33.10912],[-116.82259,33.10916],[-116.82249,33.10923],[-116.82244,33.10932],[-116.82242,33.10941],[-116.82243,33.10952],[-116.82251,33.10965],[-116.82253,33.10972],[-116.82253,33.1098],[-116.82246,33.10988],[-116.82222,33.10994],[-116.82206,33.11],[-116.82167,33.11033],[-116.82162,33.11044],[-116.82165,33.11069],[-116.8216,33.1108],[-116.82133,33.11098],[-116.82114,33.11113],[-116.821,33.11129],[-116.82097,33.11138],[-116.82097,33.11147],[-116.82101,33.11157],[-116.82108,33.11169],[-116.82119,33.11193],[-116.82122,33.11212],[-116.82122,33.11238],[-116.82122,33.11258],[-116.8212,33.11269],[-116.82114,33.11282],[-116.82104,33.11291],[-116.82089,33.11294],[-116.82077,33.11292],[-116.8204,33.11277],[-116.82027,33.11266],[-116.82008,33.1124],[-116.82,33.11233],[-116.81985,33.11227],[-116.81972,33.11224],[-116.81945,33.11221],[-116.81915,33.11215],[-116.81906,33.11216],[-116.81896,33.11226],[-116.8189,33.11236],[-116.81886,33.11249],[-116.81885,33.11275],[-116.81879,33.11285],[-116.81871,33.11297],[-116.81865,33.11309],[-116.81856,33.11319],[-116.81844,33.11328],[-116.81826,33.11333],[-116.81789,33.11337],[-116.81754,33.11336],[-116.81745,33.11338],[-116.81709,33.11362],[-116.81708,33.11369],[-116.81721,33.11384],[-116.81727,33.11399],[-116.81729,33.11409],[-116.81726,33.11416],[-116.8172,33.11422],[-116.81706,33.1143],[-116.81687,33.11442],[-116.81682,33.1145],[-116.81682,33.11458],[-116.8169,33.11471],[-116.81697,33.11487],[-116.81698,33.11497],[-116.81695,33.11506],[-116.81686,33.11514],[-116.81676,33.11516],[-116.81632,33.11524],[-116.81613,33.11529],[-116.81578,33.11542],[-116.81565,33.11544],[-116.81552,33.11543],[-116.81518,33.11537],[-116.81508,33.11538],[-116.81501,33.11544],[-116.81492,33.11554],[-116.81481,33.1156],[-116.81438,33.11561],[-116.8143,33.11563],[-116.81426,33.1157],[-116.81428,33.11576],[-116.8145,33.1161],[-116.81461,33.11632],[-116.81474,33.1165],[-116.81474,33.11659],[-116.81464,33.1167],[-116.81453,33.11684],[-116.81449,33.11692],[-116.81443,33.11698],[-116.81434,33.11701],[-116.81424,33.117],[-116.81379,33.11691],[-116.81369,33.11692],[-116.81357,33.11696],[-116.81344,33.11705],[-116.81331,33.1171],[-116.81321,33.11711],[-116.81309,33.11712],[-116.81294,33.1171],[-116.81277,33.11702],[-116.81247,33.11676],[-116.81238,33.11656],[-116.81232,33.11649],[-116.81223,33.11648],[-116.81217,33.1165],[-116.8121,33.11656],[-116.81201,33.1166],[-116.81191,33.11661],[-116.81179,33.11661],[-116.81173,33.11663],[-116.8117,33.11671],[-116.8117,33.11686],[-116.81166,33.11694],[-116.81157,33.11699],[-116.81116,33.11715],[-116.81109,33.11721],[-116.81107,33.11727],[-116.8111,33.11738],[-116.81121,33.1175],[-116.81127,33.11763],[-116.81132,33.11792],[-116.8114,33.1182],[-116.81155,33.11853],[-116.81165,33.11866],[-116.81169,33.11873],[-116.81169,33.11882],[-116.81156,33.119],[-116.8115,33.11913],[-116.81145,33.11929],[-116.81139,33.11937],[-116.81128,33.11941],[-116.81075,33.11945],[-116.81034,33.11941],[-116.81013,33.11941],[-116.80996,33.11943],[-116.80976,33.11951],[-116.80951,33.11956],[-116.80919,33.11961],[-116.80901,33.1196],[-116.80878,33.11954],[-116.80835,33.11932],[-116.80808,33.11922],[-116.8076,33.119],[-116.80745,33.11897],[-116.80735,33.119],[-116.80728,33.11906],[-116.80725,33.11913],[-116.80724,33.11932],[-116.80717,33.11961],[-116.80711,33.11971],[-116.80699,33.11982],[-116.80689,33.11986],[-116.80674,33.11992],[-116.80663,33.11997],[-116.80659,33.12007],[-116.80658,33.1202],[-116.80661,33.12042],[-116.8066,33.12055],[-116.80658,33.12066],[-116.80653,33.12077],[-116.80645,33.12095],[-116.8064,33.12108],[-116.80637,33.12124],[-116.80629,33.12135],[-116.80601,33.12158],[-116.80594,33.12169],[-116.8059,33.12181],[-116.80591,33.12199],[-116.80588,33.12211],[-116.8057,33.12239],[-116.80559,33.12266],[-116.80557,33.12276],[-116.80554,33.12289],[-116.80551,33.12308],[-116.80548,33.12322],[-116.80542,33.12335],[-116.80522,33.12364],[-116.80499,33.12382],[-116.80473,33.12389],[-116.80459,33.12391],[-116.80446,33.12388],[-116.80431,33.12383],[-116.80408,33.12375],[-116.8039,33.12363],[-116.80371,33.12357],[-116.80361,33.12353],[-116.8035,33.12347],[-116.80332,33.12335],[-116.80319,33.12325],[-116.8028,33.123],[-116.80268,33.12297],[-116.80256,33.12299],[-116.80221,33.12305],[-116.80199,33.12307],[-116.80169,33.12308],[-116.80144,33.12315],[-116.80126,33.12316],[-116.80109,33.12313],[-116.80096,33.1231],[-116.80081,33.12307]]}},{"type":"Feature","properties":{"name":"(unnamed public road)","road_class":"track","surface":"dirt","source":"Caltrans All Roads + OpenStreetMap explicit surface","source_detail":"osm way 123688342; Caltrans All Roads public-network geometry match","source_tile":"179/412","public_network_source":"Caltrans All Roads (ARNOLD/HPMS)","surface_source":"OpenStreetMap explicit surface tag","caltrans_match_coverage":0.876,"verified_length_m":770},"geometry":{"type":"LineString","coordinates":[[-116.75938,32.94926],[-116.75944,32.94925],[-116.7595,32.94923],[-116.75956,32.94921],[-116.75962,32.94919],[-116.75969,32.94916],[-116.75975,32.94913],[-116.7598,32.9491],[-116.75986,32.94907],[-116.75996,32.949],[-116.75999,32.94898],[-116.76002,32.94896],[-116.76005,32.94895],[-116.76009,32.94894],[-116.76016,32.94893],[-116.76023,32.9489],[-116.76028,32.94889],[-116.76033,32.94886],[-116.76052,32.94879],[-116.7606,32.94874],[-116.7607,32.94868],[-116.76077,32.94864],[-116.76082,32.94861],[-116.76087,32.94859],[-116.76092,32.94856],[-116.76098,32.94853],[-116.76102,32.9485],[-116.76105,32.94847],[-116.76128,32.94825],[-116.7614,32.94815],[-116.76167,32.94792],[-116.76174,32.94786],[-116.7618,32.9478],[-116.76186,32.94774],[-116.76191,32.94767],[-116.76194,32.94762],[-116.76198,32.94757],[-116.76203,32.94752],[-116.76209,32.94747],[-116.7622,32.94736],[-116.76239,32.94721],[-116.76247,32.94712],[-116.76251,32.94708],[-116.76256,32.94705],[-116.76261,32.94703],[-116.76267,32.94701],[-116.76274,32.947],[-116.7628,32.94697],[-116.76286,32.94695],[-116.76292,32.94692],[-116.76296,32.94689],[-116.76301,32.94685],[-116.76304,32.94682],[-116.76308,32.94679],[-116.76321,32.94667],[-116.76335,32.94658],[-116.7634,32.94655],[-116.76345,32.94653],[-116.7635,32.94651],[-116.76356,32.9465],[-116.76399,32.94644],[-116.76408,32.94642],[-116.76417,32.9464],[-116.76422,32.94638],[-116.76428,32.94636],[-116.76433,32.94633],[-116.76438,32.9463],[-116.76443,32.94628],[-116.76447,32.94625],[-116.7646,32.94612],[-116.76467,32.94606],[-116.76474,32.94601],[-116.7648,32.94596],[-116.76487,32.94592],[-116.76494,32.9459],[-116.765,32.94588],[-116.76507,32.94586],[-116.76514,32.94585],[-116.76519,32.94585],[-116.76524,32.94584],[-116.76529,32.94583],[-116.76535,32.94581],[-116.7654,32.94579],[-116.76555,32.94568],[-116.76561,32.94564],[-116.76567,32.94561],[-116.76574,32.94559],[-116.76581,32.94556],[-116.76584,32.94555],[-116.76587,32.94553],[-116.76589,32.9455],[-116.76592,32.94548],[-116.76596,32.94542]]}},{"type":"Feature","properties":{"name":"Cardiac Hill","road_class":"track","surface":"dirt","access":"designated","source":"Caltrans All Roads + OpenStreetMap explicit surface","source_detail":"osm way 134865497; Caltrans All Roads public-network geometry match","source_tile":"179/412","public_network_source":"Caltrans All Roads (ARNOLD/HPMS)","surface_source":"OpenStreetMap explicit surface tag","caltrans_match_coverage":0.963,"verified_length_m":1727},"geometry":{"type":"LineString","coordinates":[[-116.96811,32.93118],[-116.96813,32.93146],[-116.96836,32.93257],[-116.96839,32.93265],[-116.96844,32.93271],[-116.96849,32.93274],[-116.96858,32.93275],[-116.96866,32.93274],[-116.96878,32.93266],[-116.96886,32.93253],[-116.96896,32.93226],[-116.96919,32.93183],[-116.96928,32.93169],[-116.96941,32.93158],[-116.96953,32.93151],[-116.96971,32.93145],[-116.96981,32.93145],[-116.96992,32.93148],[-116.97,32.93155],[-116.97021,32.93185],[-116.97031,32.93195],[-116.97093,32.93239],[-116.97104,32.93244],[-116.97114,32.93246],[-116.97134,32.93246],[-116.97153,32.93242],[-116.97164,32.93237],[-116.97171,32.93233],[-116.97179,32.93223],[-116.9724,32.93103],[-116.97248,32.9309],[-116.97254,32.93085],[-116.97262,32.93082],[-116.97291,32.93078],[-116.97311,32.93079],[-116.97394,32.93076],[-116.97427,32.93071],[-116.9746,32.9306],[-116.97469,32.93056],[-116.97547,32.93007],[-116.9756,32.93003],[-116.97571,32.93001],[-116.976,32.92999],[-116.97618,32.93],[-116.97644,32.93005],[-116.97669,32.93007],[-116.97792,32.93005],[-116.97849,32.93],[-116.97876,32.93001],[-116.97891,32.93],[-116.97909,32.92995],[-116.9795,32.92975],[-116.97966,32.92967],[-116.97984,32.92953],[-116.97997,32.92935],[-116.98003,32.92922],[-116.98018,32.92874],[-116.98022,32.92868],[-116.98028,32.92864],[-116.98035,32.92863],[-116.98041,32.92865],[-116.98045,32.9287],[-116.98051,32.92893],[-116.98059,32.92903],[-116.98082,32.9292],[-116.98095,32.92927]]}},{"type":"Feature","properties":{"name":"Sutherland Dam Road","road_class":"unclassified","surface":"unpaved","tracktype":"grade2","source":"Caltrans All Roads + OpenStreetMap explicit surface","source_detail":"osm way 186958453; Caltrans All Roads public-network geometry match","source_tile":"179/412","public_network_source":"Caltrans All Roads (ARNOLD/HPMS)","surface_source":"OpenStreetMap explicit surface tag","caltrans_match_coverage":1.0,"verified_length_m":1378},"geometry":{"type":"LineString","coordinates":[[-116.78857,33.11953],[-116.78873,33.11978],[-116.78904,33.11989],[-116.7892,33.12001],[-116.78937,33.12005],[-116.78998,33.11997],[-116.79026,33.11997],[-116.7904,33.11998],[-116.79055,33.12006],[-116.79077,33.12013],[-116.79111,33.12022],[-116.79129,33.1203],[-116.79164,33.12064],[-116.7918,33.12067],[-116.79194,33.12072],[-116.79203,33.12082],[-116.79204,33.12112],[-116.79214,33.12133],[-116.79227,33.12145],[-116.79241,33.12153],[-116.79251,33.12164],[-116.79265,33.12189],[-116.79278,33.12197],[-116.79283,33.12202],[-116.79282,33.12239],[-116.79287,33.12259],[-116.79299,33.12283],[-116.79307,33.12295],[-116.79312,33.12307],[-116.79328,33.12329],[-116.79346,33.1234],[-116.79356,33.12347],[-116.79363,33.12357],[-116.79366,33.12365],[-116.79379,33.12375],[-116.7939,33.12387],[-116.79412,33.12417],[-116.79423,33.12423],[-116.79439,33.12426],[-116.79468,33.12424],[-116.79502,33.12414],[-116.79524,33.12398],[-116.79533,33.12394],[-116.79595,33.12382],[-116.79628,33.12374],[-116.79644,33.12374],[-116.7966,33.12374],[-116.79683,33.12373],[-116.79697,33.12368],[-116.79711,33.12364],[-116.7974,33.12359],[-116.79744,33.12355],[-116.79756,33.12349],[-116.79765,33.12347],[-116.79784,33.1235],[-116.79801,33.12354],[-116.79818,33.12352],[-116.79834,33.12347],[-116.79894,33.12329],[-116.79923,33.12325],[-116.79938,33.12324],[-116.79948,33.12324],[-116.79964,33.12325],[-116.7997,33.12325],[-116.79984,33.12321]]}},{"type":"Feature","properties":{"name":"Sycamore Park Drive","road_class":"unclassified","surface":"dirt","motor_vehicle":"yes","access":"yes","source":"Caltrans All Roads + OpenStreetMap explicit surface","source_detail":"osm way 282432450; Caltrans All Roads public-network geometry match","source_tile":"179/412","public_network_source":"Caltrans All Roads (ARNOLD/HPMS)","surface_source":"OpenStreetMap explicit surface tag","caltrans_match_coverage":1.0,"verified_length_m":1410},"geometry":{"type":"LineString","coordinates":[[-116.9671,32.94295],[-116.96715,32.94285],[-116.96728,32.94233],[-116.96731,32.94204],[-116.96727,32.94147],[-116.96724,32.94121],[-116.96719,32.94058],[-116.96723,32.93978],[-116.96724,32.93931],[-116.96719,32.93875],[-116.96689,32.93818],[-116.9666,32.93784],[-116.96598,32.93713],[-116.96578,32.93675],[-116.9656,32.93641],[-116.96545,32.93579],[-116.96551,32.93526],[-116.96561,32.93489],[-116.96606,32.93407],[-116.96811,32.93118]]}},{"type":"Feature","properties":{"name":"Foster Truck Trail","road_class":"track","surface":"unpaved","source":"Caltrans All Roads + OpenStreetMap explicit surface","source_detail":"osm way 537547461; Caltrans All Roads public-network geometry match","source_tile":"179/412","public_network_source":"Caltrans All Roads (ARNOLD/HPMS)","surface_source":"OpenStreetMap explicit surface tag","caltrans_match_coverage":1.0,"verified_length_m":3769},"geometry":{"type":"LineString","coordinates":[[-116.96134,32.95828],[-116.96048,32.95834],[-116.96022,32.95837],[-116.96002,32.95838],[-116.95987,32.95841],[-116.95967,32.95849],[-116.95956,32.95857],[-116.95945,32.95868],[-116.95936,32.95877],[-116.95927,32.95896],[-116.95908,32.95925],[-116.95893,32.95933],[-116.95873,32.95936],[-116.9586,32.95935],[-116.95847,32.95939],[-116.95832,32.95938],[-116.95824,32.9594],[-116.95809,32.95943],[-116.95793,32.95947],[-116.9578,32.95949],[-116.95772,32.9595],[-116.9576,32.95947],[-116.95733,32.95941],[-116.95707,32.95937],[-116.95695,32.95942],[-116.95686,32.95949],[-116.95676,32.9596],[-116.95668,32.95968],[-116.95665,32.9597],[-116.95659,32.95976],[-116.95646,32.95989],[-116.9564,32.95991],[-116.95633,32.95994],[-116.95612,32.95998],[-116.95599,32.95999],[-116.95589,32.96003],[-116.95573,32.9601],[-116.95555,32.96017],[-116.9554,32.96021],[-116.95534,32.96025],[-116.95527,32.9603],[-116.95508,32.96043],[-116.95495,32.96046],[-116.95478,32.9605],[-116.95471,32.96057],[-116.9547,32.96066],[-116.95461,32.96081],[-116.95453,32.96103],[-116.9547,32.96115],[-116.95487,32.96132],[-116.95479,32.96143],[-116.95466,32.96144],[-116.95457,32.96147],[-116.95438,32.9615],[-116.95419,32.96158],[-116.95401,32.96166],[-116.9539,32.96167],[-116.95362,32.96177],[-116.95352,32.96178],[-116.95345,32.96175],[-116.95335,32.96168],[-116.95321,32.96162],[-116.95307,32.9616],[-116.95277,32.96162],[-116.95238,32.96164],[-116.95215,32.96164],[-116.95199,32.96171],[-116.95181,32.96178],[-116.95156,32.96202],[-116.95139,32.96204],[-116.95129,32.96211],[-116.95116,32.96225],[-116.95114,32.96234],[-116.95107,32.9624],[-116.951,32.96247],[-116.95088,32.9625],[-116.95071,32.96252],[-116.95059,32.96251],[-116.95048,32.96248],[-116.95034,32.96247],[-116.94996,32.96253],[-116.94978,32.96249],[-116.9496,32.96247],[-116.94932,32.96245],[-116.94913,32.96249],[-116.9488,32.96256],[-116.94845,32.96257],[-116.94792,32.9625],[-116.94757,32.96253],[-116.94724,32.96251],[-116.94698,32.96258],[-116.94684,32.96266],[-116.94666,32.96272],[-116.94646,32.96282],[-116.94638,32.96282],[-116.94625,32.9628],[-116.94612,32.96276],[-116.94573,32.96254],[-116.94536,32.96236],[-116.94525,32.96231],[-116.94505,32.96222],[-116.94487,32.96217],[-116.9447,32.96213],[-116.94454,32.96213],[-116.94446,32.96216],[-116.94441,32.96224],[-116.94431,32.96227],[-116.94417,32.96231],[-116.94403,32.96234],[-116.94386,32.96239],[-116.94357,32.96239],[-116.94338,32.96238],[-116.9432,32.96239],[-116.94307,32.96237],[-116.9429,32.96232],[-116.94277,32.96228],[-116.94259,32.9622],[-116.94243,32.96217],[-116.94233,32.96221],[-116.94198,32.9622],[-116.94135,32.96225],[-116.94074,32.96221],[-116.94038,32.9621],[-116.94006,32.96196],[-116.93964,32.96187],[-116.93939,32.96181],[-116.93912,32.96168],[-116.93895,32.96159],[-116.93879,32.96158],[-116.93855,32.96159],[-116.93833,32.96161],[-116.93812,32.96169],[-116.93792,32.96177],[-116.93774,32.96168],[-116.93762,32.96167],[-116.93748,32.96166],[-116.93735,32.96171],[-116.93719,32.96179],[-116.93701,32.96184],[-116.93689,32.96183],[-116.93674,32.96175],[-116.93665,32.96169],[-116.93648,32.96164],[-116.93622,32.96166],[-116.93607,32.96181],[-116.93591,32.96192],[-116.93576,32.96199],[-116.93553,32.96206],[-116.93542,32.96227],[-116.93521,32.9624],[-116.93501,32.96245],[-116.93487,32.96246],[-116.93468,32.96248],[-116.93444,32.96255],[-116.93428,32.96264],[-116.93424,32.96285],[-116.93413,32.96313],[-116.93404,32.96333],[-116.93385,32.96346],[-116.93367,32.96357],[-116.93355,32.9637],[-116.93333,32.96371],[-116.93318,32.96364],[-116.93293,32.96356],[-116.93265,32.96352],[-116.9324,32.96359],[-116.93231,32.9637],[-116.93223,32.96375],[-116.93212,32.96377],[-116.93204,32.96382],[-116.93197,32.9639],[-116.93188,32.96418],[-116.93183,32.96445],[-116.93178,32.96453],[-116.93166,32.96463],[-116.93108,32.96509],[-116.93098,32.96522],[-116.93092,32.96538],[-116.93078,32.96594],[-116.93077,32.96603],[-116.93081,32.96629],[-116.93078,32.96649],[-116.93076,32.96693],[-116.93075,32.96697],[-116.93068,32.96703],[-116.93052,32.9671],[-116.93027,32.96713],[-116.93008,32.96717],[-116.92986,32.96725],[-116.92978,32.9673],[-116.92973,32.96735],[-116.92962,32.96743],[-116.92946,32.96746],[-116.92928,32.96741],[-116.92921,32.96738]]}},{"type":"Feature","properties":{"name":"Mount Woodson Road","road_class":"track","surface":"unpaved","source":"Caltrans All Roads + OpenStreetMap explicit surface","source_detail":"osm way 607601509; Caltrans All Roads public-network geometry match","source_tile":"179/412","public_network_source":"Caltrans All Roads (ARNOLD/HPMS)","surface_source":"OpenStreetMap explicit surface tag","caltrans_match_coverage":1.0,"verified_length_m":1243},"geometry":{"type":"LineString","coordinates":[[-116.98029,33.01623],[-116.9801,33.01624],[-116.97954,33.01625],[-116.97899,33.01635],[-116.97827,33.01649],[-116.97813,33.01652],[-116.97729,33.01667],[-116.97629,33.01665],[-116.97554,33.01658],[-116.97388,33.01663],[-116.97286,33.0167],[-116.97235,33.01678],[-116.97194,33.01676],[-116.97104,33.01665],[-116.97096,33.01664],[-116.9709,33.01663],[-116.96966,33.01642],[-116.96914,33.01635],[-116.96822,33.01623],[-116.96782,33.016],[-116.96762,33.01549]]}},{"type":"Feature","properties":{"name":"Boden Canyon Road","road_class":"track","surface":"dirt","tracktype":"grade2","source":"Caltrans All Roads + OpenStreetMap explicit surface","source_detail":"osm way 1003172391; Caltrans All Roads public-network geometry match","source_tile":"179/412","public_network_source":"Caltrans All Roads (ARNOLD/HPMS)","surface_source":"OpenStreetMap explicit surface tag","caltrans_match_coverage":1.0,"verified_length_m":3140},"geometry":{"type":"LineString","coordinates":[[-116.89281,33.11153],[-116.89266,33.11168],[-116.89256,33.11174],[-116.89246,33.11176],[-116.89209,33.11178],[-116.89189,33.11184],[-116.89178,33.11184],[-116.89167,33.11177],[-116.8916,33.11169],[-116.8914,33.11156],[-116.89105,33.11146],[-116.89082,33.11142],[-116.89057,33.11132],[-116.89048,33.11131],[-116.89013,33.11131],[-116.88989,33.11139],[-116.88979,33.11141],[-116.88945,33.11139],[-116.88935,33.1114],[-116.88919,33.11145],[-116.889,33.11148],[-116.88891,33.11149],[-116.88875,33.11156],[-116.88863,33.11167],[-116.8885,33.11187],[-116.88843,33.11201],[-116.888,33.11247],[-116.8879,33.11251],[-116.88737,33.11251],[-116.8873,33.11249],[-116.88703,33.11232],[-116.88691,33.11229],[-116.88661,33.11231],[-116.88639,33.11234],[-116.88583,33.11228],[-116.8857,33.1123],[-116.88559,33.11237],[-116.88554,33.11243],[-116.88544,33.11247],[-116.88537,33.11247],[-116.88529,33.11245],[-116.88506,33.11231],[-116.88477,33.11222],[-116.88461,33.1122],[-116.88438,33.11224],[-116.88416,33.1122],[-116.88398,33.11226],[-116.88377,33.11246],[-116.88371,33.11249],[-116.88364,33.11249],[-116.88344,33.11243],[-116.88335,33.11233],[-116.88329,33.11217],[-116.88323,33.11207],[-116.88318,33.11203],[-116.88297,33.11194],[-116.88277,33.11187],[-116.88238,33.1118],[-116.88225,33.11175],[-116.8822,33.11172],[-116.88195,33.11142],[-116.88185,33.11135],[-116.88135,33.11126],[-116.88126,33.1112],[-116.8812,33.11106],[-116.88113,33.111],[-116.88106,33.11097],[-116.881,33.11097],[-116.88075,33.11103],[-116.88067,33.11102],[-116.8803,33.11076],[-116.88007,33.11064],[-116.87999,33.11059],[-116.87988,33.11042],[-116.87976,33.11036],[-116.87973,33.11036],[-116.87965,33.11041],[-116.87964,33.11046],[-116.87969,33.11064],[-116.87982,33.11092],[-116.87985,33.11103],[-116.87985,33.11109],[-116.87981,33.11122],[-116.87981,33.11128],[-116.87986,33.11144],[-116.87987,33.11155],[-116.8798,33.11189],[-116.87967,33.11209],[-116.87964,33.11218],[-116.87964,33.11225],[-116.87969,33.11232],[-116.87994,33.11247],[-116.8805,33.11287],[-116.88056,33.11294],[-116.88076,33.11355],[-116.88075,33.11362],[-116.8805,33.11431],[-116.88049,33.1145],[-116.88056,33.11478],[-116.88053,33.115],[-116.88045,33.11517],[-116.88037,33.11524],[-116.88029,33.11528],[-116.88024,33.1153],[-116.88011,33.11529],[-116.87998,33.11525],[-116.87987,33.11527],[-116.87981,33.11532],[-116.87979,33.11543],[-116.8798,33.11566],[-116.87983,33.11577],[-116.87992,33.11597],[-116.88042,33.11669],[-116.88046,33.11679],[-116.88062,33.11693],[-116.88065,33.11704],[-116.88065,33.11713],[-116.88061,33.11722],[-116.88021,33.11773],[-116.88018,33.1178],[-116.88018,33.11785],[-116.8802,33.11791],[-116.88036,33.11811],[-116.8804,33.11821],[-116.88045,33.11837],[-116.88049,33.11848],[-116.88054,33.11864],[-116.88063,33.11876],[-116.88065,33.11886],[-116.88063,33.11896],[-116.88056,33.11904],[-116.88042,33.11914],[-116.88031,33.11927],[-116.88026,33.11945],[-116.88025,33.11963],[-116.88034,33.12026],[-116.88055,33.1206],[-116.88056,33.12075],[-116.88051,33.12087],[-116.88026,33.12115],[-116.87999,33.12135],[-116.87983,33.12154],[-116.87973,33.12183],[-116.87965,33.122],[-116.87959,33.12212],[-116.87952,33.12224],[-116.87936,33.12249],[-116.87926,33.12294],[-116.87926,33.12307],[-116.87932,33.12345],[-116.87941,33.1238]]}},{"type":"Feature","properties":{"name":"Sky Valley Drive","road_class":"unclassified","surface":"unpaved","source":"Caltrans All Roads + OpenStreetMap explicit surface","source_detail":"osm way 1372195722; Caltrans All Roads public-network geometry match","source_tile":"179/412","public_network_source":"Caltrans All Roads (ARNOLD/HPMS)","surface_source":"OpenStreetMap explicit surface tag","caltrans_match_coverage":1.0,"verified_length_m":653},"geometry":{"type":"LineString","coordinates":[[-116.97599,33.04412],[-116.97591,33.04409],[-116.97581,33.044],[-116.97578,33.04389],[-116.9757,33.0438],[-116.97559,33.04375],[-116.97463,33.04354],[-116.97434,33.04347],[-116.97431,33.04347],[-116.97413,33.04341],[-116.97405,33.04335],[-116.97401,33.04324],[-116.97406,33.0429],[-116.97418,33.04238],[-116.97429,33.04211],[-116.97431,33.04198],[-116.97428,33.04192],[-116.97421,33.04188],[-116.97415,33.04188],[-116.97385,33.04192],[-116.97369,33.04192],[-116.97301,33.04187],[-116.97216,33.04188],[-116.9719,33.04186],[-116.97178,33.04184],[-116.97147,33.04182],[-116.9713,33.04184]]}}]}