{"type":"FeatureCollection","features":[{"type":"Feature","properties":{"name":"1230","source":"Bureau of Land Management","source_detail":"BLM GTLF OBJECTID 159888","source_id":"{2854EDDB-E56D-4212-819A-1B6EA1DFBA93}","road_class":"transportation_system_-_primitive_road","surface":"natural_improved","vehicle_class":"4wd_low","allowed_mode":"all_moto_veh","access_restriction":"unknown","seasonal_restriction":"not_listed","route_plan_id":"1230","gis_miles":0.0875138},"geometry":{"type":"LineString","coordinates":[[-118.82199,36.0116],[-118.82198,36.01155],[-118.82188,36.01143],[-118.82172,36.01129],[-118.82153,36.01109],[-118.8214,36.01091],[-118.82119,36.01075],[-118.82109,36.01072],[-118.82102,36.0107],[-118.82099,36.01067]]}}]}