{"type":"FeatureCollection","features":[{"type":"Feature","properties":{"name":"Rockhouse Trail","road_class":"track","surface":"unpaved","tracktype":"grade4","source":"OpenStreetMap","source_detail":"osm way 267587559","source_tile":"181/411"},"geometry":{"type":"LineString","coordinates":[[-116.36586,33.38716],[-116.36589,33.38733],[-116.36568,33.38766],[-116.36529,33.38772],[-116.36501,33.38775],[-116.36468,33.38791],[-116.36432,33.38799],[-116.36421,33.38805],[-116.36388,33.38811],[-116.3636,33.38815],[-116.36339,33.38823],[-116.36316,33.38847],[-116.36311,33.38849],[-116.36298,33.38864],[-116.36264,33.38873],[-116.36236,33.38884],[-116.36224,33.38898],[-116.3622,33.38914],[-116.36223,33.38943],[-116.36232,33.38958],[-116.36226,33.38976],[-116.36246,33.38996],[-116.36263,33.39006],[-116.363,33.39037],[-116.36312,33.39037],[-116.3633,33.39037],[-116.36357,33.39049],[-116.36371,33.39066],[-116.36409,33.39079],[-116.36432,33.39099],[-116.36447,33.391],[-116.36479,33.39114],[-116.36499,33.39114],[-116.3652,33.39125],[-116.36537,33.39127],[-116.36544,33.39133],[-116.36548,33.39144],[-116.3659,33.39187],[-116.36602,33.39211],[-116.36614,33.39223],[-116.3662,33.39243],[-116.3663,33.39255],[-116.3668,33.39282],[-116.36694,33.39296],[-116.36705,33.39322],[-116.36723,33.39338],[-116.36748,33.39354],[-116.36766,33.39356],[-116.3678,33.39382],[-116.36799,33.39379],[-116.36823,33.39368],[-116.36845,33.39383],[-116.36853,33.39398],[-116.36882,33.39414],[-116.36914,33.39436],[-116.36967,33.39466],[-116.37024,33.39499],[-116.37051,33.3951],[-116.37056,33.3954],[-116.37039,33.39577],[-116.37044,33.39603],[-116.37062,33.39632],[-116.37097,33.39669],[-116.37121,33.39676],[-116.37132,33.39695],[-116.37131,33.39715],[-116.37138,33.39727],[-116.37182,33.39772],[-116.37185,33.39784],[-116.37229,33.39836],[-116.37249,33.39894],[-116.37283,33.39942],[-116.37326,33.39975],[-116.3735,33.39996],[-116.37354,33.4001],[-116.37372,33.40025],[-116.37373,33.40052],[-116.37372,33.40071],[-116.37395,33.40113],[-116.37405,33.40126]]}},{"type":"Feature","properties":{"name":"Butler Canyon Road","road_class":"track","surface":"dirt","tracktype":"grade3","source":"OpenStreetMap","source_detail":"osm way 665751146","source_tile":"181/411"},"geometry":{"type":"LineString","coordinates":[[-116.36586,33.38716],[-116.36607,33.38718],[-116.3663,33.38718],[-116.36682,33.38709],[-116.36703,33.3871],[-116.3672,33.38703],[-116.36749,33.38699],[-116.36776,33.38686],[-116.36815,33.38679],[-116.36887,33.38684],[-116.36948,33.3871],[-116.37001,33.38717],[-116.37072,33.38753],[-116.37089,33.38759],[-116.37176,33.38777],[-116.37286,33.38811],[-116.37311,33.38816],[-116.37341,33.38819],[-116.37353,33.38829],[-116.37363,33.38853],[-116.37376,33.38872],[-116.37376,33.38882],[-116.37404,33.38911],[-116.37412,33.38921],[-116.37411,33.38929]]}},{"type":"Feature","properties":{"name":"(unnamed public road)","road_class":"track","source":"OpenStreetMap","source_detail":"osm way 999517965","source_tile":"181/411","surface_inferred":true},"geometry":{"type":"LineString","coordinates":[[-116.36896,33.21377],[-116.36485,33.21379],[-116.36501,33.21739],[-116.36508,33.2189],[-116.36511,33.21952]]}},{"type":"Feature","properties":{"name":"Glorietta Canyon Road","road_class":"track","surface":"sand","tracktype":"grade3","source":"OpenStreetMap","source_detail":"osm way 1063067002","source_tile":"181/411"},"geometry":{"type":"LineString","coordinates":[[-116.38601,33.18759],[-116.38627,33.1876],[-116.38649,33.18764],[-116.3865,33.18766],[-116.38647,33.18769],[-116.38642,33.18771],[-116.38623,33.18768],[-116.38608,33.18761],[-116.38601,33.18759],[-116.3859,33.18758],[-116.38578,33.1876],[-116.38568,33.18762],[-116.38555,33.1876],[-116.38537,33.18763],[-116.38526,33.18767],[-116.38508,33.18772],[-116.38477,33.18774],[-116.38452,33.18773],[-116.38438,33.18766],[-116.38429,33.18765],[-116.3842,33.18762],[-116.38405,33.18756],[-116.38387,33.1875],[-116.38363,33.18748],[-116.38347,33.18745],[-116.38326,33.18737],[-116.38308,33.18734],[-116.38295,33.18733],[-116.3829,33.18734],[-116.3828,33.18738],[-116.38269,33.18739],[-116.38255,33.18738],[-116.38237,33.18734],[-116.38206,33.18732],[-116.38185,33.18735],[-116.38159,33.18745],[-116.38136,33.18761],[-116.38118,33.18772],[-116.38102,33.18776],[-116.38056,33.1878],[-116.38032,33.18782],[-116.38007,33.18789],[-116.3797,33.18813],[-116.37932,33.18833],[-116.37901,33.18859],[-116.37886,33.18874],[-116.37857,33.18883],[-116.37833,33.18889],[-116.37805,33.18903],[-116.37779,33.18919],[-116.37765,33.18927],[-116.37746,33.18922],[-116.37713,33.18917],[-116.377,33.18914],[-116.37661,33.18892],[-116.37654,33.18885],[-116.37643,33.1888],[-116.37631,33.18879],[-116.37607,33.18878],[-116.37586,33.18881],[-116.3757,33.18888],[-116.37553,33.18898],[-116.37538,33.18916],[-116.37529,33.18932],[-116.37521,33.18946],[-116.3751,33.18957],[-116.37495,33.1897],[-116.37488,33.18981],[-116.37479,33.18987],[-116.37467,33.18989],[-116.37448,33.18995],[-116.37426,33.19008],[-116.37407,33.19022],[-116.37393,33.19029],[-116.37371,33.19038],[-116.3735,33.19044],[-116.37327,33.19044],[-116.37315,33.19043],[-116.37303,33.19046],[-116.37292,33.19053],[-116.37279,33.19055],[-116.37265,33.19062],[-116.37251,33.19073],[-116.37224,33.19094],[-116.37202,33.19109],[-116.37184,33.19122],[-116.37174,33.19129],[-116.37161,33.19143],[-116.37106,33.19185],[-116.37082,33.192],[-116.37055,33.19227],[-116.37046,33.19236],[-116.37035,33.1925],[-116.37022,33.19257],[-116.37007,33.19259],[-116.36993,33.19256],[-116.36984,33.19255],[-116.36972,33.19256],[-116.36806,33.19256],[-116.36758,33.19257],[-116.36727,33.19256],[-116.36698,33.19256],[-116.36663,33.19256],[-116.36627,33.19257],[-116.36581,33.19257],[-116.36487,33.19258],[-116.36456,33.19256],[-116.36451,33.19258]]}},{"type":"Feature","properties":{"name":"(unnamed public road)","road_class":"track","source":"OpenStreetMap","source_detail":"osm way 1136272204","source_tile":"181/411","surface_inferred":true},"geometry":{"type":"LineString","coordinates":[[-116.3676,33.32527],[-116.36698,33.32524],[-116.36465,33.3252],[-116.36279,33.32516],[-116.36182,33.32516],[-116.35975,33.32516],[-116.35891,33.32514],[-116.35883,33.32513],[-116.35584,33.32518],[-116.35439,33.32514],[-116.35137,33.32515],[-116.35078,33.32511],[-116.35042,33.32486],[-116.35031,33.3247],[-116.3503,33.32424],[-116.35031,33.32275],[-116.35035,33.32098],[-116.35036,33.31818],[-116.3504,33.31795],[-116.35036,33.31786],[-116.35029,33.31782]]}},{"type":"Feature","properties":{"name":"(unnamed public road)","road_class":"track","source":"OpenStreetMap","source_detail":"osm way 1136272212","source_tile":"181/411","surface_inferred":true},"geometry":{"type":"LineString","coordinates":[[-116.3589,33.31109],[-116.35977,33.31117],[-116.36248,33.31129],[-116.36653,33.31148],[-116.36756,33.31151]]}},{"type":"Feature","properties":{"name":"(unnamed public road)","road_class":"track","surface":"dirt","tracktype":"grade4","source":"OpenStreetMap","source_detail":"osm way 5948300","source_tile":"181/411"},"geometry":{"type":"LineString","coordinates":[[-116.27171,33.22289],[-116.27192,33.22283],[-116.27203,33.22272],[-116.27214,33.22266],[-116.27255,33.22238],[-116.27279,33.22232],[-116.27296,33.22228],[-116.27306,33.22217],[-116.27311,33.22206],[-116.27323,33.22196],[-116.27328,33.22177],[-116.27334,33.22159],[-116.27333,33.22134],[-116.27337,33.22123],[-116.27351,33.22119],[-116.27427,33.22107],[-116.27468,33.22088],[-116.27496,33.22082],[-116.27534,33.22058],[-116.2757,33.22052],[-116.27613,33.22039],[-116.27645,33.22026],[-116.2784,33.21975],[-116.27868,33.21965],[-116.27895,33.21962],[-116.27934,33.21947],[-116.2794,33.21941],[-116.27966,33.21932],[-116.27972,33.21923],[-116.27991,33.21917],[-116.2801,33.21915],[-116.28024,33.21916],[-116.28091,33.21904],[-116.28161,33.219],[-116.28182,33.21895],[-116.28202,33.21891],[-116.28226,33.21889],[-116.28277,33.21873],[-116.28367,33.21824],[-116.28407,33.21804],[-116.2845,33.21788],[-116.28475,33.21771],[-116.28504,33.21759],[-116.28519,33.21756],[-116.28546,33.21741],[-116.28574,33.21733],[-116.28588,33.21726],[-116.28606,33.21712],[-116.28625,33.217],[-116.28653,33.21676],[-116.28676,33.21662],[-116.28698,33.21652],[-116.28738,33.21645],[-116.28776,33.21645],[-116.28826,33.21626],[-116.28853,33.21599],[-116.2888,33.21592],[-116.28901,33.21591],[-116.28915,33.21591],[-116.28931,33.21589],[-116.28956,33.21593],[-116.28976,33.2159],[-116.28999,33.21584],[-116.29036,33.21569],[-116.29058,33.21565],[-116.29077,33.21552],[-116.29088,33.21548],[-116.29102,33.21538],[-116.29107,33.21527],[-116.29122,33.21521],[-116.29134,33.21514],[-116.29137,33.21506],[-116.29169,33.21481],[-116.2918,33.21476],[-116.29189,33.21465],[-116.29214,33.21447],[-116.29225,33.21428],[-116.29248,33.2141],[-116.29277,33.21398],[-116.29304,33.21385],[-116.29391,33.21357],[-116.29412,33.2134],[-116.29434,33.21334],[-116.29508,33.21301],[-116.29529,33.21296],[-116.29542,33.21278],[-116.2956,33.21263],[-116.29575,33.21255],[-116.29608,33.21248],[-116.29657,33.21247],[-116.29709,33.2123],[-116.29747,33.21224],[-116.29788,33.21209],[-116.29836,33.21206],[-116.2987,33.21216],[-116.29895,33.21216],[-116.29917,33.21221],[-116.29933,33.21221],[-116.29959,33.21211],[-116.29971,33.21202],[-116.2999,33.21201],[-116.3002,33.21211],[-116.30037,33.21212],[-116.30042,33.21206],[-116.30088,33.21197],[-116.30137,33.21179],[-116.30217,33.21124],[-116.30239,33.21111],[-116.30257,33.21108],[-116.30267,33.21111],[-116.30284,33.21102],[-116.30301,33.21099],[-116.30339,33.21082]]}},{"type":"Feature","properties":{"name":"(unnamed public road)","road_class":"track","surface":"unpaved","tracktype":"grade3","source":"OpenStreetMap","source_detail":"osm way 5953113","source_tile":"181/411"},"geometry":{"type":"LineString","coordinates":[[-116.29931,33.2384],[-116.29916,33.23839],[-116.29902,33.23832],[-116.29887,33.23831],[-116.2988,33.23834],[-116.29863,33.23849],[-116.29845,33.23857],[-116.29836,33.23875],[-116.29792,33.23918],[-116.29775,33.23925],[-116.29749,33.23925],[-116.2973,33.23932],[-116.29699,33.23953],[-116.29675,33.23952],[-116.2964,33.23928],[-116.29614,33.23922],[-116.29588,33.23925],[-116.29547,33.23944],[-116.29528,33.23951],[-116.29484,33.23952],[-116.29452,33.23968],[-116.29412,33.23967],[-116.2939,33.23977],[-116.29285,33.24001],[-116.29148,33.24041],[-116.29035,33.24067],[-116.28966,33.24066],[-116.29023,33.24105],[-116.29081,33.24169],[-116.29142,33.24213],[-116.29248,33.24302],[-116.29306,33.2432],[-116.2953,33.2432]]}},{"type":"Feature","properties":{"name":"(unnamed public road)","road_class":"track","surface":"unpaved","tracktype":"grade3","source":"OpenStreetMap","source_detail":"osm way 6052854","source_tile":"181/411"},"geometry":{"type":"LineString","coordinates":[[-116.27793,33.31965],[-116.27797,33.31982],[-116.27807,33.32005],[-116.27937,33.32223],[-116.27989,33.32325],[-116.2809,33.32503],[-116.28105,33.32534],[-116.28094,33.33802],[-116.28145,33.33886],[-116.28146,33.33927]]}},{"type":"Feature","properties":{"name":"Rango Way","road_class":"track","source":"OpenStreetMap","source_detail":"osm way 150166164","source_tile":"181/411","surface_inferred":true},"geometry":{"type":"LineString","coordinates":[[-116.36517,33.22086],[-116.36094,33.22083],[-116.36042,33.22083],[-116.35851,33.22082],[-116.35537,33.22081],[-116.35203,33.22079],[-116.3502,33.22078],[-116.34754,33.22077],[-116.34751,33.22263]]}},{"type":"Feature","properties":{"name":"Big Horn Road","road_class":"track","source":"OpenStreetMap","source_detail":"osm way 150166577","source_tile":"181/411","surface_inferred":true},"geometry":{"type":"LineString","coordinates":[[-116.34885,33.28624],[-116.33213,33.28322]]}},{"type":"Feature","properties":{"name":"Hawk Sculpture Trail","road_class":"track","source":"OpenStreetMap","source_detail":"osm way 235199829","source_tile":"181/411","surface_inferred":true},"geometry":{"type":"LineString","coordinates":[[-116.3472,33.2076],[-116.34733,33.20756],[-116.3474,33.20749],[-116.34748,33.20742],[-116.34758,33.20737],[-116.34768,33.20733],[-116.34781,33.20736],[-116.34798,33.20742],[-116.34807,33.20743],[-116.34823,33.20743],[-116.34849,33.20746],[-116.34875,33.20747],[-116.34889,33.2075],[-116.34895,33.20745],[-116.34898,33.20736],[-116.34896,33.20729],[-116.34892,33.20726],[-116.34883,33.20729],[-116.34879,33.20736],[-116.34877,33.20742],[-116.34875,33.20747]]}},{"type":"Feature","properties":{"name":"(unnamed public road)","road_class":"track","source":"OpenStreetMap","source_detail":"osm way 235201424","source_tile":"181/411","surface_inferred":true},"geometry":{"type":"LineString","coordinates":[[-116.34723,33.21134],[-116.34722,33.21146],[-116.34724,33.21171],[-116.34732,33.21215],[-116.34732,33.21225],[-116.34753,33.2123],[-116.34766,33.21229],[-116.34789,33.21225],[-116.34813,33.21228],[-116.3482,33.21226],[-116.3485,33.21235],[-116.34857,33.21234],[-116.3487,33.21222],[-116.34882,33.21217],[-116.34905,33.21213],[-116.34932,33.21198],[-116.3495,33.21192],[-116.34965,33.21191],[-116.34978,33.21194],[-116.34993,33.21188],[-116.35004,33.21187],[-116.35027,33.21206],[-116.35042,33.21205],[-116.35071,33.21196],[-116.35077,33.21195],[-116.35099,33.21191],[-116.35126,33.21189],[-116.35136,33.21188],[-116.35172,33.21185],[-116.35193,33.21189],[-116.35189,33.21201],[-116.35196,33.21205],[-116.35218,33.21193],[-116.35262,33.21187],[-116.35298,33.21181],[-116.35326,33.21184],[-116.3535,33.21189],[-116.3537,33.21186],[-116.35384,33.21189],[-116.35403,33.21188],[-116.35427,33.21195],[-116.35455,33.21194],[-116.355,33.21202],[-116.35552,33.21213],[-116.35561,33.21242],[-116.3558,33.21243],[-116.35594,33.21241],[-116.35611,33.21221],[-116.35625,33.21206],[-116.3564,33.21198],[-116.35646,33.21192],[-116.35643,33.21181],[-116.35645,33.2117],[-116.35665,33.21144]]}},{"type":"Feature","properties":{"name":"(unnamed public road)","road_class":"track","source":"OpenStreetMap","source_detail":"osm way 235201425","source_tile":"181/411","surface_inferred":true},"geometry":{"type":"LineString","coordinates":[[-116.3558,33.21243],[-116.35584,33.21233],[-116.3558,33.21223],[-116.35566,33.21219],[-116.35552,33.21213]]}},{"type":"Feature","properties":{"name":"(unnamed public road)","road_class":"track","source":"OpenStreetMap","source_detail":"osm way 235201426","source_tile":"181/411","surface_inferred":true},"geometry":{"type":"LineString","coordinates":[[-116.35552,33.21213],[-116.35552,33.21195],[-116.35545,33.21177],[-116.35541,33.21163],[-116.35542,33.21143]]}},{"type":"Feature","properties":{"name":"(unnamed public road)","road_class":"track","source":"OpenStreetMap","source_detail":"osm way 235201427","source_tile":"181/411","surface_inferred":true},"geometry":{"type":"LineString","coordinates":[[-116.35298,33.21181],[-116.35311,33.21176],[-116.35341,33.21142]]}},{"type":"Feature","properties":{"name":"(unnamed public road)","road_class":"track","source":"OpenStreetMap","source_detail":"osm way 235201428","source_tile":"181/411","surface_inferred":true},"geometry":{"type":"LineString","coordinates":[[-116.35193,33.21189],[-116.35204,33.21188],[-116.35218,33.21193],[-116.35228,33.2118],[-116.35232,33.21169],[-116.35228,33.21156],[-116.35228,33.2114]]}},{"type":"Feature","properties":{"name":"(unnamed public road)","road_class":"track","source":"OpenStreetMap","source_detail":"osm way 235201429","source_tile":"181/411","surface_inferred":true},"geometry":{"type":"LineString","coordinates":[[-116.35027,33.21206],[-116.35036,33.21212],[-116.35048,33.21212],[-116.35064,33.21216],[-116.35083,33.21216],[-116.35105,33.21207],[-116.35126,33.21189]]}},{"type":"Feature","properties":{"name":"(unnamed public road)","road_class":"track","source":"OpenStreetMap","source_detail":"osm way 235201430","source_tile":"181/411","surface_inferred":true},"geometry":{"type":"LineString","coordinates":[[-116.35126,33.21189],[-116.35131,33.21184],[-116.35141,33.21176],[-116.35149,33.21159],[-116.35165,33.21139]]}},{"type":"Feature","properties":{"name":"(unnamed public road)","road_class":"track","source":"OpenStreetMap","source_detail":"osm way 235201431","source_tile":"181/411","surface_inferred":true},"geometry":{"type":"LineString","coordinates":[[-116.35077,33.21195],[-116.35065,33.21181],[-116.3506,33.21172],[-116.35065,33.21164],[-116.35075,33.21151],[-116.35085,33.21139]]}},{"type":"Feature","properties":{"name":"(unnamed public road)","road_class":"track","source":"OpenStreetMap","source_detail":"osm way 235201432","source_tile":"181/411","surface_inferred":true},"geometry":{"type":"LineString","coordinates":[[-116.35004,33.21187],[-116.34998,33.21173],[-116.34989,33.21146],[-116.34988,33.21137]]}},{"type":"Feature","properties":{"name":"(unnamed public road)","road_class":"track","source":"OpenStreetMap","source_detail":"osm way 235201433","source_tile":"181/411","surface_inferred":true},"geometry":{"type":"LineString","coordinates":[[-116.34789,33.21225],[-116.34793,33.21208],[-116.34799,33.21185],[-116.34801,33.21164],[-116.34801,33.21135]]}},{"type":"Feature","properties":{"name":"(unnamed public road)","road_class":"track","source":"OpenStreetMap","source_detail":"osm way 235201434","source_tile":"181/411","surface_inferred":true},"geometry":{"type":"LineString","coordinates":[[-116.35542,33.21143],[-116.35536,33.2113],[-116.35534,33.21124],[-116.35516,33.21104],[-116.35507,33.2109],[-116.35483,33.2107],[-116.35475,33.21057],[-116.35461,33.21047],[-116.35459,33.21032],[-116.35434,33.21003],[-116.35414,33.20999],[-116.35404,33.20993],[-116.35403,33.20984],[-116.35412,33.20977],[-116.35415,33.20964],[-116.3544,33.20952],[-116.35457,33.20948]]}},{"type":"Feature","properties":{"name":"Rockhouse Canyon Road","road_class":"track","surface":"dirt","tracktype":"grade3","source":"OpenStreetMap","source_detail":"osm way 267586992","source_tile":"181/411"},"geometry":{"type":"LineString","coordinates":[[-116.28742,33.29717],[-116.28708,33.29755],[-116.28674,33.29785],[-116.28648,33.29811],[-116.28627,33.29826],[-116.28609,33.29838],[-116.28584,33.29847],[-116.28562,33.29858],[-116.28464,33.29914],[-116.28389,33.29958],[-116.28342,33.29991],[-116.28317,33.30012],[-116.2831,33.30018],[-116.28255,33.30078],[-116.28235,33.30092],[-116.28172,33.30148],[-116.28153,33.30173],[-116.28138,33.30202],[-116.2812,33.30255],[-116.28111,33.30292],[-116.28103,33.3032],[-116.28081,33.30381],[-116.28069,33.30424],[-116.28046,33.30552],[-116.28044,33.30582],[-116.28041,33.30622],[-116.28046,33.30677],[-116.2805,33.30703],[-116.28059,33.30722],[-116.28083,33.30763],[-116.28088,33.30777],[-116.28091,33.3079],[-116.28091,33.30817],[-116.28088,33.30828],[-116.28087,33.30852],[-116.28082,33.30878],[-116.28075,33.30899],[-116.2807,33.30928],[-116.2807,33.30958],[-116.28101,33.31056],[-116.28111,33.31093],[-116.28113,33.31111],[-116.28112,33.31123],[-116.28107,33.31142],[-116.28096,33.31162],[-116.2809,33.31178],[-116.28086,33.31194],[-116.28085,33.31219],[-116.28081,33.31244],[-116.28064,33.31298],[-116.28079,33.31325],[-116.28117,33.31376],[-116.28123,33.31388],[-116.28134,33.31406],[-116.28164,33.3148],[-116.28186,33.31536],[-116.28201,33.31582],[-116.28212,33.31628],[-116.28219,33.31669],[-116.28231,33.31699],[-116.28242,33.31715],[-116.28253,33.31729],[-116.28316,33.31781],[-116.28365,33.31826],[-116.28391,33.31857],[-116.28434,33.31928],[-116.2846,33.3199],[-116.28518,33.32091],[-116.28548,33.32142],[-116.28565,33.32163],[-116.28607,33.32206],[-116.28636,33.32243],[-116.28653,33.32262],[-116.28671,33.32278],[-116.28748,33.32335],[-116.28889,33.32449],[-116.29086,33.3264],[-116.2913,33.32688],[-116.29183,33.32743],[-116.29218,33.32786],[-116.29243,33.32819],[-116.29263,33.32859],[-116.29291,33.32905],[-116.29308,33.3293],[-116.29343,33.3299],[-116.29359,33.33009],[-116.29395,33.3304],[-116.29407,33.33054],[-116.29498,33.33192],[-116.29534,33.33251],[-116.29565,33.33296],[-116.29581,33.33325],[-116.29602,33.33379],[-116.29614,33.33416],[-116.29628,33.33468],[-116.29641,33.335],[-116.29681,33.33577],[-116.297,33.33601],[-116.29744,33.33632],[-116.29803,33.33666],[-116.29819,33.33672],[-116.29827,33.33683],[-116.29832,33.33706],[-116.29832,33.33734],[-116.29836,33.33857],[-116.29838,33.33949],[-116.29862,33.34032],[-116.29929,33.34149],[-116.29974,33.34182],[-116.30025,33.34228],[-116.3008,33.34323],[-116.3012,33.34392],[-116.30149,33.34462],[-116.30219,33.34616],[-116.30223,33.34634],[-116.30238,33.34656],[-116.30269,33.34731],[-116.30312,33.34828],[-116.3038,33.34989],[-116.30453,33.35153],[-116.30489,33.35229],[-116.30546,33.35362],[-116.30717,33.35743],[-116.30738,33.35789],[-116.30775,33.35875],[-116.3083,33.35998],[-116.30888,33.36121],[-116.30892,33.36135],[-116.309,33.36149],[-116.30914,33.36167],[-116.30917,33.36176],[-116.30918,33.36185],[-116.30922,33.36194],[-116.30935,33.36214],[-116.30948,33.36238],[-116.30963,33.36276],[-116.30968,33.36295],[-116.30973,33.36303],[-116.3102,33.36363],[-116.31029,33.36385],[-116.31033,33.36398],[-116.31054,33.3647],[-116.31066,33.36498],[-116.31091,33.36542],[-116.31095,33.36555],[-116.31102,33.36566],[-116.31116,33.3658],[-116.31179,33.36615],[-116.31192,33.36624],[-116.31203,33.36634],[-116.3122,33.36648],[-116.31316,33.36711],[-116.31342,33.36733],[-116.31486,33.36826],[-116.31527,33.36855],[-116.31553,33.36869],[-116.31583,33.36892],[-116.31664,33.36943],[-116.31934,33.3712],[-116.32031,33.37177],[-116.32055,33.37196],[-116.32072,33.37206],[-116.32119,33.37235],[-116.3213,33.37244],[-116.32146,33.37253],[-116.32169,33.37262],[-116.32185,33.37275],[-116.32204,33.3729],[-116.32236,33.37312],[-116.32271,33.3733],[-116.32298,33.37351],[-116.32335,33.37371],[-116.32374,33.374],[-116.32423,33.37425],[-116.32431,33.37433],[-116.32438,33.37442],[-116.32441,33.37459],[-116.32446,33.37466],[-116.32456,33.3747],[-116.3246,33.37493],[-116.32464,33.375],[-116.32474,33.37505],[-116.32486,33.37504],[-116.32492,33.37498],[-116.32503,33.37497],[-116.32515,33.375],[-116.32538,33.37523],[-116.32554,33.37546],[-116.32568,33.3756],[-116.32581,33.37583],[-116.32608,33.37612],[-116.3263,33.37623],[-116.32656,33.37643],[-116.32695,33.37653],[-116.32708,33.37662],[-116.32742,33.37669],[-116.32796,33.37671],[-116.32811,33.37671],[-116.32888,33.37684],[-116.3291,33.37689],[-116.32956,33.37691],[-116.33011,33.377],[-116.33029,33.37707],[-116.3309,33.37716],[-116.33154,33.37727],[-116.33247,33.37748],[-116.33398,33.3782],[-116.33435,33.37825],[-116.33449,33.37831],[-116.33467,33.37845],[-116.3351,33.37864],[-116.33528,33.37864],[-116.33538,33.37859],[-116.3356,33.37864],[-116.33577,33.37854],[-116.33588,33.37856],[-116.33601,33.37862],[-116.3364,33.3786],[-116.33674,33.37871],[-116.33706,33.37868],[-116.33716,33.37871],[-116.33724,33.37883],[-116.3376,33.37889],[-116.33788,33.37887],[-116.33811,33.37892],[-116.33831,33.37889],[-116.33876,33.37915],[-116.33898,33.37913],[-116.33978,33.37944],[-116.34011,33.37949],[-116.34086,33.37974],[-116.34111,33.37978],[-116.34205,33.38014],[-116.34214,33.38023],[-116.34214,33.38043],[-116.34234,33.38062],[-116.3425,33.38082],[-116.34266,33.38086],[-116.34285,33.38089],[-116.34305,33.38096],[-116.34329,33.38107],[-116.34346,33.38121],[-116.34382,33.38122],[-116.34396,33.38127],[-116.3442,33.38127],[-116.34464,33.38146],[-116.34488,33.38146],[-116.3452,33.38157],[-116.34555,33.38156],[-116.34601,33.38156],[-116.34633,33.38152],[-116.34654,33.38147],[-116.347,33.38148],[-116.34742,33.38166],[-116.34763,33.38159],[-116.34791,33.38163],[-116.34828,33.38161],[-116.3488,33.38173],[-116.34923,33.3817],[-116.34952,33.38175],[-116.34988,33.38185],[-116.35004,33.38186],[-116.35034,33.3818],[-116.35062,33.38177],[-116.35099,33.38176],[-116.35141,33.38177],[-116.35192,33.38175],[-116.35229,33.38163],[-116.35254,33.38164],[-116.35297,33.38171],[-116.35362,33.38172],[-116.35381,33.38178],[-116.35419,33.38211],[-116.35459,33.3824],[-116.3549,33.38269],[-116.35521,33.38288],[-116.3555,33.38295],[-116.35561,33.38306],[-116.35594,33.38368],[-116.35605,33.38392],[-116.35618,33.38414],[-116.35656,33.3845],[-116.35673,33.3848],[-116.35693,33.38499],[-116.35739,33.38512],[-116.35812,33.38518],[-116.35842,33.38513],[-116.35955,33.38516],[-116.36054,33.38523],[-116.36116,33.38529],[-116.3616,33.38552],[-116.36221,33.38574],[-116.36247,33.38586],[-116.36283,33.38624],[-116.363,33.38628],[-116.36316,33.38627],[-116.36339,33.38627],[-116.36362,33.38641],[-116.36388,33.38664],[-116.36418,33.38676],[-116.36466,33.38687],[-116.36489,33.38692],[-116.3652,33.38694],[-116.36569,33.3871],[-116.36586,33.38716]]}},{"type":"Feature","properties":{"name":"(unnamed public road)","road_class":"track","surface":"unpaved","tracktype":"grade3","source":"OpenStreetMap","source_detail":"osm way 416606234","source_tile":"181/411"},"geometry":{"type":"LineString","coordinates":[[-116.28079,33.29476],[-116.2808,33.29561],[-116.28092,33.296],[-116.28123,33.29624],[-116.28171,33.2963],[-116.28274,33.29634],[-116.28434,33.29629],[-116.28473,33.29632],[-116.28508,33.29624],[-116.28586,33.29623],[-116.28663,33.2962],[-116.28721,33.29624],[-116.28765,33.2963],[-116.28781,33.29632],[-116.28794,33.29639]]}},{"type":"Feature","properties":{"name":"(unnamed public road)","road_class":"track","surface":"dirt","tracktype":"grade4","source":"OpenStreetMap","source_detail":"osm way 421635256","source_tile":"181/411"},"geometry":{"type":"LineString","coordinates":[[-116.2698,33.22301],[-116.26998,33.22268],[-116.2702,33.22261],[-116.27031,33.22263],[-116.27038,33.22274],[-116.2705,33.22277],[-116.27072,33.2227],[-116.27094,33.22257],[-116.27105,33.22229],[-116.27112,33.22222],[-116.27122,33.22214],[-116.2714,33.22198],[-116.27161,33.22171],[-116.2719,33.22124],[-116.27198,33.22072],[-116.27211,33.22027],[-116.27209,33.21981],[-116.27202,33.21955],[-116.27196,33.21922],[-116.27187,33.21862],[-116.27189,33.21846],[-116.27209,33.21823],[-116.27207,33.21802],[-116.27208,33.21794],[-116.27226,33.21751],[-116.27257,33.21683],[-116.2729,33.21643],[-116.27303,33.2161],[-116.27312,33.2159],[-116.27311,33.21565],[-116.27323,33.21544],[-116.27347,33.21519],[-116.27359,33.21506],[-116.27414,33.21448],[-116.2743,33.21441],[-116.27483,33.21412],[-116.27539,33.21392],[-116.27576,33.21349],[-116.27584,33.21345],[-116.27633,33.21321],[-116.27661,33.21299],[-116.27695,33.21276],[-116.27706,33.21261],[-116.27717,33.21241],[-116.27755,33.21199],[-116.27781,33.21171],[-116.27805,33.21156],[-116.27846,33.21127],[-116.27893,33.21093],[-116.27914,33.21071],[-116.27939,33.21037],[-116.27962,33.21006],[-116.27985,33.2097],[-116.28009,33.20942],[-116.28017,33.20928],[-116.28046,33.20887],[-116.28069,33.20855],[-116.28084,33.20829],[-116.28114,33.2081],[-116.28145,33.20786],[-116.28161,33.20769],[-116.28193,33.20737],[-116.28215,33.20713],[-116.28229,33.20701],[-116.28259,33.2065],[-116.28275,33.20621],[-116.28284,33.20606],[-116.2829,33.2059],[-116.28299,33.20561],[-116.28305,33.20541],[-116.2831,33.20515],[-116.28308,33.20477],[-116.28309,33.20459],[-116.28311,33.20446],[-116.28307,33.20422],[-116.2831,33.20374],[-116.28312,33.20343],[-116.28318,33.20275],[-116.2832,33.20245],[-116.28326,33.20222],[-116.28331,33.20198],[-116.28329,33.20174],[-116.28325,33.2012],[-116.28323,33.20094],[-116.28325,33.20072],[-116.28331,33.20024],[-116.28333,33.19983],[-116.2834,33.19935],[-116.28347,33.19905],[-116.28354,33.19861],[-116.28369,33.19824],[-116.28362,33.19768],[-116.28371,33.19732],[-116.28379,33.19703],[-116.28389,33.19681],[-116.28388,33.1966],[-116.28391,33.19612],[-116.28393,33.19595],[-116.28406,33.19549],[-116.28415,33.19506],[-116.28422,33.19469],[-116.28423,33.19456],[-116.28424,33.19425]]}},{"type":"Feature","properties":{"name":"(unnamed public road)","road_class":"track","source":"OpenStreetMap","source_detail":"osm way 421636243","source_tile":"181/411","surface_inferred":true},"geometry":{"type":"LineString","coordinates":[[-116.30421,33.19522],[-116.30364,33.19606],[-116.30358,33.19626],[-116.30338,33.19641],[-116.30305,33.19644],[-116.30041,33.19707],[-116.29896,33.19742],[-116.29747,33.19779],[-116.29612,33.19809],[-116.29585,33.198]]}},{"type":"Feature","properties":{"name":"(unnamed public road)","road_class":"track","source":"OpenStreetMap","source_detail":"osm way 421636521","source_tile":"181/411","surface_inferred":true},"geometry":{"type":"LineString","coordinates":[[-116.30575,33.19618],[-116.30548,33.1962],[-116.30401,33.19608],[-116.30364,33.19606],[-116.30294,33.19597],[-116.30098,33.19581],[-116.29663,33.19536],[-116.2963,33.1953],[-116.29498,33.19515],[-116.28995,33.19472],[-116.28883,33.19462]]}},{"type":"Feature","properties":{"name":"(unnamed public road)","road_class":"track","surface":"unpaved","tracktype":"grade3","source":"OpenStreetMap","source_detail":"osm way 483156510","source_tile":"181/411"},"geometry":{"type":"LineString","coordinates":[[-116.29536,33.2333],[-116.29484,33.23303],[-116.29349,33.23235],[-116.2928,33.23149],[-116.29243,33.2312],[-116.29186,33.23044],[-116.29172,33.23032],[-116.29165,33.23022],[-116.29166,33.2301],[-116.29172,33.22998],[-116.29192,33.22975],[-116.29192,33.22956],[-116.29204,33.22799],[-116.29176,33.22702],[-116.29155,33.22647],[-116.29122,33.22612],[-116.29113,33.22597]]}},{"type":"Feature","properties":{"name":"(unnamed public road)","road_class":"track","source":"OpenStreetMap","source_detail":"osm way 483156512","source_tile":"181/411","surface_inferred":true},"geometry":{"type":"LineString","coordinates":[[-116.30339,33.21082],[-116.30341,33.20973],[-116.30346,33.20713],[-116.30347,33.20405],[-116.30347,33.20393],[-116.30346,33.20365],[-116.30351,33.20223],[-116.30352,33.20194],[-116.30356,33.19879],[-116.30358,33.19626]]}},{"type":"Feature","properties":{"name":"(unnamed public road)","road_class":"track","source":"OpenStreetMap","source_detail":"osm way 483156513","source_tile":"181/411","surface_inferred":true},"geometry":{"type":"LineString","coordinates":[[-116.30352,33.20194],[-116.30322,33.20187],[-116.30167,33.20113],[-116.30168,33.19887]]}},{"type":"Feature","properties":{"name":"(unnamed public road)","road_class":"track","source":"OpenStreetMap","source_detail":"osm way 483156514","source_tile":"181/411","surface_inferred":true},"geometry":{"type":"LineString","coordinates":[[-116.30347,33.20405],[-116.30113,33.20401]]}},{"type":"Feature","properties":{"name":"(unnamed public road)","road_class":"track","source":"OpenStreetMap","source_detail":"osm way 483156515","source_tile":"181/411","surface_inferred":true},"geometry":{"type":"LineString","coordinates":[[-116.30341,33.20973],[-116.303,33.20972],[-116.30286,33.20969],[-116.30266,33.20973],[-116.30129,33.20964],[-116.30043,33.20947]]}},{"type":"Feature","properties":{"name":"(unnamed public road)","road_class":"track","source":"OpenStreetMap","source_detail":"osm way 483156516","source_tile":"181/411","surface_inferred":true},"geometry":{"type":"LineString","coordinates":[[-116.30339,33.21082],[-116.30342,33.2119],[-116.3034,33.21241],[-116.30348,33.21313],[-116.30357,33.21342],[-116.30361,33.21383],[-116.30383,33.21407],[-116.30387,33.21424],[-116.30383,33.21432],[-116.30368,33.2144]]}},{"type":"Feature","properties":{"name":"(unnamed public road)","road_class":"track","source":"OpenStreetMap","source_detail":"osm way 483156517","source_tile":"181/411","surface_inferred":true},"geometry":{"type":"LineString","coordinates":[[-116.30368,33.2144],[-116.3034,33.21463],[-116.30331,33.21488],[-116.30307,33.2151],[-116.30247,33.21601],[-116.3021,33.21643],[-116.30192,33.21674],[-116.30149,33.21729],[-116.30136,33.2176],[-116.30105,33.21807]]}},{"type":"Feature","properties":{"name":"(unnamed public road)","road_class":"track","source":"OpenStreetMap","source_detail":"osm way 483156521","source_tile":"181/411","surface_inferred":true},"geometry":{"type":"LineString","coordinates":[[-116.32328,33.22681],[-116.32155,33.22685],[-116.32151,33.2269],[-116.32153,33.22792],[-116.32149,33.22811],[-116.32141,33.22822],[-116.32132,33.22825],[-116.32062,33.22823],[-116.3204,33.22816],[-116.32015,33.22817],[-116.32001,33.22825],[-116.3199,33.22829],[-116.31959,33.22828],[-116.31716,33.22833],[-116.31637,33.22814],[-116.31612,33.22808],[-116.31586,33.22808],[-116.31563,33.22807],[-116.31545,33.22803],[-116.3154,33.22797],[-116.31527,33.22797],[-116.31495,33.22809],[-116.31452,33.22826]]}},{"type":"Feature","properties":{"name":"(unnamed public road)","road_class":"track","source":"OpenStreetMap","source_detail":"osm way 483156522","source_tile":"181/411","surface_inferred":true},"geometry":{"type":"LineString","coordinates":[[-116.32159,33.22271],[-116.32151,33.22288],[-116.32156,33.22349],[-116.32146,33.22375],[-116.3215,33.22392],[-116.32154,33.2241],[-116.32154,33.2243],[-116.32157,33.22448],[-116.32147,33.22451],[-116.32137,33.22448],[-116.32117,33.22449],[-116.32104,33.22453],[-116.32067,33.2246],[-116.32004,33.22482],[-116.31976,33.22481],[-116.31961,33.22479],[-116.31888,33.22473],[-116.31815,33.2247],[-116.31723,33.2249],[-116.31644,33.22493],[-116.31629,33.22489],[-116.31616,33.22496],[-116.31599,33.22503],[-116.31568,33.22499],[-116.31383,33.22532],[-116.31349,33.22552],[-116.3129,33.22549],[-116.31254,33.22542],[-116.31109,33.22527],[-116.31009,33.2253],[-116.30961,33.22545],[-116.30935,33.22544],[-116.30918,33.22536],[-116.30844,33.22501],[-116.30792,33.22494],[-116.30771,33.22493],[-116.30744,33.22502],[-116.30728,33.22509],[-116.30713,33.22515],[-116.30703,33.22527],[-116.30683,33.22571],[-116.30663,33.22579],[-116.30623,33.22585],[-116.30597,33.22591],[-116.30544,33.22664],[-116.30506,33.22672],[-116.30477,33.22674],[-116.30444,33.22678],[-116.30428,33.22688],[-116.30412,33.22707],[-116.30404,33.22712],[-116.30391,33.2271],[-116.30369,33.22683],[-116.30352,33.22676],[-116.30337,33.2267],[-116.30316,33.22666],[-116.30264,33.22661],[-116.30253,33.22658],[-116.30143,33.22627],[-116.30114,33.22627],[-116.3004,33.22643],[-116.29984,33.2267],[-116.29921,33.22811],[-116.29886,33.22827],[-116.29821,33.22848],[-116.29795,33.2286],[-116.29781,33.22881],[-116.29765,33.22905],[-116.29733,33.22984],[-116.29707,33.23074],[-116.29678,33.23115],[-116.29661,33.23148],[-116.29656,33.23171],[-116.29648,33.2319],[-116.29639,33.23202],[-116.2958,33.23211],[-116.29533,33.23208]]}},{"type":"Feature","properties":{"name":"(unnamed public road)","road_class":"track","source":"OpenStreetMap","source_detail":"osm way 483156523","source_tile":"181/411","surface_inferred":true},"geometry":{"type":"LineString","coordinates":[[-116.32157,33.22448],[-116.32151,33.22493],[-116.32138,33.22514],[-116.32146,33.22559],[-116.32162,33.22592],[-116.32161,33.22633],[-116.32154,33.2265],[-116.32155,33.22685]]}},{"type":"Feature","properties":{"name":"(unnamed public road)","road_class":"track","source":"OpenStreetMap","source_detail":"osm way 570988998","source_tile":"181/411","surface_inferred":true},"geometry":{"type":"LineString","coordinates":[[-116.36027,33.19957],[-116.36017,33.19954],[-116.35869,33.19948],[-116.35816,33.19949],[-116.35709,33.19945],[-116.35682,33.19946],[-116.35648,33.19941],[-116.35562,33.19949],[-116.35501,33.19937],[-116.35483,33.19942],[-116.35453,33.19939],[-116.35422,33.1994],[-116.35385,33.19938],[-116.3537,33.19939],[-116.35344,33.19935],[-116.35327,33.19936],[-116.35319,33.19937],[-116.35282,33.19935],[-116.35207,33.19935],[-116.3517,33.19933],[-116.35131,33.19931],[-116.35125,33.19931],[-116.35089,33.1993],[-116.35057,33.1993],[-116.34988,33.19925],[-116.34907,33.19925],[-116.34874,33.19927],[-116.34853,33.19927],[-116.34839,33.19925],[-116.34808,33.19922],[-116.34783,33.19922],[-116.34715,33.1992],[-116.34713,33.19943],[-116.34716,33.19968],[-116.34709,33.19991],[-116.34709,33.20019],[-116.34713,33.20105],[-116.34713,33.20115],[-116.34711,33.20125],[-116.34712,33.20147],[-116.34712,33.20165],[-116.34718,33.20228],[-116.3472,33.20247],[-116.34725,33.20254],[-116.34726,33.20263],[-116.34721,33.20276],[-116.34721,33.20289],[-116.34722,33.20326],[-116.34718,33.20342],[-116.3472,33.20363],[-116.34717,33.20379],[-116.34712,33.20393],[-116.34713,33.20402],[-116.34715,33.20424],[-116.3472,33.20431],[-116.34729,33.20446],[-116.34732,33.20469],[-116.34735,33.20501],[-116.34731,33.2053],[-116.34734,33.20548],[-116.34732,33.20566],[-116.34726,33.20592],[-116.34726,33.20596],[-116.34725,33.20605],[-116.34729,33.20613],[-116.34736,33.20625],[-116.34736,33.20632],[-116.34733,33.2064],[-116.34726,33.20649],[-116.34719,33.20654]]}},{"type":"Feature","properties":{"name":"(unnamed public road)","road_class":"track","surface":"sand","tracktype":"grade3","source":"OpenStreetMap","source_detail":"osm way 570988999","source_tile":"181/411"},"geometry":{"type":"LineString","coordinates":[[-116.36008,33.21148],[-116.36025,33.19963],[-116.36027,33.19957],[-116.36032,33.19955],[-116.36066,33.19954],[-116.36203,33.19957],[-116.36376,33.19963],[-116.36441,33.19962],[-116.36448,33.1996],[-116.36453,33.19956],[-116.36457,33.1995],[-116.36456,33.19942],[-116.36457,33.19919],[-116.36456,33.19869],[-116.36458,33.19827],[-116.36454,33.19638],[-116.36456,33.19525],[-116.36452,33.19413],[-116.36454,33.19381],[-116.36455,33.19294],[-116.3645,33.19262],[-116.36451,33.19258]]}},{"type":"Feature","properties":{"name":"(unnamed public road)","road_class":"track","surface":"unpaved","tracktype":"grade3","source":"OpenStreetMap","source_detail":"osm way 665257882","source_tile":"181/411"},"geometry":{"type":"LineString","coordinates":[[-116.28674,33.29785],[-116.28614,33.29744],[-116.28515,33.29699],[-116.28477,33.29683],[-116.28466,33.29672],[-116.28465,33.29654],[-116.28463,33.29644],[-116.28454,33.29637],[-116.28434,33.29629]]}},{"type":"Feature","properties":{"name":"(unnamed public road)","road_class":"track","surface":"unpaved","source":"OpenStreetMap","source_detail":"osm way 665257883","source_tile":"181/411"},"geometry":{"type":"LineString","coordinates":[[-116.28423,33.19456],[-116.284,33.19445],[-116.28352,33.19443],[-116.28255,33.19442],[-116.2815,33.19439],[-116.27988,33.19438],[-116.27975,33.19434],[-116.2796,33.19422],[-116.27947,33.19404],[-116.27944,33.19389]]}},{"type":"Feature","properties":{"name":"(unnamed public road)","road_class":"track","surface":"unpaved","source":"OpenStreetMap","source_detail":"osm way 665257884","source_tile":"181/411"},"geometry":{"type":"LineString","coordinates":[[-116.25703,33.21808],[-116.25712,33.21788],[-116.2571,33.21762],[-116.25744,33.2173],[-116.25745,33.21705],[-116.25745,33.2165],[-116.25766,33.21578],[-116.25827,33.21504],[-116.25835,33.21462],[-116.25832,33.21393],[-116.25873,33.21324],[-116.25871,33.21227],[-116.25847,33.21162],[-116.25823,33.21106],[-116.25842,33.20994],[-116.25856,33.20974],[-116.25902,33.20926],[-116.25939,33.20871],[-116.26001,33.208],[-116.26055,33.20701],[-116.26096,33.20655],[-116.26091,33.20603],[-116.26107,33.20574],[-116.26099,33.20526],[-116.26128,33.2046],[-116.26119,33.20423],[-116.26129,33.20383],[-116.26121,33.20319],[-116.26097,33.20259],[-116.26099,33.20243],[-116.26119,33.20234],[-116.26153,33.20232],[-116.26188,33.20215],[-116.26255,33.20148],[-116.26361,33.20108],[-116.26635,33.20048],[-116.2688,33.20016],[-116.27013,33.19957],[-116.27095,33.19884],[-116.2717,33.19841],[-116.27202,33.19797],[-116.27269,33.19765],[-116.27331,33.19665],[-116.27518,33.19568],[-116.27601,33.19533],[-116.27671,33.19531],[-116.27698,33.19519],[-116.27705,33.19516],[-116.27788,33.19519],[-116.27864,33.19509],[-116.2793,33.1952],[-116.27943,33.19514],[-116.27968,33.19504],[-116.2798,33.19462],[-116.27988,33.19438]]}},{"type":"Feature","properties":{"name":"(unnamed public road)","road_class":"track","source":"OpenStreetMap","source_detail":"osm way 665257887","source_tile":"181/411","surface_inferred":true},"geometry":{"type":"LineString","coordinates":[[-116.30368,33.2144],[-116.30347,33.21445],[-116.30317,33.21455],[-116.30266,33.21468],[-116.30238,33.21467],[-116.30193,33.21468]]}},{"type":"Feature","properties":{"name":"Borrego Sink Wash Road","road_class":"track","surface":"dirt","tracktype":"grade4","source":"OpenStreetMap","source_detail":"osm way 665257888","source_tile":"181/411"},"geometry":{"type":"LineString","coordinates":[[-116.29531,33.22675],[-116.29518,33.22661],[-116.29482,33.22626],[-116.29446,33.22618],[-116.29396,33.22617],[-116.29367,33.22623],[-116.29298,33.22625],[-116.29179,33.22603],[-116.29113,33.22597],[-116.29049,33.22594],[-116.29014,33.22584],[-116.28948,33.22582],[-116.28926,33.22585],[-116.28908,33.22594],[-116.28801,33.22595],[-116.28665,33.226],[-116.2849,33.22585],[-116.28372,33.22585],[-116.28292,33.22602],[-116.28252,33.22615],[-116.28213,33.22626],[-116.28138,33.22625],[-116.28042,33.22606],[-116.28021,33.22611],[-116.27935,33.22601],[-116.27811,33.22596],[-116.27743,33.22583],[-116.27713,33.22574],[-116.27649,33.22573],[-116.27632,33.22579],[-116.27564,33.2255],[-116.27524,33.225],[-116.27519,33.22472],[-116.2751,33.22458],[-116.27488,33.22434],[-116.27462,33.22414],[-116.27434,33.22411],[-116.27409,33.22414],[-116.2737,33.22388],[-116.27364,33.22387],[-116.273,33.22359],[-116.27276,33.22363],[-116.27219,33.22377],[-116.27177,33.22383],[-116.27145,33.22374],[-116.27082,33.22382],[-116.2705,33.22375],[-116.27042,33.22357],[-116.27019,33.22328],[-116.2698,33.22301],[-116.26943,33.22295],[-116.26908,33.22286],[-116.26874,33.22299],[-116.26838,33.22302],[-116.26802,33.22313],[-116.26778,33.2231],[-116.26755,33.22288],[-116.26739,33.22285],[-116.26722,33.22274],[-116.26719,33.22252],[-116.26705,33.22231],[-116.26642,33.22224],[-116.26576,33.2217],[-116.26537,33.22143],[-116.26482,33.22126],[-116.26404,33.22128],[-116.2638,33.22118],[-116.26366,33.22097],[-116.26351,33.2206],[-116.26332,33.22008],[-116.26308,33.21963],[-116.26264,33.21855],[-116.2624,33.21806],[-116.26211,33.21765],[-116.26198,33.21752],[-116.26175,33.21738],[-116.26119,33.21717],[-116.26049,33.21716],[-116.26021,33.2172],[-116.25972,33.21738],[-116.2588,33.21758],[-116.25816,33.21772],[-116.25722,33.21805],[-116.25703,33.21808],[-116.25684,33.21812],[-116.25653,33.21813],[-116.25607,33.21808],[-116.25583,33.21801],[-116.25523,33.2177],[-116.25454,33.21746],[-116.25406,33.2174],[-116.25366,33.21741],[-116.25286,33.21755],[-116.2526,33.21756],[-116.25184,33.21743],[-116.25152,33.21733],[-116.25125,33.21724],[-116.2508,33.21708],[-116.25032,33.21682],[-116.24994,33.21661],[-116.24957,33.21632],[-116.24882,33.21559],[-116.24821,33.21513],[-116.24767,33.21479],[-116.2473,33.21464],[-116.24692,33.21461],[-116.24655,33.21467],[-116.24625,33.21481],[-116.24576,33.21523],[-116.24534,33.2154],[-116.24453,33.21569],[-116.2435,33.21581],[-116.24315,33.21593],[-116.24286,33.21621],[-116.24243,33.21691],[-116.2422,33.21721],[-116.24169,33.21764],[-116.24124,33.21786],[-116.24028,33.21803],[-116.23935,33.2181],[-116.23829,33.21796],[-116.23772,33.21774],[-116.2374,33.21753],[-116.23674,33.21671],[-116.23618,33.21604],[-116.23579,33.21581],[-116.23501,33.21569],[-116.2341,33.21589],[-116.23279,33.21648],[-116.23209,33.21671],[-116.23165,33.2168],[-116.23111,33.21678],[-116.23073,33.21669],[-116.23028,33.21645],[-116.22954,33.21589],[-116.22854,33.21552],[-116.22766,33.21546],[-116.22724,33.2155],[-116.22676,33.2156]]}},{"type":"Feature","properties":{"name":"Dump Road","road_class":"track","surface":"unpaved","tracktype":"grade3","source":"OpenStreetMap","source_detail":"osm way 665257892","source_tile":"181/411"},"geometry":{"type":"LineString","coordinates":[[-116.29498,33.24859],[-116.29585,33.24829],[-116.29597,33.2476],[-116.29605,33.24716],[-116.29604,33.247],[-116.29543,33.24636],[-116.29531,33.24614]]}},{"type":"Feature","properties":{"name":"Dump Road","road_class":"track","surface":"unpaved","tracktype":"grade3","source":"OpenStreetMap","source_detail":"osm way 665257894","source_tile":"181/411"},"geometry":{"type":"LineString","coordinates":[[-116.29531,33.24614],[-116.29529,33.24582],[-116.2953,33.2432],[-116.29528,33.23982],[-116.29528,33.23951],[-116.2953,33.23634],[-116.2953,33.23419],[-116.2954,33.23399],[-116.29543,33.23363],[-116.29536,33.2333],[-116.29535,33.23326],[-116.29531,33.23241],[-116.29522,33.23228],[-116.29522,33.23219],[-116.29533,33.23208],[-116.29533,33.23193],[-116.29532,33.23161],[-116.29528,33.23147],[-116.29533,33.23126],[-116.29533,33.23109],[-116.29524,33.23091],[-116.29529,33.23074],[-116.29532,33.23055],[-116.29528,33.23035],[-116.29541,33.23002],[-116.29552,33.2298],[-116.29551,33.22959],[-116.29532,33.22919],[-116.29535,33.2286],[-116.29529,33.22836],[-116.29528,33.22817],[-116.2953,33.22755],[-116.29526,33.22721],[-116.29527,33.22698],[-116.29533,33.22685],[-116.29531,33.22675],[-116.29527,33.22657],[-116.29528,33.22628],[-116.29536,33.22594]]}},{"type":"Feature","properties":{"name":"(unnamed public road)","road_class":"track","surface":"unpaved","tracktype":"grade3","source":"OpenStreetMap","source_detail":"osm way 665751114","source_tile":"181/411"},"geometry":{"type":"LineString","coordinates":[[-116.32905,33.21158],[-116.33006,33.21156]]}},{"type":"Feature","properties":{"name":"Borrego Sink Road","road_class":"track","surface":"unpaved","tracktype":"grade3","source":"OpenStreetMap","source_detail":"osm way 665751116","source_tile":"181/411"},"geometry":{"type":"LineString","coordinates":[[-116.31169,33.21725],[-116.31372,33.21685],[-116.31421,33.21684],[-116.31517,33.21712],[-116.31526,33.21715],[-116.31558,33.21711],[-116.31566,33.21706],[-116.31579,33.21694],[-116.31682,33.21643],[-116.31814,33.21591],[-116.31916,33.21555],[-116.31984,33.21541],[-116.32014,33.2152],[-116.32033,33.21493],[-116.3204,33.21451],[-116.32042,33.21419],[-116.32033,33.21351],[-116.32032,33.21345],[-116.32029,33.21307],[-116.32029,33.21283],[-116.32031,33.21259],[-116.32047,33.21238],[-116.32114,33.21159],[-116.3213,33.21137],[-116.32169,33.21122],[-116.32215,33.21091],[-116.32227,33.21086],[-116.32235,33.21083],[-116.32274,33.21078],[-116.32307,33.21078],[-116.3233,33.21082],[-116.3234,33.21086],[-116.32414,33.21098],[-116.3242,33.21099],[-116.32448,33.21116],[-116.32456,33.21128],[-116.3249,33.21146],[-116.32513,33.21149],[-116.32536,33.21156],[-116.32556,33.21166],[-116.3257,33.2117],[-116.32708,33.21163],[-116.32828,33.21159],[-116.32905,33.21158],[-116.32925,33.21153],[-116.32933,33.21141],[-116.32933,33.21108]]}},{"type":"Feature","properties":{"name":"(unnamed public road)","road_class":"track","surface":"unpaved","tracktype":"grade2","source":"OpenStreetMap","source_detail":"osm way 665751117","source_tile":"181/411"},"geometry":{"type":"LineString","coordinates":[[-116.29536,33.22594],[-116.29519,33.22611],[-116.295,33.22621],[-116.29482,33.22626]]}},{"type":"Feature","properties":{"name":"Dump Road","road_class":"track","surface":"unpaved","tracktype":"grade3","source":"OpenStreetMap","source_detail":"osm way 665751118","source_tile":"181/411"},"geometry":{"type":"LineString","coordinates":[[-116.29846,33.22156],[-116.29832,33.22171],[-116.29791,33.22238],[-116.29622,33.22468],[-116.29536,33.22594]]}},{"type":"Feature","properties":{"name":"Clark Dry Lake Road","road_class":"track","surface":"dirt","tracktype":"grade3","source":"OpenStreetMap","source_detail":"osm way 665751142","source_tile":"181/411"},"geometry":{"type":"LineString","coordinates":[[-116.27862,33.31747],[-116.27739,33.31821],[-116.27551,33.31927],[-116.27526,33.31934],[-116.27413,33.3195],[-116.27189,33.31984],[-116.27178,33.31986],[-116.27165,33.31988],[-116.27129,33.31993],[-116.27109,33.32],[-116.27095,33.32]]}},{"type":"Feature","properties":{"name":"(unnamed public road)","road_class":"track","surface":"unpaved","tracktype":"grade2","source":"OpenStreetMap","source_detail":"osm way 665751144","source_tile":"181/411"},"geometry":{"type":"LineString","coordinates":[[-116.27165,33.31988],[-116.27184,33.31681],[-116.27205,33.31334],[-116.27204,33.31325],[-116.27207,33.31315],[-116.27215,33.31309],[-116.27235,33.3131],[-116.27592,33.31322],[-116.27636,33.31291],[-116.27788,33.31068],[-116.27883,33.30916],[-116.2797,33.30724],[-116.28044,33.30582]]}},{"type":"Feature","properties":{"name":"Clark Dry Lake Road","road_class":"track","surface":"dirt","tracktype":"grade3","source":"OpenStreetMap","source_detail":"osm way 665751145","source_tile":"181/411"},"geometry":{"type":"LineString","coordinates":[[-116.28064,33.31298],[-116.28046,33.31334],[-116.28024,33.31414],[-116.28013,33.31435],[-116.2796,33.31523],[-116.27924,33.3159],[-116.27911,33.31621],[-116.27883,33.31685],[-116.27862,33.31747],[-116.27854,33.31768],[-116.27807,33.31902],[-116.27793,33.31965],[-116.27777,33.32027],[-116.27758,33.32093],[-116.2771,33.32184],[-116.27673,33.32248],[-116.27635,33.32304],[-116.27614,33.32337],[-116.27595,33.32376],[-116.27571,33.32409],[-116.27565,33.32421],[-116.27548,33.32468],[-116.27534,33.3252],[-116.27499,33.32623],[-116.27468,33.32719],[-116.27428,33.32867],[-116.27401,33.32925],[-116.27399,33.3293],[-116.27396,33.32946],[-116.27388,33.32967],[-116.27389,33.33021],[-116.27366,33.33078],[-116.27309,33.33169],[-116.27253,33.33277],[-116.27176,33.33367],[-116.27093,33.33432],[-116.26983,33.33518],[-116.26869,33.33647],[-116.26758,33.33773],[-116.2663,33.33905],[-116.26529,33.33996],[-116.26438,33.34074],[-116.26337,33.34152],[-116.26274,33.34205],[-116.2619,33.34263],[-116.26172,33.3428],[-116.26131,33.34346],[-116.26118,33.34371],[-116.26087,33.34402],[-116.26041,33.34484],[-116.25985,33.34562],[-116.25944,33.34638],[-116.25922,33.34717],[-116.2591,33.34791],[-116.25908,33.34818],[-116.25907,33.34828],[-116.25906,33.34849],[-116.25906,33.34946],[-116.25906,33.3499],[-116.25908,33.35005],[-116.25913,33.3504],[-116.25921,33.35081],[-116.25926,33.35112],[-116.25937,33.35126],[-116.2596,33.35153],[-116.25998,33.35186],[-116.25989,33.35198],[-116.25968,33.35218],[-116.25932,33.35245],[-116.25925,33.35268],[-116.25926,33.35278],[-116.25905,33.35296],[-116.259,33.35296],[-116.25825,33.3529],[-116.25807,33.35301],[-116.25758,33.35359],[-116.2575,33.35368],[-116.25744,33.35376],[-116.25733,33.3543],[-116.25737,33.35444],[-116.25769,33.35461],[-116.25818,33.3548],[-116.25835,33.35489],[-116.25844,33.35495],[-116.25897,33.3553],[-116.2598,33.35581],[-116.26068,33.3564],[-116.26137,33.35698],[-116.26189,33.35732],[-116.26208,33.35742],[-116.26225,33.3575],[-116.26245,33.35755],[-116.26271,33.35749],[-116.26291,33.35748],[-116.26324,33.35752],[-116.26358,33.35776],[-116.2635,33.35869],[-116.2635,33.35955],[-116.26351,33.36027],[-116.26352,33.36034]]}},{"type":"Feature","properties":{"name":"(unnamed public road)","road_class":"track","source":"OpenStreetMap","source_detail":"osm way 999517963","source_tile":"181/411","surface_inferred":true},"geometry":{"type":"LineString","coordinates":[[-116.33466,33.22074],[-116.3347,33.22099],[-116.33486,33.22128],[-116.3349,33.22161],[-116.33493,33.22212],[-116.33494,33.22302]]}},{"type":"Feature","properties":{"name":"(unnamed public road)","road_class":"track","tracktype":"grade5","source":"OpenStreetMap","source_detail":"osm way 999517964","source_tile":"181/411","surface_inferred":true},"geometry":{"type":"LineString","coordinates":[[-116.34754,33.22077],[-116.34727,33.21361],[-116.34732,33.21225]]}},{"type":"Feature","properties":{"name":"(unnamed public road)","road_class":"track","source":"OpenStreetMap","source_detail":"osm way 1001565999","source_tile":"181/411","surface_inferred":true},"geometry":{"type":"LineString","coordinates":[[-116.35327,33.19936],[-116.35318,33.1995],[-116.35304,33.19956],[-116.353,33.19955],[-116.353,33.19945],[-116.35295,33.19938],[-116.35282,33.19935],[-116.35286,33.19932],[-116.35294,33.19924],[-116.35298,33.1992],[-116.35303,33.19918],[-116.35309,33.19918],[-116.35313,33.19922],[-116.35318,33.19929],[-116.35319,33.19937]]}},{"type":"Feature","properties":{"name":"(unnamed public road)","road_class":"track","source":"OpenStreetMap","source_detail":"osm way 1001566000","source_tile":"181/411","surface_inferred":true},"geometry":{"type":"LineString","coordinates":[[-116.35089,33.1993],[-116.35097,33.19918],[-116.35106,33.19913],[-116.35121,33.19913],[-116.35128,33.19918],[-116.35131,33.19931]]}},{"type":"Feature","properties":{"name":"(unnamed public road)","road_class":"track","source":"OpenStreetMap","source_detail":"osm way 1001566001","source_tile":"181/411","surface_inferred":true},"geometry":{"type":"LineString","coordinates":[[-116.34839,33.19925],[-116.34846,33.19939],[-116.34859,33.1995],[-116.3487,33.19949],[-116.34884,33.1994],[-116.34897,33.19928],[-116.34907,33.19925]]}},{"type":"Feature","properties":{"name":"(unnamed public road)","road_class":"track","source":"OpenStreetMap","source_detail":"osm way 1001566002","source_tile":"181/411","surface_inferred":true},"geometry":{"type":"LineString","coordinates":[[-116.34709,33.20019],[-116.34714,33.20011],[-116.34725,33.19996],[-116.34733,33.19985],[-116.34755,33.19964],[-116.34766,33.19937],[-116.34783,33.19922]]}},{"type":"Feature","properties":{"name":"(unnamed public road)","road_class":"track","source":"OpenStreetMap","source_detail":"osm way 1001566003","source_tile":"181/411","surface_inferred":true},"geometry":{"type":"LineString","coordinates":[[-116.34721,33.20276],[-116.34719,33.2026],[-116.34719,33.20253],[-116.3472,33.20247]]}},{"type":"Feature","properties":{"name":"(unnamed public road)","road_class":"track","source":"OpenStreetMap","source_detail":"osm way 1001566004","source_tile":"181/411","surface_inferred":true},"geometry":{"type":"LineString","coordinates":[[-116.34715,33.20424],[-116.34706,33.20447],[-116.34688,33.20478],[-116.34675,33.20499],[-116.3467,33.20516],[-116.34673,33.20526],[-116.3468,33.20537],[-116.34682,33.20549],[-116.34686,33.20582],[-116.34696,33.20586],[-116.34726,33.20596]]}},{"type":"Feature","properties":{"name":"(unnamed public road)","road_class":"track","source":"OpenStreetMap","source_detail":"osm way 1001566005","source_tile":"181/411","surface_inferred":true},"geometry":{"type":"LineString","coordinates":[[-116.34898,33.20736],[-116.34909,33.20737],[-116.3492,33.20737],[-116.34931,33.20736],[-116.34939,33.2073],[-116.3494,33.20716],[-116.34934,33.20714],[-116.34922,33.20725],[-116.3492,33.20737]]}},{"type":"Feature","properties":{"name":"(unnamed public road)","road_class":"track","source":"OpenStreetMap","source_detail":"osm way 1001566010","source_tile":"181/411","surface_inferred":true},"geometry":{"type":"LineString","coordinates":[[-116.35471,33.20939],[-116.35475,33.20945],[-116.35473,33.20954],[-116.35467,33.20963],[-116.35469,33.20972],[-116.35479,33.20978],[-116.35483,33.20987],[-116.35493,33.20993],[-116.35495,33.21007],[-116.35496,33.21018],[-116.35493,33.21024],[-116.35497,33.21049],[-116.35507,33.21062],[-116.35506,33.21078],[-116.35515,33.21084],[-116.35522,33.2109],[-116.35521,33.21099],[-116.35516,33.21104]]}},{"type":"Feature","properties":{"name":"(unnamed public road)","road_class":"track","source":"OpenStreetMap","source_detail":"osm way 1001566011","source_tile":"181/411","surface_inferred":true},"geometry":{"type":"LineString","coordinates":[[-116.35471,33.20939],[-116.35457,33.20948]]}},{"type":"Feature","properties":{"name":"(unnamed public road)","road_class":"track","source":"OpenStreetMap","source_detail":"osm way 1001566012","source_tile":"181/411","surface_inferred":true},"geometry":{"type":"LineString","coordinates":[[-116.35536,33.2113],[-116.35546,33.21122],[-116.35553,33.21113],[-116.3555,33.21105],[-116.35529,33.21094],[-116.35522,33.2109]]}},{"type":"Feature","properties":{"name":"(unnamed public road)","road_class":"track","surface":"sand","tracktype":"grade3","source":"OpenStreetMap","source_detail":"osm way 1001566013","source_tile":"181/411"},"geometry":{"type":"LineString","coordinates":[[-116.36478,33.21159],[-116.36472,33.21081],[-116.36474,33.20946],[-116.3647,33.20916],[-116.36468,33.20745],[-116.36468,33.20585],[-116.36466,33.20356],[-116.36465,33.20323],[-116.36465,33.203],[-116.36459,33.20128],[-116.36503,33.20122],[-116.36532,33.20116],[-116.36565,33.20102],[-116.36603,33.20079],[-116.36624,33.20055],[-116.36647,33.20041],[-116.36658,33.20024],[-116.36651,33.2001],[-116.36643,33.20005],[-116.36627,33.20008],[-116.36621,33.20025],[-116.36624,33.20043],[-116.36624,33.20055]]}},{"type":"Feature","properties":{"name":"(unnamed public road)","road_class":"track","source":"OpenStreetMap","source_detail":"osm way 1040980885","source_tile":"181/411","surface_inferred":true},"geometry":{"type":"LineString","coordinates":[[-116.27823,33.1874],[-116.2782,33.18734],[-116.2781,33.1873],[-116.27803,33.18729],[-116.27707,33.18726],[-116.27703,33.18726],[-116.27394,33.1872],[-116.2734,33.18703],[-116.27311,33.18684],[-116.27252,33.18648],[-116.27225,33.1864],[-116.27209,33.18635],[-116.27176,33.18636],[-116.27142,33.18645],[-116.27112,33.18666],[-116.27101,33.18669],[-116.27079,33.18667],[-116.27066,33.18675],[-116.27048,33.18676],[-116.2703,33.18682],[-116.27019,33.18704],[-116.27014,33.18719],[-116.27007,33.18726],[-116.26995,33.18725],[-116.26974,33.18718],[-116.26953,33.18717],[-116.26912,33.18725],[-116.26862,33.18741],[-116.26828,33.18753],[-116.26817,33.18762]]}},{"type":"Feature","properties":{"name":"(unnamed public road)","road_class":"track","source":"OpenStreetMap","source_detail":"osm way 1040980887","source_tile":"181/411","surface_inferred":true},"geometry":{"type":"LineString","coordinates":[[-116.28519,33.18331],[-116.28509,33.18361],[-116.28502,33.18367],[-116.28278,33.18369],[-116.282,33.1837],[-116.28028,33.18372],[-116.2775,33.18374],[-116.27713,33.18379],[-116.27687,33.18375],[-116.27437,33.18378],[-116.27259,33.18379],[-116.2706,33.18381],[-116.26984,33.18376],[-116.26845,33.1837],[-116.2665,33.18366],[-116.26583,33.18361],[-116.26443,33.18357],[-116.26338,33.18355],[-116.26289,33.18347],[-116.26264,33.18354],[-116.26229,33.18367]]}},{"type":"Feature","properties":{"name":"(unnamed public road)","road_class":"track","source":"OpenStreetMap","source_detail":"osm way 1040980896","source_tile":"181/411","surface_inferred":true},"geometry":{"type":"LineString","coordinates":[[-116.282,33.19285],[-116.27968,33.19262]]}},{"type":"Feature","properties":{"name":"(unnamed public road)","road_class":"track","source":"OpenStreetMap","source_detail":"osm way 1040980898","source_tile":"181/411","surface_inferred":true},"geometry":{"type":"LineString","coordinates":[[-116.282,33.19285],[-116.284,33.19306],[-116.28404,33.19308],[-116.28445,33.19326]]}},{"type":"Feature","properties":{"name":"(unnamed public road)","road_class":"track","source":"OpenStreetMap","source_detail":"osm way 1040980899","source_tile":"181/411","surface_inferred":true},"geometry":{"type":"LineString","coordinates":[[-116.28447,33.19313],[-116.28404,33.19308]]}},{"type":"Feature","properties":{"name":"(unnamed public road)","road_class":"track","source":"OpenStreetMap","source_detail":"osm way 1040980904","source_tile":"181/411","surface_inferred":true},"geometry":{"type":"LineString","coordinates":[[-116.27968,33.19504],[-116.27936,33.19564],[-116.27914,33.19627],[-116.27912,33.19656],[-116.27913,33.19705],[-116.27899,33.19734],[-116.27895,33.1976],[-116.2787,33.19783],[-116.27843,33.19793],[-116.27824,33.19813],[-116.27806,33.19849],[-116.27792,33.19864],[-116.27764,33.19879],[-116.2774,33.19895],[-116.27718,33.19916],[-116.27702,33.19926],[-116.27675,33.19937],[-116.27651,33.1995],[-116.27631,33.19967],[-116.27623,33.1999],[-116.27609,33.20004],[-116.27589,33.20022],[-116.27571,33.20042],[-116.27551,33.20055],[-116.27534,33.20069],[-116.27522,33.20091],[-116.27498,33.20126],[-116.27479,33.20145],[-116.27464,33.20172],[-116.27446,33.20191],[-116.27426,33.20202],[-116.27396,33.2021],[-116.27368,33.20214],[-116.27347,33.2022],[-116.27324,33.20233],[-116.27306,33.20251],[-116.27299,33.20259],[-116.27296,33.20278],[-116.27276,33.20298],[-116.27262,33.20315],[-116.27249,33.2034],[-116.27237,33.20355],[-116.27225,33.20375],[-116.27216,33.20379],[-116.27197,33.20384],[-116.27171,33.20396],[-116.27144,33.20396],[-116.27116,33.20406],[-116.27104,33.20417],[-116.27089,33.20422],[-116.27071,33.20431],[-116.27059,33.20441],[-116.2705,33.20458],[-116.27039,33.20479],[-116.27027,33.20486],[-116.27006,33.20491],[-116.26986,33.20499],[-116.26966,33.20515],[-116.26943,33.2054],[-116.26928,33.20563],[-116.26919,33.20584],[-116.26908,33.20599],[-116.26892,33.2061],[-116.26876,33.20614],[-116.26861,33.20614],[-116.26841,33.20619],[-116.26825,33.20629],[-116.26818,33.20643],[-116.26805,33.20666],[-116.26787,33.20687],[-116.26765,33.20708],[-116.26743,33.20726],[-116.26721,33.2074],[-116.26711,33.20748],[-116.2669,33.20755],[-116.26672,33.20764],[-116.26662,33.20778],[-116.26658,33.20797],[-116.26654,33.20806],[-116.26643,33.20816],[-116.26628,33.20826],[-116.26613,33.20834],[-116.26608,33.2084],[-116.26608,33.20853],[-116.2662,33.20866],[-116.26634,33.20877],[-116.26646,33.20885],[-116.26664,33.20891],[-116.26669,33.20898],[-116.26669,33.20911],[-116.26665,33.20923],[-116.26657,33.20933],[-116.26646,33.2094],[-116.26635,33.20947],[-116.2662,33.20961],[-116.26606,33.2097],[-116.26595,33.20976],[-116.2659,33.20981],[-116.26587,33.20992],[-116.26598,33.21008],[-116.26612,33.21025],[-116.26622,33.21038],[-116.26627,33.21053],[-116.26616,33.21075],[-116.26608,33.21094],[-116.26601,33.21108],[-116.26599,33.21116],[-116.266,33.21128],[-116.266,33.21142],[-116.26595,33.21151],[-116.26588,33.21161],[-116.26581,33.21172],[-116.26571,33.2118],[-116.26556,33.21188],[-116.26549,33.21196],[-116.26547,33.21205],[-116.26554,33.21214],[-116.26576,33.21219],[-116.26603,33.21224],[-116.26632,33.21231],[-116.26649,33.21234],[-116.2666,33.21239],[-116.26678,33.21251],[-116.26702,33.21264],[-116.26715,33.21277],[-116.26733,33.21301],[-116.26744,33.21329],[-116.26756,33.21352],[-116.26762,33.21374],[-116.26764,33.2139],[-116.26763,33.21409],[-116.26755,33.21424],[-116.2675,33.21438],[-116.2675,33.21449],[-116.26755,33.21456],[-116.26768,33.21462],[-116.26782,33.21468],[-116.26794,33.21476],[-116.26806,33.21487],[-116.26808,33.21499],[-116.26804,33.21509],[-116.268,33.21525],[-116.26793,33.21538],[-116.26783,33.21544],[-116.26767,33.21545],[-116.26757,33.21542],[-116.26735,33.21544],[-116.26711,33.21542],[-116.26689,33.21538],[-116.26673,33.21532],[-116.26651,33.21529],[-116.26634,33.21535],[-116.26618,33.21547],[-116.26597,33.2156],[-116.26583,33.21573],[-116.26559,33.21587],[-116.26535,33.21599],[-116.26514,33.21619],[-116.26506,33.21632],[-116.26507,33.21652],[-116.26512,33.2167],[-116.26522,33.21697],[-116.26544,33.21718],[-116.26561,33.21733],[-116.26572,33.21746],[-116.26579,33.21762],[-116.26598,33.21773],[-116.26626,33.21778],[-116.26661,33.21784],[-116.2668,33.21787],[-116.26712,33.21787],[-116.26726,33.21793],[-116.26726,33.21805],[-116.26717,33.21825],[-116.26713,33.21839],[-116.26728,33.21856],[-116.26736,33.21864],[-116.26747,33.21874],[-116.26754,33.21884],[-116.26748,33.21898],[-116.26746,33.21911],[-116.26748,33.21933],[-116.26759,33.21954],[-116.26766,33.21966],[-116.26791,33.21972],[-116.26822,33.21976],[-116.26842,33.21976],[-116.26858,33.21975],[-116.26867,33.21981],[-116.26869,33.21988],[-116.26865,33.21998],[-116.2686,33.22008],[-116.26861,33.22018],[-116.26869,33.22028],[-116.26882,33.2204],[-116.26889,33.22051],[-116.26884,33.22067],[-116.26888,33.22077],[-116.26889,33.2209],[-116.26887,33.22103]]}},{"type":"Feature","properties":{"name":"(unnamed public road)","road_class":"track","source":"OpenStreetMap","source_detail":"osm way 1040980905","source_tile":"181/411","surface_inferred":true},"geometry":{"type":"LineString","coordinates":[[-116.27988,33.19438],[-116.27705,33.19436]]}},{"type":"Feature","properties":{"name":"Nude Wash","road_class":"track","surface":"sand","tracktype":"grade5","source":"OpenStreetMap","source_detail":"osm way 1063058523","source_tile":"181/412"},"geometry":{"type":"LineString","coordinates":[[-116.28961,33.13954],[-116.28968,33.13946],[-116.28975,33.13936],[-116.29018,33.13904],[-116.29042,33.13889],[-116.29063,33.13872],[-116.29073,33.13862],[-116.29082,33.13826],[-116.29086,33.13801],[-116.2908,33.13784],[-116.29055,33.13759],[-116.29049,33.13755],[-116.29025,33.13739],[-116.29003,33.13714],[-116.28997,33.13696],[-116.28993,33.13683],[-116.28978,33.13659],[-116.28976,33.13657],[-116.2897,33.1365]]}},{"type":"Feature","properties":{"name":"(unnamed public road)","road_class":"track","surface":"sand","tracktype":"grade3","source":"OpenStreetMap","source_detail":"osm way 1063067001","source_tile":"181/411"},"geometry":{"type":"LineString","coordinates":[[-116.36451,33.19258],[-116.36455,33.19243],[-116.36457,33.19232],[-116.36457,33.19195],[-116.36458,33.19177],[-116.36456,33.19155],[-116.36458,33.19137]]}},{"type":"Feature","properties":{"name":"Dump Wash","road_class":"track","surface":"sand","tracktype":"grade5","source":"OpenStreetMap","source_detail":"osm way 1063628124","source_tile":"181/411"},"geometry":{"type":"LineString","coordinates":[[-116.28263,33.25527],[-116.28265,33.25525],[-116.28298,33.25503],[-116.28335,33.25489],[-116.28354,33.25477],[-116.28365,33.25466],[-116.28375,33.25451],[-116.28384,33.25443],[-116.28396,33.25439],[-116.28423,33.25438],[-116.28442,33.25434],[-116.28461,33.25421],[-116.28476,33.25414],[-116.28497,33.25414],[-116.28516,33.25409],[-116.28523,33.25398],[-116.28525,33.25382],[-116.28523,33.25363],[-116.28534,33.25331],[-116.28545,33.25315],[-116.28557,33.25308],[-116.28579,33.25302],[-116.28624,33.25293],[-116.28643,33.25286],[-116.28664,33.25275],[-116.28693,33.25255],[-116.28704,33.25241],[-116.28719,33.25222],[-116.28737,33.25208],[-116.28795,33.25184],[-116.28822,33.25165],[-116.28843,33.25138],[-116.28955,33.25031],[-116.29023,33.24994],[-116.2906,33.24996],[-116.29089,33.24993],[-116.2912,33.24995],[-116.29153,33.25008],[-116.29202,33.25005],[-116.29331,33.25019],[-116.29404,33.25028],[-116.29419,33.25034],[-116.29438,33.25031],[-116.29513,33.2504],[-116.2953,33.25042]]}},{"type":"Feature","properties":{"name":"Dump Wash","road_class":"track","surface":"sand","tracktype":"grade5","source":"OpenStreetMap","source_detail":"osm way 1063628125","source_tile":"181/411"},"geometry":{"type":"LineString","coordinates":[[-116.23972,33.26935],[-116.24006,33.26941],[-116.24034,33.26947],[-116.24067,33.26943],[-116.24083,33.26931],[-116.2409,33.2692],[-116.24097,33.26911],[-116.24112,33.26907],[-116.24121,33.26913],[-116.24133,33.26922],[-116.24143,33.26925],[-116.24153,33.26922],[-116.24165,33.26913],[-116.24172,33.26899],[-116.24186,33.26875],[-116.24195,33.2686],[-116.242,33.26844],[-116.24203,33.26826],[-116.24211,33.26815],[-116.2421,33.26804],[-116.24213,33.26793],[-116.24231,33.26776],[-116.24247,33.26771],[-116.24265,33.26777],[-116.24277,33.26785],[-116.24294,33.26789],[-116.24309,33.26795],[-116.24324,33.26795],[-116.24334,33.2679],[-116.24349,33.26781],[-116.24357,33.26769],[-116.24371,33.26742],[-116.24386,33.26725],[-116.24414,33.2671],[-116.24452,33.26695],[-116.24482,33.26687],[-116.245,33.26684],[-116.24525,33.26686],[-116.2454,33.26685],[-116.24551,33.26677],[-116.24555,33.26662],[-116.2455,33.26643],[-116.24532,33.26625],[-116.24522,33.26608],[-116.24525,33.26591],[-116.24545,33.26585],[-116.24567,33.26592],[-116.24581,33.26603],[-116.24594,33.26636],[-116.24602,33.26651],[-116.2462,33.26663],[-116.24645,33.26674],[-116.24675,33.26682],[-116.24697,33.26684],[-116.24712,33.26676],[-116.24719,33.26663],[-116.24724,33.26641],[-116.24725,33.26621],[-116.24717,33.26591],[-116.24708,33.26575],[-116.24703,33.26564],[-116.24714,33.26559],[-116.24729,33.26559],[-116.24739,33.26567],[-116.24745,33.26579],[-116.24753,33.26582],[-116.24785,33.26566],[-116.24797,33.26552],[-116.2481,33.26541],[-116.24827,33.26538],[-116.24843,33.26546],[-116.24849,33.26556],[-116.2486,33.26563],[-116.24876,33.26561],[-116.24883,33.26552],[-116.24888,33.2654],[-116.24897,33.26529],[-116.249,33.26515],[-116.24901,33.26506],[-116.24903,33.26496],[-116.24913,33.26493],[-116.24925,33.26495],[-116.24939,33.26493],[-116.24967,33.2648],[-116.24976,33.26474],[-116.24979,33.26454],[-116.24982,33.26444],[-116.24988,33.26438],[-116.24999,33.26435],[-116.25008,33.26427],[-116.25008,33.2641],[-116.25014,33.26405],[-116.25025,33.26404],[-116.25041,33.26411],[-116.2507,33.26415],[-116.25087,33.26422],[-116.25109,33.26421],[-116.25132,33.26413],[-116.25154,33.26413],[-116.25163,33.26406],[-116.25167,33.26391],[-116.25166,33.26369],[-116.25178,33.26349],[-116.25197,33.26341],[-116.25226,33.26338],[-116.25253,33.2634],[-116.25269,33.26342],[-116.25284,33.26351],[-116.25301,33.2636],[-116.25311,33.26365],[-116.25322,33.26361],[-116.25325,33.26354],[-116.25323,33.26312],[-116.25325,33.26273],[-116.25331,33.26235],[-116.25338,33.26221],[-116.25348,33.26217],[-116.25362,33.26219],[-116.25372,33.26227],[-116.25373,33.26252],[-116.25381,33.26264],[-116.25398,33.26269],[-116.25416,33.26265],[-116.25433,33.26252],[-116.25448,33.26251],[-116.25467,33.26263],[-116.2548,33.26278],[-116.25498,33.26284],[-116.25518,33.26277],[-116.25536,33.26269],[-116.25553,33.26265],[-116.25573,33.26266],[-116.25602,33.2627],[-116.25638,33.26268],[-116.25666,33.2626],[-116.25698,33.26251],[-116.2574,33.26259],[-116.25779,33.26267],[-116.2581,33.26266],[-116.25848,33.26247],[-116.25851,33.26245],[-116.25869,33.26237],[-116.25915,33.26243],[-116.25952,33.26262],[-116.25971,33.26266],[-116.25995,33.26262],[-116.2602,33.26267],[-116.26068,33.26284],[-116.26116,33.26298],[-116.2616,33.26305],[-116.26207,33.2631],[-116.26272,33.26323],[-116.26301,33.26334],[-116.26335,33.26346],[-116.2636,33.2635],[-116.26393,33.26343],[-116.2641,33.26335],[-116.26472,33.2632],[-116.26502,33.26312],[-116.26541,33.26297],[-116.26556,33.26283],[-116.26567,33.26266],[-116.26568,33.26247],[-116.26572,33.26226],[-116.26589,33.26187],[-116.26594,33.26171],[-116.26602,33.26157],[-116.26617,33.26148],[-116.26653,33.26145],[-116.26727,33.26134],[-116.26766,33.26121],[-116.26819,33.261],[-116.26854,33.26083],[-116.269,33.26088],[-116.26928,33.26096],[-116.26949,33.261],[-116.26971,33.26101],[-116.27004,33.26091],[-116.27025,33.26078],[-116.27041,33.26052],[-116.27045,33.26035],[-116.27041,33.26024],[-116.27025,33.26016],[-116.27,33.26014],[-116.26985,33.26012],[-116.26976,33.26003],[-116.2698,33.25991],[-116.2701,33.25986],[-116.27059,33.25982],[-116.27111,33.2598],[-116.27152,33.25969],[-116.27171,33.25961],[-116.27176,33.25951],[-116.27169,33.25944],[-116.27149,33.25947],[-116.27131,33.25942],[-116.27123,33.25932],[-116.27126,33.25916],[-116.27165,33.25902],[-116.27192,33.25914],[-116.27223,33.25925],[-116.27256,33.25931],[-116.27259,33.25946],[-116.27256,33.25959],[-116.27263,33.25966],[-116.27278,33.25965],[-116.27292,33.25953],[-116.27317,33.2594],[-116.27368,33.25933],[-116.27423,33.25933],[-116.27464,33.25946],[-116.27496,33.25946],[-116.27529,33.25929],[-116.27541,33.25913],[-116.27549,33.25892],[-116.27547,33.25873],[-116.27557,33.25848],[-116.27585,33.25838],[-116.27618,33.25829],[-116.27632,33.25808],[-116.27621,33.25781],[-116.27625,33.25773],[-116.27631,33.25771],[-116.27683,33.25758],[-116.27718,33.25748],[-116.27755,33.25719],[-116.27793,33.25677],[-116.2782,33.25636],[-116.27844,33.25623],[-116.27866,33.25612],[-116.27898,33.25616],[-116.27927,33.2565],[-116.27946,33.25659],[-116.2797,33.25655],[-116.27988,33.25639],[-116.27997,33.25596],[-116.28014,33.25583],[-116.28061,33.25581],[-116.28109,33.25567],[-116.2815,33.25544],[-116.28179,33.25543],[-116.28221,33.25545],[-116.28233,33.25541],[-116.28247,33.25536],[-116.28263,33.25527]]}},{"type":"Feature","properties":{"name":"Old Borrego Springs Road","road_class":"track","surface":"dirt","tracktype":"grade4","source":"OpenStreetMap","source_detail":"osm way 1063630094","source_tile":"181/412"},"geometry":{"type":"LineString","coordinates":[[-116.29545,33.13712],[-116.29547,33.13719],[-116.29548,33.13736],[-116.29553,33.13743],[-116.29558,33.13748],[-116.29562,33.13752],[-116.29563,33.13753],[-116.29567,33.13759],[-116.29574,33.13788],[-116.29576,33.13798],[-116.29577,33.13809],[-116.29583,33.13834],[-116.29592,33.13868],[-116.29592,33.13904],[-116.29598,33.13953],[-116.29602,33.13981],[-116.29612,33.14006],[-116.29627,33.14024],[-116.2963,33.14028],[-116.29641,33.14044],[-116.29644,33.14059],[-116.29657,33.14072],[-116.29681,33.14085],[-116.29707,33.14095],[-116.29724,33.14105],[-116.29748,33.14115],[-116.29758,33.14121],[-116.29768,33.14136],[-116.2978,33.14155],[-116.29785,33.14162],[-116.29784,33.14173],[-116.2978,33.14181],[-116.29766,33.14195],[-116.29739,33.14215],[-116.29715,33.14228],[-116.29619,33.14258],[-116.29545,33.14295],[-116.29474,33.14335],[-116.29454,33.14352],[-116.29432,33.14385],[-116.29403,33.14431],[-116.2938,33.14475],[-116.29353,33.1453],[-116.29347,33.14554],[-116.29342,33.14601],[-116.29327,33.14664],[-116.29319,33.14681],[-116.29306,33.14692],[-116.29205,33.14755],[-116.29129,33.14804],[-116.29089,33.14835],[-116.29062,33.14856],[-116.29041,33.14875],[-116.28938,33.14973],[-116.28862,33.15057],[-116.28827,33.15102],[-116.28817,33.15123],[-116.28777,33.15218],[-116.28746,33.15292],[-116.28732,33.15316],[-116.28727,33.1534],[-116.28638,33.15554],[-116.28611,33.15627],[-116.28593,33.15695],[-116.28586,33.15726],[-116.28587,33.15765],[-116.28609,33.15903],[-116.28622,33.15939],[-116.28638,33.15968],[-116.28655,33.15993],[-116.28696,33.16043],[-116.28802,33.16144],[-116.28837,33.16182],[-116.28846,33.16195],[-116.28861,33.16223],[-116.2888,33.16253],[-116.28897,33.16284],[-116.28908,33.16318],[-116.2891,33.16335],[-116.28909,33.16349],[-116.28909,33.16357],[-116.28891,33.16409],[-116.28889,33.16419],[-116.2889,33.16434],[-116.2891,33.16473],[-116.28912,33.16482],[-116.28911,33.16509],[-116.28885,33.16598],[-116.28883,33.16613],[-116.28883,33.16658],[-116.2888,33.16701],[-116.28878,33.1671],[-116.28859,33.16751],[-116.28833,33.16828],[-116.28823,33.16847],[-116.2882,33.16875],[-116.28797,33.16919],[-116.28765,33.1698],[-116.28746,33.17033],[-116.28734,33.17062],[-116.28732,33.17078],[-116.28738,33.17109],[-116.28783,33.17186],[-116.2881,33.17239],[-116.2887,33.17311],[-116.28954,33.17432],[-116.28989,33.17463],[-116.29015,33.17491],[-116.29071,33.1755],[-116.29182,33.17645],[-116.29213,33.17675]]}},{"type":"Feature","properties":{"name":"(unnamed public road)","road_class":"track","surface":"dirt","tracktype":"grade4","source":"OpenStreetMap","source_detail":"osm way 1063709934","source_tile":"181/411"},"geometry":{"type":"LineString","coordinates":[[-116.27832,33.25013],[-116.27807,33.2503],[-116.27784,33.25052],[-116.27772,33.25075],[-116.27763,33.25104],[-116.2775,33.25152],[-116.27738,33.25173],[-116.27723,33.25195],[-116.27704,33.2523],[-116.27681,33.25265],[-116.27649,33.25312],[-116.27621,33.25357],[-116.27602,33.25392]]}},{"type":"Feature","properties":{"name":"(unnamed public road)","road_class":"track","surface":"dirt","tracktype":"grade4","source":"OpenStreetMap","source_detail":"osm way 1063709935","source_tile":"181/411"},"geometry":{"type":"LineString","coordinates":[[-116.26648,33.25081],[-116.26686,33.25083],[-116.26726,33.25088],[-116.26758,33.25089],[-116.26797,33.25091],[-116.26851,33.25099],[-116.26886,33.25106],[-116.26902,33.25107],[-116.26928,33.25106],[-116.26952,33.25107],[-116.26977,33.25105],[-116.27007,33.25101],[-116.27055,33.2509],[-116.27074,33.25081],[-116.27093,33.25073],[-116.27129,33.25061],[-116.27147,33.25057],[-116.27165,33.25056],[-116.27196,33.25061],[-116.27217,33.25062],[-116.27238,33.25059],[-116.27258,33.25052],[-116.27277,33.25046],[-116.27305,33.25037],[-116.27319,33.25035],[-116.27333,33.25035],[-116.27352,33.25039],[-116.27371,33.25041],[-116.27387,33.2504],[-116.27404,33.25037],[-116.27422,33.25029],[-116.27434,33.25024],[-116.27451,33.25019],[-116.27473,33.25012],[-116.27511,33.25006],[-116.27521,33.25002],[-116.27533,33.24997],[-116.27542,33.24995],[-116.27558,33.24994],[-116.27567,33.24992],[-116.27593,33.24978],[-116.27625,33.24964],[-116.27644,33.24956],[-116.27659,33.2495],[-116.27671,33.24948],[-116.27686,33.24947],[-116.27699,33.24948],[-116.27714,33.24954],[-116.27726,33.24961],[-116.27755,33.24985],[-116.27768,33.24994],[-116.27795,33.25004],[-116.27821,33.25012],[-116.27832,33.25013],[-116.27845,33.25014],[-116.2786,33.25013],[-116.27882,33.25013],[-116.27902,33.25011],[-116.27924,33.25004],[-116.27939,33.25001],[-116.27988,33.25001],[-116.28002,33.25],[-116.28023,33.24992],[-116.28051,33.24987],[-116.28065,33.24983],[-116.28098,33.24967],[-116.28113,33.24961],[-116.28131,33.24959],[-116.28152,33.24951],[-116.28166,33.24949],[-116.28197,33.24946],[-116.28211,33.24942],[-116.28227,33.2494],[-116.2825,33.24939],[-116.2826,33.24936],[-116.28279,33.24928],[-116.28296,33.24917],[-116.28311,33.24902],[-116.28327,33.24887],[-116.28351,33.24856],[-116.28381,33.2481],[-116.28401,33.24781],[-116.28414,33.24773],[-116.28431,33.24766],[-116.2845,33.24752],[-116.28464,33.24739],[-116.28488,33.24717],[-116.285,33.24708],[-116.28517,33.24702],[-116.28532,33.24696],[-116.28545,33.24688],[-116.2857,33.24671],[-116.28596,33.24658],[-116.28611,33.24652],[-116.28636,33.24646],[-116.28657,33.24636]]}},{"type":"Feature","properties":{"name":"(unnamed public road)","road_class":"track","surface":"dirt","tracktype":"grade4","source":"OpenStreetMap","source_detail":"osm way 1063709936","source_tile":"181/411"},"geometry":{"type":"LineString","coordinates":[[-116.28233,33.25541],[-116.28246,33.25522],[-116.28245,33.25518],[-116.28214,33.25504],[-116.28196,33.2549],[-116.28134,33.2548],[-116.28072,33.25472],[-116.28009,33.25464],[-116.27985,33.25459],[-116.27954,33.25448],[-116.27894,33.25436],[-116.27866,33.25429],[-116.27795,33.25426],[-116.27734,33.25422],[-116.27669,33.25404],[-116.27602,33.25392],[-116.27574,33.25391],[-116.27491,33.25374],[-116.27311,33.25355],[-116.27254,33.25337],[-116.27206,33.25316],[-116.27179,33.25307],[-116.27077,33.253],[-116.27057,33.25295],[-116.27028,33.25277],[-116.26988,33.25246],[-116.26949,33.25223],[-116.26898,33.25204],[-116.2685,33.25194],[-116.26818,33.2519],[-116.26777,33.25195],[-116.26737,33.25201],[-116.26662,33.25224],[-116.26604,33.25248],[-116.26557,33.25268],[-116.26459,33.25286],[-116.26398,33.2529],[-116.26335,33.25289],[-116.26313,33.2529],[-116.26282,33.25301],[-116.26242,33.25334]]}},{"type":"Feature","properties":{"name":"Rockhouse Canyon Quarry","road_class":"track","surface":"dirt","tracktype":"grade3","source":"OpenStreetMap","source_detail":"osm way 1063762293","source_tile":"181/411"},"geometry":{"type":"LineString","coordinates":[[-116.3008,33.34323],[-116.30088,33.34319],[-116.30102,33.34303],[-116.30114,33.3429],[-116.30115,33.34283],[-116.3011,33.34271],[-116.30112,33.3426],[-116.30114,33.34231],[-116.30111,33.34197],[-116.30107,33.34159],[-116.30105,33.34138],[-116.30107,33.34113],[-116.30116,33.34075],[-116.30134,33.34037],[-116.30146,33.34015],[-116.30149,33.33997],[-116.30149,33.33968],[-116.30152,33.3395],[-116.30158,33.33933],[-116.30175,33.33925],[-116.30183,33.33911],[-116.30189,33.33904],[-116.30191,33.33888],[-116.30194,33.33858],[-116.30206,33.33841],[-116.30213,33.33833],[-116.30218,33.33819],[-116.30223,33.33804],[-116.30221,33.33789],[-116.3021,33.33774],[-116.30191,33.33752],[-116.30178,33.3374],[-116.30164,33.33735],[-116.30144,33.33731],[-116.30134,33.33733],[-116.30119,33.33744],[-116.30104,33.33749],[-116.30094,33.33748],[-116.30074,33.33734],[-116.3006,33.33723],[-116.30044,33.33719],[-116.30002,33.33714],[-116.29946,33.33707],[-116.29912,33.337],[-116.29884,33.33697],[-116.29858,33.33688],[-116.2983,33.33676],[-116.29819,33.33672]]}},{"type":"Feature","properties":{"name":"(unnamed public road)","road_class":"track","source":"OpenStreetMap","source_detail":"osm way 1084128559","source_tile":"181/411","surface_inferred":true},"geometry":{"type":"LineString","coordinates":[[-116.30105,33.21807],[-116.30076,33.21829],[-116.30001,33.21946],[-116.29919,33.22053],[-116.29852,33.22149]]}},{"type":"Feature","properties":{"name":"Dump Road","road_class":"track","surface":"unpaved","tracktype":"grade3","source":"OpenStreetMap","source_detail":"osm way 1084128560","source_tile":"181/411"},"geometry":{"type":"LineString","coordinates":[[-116.29852,33.22149],[-116.29846,33.22156]]}},{"type":"Feature","properties":{"name":"Borrego Sink Road","road_class":"track","surface":"unpaved","tracktype":"grade3","source":"OpenStreetMap","source_detail":"osm way 1084128561","source_tile":"181/411"},"geometry":{"type":"LineString","coordinates":[[-116.29852,33.22149],[-116.29892,33.22125],[-116.29981,33.22075],[-116.30131,33.22024],[-116.30355,33.21963],[-116.30599,33.21899],[-116.30827,33.21823],[-116.31018,33.21762],[-116.31169,33.21725]]}},{"type":"Feature","properties":{"name":"(unnamed public road)","road_class":"track","source":"OpenStreetMap","source_detail":"osm way 1136237727","source_tile":"181/411","surface_inferred":true},"geometry":{"type":"LineString","coordinates":[[-116.35203,33.22079],[-116.35199,33.2193],[-116.35187,33.21641],[-116.35187,33.21629]]}},{"type":"Feature","properties":{"name":"(unnamed public road)","road_class":"track","source":"OpenStreetMap","source_detail":"osm way 1136237753","source_tile":"181/411","surface_inferred":true},"geometry":{"type":"LineString","coordinates":[[-116.34785,33.22799],[-116.34607,33.22801],[-116.34551,33.22802],[-116.34466,33.22803],[-116.34292,33.22806],[-116.34248,33.22791],[-116.34235,33.22786],[-116.34197,33.22774],[-116.33999,33.22766],[-116.33919,33.22767],[-116.33893,33.22761],[-116.33883,33.22734],[-116.33872,33.22627],[-116.3387,33.22609]]}},{"type":"Feature","properties":{"name":"(unnamed public road)","road_class":"track","source":"OpenStreetMap","source_detail":"osm way 1136237765","source_tile":"181/411","surface_inferred":true},"geometry":{"type":"LineString","coordinates":[[-116.33494,33.22302],[-116.33496,33.22436],[-116.33494,33.22681],[-116.33477,33.22722]]}},{"type":"Feature","properties":{"name":"(unnamed public road)","road_class":"track","source":"OpenStreetMap","source_detail":"osm way 1136268494","source_tile":"181/411","surface_inferred":true},"geometry":{"type":"LineString","coordinates":[[-116.31427,33.17922],[-116.31632,33.17858],[-116.31769,33.17839],[-116.31842,33.17829],[-116.32069,33.17807],[-116.32602,33.17815],[-116.32652,33.17794],[-116.32683,33.17759]]}},{"type":"Feature","properties":{"name":"(unnamed public road)","road_class":"track","source":"OpenStreetMap","source_detail":"osm way 1136272211","source_tile":"181/411","surface_inferred":true},"geometry":{"type":"LineString","coordinates":[[-116.35891,33.32514],[-116.35892,33.32173],[-116.35891,33.31961],[-116.35893,33.31779],[-116.35896,33.3153],[-116.35894,33.31443],[-116.35892,33.31359],[-116.3589,33.31109]]}},{"type":"Feature","properties":{"name":"(unnamed public road)","road_class":"track","source":"OpenStreetMap","source_detail":"osm way 1136272213","source_tile":"181/411","surface_inferred":true},"geometry":{"type":"LineString","coordinates":[[-116.3589,33.31109],[-116.35152,33.3107],[-116.35035,33.31058]]}},{"type":"Feature","properties":{"name":"(unnamed public road)","road_class":"track","source":"OpenStreetMap","source_detail":"osm way 1136272214","source_tile":"181/411","surface_inferred":true},"geometry":{"type":"LineString","coordinates":[[-116.34281,33.3142],[-116.34865,33.31423],[-116.35031,33.31421],[-116.35312,33.31429],[-116.35594,33.31437],[-116.35787,33.31441],[-116.35894,33.31443]]}},{"type":"Feature","properties":{"name":"(unnamed public road)","road_class":"track","source":"OpenStreetMap","source_detail":"osm way 1136329818","source_tile":"181/411","surface_inferred":true},"geometry":{"type":"LineString","coordinates":[[-116.31769,33.17839],[-116.31858,33.17725],[-116.31891,33.17587],[-116.31903,33.17523]]}},{"type":"Feature","properties":{"name":"(unnamed public road)","road_class":"track","tracktype":"grade5","source":"OpenStreetMap","source_detail":"osm way 1136330869","source_tile":"181/411","surface_inferred":true},"geometry":{"type":"LineString","coordinates":[[-116.36485,33.21379],[-116.36259,33.21376],[-116.36148,33.21374],[-116.36012,33.21373],[-116.35194,33.21371],[-116.34727,33.21361],[-116.34445,33.21354],[-116.33585,33.21348],[-116.33009,33.2134]]}},{"type":"Feature","properties":{"name":"(unnamed public road)","road_class":"track","source":"OpenStreetMap","source_detail":"osm way 1136330870","source_tile":"181/411","surface_inferred":true},"geometry":{"type":"LineString","coordinates":[[-116.36148,33.21374],[-116.36141,33.21328],[-116.36138,33.21149]]}},{"type":"Feature","properties":{"name":"(unnamed public road)","road_class":"track","source":"OpenStreetMap","source_detail":"osm way 1136330871","source_tile":"181/411","surface_inferred":true},"geometry":{"type":"LineString","coordinates":[[-116.36259,33.21376],[-116.36261,33.21427],[-116.36262,33.21472],[-116.36263,33.21487],[-116.36267,33.21614],[-116.36272,33.21652]]}},{"type":"Feature","properties":{"name":"(unnamed public road)","road_class":"track","source":"OpenStreetMap","source_detail":"osm way 1136330872","source_tile":"181/411","surface_inferred":true},"geometry":{"type":"LineString","coordinates":[[-116.36261,33.21427],[-116.36283,33.21429],[-116.36356,33.21414],[-116.36402,33.21408]]}},{"type":"Feature","properties":{"name":"(unnamed public road)","road_class":"track","source":"OpenStreetMap","source_detail":"osm way 1136330873","source_tile":"181/411","surface_inferred":true},"geometry":{"type":"LineString","coordinates":[[-116.36355,33.21482],[-116.36322,33.21481],[-116.36293,33.2149],[-116.36263,33.21487]]}},{"type":"Feature","properties":{"name":"(unnamed public road)","road_class":"track","source":"OpenStreetMap","source_detail":"osm way 1136330874","source_tile":"181/411","surface_inferred":true},"geometry":{"type":"LineString","coordinates":[[-116.36262,33.21472],[-116.36104,33.21489]]}},{"type":"Feature","properties":{"name":"(unnamed public road)","road_class":"track","surface":"dirt","tracktype":"grade4","source":"OpenStreetMap","source_detail":"osm way 1175152953","source_tile":"181/411"},"geometry":{"type":"LineString","coordinates":[[-116.28396,33.25439],[-116.28417,33.25406],[-116.28425,33.25394],[-116.28451,33.25368],[-116.28473,33.25354],[-116.28488,33.2534],[-116.28494,33.25317],[-116.28502,33.253],[-116.28513,33.25279],[-116.28525,33.2526],[-116.28543,33.25244],[-116.28562,33.2523],[-116.28576,33.25213],[-116.28586,33.25204],[-116.28596,33.25197],[-116.28604,33.25191],[-116.2861,33.25183],[-116.28617,33.25174],[-116.28627,33.25164],[-116.28632,33.25156],[-116.28633,33.25143],[-116.28638,33.25122],[-116.28643,33.25097],[-116.28644,33.25068],[-116.28646,33.25055],[-116.28655,33.25039],[-116.28662,33.25026],[-116.28662,33.25017],[-116.28656,33.25012],[-116.2865,33.25008],[-116.28644,33.25002],[-116.28643,33.24986],[-116.28644,33.24954],[-116.28648,33.24938],[-116.28647,33.2491],[-116.28637,33.24883],[-116.28628,33.24866],[-116.28621,33.24858],[-116.28619,33.24844],[-116.28623,33.24834],[-116.28627,33.2482],[-116.28628,33.24796],[-116.2863,33.24786],[-116.28634,33.24774],[-116.28631,33.24754],[-116.28619,33.24736],[-116.28615,33.24725],[-116.28615,33.24706],[-116.2862,33.2469],[-116.28641,33.24655],[-116.28657,33.24636],[-116.28665,33.24632],[-116.28688,33.24628],[-116.28713,33.24619],[-116.28752,33.24605],[-116.28766,33.24601],[-116.2878,33.24601],[-116.28808,33.2461],[-116.2882,33.24613],[-116.2885,33.24618],[-116.28879,33.24624],[-116.28913,33.24627],[-116.28932,33.24627],[-116.28949,33.24627],[-116.28964,33.24624],[-116.28991,33.24612],[-116.29002,33.24609],[-116.29015,33.24609],[-116.29037,33.24622],[-116.29066,33.24621],[-116.29099,33.24624],[-116.29125,33.24627],[-116.29156,33.24628],[-116.29187,33.2463],[-116.29239,33.24638],[-116.29313,33.24652],[-116.29374,33.24662],[-116.29419,33.24667],[-116.29437,33.24668],[-116.29466,33.24666],[-116.29494,33.2466],[-116.29501,33.24657],[-116.29511,33.24649],[-116.29523,33.24643],[-116.29543,33.24636]]}},{"type":"Feature","properties":{"name":"(unnamed public road)","road_class":"track","surface":"unpaved","source":"OpenStreetMap","source_detail":"osm way 1272877153","source_tile":"181/411"},"geometry":{"type":"LineString","coordinates":[[-116.29538,33.18969],[-116.29543,33.18959],[-116.29547,33.18949],[-116.29543,33.18921],[-116.29544,33.18875],[-116.29539,33.18849],[-116.29545,33.18792],[-116.29548,33.18677],[-116.29548,33.18653],[-116.29554,33.18621],[-116.29551,33.18516],[-116.29552,33.18454],[-116.29554,33.18378],[-116.29553,33.18298],[-116.29558,33.18213],[-116.29558,33.18174],[-116.29559,33.18099],[-116.2956,33.17983],[-116.29559,33.17937],[-116.29558,33.17882],[-116.2956,33.17861]]}},{"type":"Feature","properties":{"name":"(unnamed public road)","road_class":"track","source":"OpenStreetMap","source_detail":"osm way 1479101923","source_tile":"181/411","surface_inferred":true},"geometry":{"type":"LineString","coordinates":[[-116.31537,33.20219],[-116.31543,33.2021],[-116.3155,33.20197],[-116.31553,33.2018],[-116.31549,33.20168],[-116.31538,33.20158],[-116.31526,33.20153],[-116.31506,33.20152]]}},{"type":"Feature","properties":{"name":"(unnamed public road)","road_class":"track","source":"OpenStreetMap","source_detail":"osm way 1479101924","source_tile":"181/411","surface_inferred":true},"geometry":{"type":"LineString","coordinates":[[-116.3148,33.20183],[-116.31506,33.20152],[-116.31523,33.20133],[-116.31535,33.20117],[-116.31541,33.20098],[-116.31546,33.20078],[-116.31549,33.20047],[-116.31552,33.20039],[-116.3156,33.20032],[-116.31565,33.20029]]}}]}