{"type":"FeatureCollection","features":[{"type":"Feature","properties":{"name":"Forest Route 19N16","road_class":"unclassified","surface":"unpaved","source":"Caltrans All Roads + OpenStreetMap explicit surface","source_detail":"osm way 10267813; Caltrans All Roads public-network geometry match","source_tile":"161/389","public_network_source":"Caltrans All Roads (ARNOLD/HPMS)","surface_source":"OpenStreetMap explicit surface tag","caltrans_match_coverage":1.0,"verified_length_m":878},"geometry":{"type":"LineString","coordinates":[[-123.0602,39.43506],[-123.06031,39.43519],[-123.06036,39.43534],[-123.06032,39.43547],[-123.06028,39.43552],[-123.06021,39.43554],[-123.05979,39.4355],[-123.05954,39.43552],[-123.05928,39.43561],[-123.05915,39.43572],[-123.05901,39.43594],[-123.05891,39.43614],[-123.05882,39.43632],[-123.05872,39.43645],[-123.05866,39.43662],[-123.05859,39.4368],[-123.0585,39.43693],[-123.05839,39.43701],[-123.05818,39.43712],[-123.05806,39.43721],[-123.05788,39.4374],[-123.0578,39.43752],[-123.05774,39.43764],[-123.05775,39.43775],[-123.05782,39.43789],[-123.05801,39.43801],[-123.05836,39.43823],[-123.05849,39.43835],[-123.05865,39.4385],[-123.05876,39.43858],[-123.05888,39.43867],[-123.05893,39.43876],[-123.05896,39.43895],[-123.05892,39.43928],[-123.05875,39.44009],[-123.05872,39.44032],[-123.05872,39.44053],[-123.05875,39.44075],[-123.05874,39.44093],[-123.05871,39.44097],[-123.05865,39.44109],[-123.05849,39.44118],[-123.05834,39.44121],[-123.05823,39.44118]]}},{"type":"Feature","properties":{"name":"19 North 16 Road","road_class":"unclassified","surface":"unpaved","source":"Caltrans All Roads + OpenStreetMap explicit surface","source_detail":"osm way 10267893; Caltrans All Roads public-network geometry match","source_tile":"161/389","public_network_source":"Caltrans All Roads (ARNOLD/HPMS)","surface_source":"OpenStreetMap explicit surface tag","caltrans_match_coverage":1.0,"verified_length_m":549},"geometry":{"type":"LineString","coordinates":[[-123.0565,39.40099],[-123.05643,39.40105],[-123.05622,39.40126],[-123.05608,39.40145],[-123.05589,39.40157],[-123.05571,39.40167],[-123.05557,39.4018],[-123.05553,39.40195],[-123.0556,39.40215],[-123.05566,39.40229],[-123.05563,39.40238],[-123.05555,39.4025],[-123.05548,39.40259],[-123.05544,39.4027],[-123.05547,39.40281],[-123.05556,39.40288],[-123.05578,39.40295],[-123.05592,39.40298],[-123.05601,39.40305],[-123.05607,39.40314],[-123.05609,39.40317],[-123.05615,39.40331],[-123.05618,39.40356],[-123.05608,39.4038],[-123.05596,39.40404],[-123.05585,39.4042],[-123.05583,39.40431],[-123.05585,39.40448],[-123.05594,39.40458],[-123.05615,39.40476],[-123.05622,39.40486],[-123.0563,39.40499],[-123.05635,39.40512],[-123.05638,39.40515]]}},{"type":"Feature","properties":{"name":"19 North 16 Road","road_class":"unclassified","surface":"unpaved","source":"Caltrans All Roads + OpenStreetMap explicit surface","source_detail":"osm way 10267897; Caltrans All Roads public-network geometry match","source_tile":"161/389","public_network_source":"Caltrans All Roads (ARNOLD/HPMS)","surface_source":"OpenStreetMap explicit surface tag","caltrans_match_coverage":1.0,"verified_length_m":3406},"geometry":{"type":"LineString","coordinates":[[-123.05871,39.4076],[-123.05874,39.40765],[-123.05891,39.40788],[-123.05897,39.40802],[-123.05895,39.40816],[-123.05889,39.40831],[-123.05895,39.4084],[-123.05895,39.40864],[-123.05898,39.40881],[-123.05908,39.40907],[-123.05932,39.40946],[-123.05952,39.40989],[-123.05963,39.41009],[-123.0597,39.41026],[-123.05974,39.4104],[-123.05974,39.41049],[-123.05968,39.41056],[-123.0595,39.41074],[-123.05916,39.41099],[-123.05903,39.41103],[-123.05888,39.41102],[-123.0587,39.41101],[-123.05857,39.41099],[-123.05836,39.41102],[-123.05823,39.41105],[-123.05808,39.41111],[-123.05799,39.41119],[-123.05792,39.4113],[-123.05789,39.41141],[-123.05791,39.41153],[-123.0579,39.4116],[-123.05787,39.41169],[-123.05777,39.41179],[-123.05754,39.41191],[-123.05743,39.41199],[-123.05728,39.41212],[-123.05716,39.41227],[-123.05702,39.41242],[-123.0569,39.41251],[-123.05673,39.41258],[-123.05652,39.41264],[-123.05639,39.41273],[-123.05626,39.41284],[-123.05624,39.41289],[-123.05622,39.41296],[-123.05627,39.41317],[-123.05631,39.4133],[-123.05637,39.41345],[-123.0564,39.41358],[-123.05638,39.41366],[-123.05624,39.41378],[-123.05603,39.41389],[-123.05582,39.414],[-123.05562,39.41414],[-123.0555,39.4143],[-123.05546,39.41439],[-123.05531,39.41475],[-123.05522,39.41508],[-123.05521,39.41513],[-123.05518,39.41534],[-123.0552,39.4155],[-123.05529,39.4157],[-123.05555,39.41603],[-123.05573,39.41616],[-123.05598,39.41621],[-123.05647,39.41626],[-123.0571,39.41634],[-123.05736,39.4164],[-123.05748,39.41644],[-123.05756,39.41651],[-123.05756,39.41661],[-123.0575,39.41674],[-123.05736,39.41685],[-123.05726,39.41698],[-123.0571,39.41727],[-123.05685,39.41789],[-123.05678,39.41814],[-123.05679,39.41826],[-123.05689,39.41845],[-123.0571,39.41871],[-123.05726,39.41889],[-123.0573,39.419],[-123.0573,39.41914],[-123.05725,39.41921],[-123.0572,39.41929],[-123.05715,39.4194],[-123.05712,39.41958],[-123.05715,39.41975],[-123.05722,39.41996],[-123.05741,39.42024],[-123.05752,39.42038],[-123.05759,39.42045],[-123.05763,39.42052],[-123.05759,39.42056],[-123.0575,39.42062],[-123.05736,39.42074],[-123.05727,39.42075],[-123.05721,39.4207],[-123.05715,39.42068],[-123.05708,39.42071],[-123.05702,39.42076],[-123.05694,39.4208],[-123.05687,39.42087],[-123.05687,39.42094],[-123.05687,39.42115],[-123.05682,39.42129],[-123.05675,39.42138],[-123.05666,39.4214],[-123.05652,39.4214],[-123.05639,39.42133],[-123.05633,39.42125],[-123.05633,39.42117],[-123.05637,39.42107],[-123.05636,39.42099],[-123.05634,39.42083],[-123.0563,39.42061],[-123.05602,39.42013],[-123.05581,39.41998],[-123.05553,39.41981],[-123.05515,39.41948],[-123.05484,39.41927],[-123.05465,39.41916],[-123.05454,39.41914],[-123.05443,39.41914],[-123.05428,39.41918],[-123.05409,39.41926],[-123.05388,39.41939],[-123.05367,39.4196],[-123.05329,39.41995],[-123.05309,39.42022],[-123.05309,39.42039],[-123.05315,39.42054],[-123.05324,39.42064],[-123.05343,39.42079],[-123.05351,39.42092],[-123.05359,39.42103],[-123.05362,39.42122],[-123.05358,39.42183],[-123.05353,39.42203],[-123.05351,39.42221],[-123.05353,39.42243],[-123.05354,39.42248],[-123.05364,39.42288],[-123.0538,39.42308],[-123.05426,39.42345],[-123.05442,39.42363],[-123.05465,39.42375],[-123.05489,39.42386],[-123.05496,39.42397],[-123.05502,39.42411],[-123.05517,39.42426],[-123.05537,39.42439],[-123.05563,39.42448],[-123.05581,39.42451],[-123.05606,39.42452],[-123.05623,39.42457],[-123.05639,39.42467],[-123.0565,39.42477],[-123.05659,39.42492],[-123.05661,39.42502],[-123.05657,39.42514],[-123.05647,39.42522],[-123.05599,39.42531],[-123.05577,39.42538],[-123.05549,39.42544],[-123.05533,39.42544],[-123.05516,39.4255],[-123.05497,39.42562],[-123.05469,39.4259],[-123.05456,39.42601]]}},{"type":"Feature","properties":{"name":"Erickson Ridge Road","road_class":"unclassified","surface":"gravel","tracktype":"grade2","source":"Caltrans All Roads + OpenStreetMap explicit surface","source_detail":"osm way 10272190; Caltrans All Roads public-network geometry match","source_tile":"162/389","public_network_source":"Caltrans All Roads (ARNOLD/HPMS)","surface_source":"OpenStreetMap explicit surface tag","caltrans_match_coverage":0.953,"verified_length_m":9260},"geometry":{"type":"LineString","coordinates":[[-123.08189,39.53067],[-123.08181,39.53059],[-123.08176,39.53052],[-123.08173,39.53039],[-123.08177,39.53024],[-123.08189,39.53004],[-123.08194,39.52986],[-123.08193,39.5297],[-123.08191,39.52958],[-123.08197,39.52941],[-123.08196,39.52933],[-123.0819,39.52924],[-123.08179,39.52924],[-123.08147,39.52928],[-123.08136,39.52927],[-123.08098,39.52911],[-123.08085,39.52902],[-123.08075,39.52895],[-123.08075,39.52886],[-123.08084,39.52867],[-123.08089,39.52854],[-123.08086,39.52846],[-123.08074,39.52827],[-123.08068,39.52816],[-123.08075,39.5277],[-123.08078,39.52755],[-123.08071,39.52746],[-123.08049,39.52739],[-123.08048,39.5273],[-123.08049,39.52711],[-123.08049,39.527],[-123.08039,39.52698],[-123.08002,39.52705],[-123.07974,39.5271],[-123.07964,39.52717],[-123.07954,39.52724],[-123.07935,39.52728],[-123.07919,39.52728],[-123.07896,39.52723],[-123.07885,39.52724],[-123.07877,39.52726],[-123.07849,39.52739],[-123.07838,39.52741],[-123.07823,39.5274],[-123.07813,39.52733],[-123.07808,39.52715],[-123.07813,39.52703],[-123.07853,39.52672],[-123.07866,39.52658],[-123.07868,39.52646],[-123.07854,39.52627],[-123.07835,39.52596],[-123.07818,39.52574],[-123.07813,39.52551],[-123.07822,39.5252],[-123.07831,39.52496],[-123.07846,39.52483],[-123.07906,39.52453],[-123.07963,39.52429],[-123.07974,39.52422],[-123.07975,39.52412],[-123.07967,39.52405],[-123.07937,39.52397],[-123.07899,39.52389],[-123.07887,39.52379],[-123.07865,39.52351],[-123.07857,39.52324],[-123.07858,39.52311],[-123.07863,39.52296],[-123.07871,39.52283],[-123.07876,39.52264],[-123.07876,39.52236],[-123.07871,39.52221],[-123.07872,39.5221],[-123.07877,39.52199],[-123.07886,39.52188],[-123.07886,39.5218],[-123.07881,39.52173],[-123.07873,39.52169],[-123.07845,39.52163],[-123.07816,39.52145],[-123.07802,39.52144],[-123.07789,39.52158],[-123.07787,39.5217],[-123.07781,39.5218],[-123.07728,39.52231],[-123.07708,39.52247],[-123.07684,39.52261],[-123.07671,39.52268],[-123.07652,39.52273],[-123.07636,39.5227],[-123.07622,39.52263],[-123.07596,39.5223],[-123.07569,39.52187],[-123.07558,39.52175],[-123.07549,39.52173],[-123.07531,39.52174],[-123.07519,39.52178],[-123.07512,39.52178],[-123.07502,39.52172],[-123.07473,39.52141],[-123.07466,39.52137],[-123.07375,39.52138],[-123.07346,39.52136],[-123.07324,39.52129],[-123.07302,39.52119],[-123.0728,39.52104],[-123.07275,39.52093],[-123.07274,39.52072],[-123.07276,39.52047],[-123.07282,39.52032],[-123.07303,39.51998],[-123.07306,39.51986],[-123.07304,39.51978],[-123.07284,39.51959],[-123.07282,39.51947],[-123.07284,39.5193],[-123.07291,39.51915],[-123.0729,39.51907],[-123.07283,39.51901],[-123.07255,39.51894],[-123.07227,39.51895],[-123.07207,39.51892],[-123.07188,39.51886],[-123.07177,39.51879],[-123.07167,39.51871],[-123.07163,39.51864],[-123.07159,39.51854],[-123.07157,39.51839],[-123.07161,39.51824],[-123.07169,39.5179],[-123.07166,39.51774],[-123.07156,39.51765],[-123.07143,39.51747],[-123.07137,39.51702],[-123.07138,39.51691],[-123.0715,39.51674],[-123.07152,39.51661],[-123.07146,39.51654],[-123.07124,39.51651],[-123.07111,39.5165],[-123.07075,39.51642],[-123.07062,39.51646],[-123.07054,39.51684],[-123.0704,39.51705],[-123.0703,39.51715],[-123.07001,39.51719],[-123.06979,39.51718],[-123.0697,39.51713],[-123.06959,39.51703],[-123.06921,39.51656],[-123.0689,39.51627],[-123.06877,39.51606],[-123.06854,39.51558],[-123.06847,39.51553],[-123.06838,39.51552],[-123.06828,39.51556],[-123.0682,39.5157],[-123.06814,39.51603],[-123.06805,39.51614],[-123.06791,39.5162],[-123.06777,39.5162],[-123.06761,39.51614],[-123.06756,39.51607],[-123.0675,39.51598],[-123.06745,39.51585],[-123.06737,39.51559],[-123.06733,39.51553],[-123.06726,39.51539],[-123.06718,39.51523],[-123.06712,39.51511],[-123.06706,39.51502],[-123.06697,39.51496],[-123.06687,39.51495],[-123.06669,39.51498],[-123.06627,39.51518],[-123.0661,39.51537],[-123.06589,39.51567],[-123.06578,39.51576],[-123.0656,39.51586],[-123.06514,39.516],[-123.06499,39.51601],[-123.06482,39.516],[-123.06474,39.51596],[-123.06468,39.51585],[-123.06475,39.51562],[-123.06468,39.51553],[-123.06448,39.51547],[-123.06401,39.51543],[-123.06385,39.51536],[-123.06373,39.51525],[-123.06359,39.51503],[-123.06337,39.51495],[-123.06317,39.5149],[-123.06297,39.51478],[-123.06289,39.51462],[-123.06291,39.51443],[-123.06297,39.51418],[-123.06297,39.51406],[-123.06297,39.51396],[-123.06286,39.51387],[-123.06275,39.51385],[-123.0625,39.51387],[-123.06228,39.5139],[-123.06207,39.51398],[-123.06174,39.51413],[-123.0616,39.51417],[-123.06144,39.5142],[-123.0611,39.51422],[-123.06073,39.51427],[-123.06056,39.51425],[-123.06047,39.51422],[-123.06036,39.51415],[-123.06027,39.51408],[-123.06022,39.51403],[-123.06018,39.51396],[-123.06018,39.51379],[-123.0603,39.51348],[-123.0603,39.51338],[-123.06027,39.51328],[-123.06014,39.51308],[-123.05993,39.51269],[-123.05985,39.51231],[-123.05975,39.51217],[-123.05965,39.51182],[-123.05965,39.51151],[-123.05969,39.51136],[-123.05981,39.51115],[-123.05987,39.511],[-123.0599,39.51086],[-123.06012,39.5105],[-123.06048,39.51022],[-123.0607,39.50986],[-123.06079,39.50972],[-123.06081,39.50963],[-123.06061,39.50931],[-123.06055,39.50915],[-123.06055,39.50898],[-123.06059,39.50866],[-123.06057,39.50858],[-123.06044,39.50858],[-123.06025,39.50864],[-123.06003,39.50883],[-123.05975,39.50932],[-123.0597,39.50945],[-123.05957,39.50955],[-123.05924,39.50954],[-123.05902,39.50952],[-123.05884,39.5095],[-123.05874,39.50962],[-123.05868,39.50993],[-123.05861,39.51013],[-123.05845,39.51026],[-123.05811,39.51038],[-123.05726,39.51059],[-123.05703,39.51062],[-123.05667,39.51064],[-123.05657,39.51067],[-123.05649,39.51071],[-123.0564,39.51079],[-123.05636,39.51085],[-123.05634,39.5109],[-123.05638,39.51111],[-123.05637,39.51122],[-123.05634,39.51134],[-123.05619,39.5116],[-123.05592,39.51186],[-123.05519,39.51249],[-123.05499,39.51259],[-123.05474,39.51267],[-123.0546,39.51268],[-123.05414,39.51264],[-123.05395,39.51256],[-123.05376,39.51244],[-123.05338,39.51214],[-123.05322,39.51198],[-123.05297,39.51141],[-123.05259,39.51086],[-123.05253,39.51068],[-123.05258,39.5101],[-123.05256,39.50999],[-123.05249,39.50993],[-123.05239,39.50988],[-123.05228,39.50986],[-123.05213,39.50986],[-123.05195,39.50992],[-123.05177,39.51],[-123.05161,39.51002],[-123.05145,39.50999],[-123.05124,39.50989],[-123.05113,39.5098],[-123.05109,39.50964],[-123.05101,39.50927],[-123.05099,39.50914],[-123.05095,39.50909],[-123.05087,39.50906],[-123.05076,39.50908],[-123.05063,39.50912],[-123.05049,39.50918],[-123.05039,39.50924],[-123.05024,39.50937],[-123.05016,39.50947],[-123.05003,39.50955],[-123.04963,39.50972],[-123.04933,39.5098],[-123.04898,39.50993],[-123.0489,39.50995],[-123.04872,39.50993],[-123.04861,39.50989],[-123.0483,39.50972],[-123.04782,39.50937],[-123.04733,39.50887],[-123.04731,39.50879],[-123.0473,39.50858],[-123.04728,39.50852],[-123.04721,39.50845],[-123.04707,39.5083],[-123.04697,39.50822],[-123.04684,39.50811],[-123.04682,39.50791],[-123.04689,39.50775],[-123.04668,39.50765],[-123.04641,39.50756],[-123.0463,39.5075],[-123.04627,39.50739],[-123.04624,39.50717],[-123.04626,39.50652],[-123.04626,39.50642],[-123.04616,39.50634],[-123.046,39.50632],[-123.04575,39.50631],[-123.04564,39.50628],[-123.04556,39.50623],[-123.04552,39.50615],[-123.04555,39.50602],[-123.04565,39.5059],[-123.04576,39.50576],[-123.04604,39.50558],[-123.04625,39.50542],[-123.04628,39.50533],[-123.04627,39.50524],[-123.04618,39.50515],[-123.04582,39.50503],[-123.04564,39.50495],[-123.04537,39.50467],[-123.04524,39.50448],[-123.04517,39.50431],[-123.04507,39.50401],[-123.04509,39.50371],[-123.04513,39.50356],[-123.04502,39.50329],[-123.04489,39.50308],[-123.04477,39.5028],[-123.04481,39.50256],[-123.04479,39.50236],[-123.04468,39.50221],[-123.04396,39.50171],[-123.04384,39.50158],[-123.04383,39.50135],[-123.04377,39.50118],[-123.04356,39.50071],[-123.04324,39.5001],[-123.04323,39.49994],[-123.0433,39.49972],[-123.0433,39.49955],[-123.04317,39.4992],[-123.0431,39.49908],[-123.04309,39.49892],[-123.04309,39.49878],[-123.04305,39.49823],[-123.04284,39.49787],[-123.0428,39.49772],[-123.04279,39.49749],[-123.0428,39.49722],[-123.04268,39.49669],[-123.04269,39.49653],[-123.04282,39.49631],[-123.04304,39.49611],[-123.04319,39.49599],[-123.04333,39.49595],[-123.04357,39.49593],[-123.04384,39.49598],[-123.04399,39.49604],[-123.04457,39.49632],[-123.04475,39.49635],[-123.04496,39.49637],[-123.04569,39.49638],[-123.04596,39.49637],[-123.04609,39.49626],[-123.04614,39.49611],[-123.04611,39.49586],[-123.046,39.49554],[-123.04587,39.4953],[-123.04578,39.49509],[-123.04554,39.49452],[-123.04543,39.49413],[-123.04547,39.49372],[-123.04553,39.49358],[-123.04555,39.49349],[-123.04561,39.49341],[-123.04574,39.49333],[-123.04586,39.4933],[-123.04601,39.49328],[-123.04636,39.49328],[-123.04661,39.49331],[-123.04677,39.49329],[-123.04687,39.49325],[-123.04692,39.49312],[-123.04694,39.49291],[-123.04693,39.4927],[-123.04697,39.49237],[-123.047,39.49221],[-123.04714,39.49196],[-123.04728,39.4918]]}},{"type":"Feature","properties":{"name":"Hearst Willits Road","road_class":"unclassified","surface":"gravel","source":"Caltrans All Roads + OpenStreetMap explicit surface","source_detail":"osm way 10273687; Caltrans All Roads public-network geometry match","source_tile":"161/389","public_network_source":"Caltrans All Roads (ARNOLD/HPMS)","surface_source":"OpenStreetMap explicit surface tag","caltrans_match_coverage":1.0,"verified_length_m":2384},"geometry":{"type":"LineString","coordinates":[[-123.21117,39.49468],[-123.21126,39.49468],[-123.21143,39.49471],[-123.21175,39.49481],[-123.21221,39.49501],[-123.21265,39.49526],[-123.21294,39.49542],[-123.21314,39.4955],[-123.21336,39.49554],[-123.21357,39.49558],[-123.21371,39.49563],[-123.21407,39.49582],[-123.21421,39.49591],[-123.21448,39.49614],[-123.21454,39.49621],[-123.21457,39.49631],[-123.21461,39.49646],[-123.21462,39.49653],[-123.21458,39.49667],[-123.21426,39.49767],[-123.21409,39.49851],[-123.21404,39.49876],[-123.21401,39.49884],[-123.21394,39.49899],[-123.21382,39.49919],[-123.21362,39.49948],[-123.21348,39.49963],[-123.21325,39.49983],[-123.21305,39.49997],[-123.21231,39.50038],[-123.21217,39.50043],[-123.212,39.50045],[-123.21171,39.50045],[-123.21145,39.50049],[-123.20845,39.50135],[-123.20741,39.50176],[-123.20727,39.50183],[-123.20711,39.50197],[-123.20687,39.50224],[-123.20669,39.50244],[-123.20652,39.50268],[-123.20647,39.5028],[-123.20644,39.50295],[-123.20644,39.50307],[-123.2065,39.5032],[-123.20651,39.50325],[-123.20649,39.50331],[-123.20632,39.50354],[-123.20623,39.50372],[-123.20619,39.50378],[-123.20614,39.50391],[-123.20612,39.50398],[-123.20612,39.50406],[-123.20614,39.50414],[-123.20622,39.5043],[-123.20625,39.50445],[-123.20626,39.5046],[-123.20623,39.50476],[-123.20626,39.50495],[-123.20636,39.50521],[-123.20641,39.50536],[-123.20646,39.50614],[-123.20644,39.50634],[-123.20637,39.50658],[-123.20631,39.5067],[-123.20632,39.5068],[-123.20635,39.50689],[-123.20642,39.50699],[-123.20652,39.50712],[-123.20657,39.50723],[-123.20657,39.50736],[-123.20653,39.50753],[-123.20647,39.50773],[-123.20646,39.50779],[-123.20646,39.50785],[-123.2066,39.50805],[-123.20664,39.50815],[-123.20667,39.50837],[-123.20675,39.50848],[-123.20687,39.50859],[-123.20692,39.50867],[-123.20697,39.50882],[-123.20701,39.50887],[-123.20709,39.50891],[-123.20729,39.50895],[-123.20737,39.50899],[-123.20743,39.50907],[-123.20759,39.5094],[-123.20764,39.50954],[-123.20789,39.51009],[-123.20794,39.51025],[-123.20795,39.51037],[-123.20798,39.51046],[-123.20806,39.51057]]}},{"type":"Feature","properties":{"name":"Hearst Willits Road","road_class":"unclassified","surface":"unpaved","source":"Caltrans All Roads + OpenStreetMap explicit surface","source_detail":"osm way 10273730; Caltrans All Roads public-network geometry match","source_tile":"161/389","public_network_source":"Caltrans All Roads (ARNOLD/HPMS)","surface_source":"OpenStreetMap explicit surface tag","caltrans_match_coverage":1.0,"verified_length_m":4806},"geometry":{"type":"LineString","coordinates":[[-123.29361,39.46011],[-123.29355,39.46051],[-123.29352,39.4606],[-123.29346,39.46067],[-123.2934,39.46071],[-123.29321,39.46079],[-123.29306,39.46083],[-123.29262,39.46093],[-123.29209,39.46104],[-123.29135,39.46121],[-123.29088,39.46133],[-123.29057,39.4614],[-123.29037,39.46143],[-123.29027,39.46143],[-123.29019,39.46138],[-123.2901,39.46129],[-123.28991,39.46105],[-123.28984,39.46098],[-123.28974,39.46093],[-123.28959,39.4609],[-123.28952,39.4609],[-123.28929,39.46094],[-123.28902,39.46103],[-123.28875,39.46106],[-123.28831,39.46107],[-123.28824,39.46108],[-123.28789,39.46119],[-123.28753,39.46132],[-123.28744,39.46133],[-123.28659,39.4613],[-123.2862,39.46129],[-123.28547,39.46122],[-123.28514,39.4612],[-123.28471,39.46119],[-123.28431,39.46121],[-123.28414,39.46124],[-123.284,39.46128],[-123.28356,39.46144],[-123.2834,39.46148],[-123.28324,39.46147],[-123.28269,39.46139],[-123.28257,39.46139],[-123.28244,39.46143],[-123.28237,39.46146],[-123.28218,39.46158],[-123.2821,39.4616],[-123.28196,39.46159],[-123.28174,39.46155],[-123.28167,39.46154],[-123.28156,39.46154],[-123.28147,39.46155],[-123.28125,39.46162],[-123.281,39.46175],[-123.2808,39.46188],[-123.28068,39.46198],[-123.28054,39.4622],[-123.28051,39.46226],[-123.28045,39.46233],[-123.28034,39.46239],[-123.28014,39.46246],[-123.27951,39.46261],[-123.2791,39.46267],[-123.27899,39.46269],[-123.27881,39.46276],[-123.27859,39.46288],[-123.27829,39.46308],[-123.27809,39.46323],[-123.27787,39.46342],[-123.27761,39.46368],[-123.27753,39.46373],[-123.27746,39.46377],[-123.27736,39.46381],[-123.2772,39.46385],[-123.27675,39.46394],[-123.27568,39.46411],[-123.27524,39.46421],[-123.27424,39.46439],[-123.27354,39.46447],[-123.27343,39.46449],[-123.27336,39.46452],[-123.27324,39.46449],[-123.27305,39.46442],[-123.27274,39.46431],[-123.27255,39.4642],[-123.27236,39.46411],[-123.27222,39.46404],[-123.27219,39.46401],[-123.2721,39.46383],[-123.27206,39.4638],[-123.27201,39.46379],[-123.27194,39.46378],[-123.27161,39.4638],[-123.2709,39.4637],[-123.2703,39.46358],[-123.27014,39.4635],[-123.26957,39.46337],[-123.26944,39.46332],[-123.2692,39.46321],[-123.26901,39.46308],[-123.26896,39.46303],[-123.26888,39.46291],[-123.26887,39.46282],[-123.26893,39.46243],[-123.2689,39.4622],[-123.26886,39.4621],[-123.26862,39.46182],[-123.26844,39.46158],[-123.26821,39.46131],[-123.26814,39.46119],[-123.26803,39.46095],[-123.26794,39.46072],[-123.26784,39.4604],[-123.26775,39.46007],[-123.26772,39.45998],[-123.26769,39.45994],[-123.2676,39.4599],[-123.26744,39.45984],[-123.26731,39.45982],[-123.26703,39.4598],[-123.26636,39.45979],[-123.26583,39.45981],[-123.26568,39.4598],[-123.26556,39.45977],[-123.26517,39.4597],[-123.2648,39.45965],[-123.26408,39.45959],[-123.26391,39.45957],[-123.26358,39.4595],[-123.26244,39.45915],[-123.26216,39.45904],[-123.26198,39.45895],[-123.26175,39.45882],[-123.26165,39.45874],[-123.26154,39.45865],[-123.26138,39.45846],[-123.26132,39.45834],[-123.26129,39.45821],[-123.26125,39.45782],[-123.26121,39.4577],[-123.26116,39.45764],[-123.26107,39.45758],[-123.26099,39.45754],[-123.26094,39.45752],[-123.26075,39.4575],[-123.26066,39.45751],[-123.26023,39.45761],[-123.25993,39.45764],[-123.25981,39.45763],[-123.25973,39.4576],[-123.25953,39.45752],[-123.25927,39.45737],[-123.259,39.45727],[-123.25822,39.45702],[-123.25717,39.45664],[-123.25701,39.45659],[-123.25672,39.45655],[-123.25627,39.45652],[-123.256,39.45651],[-123.25578,39.45652],[-123.25527,39.45656],[-123.25508,39.45659],[-123.25483,39.45665],[-123.25461,39.45672],[-123.25423,39.45685],[-123.25393,39.45693],[-123.25379,39.45695],[-123.25353,39.45698],[-123.25321,39.45697],[-123.25303,39.45695],[-123.25284,39.45691],[-123.25268,39.45687],[-123.25251,39.45679],[-123.25235,39.4567],[-123.25221,39.45661],[-123.25172,39.45633],[-123.25163,39.45629],[-123.25149,39.45625],[-123.2505,39.45617],[-123.25023,39.45614],[-123.24957,39.45602],[-123.24909,39.45594],[-123.24883,39.45589],[-123.24868,39.45584],[-123.24857,39.45578],[-123.24849,39.45571],[-123.2483,39.45547],[-123.24822,39.45539],[-123.24811,39.45531],[-123.24799,39.45525],[-123.2479,39.45525],[-123.24776,39.45528],[-123.24725,39.45549],[-123.24715,39.45555],[-123.24711,39.45558],[-123.24707,39.45564],[-123.24694,39.45593],[-123.24688,39.456]]}},{"type":"Feature","properties":{"name":"(unnamed public road)","road_class":"track","surface":"dirt","source":"Caltrans All Roads + OpenStreetMap explicit surface","source_detail":"osm way 10285375; Caltrans All Roads public-network geometry match","source_tile":"161/389","public_network_source":"Caltrans All Roads (ARNOLD/HPMS)","surface_source":"OpenStreetMap explicit surface tag","caltrans_match_coverage":1.0,"verified_length_m":613},"geometry":{"type":"LineString","coordinates":[[-123.24287,39.43707],[-123.24255,39.43701],[-123.24252,39.43767],[-123.24253,39.43793],[-123.24251,39.43818],[-123.24255,39.4384],[-123.24258,39.43852],[-123.24265,39.43862],[-123.24293,39.43885],[-123.24319,39.439],[-123.24338,39.43909],[-123.24366,39.43917],[-123.24376,39.43918],[-123.24381,39.43917],[-123.24385,39.43915],[-123.2439,39.43912],[-123.24391,39.43909],[-123.24393,39.43906],[-123.24395,39.43898],[-123.24393,39.43889],[-123.24365,39.43845],[-123.24334,39.43812],[-123.24311,39.4378],[-123.24308,39.43769],[-123.24309,39.43762],[-123.24312,39.43754],[-123.24318,39.4375],[-123.24325,39.43742],[-123.24328,39.43735],[-123.24328,39.43725],[-123.24326,39.43721],[-123.24323,39.43719],[-123.24317,39.43716],[-123.24287,39.43707]]}},{"type":"Feature","properties":{"name":"Hearst Willits Road","road_class":"track","surface":"dirt","access":"yes","source":"Caltrans All Roads + OpenStreetMap explicit surface","source_detail":"osm way 10307091; Caltrans All Roads public-network geometry match","source_tile":"161/389","public_network_source":"Caltrans All Roads (ARNOLD/HPMS)","surface_source":"OpenStreetMap explicit surface tag","caltrans_match_coverage":1.0,"verified_length_m":1108},"geometry":{"type":"LineString","coordinates":[[-123.21132,39.51569],[-123.21135,39.51578],[-123.21135,39.51591],[-123.2113,39.51602],[-123.21123,39.51611],[-123.21112,39.51622],[-123.21097,39.51634],[-123.21074,39.51645],[-123.21064,39.51648],[-123.21056,39.51649],[-123.21044,39.51646],[-123.21024,39.51638],[-123.21013,39.51633],[-123.20999,39.51623],[-123.20996,39.51618],[-123.20994,39.51613],[-123.20994,39.51595],[-123.20992,39.5159],[-123.20985,39.51584],[-123.20978,39.51584],[-123.20974,39.51584],[-123.20965,39.51588],[-123.2096,39.51591],[-123.20956,39.51596],[-123.20954,39.51602],[-123.20954,39.51609],[-123.20957,39.51616],[-123.20993,39.51647],[-123.2102,39.51664],[-123.21034,39.51679],[-123.21044,39.51698],[-123.21054,39.51709],[-123.2107,39.51722],[-123.21081,39.51732],[-123.21108,39.51746],[-123.21137,39.51767],[-123.2117,39.5179],[-123.21188,39.51797],[-123.21207,39.5181],[-123.21246,39.51811],[-123.21268,39.51817],[-123.21286,39.5183],[-123.21301,39.51836],[-123.21316,39.51841],[-123.21337,39.51844],[-123.21347,39.5184],[-123.21354,39.51836],[-123.21361,39.51832],[-123.21371,39.51823],[-123.21379,39.5182],[-123.21388,39.51818],[-123.21403,39.5182],[-123.21419,39.51825],[-123.21435,39.51823],[-123.21488,39.51798],[-123.21515,39.51787],[-123.21525,39.5178],[-123.21545,39.51768],[-123.21561,39.51763],[-123.21581,39.51759],[-123.21598,39.51754],[-123.21621,39.51745],[-123.21661,39.51725],[-123.21696,39.51706],[-123.21713,39.51699],[-123.21731,39.51695],[-123.21743,39.517]]}},{"type":"Feature","properties":{"name":"Tomki Road","road_class":"unclassified","surface":"unpaved","source":"Caltrans All Roads + OpenStreetMap explicit surface","source_detail":"osm way 10310637; Caltrans All Roads public-network geometry match","source_tile":"161/389","public_network_source":"Caltrans All Roads (ARNOLD/HPMS)","surface_source":"OpenStreetMap explicit surface tag","caltrans_match_coverage":1.0,"verified_length_m":5565},"geometry":{"type":"LineString","coordinates":[[-123.22884,39.38784],[-123.2288,39.38786],[-123.22878,39.38788],[-123.22876,39.38792],[-123.22876,39.38796],[-123.22877,39.38799],[-123.22878,39.38803],[-123.2288,39.38805],[-123.22885,39.38808],[-123.22894,39.38812],[-123.22909,39.38818],[-123.22928,39.3883],[-123.22937,39.38838],[-123.22942,39.38846],[-123.22961,39.38862],[-123.22969,39.38871],[-123.22976,39.3888],[-123.22989,39.38901],[-123.22998,39.38921],[-123.23004,39.38942],[-123.23009,39.3896],[-123.23013,39.38977],[-123.23015,39.39001],[-123.23011,39.39019],[-123.23006,39.39035],[-123.23006,39.39046],[-123.23009,39.39054],[-123.2302,39.39072],[-123.23033,39.39091],[-123.23052,39.39131],[-123.23057,39.39144],[-123.23061,39.39156],[-123.23067,39.39166],[-123.23074,39.39177],[-123.23096,39.39201],[-123.23114,39.39221],[-123.23129,39.39242],[-123.23141,39.39259],[-123.23153,39.39277],[-123.23157,39.39288],[-123.23158,39.39297],[-123.23159,39.39303],[-123.23157,39.39324],[-123.23157,39.39329],[-123.23162,39.39338],[-123.23172,39.39346],[-123.23179,39.39353],[-123.23183,39.39361],[-123.23186,39.39369],[-123.23185,39.39373],[-123.23184,39.39376],[-123.23173,39.39386],[-123.2317,39.3939],[-123.23171,39.39394],[-123.23173,39.39398],[-123.23176,39.394],[-123.23185,39.39402],[-123.232,39.39403],[-123.23216,39.39406],[-123.23241,39.39417],[-123.23253,39.39423],[-123.23268,39.39428],[-123.23289,39.39433],[-123.233,39.39437],[-123.2331,39.3944],[-123.23317,39.39441],[-123.23323,39.39442],[-123.23337,39.39441],[-123.23357,39.3944],[-123.23372,39.3944],[-123.2338,39.39439],[-123.23386,39.39439],[-123.23394,39.3944],[-123.23401,39.39441],[-123.23406,39.39443],[-123.23409,39.39446],[-123.23411,39.39448],[-123.23412,39.39454],[-123.2341,39.39458],[-123.23408,39.39464],[-123.23403,39.39471],[-123.234,39.39478],[-123.23399,39.39483],[-123.23403,39.39511],[-123.23405,39.39516],[-123.23412,39.39527],[-123.23419,39.39537],[-123.23423,39.39547],[-123.23424,39.39557],[-123.23422,39.39563],[-123.23419,39.39568],[-123.23416,39.39577],[-123.23417,39.39582],[-123.23423,39.39596],[-123.23425,39.39612],[-123.23429,39.39629],[-123.2343,39.39635],[-123.2343,39.3964],[-123.23426,39.39652],[-123.23415,39.39669],[-123.23407,39.39679],[-123.23404,39.39687],[-123.23405,39.39695],[-123.23408,39.39707],[-123.23414,39.3973],[-123.23418,39.39743],[-123.23423,39.39759],[-123.2343,39.39774],[-123.23435,39.39782],[-123.23449,39.39799],[-123.23458,39.39811],[-123.23475,39.3983],[-123.23495,39.39848],[-123.23503,39.39853],[-123.23519,39.39857],[-123.23536,39.39861],[-123.23544,39.39863],[-123.23554,39.39868],[-123.23566,39.39879],[-123.2358,39.39889],[-123.23586,39.39897],[-123.23599,39.39915],[-123.23616,39.39932],[-123.23634,39.39946],[-123.23657,39.3996],[-123.23667,39.39969],[-123.23678,39.39984],[-123.23686,39.39999],[-123.2369,39.40014],[-123.23693,39.40092],[-123.23693,39.40108],[-123.23691,39.4012],[-123.23689,39.40134],[-123.2369,39.40141],[-123.23696,39.40158],[-123.23698,39.40164],[-123.23698,39.40171],[-123.23695,39.40177],[-123.23684,39.40188],[-123.23674,39.40196],[-123.23669,39.40204],[-123.23662,39.40212],[-123.23658,39.40222],[-123.23654,39.40239],[-123.23648,39.40263],[-123.2365,39.40271],[-123.23653,39.40279],[-123.23659,39.4029],[-123.23667,39.40303],[-123.23673,39.40313],[-123.2368,39.40326],[-123.23683,39.40338],[-123.23687,39.40362],[-123.2369,39.40374],[-123.23697,39.40386],[-123.23701,39.40395],[-123.23702,39.40405],[-123.23698,39.40426],[-123.23698,39.40439],[-123.23701,39.40457],[-123.23702,39.40469],[-123.237,39.4048],[-123.23682,39.40506],[-123.23678,39.40519],[-123.23677,39.40527],[-123.23677,39.40534],[-123.23678,39.40548],[-123.23681,39.40559],[-123.23683,39.40565],[-123.23687,39.40573],[-123.23693,39.4058],[-123.23701,39.40588],[-123.23713,39.40599],[-123.23723,39.40609],[-123.23731,39.40618],[-123.23742,39.40632],[-123.23756,39.40644],[-123.23772,39.4066],[-123.23783,39.40672],[-123.238,39.40694],[-123.23815,39.4071],[-123.23823,39.40719],[-123.23829,39.40724],[-123.23839,39.40729],[-123.23845,39.40733],[-123.2385,39.40737],[-123.23857,39.40746],[-123.2386,39.40752],[-123.23858,39.40758],[-123.23852,39.4078],[-123.23853,39.40793],[-123.23856,39.4081],[-123.23857,39.40826],[-123.23859,39.40841],[-123.23857,39.40847],[-123.23852,39.40854],[-123.23846,39.40865],[-123.23844,39.40873],[-123.23843,39.40894],[-123.23843,39.40916],[-123.23844,39.40923],[-123.23847,39.40933],[-123.23852,39.40943],[-123.23863,39.40972],[-123.2387,39.40986],[-123.23877,39.41],[-123.23883,39.41009],[-123.23893,39.4102],[-123.23909,39.41035],[-123.23914,39.41039],[-123.23921,39.41042],[-123.23934,39.41047],[-123.23964,39.41053],[-123.23974,39.41056],[-123.2398,39.4106],[-123.23988,39.41067],[-123.23999,39.41078],[-123.24005,39.41084],[-123.24013,39.4109],[-123.24025,39.41096],[-123.24031,39.411],[-123.24035,39.41106],[-123.2404,39.41117],[-123.24043,39.41128],[-123.24045,39.41134],[-123.24051,39.41143],[-123.24063,39.41152],[-123.2408,39.41162],[-123.24086,39.41168],[-123.24089,39.41173],[-123.24093,39.41184],[-123.24094,39.41194],[-123.24093,39.41202],[-123.24088,39.41213],[-123.24078,39.4125],[-123.24071,39.41266],[-123.24065,39.41278],[-123.24062,39.41282],[-123.24062,39.41288],[-123.24064,39.41296],[-123.24081,39.41325],[-123.24106,39.41356],[-123.24125,39.41375],[-123.24159,39.41399],[-123.24162,39.41405],[-123.24163,39.4141],[-123.24162,39.41421],[-123.24163,39.41432],[-123.24166,39.4144],[-123.24173,39.41449],[-123.24205,39.41479],[-123.2421,39.41485],[-123.2422,39.415],[-123.24224,39.41507],[-123.24225,39.41512],[-123.24225,39.41518],[-123.24224,39.41524],[-123.24222,39.41529],[-123.24214,39.41541],[-123.24208,39.41549],[-123.24201,39.41557],[-123.24196,39.41563],[-123.24193,39.41568],[-123.24191,39.41574],[-123.24191,39.41581],[-123.24191,39.41587],[-123.24193,39.41593],[-123.24194,39.41609],[-123.24192,39.41617],[-123.24187,39.41626],[-123.24185,39.41631],[-123.24184,39.41637],[-123.24184,39.41643],[-123.24186,39.41648],[-123.2419,39.41657],[-123.24195,39.41665],[-123.24197,39.41676],[-123.24196,39.41682],[-123.24194,39.41687],[-123.24184,39.41694],[-123.24177,39.41701],[-123.2417,39.41712],[-123.24158,39.41726],[-123.24146,39.41738],[-123.24127,39.41752],[-123.24108,39.41767],[-123.24099,39.41778],[-123.24096,39.41783],[-123.24093,39.41793],[-123.24092,39.41804],[-123.24092,39.41833],[-123.24092,39.41867],[-123.24091,39.41885],[-123.24087,39.4189],[-123.24072,39.41899],[-123.24073,39.41907],[-123.24071,39.41923],[-123.24066,39.41939],[-123.24057,39.41964],[-123.24053,39.41973],[-123.24046,39.41983],[-123.24036,39.4199],[-123.24025,39.41997],[-123.24007,39.42006],[-123.23998,39.42015],[-123.23994,39.42023],[-123.23988,39.42038],[-123.23985,39.42044],[-123.23981,39.42052],[-123.23969,39.42071],[-123.23963,39.4208],[-123.2396,39.42098],[-123.23958,39.42117],[-123.23957,39.42127],[-123.23955,39.42137],[-123.2395,39.42148],[-123.23947,39.42169],[-123.23948,39.42182],[-123.23949,39.42187],[-123.23951,39.42194],[-123.23971,39.42233],[-123.23982,39.42254],[-123.24011,39.42317],[-123.24015,39.42329],[-123.24019,39.42347],[-123.24019,39.42363],[-123.24018,39.42398],[-123.2402,39.42421],[-123.24022,39.42433],[-123.24027,39.42446],[-123.2403,39.42451],[-123.24065,39.42489],[-123.24071,39.42499],[-123.24075,39.42509],[-123.24077,39.42522],[-123.2408,39.42574],[-123.24083,39.42589],[-123.24102,39.4262],[-123.24113,39.42641],[-123.24124,39.42665],[-123.24133,39.42682],[-123.24142,39.42695],[-123.24155,39.4271],[-123.24168,39.42725],[-123.24181,39.42743],[-123.24192,39.4276],[-123.24199,39.42771],[-123.24204,39.42782],[-123.24207,39.42796],[-123.24209,39.42811],[-123.24211,39.42833],[-123.24213,39.42841],[-123.24215,39.42848],[-123.2422,39.42855],[-123.24229,39.42862],[-123.24245,39.42871],[-123.24255,39.42879],[-123.24264,39.42888],[-123.24271,39.42898],[-123.2428,39.42908],[-123.24294,39.42919],[-123.24311,39.4293],[-123.2434,39.42944],[-123.24353,39.42949],[-123.24391,39.42963],[-123.24417,39.42973],[-123.24434,39.42983],[-123.24467,39.43],[-123.24483,39.43014],[-123.24505,39.4303],[-123.24516,39.43042],[-123.24525,39.43055]]}},{"type":"Feature","properties":{"name":"Oat Gap Road","road_class":"unclassified","surface":"unpaved","source":"Caltrans All Roads + OpenStreetMap explicit surface","source_detail":"osm way 10312376; Caltrans All Roads public-network geometry match","source_tile":"161/389","public_network_source":"Caltrans All Roads (ARNOLD/HPMS)","surface_source":"OpenStreetMap explicit surface tag","caltrans_match_coverage":1.0,"verified_length_m":1012},"geometry":{"type":"LineString","coordinates":[[-123.05669,39.39395],[-123.05686,39.39423],[-123.05693,39.39432],[-123.05709,39.39444],[-123.05725,39.39453],[-123.05739,39.39458],[-123.05777,39.39464],[-123.05793,39.39468],[-123.05803,39.39473],[-123.05809,39.39478],[-123.05812,39.39483],[-123.05811,39.39497],[-123.05808,39.39523],[-123.0581,39.39532],[-123.05815,39.39537],[-123.0582,39.3954],[-123.05828,39.39542],[-123.05842,39.39543],[-123.05864,39.39547],[-123.05871,39.3955],[-123.05874,39.39553],[-123.05883,39.39563],[-123.05892,39.39568],[-123.05898,39.39574],[-123.05905,39.39587],[-123.05911,39.39594],[-123.05912,39.39602],[-123.0591,39.39609],[-123.05901,39.39622],[-123.05899,39.39631],[-123.05897,39.3964],[-123.05899,39.39651],[-123.05904,39.39661],[-123.05914,39.39675],[-123.05928,39.3969],[-123.05931,39.39702],[-123.05933,39.39712],[-123.05933,39.39724],[-123.05929,39.39735],[-123.05922,39.39747],[-123.05916,39.39754],[-123.05907,39.3977],[-123.05887,39.39794],[-123.05879,39.39808],[-123.05873,39.39832],[-123.05866,39.39851],[-123.05863,39.39867],[-123.05861,39.39872],[-123.05856,39.39876],[-123.05793,39.39906],[-123.0577,39.39921],[-123.0575,39.39942],[-123.05742,39.39946],[-123.05725,39.39951],[-123.0571,39.39955],[-123.05693,39.39962],[-123.05683,39.39971],[-123.05677,39.39979],[-123.05674,39.39989],[-123.05674,39.40005],[-123.05678,39.40047],[-123.05675,39.40068],[-123.05671,39.40078],[-123.05665,39.40086],[-123.0565,39.40099]]}},{"type":"Feature","properties":{"name":"Oat Gap Road","road_class":"unclassified","surface":"unpaved","source":"Caltrans All Roads + OpenStreetMap explicit surface","source_detail":"osm way 10312377; Caltrans All Roads public-network geometry match","source_tile":"161/389","public_network_source":"Caltrans All Roads (ARNOLD/HPMS)","surface_source":"OpenStreetMap explicit surface tag","caltrans_match_coverage":1.0,"verified_length_m":600},"geometry":{"type":"LineString","coordinates":[[-123.05695,39.38457],[-123.05702,39.38481],[-123.05705,39.38497],[-123.05711,39.38515],[-123.05711,39.38537],[-123.05708,39.3855],[-123.05703,39.38564],[-123.05695,39.38592],[-123.05693,39.38599],[-123.05692,39.38625],[-123.0569,39.38649],[-123.05693,39.38683],[-123.05706,39.38724],[-123.05712,39.3876],[-123.05717,39.38796],[-123.0572,39.38808],[-123.05719,39.38815],[-123.05716,39.38822],[-123.05714,39.38834],[-123.05717,39.38843],[-123.0572,39.38851],[-123.05726,39.38858],[-123.05728,39.38865],[-123.05726,39.38872],[-123.05718,39.38885],[-123.05716,39.38891],[-123.05717,39.38896],[-123.05719,39.38906],[-123.05719,39.38917],[-123.05717,39.38929],[-123.05708,39.38947],[-123.05701,39.38958],[-123.05689,39.38972],[-123.05683,39.38979],[-123.05681,39.38983]]}},{"type":"Feature","properties":{"name":"Forest Route 20N01","road_class":"unclassified","surface":"unpaved","source":"Caltrans All Roads + OpenStreetMap explicit surface","source_detail":"osm way 10316729; Caltrans All Roads public-network geometry match","source_tile":"161/389","public_network_source":"Caltrans All Roads (ARNOLD/HPMS)","surface_source":"OpenStreetMap explicit surface tag","caltrans_match_coverage":1.0,"verified_length_m":4437},"geometry":{"type":"LineString","coordinates":[[-123.06229,39.37488],[-123.06281,39.37472],[-123.06304,39.37463],[-123.06339,39.37445],[-123.06362,39.37431],[-123.06373,39.37423],[-123.06395,39.37409],[-123.06421,39.374],[-123.06463,39.37388],[-123.06497,39.37382],[-123.06521,39.3738],[-123.06607,39.37375],[-123.06654,39.37377],[-123.06679,39.37379],[-123.06689,39.37379],[-123.06713,39.37378],[-123.06724,39.37376],[-123.06735,39.37372],[-123.06744,39.37368],[-123.06768,39.37351],[-123.06779,39.3734],[-123.06792,39.37327],[-123.0683,39.37289],[-123.06877,39.37247],[-123.0692,39.37206],[-123.06939,39.37186],[-123.06967,39.37159],[-123.06996,39.37137],[-123.07015,39.37125],[-123.07046,39.37109],[-123.07067,39.37093],[-123.07078,39.37085],[-123.07107,39.37066],[-123.07122,39.37057],[-123.07139,39.3705],[-123.07156,39.37042],[-123.07214,39.37019],[-123.07235,39.37007],[-123.07247,39.37004],[-123.07276,39.37001],[-123.07293,39.36998],[-123.07363,39.36979],[-123.07371,39.36978],[-123.07383,39.36978],[-123.07407,39.3698],[-123.07468,39.36995],[-123.07563,39.37003],[-123.07603,39.37003],[-123.07623,39.37012],[-123.07648,39.3703],[-123.07656,39.37037],[-123.07673,39.37046],[-123.07684,39.37065],[-123.07706,39.37092],[-123.07715,39.37106],[-123.07719,39.37119],[-123.07721,39.37136],[-123.07718,39.37189],[-123.07713,39.37215],[-123.07712,39.37225],[-123.07713,39.37233],[-123.07715,39.37242],[-123.07722,39.37298],[-123.07725,39.37337],[-123.07726,39.37345],[-123.07726,39.37359],[-123.07723,39.37366],[-123.07712,39.3738],[-123.07701,39.37391],[-123.07697,39.374],[-123.07697,39.37413],[-123.07699,39.3742],[-123.07704,39.37425],[-123.07708,39.37428],[-123.07741,39.37444],[-123.07753,39.3745],[-123.07774,39.37457],[-123.07794,39.37461],[-123.07802,39.37462],[-123.07832,39.37469],[-123.07862,39.37478],[-123.07888,39.37488],[-123.07916,39.37502],[-123.07943,39.37522],[-123.07954,39.37531],[-123.07959,39.37538],[-123.07969,39.37555],[-123.07981,39.37582],[-123.07991,39.37602],[-123.08004,39.3763],[-123.08025,39.3767],[-123.08053,39.37719],[-123.08061,39.37732],[-123.08102,39.37773],[-123.08133,39.37799],[-123.08176,39.37828],[-123.08199,39.37846],[-123.08223,39.37869],[-123.08238,39.37885],[-123.08279,39.37924],[-123.08293,39.37936],[-123.08325,39.37958],[-123.08341,39.37967],[-123.08388,39.37989],[-123.084,39.37993],[-123.08457,39.38005],[-123.08499,39.38012],[-123.08565,39.38021],[-123.08601,39.38024],[-123.0863,39.38025],[-123.08642,39.38024],[-123.08678,39.38016],[-123.08717,39.38014],[-123.08736,39.38014],[-123.08772,39.38013],[-123.0881,39.38011],[-123.08832,39.38012],[-123.08856,39.38015],[-123.08881,39.38019],[-123.08924,39.38024],[-123.09006,39.38037],[-123.09057,39.38047],[-123.09101,39.38058],[-123.09134,39.38064],[-123.09192,39.38079],[-123.09265,39.38105],[-123.09292,39.3811],[-123.09308,39.38112],[-123.09318,39.3811],[-123.09333,39.38108],[-123.09344,39.38109],[-123.09351,39.38111],[-123.09384,39.38128],[-123.09393,39.38131],[-123.09405,39.38132],[-123.0943,39.38133],[-123.09442,39.38131],[-123.09455,39.38128],[-123.09466,39.38126],[-123.09478,39.38126],[-123.09522,39.38129],[-123.0954,39.38129],[-123.09573,39.38127],[-123.09604,39.38123],[-123.09623,39.38119],[-123.09635,39.38115],[-123.09648,39.3811],[-123.09669,39.38097],[-123.09687,39.38089],[-123.09715,39.38083],[-123.09733,39.38079],[-123.09776,39.38077],[-123.09835,39.38075],[-123.09839,39.38075],[-123.09864,39.38072],[-123.09946,39.38056],[-123.09969,39.38052],[-123.09987,39.3805],[-123.1,39.38047],[-123.10018,39.38038],[-123.10061,39.38014],[-123.1008,39.38007],[-123.10125,39.37997],[-123.10158,39.37992],[-123.1019,39.37991],[-123.10221,39.37991]]}},{"type":"Feature","properties":{"name":"Forest Route 20N01","road_class":"unclassified","surface":"unpaved","source":"Caltrans All Roads + OpenStreetMap explicit surface","source_detail":"osm way 10316734; Caltrans All Roads public-network geometry match","source_tile":"161/389","public_network_source":"Caltrans All Roads (ARNOLD/HPMS)","surface_source":"OpenStreetMap explicit surface tag","caltrans_match_coverage":1.0,"verified_length_m":803},"geometry":{"type":"LineString","coordinates":[[-123.05834,39.37544],[-123.05796,39.37552],[-123.05701,39.37564],[-123.05638,39.3757],[-123.05436,39.37594],[-123.05424,39.37594],[-123.05413,39.37594],[-123.05381,39.37586],[-123.05343,39.37574],[-123.05294,39.37557],[-123.05272,39.37553],[-123.05244,39.3755],[-123.05204,39.3754],[-123.05192,39.37536],[-123.05174,39.37531],[-123.05166,39.37531],[-123.05147,39.37532],[-123.05139,39.37534],[-123.05127,39.37539],[-123.051,39.37557],[-123.05076,39.37574],[-123.05052,39.37592],[-123.05028,39.3761],[-123.0499,39.37635],[-123.04975,39.37645]]}},{"type":"Feature","properties":{"name":"19 North 16 Road","road_class":"unclassified","surface":"unpaved","source":"Caltrans All Roads + OpenStreetMap explicit surface","source_detail":"osm way 646883779; Caltrans All Roads public-network geometry match","source_tile":"161/389","public_network_source":"Caltrans All Roads (ARNOLD/HPMS)","surface_source":"OpenStreetMap explicit surface tag","caltrans_match_coverage":1.0,"verified_length_m":1973},"geometry":{"type":"LineString","coordinates":[[-123.05456,39.42601],[-123.05451,39.42606],[-123.05444,39.42617],[-123.05439,39.42628],[-123.05438,39.4264],[-123.05441,39.42656],[-123.05443,39.42679],[-123.0544,39.42694],[-123.05434,39.42706],[-123.05431,39.42717],[-123.05435,39.42731],[-123.05448,39.42744],[-123.05466,39.42759],[-123.05479,39.42776],[-123.05493,39.42815],[-123.05505,39.42842],[-123.05519,39.42864],[-123.05532,39.42875],[-123.05545,39.42882],[-123.05557,39.42883],[-123.0557,39.4288],[-123.05585,39.42879],[-123.05598,39.42882],[-123.05609,39.42888],[-123.05616,39.42896],[-123.05618,39.42906],[-123.05615,39.42916],[-123.05612,39.42927],[-123.05609,39.42938],[-123.05611,39.42951],[-123.05615,39.42962],[-123.05625,39.42977],[-123.05628,39.42987],[-123.05628,39.42999],[-123.05624,39.43013],[-123.05617,39.4303],[-123.05604,39.43041],[-123.05583,39.43048],[-123.05567,39.43049],[-123.0555,39.43048],[-123.05532,39.4305],[-123.05512,39.43056],[-123.05498,39.4306],[-123.0547,39.43062],[-123.05455,39.43065],[-123.05433,39.43071],[-123.05415,39.43073],[-123.054,39.43073],[-123.05387,39.43072],[-123.0537,39.43069],[-123.05357,39.43068],[-123.05346,39.4307],[-123.05338,39.43075],[-123.05323,39.4309],[-123.053,39.43112],[-123.05294,39.43123],[-123.05294,39.4313],[-123.05295,39.43133],[-123.05301,39.43137],[-123.05313,39.43141],[-123.05356,39.43147],[-123.05375,39.43147],[-123.05391,39.43142],[-123.05419,39.43127],[-123.05454,39.43109],[-123.05468,39.43105],[-123.05479,39.43104],[-123.05495,39.43107],[-123.05531,39.43122],[-123.05542,39.43125],[-123.0557,39.43129],[-123.05593,39.43136],[-123.05618,39.4315],[-123.05637,39.43161],[-123.05648,39.43164],[-123.05671,39.43166],[-123.05695,39.43166],[-123.05713,39.43166],[-123.05731,39.43165],[-123.05746,39.43162],[-123.0576,39.43163],[-123.05774,39.43169],[-123.05788,39.4318],[-123.05806,39.4319],[-123.05823,39.43196],[-123.05829,39.432],[-123.05833,39.43211],[-123.05833,39.43232],[-123.05835,39.43252],[-123.05846,39.43269],[-123.05866,39.43282],[-123.05922,39.43297],[-123.05929,39.43297],[-123.05941,39.43297],[-123.05956,39.4329],[-123.05975,39.43272],[-123.05982,39.43261],[-123.05994,39.43251],[-123.06004,39.43249],[-123.0602,39.43252],[-123.06039,39.43259],[-123.06046,39.43266],[-123.06046,39.43278],[-123.0604,39.43299],[-123.06023,39.4333],[-123.06012,39.43353],[-123.06011,39.43362],[-123.06012,39.43382],[-123.06018,39.43395],[-123.06021,39.43405],[-123.06019,39.43418],[-123.06008,39.43428],[-123.06003,39.43441],[-123.06001,39.43454],[-123.06002,39.43469],[-123.06006,39.43486],[-123.06017,39.43503],[-123.0602,39.43506]]}},{"type":"Feature","properties":{"name":"Hearst Willits Road","road_class":"track","surface":"dirt","access":"yes","source":"Caltrans All Roads + OpenStreetMap explicit surface","source_detail":"osm way 1126758193; Caltrans All Roads public-network geometry match","source_tile":"161/389","public_network_source":"Caltrans All Roads (ARNOLD/HPMS)","surface_source":"OpenStreetMap explicit surface tag","caltrans_match_coverage":1.0,"verified_length_m":3871},"geometry":{"type":"LineString","coordinates":[[-123.21743,39.517],[-123.21742,39.51712],[-123.21731,39.51724],[-123.2171,39.5173],[-123.21686,39.51733],[-123.21622,39.51762],[-123.21598,39.51776],[-123.21577,39.51791],[-123.21562,39.51802],[-123.21543,39.51815],[-123.21501,39.51834],[-123.21484,39.51849],[-123.21456,39.51877],[-123.21427,39.51912],[-123.21419,39.51919],[-123.21409,39.51924],[-123.21402,39.51926],[-123.21341,39.5194],[-123.21332,39.51942],[-123.21325,39.51946],[-123.21305,39.51966],[-123.21281,39.51997],[-123.21272,39.52011],[-123.21267,39.52028],[-123.21261,39.52051],[-123.21256,39.52061],[-123.21241,39.52083],[-123.21239,39.52092],[-123.21243,39.52116],[-123.21241,39.52125],[-123.21231,39.52148],[-123.21226,39.52157],[-123.21197,39.52201],[-123.21191,39.52208],[-123.21175,39.52218],[-123.21168,39.52224],[-123.2116,39.52238],[-123.2116,39.52244],[-123.21163,39.52249],[-123.21179,39.52264],[-123.21193,39.52284],[-123.21201,39.52299],[-123.21203,39.52306],[-123.21203,39.52313],[-123.21202,39.52315],[-123.21198,39.52319],[-123.21182,39.52331],[-123.21169,39.52339],[-123.21131,39.52356],[-123.21064,39.5239],[-123.21056,39.52396],[-123.21046,39.52405],[-123.21033,39.52419],[-123.21031,39.52424],[-123.21031,39.52432],[-123.21032,39.52436],[-123.21039,39.5245],[-123.21039,39.52459],[-123.21038,39.52464],[-123.21028,39.52484],[-123.2102,39.52495],[-123.21004,39.5251],[-123.21,39.52514],[-123.20992,39.52528],[-123.20979,39.52538],[-123.20975,39.52546],[-123.20977,39.52551],[-123.20979,39.52555],[-123.20983,39.52557],[-123.21007,39.52564],[-123.21012,39.52564],[-123.21016,39.52563],[-123.21026,39.52564],[-123.2104,39.5257],[-123.21065,39.52589],[-123.21107,39.52617],[-123.21124,39.52627],[-123.21149,39.5264],[-123.21156,39.52642],[-123.21173,39.52646],[-123.2118,39.52646],[-123.21185,39.52645],[-123.2119,39.52644],[-123.21203,39.52633],[-123.2121,39.52625],[-123.21216,39.52624],[-123.21225,39.52625],[-123.21258,39.52638],[-123.21331,39.52659],[-123.21336,39.52659],[-123.21355,39.52658],[-123.21369,39.5266],[-123.21376,39.52662],[-123.21404,39.52672],[-123.21413,39.5268],[-123.21419,39.52689],[-123.21421,39.52694],[-123.21425,39.52708],[-123.21426,39.52721],[-123.21428,39.52731],[-123.21435,39.5275],[-123.21443,39.5276],[-123.21454,39.5277],[-123.21468,39.52786],[-123.21477,39.52795],[-123.21487,39.52802],[-123.2152,39.52818],[-123.21542,39.52824],[-123.21553,39.52825],[-123.21576,39.52825],[-123.21608,39.52829],[-123.21629,39.52828],[-123.21672,39.52823],[-123.21683,39.52823],[-123.21691,39.52825],[-123.21736,39.5284],[-123.21761,39.52852],[-123.21774,39.52862],[-123.21776,39.52872],[-123.21776,39.52885],[-123.21774,39.52892],[-123.21771,39.52896],[-123.21766,39.52898],[-123.21752,39.52903],[-123.21712,39.52916],[-123.21699,39.52918],[-123.21688,39.52918],[-123.21661,39.52913],[-123.21649,39.52916],[-123.21627,39.52919],[-123.21599,39.52918],[-123.21579,39.52916],[-123.21567,39.52916],[-123.2156,39.52918],[-123.21519,39.52932],[-123.21508,39.52935],[-123.21499,39.52936],[-123.21489,39.52935],[-123.21479,39.52936],[-123.21454,39.52941],[-123.21433,39.52942],[-123.21424,39.52941],[-123.21414,39.52938],[-123.21406,39.52934],[-123.21392,39.52923],[-123.21384,39.5292],[-123.21379,39.52919],[-123.21362,39.52919],[-123.21339,39.5292],[-123.21313,39.52921],[-123.21296,39.52924],[-123.21286,39.52928],[-123.21274,39.52929],[-123.21256,39.52929],[-123.21249,39.52932],[-123.21238,39.52941],[-123.21237,39.52947],[-123.21237,39.5295],[-123.21246,39.52973],[-123.21246,39.52981],[-123.21242,39.52995],[-123.21237,39.53001],[-123.21235,39.53003],[-123.21231,39.53003],[-123.21226,39.53003],[-123.2122,39.53],[-123.212,39.5299],[-123.2116,39.52972],[-123.21155,39.52967],[-123.21151,39.52958],[-123.21145,39.52953],[-123.21135,39.52948],[-123.21127,39.52938],[-123.21124,39.52932],[-123.21115,39.5292],[-123.21109,39.52917],[-123.21091,39.52912],[-123.21084,39.52911],[-123.21079,39.52912],[-123.21076,39.52913],[-123.21067,39.52925],[-123.21046,39.52944],[-123.21036,39.52951],[-123.21027,39.52954],[-123.21015,39.52956],[-123.21007,39.52958],[-123.21002,39.52958],[-123.20999,39.52957],[-123.20997,39.52955],[-123.20992,39.52954],[-123.20987,39.52953],[-123.20983,39.52954],[-123.20977,39.52959],[-123.20965,39.52968],[-123.20952,39.52981],[-123.20951,39.52985],[-123.20954,39.52998],[-123.20963,39.5302],[-123.20963,39.53028],[-123.20961,39.53037],[-123.20959,39.53041],[-123.20955,39.53045],[-123.2095,39.53047],[-123.20928,39.53052],[-123.2092,39.53054],[-123.20903,39.53063],[-123.20892,39.5307],[-123.20886,39.53076],[-123.20878,39.5308],[-123.20873,39.53081],[-123.20865,39.53081],[-123.20852,39.53079],[-123.20844,39.53079],[-123.20837,39.53083],[-123.20835,39.53085],[-123.20835,39.53089],[-123.20837,39.53093],[-123.20841,39.53096],[-123.20861,39.53103],[-123.2087,39.53107],[-123.20885,39.53118],[-123.20903,39.53128],[-123.20908,39.53134],[-123.20909,39.53139],[-123.20908,39.53151],[-123.20923,39.53161],[-123.20932,39.53169],[-123.20941,39.53182],[-123.20946,39.53191],[-123.2095,39.53204],[-123.2095,39.5321],[-123.20949,39.53221],[-123.20946,39.53227],[-123.20921,39.53266],[-123.20918,39.53272],[-123.20916,39.53283],[-123.20916,39.53288],[-123.2092,39.53301],[-123.20927,39.53313],[-123.20926,39.53318],[-123.20923,39.53325],[-123.20911,39.53335],[-123.20901,39.53351],[-123.20892,39.53363],[-123.20884,39.53368],[-123.20875,39.53369],[-123.20866,39.53368],[-123.20854,39.5337],[-123.20846,39.53371],[-123.20834,39.53375],[-123.20829,39.53381],[-123.20823,39.53402],[-123.20819,39.5341],[-123.20759,39.53498],[-123.2075,39.53505],[-123.20736,39.53512],[-123.20728,39.53513],[-123.20716,39.53513],[-123.207,39.53511]]}},{"type":"Feature","properties":{"name":"Hearst Willits Road","road_class":"unclassified","surface":"gravel","source":"Caltrans All Roads + OpenStreetMap explicit surface","source_detail":"osm way 1133913356; Caltrans All Roads public-network geometry match","source_tile":"161/389","public_network_source":"Caltrans All Roads (ARNOLD/HPMS)","surface_source":"OpenStreetMap explicit surface tag","caltrans_match_coverage":1.0,"verified_length_m":639},"geometry":{"type":"LineString","coordinates":[[-123.20806,39.51057],[-123.20845,39.51101],[-123.20855,39.51123],[-123.20871,39.51158],[-123.20879,39.51175],[-123.20887,39.51187],[-123.20908,39.5121],[-123.2093,39.51241],[-123.20943,39.51256],[-123.20978,39.5129],[-123.21009,39.51315],[-123.21025,39.51327],[-123.21034,39.51338],[-123.21039,39.51348],[-123.21043,39.51363],[-123.21045,39.51404],[-123.21047,39.51412],[-123.21055,39.51439],[-123.21066,39.51457],[-123.21075,39.51477],[-123.21071,39.5149],[-123.21061,39.51497],[-123.21052,39.51498],[-123.21032,39.51494],[-123.21024,39.51496],[-123.21023,39.51499],[-123.21024,39.51503],[-123.21027,39.51506],[-123.21048,39.51515],[-123.21057,39.5152],[-123.21065,39.51523]]}},{"type":"Feature","properties":{"name":"Old Logging Road, County Road M6","road_class":"unclassified","surface":"unpaved","source":"Caltrans All Roads + OpenStreetMap explicit surface","source_detail":"osm way 10273297; Caltrans All Roads public-network geometry match","source_tile":"162/389","public_network_source":"Caltrans All Roads (ARNOLD/HPMS)","surface_source":"OpenStreetMap explicit surface tag","caltrans_match_coverage":1.0,"verified_length_m":7855},"geometry":{"type":"LineString","coordinates":[[-123.04786,39.37859],[-123.0476,39.37896],[-123.04721,39.37957],[-123.0466,39.3804],[-123.04656,39.38045],[-123.04641,39.3806],[-123.04627,39.38074],[-123.04609,39.38094],[-123.04596,39.38115],[-123.04574,39.38135],[-123.0455,39.38148],[-123.04513,39.38162],[-123.04495,39.38169],[-123.04472,39.38186],[-123.0445,39.38199],[-123.04434,39.38215],[-123.04426,39.38233],[-123.04407,39.38251],[-123.04351,39.38282],[-123.04332,39.38287],[-123.04314,39.38291],[-123.04301,39.38298],[-123.04285,39.38315],[-123.04243,39.38368],[-123.04231,39.38384],[-123.04224,39.38404],[-123.0422,39.38422],[-123.04219,39.38441],[-123.04215,39.38459],[-123.04206,39.38473],[-123.04192,39.38493],[-123.04183,39.38513],[-123.04176,39.38536],[-123.04175,39.3855],[-123.04181,39.38567],[-123.04183,39.38582],[-123.04179,39.38599],[-123.0417,39.38619],[-123.04156,39.38638],[-123.04139,39.38653],[-123.04116,39.38664],[-123.04085,39.38673],[-123.04056,39.38679],[-123.04037,39.3868],[-123.0401,39.38679],[-123.03993,39.38682],[-123.03984,39.38689],[-123.0398,39.38701],[-123.03972,39.38717],[-123.03964,39.3873],[-123.03952,39.38739],[-123.03931,39.38755],[-123.03916,39.38766],[-123.03904,39.3878],[-123.03887,39.38796],[-123.03875,39.38811],[-123.03859,39.38827],[-123.03854,39.38839],[-123.03847,39.38855],[-123.03843,39.38867],[-123.03831,39.38885],[-123.03814,39.38918],[-123.03808,39.38933],[-123.03796,39.38948],[-123.03789,39.38959],[-123.03786,39.3897],[-123.03789,39.38979],[-123.03789,39.38989],[-123.03789,39.38998],[-123.03779,39.39015],[-123.03779,39.3903],[-123.03785,39.3905],[-123.03788,39.39062],[-123.03788,39.39073],[-123.03785,39.39085],[-123.03785,39.39097],[-123.03792,39.39111],[-123.03798,39.39136],[-123.03798,39.39165],[-123.03794,39.39189],[-123.03786,39.3921],[-123.03768,39.3923],[-123.03741,39.3925],[-123.03712,39.39263],[-123.03684,39.39271],[-123.03659,39.39273],[-123.03633,39.39272],[-123.03615,39.39273],[-123.03601,39.39283],[-123.03593,39.39299],[-123.03592,39.39312],[-123.03596,39.39326],[-123.03611,39.39339],[-123.03632,39.39349],[-123.03647,39.3936],[-123.03652,39.39375],[-123.0365,39.3939],[-123.0364,39.39402],[-123.03621,39.3942],[-123.03572,39.3945],[-123.03547,39.39464],[-123.0351,39.39482],[-123.03462,39.39503],[-123.03405,39.39526],[-123.03388,39.39536],[-123.03372,39.39547],[-123.03349,39.39553],[-123.03328,39.39556],[-123.03303,39.39556],[-123.03275,39.39557],[-123.03254,39.3956],[-123.03236,39.39566],[-123.03228,39.39575],[-123.0322,39.39592],[-123.03209,39.39608],[-123.03201,39.39615],[-123.03184,39.3962],[-123.0315,39.39618],[-123.03129,39.39618],[-123.0311,39.39623],[-123.03098,39.39628],[-123.03083,39.39638],[-123.03069,39.3965],[-123.03048,39.39662],[-123.03025,39.39669],[-123.03002,39.39672],[-123.02973,39.3967],[-123.02956,39.39668],[-123.02934,39.39661],[-123.02913,39.39661],[-123.02901,39.39668],[-123.02891,39.39679],[-123.0289,39.39693],[-123.02892,39.39713],[-123.02887,39.39726],[-123.02873,39.39748],[-123.02856,39.39764],[-123.0283,39.39787],[-123.02804,39.39807],[-123.02786,39.39827],[-123.02771,39.39846],[-123.02762,39.39857],[-123.02751,39.39878],[-123.02739,39.39891],[-123.0272,39.39912],[-123.02698,39.39941],[-123.02687,39.39959],[-123.02672,39.39996],[-123.02666,39.40022],[-123.0266,39.40042],[-123.0265,39.40058],[-123.02635,39.40071],[-123.0262,39.40091],[-123.02608,39.40113],[-123.02594,39.40143],[-123.02584,39.40176],[-123.0258,39.40202],[-123.02575,39.40216],[-123.02566,39.40228],[-123.02548,39.40247],[-123.02529,39.40261],[-123.02506,39.40272],[-123.02479,39.4028],[-123.02449,39.40285],[-123.02426,39.4029],[-123.02408,39.40298],[-123.02383,39.40313],[-123.02344,39.40332],[-123.02328,39.40344],[-123.02304,39.40358],[-123.02283,39.40368],[-123.02266,39.40379],[-123.0225,39.40394],[-123.02237,39.40405],[-123.02183,39.40431],[-123.02143,39.40449],[-123.02127,39.40466],[-123.021,39.40482],[-123.02079,39.40492],[-123.0206,39.40499],[-123.02039,39.40499],[-123.02,39.40497],[-123.01985,39.40499],[-123.01975,39.40505],[-123.01968,39.40513],[-123.01964,39.40524],[-123.01966,39.40538],[-123.01972,39.40553],[-123.01971,39.40568],[-123.01963,39.40595],[-123.01961,39.40611],[-123.01967,39.40625],[-123.01978,39.40636],[-123.01991,39.40652],[-123.01995,39.40674],[-123.01996,39.40693],[-123.02004,39.40709],[-123.02018,39.40723],[-123.02026,39.40743],[-123.02029,39.40764],[-123.02025,39.40784],[-123.02002,39.40823],[-123.0199,39.40834],[-123.01984,39.40839],[-123.01962,39.40852],[-123.01903,39.40879],[-123.01863,39.4089],[-123.01825,39.40907],[-123.01781,39.40935],[-123.01751,39.40957],[-123.01727,39.40967],[-123.01701,39.40972],[-123.01679,39.40978],[-123.01652,39.40992],[-123.0164,39.41003],[-123.01625,39.41012],[-123.0161,39.41023],[-123.016,39.41035],[-123.01573,39.41053],[-123.01554,39.41064],[-123.01524,39.41078],[-123.01474,39.41093],[-123.0143,39.41102],[-123.01317,39.41118],[-123.01293,39.41123],[-123.01278,39.41131],[-123.01253,39.41147],[-123.01232,39.41158],[-123.01214,39.41164],[-123.012,39.41164],[-123.01173,39.41159],[-123.01135,39.41137],[-123.01099,39.41112],[-123.01083,39.411],[-123.01067,39.41092],[-123.01044,39.41089],[-123.01022,39.41088],[-123.01005,39.41081],[-123.00993,39.41071],[-123.0097,39.41044],[-123.00951,39.41031],[-123.00935,39.41016],[-123.00923,39.40999],[-123.00913,39.40968],[-123.0091,39.40947],[-123.00909,39.40932],[-123.00913,39.40922],[-123.00917,39.40911],[-123.00918,39.40904],[-123.00909,39.40893],[-123.00905,39.40881],[-123.00909,39.4087],[-123.00924,39.4086],[-123.00935,39.4085],[-123.00939,39.40837],[-123.00934,39.40821],[-123.00917,39.40805],[-123.00898,39.40794],[-123.00868,39.4078],[-123.00849,39.4077],[-123.00835,39.40754],[-123.0082,39.4074],[-123.00813,39.40736],[-123.00792,39.40728],[-123.00777,39.40721],[-123.0077,39.40713],[-123.00763,39.40702],[-123.00751,39.40697],[-123.00736,39.40697],[-123.00725,39.40702],[-123.00718,39.4071],[-123.00711,39.40728],[-123.00706,39.40737],[-123.00696,39.40751],[-123.00684,39.40761],[-123.0067,39.40775],[-123.00657,39.40797],[-123.00649,39.40811],[-123.00645,39.40826],[-123.00645,39.40843],[-123.00639,39.40857],[-123.00628,39.40871],[-123.00615,39.40878],[-123.00593,39.40879],[-123.00547,39.40873],[-123.00525,39.40868],[-123.00506,39.40866],[-123.00492,39.40868],[-123.00484,39.40876],[-123.00477,39.40889],[-123.00469,39.409],[-123.00458,39.40906],[-123.00439,39.4091],[-123.00414,39.4092],[-123.00396,39.40932],[-123.00346,39.40957],[-123.00329,39.40968],[-123.00311,39.40979],[-123.00287,39.40986],[-123.00252,39.40987],[-123.00207,39.40989],[-123.00172,39.40986],[-123.00136,39.40978],[-123.0012,39.40969],[-123.00109,39.40953],[-123.001,39.40937],[-123.00095,39.40919],[-123.00061,39.40871],[-123.00029,39.40809],[-123.00016,39.40786],[-123.00001,39.40772],[-122.99984,39.40751],[-122.99969,39.40733],[-122.99954,39.40724],[-122.99931,39.40715],[-122.99895,39.40701],[-122.99855,39.40683],[-122.99827,39.40663],[-122.99811,39.40647],[-122.998,39.40632],[-122.99781,39.40618],[-122.99734,39.40583],[-122.99711,39.40569],[-122.9969,39.40552],[-122.99672,39.40529],[-122.9966,39.40516],[-122.99648,39.4051],[-122.99629,39.40505],[-122.99588,39.40488],[-122.99566,39.40474],[-122.99518,39.40455],[-122.99478,39.40436],[-122.99439,39.40421],[-122.99408,39.40416],[-122.99387,39.40414],[-122.99367,39.40415]]}}]}