{"type":"FeatureCollection","features":[{"type":"Feature","properties":{"name":"Trail 5 - Tule Pond (Blue/Blue/Black/Black)","road_class":"track","surface":"unpaved","source":"Caltrans All Roads + OpenStreetMap explicit surface","source_detail":"osm way 10267979; Caltrans All Roads public-network geometry match","source_tile":"161/391","public_network_source":"Caltrans All Roads (ARNOLD/HPMS)","surface_source":"OpenStreetMap explicit surface tag","caltrans_match_coverage":1.0,"verified_length_m":2475},"geometry":{"type":"LineString","coordinates":[[-123.0619,39.10373],[-123.06188,39.10368],[-123.06181,39.1036],[-123.06166,39.10341],[-123.06161,39.10331],[-123.06149,39.1032],[-123.0614,39.10305],[-123.06133,39.10286],[-123.06126,39.1027],[-123.06116,39.10251],[-123.06104,39.10229],[-123.06087,39.10216],[-123.06055,39.10216],[-123.06039,39.10213],[-123.06033,39.10211],[-123.06011,39.10204],[-123.05991,39.10197],[-123.05979,39.10191],[-123.05961,39.10184],[-123.05949,39.10181],[-123.05942,39.10179],[-123.0593,39.10173],[-123.05919,39.10159],[-123.05916,39.1014],[-123.05915,39.10122],[-123.05913,39.10117],[-123.0591,39.10114],[-123.05904,39.1011],[-123.05893,39.10109],[-123.05869,39.10109],[-123.05855,39.10108],[-123.05846,39.10105],[-123.05827,39.10095],[-123.05817,39.10084],[-123.05817,39.10083],[-123.05818,39.10069],[-123.05822,39.10048],[-123.05823,39.10028],[-123.05819,39.10019],[-123.05815,39.10011],[-123.05809,39.10004],[-123.05805,39.09997],[-123.05804,39.09995],[-123.05795,39.09982],[-123.05789,39.09977],[-123.05786,39.09972],[-123.05778,39.09954],[-123.05763,39.09942],[-123.05747,39.0993],[-123.05738,39.0992],[-123.05729,39.09904],[-123.0572,39.09893],[-123.05711,39.09886],[-123.05703,39.0988],[-123.05696,39.09875],[-123.05684,39.09863],[-123.05673,39.09855],[-123.05654,39.09848],[-123.05634,39.09843],[-123.05608,39.09827],[-123.0559,39.09813],[-123.05579,39.09801],[-123.05576,39.09799],[-123.05565,39.09797],[-123.05547,39.09793],[-123.05532,39.09785],[-123.05524,39.09774],[-123.05512,39.09759],[-123.05486,39.09753],[-123.05455,39.09751],[-123.05431,39.09757],[-123.05413,39.09745],[-123.05402,39.0972],[-123.054,39.09703],[-123.0542,39.09692],[-123.05438,39.09675],[-123.05448,39.09661],[-123.05456,39.09647],[-123.05465,39.09614],[-123.05483,39.09585],[-123.05497,39.09567],[-123.05508,39.09548],[-123.05511,39.09546],[-123.05518,39.09545],[-123.0552,39.0954],[-123.0552,39.09537],[-123.05515,39.09533],[-123.05515,39.0953],[-123.05517,39.09524],[-123.0552,39.09519],[-123.05525,39.09511],[-123.05532,39.09503],[-123.0555,39.09496],[-123.05572,39.09498],[-123.05592,39.09496],[-123.05615,39.0949],[-123.05641,39.09485],[-123.05664,39.09477],[-123.05689,39.0947],[-123.05714,39.09468],[-123.05744,39.09472],[-123.05769,39.09479],[-123.05787,39.09477],[-123.058,39.09472],[-123.05806,39.0947],[-123.0581,39.09471],[-123.05815,39.09474],[-123.05819,39.09478],[-123.05825,39.09482],[-123.05828,39.09487],[-123.05827,39.09492],[-123.05824,39.09498],[-123.05822,39.09504],[-123.05821,39.09508],[-123.05821,39.09513],[-123.05823,39.09518],[-123.05823,39.09525],[-123.05822,39.09533],[-123.05822,39.09547],[-123.05833,39.09559],[-123.05835,39.09568],[-123.05853,39.09582],[-123.05862,39.0959],[-123.05877,39.09605],[-123.05884,39.09617],[-123.0589,39.09631],[-123.05893,39.09651],[-123.059,39.09672],[-123.05903,39.09678],[-123.05904,39.0968],[-123.05908,39.09688],[-123.05925,39.09701],[-123.05948,39.09716],[-123.05959,39.09718],[-123.05984,39.09721],[-123.06002,39.09724],[-123.06013,39.09729],[-123.06022,39.09736],[-123.06022,39.09755],[-123.0603,39.09775],[-123.06036,39.09797],[-123.06033,39.09834],[-123.0602,39.09849],[-123.06009,39.09865],[-123.06009,39.09891],[-123.06014,39.09912],[-123.06004,39.09927],[-123.05992,39.09943],[-123.0598,39.09958],[-123.05971,39.09966],[-123.05966,39.09976],[-123.05966,39.09989],[-123.05971,39.10011],[-123.05969,39.10023],[-123.0596,39.10036],[-123.05951,39.10049],[-123.05948,39.1006],[-123.05942,39.10075],[-123.05918,39.10101],[-123.05913,39.10117]]}},{"type":"Feature","properties":{"name":"Trail 2 - Oakwood Springs Loop (Blue)","road_class":"track","surface":"unpaved","source":"Caltrans All Roads + OpenStreetMap explicit surface","source_detail":"osm way 10267993; Caltrans All Roads public-network geometry match","source_tile":"161/391","public_network_source":"Caltrans All Roads (ARNOLD/HPMS)","surface_source":"OpenStreetMap explicit surface tag","caltrans_match_coverage":1.0,"verified_length_m":3015},"geometry":{"type":"LineString","coordinates":[[-123.07909,39.09851],[-123.07898,39.09846],[-123.07884,39.0984],[-123.07872,39.09843],[-123.07865,39.09849],[-123.07865,39.09862],[-123.07858,39.09873],[-123.07853,39.09882],[-123.07842,39.09888],[-123.07833,39.0989],[-123.07823,39.09888],[-123.07816,39.09882],[-123.07813,39.09876],[-123.07809,39.09868],[-123.078,39.09861],[-123.07794,39.09852],[-123.07792,39.0984],[-123.07796,39.09825],[-123.07797,39.09818],[-123.07792,39.09806],[-123.07789,39.098],[-123.07773,39.09782],[-123.07747,39.0977],[-123.07727,39.09732],[-123.07708,39.09719],[-123.07697,39.09714],[-123.07658,39.09718],[-123.07633,39.09715],[-123.07618,39.09712],[-123.07615,39.09709],[-123.07607,39.09696],[-123.07591,39.09683],[-123.07586,39.09671],[-123.07593,39.09662],[-123.07603,39.09657],[-123.07613,39.09648],[-123.07614,39.09633],[-123.07627,39.09623],[-123.07633,39.09608],[-123.07641,39.09593],[-123.07642,39.09576],[-123.07637,39.09566],[-123.07629,39.09555],[-123.07607,39.09548],[-123.07586,39.09556],[-123.07564,39.09557],[-123.07545,39.09552],[-123.07536,39.09555],[-123.0752,39.09559],[-123.07506,39.09553],[-123.07493,39.09543],[-123.07487,39.0954],[-123.07475,39.09535],[-123.07465,39.09532],[-123.07443,39.09522],[-123.07434,39.0952],[-123.0743,39.09519],[-123.07415,39.0952],[-123.07409,39.09524],[-123.07399,39.09542],[-123.07392,39.09554],[-123.07381,39.09561],[-123.07361,39.09569],[-123.07352,39.09577],[-123.07345,39.09579],[-123.07342,39.09582],[-123.07342,39.0959],[-123.07348,39.09606],[-123.07357,39.09615],[-123.07365,39.09641],[-123.07372,39.09662],[-123.07373,39.09669],[-123.0737,39.09678],[-123.07357,39.09697],[-123.0735,39.09703],[-123.07346,39.0971],[-123.07345,39.09717],[-123.07344,39.09723],[-123.07346,39.09731],[-123.07351,39.09741],[-123.07353,39.09756],[-123.07353,39.09761],[-123.07352,39.09767],[-123.07349,39.09775],[-123.07347,39.09782],[-123.07347,39.09793],[-123.07339,39.09801],[-123.07331,39.09821],[-123.07319,39.09838],[-123.07312,39.0985],[-123.07307,39.09861],[-123.07305,39.09877],[-123.07309,39.09887],[-123.07317,39.09899],[-123.07334,39.09921],[-123.07346,39.09938],[-123.07358,39.09952],[-123.07363,39.09958],[-123.07375,39.09964],[-123.07403,39.09972],[-123.07422,39.09972],[-123.07429,39.09972],[-123.07435,39.09972],[-123.07446,39.09977],[-123.07461,39.09992],[-123.07462,39.09997],[-123.07459,39.10007],[-123.0745,39.10025],[-123.07446,39.10039],[-123.07443,39.10049],[-123.07437,39.10055],[-123.07428,39.10058],[-123.07395,39.1006],[-123.07387,39.10062],[-123.07373,39.10067],[-123.07366,39.10076],[-123.07362,39.10087],[-123.07357,39.10128],[-123.07355,39.1013],[-123.07344,39.10132],[-123.07323,39.10133],[-123.0731,39.10131],[-123.0729,39.10124],[-123.07272,39.10114],[-123.07262,39.10111],[-123.07252,39.10114],[-123.07241,39.10119],[-123.07227,39.10118],[-123.07207,39.10121],[-123.07194,39.10129],[-123.07182,39.10133],[-123.07166,39.10134],[-123.07156,39.10133],[-123.07144,39.10129],[-123.07125,39.10121],[-123.07095,39.10116],[-123.0706,39.10117],[-123.07041,39.10131],[-123.07024,39.1014],[-123.07011,39.1015],[-123.07001,39.10165],[-123.06984,39.10181],[-123.06964,39.10198],[-123.06943,39.10211],[-123.06922,39.10211],[-123.06891,39.10209],[-123.06868,39.10219],[-123.06847,39.10224],[-123.06824,39.10223],[-123.06803,39.10224],[-123.06797,39.10226],[-123.06787,39.1023],[-123.06768,39.10235],[-123.06758,39.10236],[-123.06751,39.10237],[-123.06744,39.10239],[-123.06738,39.10241],[-123.06727,39.10244],[-123.06717,39.10248],[-123.06692,39.10262],[-123.06679,39.10269],[-123.0665,39.10295],[-123.06628,39.1031],[-123.06607,39.10316],[-123.06589,39.10315],[-123.06531,39.10305],[-123.06518,39.10304],[-123.06512,39.10304],[-123.06488,39.10308],[-123.06458,39.10315],[-123.06427,39.10329],[-123.064,39.10338],[-123.06379,39.10337],[-123.06373,39.10335],[-123.06367,39.10332],[-123.06355,39.10325],[-123.06332,39.1031],[-123.06316,39.10304],[-123.0629,39.1031],[-123.0626,39.10335],[-123.06241,39.10348],[-123.06211,39.10368],[-123.06199,39.10372],[-123.0619,39.10373],[-123.06144,39.10402],[-123.06143,39.10413],[-123.06142,39.10423],[-123.06147,39.10439],[-123.06148,39.10451],[-123.06143,39.10462],[-123.06137,39.10471],[-123.06125,39.1048],[-123.06111,39.10485],[-123.06095,39.10491],[-123.06086,39.10499],[-123.06085,39.10504]]}},{"type":"Feature","properties":{"name":"Trail 2","road_class":"track","surface":"unpaved","source":"Caltrans All Roads + OpenStreetMap explicit surface","source_detail":"osm way 10267901; Caltrans All Roads public-network geometry match","source_tile":"161/390","public_network_source":"Caltrans All Roads (ARNOLD/HPMS)","surface_source":"OpenStreetMap explicit surface tag","caltrans_match_coverage":1.0,"verified_length_m":2049},"geometry":{"type":"LineString","coordinates":[[-123.08417,39.09841],[-123.08405,39.09844],[-123.08377,39.09855],[-123.08339,39.09875],[-123.08329,39.09885],[-123.08323,39.09898],[-123.08319,39.09918],[-123.08316,39.09927],[-123.0831,39.09931],[-123.08301,39.09934],[-123.08295,39.0994],[-123.08287,39.09941],[-123.08267,39.09936],[-123.08247,39.09937],[-123.08235,39.09936],[-123.08225,39.09938],[-123.08217,39.09945],[-123.08215,39.09952],[-123.0821,39.09957],[-123.08197,39.09965],[-123.08192,39.09973],[-123.08185,39.09976],[-123.08169,39.09979],[-123.08149,39.09991],[-123.0813,39.09995],[-123.08119,39.1],[-123.08105,39.10011],[-123.08103,39.10018],[-123.08108,39.10023],[-123.08134,39.10036],[-123.08154,39.10048],[-123.08168,39.10055],[-123.08184,39.1006],[-123.08192,39.10064],[-123.08208,39.10084],[-123.08218,39.10094],[-123.08231,39.10105],[-123.08274,39.10134],[-123.08338,39.10189],[-123.08344,39.10197],[-123.08351,39.10215],[-123.08367,39.10241],[-123.08375,39.10252],[-123.08395,39.10275],[-123.08413,39.10312],[-123.08424,39.10326],[-123.08487,39.10392],[-123.0849,39.10401],[-123.08482,39.10431],[-123.08475,39.10444],[-123.08463,39.1046],[-123.08458,39.10474],[-123.08456,39.10513],[-123.08453,39.10516],[-123.08448,39.10516],[-123.08443,39.10514],[-123.0844,39.10493],[-123.08439,39.10487],[-123.08431,39.10475],[-123.08425,39.1047],[-123.08409,39.1046],[-123.08405,39.10455],[-123.08406,39.10448],[-123.08419,39.10436],[-123.08427,39.10427],[-123.08426,39.10413],[-123.08418,39.10404],[-123.08412,39.10399],[-123.08402,39.10395],[-123.08385,39.10391],[-123.08374,39.10385],[-123.08355,39.1037],[-123.08338,39.10362],[-123.08325,39.10356],[-123.08316,39.10356],[-123.0831,39.1036],[-123.08306,39.10366],[-123.08302,39.10377],[-123.08292,39.10406],[-123.08288,39.10426],[-123.08285,39.10447],[-123.08284,39.10459],[-123.08276,39.10466],[-123.08268,39.1047],[-123.08248,39.10472],[-123.08219,39.10481],[-123.08205,39.10482],[-123.08183,39.1048],[-123.0817,39.10474],[-123.08138,39.10439],[-123.08124,39.10432],[-123.0807,39.10426],[-123.08056,39.10421],[-123.08046,39.10415],[-123.08037,39.10409],[-123.08027,39.10401],[-123.08012,39.10392],[-123.0799,39.10371],[-123.07958,39.10357],[-123.07932,39.1034],[-123.0788,39.10326],[-123.07874,39.10325],[-123.07862,39.10326],[-123.07841,39.10335],[-123.07828,39.10337],[-123.07807,39.10334],[-123.07789,39.1033],[-123.07735,39.10309],[-123.07717,39.10298],[-123.0771,39.10295],[-123.07701,39.10295],[-123.07667,39.10305]]}},{"type":"Feature","properties":{"name":"Trail 6 - Scotts Creek (Blue)","road_class":"track","surface":"unpaved","source":"Caltrans All Roads + OpenStreetMap explicit surface","source_detail":"osm way 10267958; Caltrans All Roads public-network geometry match","source_tile":"162/390","public_network_source":"Caltrans All Roads (ARNOLD/HPMS)","surface_source":"OpenStreetMap explicit surface tag","caltrans_match_coverage":1.0,"verified_length_m":2835},"geometry":{"type":"LineString","coordinates":[[-123.04298,39.10491],[-123.04305,39.10491],[-123.04315,39.10488],[-123.0432,39.10485],[-123.04357,39.10471],[-123.04366,39.10466],[-123.044,39.1043],[-123.04397,39.10422],[-123.0439,39.10414],[-123.0439,39.1041],[-123.044,39.10396],[-123.04415,39.10386],[-123.04424,39.10378],[-123.0443,39.10369],[-123.0444,39.10348],[-123.04452,39.10336],[-123.04479,39.10306],[-123.04485,39.10296],[-123.0449,39.10271],[-123.04495,39.10263],[-123.04499,39.1026],[-123.0452,39.10254],[-123.04552,39.10248],[-123.04565,39.10248],[-123.04589,39.10252],[-123.04601,39.10258],[-123.04625,39.10279],[-123.04637,39.10293],[-123.04652,39.10314],[-123.04674,39.1034],[-123.04678,39.10354],[-123.04674,39.10379],[-123.04672,39.10391],[-123.04672,39.10404],[-123.04675,39.10409],[-123.04684,39.10416],[-123.04712,39.10421],[-123.04718,39.10421],[-123.0473,39.10418],[-123.04735,39.1042],[-123.04756,39.10437],[-123.04777,39.10459],[-123.04795,39.10472],[-123.04813,39.1049],[-123.04821,39.10493],[-123.04838,39.10497],[-123.04873,39.10497],[-123.04892,39.10496],[-123.04915,39.10491],[-123.04951,39.10491],[-123.04982,39.10483],[-123.05014,39.10468],[-123.05057,39.1046],[-123.05072,39.10461],[-123.05103,39.10467],[-123.0515,39.1046],[-123.05183,39.10462],[-123.05198,39.10464],[-123.05209,39.10467],[-123.05215,39.1047],[-123.05228,39.10484],[-123.0524,39.10488],[-123.05256,39.10488],[-123.05287,39.10483],[-123.05296,39.10483],[-123.05305,39.10485],[-123.05312,39.1049],[-123.05319,39.10498],[-123.05331,39.10539],[-123.05344,39.10556],[-123.054,39.10599],[-123.0542,39.10606],[-123.05449,39.10623],[-123.05475,39.10645],[-123.0548,39.10652],[-123.05486,39.10667],[-123.05486,39.10697],[-123.0549,39.10706],[-123.05496,39.10712],[-123.05504,39.10715],[-123.05512,39.10715],[-123.0552,39.10713],[-123.05539,39.10695],[-123.05565,39.10682],[-123.05571,39.10677],[-123.05587,39.10646],[-123.05592,39.10641],[-123.05599,39.10638],[-123.05607,39.10636],[-123.05635,39.10633],[-123.05678,39.10618],[-123.05709,39.10611],[-123.05734,39.1059],[-123.05774,39.10571],[-123.05796,39.10556],[-123.05806,39.10552],[-123.05835,39.10543],[-123.05844,39.10543],[-123.05852,39.10544],[-123.05881,39.10552],[-123.05892,39.10554],[-123.05912,39.10554],[-123.05922,39.10551],[-123.05973,39.10523],[-123.06018,39.10493],[-123.06033,39.10488],[-123.06039,39.10489],[-123.06074,39.10504],[-123.06085,39.10504],[-123.06095,39.10517],[-123.06113,39.10525],[-123.06121,39.10537],[-123.06142,39.10553],[-123.06163,39.10551],[-123.06214,39.10518],[-123.06229,39.10515],[-123.063,39.10527],[-123.0632,39.10532],[-123.06356,39.1055],[-123.06375,39.10552],[-123.06394,39.10545],[-123.06407,39.10535],[-123.06411,39.10528],[-123.06404,39.10512],[-123.06396,39.10503],[-123.0638,39.10471],[-123.06387,39.10456],[-123.0641,39.10455],[-123.06421,39.10456],[-123.06432,39.10458],[-123.06446,39.10471],[-123.06457,39.10493],[-123.06478,39.10512],[-123.06489,39.10544],[-123.06494,39.10551],[-123.06507,39.10551],[-123.06533,39.1055],[-123.06548,39.10558],[-123.06556,39.10573],[-123.06559,39.10587],[-123.06566,39.106]]}},{"type":"Feature","properties":{"name":"Mill Creek Road","road_class":"unclassified","surface":"unpaved","source":"Caltrans All Roads + OpenStreetMap explicit surface","source_detail":"osm way 10307628; Caltrans All Roads public-network geometry match","source_tile":"161/390","public_network_source":"Caltrans All Roads (ARNOLD/HPMS)","surface_source":"OpenStreetMap explicit surface tag","caltrans_match_coverage":1.0,"verified_length_m":2151},"geometry":{"type":"LineString","coordinates":[[-123.08417,39.09841],[-123.08423,39.09849],[-123.08437,39.09865],[-123.08466,39.09903],[-123.08477,39.09911],[-123.08481,39.09914],[-123.08492,39.09922],[-123.08506,39.09929],[-123.08521,39.09939],[-123.08533,39.09948],[-123.08545,39.09967],[-123.08559,39.09983],[-123.08573,39.09995],[-123.08586,39.10003],[-123.08603,39.10009],[-123.08663,39.1003],[-123.08715,39.10052],[-123.08737,39.10064],[-123.08756,39.10077],[-123.08762,39.10081],[-123.08814,39.10108],[-123.08823,39.10118],[-123.08846,39.1014],[-123.08884,39.10166],[-123.08904,39.10183],[-123.0894,39.10209],[-123.08954,39.10229],[-123.08959,39.10247],[-123.08966,39.1028],[-123.08967,39.10292],[-123.08965,39.10308],[-123.08965,39.10317],[-123.08973,39.10326],[-123.08991,39.10336],[-123.09006,39.10348],[-123.09073,39.1037],[-123.09095,39.10382],[-123.09112,39.10388],[-123.09129,39.1039],[-123.09142,39.1039],[-123.09173,39.10386],[-123.09208,39.10379],[-123.09253,39.10363],[-123.09285,39.10346],[-123.09308,39.10338],[-123.09327,39.10334],[-123.09343,39.1033],[-123.09358,39.10329],[-123.09377,39.10331],[-123.09388,39.10335],[-123.09405,39.10348],[-123.09423,39.10366],[-123.09439,39.10374],[-123.09458,39.10381],[-123.09479,39.10385],[-123.09494,39.10385],[-123.09519,39.10379],[-123.09534,39.10378],[-123.09556,39.10383],[-123.09577,39.10385],[-123.09675,39.1041],[-123.0969,39.10419],[-123.09704,39.10433],[-123.09738,39.1048],[-123.09748,39.10489],[-123.09762,39.10496],[-123.09837,39.10524],[-123.09852,39.10529],[-123.09879,39.10531],[-123.0991,39.10527],[-123.0993,39.10525],[-123.09941,39.10526],[-123.09953,39.10528],[-123.09966,39.10537],[-123.09975,39.10548],[-123.09987,39.10557],[-123.10007,39.10565],[-123.10041,39.10572],[-123.10075,39.10574],[-123.10083,39.10576],[-123.10128,39.10597],[-123.10145,39.10607],[-123.10166,39.10617],[-123.10187,39.10624],[-123.10212,39.10641],[-123.10242,39.10653],[-123.10288,39.10679],[-123.10308,39.10686],[-123.10315,39.10692],[-123.1032,39.107],[-123.1032,39.10707],[-123.10308,39.10744]]}},{"type":"Feature","properties":{"name":"Mariposa Creek Road","road_class":"unclassified","surface":"compacted","source":"Caltrans All Roads + OpenStreetMap explicit surface","source_detail":"osm way 10312111; Caltrans All Roads public-network geometry match","source_tile":"161/390","public_network_source":"Caltrans All Roads (ARNOLD/HPMS)","surface_source":"OpenStreetMap explicit surface tag","caltrans_match_coverage":1.0,"verified_length_m":581},"geometry":{"type":"LineString","coordinates":[[-123.30182,39.33386],[-123.30197,39.33385],[-123.3022,39.33386],[-123.30231,39.33388],[-123.30265,39.33399],[-123.30293,39.33405],[-123.30298,39.33406],[-123.30302,39.33411],[-123.30303,39.33414],[-123.30304,39.33428],[-123.30307,39.33438],[-123.30308,39.33441],[-123.30311,39.33449],[-123.30314,39.33462],[-123.30313,39.33472],[-123.30308,39.3349],[-123.30306,39.33502],[-123.30306,39.3351],[-123.30308,39.33516],[-123.3031,39.33521],[-123.30313,39.33524],[-123.30322,39.33528],[-123.30335,39.33529],[-123.30397,39.33521],[-123.30418,39.33522],[-123.30424,39.33523],[-123.30435,39.33528],[-123.30449,39.33535],[-123.30497,39.33563],[-123.30538,39.33588],[-123.30563,39.33607],[-123.30588,39.33623],[-123.30596,39.33626],[-123.30609,39.33625],[-123.30617,39.33622],[-123.30628,39.33614],[-123.30642,39.33599],[-123.30645,39.33595]]}},{"type":"Feature","properties":{"name":"Trail 3C","road_class":"track","surface":"unpaved","source":"Caltrans All Roads + OpenStreetMap explicit surface","source_detail":"osm way 188438214; Caltrans All Roads public-network geometry match","source_tile":"161/390","public_network_source":"Caltrans All Roads (ARNOLD/HPMS)","surface_source":"OpenStreetMap explicit surface tag","caltrans_match_coverage":1.0,"verified_length_m":516},"geometry":{"type":"LineString","coordinates":[[-123.06966,39.11186],[-123.06949,39.11176],[-123.06936,39.11162],[-123.06932,39.11154],[-123.06934,39.11143],[-123.0694,39.11131],[-123.06941,39.11126],[-123.06936,39.11115],[-123.06922,39.11099],[-123.06913,39.11077],[-123.06875,39.11043],[-123.06843,39.11004],[-123.06833,39.10997],[-123.06804,39.10981],[-123.06796,39.10978],[-123.06776,39.10976],[-123.06758,39.10968],[-123.06729,39.10946],[-123.06709,39.10924],[-123.06687,39.10907],[-123.06673,39.10885],[-123.06667,39.1088],[-123.06659,39.10877],[-123.06612,39.10867],[-123.06607,39.10863],[-123.06611,39.10856]]}},{"type":"Feature","properties":{"name":"Mendo Rock Road","road_class":"unclassified","surface":"gravel","source":"Caltrans All Roads + OpenStreetMap explicit surface","source_detail":"osm way 404676335; Caltrans All Roads public-network geometry match","source_tile":"161/390","public_network_source":"Caltrans All Roads (ARNOLD/HPMS)","surface_source":"OpenStreetMap explicit surface tag","caltrans_match_coverage":1.0,"verified_length_m":12457},"geometry":{"type":"LineString","coordinates":[[-123.07049,39.16662],[-123.07078,39.1666],[-123.07106,39.1666],[-123.07117,39.16658],[-123.07156,39.16645],[-123.07182,39.16638],[-123.07198,39.16636],[-123.07211,39.16637],[-123.07244,39.16643],[-123.07272,39.16642],[-123.07282,39.16647],[-123.07291,39.16651],[-123.07297,39.16644],[-123.07285,39.16628],[-123.07277,39.16615],[-123.07269,39.16606],[-123.07257,39.16601],[-123.07235,39.16596],[-123.07191,39.16577],[-123.0715,39.16561],[-123.0714,39.16552],[-123.07136,39.16544],[-123.07135,39.16536],[-123.0714,39.16522],[-123.07158,39.16493],[-123.07182,39.16463],[-123.07221,39.16433],[-123.07242,39.16412],[-123.07279,39.16388],[-123.07294,39.16372],[-123.07301,39.16357],[-123.07306,39.16328],[-123.07315,39.16307],[-123.07359,39.16234],[-123.07369,39.16212],[-123.07372,39.162],[-123.07372,39.16149],[-123.07373,39.1614],[-123.07381,39.16124],[-123.07401,39.16098],[-123.07417,39.16072],[-123.07423,39.16048],[-123.07423,39.16033],[-123.07429,39.15999],[-123.07432,39.15992],[-123.07444,39.15974],[-123.07472,39.15912],[-123.07496,39.15886],[-123.07499,39.1588],[-123.07501,39.1586],[-123.07504,39.15847],[-123.07511,39.15834],[-123.07523,39.15825],[-123.07559,39.15809],[-123.07568,39.15804],[-123.07575,39.15794],[-123.07576,39.15785],[-123.07574,39.15756],[-123.07579,39.15741],[-123.07591,39.15729],[-123.07685,39.15669],[-123.07723,39.15648],[-123.0774,39.15642],[-123.07755,39.1564],[-123.07775,39.15641],[-123.07811,39.15647],[-123.07829,39.15651],[-123.07893,39.15675],[-123.0793,39.15695],[-123.07953,39.15702],[-123.07967,39.15705],[-123.07981,39.15707],[-123.08,39.15706],[-123.08033,39.15701],[-123.08062,39.15693],[-123.08077,39.15684],[-123.08087,39.15675],[-123.08112,39.15646],[-123.08116,39.15634],[-123.08115,39.15621],[-123.08104,39.15596],[-123.08102,39.15587],[-123.08104,39.1558],[-123.08108,39.15573],[-123.08123,39.15564],[-123.08168,39.15541],[-123.08179,39.15532],[-123.0819,39.15514],[-123.08204,39.15467],[-123.0821,39.15442],[-123.08209,39.15421],[-123.08201,39.15399],[-123.08183,39.15377],[-123.08132,39.1531],[-123.0811,39.15259],[-123.08105,39.15249],[-123.08086,39.15234],[-123.08029,39.15201],[-123.08018,39.15192],[-123.08012,39.15184],[-123.08006,39.15171],[-123.07989,39.15129],[-123.07983,39.15119],[-123.0797,39.15105],[-123.07909,39.15062],[-123.07889,39.15044],[-123.07859,39.14999],[-123.07846,39.14984],[-123.07811,39.14954],[-123.07764,39.14895],[-123.07752,39.14884],[-123.07738,39.14877],[-123.07671,39.14856],[-123.07658,39.14849],[-123.07623,39.1482],[-123.07535,39.14779],[-123.0752,39.14771],[-123.07514,39.14765],[-123.0751,39.14756],[-123.07509,39.1469],[-123.07495,39.14637],[-123.07495,39.14622],[-123.07502,39.14613],[-123.07512,39.14607],[-123.07545,39.14602],[-123.07561,39.14597],[-123.07571,39.14592],[-123.07588,39.14579],[-123.07614,39.14552],[-123.07634,39.14528],[-123.07643,39.14515],[-123.07658,39.14486],[-123.07671,39.14464],[-123.07697,39.14425],[-123.07704,39.14409],[-123.07712,39.14356],[-123.07718,39.14344],[-123.07733,39.14331],[-123.07755,39.14318],[-123.07763,39.1431],[-123.07784,39.1427],[-123.07786,39.14256],[-123.07782,39.14245],[-123.07765,39.14222],[-123.07709,39.14161],[-123.07706,39.14143],[-123.07715,39.14119],[-123.07731,39.14091],[-123.07742,39.14063],[-123.07747,39.14036],[-123.07766,39.13988],[-123.078,39.1393],[-123.07804,39.13906],[-123.0781,39.13889],[-123.07824,39.13868],[-123.07854,39.1384],[-123.07869,39.13823],[-123.07881,39.13805],[-123.07888,39.13791],[-123.07891,39.13778],[-123.07892,39.13756],[-123.0789,39.13743],[-123.07877,39.13702],[-123.07877,39.13681],[-123.07874,39.13669],[-123.07865,39.13657],[-123.07846,39.1364],[-123.07841,39.13634],[-123.07839,39.13626],[-123.07842,39.13616],[-123.07861,39.13589],[-123.07867,39.13577],[-123.07886,39.13532],[-123.07902,39.13505],[-123.07905,39.13497],[-123.07906,39.13473],[-123.07895,39.13415],[-123.07895,39.13402],[-123.07898,39.1338],[-123.07904,39.13359],[-123.07919,39.13334],[-123.07929,39.13322],[-123.07953,39.13298],[-123.07957,39.13292],[-123.0796,39.13285],[-123.07959,39.13279],[-123.07953,39.13272],[-123.0792,39.13253],[-123.0791,39.1324],[-123.07902,39.13197],[-123.07883,39.13164],[-123.07881,39.13156],[-123.07881,39.13143],[-123.07884,39.13131],[-123.07889,39.13123],[-123.07901,39.13114],[-123.07912,39.1311],[-123.07952,39.131],[-123.07966,39.13095],[-123.07973,39.13089],[-123.07978,39.13077],[-123.07976,39.1306],[-123.07979,39.13048],[-123.07983,39.13041],[-123.08008,39.13022],[-123.08016,39.1301],[-123.08016,39.12999],[-123.08014,39.12985],[-123.08017,39.12969],[-123.08023,39.12963],[-123.08051,39.12944],[-123.08057,39.12938],[-123.08062,39.12927],[-123.08066,39.12905],[-123.08073,39.1289],[-123.08088,39.12874],[-123.08109,39.12863],[-123.08146,39.12848],[-123.08189,39.12833],[-123.08203,39.12826],[-123.08216,39.12817],[-123.08274,39.12759],[-123.08292,39.12743],[-123.08301,39.12738],[-123.08316,39.12732],[-123.08359,39.12722],[-123.08384,39.12712],[-123.08407,39.12703],[-123.08536,39.12641],[-123.08548,39.12637],[-123.08581,39.12633],[-123.08593,39.12628],[-123.08599,39.12623],[-123.08602,39.12616],[-123.08601,39.12585],[-123.08602,39.12576],[-123.08608,39.12566],[-123.08629,39.12538],[-123.08647,39.12533],[-123.08656,39.12532],[-123.08706,39.12544],[-123.08726,39.12547],[-123.08777,39.12546],[-123.08797,39.12551],[-123.08809,39.1256],[-123.08821,39.12575],[-123.08837,39.12613],[-123.08844,39.1262],[-123.08853,39.12624],[-123.0887,39.12627],[-123.08918,39.12629],[-123.08933,39.12631],[-123.08956,39.12639],[-123.08991,39.1266],[-123.0901,39.12668],[-123.09047,39.12674],[-123.09059,39.12673],[-123.09065,39.12671],[-123.09071,39.12666],[-123.09074,39.12655],[-123.09065,39.12618],[-123.09065,39.12602],[-123.09068,39.12592],[-123.09078,39.12583],[-123.09087,39.1258],[-123.09098,39.12579],[-123.09113,39.12582],[-123.09144,39.12594],[-123.09157,39.12597],[-123.09177,39.12597],[-123.09211,39.12594],[-123.0922,39.12595],[-123.0923,39.12599],[-123.09252,39.12614],[-123.0927,39.1263],[-123.09288,39.12651],[-123.09304,39.12677],[-123.09319,39.1271],[-123.09325,39.12717],[-123.09336,39.12721],[-123.09349,39.12721],[-123.09376,39.12716],[-123.09386,39.12717],[-123.0941,39.12725],[-123.09466,39.12757],[-123.09514,39.12793],[-123.09536,39.12803],[-123.09554,39.12808],[-123.09583,39.12808],[-123.09591,39.12809],[-123.09602,39.12813],[-123.0961,39.12818],[-123.09615,39.12824],[-123.09623,39.12843],[-123.09623,39.12882],[-123.09628,39.12897],[-123.09641,39.12921],[-123.09643,39.12933],[-123.09635,39.12962],[-123.09635,39.12974],[-123.09638,39.12985],[-123.09671,39.13053],[-123.09679,39.13078],[-123.0968,39.13089],[-123.09678,39.13111],[-123.09678,39.13118],[-123.09682,39.13126],[-123.09689,39.13134],[-123.09714,39.13149],[-123.0973,39.13153],[-123.09746,39.13152],[-123.09758,39.13147],[-123.09789,39.13129],[-123.09803,39.13124],[-123.09854,39.1311],[-123.0988,39.13099],[-123.09891,39.13093],[-123.09902,39.13083],[-123.0991,39.13073],[-123.09915,39.13061],[-123.09916,39.13033],[-123.09919,39.1302],[-123.09937,39.12993],[-123.09985,39.12934],[-123.09995,39.12916],[-123.10002,39.12899],[-123.10004,39.12886],[-123.10002,39.1286],[-123.09988,39.12831],[-123.09964,39.12787],[-123.09947,39.12766],[-123.09937,39.12757],[-123.09903,39.12734],[-123.09895,39.12727],[-123.09892,39.12721],[-123.09892,39.12715],[-123.09896,39.12709],[-123.09908,39.12706],[-123.09922,39.1271],[-123.0995,39.12732],[-123.09966,39.12741],[-123.09995,39.12752],[-123.10012,39.12737],[-123.10024,39.12732],[-123.10037,39.12728],[-123.10053,39.12729],[-123.10066,39.12734],[-123.10099,39.12753],[-123.10167,39.12776],[-123.10201,39.12791],[-123.10217,39.12802],[-123.1023,39.12815],[-123.10244,39.12823],[-123.10258,39.12828],[-123.10279,39.12828],[-123.10298,39.12824],[-123.10327,39.12815],[-123.10342,39.12814],[-123.10366,39.12817],[-123.10395,39.12828],[-123.10412,39.12832],[-123.10429,39.12816],[-123.10451,39.12792],[-123.10456,39.12783],[-123.10462,39.12759],[-123.10467,39.12752],[-123.10486,39.12732],[-123.10493,39.12727],[-123.10502,39.12725],[-123.10509,39.12725],[-123.10516,39.12728],[-123.10528,39.12737],[-123.10539,39.12741],[-123.10548,39.1274],[-123.10556,39.12736],[-123.10574,39.12723],[-123.1058,39.12716],[-123.10599,39.12666],[-123.10606,39.1265],[-123.10613,39.1264],[-123.10625,39.12627],[-123.10647,39.12609],[-123.1067,39.12594],[-123.10708,39.12581],[-123.10718,39.12576],[-123.10726,39.1257],[-123.10747,39.12546],[-123.10751,39.12538],[-123.10753,39.12524],[-123.10751,39.12477],[-123.10753,39.12469],[-123.10761,39.1246],[-123.10767,39.12458],[-123.10777,39.12459],[-123.10788,39.12467],[-123.108,39.12483],[-123.10807,39.12489],[-123.10842,39.12511],[-123.10848,39.12512],[-123.10861,39.12511],[-123.10878,39.12505],[-123.10889,39.12503],[-123.10897,39.12504],[-123.10905,39.12506],[-123.10913,39.12516],[-123.10917,39.1253],[-123.1091,39.12568],[-123.10912,39.12573],[-123.10921,39.12577],[-123.10929,39.12576],[-123.10975,39.12553],[-123.11038,39.12515],[-123.11061,39.12507],[-123.1107,39.12506],[-123.11083,39.12508],[-123.11091,39.12511],[-123.11107,39.12529],[-123.11114,39.12531],[-123.11124,39.12528],[-123.11151,39.12492],[-123.11163,39.12486],[-123.11176,39.12486],[-123.11189,39.1249],[-123.11201,39.12489],[-123.11209,39.12484],[-123.11222,39.12471],[-123.11242,39.12441],[-123.11248,39.12437],[-123.11257,39.12434],[-123.11277,39.12433],[-123.11286,39.12432],[-123.11293,39.12428],[-123.11318,39.12411],[-123.11325,39.12409],[-123.11339,39.12407],[-123.11351,39.12408],[-123.11406,39.12419],[-123.11423,39.12418],[-123.11449,39.12414],[-123.11466,39.12415],[-123.11475,39.12418],[-123.11483,39.12424],[-123.11486,39.1243],[-123.11486,39.12437],[-123.11479,39.12447],[-123.11457,39.1246],[-123.11447,39.1247],[-123.11445,39.12476],[-123.11447,39.12482],[-123.11454,39.12486],[-123.11505,39.12492],[-123.11524,39.12497],[-123.11569,39.12515],[-123.11577,39.12523],[-123.11578,39.12529],[-123.11576,39.12534],[-123.1157,39.12539],[-123.11515,39.12561],[-123.11507,39.12565],[-123.11504,39.12569],[-123.11501,39.12575],[-123.11504,39.12582],[-123.11518,39.12598],[-123.11518,39.12604],[-123.11514,39.1261],[-123.11509,39.12614],[-123.11493,39.12621],[-123.11481,39.12628],[-123.11479,39.12633],[-123.1148,39.12637],[-123.11486,39.12641],[-123.11495,39.12642],[-123.11531,39.12638],[-123.11564,39.12632],[-123.11573,39.12632],[-123.11581,39.12634],[-123.11587,39.12637],[-123.11592,39.12643],[-123.11593,39.12648],[-123.11592,39.12654],[-123.11577,39.12676],[-123.11575,39.12682],[-123.11577,39.12689],[-123.1158,39.12691],[-123.11587,39.12692],[-123.11596,39.12689],[-123.11613,39.12682],[-123.11631,39.12671],[-123.11643,39.12666],[-123.11664,39.12662],[-123.11701,39.12644],[-123.11731,39.12634],[-123.11762,39.12613],[-123.11778,39.12608],[-123.118,39.12604],[-123.1184,39.12604],[-123.1185,39.12606],[-123.11858,39.12609],[-123.11869,39.12619],[-123.11888,39.12629],[-123.11897,39.12637],[-123.11904,39.12654],[-123.11908,39.1266],[-123.11912,39.12662],[-123.1192,39.12661],[-123.11928,39.12657],[-123.11956,39.1264],[-123.11971,39.12637],[-123.11984,39.12637],[-123.1199,39.1264],[-123.11993,39.12647],[-123.1198,39.12664],[-123.1198,39.1267],[-123.11983,39.12679],[-123.11992,39.1269],[-123.12004,39.127],[-123.12013,39.12706],[-123.12027,39.12711],[-123.12097,39.12721],[-123.12126,39.12716],[-123.12164,39.12705],[-123.12176,39.12707],[-123.12197,39.12727],[-123.12205,39.12731],[-123.12215,39.12731],[-123.12236,39.12725],[-123.12256,39.12716],[-123.12266,39.1271],[-123.12283,39.12692],[-123.12289,39.12689],[-123.12297,39.12689],[-123.12305,39.12691],[-123.1232,39.12703],[-123.12328,39.12702],[-123.12332,39.127],[-123.12334,39.12693],[-123.12331,39.12687],[-123.12307,39.12656],[-123.1229,39.12649],[-123.12265,39.12649],[-123.12256,39.12647],[-123.12248,39.1264],[-123.12241,39.12618],[-123.12249,39.12574],[-123.12261,39.12552],[-123.12271,39.12517],[-123.1227,39.12483],[-123.12277,39.12457],[-123.12278,39.12446],[-123.12275,39.1244],[-123.12268,39.12433],[-123.12259,39.12432],[-123.12244,39.12432],[-123.12236,39.12431],[-123.12231,39.12424],[-123.12232,39.12417],[-123.12242,39.12387],[-123.12274,39.12351],[-123.12281,39.12342],[-123.12282,39.12337],[-123.1228,39.12329],[-123.1227,39.12319],[-123.12266,39.1231],[-123.12266,39.123],[-123.12269,39.12295],[-123.12274,39.12288],[-123.12287,39.12279],[-123.12302,39.12271],[-123.12309,39.12266],[-123.12309,39.12257],[-123.12301,39.12244],[-123.12296,39.12231],[-123.12288,39.12218],[-123.12247,39.1218],[-123.1222,39.12163],[-123.1223,39.12145]]}},{"type":"Feature","properties":{"name":"Oakwood Springs Road","road_class":"unclassified","surface":"unpaved","source":"Caltrans All Roads + OpenStreetMap explicit surface","source_detail":"osm way 654204426; Caltrans All Roads public-network geometry match","source_tile":"161/390","public_network_source":"Caltrans All Roads (ARNOLD/HPMS)","surface_source":"OpenStreetMap explicit surface tag","caltrans_match_coverage":1.0,"verified_length_m":2769},"geometry":{"type":"LineString","coordinates":[[-123.06321,39.10755],[-123.06324,39.10795],[-123.06327,39.108],[-123.06333,39.10803],[-123.06339,39.10804],[-123.06355,39.10801],[-123.0636,39.10798],[-123.06367,39.10787],[-123.06374,39.10774],[-123.06386,39.10762],[-123.06418,39.10753],[-123.06434,39.10746],[-123.06444,39.10734],[-123.06455,39.10717],[-123.0646,39.10703],[-123.06462,39.10667],[-123.06465,39.10653],[-123.06481,39.10625],[-123.06489,39.10616],[-123.06502,39.1061],[-123.06515,39.10606],[-123.06544,39.10605],[-123.06566,39.106],[-123.06663,39.10574],[-123.06752,39.10542],[-123.06768,39.10532],[-123.06793,39.10509],[-123.0682,39.10485],[-123.06829,39.10474],[-123.06839,39.10468],[-123.06862,39.10462],[-123.06914,39.10456],[-123.06975,39.10454],[-123.07054,39.10446],[-123.07066,39.10444],[-123.07094,39.10431],[-123.07126,39.10406],[-123.07135,39.10402],[-123.07195,39.10374],[-123.07228,39.10356],[-123.0725,39.10351],[-123.07327,39.1035],[-123.07393,39.1034],[-123.07411,39.10339],[-123.07418,39.1034],[-123.07466,39.10332],[-123.07493,39.1033],[-123.07518,39.10327],[-123.07542,39.10326],[-123.07553,39.10323],[-123.07576,39.10312],[-123.07585,39.1031],[-123.07633,39.10314],[-123.07662,39.1031],[-123.07667,39.10305],[-123.07673,39.103],[-123.07679,39.10289],[-123.07683,39.10279],[-123.07683,39.10268],[-123.07688,39.10256],[-123.07688,39.10245],[-123.07691,39.10229],[-123.07696,39.10216],[-123.07703,39.10209],[-123.07712,39.10205],[-123.07728,39.10203],[-123.07735,39.102],[-123.07744,39.10197],[-123.0776,39.10183],[-123.07768,39.10178],[-123.07777,39.10176],[-123.07788,39.10176],[-123.07799,39.10175],[-123.07806,39.10174],[-123.07813,39.10164],[-123.07818,39.10147],[-123.07821,39.1014],[-123.07825,39.10132],[-123.07841,39.10122],[-123.07851,39.10112],[-123.07857,39.10105],[-123.07858,39.10097],[-123.07857,39.10091],[-123.07854,39.10071],[-123.07852,39.10049],[-123.07854,39.10038],[-123.07857,39.10026],[-123.07865,39.10014],[-123.0787,39.10003],[-123.07873,39.09994],[-123.07873,39.09981],[-123.07873,39.09967],[-123.07877,39.09952],[-123.0788,39.09942],[-123.07879,39.09932],[-123.07874,39.0992],[-123.07872,39.09906],[-123.07873,39.09895],[-123.07878,39.09884],[-123.0789,39.09869],[-123.07902,39.09859],[-123.07909,39.09851],[-123.07925,39.09837],[-123.07936,39.09827],[-123.07941,39.09818],[-123.07943,39.0981],[-123.07946,39.09797],[-123.07948,39.09778],[-123.07954,39.0976],[-123.0796,39.09754],[-123.07968,39.09749],[-123.07978,39.09745],[-123.07989,39.09746],[-123.08007,39.09748],[-123.08018,39.09748],[-123.08029,39.09746],[-123.08034,39.09745],[-123.08043,39.09741],[-123.08048,39.09738],[-123.08055,39.09732],[-123.08061,39.09723],[-123.08071,39.09711],[-123.08081,39.09697],[-123.08096,39.09672],[-123.08103,39.09658],[-123.08111,39.09645],[-123.08115,39.09641],[-123.08122,39.09636],[-123.08137,39.09628],[-123.08146,39.09624],[-123.08153,39.09623],[-123.08157,39.09623],[-123.08165,39.09625],[-123.08172,39.09626],[-123.0818,39.09628],[-123.08193,39.09632],[-123.0821,39.09642],[-123.08226,39.0965],[-123.08234,39.09653],[-123.08242,39.09654],[-123.08253,39.09654],[-123.08261,39.09654],[-123.08267,39.09652],[-123.08277,39.09649],[-123.08285,39.09644],[-123.08291,39.09639],[-123.08301,39.09631],[-123.08306,39.09628],[-123.08311,39.09627],[-123.08323,39.09625],[-123.08337,39.09625],[-123.08345,39.09625],[-123.08352,39.09626],[-123.08361,39.09628],[-123.08369,39.09629],[-123.08375,39.09632],[-123.08379,39.09635],[-123.08387,39.09641],[-123.08396,39.09658],[-123.08402,39.09681],[-123.08402,39.09703],[-123.08404,39.0972],[-123.08405,39.09737],[-123.08406,39.09747],[-123.08407,39.0975],[-123.08409,39.09753],[-123.08413,39.09757],[-123.08416,39.0976]]}},{"type":"Feature","properties":{"name":"Walker Lake Road","road_class":"track","surface":"gravel","source":"Caltrans All Roads + OpenStreetMap explicit surface","source_detail":"osm way 1311369971; Caltrans All Roads public-network geometry match","source_tile":"161/390","public_network_source":"Caltrans All Roads (ARNOLD/HPMS)","surface_source":"OpenStreetMap explicit surface tag","caltrans_match_coverage":1.0,"verified_length_m":4157},"geometry":{"type":"LineString","coordinates":[[-123.30503,39.30383],[-123.30513,39.30396],[-123.30521,39.30405],[-123.30532,39.30414],[-123.30616,39.30465],[-123.30621,39.30469],[-123.30631,39.30473],[-123.30644,39.30477],[-123.30661,39.30484],[-123.30712,39.30514],[-123.30733,39.30524],[-123.30761,39.30541],[-123.30783,39.3056],[-123.308,39.30577],[-123.30853,39.3064],[-123.30858,39.30646],[-123.30874,39.30658],[-123.30878,39.30663],[-123.30888,39.30678],[-123.3092,39.30714],[-123.30943,39.30737],[-123.30955,39.30747],[-123.30961,39.30751],[-123.31002,39.30769],[-123.3101,39.30776],[-123.31015,39.30781],[-123.31025,39.30796],[-123.31043,39.30825],[-123.31064,39.30852],[-123.31072,39.30858],[-123.31078,39.30862],[-123.31106,39.30875],[-123.31116,39.30881],[-123.31123,39.30887],[-123.31128,39.30897],[-123.3113,39.30901],[-123.3116,39.30988],[-123.31174,39.31018],[-123.31183,39.3103],[-123.31202,39.31052],[-123.31217,39.31067],[-123.31239,39.31085],[-123.31266,39.31112],[-123.31286,39.31125],[-123.31297,39.31132],[-123.31321,39.31141],[-123.31331,39.31143],[-123.31365,39.31149],[-123.31376,39.31153],[-123.31391,39.31161],[-123.31398,39.31166],[-123.31401,39.31171],[-123.31402,39.31176],[-123.31402,39.31185],[-123.314,39.31201],[-123.31402,39.31208],[-123.31407,39.31216],[-123.31413,39.31222],[-123.31426,39.31229],[-123.31496,39.31262],[-123.31525,39.31277],[-123.31532,39.31283],[-123.3154,39.31291],[-123.31548,39.313],[-123.31571,39.3132],[-123.31587,39.31332],[-123.316,39.31338],[-123.31621,39.31344],[-123.31685,39.31353],[-123.31699,39.31358],[-123.31709,39.31365],[-123.31722,39.31378],[-123.31728,39.31382],[-123.31738,39.31396],[-123.3175,39.31421],[-123.31762,39.3143],[-123.3177,39.31432],[-123.31779,39.31433],[-123.31793,39.31433],[-123.31821,39.31435],[-123.31825,39.31435],[-123.31832,39.3144],[-123.31835,39.31443],[-123.31837,39.31449],[-123.31837,39.31454],[-123.31829,39.31461],[-123.31805,39.31475],[-123.31786,39.31484],[-123.31763,39.31499],[-123.31752,39.3151],[-123.31747,39.31518],[-123.31748,39.31522],[-123.31753,39.31529],[-123.31757,39.31531],[-123.31767,39.31532],[-123.31775,39.31533],[-123.31785,39.31537],[-123.31794,39.31542],[-123.31805,39.31553],[-123.31812,39.31556],[-123.31827,39.31561],[-123.31845,39.31564],[-123.31864,39.31564],[-123.31874,39.31563],[-123.31916,39.31559],[-123.31938,39.31558],[-123.31954,39.31559],[-123.31993,39.31564],[-123.32061,39.31576],[-123.32078,39.31578],[-123.32116,39.3158],[-123.3213,39.31579],[-123.32136,39.31578],[-123.32201,39.31579],[-123.32234,39.31578],[-123.32272,39.31574],[-123.32281,39.31571],[-123.3233,39.31551],[-123.32391,39.3153],[-123.3241,39.31524],[-123.32436,39.31523],[-123.32457,39.31525],[-123.32483,39.31529],[-123.32523,39.31536],[-123.32538,39.31538],[-123.32568,39.3154],[-123.32578,39.3154],[-123.32593,39.31536],[-123.32602,39.31531],[-123.32621,39.31519],[-123.32672,39.31475],[-123.32689,39.31462],[-123.32703,39.31457],[-123.32714,39.31455],[-123.32733,39.31455],[-123.32736,39.31454],[-123.32739,39.31453],[-123.32752,39.31441],[-123.32764,39.31434],[-123.32774,39.31426],[-123.32787,39.31411],[-123.32797,39.31404],[-123.32816,39.31397],[-123.32819,39.31395],[-123.32828,39.31395],[-123.32835,39.31396],[-123.32854,39.31404],[-123.32882,39.31417],[-123.32915,39.31428],[-123.32972,39.31443],[-123.33035,39.3146],[-123.33091,39.31471],[-123.3312,39.3148],[-123.33126,39.31483],[-123.33141,39.3149],[-123.33165,39.31496],[-123.33184,39.31506],[-123.33204,39.31521],[-123.33231,39.31536],[-123.33252,39.31546],[-123.33295,39.31563],[-123.33302,39.3157],[-123.33305,39.31575],[-123.33312,39.31581],[-123.33345,39.31604],[-123.33372,39.31621],[-123.33396,39.31638],[-123.33411,39.3165],[-123.3343,39.3167],[-123.33444,39.31689],[-123.33447,39.31695],[-123.33448,39.31701],[-123.33447,39.31706],[-123.33441,39.31719],[-123.33441,39.31726],[-123.33444,39.31732],[-123.33452,39.31741],[-123.33456,39.31743],[-123.33474,39.31752],[-123.33506,39.31766],[-123.33522,39.31774],[-123.33538,39.31788],[-123.33553,39.31804],[-123.33562,39.3181],[-123.33572,39.31814],[-123.33582,39.31819],[-123.33589,39.31826],[-123.33593,39.31832],[-123.33603,39.3185],[-123.33608,39.31855],[-123.33641,39.31879],[-123.3366,39.31901],[-123.33664,39.31904],[-123.33672,39.31906],[-123.33694,39.3191],[-123.33705,39.31914],[-123.33758,39.31938],[-123.33779,39.31945],[-123.33799,39.31949],[-123.33805,39.31951],[-123.33816,39.31952],[-123.33849,39.3195],[-123.33864,39.31951],[-123.33881,39.31954],[-123.33888,39.31956],[-123.33895,39.31959],[-123.33912,39.3197],[-123.33942,39.31984],[-123.33984,39.32008],[-123.33992,39.32014]]}},{"type":"Feature","properties":{"name":"Scotts Creek Road","road_class":"unclassified","surface":"unpaved","source":"Caltrans All Roads + OpenStreetMap explicit surface","source_detail":"osm way 10262386; Caltrans All Roads public-network geometry match","source_tile":"162/391","public_network_source":"Caltrans All Roads (ARNOLD/HPMS)","surface_source":"OpenStreetMap explicit surface tag","caltrans_match_coverage":0.978,"verified_length_m":22228},"geometry":{"type":"LineString","coordinates":[[-122.94998,39.0464],[-122.95008,39.04643],[-122.95019,39.04649],[-122.95037,39.04656],[-122.95059,39.04658],[-122.95071,39.04657],[-122.95084,39.04654],[-122.95125,39.04639],[-122.95155,39.04631],[-122.95271,39.04613],[-122.9534,39.04602],[-122.95419,39.04588],[-122.95433,39.04588],[-122.95447,39.04589],[-122.95522,39.04604],[-122.95537,39.04609],[-122.95577,39.04627],[-122.95622,39.04641],[-122.9571,39.04679],[-122.95741,39.04687],[-122.95775,39.04693],[-122.95833,39.04702],[-122.95861,39.04704],[-122.9589,39.04696],[-122.95916,39.04684],[-122.95939,39.0467],[-122.95956,39.04655],[-122.95986,39.04606],[-122.95993,39.04584],[-122.96,39.04546],[-122.96007,39.04513],[-122.96016,39.04491],[-122.96023,39.0448],[-122.96031,39.0447],[-122.96049,39.04451],[-122.9607,39.04438],[-122.96107,39.04418],[-122.96164,39.04396],[-122.96193,39.04391],[-122.96283,39.04389],[-122.96292,39.04389],[-122.96325,39.04393],[-122.96347,39.04398],[-122.96443,39.04428],[-122.96508,39.04443],[-122.9652,39.04444],[-122.96529,39.04443],[-122.96538,39.0444],[-122.96545,39.04434],[-122.96556,39.0442],[-122.96565,39.04401],[-122.96584,39.04374],[-122.96619,39.04321],[-122.96624,39.0429],[-122.96619,39.04258],[-122.96621,39.04236],[-122.96637,39.0418],[-122.96642,39.04169],[-122.96656,39.04147],[-122.96666,39.04137],[-122.96703,39.04091],[-122.96708,39.04083],[-122.96716,39.04057],[-122.96721,39.04048],[-122.96735,39.0403],[-122.96744,39.04023],[-122.96756,39.04016],[-122.96769,39.04011],[-122.9681,39.04],[-122.96825,39.04001],[-122.96866,39.03988],[-122.96907,39.03971],[-122.9695,39.03956],[-122.96958,39.03953],[-122.96979,39.0395],[-122.96998,39.03952],[-122.97004,39.03957],[-122.97008,39.03962],[-122.9701,39.0397],[-122.9701,39.03995],[-122.97013,39.04002],[-122.97019,39.04008],[-122.97035,39.04019],[-122.97045,39.04023],[-122.97079,39.0402],[-122.97094,39.04022],[-122.97104,39.0403],[-122.97116,39.04047],[-122.97123,39.04053],[-122.97143,39.04064],[-122.97229,39.04093],[-122.97267,39.04104],[-122.97289,39.04109],[-122.9731,39.04106],[-122.9734,39.04095],[-122.97374,39.04092],[-122.97383,39.04094],[-122.97391,39.04098],[-122.97397,39.04103],[-122.97404,39.04115],[-122.97408,39.04119],[-122.97417,39.04123],[-122.9744,39.04121],[-122.97452,39.04122],[-122.9749,39.04133],[-122.97508,39.04135],[-122.97543,39.04133],[-122.9756,39.04131],[-122.97578,39.04125],[-122.97595,39.04117],[-122.97612,39.04104],[-122.97688,39.04066],[-122.97732,39.0404],[-122.97739,39.0404],[-122.97773,39.04046],[-122.97803,39.04053],[-122.9784,39.04058],[-122.97877,39.04062],[-122.97906,39.04062],[-122.9792,39.0406],[-122.97931,39.04053],[-122.97937,39.04047],[-122.9794,39.0404],[-122.97939,39.04024],[-122.97943,39.04018],[-122.97952,39.04015],[-122.97963,39.04015],[-122.97995,39.04021],[-122.98011,39.04027],[-122.98024,39.04035],[-122.98039,39.04039],[-122.98063,39.04033],[-122.98095,39.04016],[-122.98103,39.04013],[-122.98112,39.04013],[-122.9812,39.04014],[-122.98127,39.04017],[-122.98153,39.04042],[-122.9821,39.04089],[-122.98228,39.04103],[-122.98251,39.04116],[-122.98294,39.0414],[-122.98307,39.04163],[-122.98328,39.04192],[-122.98343,39.0421],[-122.9836,39.0422],[-122.98377,39.0423],[-122.98392,39.04239],[-122.98405,39.04252],[-122.98423,39.04264],[-122.98429,39.04275],[-122.98428,39.04292],[-122.98421,39.04316],[-122.98425,39.04323],[-122.98437,39.04326],[-122.98453,39.04328],[-122.98464,39.04333],[-122.98466,39.0434],[-122.98463,39.04347],[-122.98458,39.04354],[-122.9845,39.0436],[-122.98442,39.04371],[-122.98436,39.04383],[-122.98434,39.04391],[-122.98435,39.04448],[-122.9844,39.04472],[-122.98449,39.04488],[-122.98457,39.04495],[-122.98472,39.04503],[-122.98486,39.04507],[-122.98493,39.04504],[-122.98495,39.04501],[-122.98489,39.04486],[-122.98491,39.04472],[-122.98504,39.04449],[-122.98514,39.04428],[-122.9852,39.04423],[-122.98524,39.04423],[-122.98527,39.04425],[-122.98528,39.04429],[-122.98523,39.04441],[-122.98524,39.04449],[-122.98529,39.04461],[-122.98534,39.04468],[-122.98545,39.04475],[-122.98561,39.04481],[-122.986,39.04489],[-122.98619,39.04495],[-122.987,39.04538],[-122.98721,39.04552],[-122.98769,39.04609],[-122.9878,39.04626],[-122.98797,39.04647],[-122.98804,39.04658],[-122.98812,39.04678],[-122.98812,39.04692],[-122.9881,39.04706],[-122.9881,39.0472],[-122.98814,39.04733],[-122.98823,39.04745],[-122.98835,39.04756],[-122.98848,39.04763],[-122.98856,39.04766],[-122.98909,39.04776],[-122.98918,39.04776],[-122.98933,39.04772],[-122.98955,39.04747],[-122.98966,39.0474],[-122.9901,39.04719],[-122.99044,39.04698],[-122.99051,39.04696],[-122.99058,39.04697],[-122.99071,39.04704],[-122.99094,39.04725],[-122.99158,39.04777],[-122.99171,39.04783],[-122.99195,39.04788],[-122.992,39.04792],[-122.99202,39.04796],[-122.99199,39.04812],[-122.992,39.04818],[-122.99205,39.04821],[-122.9921,39.04821],[-122.99218,39.04816],[-122.99238,39.04777],[-122.99247,39.04766],[-122.99267,39.04752],[-122.99275,39.04749],[-122.99292,39.04748],[-122.99307,39.04751],[-122.99321,39.04755],[-122.99346,39.04773],[-122.99357,39.04778],[-122.99405,39.04783],[-122.99438,39.0479],[-122.99456,39.04797],[-122.99471,39.04807],[-122.99488,39.04814],[-122.99507,39.04817],[-122.99547,39.04817],[-122.99553,39.04819],[-122.99571,39.04839],[-122.99584,39.04848],[-122.99596,39.04853],[-122.99608,39.04855],[-122.9962,39.04852],[-122.99624,39.04848],[-122.99629,39.04837],[-122.99628,39.04819],[-122.99619,39.04794],[-122.99617,39.0478],[-122.9962,39.04766],[-122.99627,39.04749],[-122.99632,39.04725],[-122.99642,39.04706],[-122.99655,39.04689],[-122.99686,39.04664],[-122.99696,39.04636],[-122.99701,39.0463],[-122.99707,39.04626],[-122.99712,39.04625],[-122.9972,39.04627],[-122.99731,39.04647],[-122.99743,39.04658],[-122.99751,39.04663],[-122.9977,39.04669],[-122.9978,39.04669],[-122.9979,39.04669],[-122.99809,39.04663],[-122.99825,39.04655],[-122.99853,39.04636],[-122.99868,39.0463],[-122.99885,39.04628],[-122.9992,39.04631],[-122.99939,39.04627],[-122.99957,39.04626],[-122.99968,39.04629],[-122.99976,39.04633],[-122.99999,39.04649],[-123.00008,39.04654],[-123.00029,39.04658],[-123.00058,39.04655],[-123.00077,39.04657],[-123.00102,39.04669],[-123.00129,39.04676],[-123.00139,39.04677],[-123.00158,39.04675],[-123.00213,39.04663],[-123.00227,39.04665],[-123.00242,39.04674],[-123.00248,39.04676],[-123.00269,39.04678],[-123.00292,39.04682],[-123.00298,39.04682],[-123.00305,39.04676],[-123.00307,39.04672],[-123.00302,39.04656],[-123.00299,39.0465],[-123.00297,39.0462],[-123.00301,39.04604],[-123.00313,39.04581],[-123.00325,39.04568],[-123.00348,39.04552],[-123.00363,39.04539],[-123.00378,39.04517],[-123.00384,39.04512],[-123.00389,39.04507],[-123.00399,39.04505],[-123.00404,39.04509],[-123.00405,39.04517],[-123.00398,39.04549],[-123.004,39.04563],[-123.0041,39.04584],[-123.00432,39.04607],[-123.00436,39.04617],[-123.00448,39.04631],[-123.00458,39.04634],[-123.00483,39.04635],[-123.00542,39.0463],[-123.00569,39.04625],[-123.00587,39.04625],[-123.00611,39.04627],[-123.00678,39.04644],[-123.00744,39.04669],[-123.00814,39.04692],[-123.00838,39.04698],[-123.00862,39.04698],[-123.00873,39.04696],[-123.00882,39.04691],[-123.0089,39.04685],[-123.00902,39.04671],[-123.00914,39.04646],[-123.00921,39.04618],[-123.00932,39.046],[-123.0094,39.04593],[-123.0095,39.0459],[-123.0096,39.04587],[-123.00971,39.04586],[-123.00983,39.04587],[-123.00995,39.04591],[-123.01015,39.04601],[-123.01023,39.04608],[-123.01041,39.0463],[-123.01053,39.04642],[-123.0107,39.04651],[-123.01084,39.04654],[-123.01091,39.04657],[-123.01135,39.04664],[-123.01205,39.04666],[-123.01256,39.04671],[-123.01267,39.04674],[-123.01276,39.04678],[-123.01282,39.04684],[-123.01302,39.04713],[-123.01309,39.0472],[-123.01317,39.04724],[-123.01326,39.04726],[-123.01336,39.04727],[-123.01392,39.04724],[-123.01403,39.04726],[-123.01413,39.04731],[-123.01422,39.04737],[-123.01438,39.04753],[-123.0147,39.04791],[-123.01487,39.04818],[-123.01492,39.04821],[-123.01504,39.04823],[-123.01518,39.04819],[-123.01546,39.04805],[-123.01561,39.04802],[-123.01569,39.04804],[-123.01575,39.04808],[-123.01593,39.04825],[-123.0162,39.04839],[-123.01628,39.04846],[-123.01634,39.04854],[-123.01644,39.04879],[-123.01649,39.04886],[-123.01655,39.04891],[-123.01668,39.04896],[-123.01685,39.04895],[-123.01702,39.04888],[-123.01715,39.04878],[-123.01719,39.04872],[-123.01722,39.0486],[-123.01726,39.04823],[-123.01717,39.04788],[-123.01717,39.04782],[-123.01718,39.04776],[-123.01724,39.04771],[-123.01732,39.04768],[-123.01751,39.0477],[-123.01786,39.04778],[-123.01828,39.04793],[-123.01845,39.04792],[-123.01903,39.04771],[-123.01918,39.04754],[-123.01925,39.04749],[-123.01965,39.04731],[-123.01976,39.04728],[-123.01999,39.04729],[-123.0205,39.0474],[-123.02096,39.04745],[-123.0217,39.04742],[-123.02186,39.04747],[-123.02192,39.04751],[-123.02216,39.04765],[-123.02223,39.04771],[-123.02233,39.04784],[-123.02244,39.04805],[-123.02251,39.04826],[-123.02251,39.04841],[-123.02245,39.04863],[-123.02245,39.04879],[-123.02265,39.04917],[-123.02281,39.0494],[-123.02293,39.04963],[-123.02303,39.04975],[-123.02334,39.0499],[-123.0236,39.05009],[-123.02369,39.05011],[-123.02373,39.05011],[-123.02379,39.05009],[-123.02383,39.05005],[-123.02398,39.04971],[-123.0241,39.04959],[-123.02419,39.04956],[-123.02464,39.04945],[-123.0249,39.04937],[-123.02516,39.04927],[-123.02543,39.04915],[-123.02573,39.04904],[-123.02595,39.04899],[-123.0263,39.04894],[-123.02641,39.04891],[-123.02678,39.0487],[-123.02699,39.04862],[-123.0271,39.0486],[-123.02745,39.04859],[-123.02756,39.04857],[-123.02806,39.04838],[-123.02849,39.04826],[-123.02865,39.04816],[-123.02883,39.04794],[-123.02894,39.04787],[-123.02903,39.04784],[-123.02937,39.0478],[-123.02993,39.04778],[-123.03006,39.04776],[-123.03031,39.04769],[-123.03042,39.04765],[-123.03121,39.04715],[-123.03138,39.04709],[-123.03147,39.04707],[-123.03166,39.04707],[-123.03265,39.04723],[-123.03287,39.04725],[-123.03326,39.04723],[-123.03358,39.04718],[-123.0338,39.04712],[-123.03397,39.04702],[-123.03421,39.04683],[-123.03428,39.04679],[-123.03467,39.04676],[-123.03533,39.04675],[-123.03561,39.04678],[-123.0362,39.04687],[-123.0367,39.04687],[-123.03764,39.04685],[-123.03795,39.04689],[-123.03816,39.04689],[-123.03833,39.04693],[-123.0384,39.04698],[-123.03846,39.04704],[-123.03861,39.04727],[-123.03875,39.04738],[-123.0389,39.04743],[-123.03916,39.04746],[-123.03924,39.04749],[-123.03931,39.04755],[-123.03958,39.04786],[-123.03974,39.04799],[-123.03983,39.04802],[-123.0399,39.04802],[-123.04032,39.04793],[-123.04053,39.04794],[-123.04063,39.04797],[-123.04073,39.04802],[-123.04107,39.04828],[-123.04126,39.0484],[-123.04148,39.04848],[-123.04169,39.04852],[-123.042,39.04856],[-123.04262,39.04866],[-123.04332,39.04873],[-123.04344,39.04874],[-123.04357,39.04873],[-123.04403,39.04878],[-123.04461,39.04882],[-123.04481,39.04882],[-123.04504,39.04881],[-123.04541,39.04868],[-123.04551,39.04867],[-123.0456,39.04868],[-123.04586,39.0488],[-123.04597,39.04882],[-123.0462,39.04881],[-123.04641,39.04884],[-123.04661,39.04885],[-123.04669,39.04888],[-123.04676,39.04892],[-123.04689,39.0491],[-123.04695,39.04915],[-123.04703,39.04921],[-123.04712,39.04924],[-123.04721,39.04926],[-123.04752,39.04923],[-123.04779,39.04915],[-123.04789,39.04913],[-123.04812,39.04916],[-123.04818,39.04918],[-123.04821,39.0492],[-123.04823,39.04924],[-123.04822,39.04927],[-123.04802,39.04956],[-123.04802,39.04967],[-123.04821,39.04979],[-123.04847,39.0499],[-123.04865,39.05018],[-123.04888,39.05034],[-123.04891,39.0504],[-123.0489,39.05045],[-123.04886,39.0505],[-123.04864,39.05062],[-123.04821,39.05079],[-123.04813,39.05081],[-123.04785,39.05082],[-123.04767,39.05084],[-123.04714,39.051],[-123.04704,39.05105],[-123.047,39.05109],[-123.04697,39.05113],[-123.04697,39.05123],[-123.04703,39.05133],[-123.04719,39.05146],[-123.04724,39.0516],[-123.04725,39.05178],[-123.0473,39.05203],[-123.04726,39.05227],[-123.04729,39.0526],[-123.04728,39.05266],[-123.04724,39.05273],[-123.04719,39.05276],[-123.04713,39.05278],[-123.04706,39.05278],[-123.047,39.05275],[-123.04682,39.05261],[-123.04664,39.05251],[-123.04643,39.05244],[-123.04612,39.05239],[-123.04591,39.05242],[-123.04575,39.05249],[-123.04568,39.05254],[-123.04558,39.05267],[-123.04553,39.05281],[-123.04564,39.0532],[-123.0457,39.05335],[-123.04609,39.05382],[-123.04623,39.05393],[-123.04675,39.0542],[-123.04692,39.05426],[-123.04718,39.05428],[-123.04731,39.05434],[-123.04735,39.05438],[-123.04746,39.05458],[-123.0476,39.05478],[-123.04773,39.05504],[-123.04796,39.05541],[-123.04805,39.05547],[-123.04815,39.0555],[-123.04829,39.0555],[-123.0484,39.05547],[-123.04847,39.05545],[-123.04871,39.05532],[-123.04878,39.05525],[-123.04882,39.05523],[-123.04888,39.0552],[-123.04902,39.0552],[-123.04916,39.05529],[-123.0494,39.05542],[-123.04955,39.05544],[-123.0497,39.05544],[-123.05048,39.05554],[-123.051,39.05573],[-123.05114,39.05574],[-123.05145,39.05569],[-123.05163,39.0557],[-123.05182,39.05573],[-123.05198,39.05583],[-123.05211,39.05606],[-123.05224,39.05619],[-123.05244,39.05629],[-123.05281,39.05653],[-123.05314,39.05696],[-123.05326,39.05708],[-123.0534,39.05731],[-123.0536,39.0575],[-123.05368,39.05755],[-123.05398,39.05759],[-123.05414,39.05765],[-123.0542,39.05771],[-123.05424,39.05791],[-123.05436,39.05809],[-123.05444,39.05828],[-123.05453,39.05842],[-123.05473,39.05861],[-123.055,39.05881],[-123.05518,39.05891],[-123.05555,39.05896],[-123.05585,39.05904],[-123.05601,39.05914],[-123.05624,39.05935],[-123.05651,39.05955],[-123.0569,39.05978],[-123.05794,39.06008],[-123.05828,39.06011],[-123.0587,39.06013],[-123.05887,39.06012],[-123.05899,39.06006],[-123.05903,39.06001],[-123.0591,39.05982],[-123.05918,39.05954],[-123.05932,39.05923],[-123.0598,39.05855],[-123.05996,39.0584],[-123.06005,39.05835],[-123.06026,39.05826],[-123.06048,39.05819],[-123.06061,39.05818],[-123.06073,39.05819],[-123.06085,39.05822],[-123.06107,39.05829],[-123.06192,39.05864],[-123.06214,39.05874],[-123.06234,39.05884],[-123.06257,39.05903],[-123.06272,39.05918],[-123.06282,39.05922],[-123.06289,39.05921],[-123.06295,39.05916],[-123.06294,39.05908],[-123.06262,39.0586],[-123.06239,39.05838],[-123.06223,39.05828],[-123.06212,39.05815],[-123.0621,39.05807],[-123.06216,39.05801],[-123.06221,39.05801],[-123.06242,39.05806],[-123.06324,39.0581],[-123.06348,39.05816],[-123.06358,39.05817],[-123.06376,39.05814],[-123.06392,39.05817],[-123.06408,39.05822],[-123.06419,39.05828],[-123.0645,39.05864],[-123.06495,39.05883],[-123.06504,39.05906],[-123.06512,39.05916],[-123.06555,39.05953],[-123.06578,39.05974],[-123.06587,39.05985],[-123.06605,39.06013],[-123.06617,39.06024],[-123.06627,39.06028],[-123.06636,39.06029],[-123.0667,39.06027],[-123.06678,39.06027],[-123.06688,39.06031],[-123.06697,39.06038],[-123.06722,39.06072],[-123.0673,39.06078],[-123.06748,39.06085],[-123.0676,39.06088],[-123.06779,39.06088],[-123.06785,39.06086],[-123.06837,39.06062],[-123.06856,39.06056],[-123.06865,39.06055],[-123.06896,39.06056],[-123.06914,39.06061],[-123.06923,39.06066],[-123.06933,39.06077],[-123.06937,39.06084],[-123.06939,39.06098],[-123.06939,39.06117],[-123.06927,39.06149],[-123.06926,39.06156],[-123.06927,39.06171],[-123.06932,39.06183],[-123.0694,39.06194],[-123.06965,39.06214],[-123.06994,39.06233],[-123.07009,39.06241],[-123.07016,39.06243],[-123.07027,39.06244],[-123.07094,39.06232],[-123.07103,39.06231],[-123.07111,39.06233],[-123.07125,39.06239],[-123.07147,39.06254],[-123.07158,39.06257],[-123.07304,39.06256],[-123.0732,39.06257],[-123.07328,39.06259],[-123.07339,39.06265],[-123.07343,39.06269],[-123.07348,39.06282],[-123.07345,39.06294],[-123.07316,39.06346],[-123.07317,39.06356],[-123.07322,39.06363],[-123.0734,39.06373],[-123.07415,39.06395],[-123.07442,39.064],[-123.07526,39.06405],[-123.07541,39.06408],[-123.07554,39.06413],[-123.07563,39.0642],[-123.07569,39.06427],[-123.07571,39.06434],[-123.07567,39.06478],[-123.07573,39.06491],[-123.07584,39.06501],[-123.07592,39.06503],[-123.07611,39.06504],[-123.07705,39.06492],[-123.07771,39.06486],[-123.07791,39.06489],[-123.078,39.06492],[-123.07806,39.06497],[-123.07815,39.06507],[-123.07822,39.06551],[-123.07826,39.06578],[-123.07832,39.0662],[-123.07841,39.06647],[-123.07847,39.06655],[-123.07861,39.0667],[-123.07905,39.06709],[-123.07938,39.06742],[-123.07972,39.06781],[-123.07979,39.06794],[-123.0798,39.06823],[-123.07985,39.06834],[-123.07991,39.06844],[-123.08012,39.06863],[-123.08046,39.06886],[-123.08056,39.06891],[-123.08069,39.06907],[-123.08073,39.06924],[-123.08065,39.0694],[-123.08059,39.06955],[-123.0805,39.0697],[-123.08049,39.06977],[-123.0805,39.06984],[-123.08062,39.07002],[-123.08122,39.07073],[-123.08144,39.07095],[-123.08165,39.07111],[-123.08196,39.0713],[-123.08205,39.07142],[-123.08217,39.07171],[-123.08228,39.07184],[-123.08252,39.07199],[-123.08281,39.07209],[-123.08321,39.0722],[-123.08342,39.07226],[-123.08363,39.07234],[-123.08383,39.07244],[-123.08441,39.07288],[-123.08462,39.07303],[-123.08478,39.07311],[-123.08496,39.07317],[-123.08544,39.07327],[-123.08549,39.07335],[-123.08551,39.07365],[-123.08555,39.07388],[-123.08562,39.07404],[-123.08582,39.07437],[-123.08597,39.07447],[-123.08605,39.07449],[-123.08614,39.0745],[-123.08639,39.07448],[-123.08669,39.07449],[-123.08677,39.07451],[-123.08682,39.07455],[-123.08685,39.07459],[-123.08686,39.07467],[-123.08682,39.07492],[-123.08683,39.07505],[-123.08692,39.07542],[-123.08688,39.07553],[-123.08674,39.07572],[-123.08672,39.07586],[-123.08678,39.0761],[-123.08688,39.07626],[-123.0871,39.07648],[-123.08715,39.07655],[-123.08718,39.07662],[-123.08719,39.07669],[-123.08713,39.07699],[-123.08716,39.07724],[-123.08726,39.07748],[-123.08731,39.07755],[-123.08754,39.07773],[-123.08777,39.07784],[-123.08796,39.07783],[-123.0883,39.07781],[-123.08845,39.07785],[-123.08868,39.07796],[-123.0888,39.07804],[-123.08884,39.0781],[-123.08886,39.07817],[-123.08885,39.07823],[-123.08869,39.07852],[-123.08867,39.07868],[-123.08873,39.07893],[-123.08884,39.0792],[-123.08895,39.07939],[-123.08913,39.07956],[-123.08918,39.07968],[-123.08918,39.07975],[-123.08909,39.08012],[-123.0891,39.08032],[-123.0892,39.08052],[-123.0892,39.08059],[-123.08917,39.08076],[-123.08919,39.08083],[-123.08938,39.08108],[-123.0894,39.08114],[-123.0894,39.08121],[-123.08935,39.08134],[-123.08934,39.08142],[-123.08938,39.08156],[-123.08947,39.08169],[-123.08954,39.08173],[-123.08996,39.08186],[-123.09002,39.08191],[-123.09007,39.08196],[-123.09009,39.08203],[-123.0901,39.08211],[-123.09004,39.08232],[-123.09009,39.08243],[-123.09037,39.08276],[-123.09055,39.08307],[-123.09061,39.08313],[-123.09086,39.0833],[-123.09089,39.08334],[-123.09093,39.08356],[-123.09096,39.08362],[-123.09127,39.08388],[-123.09141,39.08397],[-123.09149,39.084],[-123.09157,39.08402],[-123.09172,39.08403],[-123.09201,39.08397],[-123.09209,39.08397],[-123.09223,39.08403],[-123.09241,39.08425],[-123.09248,39.08438],[-123.09249,39.08453],[-123.09245,39.08476],[-123.09249,39.0849],[-123.09258,39.08499],[-123.09272,39.08506],[-123.09295,39.08508],[-123.09352,39.08504],[-123.09371,39.08504],[-123.09385,39.08507],[-123.09396,39.08514],[-123.09401,39.08523],[-123.094,39.08563],[-123.09404,39.08586],[-123.09413,39.08608],[-123.09422,39.08623],[-123.09442,39.08646],[-123.09469,39.08664],[-123.0948,39.08678],[-123.09486,39.08698],[-123.09495,39.08707],[-123.09509,39.08717],[-123.09523,39.08741],[-123.09533,39.08753],[-123.09557,39.08762],[-123.09577,39.08778],[-123.09586,39.08794],[-123.09588,39.08809],[-123.09593,39.08823],[-123.0963,39.08862],[-123.09631,39.08885],[-123.09617,39.08895],[-123.0959,39.08902],[-123.09568,39.08902],[-123.09548,39.08899],[-123.09538,39.08904],[-123.0953,39.08913],[-123.09522,39.08919],[-123.09511,39.08921],[-123.09501,39.08921],[-123.09465,39.08902],[-123.09451,39.08897],[-123.09432,39.08895],[-123.09419,39.08895],[-123.09406,39.08896],[-123.09398,39.08903],[-123.09391,39.08911],[-123.09387,39.08922],[-123.09386,39.08936],[-123.09385,39.08953],[-123.09394,39.08967],[-123.09405,39.08978],[-123.09411,39.0899],[-123.09412,39.09013],[-123.09408,39.09045],[-123.09399,39.09063],[-123.09384,39.0908],[-123.09357,39.09106],[-123.09352,39.09115],[-123.09355,39.09126],[-123.0936,39.09131],[-123.09368,39.09136],[-123.0938,39.0914],[-123.09395,39.09141],[-123.09409,39.09139],[-123.09437,39.0913],[-123.0945,39.09132],[-123.09461,39.09138],[-123.09482,39.09155],[-123.09497,39.09158],[-123.09526,39.09154],[-123.09535,39.09155],[-123.09546,39.09158],[-123.09561,39.09174],[-123.09565,39.09188],[-123.09564,39.09197],[-123.09549,39.0922],[-123.0954,39.09227],[-123.09473,39.09254],[-123.09466,39.09259],[-123.09463,39.09264],[-123.09461,39.09274],[-123.09463,39.0928],[-123.09487,39.09311],[-123.09489,39.09319],[-123.09487,39.09326],[-123.09481,39.09332],[-123.09458,39.09346],[-123.09454,39.09351],[-123.0944,39.09428],[-123.09435,39.09435],[-123.09428,39.09439],[-123.09422,39.09441],[-123.0941,39.09439],[-123.09399,39.09435],[-123.09384,39.09423],[-123.0937,39.09416],[-123.0936,39.09418],[-123.09347,39.09425],[-123.09329,39.09438],[-123.09319,39.09449],[-123.09304,39.09453],[-123.09291,39.09455],[-123.0924,39.09452],[-123.09211,39.09454],[-123.09201,39.0946],[-123.09197,39.09466],[-123.09201,39.09477],[-123.09198,39.09491],[-123.09192,39.09507],[-123.09176,39.09518],[-123.09159,39.09523],[-123.09156,39.09527],[-123.09149,39.09537],[-123.09139,39.09572],[-123.09133,39.09582],[-123.09119,39.09595],[-123.09096,39.09613],[-123.09094,39.09616],[-123.09101,39.0965],[-123.091,39.0966],[-123.09096,39.09675],[-123.09055,39.09742],[-123.09043,39.09756],[-123.09031,39.09765],[-123.09015,39.09774],[-123.08984,39.09783],[-123.08956,39.09794],[-123.08938,39.09792],[-123.08919,39.09782],[-123.08901,39.09781],[-123.08844,39.09788],[-123.08797,39.09795],[-123.08745,39.09815],[-123.08723,39.0982],[-123.08707,39.09822],[-123.08688,39.09821],[-123.08682,39.09819],[-123.08661,39.09809],[-123.08589,39.09776],[-123.08563,39.09761],[-123.0853,39.09731],[-123.08514,39.09723],[-123.08494,39.09717],[-123.08485,39.09717],[-123.08462,39.09725],[-123.08445,39.09733],[-123.08429,39.09745],[-123.08416,39.0976]]}}]}