{"type":"FeatureCollection","features":[{"type":"Feature","properties":{"name":"Trail 5 - Tule Pond (Blue/Blue/Black/Black)","road_class":"track","surface":"unpaved","source":"Caltrans All Roads + OpenStreetMap explicit surface","source_detail":"osm way 10267979; Caltrans All Roads public-network geometry match","source_tile":"161/391","public_network_source":"Caltrans All Roads (ARNOLD/HPMS)","surface_source":"OpenStreetMap explicit surface tag","caltrans_match_coverage":1.0,"verified_length_m":2475},"geometry":{"type":"LineString","coordinates":[[-123.0619,39.10373],[-123.06188,39.10368],[-123.06181,39.1036],[-123.06166,39.10341],[-123.06161,39.10331],[-123.06149,39.1032],[-123.0614,39.10305],[-123.06133,39.10286],[-123.06126,39.1027],[-123.06116,39.10251],[-123.06104,39.10229],[-123.06087,39.10216],[-123.06055,39.10216],[-123.06039,39.10213],[-123.06033,39.10211],[-123.06011,39.10204],[-123.05991,39.10197],[-123.05979,39.10191],[-123.05961,39.10184],[-123.05949,39.10181],[-123.05942,39.10179],[-123.0593,39.10173],[-123.05919,39.10159],[-123.05916,39.1014],[-123.05915,39.10122],[-123.05913,39.10117],[-123.0591,39.10114],[-123.05904,39.1011],[-123.05893,39.10109],[-123.05869,39.10109],[-123.05855,39.10108],[-123.05846,39.10105],[-123.05827,39.10095],[-123.05817,39.10084],[-123.05817,39.10083],[-123.05818,39.10069],[-123.05822,39.10048],[-123.05823,39.10028],[-123.05819,39.10019],[-123.05815,39.10011],[-123.05809,39.10004],[-123.05805,39.09997],[-123.05804,39.09995],[-123.05795,39.09982],[-123.05789,39.09977],[-123.05786,39.09972],[-123.05778,39.09954],[-123.05763,39.09942],[-123.05747,39.0993],[-123.05738,39.0992],[-123.05729,39.09904],[-123.0572,39.09893],[-123.05711,39.09886],[-123.05703,39.0988],[-123.05696,39.09875],[-123.05684,39.09863],[-123.05673,39.09855],[-123.05654,39.09848],[-123.05634,39.09843],[-123.05608,39.09827],[-123.0559,39.09813],[-123.05579,39.09801],[-123.05576,39.09799],[-123.05565,39.09797],[-123.05547,39.09793],[-123.05532,39.09785],[-123.05524,39.09774],[-123.05512,39.09759],[-123.05486,39.09753],[-123.05455,39.09751],[-123.05431,39.09757],[-123.05413,39.09745],[-123.05402,39.0972],[-123.054,39.09703],[-123.0542,39.09692],[-123.05438,39.09675],[-123.05448,39.09661],[-123.05456,39.09647],[-123.05465,39.09614],[-123.05483,39.09585],[-123.05497,39.09567],[-123.05508,39.09548],[-123.05511,39.09546],[-123.05518,39.09545],[-123.0552,39.0954],[-123.0552,39.09537],[-123.05515,39.09533],[-123.05515,39.0953],[-123.05517,39.09524],[-123.0552,39.09519],[-123.05525,39.09511],[-123.05532,39.09503],[-123.0555,39.09496],[-123.05572,39.09498],[-123.05592,39.09496],[-123.05615,39.0949],[-123.05641,39.09485],[-123.05664,39.09477],[-123.05689,39.0947],[-123.05714,39.09468],[-123.05744,39.09472],[-123.05769,39.09479],[-123.05787,39.09477],[-123.058,39.09472],[-123.05806,39.0947],[-123.0581,39.09471],[-123.05815,39.09474],[-123.05819,39.09478],[-123.05825,39.09482],[-123.05828,39.09487],[-123.05827,39.09492],[-123.05824,39.09498],[-123.05822,39.09504],[-123.05821,39.09508],[-123.05821,39.09513],[-123.05823,39.09518],[-123.05823,39.09525],[-123.05822,39.09533],[-123.05822,39.09547],[-123.05833,39.09559],[-123.05835,39.09568],[-123.05853,39.09582],[-123.05862,39.0959],[-123.05877,39.09605],[-123.05884,39.09617],[-123.0589,39.09631],[-123.05893,39.09651],[-123.059,39.09672],[-123.05903,39.09678],[-123.05904,39.0968],[-123.05908,39.09688],[-123.05925,39.09701],[-123.05948,39.09716],[-123.05959,39.09718],[-123.05984,39.09721],[-123.06002,39.09724],[-123.06013,39.09729],[-123.06022,39.09736],[-123.06022,39.09755],[-123.0603,39.09775],[-123.06036,39.09797],[-123.06033,39.09834],[-123.0602,39.09849],[-123.06009,39.09865],[-123.06009,39.09891],[-123.06014,39.09912],[-123.06004,39.09927],[-123.05992,39.09943],[-123.0598,39.09958],[-123.05971,39.09966],[-123.05966,39.09976],[-123.05966,39.09989],[-123.05971,39.10011],[-123.05969,39.10023],[-123.0596,39.10036],[-123.05951,39.10049],[-123.05948,39.1006],[-123.05942,39.10075],[-123.05918,39.10101],[-123.05913,39.10117]]}},{"type":"Feature","properties":{"name":"Trail 2 - Oakwood Springs Loop (Blue)","road_class":"track","surface":"unpaved","source":"Caltrans All Roads + OpenStreetMap explicit surface","source_detail":"osm way 10267993; Caltrans All Roads public-network geometry match","source_tile":"161/391","public_network_source":"Caltrans All Roads (ARNOLD/HPMS)","surface_source":"OpenStreetMap explicit surface tag","caltrans_match_coverage":1.0,"verified_length_m":3015},"geometry":{"type":"LineString","coordinates":[[-123.07909,39.09851],[-123.07898,39.09846],[-123.07884,39.0984],[-123.07872,39.09843],[-123.07865,39.09849],[-123.07865,39.09862],[-123.07858,39.09873],[-123.07853,39.09882],[-123.07842,39.09888],[-123.07833,39.0989],[-123.07823,39.09888],[-123.07816,39.09882],[-123.07813,39.09876],[-123.07809,39.09868],[-123.078,39.09861],[-123.07794,39.09852],[-123.07792,39.0984],[-123.07796,39.09825],[-123.07797,39.09818],[-123.07792,39.09806],[-123.07789,39.098],[-123.07773,39.09782],[-123.07747,39.0977],[-123.07727,39.09732],[-123.07708,39.09719],[-123.07697,39.09714],[-123.07658,39.09718],[-123.07633,39.09715],[-123.07618,39.09712],[-123.07615,39.09709],[-123.07607,39.09696],[-123.07591,39.09683],[-123.07586,39.09671],[-123.07593,39.09662],[-123.07603,39.09657],[-123.07613,39.09648],[-123.07614,39.09633],[-123.07627,39.09623],[-123.07633,39.09608],[-123.07641,39.09593],[-123.07642,39.09576],[-123.07637,39.09566],[-123.07629,39.09555],[-123.07607,39.09548],[-123.07586,39.09556],[-123.07564,39.09557],[-123.07545,39.09552],[-123.07536,39.09555],[-123.0752,39.09559],[-123.07506,39.09553],[-123.07493,39.09543],[-123.07487,39.0954],[-123.07475,39.09535],[-123.07465,39.09532],[-123.07443,39.09522],[-123.07434,39.0952],[-123.0743,39.09519],[-123.07415,39.0952],[-123.07409,39.09524],[-123.07399,39.09542],[-123.07392,39.09554],[-123.07381,39.09561],[-123.07361,39.09569],[-123.07352,39.09577],[-123.07345,39.09579],[-123.07342,39.09582],[-123.07342,39.0959],[-123.07348,39.09606],[-123.07357,39.09615],[-123.07365,39.09641],[-123.07372,39.09662],[-123.07373,39.09669],[-123.0737,39.09678],[-123.07357,39.09697],[-123.0735,39.09703],[-123.07346,39.0971],[-123.07345,39.09717],[-123.07344,39.09723],[-123.07346,39.09731],[-123.07351,39.09741],[-123.07353,39.09756],[-123.07353,39.09761],[-123.07352,39.09767],[-123.07349,39.09775],[-123.07347,39.09782],[-123.07347,39.09793],[-123.07339,39.09801],[-123.07331,39.09821],[-123.07319,39.09838],[-123.07312,39.0985],[-123.07307,39.09861],[-123.07305,39.09877],[-123.07309,39.09887],[-123.07317,39.09899],[-123.07334,39.09921],[-123.07346,39.09938],[-123.07358,39.09952],[-123.07363,39.09958],[-123.07375,39.09964],[-123.07403,39.09972],[-123.07422,39.09972],[-123.07429,39.09972],[-123.07435,39.09972],[-123.07446,39.09977],[-123.07461,39.09992],[-123.07462,39.09997],[-123.07459,39.10007],[-123.0745,39.10025],[-123.07446,39.10039],[-123.07443,39.10049],[-123.07437,39.10055],[-123.07428,39.10058],[-123.07395,39.1006],[-123.07387,39.10062],[-123.07373,39.10067],[-123.07366,39.10076],[-123.07362,39.10087],[-123.07357,39.10128],[-123.07355,39.1013],[-123.07344,39.10132],[-123.07323,39.10133],[-123.0731,39.10131],[-123.0729,39.10124],[-123.07272,39.10114],[-123.07262,39.10111],[-123.07252,39.10114],[-123.07241,39.10119],[-123.07227,39.10118],[-123.07207,39.10121],[-123.07194,39.10129],[-123.07182,39.10133],[-123.07166,39.10134],[-123.07156,39.10133],[-123.07144,39.10129],[-123.07125,39.10121],[-123.07095,39.10116],[-123.0706,39.10117],[-123.07041,39.10131],[-123.07024,39.1014],[-123.07011,39.1015],[-123.07001,39.10165],[-123.06984,39.10181],[-123.06964,39.10198],[-123.06943,39.10211],[-123.06922,39.10211],[-123.06891,39.10209],[-123.06868,39.10219],[-123.06847,39.10224],[-123.06824,39.10223],[-123.06803,39.10224],[-123.06797,39.10226],[-123.06787,39.1023],[-123.06768,39.10235],[-123.06758,39.10236],[-123.06751,39.10237],[-123.06744,39.10239],[-123.06738,39.10241],[-123.06727,39.10244],[-123.06717,39.10248],[-123.06692,39.10262],[-123.06679,39.10269],[-123.0665,39.10295],[-123.06628,39.1031],[-123.06607,39.10316],[-123.06589,39.10315],[-123.06531,39.10305],[-123.06518,39.10304],[-123.06512,39.10304],[-123.06488,39.10308],[-123.06458,39.10315],[-123.06427,39.10329],[-123.064,39.10338],[-123.06379,39.10337],[-123.06373,39.10335],[-123.06367,39.10332],[-123.06355,39.10325],[-123.06332,39.1031],[-123.06316,39.10304],[-123.0629,39.1031],[-123.0626,39.10335],[-123.06241,39.10348],[-123.06211,39.10368],[-123.06199,39.10372],[-123.0619,39.10373],[-123.06144,39.10402],[-123.06143,39.10413],[-123.06142,39.10423],[-123.06147,39.10439],[-123.06148,39.10451],[-123.06143,39.10462],[-123.06137,39.10471],[-123.06125,39.1048],[-123.06111,39.10485],[-123.06095,39.10491],[-123.06086,39.10499],[-123.06085,39.10504]]}},{"type":"Feature","properties":{"name":"Red Mountain Camp Road","road_class":"unclassified","surface":"dirt","source":"Caltrans All Roads + OpenStreetMap explicit surface","source_detail":"osm way 10267848; Caltrans All Roads public-network geometry match","source_tile":"161/391","public_network_source":"Caltrans All Roads (ARNOLD/HPMS)","surface_source":"OpenStreetMap explicit surface tag","caltrans_match_coverage":1.0,"verified_length_m":2117},"geometry":{"type":"LineString","coordinates":[[-123.08441,39.07288],[-123.08449,39.07286],[-123.0848,39.07294],[-123.08487,39.07295],[-123.08494,39.07293],[-123.08508,39.07283],[-123.08509,39.07265],[-123.08511,39.07259],[-123.08521,39.07245],[-123.0853,39.07215],[-123.08538,39.07204],[-123.08552,39.07196],[-123.08567,39.07193],[-123.08586,39.07193],[-123.08597,39.07194],[-123.08613,39.07202],[-123.08619,39.07208],[-123.08638,39.07243],[-123.08652,39.07256],[-123.08704,39.07283],[-123.08739,39.07307],[-123.0875,39.0731],[-123.08801,39.07318],[-123.08818,39.07323],[-123.08843,39.07336],[-123.08881,39.07361],[-123.08938,39.07389],[-123.08962,39.074],[-123.08976,39.07411],[-123.08982,39.07421],[-123.08991,39.07451],[-123.09013,39.07486],[-123.0903,39.07508],[-123.09044,39.07518],[-123.09082,39.07538],[-123.09108,39.07554],[-123.09157,39.07577],[-123.09166,39.07579],[-123.0918,39.07587],[-123.09185,39.07597],[-123.09188,39.07611],[-123.09184,39.07625],[-123.09184,39.07637],[-123.09189,39.07647],[-123.09211,39.07678],[-123.09221,39.07695],[-123.09256,39.07724],[-123.09276,39.0776],[-123.09291,39.07776],[-123.09298,39.07792],[-123.09297,39.07796],[-123.09292,39.07802],[-123.09258,39.07809],[-123.09236,39.07814],[-123.09226,39.07814],[-123.09192,39.07809],[-123.09185,39.0781],[-123.09176,39.07813],[-123.09172,39.07819],[-123.09166,39.07836],[-123.09155,39.07853],[-123.09153,39.07861],[-123.09154,39.07864],[-123.09157,39.07869],[-123.09154,39.07883],[-123.09141,39.07902],[-123.0915,39.0793],[-123.09158,39.0794],[-123.09162,39.07947],[-123.09162,39.07962],[-123.09158,39.0797],[-123.09157,39.07978],[-123.0916,39.08024],[-123.09163,39.08043],[-123.09175,39.08055],[-123.09205,39.0807],[-123.09233,39.0808],[-123.09261,39.08101],[-123.09258,39.08115],[-123.0925,39.08144],[-123.0925,39.08155],[-123.09259,39.08179],[-123.09256,39.08188],[-123.09252,39.08191],[-123.09246,39.08193],[-123.09238,39.08193],[-123.09214,39.08188],[-123.09188,39.08185],[-123.09171,39.08182],[-123.09151,39.08173],[-123.09132,39.08162],[-123.09101,39.08149],[-123.09036,39.0813],[-123.09006,39.08124],[-123.08997,39.08116],[-123.08985,39.08098],[-123.08968,39.08085],[-123.08958,39.08079],[-123.08928,39.08042],[-123.0891,39.08032]]}},{"type":"Feature","properties":{"name":"Red Mountain Quarry Road","road_class":"unclassified","surface":"unpaved","source":"Caltrans All Roads + OpenStreetMap explicit surface","source_detail":"osm way 10273289; Caltrans All Roads public-network geometry match","source_tile":"161/391","public_network_source":"Caltrans All Roads (ARNOLD/HPMS)","surface_source":"OpenStreetMap explicit surface tag","caltrans_match_coverage":1.0,"verified_length_m":736},"geometry":{"type":"LineString","coordinates":[[-123.09322,39.0708],[-123.09316,39.07089],[-123.09314,39.071],[-123.09296,39.07108],[-123.09284,39.07117],[-123.09267,39.07148],[-123.09259,39.07182],[-123.09254,39.07197],[-123.09248,39.07223],[-123.09248,39.07242],[-123.09259,39.07276],[-123.09249,39.0729],[-123.09235,39.07312],[-123.09229,39.07331],[-123.09229,39.07395],[-123.09233,39.07439],[-123.09231,39.07444],[-123.09227,39.07448],[-123.09214,39.07455],[-123.09205,39.07462],[-123.09196,39.07473],[-123.09189,39.07481],[-123.09181,39.07486],[-123.09152,39.07481],[-123.09124,39.0747],[-123.09088,39.07449],[-123.09071,39.07441],[-123.09049,39.07426],[-123.09041,39.07412],[-123.09038,39.07404],[-123.09033,39.07392],[-123.09022,39.07384],[-123.09013,39.07384],[-123.09005,39.07386],[-123.08992,39.07389],[-123.08962,39.074]]}},{"type":"Feature","properties":{"name":"(unnamed public road)","road_class":"track","surface":"dirt","source":"Caltrans All Roads + OpenStreetMap explicit surface","source_detail":"osm way 10280541; Caltrans All Roads public-network geometry match","source_tile":"161/391","public_network_source":"Caltrans All Roads (ARNOLD/HPMS)","surface_source":"OpenStreetMap explicit surface tag","caltrans_match_coverage":0.964,"verified_length_m":1647},"geometry":{"type":"LineString","coordinates":[[-123.13455,39.0322],[-123.1347,39.03201],[-123.13487,39.03182],[-123.13507,39.03179],[-123.13544,39.03189],[-123.13563,39.03207],[-123.13626,39.03228],[-123.13677,39.03248],[-123.1372,39.03261],[-123.13728,39.03265],[-123.13736,39.03271],[-123.13758,39.03299],[-123.13795,39.03358],[-123.138,39.03363],[-123.13816,39.03377],[-123.13884,39.0344],[-123.13899,39.03448],[-123.13912,39.03455],[-123.13975,39.03477],[-123.13985,39.03478],[-123.14038,39.03482],[-123.14075,39.03487],[-123.14085,39.03487],[-123.14111,39.0348],[-123.14122,39.03479],[-123.14132,39.03481],[-123.14144,39.03485],[-123.1415,39.03488],[-123.14159,39.03493],[-123.14178,39.03511],[-123.14193,39.03531],[-123.14214,39.03553],[-123.14236,39.0357],[-123.14248,39.03577],[-123.14255,39.03574],[-123.1427,39.03568],[-123.14278,39.03569],[-123.14294,39.03592],[-123.14312,39.03603],[-123.14324,39.03605],[-123.14338,39.03603],[-123.14351,39.03599],[-123.14366,39.03592],[-123.1438,39.03585],[-123.14391,39.03562],[-123.14388,39.03539],[-123.14375,39.03516],[-123.14244,39.03319],[-123.14167,39.03207],[-123.14142,39.03183],[-123.14125,39.03157],[-123.14107,39.03131],[-123.14093,39.03115],[-123.14076,39.03102]]}},{"type":"Feature","properties":{"name":"(unnamed public road)","road_class":"track","surface":"unpaved","source":"Caltrans All Roads + OpenStreetMap explicit surface","source_detail":"osm way 10304086; Caltrans All Roads public-network geometry match","source_tile":"161/391","public_network_source":"Caltrans All Roads (ARNOLD/HPMS)","surface_source":"OpenStreetMap explicit surface tag","caltrans_match_coverage":1.0,"verified_length_m":10742},"geometry":{"type":"LineString","coordinates":[[-123.06008,39.02386],[-123.06033,39.0246],[-123.06046,39.02478],[-123.06069,39.02497],[-123.0608,39.02503],[-123.06136,39.02528],[-123.06162,39.02538],[-123.06283,39.02573],[-123.06292,39.02578],[-123.06361,39.02638],[-123.06386,39.0267],[-123.06405,39.02709],[-123.06423,39.02739],[-123.06439,39.02757],[-123.06449,39.02767],[-123.06466,39.02778],[-123.0653,39.02815],[-123.06544,39.0282],[-123.06559,39.02834],[-123.06576,39.02864],[-123.06588,39.02919],[-123.06601,39.02943],[-123.06616,39.02959],[-123.06638,39.0297],[-123.06655,39.02975],[-123.06707,39.02981],[-123.06726,39.02982],[-123.06745,39.0298],[-123.06783,39.02975],[-123.06829,39.0298],[-123.06836,39.0298],[-123.06848,39.02977],[-123.06854,39.02974],[-123.06866,39.02962],[-123.06921,39.02891],[-123.06932,39.02876],[-123.06951,39.02863],[-123.06989,39.02845],[-123.07008,39.02839],[-123.07056,39.02829],[-123.07091,39.02812],[-123.07106,39.0281],[-123.07112,39.0281],[-123.07122,39.02815],[-123.07144,39.02829],[-123.07153,39.02832],[-123.07192,39.0284],[-123.07212,39.02842],[-123.0722,39.02841],[-123.07251,39.02834],[-123.07325,39.02811],[-123.07332,39.02811],[-123.07423,39.02824],[-123.07479,39.02842],[-123.07495,39.02853],[-123.07532,39.02886],[-123.07539,39.02889],[-123.07547,39.0289],[-123.07558,39.02889],[-123.0757,39.02885],[-123.07584,39.02877],[-123.07617,39.02838],[-123.07622,39.02834],[-123.0763,39.02832],[-123.07662,39.02832],[-123.07715,39.02837],[-123.07729,39.02842],[-123.07754,39.02863],[-123.07804,39.02912],[-123.07843,39.02938],[-123.0788,39.02959],[-123.079,39.02974],[-123.0791,39.0299],[-123.07915,39.03005],[-123.07918,39.03031],[-123.0792,39.03037],[-123.07926,39.03043],[-123.07939,39.03049],[-123.07956,39.03054],[-123.08101,39.03136],[-123.08172,39.03171],[-123.08203,39.03191],[-123.08213,39.03198],[-123.08273,39.03231],[-123.08312,39.03235],[-123.08342,39.03255],[-123.08348,39.0327],[-123.08352,39.03291],[-123.08375,39.03304],[-123.08434,39.0331],[-123.08463,39.0332],[-123.0852,39.03394],[-123.08534,39.03438],[-123.08567,39.03475],[-123.08565,39.03495],[-123.08568,39.03508],[-123.08599,39.03529],[-123.08615,39.0354],[-123.08653,39.03557],[-123.08742,39.03589],[-123.08866,39.03644],[-123.0892,39.03666],[-123.08941,39.03672],[-123.08959,39.03673],[-123.08979,39.03673],[-123.09048,39.03663],[-123.09066,39.03673],[-123.09094,39.03692],[-123.09105,39.03706],[-123.09179,39.0382],[-123.09216,39.03883],[-123.09225,39.03895],[-123.09305,39.03947],[-123.09396,39.04044],[-123.09416,39.0406],[-123.09427,39.04066],[-123.09446,39.04069],[-123.09513,39.04072],[-123.09597,39.04071],[-123.09602,39.04067],[-123.09615,39.04048],[-123.09625,39.04037],[-123.09631,39.04033],[-123.09643,39.04028],[-123.09654,39.04028],[-123.09663,39.04034],[-123.09667,39.04039],[-123.09673,39.04057],[-123.09677,39.04139],[-123.0967,39.04159],[-123.09669,39.04177],[-123.09673,39.04189],[-123.09681,39.04195],[-123.09729,39.04203],[-123.09744,39.04203],[-123.09756,39.04198],[-123.09768,39.0419],[-123.09781,39.04178],[-123.09798,39.04145],[-123.09798,39.04139],[-123.09788,39.04121],[-123.09788,39.04117],[-123.09802,39.04093],[-123.09801,39.04083],[-123.09776,39.04014],[-123.09771,39.04005],[-123.09752,39.03988],[-123.09736,39.03962],[-123.09713,39.03908],[-123.09687,39.03855],[-123.09688,39.03849],[-123.09694,39.03845],[-123.09703,39.03843],[-123.09711,39.03844],[-123.09722,39.0385],[-123.09763,39.03878],[-123.09774,39.03882],[-123.09785,39.03881],[-123.09793,39.03878],[-123.09795,39.03874],[-123.09797,39.03866],[-123.09796,39.03855],[-123.09792,39.03846],[-123.09771,39.03821],[-123.09763,39.03816],[-123.09749,39.03812],[-123.09729,39.03808],[-123.09681,39.03804],[-123.09676,39.038],[-123.09672,39.03793],[-123.09669,39.03766],[-123.09674,39.03747],[-123.09675,39.03738],[-123.09672,39.03733],[-123.09664,39.03726],[-123.09617,39.03698],[-123.09552,39.03651],[-123.09519,39.03618],[-123.09516,39.03611],[-123.09518,39.03606],[-123.09525,39.036],[-123.09578,39.03591],[-123.0959,39.03591],[-123.09611,39.03587],[-123.09629,39.03578],[-123.09648,39.03561],[-123.09682,39.03493],[-123.09705,39.03469],[-123.09719,39.03434],[-123.09738,39.0341],[-123.09762,39.03391],[-123.09767,39.0336],[-123.09753,39.03339],[-123.09749,39.0331],[-123.09754,39.03294],[-123.09758,39.03285],[-123.09775,39.03266],[-123.09769,39.03243],[-123.09764,39.03233],[-123.09712,39.03152],[-123.09696,39.03136],[-123.09672,39.03119],[-123.09604,39.0308],[-123.09582,39.0307],[-123.09556,39.03065],[-123.09535,39.03064],[-123.09515,39.03066],[-123.09496,39.03072],[-123.09483,39.0307],[-123.09467,39.03053],[-123.09456,39.03042],[-123.09424,39.03023],[-123.09379,39.02987],[-123.09355,39.02971],[-123.09341,39.02965],[-123.09327,39.02962],[-123.09293,39.02957],[-123.09275,39.02947],[-123.09273,39.02943],[-123.09269,39.02935],[-123.09263,39.02917],[-123.09253,39.02901],[-123.09254,39.02882],[-123.09266,39.02865],[-123.09288,39.02854],[-123.09314,39.02852],[-123.09339,39.0285],[-123.09348,39.02843],[-123.09348,39.02824],[-123.09347,39.0281],[-123.09353,39.02798],[-123.09362,39.02788],[-123.09368,39.02785],[-123.09378,39.0278],[-123.09389,39.02779],[-123.09415,39.02782],[-123.09428,39.02785],[-123.09456,39.02797],[-123.09473,39.02806],[-123.09485,39.02809],[-123.09499,39.02809],[-123.09517,39.02814],[-123.09531,39.02823],[-123.09542,39.02825],[-123.09554,39.02825],[-123.09569,39.02825],[-123.09588,39.02821],[-123.09605,39.02808],[-123.09618,39.0279],[-123.09629,39.02767],[-123.09629,39.02751],[-123.0962,39.02741],[-123.09609,39.02737],[-123.09597,39.02736],[-123.09581,39.02744],[-123.09565,39.0276],[-123.0955,39.02765],[-123.09532,39.02763],[-123.09524,39.02747],[-123.09524,39.02732],[-123.09526,39.02709],[-123.0953,39.02696],[-123.0957,39.02649],[-123.09592,39.02631],[-123.09614,39.02608],[-123.0964,39.026],[-123.09662,39.02587],[-123.09677,39.02574],[-123.09684,39.02557],[-123.09688,39.0254],[-123.09692,39.02515],[-123.09696,39.02428],[-123.09696,39.02364],[-123.09695,39.02344],[-123.09699,39.02325],[-123.09694,39.02311],[-123.09681,39.02301],[-123.09665,39.02294],[-123.0964,39.02282],[-123.0962,39.02265],[-123.09615,39.0225],[-123.09621,39.02222],[-123.09617,39.02205],[-123.09594,39.02177],[-123.09575,39.02157],[-123.09541,39.02139],[-123.09487,39.0212],[-123.09457,39.02101],[-123.09414,39.02072],[-123.09408,39.02065],[-123.09405,39.02056],[-123.09405,39.01978],[-123.09405,39.01976],[-123.09402,39.01966],[-123.09393,39.01958],[-123.09372,39.01952],[-123.09329,39.01942],[-123.09318,39.01937],[-123.09315,39.0193],[-123.09313,39.01922],[-123.09322,39.01902],[-123.0933,39.01886],[-123.09326,39.01868],[-123.09309,39.01854],[-123.09291,39.01847],[-123.09282,39.01845],[-123.09273,39.01845],[-123.09233,39.01851],[-123.09223,39.01849],[-123.09222,39.01842],[-123.09225,39.01823],[-123.09306,39.01773],[-123.0931,39.01769],[-123.09314,39.01763],[-123.09315,39.01756],[-123.09314,39.01748],[-123.09308,39.01739],[-123.0929,39.01722],[-123.0928,39.01714],[-123.09272,39.01706],[-123.09261,39.01691],[-123.09247,39.01667],[-123.09243,39.01662],[-123.09237,39.01659],[-123.09187,39.0165],[-123.0918,39.01647],[-123.09175,39.01642],[-123.09173,39.01635],[-123.09175,39.01629],[-123.09177,39.01627],[-123.09184,39.01624],[-123.09188,39.01621],[-123.09226,39.01609],[-123.09243,39.01602],[-123.09253,39.01597],[-123.09274,39.01574],[-123.09306,39.01535],[-123.09321,39.0152],[-123.09371,39.01488],[-123.09401,39.01465],[-123.09425,39.01448],[-123.09435,39.01438],[-123.09444,39.01427],[-123.09447,39.01407],[-123.0944,39.01365],[-123.09444,39.01343],[-123.09434,39.0132],[-123.09431,39.01312],[-123.09433,39.01306],[-123.09442,39.01304],[-123.0945,39.01307],[-123.09474,39.01336],[-123.09481,39.01346],[-123.09487,39.01355],[-123.09517,39.01374],[-123.09549,39.01394],[-123.09561,39.01403],[-123.09565,39.01406],[-123.09571,39.01409],[-123.09575,39.01409],[-123.09581,39.01407],[-123.09586,39.01402],[-123.09586,39.01399],[-123.09586,39.0139],[-123.09577,39.0138],[-123.09535,39.01349],[-123.09532,39.01343],[-123.0953,39.01335],[-123.09536,39.01305],[-123.09535,39.01292],[-123.09528,39.01283],[-123.09518,39.01277],[-123.09503,39.01263],[-123.09488,39.01244],[-123.09475,39.01238],[-123.09459,39.01233],[-123.09442,39.01232],[-123.09425,39.01234],[-123.09414,39.01235],[-123.094,39.01234],[-123.09387,39.01229],[-123.09379,39.01222],[-123.09375,39.01216],[-123.09371,39.01208],[-123.09373,39.012],[-123.09378,39.01192],[-123.09382,39.01181],[-123.09379,39.01169],[-123.09371,39.01156],[-123.09332,39.01106],[-123.09329,39.01095],[-123.09324,39.01068],[-123.09317,39.01035],[-123.09306,39.01022],[-123.09293,39.01015],[-123.09287,39.01014],[-123.09261,39.0101],[-123.09224,39.01004],[-123.09223,39.01004],[-123.09215,39.01003],[-123.09207,39.01002],[-123.09198,39.00999],[-123.09187,39.00995],[-123.09169,39.00988],[-123.09151,39.00979],[-123.09136,39.00969],[-123.09128,39.00962],[-123.09124,39.00957],[-123.09118,39.00949],[-123.09111,39.00937],[-123.09102,39.00919],[-123.09097,39.00909],[-123.09089,39.00897],[-123.09076,39.00885],[-123.09067,39.00877],[-123.09032,39.00851],[-123.0898,39.00809],[-123.08971,39.00802],[-123.0896,39.00792],[-123.08953,39.00786],[-123.08945,39.0078],[-123.08933,39.00769],[-123.08923,39.00759],[-123.08913,39.0075],[-123.08902,39.00742],[-123.08872,39.00722],[-123.08842,39.00701],[-123.08832,39.00694],[-123.08827,39.00689]]}},{"type":"Feature","properties":{"name":"El Roble Road","road_class":"unclassified","surface":"unpaved","source":"Caltrans All Roads + OpenStreetMap explicit surface","source_detail":"osm way 10306762; Caltrans All Roads public-network geometry match","source_tile":"161/391","public_network_source":"Caltrans All Roads (ARNOLD/HPMS)","surface_source":"OpenStreetMap explicit surface tag","caltrans_match_coverage":1.0,"verified_length_m":513},"geometry":{"type":"LineString","coordinates":[[-123.18376,39.08856],[-123.18346,39.08871],[-123.18267,39.0891],[-123.18153,39.08961],[-123.18138,39.08967],[-123.18123,39.08972],[-123.18091,39.08985],[-123.1806,39.09003],[-123.18038,39.09014],[-123.17969,39.09047],[-123.17932,39.09064],[-123.17902,39.09077],[-123.17889,39.09083],[-123.17878,39.09088],[-123.17866,39.09092]]}},{"type":"Feature","properties":{"name":"Eight Mile Valley","road_class":"track","surface":"dirt","source":"Caltrans All Roads + OpenStreetMap explicit surface","source_detail":"osm way 596275064; Caltrans All Roads public-network geometry match","source_tile":"161/391","public_network_source":"Caltrans All Roads (ARNOLD/HPMS)","surface_source":"OpenStreetMap explicit surface tag","caltrans_match_coverage":1.0,"verified_length_m":2286},"geometry":{"type":"LineString","coordinates":[[-123.0616,39.08302],[-123.06161,39.08298],[-123.0618,39.08279],[-123.06181,39.08273],[-123.0619,39.08265],[-123.06191,39.0826],[-123.0618,39.08244],[-123.0618,39.08236],[-123.06197,39.08217],[-123.06211,39.08195],[-123.06211,39.08185],[-123.06207,39.08179],[-123.06197,39.08169],[-123.06195,39.08154],[-123.06196,39.08142],[-123.06207,39.08132],[-123.06209,39.08128],[-123.06215,39.08123],[-123.0624,39.08122],[-123.06261,39.08123],[-123.06284,39.08118],[-123.06317,39.08122],[-123.06341,39.0813],[-123.06351,39.08131],[-123.06366,39.08127],[-123.06376,39.08122],[-123.06392,39.08101],[-123.06398,39.08095],[-123.06411,39.08092],[-123.06425,39.08079],[-123.06445,39.08094],[-123.06469,39.081],[-123.06492,39.0811],[-123.06523,39.0811],[-123.06541,39.08106],[-123.06579,39.08102],[-123.06601,39.08113],[-123.06632,39.08116],[-123.06668,39.08078],[-123.06688,39.08061],[-123.06707,39.08059],[-123.06748,39.08098],[-123.06777,39.08112],[-123.06801,39.08134],[-123.06796,39.08155],[-123.06855,39.08192],[-123.06867,39.0819],[-123.06874,39.08187],[-123.06879,39.0819],[-123.06881,39.08198],[-123.0689,39.08215],[-123.06893,39.08239],[-123.06899,39.08242],[-123.06899,39.08245],[-123.06905,39.08261],[-123.06904,39.08285],[-123.06907,39.08307],[-123.06922,39.08321],[-123.06947,39.08337],[-123.06971,39.08348],[-123.06995,39.08356],[-123.07001,39.08365],[-123.06996,39.08426],[-123.07,39.08431],[-123.0702,39.08435],[-123.07042,39.08435],[-123.0706,39.08434],[-123.07116,39.08456],[-123.07153,39.08468],[-123.07191,39.08479],[-123.07223,39.08483],[-123.07366,39.08479],[-123.07383,39.08481],[-123.07397,39.08486],[-123.0742,39.08508],[-123.07432,39.08535],[-123.07426,39.08541],[-123.07421,39.0855],[-123.0742,39.08561],[-123.07422,39.08568],[-123.07429,39.08576],[-123.0745,39.08577],[-123.07458,39.08575],[-123.07469,39.08582],[-123.07476,39.08591],[-123.07472,39.08599],[-123.07456,39.08621],[-123.07453,39.08633],[-123.07479,39.08665],[-123.07492,39.08675],[-123.07503,39.08678],[-123.07512,39.08674],[-123.07521,39.08666],[-123.07522,39.08657],[-123.07526,39.08654],[-123.07567,39.08653],[-123.07573,39.08646],[-123.07588,39.08647],[-123.07595,39.08672],[-123.07613,39.08683],[-123.07632,39.087],[-123.0765,39.08719],[-123.07681,39.08736],[-123.07706,39.08756],[-123.07729,39.0877],[-123.0776,39.08783],[-123.0779,39.08798],[-123.07832,39.08805]]}},{"type":"Feature","properties":{"name":"Scotts Creek Road","road_class":"unclassified","surface":"unpaved","source":"Caltrans All Roads + OpenStreetMap explicit surface","source_detail":"osm way 10262386; Caltrans All Roads public-network geometry match","source_tile":"162/391","public_network_source":"Caltrans All Roads (ARNOLD/HPMS)","surface_source":"OpenStreetMap explicit surface tag","caltrans_match_coverage":0.978,"verified_length_m":22228},"geometry":{"type":"LineString","coordinates":[[-122.94998,39.0464],[-122.95008,39.04643],[-122.95019,39.04649],[-122.95037,39.04656],[-122.95059,39.04658],[-122.95071,39.04657],[-122.95084,39.04654],[-122.95125,39.04639],[-122.95155,39.04631],[-122.95271,39.04613],[-122.9534,39.04602],[-122.95419,39.04588],[-122.95433,39.04588],[-122.95447,39.04589],[-122.95522,39.04604],[-122.95537,39.04609],[-122.95577,39.04627],[-122.95622,39.04641],[-122.9571,39.04679],[-122.95741,39.04687],[-122.95775,39.04693],[-122.95833,39.04702],[-122.95861,39.04704],[-122.9589,39.04696],[-122.95916,39.04684],[-122.95939,39.0467],[-122.95956,39.04655],[-122.95986,39.04606],[-122.95993,39.04584],[-122.96,39.04546],[-122.96007,39.04513],[-122.96016,39.04491],[-122.96023,39.0448],[-122.96031,39.0447],[-122.96049,39.04451],[-122.9607,39.04438],[-122.96107,39.04418],[-122.96164,39.04396],[-122.96193,39.04391],[-122.96283,39.04389],[-122.96292,39.04389],[-122.96325,39.04393],[-122.96347,39.04398],[-122.96443,39.04428],[-122.96508,39.04443],[-122.9652,39.04444],[-122.96529,39.04443],[-122.96538,39.0444],[-122.96545,39.04434],[-122.96556,39.0442],[-122.96565,39.04401],[-122.96584,39.04374],[-122.96619,39.04321],[-122.96624,39.0429],[-122.96619,39.04258],[-122.96621,39.04236],[-122.96637,39.0418],[-122.96642,39.04169],[-122.96656,39.04147],[-122.96666,39.04137],[-122.96703,39.04091],[-122.96708,39.04083],[-122.96716,39.04057],[-122.96721,39.04048],[-122.96735,39.0403],[-122.96744,39.04023],[-122.96756,39.04016],[-122.96769,39.04011],[-122.9681,39.04],[-122.96825,39.04001],[-122.96866,39.03988],[-122.96907,39.03971],[-122.9695,39.03956],[-122.96958,39.03953],[-122.96979,39.0395],[-122.96998,39.03952],[-122.97004,39.03957],[-122.97008,39.03962],[-122.9701,39.0397],[-122.9701,39.03995],[-122.97013,39.04002],[-122.97019,39.04008],[-122.97035,39.04019],[-122.97045,39.04023],[-122.97079,39.0402],[-122.97094,39.04022],[-122.97104,39.0403],[-122.97116,39.04047],[-122.97123,39.04053],[-122.97143,39.04064],[-122.97229,39.04093],[-122.97267,39.04104],[-122.97289,39.04109],[-122.9731,39.04106],[-122.9734,39.04095],[-122.97374,39.04092],[-122.97383,39.04094],[-122.97391,39.04098],[-122.97397,39.04103],[-122.97404,39.04115],[-122.97408,39.04119],[-122.97417,39.04123],[-122.9744,39.04121],[-122.97452,39.04122],[-122.9749,39.04133],[-122.97508,39.04135],[-122.97543,39.04133],[-122.9756,39.04131],[-122.97578,39.04125],[-122.97595,39.04117],[-122.97612,39.04104],[-122.97688,39.04066],[-122.97732,39.0404],[-122.97739,39.0404],[-122.97773,39.04046],[-122.97803,39.04053],[-122.9784,39.04058],[-122.97877,39.04062],[-122.97906,39.04062],[-122.9792,39.0406],[-122.97931,39.04053],[-122.97937,39.04047],[-122.9794,39.0404],[-122.97939,39.04024],[-122.97943,39.04018],[-122.97952,39.04015],[-122.97963,39.04015],[-122.97995,39.04021],[-122.98011,39.04027],[-122.98024,39.04035],[-122.98039,39.04039],[-122.98063,39.04033],[-122.98095,39.04016],[-122.98103,39.04013],[-122.98112,39.04013],[-122.9812,39.04014],[-122.98127,39.04017],[-122.98153,39.04042],[-122.9821,39.04089],[-122.98228,39.04103],[-122.98251,39.04116],[-122.98294,39.0414],[-122.98307,39.04163],[-122.98328,39.04192],[-122.98343,39.0421],[-122.9836,39.0422],[-122.98377,39.0423],[-122.98392,39.04239],[-122.98405,39.04252],[-122.98423,39.04264],[-122.98429,39.04275],[-122.98428,39.04292],[-122.98421,39.04316],[-122.98425,39.04323],[-122.98437,39.04326],[-122.98453,39.04328],[-122.98464,39.04333],[-122.98466,39.0434],[-122.98463,39.04347],[-122.98458,39.04354],[-122.9845,39.0436],[-122.98442,39.04371],[-122.98436,39.04383],[-122.98434,39.04391],[-122.98435,39.04448],[-122.9844,39.04472],[-122.98449,39.04488],[-122.98457,39.04495],[-122.98472,39.04503],[-122.98486,39.04507],[-122.98493,39.04504],[-122.98495,39.04501],[-122.98489,39.04486],[-122.98491,39.04472],[-122.98504,39.04449],[-122.98514,39.04428],[-122.9852,39.04423],[-122.98524,39.04423],[-122.98527,39.04425],[-122.98528,39.04429],[-122.98523,39.04441],[-122.98524,39.04449],[-122.98529,39.04461],[-122.98534,39.04468],[-122.98545,39.04475],[-122.98561,39.04481],[-122.986,39.04489],[-122.98619,39.04495],[-122.987,39.04538],[-122.98721,39.04552],[-122.98769,39.04609],[-122.9878,39.04626],[-122.98797,39.04647],[-122.98804,39.04658],[-122.98812,39.04678],[-122.98812,39.04692],[-122.9881,39.04706],[-122.9881,39.0472],[-122.98814,39.04733],[-122.98823,39.04745],[-122.98835,39.04756],[-122.98848,39.04763],[-122.98856,39.04766],[-122.98909,39.04776],[-122.98918,39.04776],[-122.98933,39.04772],[-122.98955,39.04747],[-122.98966,39.0474],[-122.9901,39.04719],[-122.99044,39.04698],[-122.99051,39.04696],[-122.99058,39.04697],[-122.99071,39.04704],[-122.99094,39.04725],[-122.99158,39.04777],[-122.99171,39.04783],[-122.99195,39.04788],[-122.992,39.04792],[-122.99202,39.04796],[-122.99199,39.04812],[-122.992,39.04818],[-122.99205,39.04821],[-122.9921,39.04821],[-122.99218,39.04816],[-122.99238,39.04777],[-122.99247,39.04766],[-122.99267,39.04752],[-122.99275,39.04749],[-122.99292,39.04748],[-122.99307,39.04751],[-122.99321,39.04755],[-122.99346,39.04773],[-122.99357,39.04778],[-122.99405,39.04783],[-122.99438,39.0479],[-122.99456,39.04797],[-122.99471,39.04807],[-122.99488,39.04814],[-122.99507,39.04817],[-122.99547,39.04817],[-122.99553,39.04819],[-122.99571,39.04839],[-122.99584,39.04848],[-122.99596,39.04853],[-122.99608,39.04855],[-122.9962,39.04852],[-122.99624,39.04848],[-122.99629,39.04837],[-122.99628,39.04819],[-122.99619,39.04794],[-122.99617,39.0478],[-122.9962,39.04766],[-122.99627,39.04749],[-122.99632,39.04725],[-122.99642,39.04706],[-122.99655,39.04689],[-122.99686,39.04664],[-122.99696,39.04636],[-122.99701,39.0463],[-122.99707,39.04626],[-122.99712,39.04625],[-122.9972,39.04627],[-122.99731,39.04647],[-122.99743,39.04658],[-122.99751,39.04663],[-122.9977,39.04669],[-122.9978,39.04669],[-122.9979,39.04669],[-122.99809,39.04663],[-122.99825,39.04655],[-122.99853,39.04636],[-122.99868,39.0463],[-122.99885,39.04628],[-122.9992,39.04631],[-122.99939,39.04627],[-122.99957,39.04626],[-122.99968,39.04629],[-122.99976,39.04633],[-122.99999,39.04649],[-123.00008,39.04654],[-123.00029,39.04658],[-123.00058,39.04655],[-123.00077,39.04657],[-123.00102,39.04669],[-123.00129,39.04676],[-123.00139,39.04677],[-123.00158,39.04675],[-123.00213,39.04663],[-123.00227,39.04665],[-123.00242,39.04674],[-123.00248,39.04676],[-123.00269,39.04678],[-123.00292,39.04682],[-123.00298,39.04682],[-123.00305,39.04676],[-123.00307,39.04672],[-123.00302,39.04656],[-123.00299,39.0465],[-123.00297,39.0462],[-123.00301,39.04604],[-123.00313,39.04581],[-123.00325,39.04568],[-123.00348,39.04552],[-123.00363,39.04539],[-123.00378,39.04517],[-123.00384,39.04512],[-123.00389,39.04507],[-123.00399,39.04505],[-123.00404,39.04509],[-123.00405,39.04517],[-123.00398,39.04549],[-123.004,39.04563],[-123.0041,39.04584],[-123.00432,39.04607],[-123.00436,39.04617],[-123.00448,39.04631],[-123.00458,39.04634],[-123.00483,39.04635],[-123.00542,39.0463],[-123.00569,39.04625],[-123.00587,39.04625],[-123.00611,39.04627],[-123.00678,39.04644],[-123.00744,39.04669],[-123.00814,39.04692],[-123.00838,39.04698],[-123.00862,39.04698],[-123.00873,39.04696],[-123.00882,39.04691],[-123.0089,39.04685],[-123.00902,39.04671],[-123.00914,39.04646],[-123.00921,39.04618],[-123.00932,39.046],[-123.0094,39.04593],[-123.0095,39.0459],[-123.0096,39.04587],[-123.00971,39.04586],[-123.00983,39.04587],[-123.00995,39.04591],[-123.01015,39.04601],[-123.01023,39.04608],[-123.01041,39.0463],[-123.01053,39.04642],[-123.0107,39.04651],[-123.01084,39.04654],[-123.01091,39.04657],[-123.01135,39.04664],[-123.01205,39.04666],[-123.01256,39.04671],[-123.01267,39.04674],[-123.01276,39.04678],[-123.01282,39.04684],[-123.01302,39.04713],[-123.01309,39.0472],[-123.01317,39.04724],[-123.01326,39.04726],[-123.01336,39.04727],[-123.01392,39.04724],[-123.01403,39.04726],[-123.01413,39.04731],[-123.01422,39.04737],[-123.01438,39.04753],[-123.0147,39.04791],[-123.01487,39.04818],[-123.01492,39.04821],[-123.01504,39.04823],[-123.01518,39.04819],[-123.01546,39.04805],[-123.01561,39.04802],[-123.01569,39.04804],[-123.01575,39.04808],[-123.01593,39.04825],[-123.0162,39.04839],[-123.01628,39.04846],[-123.01634,39.04854],[-123.01644,39.04879],[-123.01649,39.04886],[-123.01655,39.04891],[-123.01668,39.04896],[-123.01685,39.04895],[-123.01702,39.04888],[-123.01715,39.04878],[-123.01719,39.04872],[-123.01722,39.0486],[-123.01726,39.04823],[-123.01717,39.04788],[-123.01717,39.04782],[-123.01718,39.04776],[-123.01724,39.04771],[-123.01732,39.04768],[-123.01751,39.0477],[-123.01786,39.04778],[-123.01828,39.04793],[-123.01845,39.04792],[-123.01903,39.04771],[-123.01918,39.04754],[-123.01925,39.04749],[-123.01965,39.04731],[-123.01976,39.04728],[-123.01999,39.04729],[-123.0205,39.0474],[-123.02096,39.04745],[-123.0217,39.04742],[-123.02186,39.04747],[-123.02192,39.04751],[-123.02216,39.04765],[-123.02223,39.04771],[-123.02233,39.04784],[-123.02244,39.04805],[-123.02251,39.04826],[-123.02251,39.04841],[-123.02245,39.04863],[-123.02245,39.04879],[-123.02265,39.04917],[-123.02281,39.0494],[-123.02293,39.04963],[-123.02303,39.04975],[-123.02334,39.0499],[-123.0236,39.05009],[-123.02369,39.05011],[-123.02373,39.05011],[-123.02379,39.05009],[-123.02383,39.05005],[-123.02398,39.04971],[-123.0241,39.04959],[-123.02419,39.04956],[-123.02464,39.04945],[-123.0249,39.04937],[-123.02516,39.04927],[-123.02543,39.04915],[-123.02573,39.04904],[-123.02595,39.04899],[-123.0263,39.04894],[-123.02641,39.04891],[-123.02678,39.0487],[-123.02699,39.04862],[-123.0271,39.0486],[-123.02745,39.04859],[-123.02756,39.04857],[-123.02806,39.04838],[-123.02849,39.04826],[-123.02865,39.04816],[-123.02883,39.04794],[-123.02894,39.04787],[-123.02903,39.04784],[-123.02937,39.0478],[-123.02993,39.04778],[-123.03006,39.04776],[-123.03031,39.04769],[-123.03042,39.04765],[-123.03121,39.04715],[-123.03138,39.04709],[-123.03147,39.04707],[-123.03166,39.04707],[-123.03265,39.04723],[-123.03287,39.04725],[-123.03326,39.04723],[-123.03358,39.04718],[-123.0338,39.04712],[-123.03397,39.04702],[-123.03421,39.04683],[-123.03428,39.04679],[-123.03467,39.04676],[-123.03533,39.04675],[-123.03561,39.04678],[-123.0362,39.04687],[-123.0367,39.04687],[-123.03764,39.04685],[-123.03795,39.04689],[-123.03816,39.04689],[-123.03833,39.04693],[-123.0384,39.04698],[-123.03846,39.04704],[-123.03861,39.04727],[-123.03875,39.04738],[-123.0389,39.04743],[-123.03916,39.04746],[-123.03924,39.04749],[-123.03931,39.04755],[-123.03958,39.04786],[-123.03974,39.04799],[-123.03983,39.04802],[-123.0399,39.04802],[-123.04032,39.04793],[-123.04053,39.04794],[-123.04063,39.04797],[-123.04073,39.04802],[-123.04107,39.04828],[-123.04126,39.0484],[-123.04148,39.04848],[-123.04169,39.04852],[-123.042,39.04856],[-123.04262,39.04866],[-123.04332,39.04873],[-123.04344,39.04874],[-123.04357,39.04873],[-123.04403,39.04878],[-123.04461,39.04882],[-123.04481,39.04882],[-123.04504,39.04881],[-123.04541,39.04868],[-123.04551,39.04867],[-123.0456,39.04868],[-123.04586,39.0488],[-123.04597,39.04882],[-123.0462,39.04881],[-123.04641,39.04884],[-123.04661,39.04885],[-123.04669,39.04888],[-123.04676,39.04892],[-123.04689,39.0491],[-123.04695,39.04915],[-123.04703,39.04921],[-123.04712,39.04924],[-123.04721,39.04926],[-123.04752,39.04923],[-123.04779,39.04915],[-123.04789,39.04913],[-123.04812,39.04916],[-123.04818,39.04918],[-123.04821,39.0492],[-123.04823,39.04924],[-123.04822,39.04927],[-123.04802,39.04956],[-123.04802,39.04967],[-123.04821,39.04979],[-123.04847,39.0499],[-123.04865,39.05018],[-123.04888,39.05034],[-123.04891,39.0504],[-123.0489,39.05045],[-123.04886,39.0505],[-123.04864,39.05062],[-123.04821,39.05079],[-123.04813,39.05081],[-123.04785,39.05082],[-123.04767,39.05084],[-123.04714,39.051],[-123.04704,39.05105],[-123.047,39.05109],[-123.04697,39.05113],[-123.04697,39.05123],[-123.04703,39.05133],[-123.04719,39.05146],[-123.04724,39.0516],[-123.04725,39.05178],[-123.0473,39.05203],[-123.04726,39.05227],[-123.04729,39.0526],[-123.04728,39.05266],[-123.04724,39.05273],[-123.04719,39.05276],[-123.04713,39.05278],[-123.04706,39.05278],[-123.047,39.05275],[-123.04682,39.05261],[-123.04664,39.05251],[-123.04643,39.05244],[-123.04612,39.05239],[-123.04591,39.05242],[-123.04575,39.05249],[-123.04568,39.05254],[-123.04558,39.05267],[-123.04553,39.05281],[-123.04564,39.0532],[-123.0457,39.05335],[-123.04609,39.05382],[-123.04623,39.05393],[-123.04675,39.0542],[-123.04692,39.05426],[-123.04718,39.05428],[-123.04731,39.05434],[-123.04735,39.05438],[-123.04746,39.05458],[-123.0476,39.05478],[-123.04773,39.05504],[-123.04796,39.05541],[-123.04805,39.05547],[-123.04815,39.0555],[-123.04829,39.0555],[-123.0484,39.05547],[-123.04847,39.05545],[-123.04871,39.05532],[-123.04878,39.05525],[-123.04882,39.05523],[-123.04888,39.0552],[-123.04902,39.0552],[-123.04916,39.05529],[-123.0494,39.05542],[-123.04955,39.05544],[-123.0497,39.05544],[-123.05048,39.05554],[-123.051,39.05573],[-123.05114,39.05574],[-123.05145,39.05569],[-123.05163,39.0557],[-123.05182,39.05573],[-123.05198,39.05583],[-123.05211,39.05606],[-123.05224,39.05619],[-123.05244,39.05629],[-123.05281,39.05653],[-123.05314,39.05696],[-123.05326,39.05708],[-123.0534,39.05731],[-123.0536,39.0575],[-123.05368,39.05755],[-123.05398,39.05759],[-123.05414,39.05765],[-123.0542,39.05771],[-123.05424,39.05791],[-123.05436,39.05809],[-123.05444,39.05828],[-123.05453,39.05842],[-123.05473,39.05861],[-123.055,39.05881],[-123.05518,39.05891],[-123.05555,39.05896],[-123.05585,39.05904],[-123.05601,39.05914],[-123.05624,39.05935],[-123.05651,39.05955],[-123.0569,39.05978],[-123.05794,39.06008],[-123.05828,39.06011],[-123.0587,39.06013],[-123.05887,39.06012],[-123.05899,39.06006],[-123.05903,39.06001],[-123.0591,39.05982],[-123.05918,39.05954],[-123.05932,39.05923],[-123.0598,39.05855],[-123.05996,39.0584],[-123.06005,39.05835],[-123.06026,39.05826],[-123.06048,39.05819],[-123.06061,39.05818],[-123.06073,39.05819],[-123.06085,39.05822],[-123.06107,39.05829],[-123.06192,39.05864],[-123.06214,39.05874],[-123.06234,39.05884],[-123.06257,39.05903],[-123.06272,39.05918],[-123.06282,39.05922],[-123.06289,39.05921],[-123.06295,39.05916],[-123.06294,39.05908],[-123.06262,39.0586],[-123.06239,39.05838],[-123.06223,39.05828],[-123.06212,39.05815],[-123.0621,39.05807],[-123.06216,39.05801],[-123.06221,39.05801],[-123.06242,39.05806],[-123.06324,39.0581],[-123.06348,39.05816],[-123.06358,39.05817],[-123.06376,39.05814],[-123.06392,39.05817],[-123.06408,39.05822],[-123.06419,39.05828],[-123.0645,39.05864],[-123.06495,39.05883],[-123.06504,39.05906],[-123.06512,39.05916],[-123.06555,39.05953],[-123.06578,39.05974],[-123.06587,39.05985],[-123.06605,39.06013],[-123.06617,39.06024],[-123.06627,39.06028],[-123.06636,39.06029],[-123.0667,39.06027],[-123.06678,39.06027],[-123.06688,39.06031],[-123.06697,39.06038],[-123.06722,39.06072],[-123.0673,39.06078],[-123.06748,39.06085],[-123.0676,39.06088],[-123.06779,39.06088],[-123.06785,39.06086],[-123.06837,39.06062],[-123.06856,39.06056],[-123.06865,39.06055],[-123.06896,39.06056],[-123.06914,39.06061],[-123.06923,39.06066],[-123.06933,39.06077],[-123.06937,39.06084],[-123.06939,39.06098],[-123.06939,39.06117],[-123.06927,39.06149],[-123.06926,39.06156],[-123.06927,39.06171],[-123.06932,39.06183],[-123.0694,39.06194],[-123.06965,39.06214],[-123.06994,39.06233],[-123.07009,39.06241],[-123.07016,39.06243],[-123.07027,39.06244],[-123.07094,39.06232],[-123.07103,39.06231],[-123.07111,39.06233],[-123.07125,39.06239],[-123.07147,39.06254],[-123.07158,39.06257],[-123.07304,39.06256],[-123.0732,39.06257],[-123.07328,39.06259],[-123.07339,39.06265],[-123.07343,39.06269],[-123.07348,39.06282],[-123.07345,39.06294],[-123.07316,39.06346],[-123.07317,39.06356],[-123.07322,39.06363],[-123.0734,39.06373],[-123.07415,39.06395],[-123.07442,39.064],[-123.07526,39.06405],[-123.07541,39.06408],[-123.07554,39.06413],[-123.07563,39.0642],[-123.07569,39.06427],[-123.07571,39.06434],[-123.07567,39.06478],[-123.07573,39.06491],[-123.07584,39.06501],[-123.07592,39.06503],[-123.07611,39.06504],[-123.07705,39.06492],[-123.07771,39.06486],[-123.07791,39.06489],[-123.078,39.06492],[-123.07806,39.06497],[-123.07815,39.06507],[-123.07822,39.06551],[-123.07826,39.06578],[-123.07832,39.0662],[-123.07841,39.06647],[-123.07847,39.06655],[-123.07861,39.0667],[-123.07905,39.06709],[-123.07938,39.06742],[-123.07972,39.06781],[-123.07979,39.06794],[-123.0798,39.06823],[-123.07985,39.06834],[-123.07991,39.06844],[-123.08012,39.06863],[-123.08046,39.06886],[-123.08056,39.06891],[-123.08069,39.06907],[-123.08073,39.06924],[-123.08065,39.0694],[-123.08059,39.06955],[-123.0805,39.0697],[-123.08049,39.06977],[-123.0805,39.06984],[-123.08062,39.07002],[-123.08122,39.07073],[-123.08144,39.07095],[-123.08165,39.07111],[-123.08196,39.0713],[-123.08205,39.07142],[-123.08217,39.07171],[-123.08228,39.07184],[-123.08252,39.07199],[-123.08281,39.07209],[-123.08321,39.0722],[-123.08342,39.07226],[-123.08363,39.07234],[-123.08383,39.07244],[-123.08441,39.07288],[-123.08462,39.07303],[-123.08478,39.07311],[-123.08496,39.07317],[-123.08544,39.07327],[-123.08549,39.07335],[-123.08551,39.07365],[-123.08555,39.07388],[-123.08562,39.07404],[-123.08582,39.07437],[-123.08597,39.07447],[-123.08605,39.07449],[-123.08614,39.0745],[-123.08639,39.07448],[-123.08669,39.07449],[-123.08677,39.07451],[-123.08682,39.07455],[-123.08685,39.07459],[-123.08686,39.07467],[-123.08682,39.07492],[-123.08683,39.07505],[-123.08692,39.07542],[-123.08688,39.07553],[-123.08674,39.07572],[-123.08672,39.07586],[-123.08678,39.0761],[-123.08688,39.07626],[-123.0871,39.07648],[-123.08715,39.07655],[-123.08718,39.07662],[-123.08719,39.07669],[-123.08713,39.07699],[-123.08716,39.07724],[-123.08726,39.07748],[-123.08731,39.07755],[-123.08754,39.07773],[-123.08777,39.07784],[-123.08796,39.07783],[-123.0883,39.07781],[-123.08845,39.07785],[-123.08868,39.07796],[-123.0888,39.07804],[-123.08884,39.0781],[-123.08886,39.07817],[-123.08885,39.07823],[-123.08869,39.07852],[-123.08867,39.07868],[-123.08873,39.07893],[-123.08884,39.0792],[-123.08895,39.07939],[-123.08913,39.07956],[-123.08918,39.07968],[-123.08918,39.07975],[-123.08909,39.08012],[-123.0891,39.08032],[-123.0892,39.08052],[-123.0892,39.08059],[-123.08917,39.08076],[-123.08919,39.08083],[-123.08938,39.08108],[-123.0894,39.08114],[-123.0894,39.08121],[-123.08935,39.08134],[-123.08934,39.08142],[-123.08938,39.08156],[-123.08947,39.08169],[-123.08954,39.08173],[-123.08996,39.08186],[-123.09002,39.08191],[-123.09007,39.08196],[-123.09009,39.08203],[-123.0901,39.08211],[-123.09004,39.08232],[-123.09009,39.08243],[-123.09037,39.08276],[-123.09055,39.08307],[-123.09061,39.08313],[-123.09086,39.0833],[-123.09089,39.08334],[-123.09093,39.08356],[-123.09096,39.08362],[-123.09127,39.08388],[-123.09141,39.08397],[-123.09149,39.084],[-123.09157,39.08402],[-123.09172,39.08403],[-123.09201,39.08397],[-123.09209,39.08397],[-123.09223,39.08403],[-123.09241,39.08425],[-123.09248,39.08438],[-123.09249,39.08453],[-123.09245,39.08476],[-123.09249,39.0849],[-123.09258,39.08499],[-123.09272,39.08506],[-123.09295,39.08508],[-123.09352,39.08504],[-123.09371,39.08504],[-123.09385,39.08507],[-123.09396,39.08514],[-123.09401,39.08523],[-123.094,39.08563],[-123.09404,39.08586],[-123.09413,39.08608],[-123.09422,39.08623],[-123.09442,39.08646],[-123.09469,39.08664],[-123.0948,39.08678],[-123.09486,39.08698],[-123.09495,39.08707],[-123.09509,39.08717],[-123.09523,39.08741],[-123.09533,39.08753],[-123.09557,39.08762],[-123.09577,39.08778],[-123.09586,39.08794],[-123.09588,39.08809],[-123.09593,39.08823],[-123.0963,39.08862],[-123.09631,39.08885],[-123.09617,39.08895],[-123.0959,39.08902],[-123.09568,39.08902],[-123.09548,39.08899],[-123.09538,39.08904],[-123.0953,39.08913],[-123.09522,39.08919],[-123.09511,39.08921],[-123.09501,39.08921],[-123.09465,39.08902],[-123.09451,39.08897],[-123.09432,39.08895],[-123.09419,39.08895],[-123.09406,39.08896],[-123.09398,39.08903],[-123.09391,39.08911],[-123.09387,39.08922],[-123.09386,39.08936],[-123.09385,39.08953],[-123.09394,39.08967],[-123.09405,39.08978],[-123.09411,39.0899],[-123.09412,39.09013],[-123.09408,39.09045],[-123.09399,39.09063],[-123.09384,39.0908],[-123.09357,39.09106],[-123.09352,39.09115],[-123.09355,39.09126],[-123.0936,39.09131],[-123.09368,39.09136],[-123.0938,39.0914],[-123.09395,39.09141],[-123.09409,39.09139],[-123.09437,39.0913],[-123.0945,39.09132],[-123.09461,39.09138],[-123.09482,39.09155],[-123.09497,39.09158],[-123.09526,39.09154],[-123.09535,39.09155],[-123.09546,39.09158],[-123.09561,39.09174],[-123.09565,39.09188],[-123.09564,39.09197],[-123.09549,39.0922],[-123.0954,39.09227],[-123.09473,39.09254],[-123.09466,39.09259],[-123.09463,39.09264],[-123.09461,39.09274],[-123.09463,39.0928],[-123.09487,39.09311],[-123.09489,39.09319],[-123.09487,39.09326],[-123.09481,39.09332],[-123.09458,39.09346],[-123.09454,39.09351],[-123.0944,39.09428],[-123.09435,39.09435],[-123.09428,39.09439],[-123.09422,39.09441],[-123.0941,39.09439],[-123.09399,39.09435],[-123.09384,39.09423],[-123.0937,39.09416],[-123.0936,39.09418],[-123.09347,39.09425],[-123.09329,39.09438],[-123.09319,39.09449],[-123.09304,39.09453],[-123.09291,39.09455],[-123.0924,39.09452],[-123.09211,39.09454],[-123.09201,39.0946],[-123.09197,39.09466],[-123.09201,39.09477],[-123.09198,39.09491],[-123.09192,39.09507],[-123.09176,39.09518],[-123.09159,39.09523],[-123.09156,39.09527],[-123.09149,39.09537],[-123.09139,39.09572],[-123.09133,39.09582],[-123.09119,39.09595],[-123.09096,39.09613],[-123.09094,39.09616],[-123.09101,39.0965],[-123.091,39.0966],[-123.09096,39.09675],[-123.09055,39.09742],[-123.09043,39.09756],[-123.09031,39.09765],[-123.09015,39.09774],[-123.08984,39.09783],[-123.08956,39.09794],[-123.08938,39.09792],[-123.08919,39.09782],[-123.08901,39.09781],[-123.08844,39.09788],[-123.08797,39.09795],[-123.08745,39.09815],[-123.08723,39.0982],[-123.08707,39.09822],[-123.08688,39.09821],[-123.08682,39.09819],[-123.08661,39.09809],[-123.08589,39.09776],[-123.08563,39.09761],[-123.0853,39.09731],[-123.08514,39.09723],[-123.08494,39.09717],[-123.08485,39.09717],[-123.08462,39.09725],[-123.08445,39.09733],[-123.08429,39.09745],[-123.08416,39.0976]]}},{"type":"Feature","properties":{"name":"(unnamed public road)","road_class":"track","surface":"dirt","source":"Caltrans All Roads + OpenStreetMap explicit surface","source_detail":"osm way 654322804; Caltrans All Roads public-network geometry match","source_tile":"162/391","public_network_source":"Caltrans All Roads (ARNOLD/HPMS)","surface_source":"OpenStreetMap explicit surface tag","caltrans_match_coverage":1.0,"verified_length_m":815},"geometry":{"type":"LineString","coordinates":[[-123.04129,39.01192],[-123.04138,39.012],[-123.04145,39.01205],[-123.04149,39.01214],[-123.0415,39.01226],[-123.0415,39.0124],[-123.04154,39.01246],[-123.04158,39.0125],[-123.04163,39.01251],[-123.04171,39.01249],[-123.0418,39.01248],[-123.0419,39.01249],[-123.04199,39.01251],[-123.04206,39.01256],[-123.04221,39.01271],[-123.04227,39.01275],[-123.0424,39.01278],[-123.04255,39.01281],[-123.04271,39.01283],[-123.04292,39.01287],[-123.04306,39.0129],[-123.04324,39.01291],[-123.04339,39.01292],[-123.0435,39.01297],[-123.04369,39.01305],[-123.04396,39.01315],[-123.04412,39.0132],[-123.0442,39.01326],[-123.04428,39.01336],[-123.04443,39.01355],[-123.04452,39.01364],[-123.04466,39.01375],[-123.04476,39.01381],[-123.04486,39.01384],[-123.04493,39.01382],[-123.045,39.01381],[-123.04505,39.01381],[-123.04513,39.01384],[-123.04521,39.0139],[-123.04528,39.01399],[-123.04533,39.01409],[-123.04535,39.01416],[-123.04536,39.01422],[-123.04537,39.0144],[-123.0454,39.0145],[-123.04544,39.01457],[-123.04549,39.01461],[-123.04556,39.01462],[-123.04568,39.01462],[-123.04588,39.01466],[-123.04599,39.01467],[-123.04607,39.01467],[-123.04618,39.01462],[-123.04628,39.01456],[-123.04638,39.0145],[-123.04643,39.01448],[-123.04648,39.01449],[-123.04657,39.01453],[-123.04669,39.01461],[-123.04682,39.01473],[-123.047,39.01489],[-123.04715,39.01503],[-123.04723,39.01514],[-123.04735,39.01531],[-123.04738,39.01534],[-123.0474,39.01536],[-123.04744,39.01537],[-123.04748,39.01539],[-123.04756,39.0154],[-123.04764,39.01541],[-123.04771,39.01544],[-123.04777,39.01548],[-123.04791,39.01556],[-123.04804,39.01566]]}}]}