{"type":"FeatureCollection","features":[{"type":"Feature","properties":{"name":"Hillside Drive","road_class":"track","surface":"unpaved","source":"Caltrans All Roads + OpenStreetMap explicit surface","source_detail":"osm way 10328732; Caltrans All Roads public-network geometry match","source_tile":"167/392","public_network_source":"Caltrans All Roads (ARNOLD/HPMS)","surface_source":"OpenStreetMap explicit surface tag","caltrans_match_coverage":1.0,"verified_length_m":1470},"geometry":{"type":"LineString","coordinates":[[-120.9604,38.72927],[-120.96029,38.72936],[-120.95991,38.72937],[-120.9594,38.7294],[-120.95841,38.72946],[-120.95631,38.72948],[-120.95578,38.72952],[-120.95553,38.72971],[-120.95538,38.73011],[-120.95528,38.7305],[-120.95486,38.73113],[-120.95464,38.73148],[-120.9546,38.73206],[-120.95477,38.73246],[-120.95461,38.73298],[-120.95441,38.73363],[-120.95436,38.73402],[-120.95435,38.73416],[-120.95459,38.73444],[-120.95469,38.73465],[-120.95469,38.73486],[-120.95485,38.73508],[-120.95502,38.73528],[-120.95531,38.73546],[-120.9554,38.73556],[-120.95535,38.7357],[-120.95517,38.73578],[-120.95488,38.73588],[-120.95449,38.73592],[-120.9541,38.73611],[-120.95397,38.73627],[-120.95374,38.7364],[-120.95341,38.73648],[-120.95311,38.73646],[-120.95266,38.73659],[-120.95252,38.73656],[-120.9524,38.73646],[-120.95229,38.73623]]}},{"type":"Feature","properties":{"name":"Pinchem Lane","road_class":"unclassified","surface":"gravel","source":"Caltrans All Roads + OpenStreetMap explicit surface","source_detail":"osm way 785108300; Caltrans All Roads public-network geometry match","source_tile":"167/392","public_network_source":"Caltrans All Roads (ARNOLD/HPMS)","surface_source":"OpenStreetMap explicit surface tag","caltrans_match_coverage":1.0,"verified_length_m":727},"geometry":{"type":"LineString","coordinates":[[-120.97376,38.74296],[-120.97379,38.74319],[-120.97384,38.74353],[-120.97389,38.74378],[-120.9739,38.74387],[-120.97365,38.74462],[-120.97367,38.74489],[-120.97364,38.74516],[-120.97342,38.7457],[-120.97335,38.74584],[-120.97325,38.74584],[-120.97308,38.74575],[-120.97285,38.74563],[-120.97247,38.74549],[-120.97221,38.74544],[-120.97189,38.74549],[-120.9716,38.74564],[-120.97142,38.74578],[-120.97126,38.74601],[-120.97097,38.74635],[-120.97047,38.74662],[-120.97015,38.74733]]}}]}