{"type":"FeatureCollection","features":[{"type":"Feature","properties":{"name":"(unnamed public road)","road_class":"track","surface":"unpaved","motor_vehicle":"designated","access":"designated","source":"Caltrans All Roads + OpenStreetMap explicit surface","source_detail":"osm way 10457160; Caltrans All Roads public-network geometry match","source_tile":"167/401","public_network_source":"Caltrans All Roads (ARNOLD/HPMS)","surface_source":"OpenStreetMap explicit surface tag","caltrans_match_coverage":0.979,"verified_length_m":3485},"geometry":{"type":"LineString","coordinates":[[-121.28691,36.09306],[-121.28662,36.0928],[-121.28716,36.09271],[-121.28767,36.09244],[-121.28843,36.09248],[-121.29001,36.09155],[-121.29049,36.09126],[-121.29224,36.08984],[-121.29331,36.08913],[-121.29413,36.08846],[-121.29419,36.08819],[-121.29405,36.08769],[-121.29402,36.08684],[-121.29413,36.0865],[-121.29509,36.08487],[-121.2952,36.08412],[-121.29546,36.08343],[-121.29591,36.08279],[-121.29724,36.0813],[-121.29803,36.08068],[-121.29913,36.08038],[-121.29983,36.08034],[-121.29994,36.08034],[-121.30025,36.0801],[-121.30054,36.07988],[-121.30057,36.07949],[-121.30099,36.07839],[-121.30181,36.07784],[-121.30353,36.07713],[-121.30403,36.07715],[-121.30505,36.07725],[-121.30561,36.07755],[-121.30591,36.07759],[-121.30633,36.07737],[-121.30644,36.07737],[-121.30663,36.07744],[-121.30689,36.07756],[-121.30719,36.07775],[-121.30751,36.07795],[-121.30785,36.07798],[-121.30794,36.07802],[-121.308,36.07809],[-121.30807,36.07824],[-121.30825,36.07869],[-121.30847,36.07887],[-121.30885,36.07894],[-121.30926,36.07911],[-121.3095,36.07928],[-121.30968,36.07937],[-121.30988,36.0794],[-121.31038,36.0794],[-121.31048,36.07937],[-121.31054,36.0793],[-121.31062,36.07915],[-121.31068,36.07898],[-121.31071,36.07859],[-121.31064,36.07823],[-121.31037,36.07769]]}},{"type":"Feature","properties":{"name":"(unnamed public road)","road_class":"track","surface":"unpaved","source":"Caltrans All Roads + OpenStreetMap explicit surface","source_detail":"osm way 10449875; Caltrans All Roads public-network geometry match","source_tile":"168/401","public_network_source":"Caltrans All Roads (ARNOLD/HPMS)","surface_source":"OpenStreetMap explicit surface tag","caltrans_match_coverage":1.0,"verified_length_m":1834},"geometry":{"type":"LineString","coordinates":[[-120.93462,36.06942],[-120.93519,36.06905],[-120.93747,36.0696],[-120.93866,36.07008],[-120.93891,36.07065],[-120.93891,36.07097],[-120.93925,36.07242],[-120.93959,36.07338],[-120.93998,36.07397],[-120.9401,36.07434],[-120.94055,36.07503],[-120.94108,36.07548],[-120.94137,36.07555],[-120.94294,36.07686],[-120.94345,36.07718],[-120.94358,36.07749],[-120.94395,36.0777],[-120.94521,36.07961],[-120.94571,36.08006],[-120.94592,36.08042],[-120.94574,36.08065],[-120.94535,36.08087]]}},{"type":"Feature","properties":{"name":"(unnamed public road)","road_class":"track","surface":"unpaved","source":"Caltrans All Roads + OpenStreetMap explicit surface","source_detail":"osm way 10451491; Caltrans All Roads public-network geometry match","source_tile":"168/401","public_network_source":"Caltrans All Roads (ARNOLD/HPMS)","surface_source":"OpenStreetMap explicit surface tag","caltrans_match_coverage":0.997,"verified_length_m":8475},"geometry":{"type":"LineString","coordinates":[[-121.00211,36.12182],[-121.00109,36.12048],[-121.00087,36.12016],[-121.00019,36.11938],[-120.99975,36.11898],[-120.99926,36.11863],[-120.99782,36.11758],[-120.99747,36.11731],[-120.99727,36.11722],[-120.99709,36.11718],[-120.9967,36.1172],[-120.99639,36.11724],[-120.99604,36.11717],[-120.99562,36.11698],[-120.99523,36.11676],[-120.99465,36.11645],[-120.99414,36.11617],[-120.9927,36.1154],[-120.99216,36.11515],[-120.99086,36.11495],[-120.99071,36.11489],[-120.99064,36.11484],[-120.99048,36.11478],[-120.99033,36.11478],[-120.9901,36.11487],[-120.98992,36.11496],[-120.98969,36.11501],[-120.98837,36.11546],[-120.98802,36.11546],[-120.98752,36.11541],[-120.98704,36.11549],[-120.986,36.11574],[-120.98525,36.11584],[-120.98448,36.11602],[-120.98414,36.11609],[-120.9834,36.11629],[-120.98258,36.11677],[-120.9824,36.11691],[-120.98188,36.11728],[-120.98177,36.11734],[-120.98076,36.11802],[-120.98051,36.11838],[-120.98012,36.11871],[-120.97976,36.11891],[-120.97926,36.11932],[-120.97852,36.11954],[-120.97707,36.11978],[-120.9768,36.11982],[-120.97488,36.12062],[-120.97356,36.12096],[-120.97229,36.12106],[-120.97071,36.12199],[-120.97017,36.12281],[-120.96992,36.12319],[-120.96961,36.12355],[-120.96907,36.12376],[-120.96898,36.12378],[-120.96814,36.12392],[-120.96684,36.12399],[-120.96016,36.12358],[-120.95968,36.12365],[-120.95931,36.12392],[-120.95835,36.12436],[-120.95759,36.12449],[-120.9566,36.12497],[-120.95567,36.1253],[-120.95522,36.12497],[-120.95509,36.12478],[-120.95482,36.12472],[-120.95447,36.12476],[-120.95423,36.1249],[-120.9539,36.12497],[-120.95234,36.12534],[-120.95136,36.12574],[-120.95017,36.12673],[-120.94952,36.12709],[-120.94856,36.12719],[-120.9482,36.12727],[-120.94758,36.12748],[-120.94693,36.12781],[-120.94683,36.12786],[-120.94651,36.12803],[-120.94622,36.12824],[-120.94606,36.12839],[-120.94583,36.1286],[-120.94545,36.12906],[-120.94512,36.12948],[-120.94474,36.12979],[-120.94353,36.13041],[-120.94278,36.13062],[-120.94114,36.1307],[-120.94086,36.13063],[-120.94067,36.13043],[-120.94056,36.13015],[-120.94037,36.12852],[-120.94001,36.12725],[-120.94005,36.12666],[-120.94041,36.12629],[-120.9404,36.1262],[-120.94044,36.12602],[-120.94066,36.12561],[-120.94159,36.12529],[-120.94205,36.12497],[-120.94239,36.12445],[-120.94241,36.12425],[-120.94215,36.12418],[-120.94151,36.12415],[-120.94125,36.1241],[-120.94087,36.12374],[-120.94069,36.1234],[-120.94077,36.12273],[-120.9412,36.12199],[-120.9414,36.12131],[-120.94135,36.12062],[-120.94114,36.1199],[-120.9409,36.11933],[-120.94069,36.11839],[-120.94059,36.11814],[-120.94035,36.11789],[-120.94005,36.11804],[-120.93935,36.11816],[-120.93902,36.1183],[-120.93866,36.11853],[-120.93834,36.11865],[-120.93758,36.11887],[-120.93717,36.11909],[-120.93703,36.11911],[-120.93696,36.11908],[-120.93687,36.11889]]}},{"type":"Feature","properties":{"name":"Reliz Canyon Road","road_class":"track","surface":"unpaved","motor_vehicle":"designated","access":"designated","source":"Caltrans All Roads + OpenStreetMap explicit surface","source_detail":"osm way 10462895; Caltrans All Roads public-network geometry match","source_tile":"167/401","public_network_source":"Caltrans All Roads (ARNOLD/HPMS)","surface_source":"OpenStreetMap explicit surface tag","caltrans_match_coverage":1.0,"verified_length_m":20305},"geometry":{"type":"LineString","coordinates":[[-121.26093,36.07817],[-121.26008,36.07807],[-121.25956,36.07802],[-121.25887,36.07824],[-121.2573,36.07886],[-121.25537,36.07905],[-121.25488,36.07917],[-121.25459,36.0793],[-121.25426,36.07948],[-121.25401,36.07964],[-121.25388,36.07979],[-121.25382,36.07996],[-121.25376,36.08015],[-121.25367,36.08036],[-121.25353,36.08052],[-121.25342,36.08064],[-121.25323,36.08096],[-121.25303,36.08113],[-121.25287,36.08123],[-121.25267,36.08138],[-121.25259,36.08154],[-121.2525,36.0818],[-121.25241,36.08192],[-121.25232,36.08206],[-121.25213,36.08229],[-121.25195,36.08243],[-121.25191,36.08258],[-121.25183,36.08279],[-121.25183,36.08295],[-121.25151,36.08316],[-121.25122,36.08324],[-121.25094,36.08338],[-121.25079,36.08348],[-121.2506,36.08377],[-121.25038,36.08406],[-121.25026,36.08441],[-121.24984,36.08459],[-121.24943,36.08491],[-121.24916,36.08536],[-121.24904,36.0856],[-121.24908,36.086],[-121.24916,36.08629],[-121.24909,36.08653],[-121.24877,36.08679],[-121.24863,36.0869],[-121.24834,36.08689],[-121.24804,36.08713],[-121.24796,36.08736],[-121.24767,36.08763],[-121.24723,36.08772],[-121.2468,36.08799],[-121.24626,36.08808],[-121.24583,36.08809],[-121.24551,36.08801],[-121.24448,36.08787],[-121.24419,36.08792],[-121.24403,36.08787],[-121.24359,36.08772],[-121.24338,36.08768],[-121.24325,36.08772],[-121.24274,36.08736],[-121.24247,36.08726],[-121.24184,36.0873],[-121.24154,36.08726],[-121.24134,36.08723],[-121.24128,36.08732],[-121.24135,36.08743],[-121.24152,36.08749],[-121.24158,36.08759],[-121.24158,36.08783],[-121.24169,36.08831],[-121.24162,36.08851],[-121.24127,36.08859],[-121.24121,36.08886],[-121.24136,36.08928],[-121.24166,36.08955],[-121.24161,36.08965],[-121.24119,36.08964],[-121.24056,36.08948],[-121.23982,36.08939],[-121.23906,36.08946],[-121.23847,36.08957],[-121.2378,36.08953],[-121.23748,36.08955],[-121.23729,36.08957],[-121.23724,36.08965],[-121.23725,36.08971],[-121.23731,36.08979],[-121.23736,36.08989],[-121.23731,36.09004],[-121.2372,36.09016],[-121.23695,36.09023],[-121.23652,36.09042],[-121.23626,36.09061],[-121.23592,36.09081],[-121.23587,36.09088],[-121.23595,36.091],[-121.236,36.09111],[-121.23606,36.0913],[-121.23618,36.09144],[-121.23618,36.09166],[-121.23603,36.09198],[-121.23595,36.09224],[-121.23594,36.09235],[-121.23598,36.09237],[-121.23601,36.09245],[-121.23607,36.09252],[-121.23625,36.09274],[-121.2363,36.09318],[-121.23625,36.09339],[-121.23611,36.09357],[-121.23596,36.0938],[-121.23584,36.09426],[-121.23599,36.09434],[-121.23617,36.09419],[-121.23648,36.09405],[-121.23683,36.09412],[-121.23695,36.09449],[-121.23709,36.09475],[-121.23715,36.09499],[-121.23707,36.09519],[-121.23709,36.09544],[-121.23703,36.09567],[-121.23723,36.09605],[-121.2374,36.09647],[-121.23756,36.09654],[-121.23779,36.09665],[-121.23783,36.09686],[-121.23784,36.0971],[-121.23793,36.09731],[-121.23797,36.09747],[-121.23789,36.09773],[-121.2377,36.09814],[-121.2375,36.09839],[-121.23664,36.09919],[-121.23677,36.0993],[-121.23737,36.09953],[-121.23768,36.09968],[-121.23787,36.09997],[-121.23812,36.10019],[-121.23823,36.10041],[-121.23818,36.10067],[-121.238,36.10101],[-121.23807,36.10106],[-121.23831,36.101],[-121.23855,36.10093],[-121.2389,36.10109],[-121.239,36.10136],[-121.23849,36.10217],[-121.23845,36.10239],[-121.23858,36.1026],[-121.23879,36.10263],[-121.23905,36.10256],[-121.23991,36.10246],[-121.24033,36.10228],[-121.24049,36.10224],[-121.24084,36.10219],[-121.24098,36.10223],[-121.24114,36.10229],[-121.24118,36.10241],[-121.24133,36.10265],[-121.24145,36.10277],[-121.24154,36.103],[-121.24158,36.10313],[-121.24147,36.10337],[-121.24162,36.10347],[-121.24199,36.10343],[-121.24212,36.10355],[-121.2422,36.10397],[-121.24227,36.10416],[-121.24259,36.10443],[-121.24282,36.10459],[-121.24299,36.10468],[-121.24323,36.10477],[-121.24331,36.10477],[-121.2437,36.10474],[-121.24423,36.10508],[-121.24432,36.10546],[-121.24447,36.10578],[-121.24456,36.10617],[-121.24455,36.10641],[-121.24457,36.10671],[-121.24465,36.10709],[-121.24468,36.10733],[-121.2446,36.10753],[-121.24477,36.10829],[-121.24501,36.10883],[-121.24528,36.10904],[-121.2455,36.10927],[-121.24565,36.10945],[-121.2459,36.10977],[-121.24593,36.11003],[-121.24584,36.11023],[-121.24581,36.11046],[-121.24669,36.11035],[-121.24715,36.11036],[-121.24751,36.11058],[-121.24798,36.111],[-121.24862,36.11146],[-121.24914,36.11221],[-121.24929,36.11308],[-121.24938,36.11359],[-121.24948,36.11393],[-121.24954,36.11411],[-121.24959,36.11421],[-121.24975,36.11458],[-121.24988,36.11506],[-121.25005,36.11547],[-121.25018,36.11583],[-121.2504,36.11624],[-121.25045,36.11646],[-121.25053,36.11694],[-121.2509,36.11722],[-121.25135,36.11778],[-121.25192,36.1181],[-121.25242,36.11793],[-121.25297,36.11796],[-121.25425,36.11817],[-121.25456,36.11831],[-121.25515,36.11883],[-121.25567,36.11923],[-121.25689,36.11977],[-121.25726,36.11999],[-121.25747,36.12026],[-121.25886,36.12135],[-121.25949,36.12188],[-121.26147,36.12374],[-121.26207,36.12428],[-121.26287,36.12504],[-121.2634,36.1256],[-121.26368,36.12595],[-121.26416,36.12651],[-121.26421,36.12679],[-121.26434,36.12704],[-121.26471,36.12724],[-121.26478,36.12749],[-121.2656,36.12839],[-121.26566,36.12856],[-121.26552,36.12908],[-121.2657,36.1293],[-121.26585,36.12937],[-121.26584,36.13006],[-121.26605,36.13026],[-121.26609,36.13067],[-121.26564,36.13162],[-121.2657,36.13212],[-121.26558,36.13247],[-121.26587,36.13267],[-121.26623,36.13284],[-121.26642,36.13315],[-121.26651,36.13335],[-121.26644,36.13345],[-121.26613,36.13367],[-121.26613,36.13402],[-121.26604,36.13431],[-121.26612,36.13442],[-121.26676,36.13413],[-121.26716,36.13431],[-121.26764,36.13454],[-121.26779,36.13473],[-121.2679,36.13486],[-121.26797,36.13531],[-121.26851,36.13572],[-121.26859,36.13593],[-121.2683,36.13612],[-121.2681,36.13631],[-121.26822,36.13644],[-121.26845,36.13657],[-121.26909,36.1367],[-121.2704,36.1374],[-121.27075,36.13769],[-121.27114,36.13777],[-121.2715,36.13782],[-121.27199,36.13813],[-121.27221,36.1384],[-121.27226,36.13869],[-121.27209,36.13889],[-121.27186,36.139],[-121.27128,36.139],[-121.2709,36.13898],[-121.27088,36.13912],[-121.271,36.13938],[-121.27091,36.13959],[-121.2707,36.13971],[-121.27069,36.13991],[-121.27103,36.13999],[-121.27209,36.1398],[-121.27277,36.13992],[-121.2732,36.13988],[-121.27369,36.13972],[-121.27405,36.13977],[-121.27481,36.13967],[-121.27492,36.13957],[-121.275,36.13948],[-121.27502,36.13945],[-121.27514,36.13936],[-121.27535,36.13943],[-121.27569,36.13962],[-121.27577,36.13969],[-121.27574,36.13987],[-121.27548,36.14026],[-121.27543,36.14035],[-121.27543,36.14048],[-121.27549,36.14059],[-121.27576,36.14079],[-121.27598,36.141],[-121.27608,36.14146],[-121.27628,36.14154],[-121.27646,36.14152],[-121.27661,36.14143],[-121.27671,36.14141],[-121.27705,36.14169],[-121.27733,36.14198],[-121.27762,36.14214],[-121.27779,36.14234],[-121.27788,36.14248],[-121.27797,36.14269],[-121.27804,36.14276],[-121.27811,36.14281],[-121.27819,36.1428],[-121.27837,36.14273],[-121.27842,36.14274],[-121.27857,36.14275],[-121.27849,36.14309],[-121.27854,36.14326],[-121.27932,36.1436],[-121.27935,36.14362],[-121.27955,36.14387],[-121.28037,36.14407],[-121.28053,36.14421],[-121.28027,36.14434],[-121.28017,36.14458],[-121.2803,36.14489],[-121.2805,36.14505],[-121.28057,36.14529],[-121.28058,36.14561],[-121.28037,36.14592],[-121.2802,36.14643],[-121.28028,36.14706],[-121.28022,36.14749],[-121.28033,36.14758],[-121.28054,36.14756],[-121.28076,36.14735],[-121.2809,36.14737],[-121.28089,36.14752],[-121.28071,36.14782],[-121.28043,36.14817],[-121.28044,36.14829],[-121.28045,36.14843],[-121.28051,36.14871],[-121.28072,36.14899],[-121.28086,36.14944],[-121.28109,36.14972],[-121.28141,36.14999],[-121.28159,36.15024],[-121.28174,36.15059],[-121.2818,36.15072],[-121.28149,36.15168],[-121.28154,36.1525],[-121.28164,36.15274],[-121.28196,36.15322],[-121.28243,36.15409],[-121.28256,36.15425],[-121.283,36.1544],[-121.28434,36.15447],[-121.28471,36.15467],[-121.28491,36.15489],[-121.28503,36.15512],[-121.28525,36.15522],[-121.28547,36.1554],[-121.28551,36.15551],[-121.28534,36.15561],[-121.28525,36.15587],[-121.28567,36.1563],[-121.28588,36.15693],[-121.28636,36.1576],[-121.28711,36.15884],[-121.28752,36.1592],[-121.28772,36.15929],[-121.28835,36.15926],[-121.28875,36.15924],[-121.28904,36.15931],[-121.28963,36.15939],[-121.2905,36.15988],[-121.29109,36.16082],[-121.29126,36.16124],[-121.29142,36.16143],[-121.29196,36.16163],[-121.29233,36.16192],[-121.2926,36.16232],[-121.29283,36.1627],[-121.29294,36.16315],[-121.29288,36.16373],[-121.29299,36.16399],[-121.29342,36.16416],[-121.29408,36.16427],[-121.29457,36.1645],[-121.29506,36.1645],[-121.29516,36.16467],[-121.29519,36.16496],[-121.2951,36.16566],[-121.29505,36.1661],[-121.29506,36.16664],[-121.29535,36.16776],[-121.29528,36.16836],[-121.29524,36.16889],[-121.29498,36.16984],[-121.29453,36.17049],[-121.29431,36.17099],[-121.29418,36.17133],[-121.29431,36.17208],[-121.29421,36.17302],[-121.29465,36.17406],[-121.29491,36.17448],[-121.29499,36.17504],[-121.29521,36.17549],[-121.29528,36.17572],[-121.29518,36.17592],[-121.29522,36.17611],[-121.29541,36.17617],[-121.29549,36.17636],[-121.29557,36.17696],[-121.29563,36.17762],[-121.29574,36.17784],[-121.29638,36.17876],[-121.29664,36.17953],[-121.29674,36.17996],[-121.29661,36.18012],[-121.29605,36.18005],[-121.29546,36.18072],[-121.29513,36.18122],[-121.29509,36.18183],[-121.29493,36.18208],[-121.29463,36.18226],[-121.29452,36.1828],[-121.29434,36.18302],[-121.29403,36.18323],[-121.29376,36.1837],[-121.29362,36.18383],[-121.29339,36.18415],[-121.29329,36.18442],[-121.29313,36.18485],[-121.29296,36.18548],[-121.29266,36.18567],[-121.29224,36.186],[-121.29135,36.1867],[-121.29069,36.18679],[-121.29027,36.18722],[-121.28994,36.18739],[-121.2893,36.18734],[-121.28827,36.18764],[-121.28728,36.18832],[-121.28674,36.18878],[-121.28577,36.18946],[-121.28505,36.18968],[-121.28412,36.19067],[-121.2831,36.19142],[-121.28286,36.19153],[-121.28181,36.19167],[-121.2815,36.19179],[-121.28082,36.19249],[-121.28051,36.19268],[-121.28006,36.19285],[-121.2795,36.193],[-121.27916,36.19305],[-121.27887,36.19304],[-121.27861,36.19303],[-121.27851,36.19307],[-121.27842,36.19318],[-121.27858,36.19364],[-121.27856,36.19395],[-121.27845,36.19418],[-121.2782,36.19434],[-121.27787,36.1945],[-121.27777,36.19463],[-121.27774,36.19477],[-121.27777,36.19493],[-121.27788,36.19514],[-121.27782,36.19543],[-121.27765,36.19555],[-121.2767,36.19609],[-121.2766,36.1963],[-121.27662,36.19655],[-121.27668,36.19684],[-121.27659,36.19756]]}},{"type":"Feature","properties":{"name":"(unnamed public road)","road_class":"track","surface":"unpaved","motor_vehicle":"designated","access":"designated","source":"Caltrans All Roads + OpenStreetMap explicit surface","source_detail":"osm way 10448943; Caltrans All Roads public-network geometry match","source_tile":"167/402","public_network_source":"Caltrans All Roads (ARNOLD/HPMS)","surface_source":"OpenStreetMap explicit surface tag","caltrans_match_coverage":0.859,"verified_length_m":10616},"geometry":{"type":"LineString","coordinates":[[-121.24764,36.02062],[-121.2488,36.02327],[-121.24997,36.0254],[-121.25002,36.0255],[-121.25072,36.02657],[-121.25097,36.02708],[-121.25091,36.02738],[-121.25102,36.0278],[-121.25122,36.02857],[-121.25154,36.02913],[-121.252,36.02948],[-121.25184,36.02998],[-121.25152,36.03112],[-121.25148,36.03182],[-121.25109,36.03281],[-121.25072,36.03349],[-121.24998,36.0349],[-121.2493,36.03639],[-121.24939,36.03745],[-121.24894,36.03883],[-121.24912,36.04124],[-121.24938,36.0417],[-121.25016,36.04209],[-121.25061,36.04244],[-121.25089,36.04307],[-121.25127,36.04405],[-121.25184,36.04506],[-121.25209,36.04609],[-121.25234,36.04669],[-121.25286,36.04749],[-121.25297,36.04803],[-121.25281,36.05061],[-121.25267,36.05119],[-121.25227,36.05248],[-121.25159,36.05439],[-121.25118,36.05565],[-121.2513,36.05633],[-121.25161,36.0573],[-121.25196,36.05777],[-121.25225,36.05811],[-121.25244,36.05846],[-121.25369,36.05952],[-121.25512,36.06084],[-121.25574,36.06192],[-121.25596,36.06223],[-121.25644,36.0629],[-121.25681,36.06327],[-121.25697,36.06357],[-121.25906,36.06613],[-121.25965,36.06756],[-121.2603,36.06879],[-121.26265,36.07079],[-121.2637,36.07194],[-121.26418,36.07246],[-121.26435,36.07283],[-121.26447,36.07495],[-121.26424,36.07682],[-121.26404,36.07844],[-121.26482,36.07927],[-121.26546,36.08],[-121.26542,36.08132],[-121.26542,36.08136],[-121.26604,36.08234],[-121.26658,36.08317],[-121.26686,36.0842],[-121.26711,36.08576],[-121.26801,36.08752],[-121.26815,36.08882],[-121.26877,36.08949],[-121.26866,36.09047],[-121.2687,36.09062],[-121.26874,36.09082],[-121.26911,36.09134],[-121.26988,36.09209],[-121.26999,36.09219],[-121.27125,36.09251],[-121.27227,36.09288],[-121.27306,36.09304],[-121.27481,36.09304],[-121.27534,36.09336],[-121.27726,36.09401],[-121.27733,36.09421],[-121.27771,36.0944],[-121.27828,36.09456],[-121.27866,36.09565],[-121.27877,36.09619],[-121.27859,36.09663],[-121.27873,36.09714],[-121.27868,36.0975],[-121.27883,36.09809],[-121.27882,36.09839],[-121.27946,36.09874],[-121.27951,36.0991],[-121.27962,36.09954],[-121.27944,36.09996],[-121.27931,36.10002],[-121.27893,36.09993],[-121.27873,36.10007],[-121.27823,36.09988],[-121.27783,36.09922],[-121.27732,36.099],[-121.27722,36.09891],[-121.27719,36.09842],[-121.27734,36.09837],[-121.27757,36.09853],[-121.27804,36.09886],[-121.27825,36.09924]]}},{"type":"Feature","properties":{"name":"(unnamed public road)","road_class":"track","surface":"unpaved","motor_vehicle":"designated","access":"designated","source":"Caltrans All Roads + OpenStreetMap explicit surface","source_detail":"osm way 10449213; Caltrans All Roads public-network geometry match","source_tile":"167/401","public_network_source":"Caltrans All Roads (ARNOLD/HPMS)","surface_source":"OpenStreetMap explicit surface tag","caltrans_match_coverage":0.902,"verified_length_m":1493},"geometry":{"type":"LineString","coordinates":[[-121.27836,36.07896],[-121.27889,36.0791],[-121.28067,36.07941],[-121.28103,36.0802],[-121.28092,36.08043],[-121.28069,36.08093],[-121.28053,36.08127],[-121.28034,36.08132],[-121.27947,36.08171],[-121.27854,36.08242],[-121.27851,36.08425],[-121.27811,36.08686],[-121.27811,36.08748],[-121.27865,36.0881],[-121.27882,36.08844],[-121.27872,36.08981]]}},{"type":"Feature","properties":{"name":"(unnamed public road)","road_class":"track","surface":"unpaved","motor_vehicle":"designated","access":"designated","source":"Caltrans All Roads + OpenStreetMap explicit surface","source_detail":"osm way 10449281; Caltrans All Roads public-network geometry match","source_tile":"167/401","public_network_source":"Caltrans All Roads (ARNOLD/HPMS)","surface_source":"OpenStreetMap explicit surface tag","caltrans_match_coverage":0.991,"verified_length_m":1425},"geometry":{"type":"LineString","coordinates":[[-121.23995,36.04853],[-121.2408,36.04961],[-121.24151,36.05128],[-121.2417,36.05153],[-121.24221,36.05267],[-121.24269,36.05325],[-121.24286,36.05405],[-121.24298,36.05604],[-121.24267,36.05652],[-121.24241,36.0568],[-121.24244,36.0573],[-121.24335,36.05833],[-121.24335,36.05842],[-121.24368,36.05881],[-121.24377,36.05923],[-121.24347,36.05953],[-121.24325,36.05976],[-121.24295,36.0602]]}},{"type":"Feature","properties":{"name":"(unnamed public road)","road_class":"track","surface":"unpaved","motor_vehicle":"designated","access":"designated","source":"Caltrans All Roads + OpenStreetMap explicit surface","source_detail":"osm way 10449839; Caltrans All Roads public-network geometry match","source_tile":"167/401","public_network_source":"Caltrans All Roads (ARNOLD/HPMS)","surface_source":"OpenStreetMap explicit surface tag","caltrans_match_coverage":0.998,"verified_length_m":1486},"geometry":{"type":"LineString","coordinates":[[-121.23649,36.05594],[-121.23646,36.05692],[-121.23608,36.05771],[-121.23528,36.05808],[-121.23542,36.05878],[-121.23467,36.05987],[-121.23449,36.06032],[-121.23433,36.06072],[-121.2341,36.06128],[-121.23403,36.06143],[-121.23373,36.06204],[-121.23376,36.0625],[-121.2341,36.06406],[-121.23404,36.06534],[-121.23362,36.06765],[-121.23379,36.06815],[-121.23404,36.06852]]}},{"type":"Feature","properties":{"name":"(unnamed public road)","road_class":"track","surface":"unpaved","motor_vehicle":"designated","access":"designated","source":"Caltrans All Roads + OpenStreetMap explicit surface","source_detail":"osm way 10449845; Caltrans All Roads public-network geometry match","source_tile":"167/401","public_network_source":"Caltrans All Roads (ARNOLD/HPMS)","surface_source":"OpenStreetMap explicit surface tag","caltrans_match_coverage":0.927,"verified_length_m":5065},"geometry":{"type":"LineString","coordinates":[[-121.18205,36.04973],[-121.18336,36.04985],[-121.18378,36.05001],[-121.18426,36.05035],[-121.18469,36.0509],[-121.18507,36.05177],[-121.18537,36.0525],[-121.18574,36.05367],[-121.186,36.05504],[-121.18602,36.05658],[-121.18594,36.05665],[-121.18569,36.05662],[-121.18549,36.0563],[-121.18523,36.0563],[-121.18512,36.05655],[-121.18566,36.05735],[-121.18625,36.05772],[-121.18687,36.05781],[-121.18738,36.05779],[-121.18774,36.05761],[-121.18814,36.05719],[-121.18845,36.05712],[-121.18952,36.05717],[-121.18975,36.05729],[-121.19039,36.05722],[-121.19093,36.05685],[-121.1913,36.05696],[-121.19127,36.0574],[-121.19096,36.0579],[-121.19098,36.05829],[-121.19121,36.05843],[-121.19341,36.05777],[-121.19443,36.05735],[-121.19513,36.0569],[-121.19584,36.05724],[-121.19617,36.05761],[-121.19648,36.05825],[-121.19693,36.05859],[-121.19826,36.05843],[-121.19899,36.05866],[-121.19925,36.05889],[-121.19958,36.05964],[-121.1995,36.06028],[-121.19939,36.06058],[-121.19956,36.0615],[-121.19942,36.06159],[-121.19868,36.06168],[-121.19795,36.06319],[-121.19742,36.06395],[-121.19736,36.06418],[-121.19781,36.06452],[-121.19835,36.06475],[-121.19911,36.06466],[-121.1995,36.06429],[-121.1999,36.06406],[-121.20015,36.06406],[-121.20077,36.06424],[-121.20139,36.06418],[-121.20204,36.06376],[-121.2025,36.06314],[-121.20305,36.06328],[-121.20319,36.06365],[-121.20319,36.06418],[-121.20339,36.06457],[-121.20491,36.06612],[-121.20556,36.06736],[-121.20539,36.06841],[-121.20342,36.07102]]}},{"type":"Feature","properties":{"name":"(unnamed public road)","road_class":"track","surface":"unpaved","motor_vehicle":"designated","access":"designated","source":"Caltrans All Roads + OpenStreetMap explicit surface","source_detail":"osm way 10449847; Caltrans All Roads public-network geometry match","source_tile":"167/401","public_network_source":"Caltrans All Roads (ARNOLD/HPMS)","surface_source":"OpenStreetMap explicit surface tag","caltrans_match_coverage":1.0,"verified_length_m":1354},"geometry":{"type":"LineString","coordinates":[[-121.18468,36.06083],[-121.18563,36.06043],[-121.18572,36.0604],[-121.18726,36.06001],[-121.18797,36.05971],[-121.18833,36.05932],[-121.18952,36.05717],[-121.19036,36.05587],[-121.19053,36.05523],[-121.19056,36.05243],[-121.18994,36.05127],[-121.18991,36.05097]]}},{"type":"Feature","properties":{"name":"(unnamed public road)","road_class":"track","surface":"unpaved","motor_vehicle":"designated","access":"designated","source":"Caltrans All Roads + OpenStreetMap explicit surface","source_detail":"osm way 10450966; Caltrans All Roads public-network geometry match","source_tile":"167/401","public_network_source":"Caltrans All Roads (ARNOLD/HPMS)","surface_source":"OpenStreetMap explicit surface tag","caltrans_match_coverage":0.979,"verified_length_m":2504},"geometry":{"type":"LineString","coordinates":[[-121.21563,36.0595],[-121.21581,36.0595],[-121.21622,36.05948],[-121.21659,36.05925],[-121.21732,36.05843],[-121.2176,36.05845],[-121.21802,36.05866],[-121.2187,36.05957],[-121.21901,36.06035],[-121.21929,36.06081],[-121.21994,36.06081],[-121.22135,36.06019],[-121.2218,36.06019],[-121.22209,36.06033],[-121.22217,36.0606],[-121.2222,36.0614],[-121.22206,36.06175],[-121.22217,36.06218],[-121.22231,36.06232],[-121.22296,36.06225],[-121.22307,36.06211],[-121.22397,36.06166],[-121.22448,36.06166],[-121.22482,36.06182],[-121.22533,36.0622],[-121.22603,36.06294],[-121.22846,36.06614],[-121.23154,36.06854],[-121.23196,36.06909],[-121.23219,36.06921],[-121.23289,36.06916],[-121.233,36.06929],[-121.23328,36.0696],[-121.23334,36.0698]]}},{"type":"Feature","properties":{"name":"(unnamed public road)","road_class":"track","surface":"unpaved","motor_vehicle":"designated","access":"designated","source":"Caltrans All Roads + OpenStreetMap explicit surface","source_detail":"osm way 10451426; Caltrans All Roads public-network geometry match","source_tile":"167/401","public_network_source":"Caltrans All Roads (ARNOLD/HPMS)","surface_source":"OpenStreetMap explicit surface tag","caltrans_match_coverage":0.96,"verified_length_m":2697},"geometry":{"type":"LineString","coordinates":[[-121.18515,36.04836],[-121.18583,36.04907],[-121.186,36.04937],[-121.18636,36.04964],[-121.18695,36.04962],[-121.18752,36.04946],[-121.18831,36.04884],[-121.18856,36.04884],[-121.18975,36.04881],[-121.19028,36.04863],[-121.19107,36.04863],[-121.19144,36.04847],[-121.19206,36.04836],[-121.19237,36.04847],[-121.19254,36.04863],[-121.19285,36.04872],[-121.19349,36.04868],[-121.19479,36.04863],[-121.19536,36.04884],[-121.19569,36.04904],[-121.196,36.04966],[-121.19617,36.05026],[-121.19631,36.05049],[-121.19665,36.05044],[-121.19679,36.05021],[-121.19682,36.04996],[-121.19691,36.04989],[-121.19702,36.04946],[-121.19738,36.04918],[-121.20003,36.04948],[-121.20074,36.04973],[-121.20178,36.05053],[-121.20201,36.05058],[-121.20226,36.05046],[-121.20339,36.04932],[-121.2037,36.0492],[-121.20395,36.04927],[-121.20398,36.05152],[-121.20449,36.05305],[-121.20505,36.0538],[-121.20505,36.05403]]}},{"type":"Feature","properties":{"name":"(unnamed public road)","road_class":"track","surface":"unpaved","motor_vehicle":"designated","access":"designated","source":"Caltrans All Roads + OpenStreetMap explicit surface","source_detail":"osm way 10451855; Caltrans All Roads public-network geometry match","source_tile":"167/401","public_network_source":"Caltrans All Roads (ARNOLD/HPMS)","surface_source":"OpenStreetMap explicit surface tag","caltrans_match_coverage":1.0,"verified_length_m":1574},"geometry":{"type":"LineString","coordinates":[[-121.25771,36.10551],[-121.25683,36.10722],[-121.25669,36.10766],[-121.25691,36.10915],[-121.25694,36.10919],[-121.257,36.10929],[-121.25728,36.11148],[-121.25719,36.11341],[-121.25709,36.11402],[-121.25705,36.11431],[-121.25663,36.11597],[-121.2567,36.11634],[-121.25613,36.11778],[-121.25545,36.11815],[-121.25483,36.11809],[-121.25425,36.11817]]}},{"type":"Feature","properties":{"name":"(unnamed public road)","road_class":"track","surface":"unpaved","motor_vehicle":"designated","access":"designated","source":"Caltrans All Roads + OpenStreetMap explicit surface","source_detail":"osm way 10452280; Caltrans All Roads public-network geometry match","source_tile":"167/401","public_network_source":"Caltrans All Roads (ARNOLD/HPMS)","surface_source":"OpenStreetMap explicit surface tag","caltrans_match_coverage":1.0,"verified_length_m":823},"geometry":{"type":"LineString","coordinates":[[-121.18164,36.05281],[-121.1812,36.05276],[-121.18059,36.05253],[-121.18024,36.0523],[-121.18019,36.05218],[-121.17946,36.0519],[-121.17651,36.05221],[-121.17571,36.05181],[-121.17514,36.05183],[-121.17506,36.05184],[-121.17458,36.05204],[-121.17417,36.05239],[-121.17353,36.05293]]}},{"type":"Feature","properties":{"name":"(unnamed public road)","road_class":"track","surface":"unpaved","motor_vehicle":"designated","access":"designated","source":"Caltrans All Roads + OpenStreetMap explicit surface","source_detail":"osm way 10452370; Caltrans All Roads public-network geometry match","source_tile":"167/401","public_network_source":"Caltrans All Roads (ARNOLD/HPMS)","surface_source":"OpenStreetMap explicit surface tag","caltrans_match_coverage":0.861,"verified_length_m":1617},"geometry":{"type":"LineString","coordinates":[[-121.28771,36.07043],[-121.28797,36.07098],[-121.28788,36.07123],[-121.2877,36.07188],[-121.28778,36.07221],[-121.28803,36.07275],[-121.28793,36.07338],[-121.28744,36.07377],[-121.28691,36.07465],[-121.28667,36.07508],[-121.28556,36.07561],[-121.28439,36.07619],[-121.28368,36.07659],[-121.28315,36.077],[-121.28315,36.07773],[-121.28315,36.07778],[-121.28315,36.07787],[-121.28293,36.07823],[-121.28189,36.07902],[-121.28154,36.07996],[-121.28208,36.0802],[-121.28239,36.08069],[-121.28186,36.08091],[-121.28126,36.08107],[-121.28053,36.08127]]}},{"type":"Feature","properties":{"name":"(unnamed public road)","road_class":"track","surface":"unpaved","motor_vehicle":"designated","access":"designated","source":"Caltrans All Roads + OpenStreetMap explicit surface","source_detail":"osm way 10452372; Caltrans All Roads public-network geometry match","source_tile":"167/401","public_network_source":"Caltrans All Roads (ARNOLD/HPMS)","surface_source":"OpenStreetMap explicit surface tag","caltrans_match_coverage":1.0,"verified_length_m":2055},"geometry":{"type":"LineString","coordinates":[[-121.26999,36.09219],[-121.26965,36.09237],[-121.26877,36.09242],[-121.26801,36.09219],[-121.26547,36.09093],[-121.26341,36.09031],[-121.26184,36.08971],[-121.26017,36.08873],[-121.25955,36.08852],[-121.25775,36.08857],[-121.25766,36.08855],[-121.25746,36.0885],[-121.25701,36.08811],[-121.25676,36.08762],[-121.25636,36.08741],[-121.25426,36.08633],[-121.25321,36.08546],[-121.25224,36.08509],[-121.25092,36.08475],[-121.25026,36.08441]]}},{"type":"Feature","properties":{"name":"(unnamed public road)","road_class":"track","surface":"unpaved","source":"Caltrans All Roads + OpenStreetMap explicit surface","source_detail":"osm way 10453652; Caltrans All Roads public-network geometry match","source_tile":"167/401","public_network_source":"Caltrans All Roads (ARNOLD/HPMS)","surface_source":"OpenStreetMap explicit surface tag","caltrans_match_coverage":0.89,"verified_length_m":8328},"geometry":{"type":"LineString","coordinates":[[-120.97348,36.10156],[-120.97428,36.10074],[-120.97817,36.09693],[-120.97823,36.09658],[-120.9775,36.09608],[-120.97614,36.0956],[-120.97383,36.09377],[-120.97231,36.09199],[-120.97197,36.09148],[-120.97053,36.08981],[-120.96999,36.0894],[-120.9696,36.08924],[-120.96819,36.0894],[-120.96714,36.08972],[-120.96556,36.09276],[-120.96506,36.09329],[-120.96332,36.09367],[-120.96277,36.094],[-120.96244,36.09422],[-120.96229,36.09437],[-120.96221,36.09447],[-120.95967,36.09695],[-120.95964,36.097],[-120.96308,36.09792],[-120.96526,36.09881],[-120.96638,36.0994],[-120.96672,36.09945],[-120.96698,36.09936],[-120.96797,36.09831],[-120.96801,36.09833],[-120.97136,36.1006],[-120.97311,36.10172],[-120.97506,36.10303],[-120.97635,36.10394],[-120.97716,36.10446],[-120.97742,36.10453],[-120.97757,36.10457],[-120.97825,36.10467],[-120.97859,36.10477],[-120.97884,36.10491],[-120.97925,36.10517],[-120.98111,36.10521],[-120.98156,36.10519],[-120.98214,36.1048],[-120.98318,36.10484],[-120.98599,36.10503],[-120.98689,36.10516],[-120.98835,36.10547],[-120.98975,36.10589],[-120.99054,36.10616],[-120.99249,36.1071],[-120.99398,36.1081],[-120.99505,36.109],[-120.99606,36.11005],[-120.99646,36.1106],[-120.99683,36.11106],[-120.99712,36.11153],[-120.99792,36.11283],[-120.99881,36.11421],[-120.999,36.11462],[-120.999,36.11499],[-120.99906,36.11511],[-120.99921,36.11513],[-120.99932,36.11514],[-120.99955,36.11546],[-120.99993,36.11606],[-121.00025,36.11686],[-121.00043,36.11731],[-121.00078,36.11773],[-121.00102,36.11801],[-121.00118,36.11827],[-121.00126,36.11853],[-121.00133,36.11896],[-121.00141,36.11941],[-121.00148,36.11973],[-121.00144,36.11994],[-121.00124,36.12011],[-121.00115,36.12022],[-121.00109,36.12048]]}},{"type":"Feature","properties":{"name":"(unnamed public road)","road_class":"track","surface":"unpaved","motor_vehicle":"designated","access":"designated","source":"Caltrans All Roads + OpenStreetMap explicit surface","source_detail":"osm way 10453969; Caltrans All Roads public-network geometry match","source_tile":"167/401","public_network_source":"Caltrans All Roads (ARNOLD/HPMS)","surface_source":"OpenStreetMap explicit surface tag","caltrans_match_coverage":1.0,"verified_length_m":1364},"geometry":{"type":"LineString","coordinates":[[-121.19349,36.04868],[-121.19349,36.04854],[-121.19276,36.0481],[-121.19211,36.04756],[-121.19195,36.04726],[-121.19197,36.04682],[-121.1922,36.04623],[-121.19234,36.04515],[-121.19209,36.04465],[-121.19186,36.04447],[-121.19158,36.04392],[-121.19115,36.04346],[-121.19006,36.04293],[-121.18887,36.04259],[-121.18752,36.04243],[-121.18566,36.04241],[-121.18541,36.04243],[-121.18374,36.04257]]}},{"type":"Feature","properties":{"name":"(unnamed public road)","road_class":"track","surface":"unpaved","source":"Caltrans All Roads + OpenStreetMap explicit surface","source_detail":"osm way 10455729; Caltrans All Roads public-network geometry match","source_tile":"167/401","public_network_source":"Caltrans All Roads (ARNOLD/HPMS)","surface_source":"OpenStreetMap explicit surface tag","caltrans_match_coverage":1.0,"verified_length_m":920},"geometry":{"type":"LineString","coordinates":[[-120.93805,36.07376],[-120.94331,36.0796],[-120.94372,36.07999],[-120.94402,36.08027],[-120.94416,36.08043]]}},{"type":"Feature","properties":{"name":"(unnamed public road)","road_class":"track","surface":"unpaved","motor_vehicle":"designated","access":"designated","source":"Caltrans All Roads + OpenStreetMap explicit surface","source_detail":"osm way 10455732; Caltrans All Roads public-network geometry match","source_tile":"167/401","public_network_source":"Caltrans All Roads (ARNOLD/HPMS)","surface_source":"OpenStreetMap explicit surface tag","caltrans_match_coverage":1.0,"verified_length_m":740},"geometry":{"type":"LineString","coordinates":[[-121.21592,36.07576],[-121.21563,36.07665],[-121.21552,36.07818],[-121.21561,36.07848],[-121.21609,36.07921],[-121.21623,36.0796],[-121.21592,36.08194],[-121.21561,36.08217]]}},{"type":"Feature","properties":{"name":"(unnamed public road)","road_class":"track","surface":"unpaved","source":"Caltrans All Roads + OpenStreetMap explicit surface","source_detail":"osm way 10456336; Caltrans All Roads public-network geometry match","source_tile":"167/401","public_network_source":"Caltrans All Roads (ARNOLD/HPMS)","surface_source":"OpenStreetMap explicit surface tag","caltrans_match_coverage":0.99,"verified_length_m":1167},"geometry":{"type":"LineString","coordinates":[[-120.93939,36.08159],[-120.93942,36.0817],[-120.93928,36.08188],[-120.93903,36.0821],[-120.939,36.08224],[-120.93969,36.08283],[-120.94199,36.0842],[-120.9434,36.08464],[-120.94458,36.08512],[-120.94565,36.08597],[-120.94591,36.08654],[-120.94588,36.08704],[-120.94622,36.0878],[-120.94705,36.08846],[-120.94731,36.08864]]}},{"type":"Feature","properties":{"name":"(unnamed public road)","road_class":"track","surface":"unpaved","motor_vehicle":"designated","access":"designated","source":"Caltrans All Roads + OpenStreetMap explicit surface","source_detail":"osm way 10456843; Caltrans All Roads public-network geometry match","source_tile":"167/401","public_network_source":"Caltrans All Roads (ARNOLD/HPMS)","surface_source":"OpenStreetMap explicit surface tag","caltrans_match_coverage":0.998,"verified_length_m":1573},"geometry":{"type":"LineString","coordinates":[[-121.24946,36.06745],[-121.24917,36.06752],[-121.24842,36.06783],[-121.24768,36.06768],[-121.24686,36.06759],[-121.24463,36.06728],[-121.24232,36.0673],[-121.24172,36.06751],[-121.24054,36.06828],[-121.23972,36.06849],[-121.23845,36.06857],[-121.23616,36.06827],[-121.23489,36.06836],[-121.23478,36.06843],[-121.23404,36.06852],[-121.23289,36.06916]]}},{"type":"Feature","properties":{"name":"(unnamed public road)","road_class":"track","surface":"unpaved","motor_vehicle":"designated","access":"designated","source":"Caltrans All Roads + OpenStreetMap explicit surface","source_detail":"osm way 10457680; Caltrans All Roads public-network geometry match","source_tile":"167/401","public_network_source":"Caltrans All Roads (ARNOLD/HPMS)","surface_source":"OpenStreetMap explicit surface tag","caltrans_match_coverage":1.0,"verified_length_m":725},"geometry":{"type":"LineString","coordinates":[[-121.20982,36.06388],[-121.20957,36.06399],[-121.20929,36.06456],[-121.20881,36.06502],[-121.20804,36.06525],[-121.20745,36.06527],[-121.20678,36.06475],[-121.20652,36.06477],[-121.20644,36.06493],[-121.20641,36.06532],[-121.20649,36.06537],[-121.20669,36.06598],[-121.20652,36.06651],[-121.20576,36.06729],[-121.20556,36.06736]]}},{"type":"Feature","properties":{"name":"San Ardo San Lucas Road","road_class":"track","surface":"unpaved","source":"Caltrans All Roads + OpenStreetMap explicit surface","source_detail":"osm way 10462782; Caltrans All Roads public-network geometry match","source_tile":"167/401","public_network_source":"Caltrans All Roads (ARNOLD/HPMS)","surface_source":"OpenStreetMap explicit surface tag","caltrans_match_coverage":1.0,"verified_length_m":3175},"geometry":{"type":"LineString","coordinates":[[-120.96542,36.07438],[-120.9644,36.07454],[-120.96251,36.07592],[-120.96187,36.07653],[-120.9615,36.07663],[-120.9615,36.07573],[-120.96161,36.075],[-120.96144,36.07457],[-120.96147,36.07397],[-120.96091,36.07241],[-120.96091,36.07203],[-120.96105,36.07198],[-120.96147,36.07196],[-120.96206,36.07207],[-120.96311,36.07244],[-120.96378,36.0728],[-120.96519,36.07388],[-120.96542,36.07415],[-120.96542,36.07438],[-120.96578,36.07473],[-120.96615,36.07537],[-120.96798,36.07676],[-120.96838,36.07731],[-120.96852,36.07784],[-120.96954,36.07885],[-120.9716,36.08049],[-120.97343,36.08173],[-120.97425,36.0821],[-120.97569,36.0831],[-120.97893,36.08461]]}},{"type":"Feature","properties":{"name":"Bunte Road","road_class":"unclassified","surface":"fine_gravel","source":"Caltrans All Roads + OpenStreetMap explicit surface","source_detail":"osm way 10466852; Caltrans All Roads public-network geometry match","source_tile":"167/401","public_network_source":"Caltrans All Roads (ARNOLD/HPMS)","surface_source":"OpenStreetMap explicit surface tag","caltrans_match_coverage":1.0,"verified_length_m":2048},"geometry":{"type":"LineString","coordinates":[[-121.02454,36.12074],[-121.02487,36.121],[-121.025,36.12114],[-121.02509,36.12127],[-121.02517,36.12139],[-121.02523,36.12153],[-121.02527,36.12164],[-121.0253,36.12175],[-121.02532,36.12189],[-121.02533,36.12203],[-121.02532,36.12348],[-121.02534,36.12371],[-121.02538,36.12394],[-121.02542,36.1241],[-121.02551,36.12438],[-121.02561,36.12459],[-121.02571,36.12477],[-121.02771,36.12766],[-121.02836,36.12855],[-121.02909,36.12955],[-121.03022,36.13123],[-121.03119,36.13278],[-121.03207,36.13401],[-121.03386,36.1366],[-121.0343,36.13718]]}},{"type":"Feature","properties":{"name":"(unnamed public road)","road_class":"track","surface":"unpaved","motor_vehicle":"designated","access":"designated","source":"Caltrans All Roads + OpenStreetMap explicit surface","source_detail":"osm way 10469936; Caltrans All Roads public-network geometry match","source_tile":"167/401","public_network_source":"Caltrans All Roads (ARNOLD/HPMS)","surface_source":"OpenStreetMap explicit surface tag","caltrans_match_coverage":1.0,"verified_length_m":569},"geometry":{"type":"LineString","coordinates":[[-121.21566,36.04696],[-121.21544,36.04681],[-121.21539,36.04664],[-121.2154,36.04621],[-121.21496,36.04592],[-121.21268,36.04507],[-121.21246,36.04487],[-121.21219,36.04481],[-121.212,36.04489],[-121.21168,36.04501],[-121.21122,36.04497],[-121.21068,36.04479]]}},{"type":"Feature","properties":{"name":"(unnamed public road)","road_class":"track","surface":"unpaved","source":"Caltrans All Roads + OpenStreetMap explicit surface","source_detail":"osm way 10514292; Caltrans All Roads public-network geometry match","source_tile":"167/401","public_network_source":"Caltrans All Roads (ARNOLD/HPMS)","surface_source":"OpenStreetMap explicit surface tag","caltrans_match_coverage":1.0,"verified_length_m":627},"geometry":{"type":"LineString","coordinates":[[-121.03398,36.31192],[-121.03458,36.3119],[-121.0347,36.31192],[-121.03477,36.31195],[-121.03485,36.31195],[-121.03492,36.31194],[-121.03499,36.31191],[-121.03509,36.31186],[-121.03514,36.31182],[-121.0352,36.31178],[-121.0353,36.31171],[-121.03544,36.31161],[-121.03567,36.31151],[-121.03602,36.31139],[-121.03629,36.31132],[-121.03669,36.31123],[-121.03682,36.31121],[-121.037,36.31121],[-121.03732,36.31123],[-121.0375,36.31122],[-121.03764,36.31121],[-121.03799,36.31116],[-121.03811,36.31115],[-121.03825,36.31114],[-121.03844,36.31113],[-121.03856,36.31114],[-121.03888,36.31116],[-121.03903,36.31118],[-121.03918,36.3112],[-121.03946,36.31122],[-121.04027,36.3113],[-121.04042,36.31132],[-121.04062,36.31137],[-121.04068,36.31139]]}}]}