{"type":"FeatureCollection","features":[{"type":"Feature","properties":{"name":"468","source":"Bureau of Land Management","source_detail":"BLM GTLF OBJECTID 154973","source_id":"{D3B04959-D097-46CF-8AA0-E69A749756EE}","road_class":"transportation_system_-_primitive_road","surface":"natural_improved","vehicle_class":"4wd_low","allowed_mode":"unk","access_restriction":"not_listed","seasonal_restriction":"not_listed","gis_miles":0.71894169},"geometry":{"type":"MultiLineString","coordinates":[[[-115.22113,33.01377],[-115.22114,33.01378]],[[-115.22732,33.02105],[-115.22876,33.02272],[-115.22942,33.0235]],[[-115.32182,33.11841],[-115.32309,33.11992],[-115.32546,33.12276],[-115.32685,33.12441]],[[-115.33396,33.13293],[-115.33396,33.13293]],[[-115.34732,33.14746],[-115.34732,33.14746]],[[-115.35479,33.1551],[-115.35484,33.15515]]]}},{"type":"Feature","properties":{"name":"490","source":"Bureau of Land Management","source_detail":"BLM GTLF OBJECTID 155589","source_id":"{009B9675-A311-48E4-8A88-4975ABB48ED8}","road_class":"transportation_system_-_primitive_road","surface":"natural_improved","vehicle_class":"4wd_low","allowed_mode":"unk","access_restriction":"not_listed","seasonal_restriction":"not_listed","gis_miles":25.73742297},"geometry":{"type":"MultiLineString","coordinates":[[[-115.25518,33.0419],[-115.25611,33.04286]],[[-115.33487,33.13293],[-115.33493,33.13301],[-115.33539,33.13361],[-115.33594,33.13431],[-115.33684,33.13523],[-115.33753,33.13599],[-115.33919,33.13766],[-115.34082,33.13933],[-115.34127,33.13972],[-115.34165,33.14005],[-115.34196,33.14039],[-115.34225,33.14082],[-115.34346,33.14204],[-115.34446,33.14292],[-115.34605,33.14452],[-115.3467,33.14528],[-115.34767,33.14628],[-115.34868,33.14746]],[[-115.35486,33.15382],[-115.35611,33.1551],[-115.35817,33.15726],[-115.36038,33.1595],[-115.3624,33.16169],[-115.36448,33.16381],[-115.36668,33.16607],[-115.36958,33.16903],[-115.36961,33.16906],[-115.37206,33.17156],[-115.37241,33.17193],[-115.37501,33.17463],[-115.3777,33.17736],[-115.37872,33.17843],[-115.37931,33.17856],[-115.37974,33.17899],[-115.37992,33.17922],[-115.38015,33.17949],[-115.38023,33.17962],[-115.38023,33.17985],[-115.38048,33.1803],[-115.38209,33.18196],[-115.38281,33.18303],[-115.38325,33.18388],[-115.38355,33.18466],[-115.38397,33.18591],[-115.38417,33.18649],[-115.3845,33.18663],[-115.38512,33.18743],[-115.38619,33.18855],[-115.38698,33.18914],[-115.38829,33.19003],[-115.38911,33.19063],[-115.38989,33.19133],[-115.39347,33.19459],[-115.39372,33.19481],[-115.39658,33.19742],[-115.39739,33.19793],[-115.39841,33.19838],[-115.40193,33.19955],[-115.40274,33.19993],[-115.40352,33.20048],[-115.40411,33.20112],[-115.40452,33.20175],[-115.40506,33.20307],[-115.40554,33.204],[-115.40602,33.20458],[-115.40718,33.20588],[-115.40776,33.20628],[-115.40821,33.2065],[-115.40875,33.20672],[-115.40999,33.20723],[-115.41102,33.20776],[-115.41178,33.20838],[-115.41238,33.20917],[-115.41269,33.2098],[-115.41295,33.21095],[-115.41324,33.21335],[-115.41326,33.21352],[-115.41358,33.21608],[-115.4137,33.2173],[-115.41387,33.21785],[-115.41431,33.21884],[-115.41455,33.21938],[-115.41508,33.21997],[-115.41564,33.22048],[-115.41651,33.22084],[-115.41839,33.22136],[-115.42013,33.22187],[-115.42114,33.22243],[-115.42207,33.22318],[-115.4225,33.22391],[-115.42259,33.22496],[-115.42271,33.22633],[-115.42289,33.22787],[-115.42295,33.22848],[-115.42308,33.22881],[-115.42337,33.22914],[-115.42372,33.22944],[-115.42382,33.22951],[-115.42437,33.22997],[-115.4256,33.23103],[-115.42617,33.23144],[-115.42674,33.23165],[-115.42764,33.23193],[-115.42909,33.23246],[-115.42966,33.23303],[-115.43114,33.23463],[-115.432,33.23556],[-115.43511,33.23887],[-115.43863,33.24248],[-115.4419,33.24586],[-115.44364,33.24767],[-115.4452,33.24944],[-115.44592,33.25028],[-115.44681,33.25109],[-115.44803,33.25217],[-115.44903,33.25301],[-115.45067,33.25416],[-115.45164,33.25459],[-115.45285,33.25509],[-115.45369,33.25549],[-115.45438,33.25611],[-115.45482,33.25679],[-115.4552,33.25731],[-115.45561,33.2577],[-115.456,33.25793],[-115.45691,33.25819],[-115.45732,33.25851],[-115.45961,33.26031],[-115.45965,33.26034],[-115.46253,33.26265],[-115.46323,33.2632],[-115.4632,33.26381],[-115.4632,33.2642],[-115.46349,33.26449],[-115.46382,33.26467],[-115.464,33.26478],[-115.46436,33.26499],[-115.46493,33.26504],[-115.46557,33.26512],[-115.46604,33.26537],[-115.46746,33.26635],[-115.46786,33.26681],[-115.46812,33.26718],[-115.46918,33.26877],[-115.4701,33.26967],[-115.47273,33.27191],[-115.47317,33.27212],[-115.47436,33.27298],[-115.47486,33.27353],[-115.47522,33.274],[-115.47557,33.27454],[-115.47719,33.2762],[-115.47858,33.27768],[-115.47971,33.27903],[-115.48129,33.28058],[-115.48156,33.28078],[-115.48289,33.28178],[-115.48402,33.28233],[-115.48477,33.28254],[-115.4875,33.28279],[-115.48803,33.28286],[-115.48984,33.28369],[-115.49022,33.284],[-115.49078,33.28463],[-115.49119,33.28504],[-115.49414,33.28723],[-115.49473,33.28775],[-115.49541,33.28835],[-115.49583,33.28906],[-115.49641,33.29198],[-115.497,33.2927],[-115.49789,33.29346],[-115.4994,33.29454],[-115.50147,33.29584],[-115.50306,33.29668],[-115.50448,33.29739],[-115.50492,33.29758],[-115.50559,33.29771],[-115.50599,33.29794],[-115.50649,33.29837],[-115.50789,33.29968],[-115.50833,33.3004],[-115.50861,33.301],[-115.5089,33.30204],[-115.50914,33.30274],[-115.50943,33.30338],[-115.5101,33.30459],[-115.5106,33.30529],[-115.51108,33.30578],[-115.51175,33.30646],[-115.51217,33.30703],[-115.51568,33.30965],[-115.51973,33.31244],[-115.52062,33.31297],[-115.52528,33.31548],[-115.52628,33.31598],[-115.52751,33.31641],[-115.5279,33.31664],[-115.52852,33.31719],[-115.52933,33.31763],[-115.52982,33.31807],[-115.53058,33.31867],[-115.535,33.3221],[-115.53759,33.32408],[-115.53951,33.32568],[-115.54062,33.32668],[-115.54207,33.32774],[-115.54345,33.32881],[-115.54492,33.32984],[-115.54645,33.33096],[-115.54709,33.3316],[-115.54743,33.33185],[-115.54817,33.33245],[-115.54892,33.33302],[-115.55056,33.33423],[-115.55483,33.33747],[-115.55532,33.33786],[-115.55866,33.3405],[-115.56282,33.34382],[-115.56508,33.34573],[-115.56545,33.34622],[-115.56594,33.34703],[-115.56687,33.34852],[-115.56769,33.34965],[-115.5683,33.35057],[-115.56886,33.35115],[-115.57003,33.3522],[-115.57239,33.35412],[-115.57395,33.35534],[-115.57699,33.35745],[-115.5788,33.35879],[-115.58081,33.36017],[-115.58301,33.36162],[-115.58528,33.36318],[-115.58587,33.36363],[-115.58654,33.364],[-115.5872,33.36418],[-115.59046,33.3652],[-115.59195,33.36566],[-115.59338,33.36622],[-115.59468,33.36684],[-115.59638,33.36759],[-115.59886,33.36888],[-115.60038,33.36967],[-115.60186,33.3703],[-115.60354,33.37103],[-115.60447,33.37141],[-115.60538,33.37174],[-115.60665,33.37214],[-115.61014,33.37339],[-115.61164,33.37388],[-115.61388,33.37433],[-115.61714,33.37499],[-115.61832,33.37533],[-115.62013,33.37583],[-115.62321,33.37711],[-115.62484,33.37772],[-115.62656,33.37833],[-115.62866,33.37901],[-115.63008,33.3795],[-115.63195,33.38012],[-115.63277,33.38041],[-115.63362,33.381],[-115.63433,33.3815],[-115.63558,33.38239],[-115.63637,33.38291],[-115.63698,33.38313],[-115.63787,33.3833],[-115.63877,33.38342],[-115.64007,33.38375],[-115.64066,33.38395],[-115.64162,33.38468],[-115.64286,33.38573],[-115.64433,33.38697],[-115.6455,33.38796],[-115.64657,33.38885],[-115.64747,33.38962]]]}},{"type":"Feature","properties":{"name":"347","source":"Bureau of Land Management","source_detail":"BLM GTLF OBJECTID 157418","source_id":"{9AF6E48E-9604-4E44-B687-C990BFAE208B}","road_class":"transportation_system_-_primitive_road","surface":"natural","vehicle_class":"4wd_high_clearance_specialized","allowed_mode":"unk","access_restriction":"not_listed","seasonal_restriction":"not_listed","gis_miles":1.75211069},"geometry":{"type":"LineString","coordinates":[[-115.31513,33.00172],[-115.31514,33.00355],[-115.31511,33.0057],[-115.31512,33.00776],[-115.31512,33.00977],[-115.31512,33.01149],[-115.31512,33.01177],[-115.31511,33.01352],[-115.31513,33.01527],[-115.31508,33.01546],[-115.31495,33.01559],[-115.31467,33.01579],[-115.31457,33.01596],[-115.31454,33.01618],[-115.31455,33.01634],[-115.31474,33.01707],[-115.31487,33.0175],[-115.31491,33.01811],[-115.31505,33.0184],[-115.31516,33.01857],[-115.31518,33.019],[-115.31513,33.02094],[-115.31516,33.02301],[-115.31517,33.0234],[-115.31658,33.02415],[-115.31689,33.02432],[-115.3172,33.02445],[-115.31753,33.02472],[-115.31824,33.02566]]}},{"type":"Feature","properties":{"name":"326","source":"Bureau of Land Management","source_detail":"BLM GTLF OBJECTID 158554","source_id":"{85C6342B-7E77-44A5-8A7F-A8687B393B90}","road_class":"transportation_system_-_primitive_road","surface":"natural_improved","vehicle_class":"4wd_high_clearance_specialized","allowed_mode":"unk","access_restriction":"not_listed","seasonal_restriction":"not_listed","gis_miles":18.75014832},"geometry":{"type":"LineString","coordinates":[[-115.82773,33.10567],[-115.82761,33.1055],[-115.82738,33.10533],[-115.82715,33.10525],[-115.82673,33.1051],[-115.82661,33.10499],[-115.82635,33.10471],[-115.82618,33.10446],[-115.82595,33.10423],[-115.82407,33.10225],[-115.82213,33.10027],[-115.82127,33.09943],[-115.82093,33.09907],[-115.82031,33.09838],[-115.81834,33.09639],[-115.81647,33.09442],[-115.81436,33.0922],[-115.81318,33.09103],[-115.8122,33.08999],[-115.81036,33.08811],[-115.80835,33.08603],[-115.80704,33.08457],[-115.80669,33.08418],[-115.80658,33.08407],[-115.80633,33.08381],[-115.80619,33.0836],[-115.80617,33.08316],[-115.80603,33.08282],[-115.80583,33.08242],[-115.80563,33.08224],[-115.8054,33.08216],[-115.80502,33.08205],[-115.80469,33.08195],[-115.80444,33.08165],[-115.80286,33.07989],[-115.80212,33.07905],[-115.8019,33.07882],[-115.80167,33.0785],[-115.80107,33.07786],[-115.7993,33.07585],[-115.79911,33.07537],[-115.79867,33.07515],[-115.79738,33.07372],[-115.79542,33.07176],[-115.79318,33.06966],[-115.79179,33.06832],[-115.79127,33.06781],[-115.79074,33.06733],[-115.79054,33.06711],[-115.79027,33.06687],[-115.78997,33.06658],[-115.78971,33.06632],[-115.78929,33.0659],[-115.78896,33.06558],[-115.78867,33.06539],[-115.78843,33.06508],[-115.78714,33.06387],[-115.78623,33.06298],[-115.78574,33.06254],[-115.78495,33.06183],[-115.78303,33.05991],[-115.78085,33.05774],[-115.77886,33.0557],[-115.77851,33.05535],[-115.77831,33.05516],[-115.77707,33.05391],[-115.77685,33.05374],[-115.77582,33.05262],[-115.77488,33.0517],[-115.77388,33.05071],[-115.77276,33.04958],[-115.77091,33.04774],[-115.77057,33.0474],[-115.77034,33.04718],[-115.77,33.04684],[-115.76983,33.04664],[-115.76923,33.04602],[-115.76882,33.04564],[-115.76858,33.04541],[-115.76785,33.04465],[-115.76762,33.0444],[-115.7664,33.04321],[-115.76449,33.04121],[-115.76281,33.03956],[-115.761,33.03769],[-115.75882,33.03555],[-115.7568,33.03349],[-115.75471,33.03138],[-115.75461,33.03129],[-115.75353,33.03022],[-115.75268,33.02936],[-115.75077,33.0274],[-115.75033,33.02701],[-115.74928,33.02592],[-115.7486,33.02524],[-115.74773,33.02441],[-115.74654,33.02319],[-115.7445,33.02115],[-115.74367,33.02027],[-115.74245,33.01904],[-115.74208,33.01865],[-115.74024,33.01683],[-115.73971,33.01629],[-115.73947,33.01608],[-115.73912,33.01566],[-115.73842,33.01492],[-115.73805,33.0146],[-115.7374,33.01392],[-115.73638,33.01292],[-115.73449,33.011],[-115.73237,33.00888],[-115.7307,33.00719],[-115.7306,33.00704],[-115.73047,33.00684],[-115.7302,33.0065],[-115.73006,33.00627],[-115.72991,33.00606],[-115.72952,33.00558],[-115.72925,33.00518],[-115.72898,33.00483],[-115.72847,33.0042],[-115.72802,33.00363],[-115.72773,33.00327],[-115.72752,33.00301],[-115.72726,33.00267],[-115.72667,33.00188],[-115.72625,33.0013],[-115.72582,33.00075],[-115.72542,33.00035],[-115.72507,32.99974],[-115.72457,32.99913],[-115.72416,32.99859],[-115.72353,32.99778],[-115.722,32.99575],[-115.72042,32.99372],[-115.71878,32.99157],[-115.71717,32.98944],[-115.71562,32.98742],[-115.71414,32.98548],[-115.71254,32.98339],[-115.71086,32.9812],[-115.70926,32.97911],[-115.70765,32.97699],[-115.70607,32.97494],[-115.70441,32.97276],[-115.70274,32.97058],[-115.70116,32.96851],[-115.69946,32.96629],[-115.69785,32.96419],[-115.69711,32.96321],[-115.69632,32.96218],[-115.69459,32.95992],[-115.69293,32.95776],[-115.69127,32.9556],[-115.68959,32.95341],[-115.68789,32.9512],[-115.68722,32.95026],[-115.68632,32.94912],[-115.6846,32.94689],[-115.68381,32.94578],[-115.6837,32.94564],[-115.68369,32.94562],[-115.68301,32.94476],[-115.68128,32.94258],[-115.67979,32.94056],[-115.67811,32.93838],[-115.67649,32.93625],[-115.67566,32.93516],[-115.67483,32.93406],[-115.6732,32.93196],[-115.67164,32.92992],[-115.66996,32.92776],[-115.66898,32.9265],[-115.66846,32.92582],[-115.66819,32.92536],[-115.66683,32.92363],[-115.66551,32.92187],[-115.66539,32.92175],[-115.66464,32.92071],[-115.66378,32.9196],[-115.66223,32.91753],[-115.66159,32.91675],[-115.66041,32.91521],[-115.65904,32.91345],[-115.65679,32.91038],[-115.65503,32.90809],[-115.65358,32.90619],[-115.65195,32.90406],[-115.65036,32.90197],[-115.64888,32.90003],[-115.64868,32.89968],[-115.64713,32.89788],[-115.6459,32.89616],[-115.64556,32.89565],[-115.64425,32.89387],[-115.64352,32.89289],[-115.64266,32.89185],[-115.6417,32.89044],[-115.64168,32.89041],[-115.64011,32.88849],[-115.63858,32.88675],[-115.63844,32.88652],[-115.63835,32.88639]]}},{"type":"Feature","properties":{"name":"490","source":"Bureau of Land Management","source_detail":"BLM GTLF OBJECTID 159335","source_id":"{3EB8FD54-A344-4DEF-8A33-F817D3AEEE2D}","road_class":"transportation_system_-_primitive_road","surface":"natural_improved","vehicle_class":"4wd_low","allowed_mode":"unk","access_restriction":"not_listed","seasonal_restriction":"not_listed","gis_miles":0.00730517},"geometry":{"type":"MultiLineString","coordinates":[[[-115.35481,33.15377],[-115.35486,33.15382]],[[-115.34868,33.14746],[-115.34868,33.14746]],[[-115.33487,33.13293],[-115.33487,33.13293]],[[-115.32929,33.11841],[-115.3293,33.11845]]]}},{"type":"Feature","properties":{"name":"468","source":"Bureau of Land Management","source_detail":"BLM GTLF OBJECTID 159822","source_id":"{F02AEC7B-556F-4FD7-8BD5-E0E7D6CB502C}","road_class":"transportation_system_-_primitive_road","surface":"natural_improved","vehicle_class":"4wd_low","allowed_mode":"unk","access_restriction":"not_listed","seasonal_restriction":"not_listed","gis_miles":9.48357199},"geometry":{"type":"MultiLineString","coordinates":[[[-115.22114,33.01378],[-115.22191,33.01469],[-115.22399,33.01715],[-115.22597,33.01949],[-115.22631,33.01988],[-115.22732,33.02105]],[[-115.32685,33.12441],[-115.32779,33.12552],[-115.32932,33.12733]],[[-115.33396,33.13293],[-115.33397,33.13295],[-115.33456,33.13358],[-115.33693,33.13599],[-115.3388,33.13796],[-115.34048,33.1397],[-115.34072,33.13995],[-115.34076,33.14],[-115.34215,33.14144],[-115.34405,33.14343],[-115.34429,33.14377],[-115.34554,33.14558],[-115.34582,33.14593],[-115.34732,33.14746]],[[-115.35484,33.15515],[-115.35606,33.15641],[-115.35838,33.15876],[-115.36047,33.16091],[-115.36276,33.16321],[-115.36475,33.16522],[-115.36728,33.16779],[-115.36976,33.17032],[-115.37153,33.17213],[-115.37344,33.1741],[-115.37552,33.17623],[-115.37761,33.17833],[-115.37829,33.1791],[-115.37845,33.17931],[-115.379,33.18004],[-115.38038,33.18185],[-115.38204,33.184],[-115.38217,33.18445],[-115.38215,33.18492],[-115.38226,33.18505],[-115.38227,33.18517],[-115.38224,33.18521],[-115.38205,33.18556],[-115.38204,33.18558],[-115.38186,33.18581],[-115.38183,33.18603],[-115.38192,33.18628],[-115.38207,33.18652],[-115.38235,33.18677],[-115.38522,33.18937],[-115.38809,33.19195],[-115.39095,33.19453],[-115.39115,33.19467],[-115.39248,33.1937],[-115.39289,33.19408],[-115.39154,33.19507],[-115.39343,33.19678],[-115.39463,33.19784],[-115.39531,33.19836],[-115.39589,33.19873],[-115.39654,33.19908],[-115.39731,33.19941],[-115.40016,33.20045],[-115.40075,33.2007],[-115.40125,33.201],[-115.40168,33.20136],[-115.40206,33.20176],[-115.40438,33.20496],[-115.40471,33.20537],[-115.40606,33.20466],[-115.40631,33.20496],[-115.40504,33.20579],[-115.40511,33.20599],[-115.40532,33.20629],[-115.40572,33.20674],[-115.4063,33.20713],[-115.40869,33.20814],[-115.40945,33.20846],[-115.40986,33.20869],[-115.41048,33.20917],[-115.41091,33.20971],[-115.41117,33.21028],[-115.41126,33.21077],[-115.41149,33.21345],[-115.41165,33.21513],[-115.41335,33.21505],[-115.41336,33.21512],[-115.41342,33.21551],[-115.41172,33.2157],[-115.41185,33.21794],[-115.41195,33.21901],[-115.41216,33.21975],[-115.41247,33.22033],[-115.41298,33.22101],[-115.41354,33.22145],[-115.41412,33.22182],[-115.41471,33.22208],[-115.41648,33.22275],[-115.41815,33.22339],[-115.41883,33.22375],[-115.41945,33.22418],[-115.42004,33.22475],[-115.4205,33.22538],[-115.42085,33.22608],[-115.42108,33.22684],[-115.4213,33.22833],[-115.42136,33.22875],[-115.42155,33.22927],[-115.42179,33.22966],[-115.42212,33.23005],[-115.42237,33.23032]]]}}]}