{"type":"FeatureCollection","features":[{"type":"Feature","properties":{"name":"Corral Creek Road","road_class":"track","surface":"unpaved","tracktype":"grade4","source":"Caltrans All Roads + OpenStreetMap explicit surface","source_detail":"osm way 7925862; Caltrans All Roads public-network geometry match","source_tile":"169/380","public_network_source":"Caltrans All Roads (ARNOLD/HPMS)","surface_source":"OpenStreetMap explicit surface tag","caltrans_match_coverage":0.955,"verified_length_m":11135},"geometry":{"type":"LineString","coordinates":[[-120.67734,41.9646],[-120.67662,41.96468],[-120.67616,41.96475],[-120.67572,41.96484],[-120.67545,41.96491],[-120.67506,41.96506],[-120.67454,41.96527],[-120.67408,41.96546],[-120.67354,41.96567],[-120.67323,41.96584],[-120.67302,41.96593],[-120.67276,41.966],[-120.67242,41.96606],[-120.67211,41.96605],[-120.67188,41.96603],[-120.66999,41.96582],[-120.66937,41.96578],[-120.66923,41.96579],[-120.66904,41.96581],[-120.66877,41.96587],[-120.66835,41.96597],[-120.66799,41.96608],[-120.66781,41.96614],[-120.66758,41.96624],[-120.66733,41.9664],[-120.66709,41.96657],[-120.66679,41.96672],[-120.6666,41.96683],[-120.66648,41.96688],[-120.66638,41.96692],[-120.66615,41.967],[-120.66547,41.96721],[-120.66477,41.96729],[-120.66422,41.96731],[-120.66375,41.96735],[-120.66343,41.96738],[-120.66303,41.96738],[-120.66286,41.96739],[-120.66273,41.9674],[-120.66262,41.96742],[-120.66243,41.96748],[-120.66207,41.9676],[-120.66113,41.96803],[-120.65977,41.96878],[-120.6594,41.96902],[-120.65932,41.96908],[-120.65919,41.96924],[-120.65886,41.96975],[-120.65872,41.96999],[-120.6586,41.97013],[-120.65847,41.97023],[-120.65831,41.97033],[-120.65814,41.97042],[-120.65796,41.97049],[-120.65786,41.97052],[-120.65718,41.97061],[-120.65661,41.97066],[-120.65439,41.97087],[-120.65414,41.97093],[-120.65385,41.97097],[-120.65368,41.97097],[-120.65353,41.97095],[-120.65339,41.97095],[-120.65303,41.971],[-120.65268,41.97107],[-120.65255,41.97111],[-120.65238,41.97118],[-120.65224,41.97128],[-120.65176,41.97157],[-120.65134,41.9718],[-120.65077,41.97214],[-120.65034,41.97238],[-120.64993,41.97259],[-120.64934,41.97284],[-120.6486,41.97317],[-120.64685,41.97387],[-120.64649,41.97404],[-120.64603,41.97431],[-120.64502,41.9749],[-120.6447,41.97508],[-120.64438,41.97526],[-120.64412,41.97537],[-120.64395,41.9754],[-120.64378,41.97543],[-120.64343,41.97545],[-120.643,41.97546],[-120.64273,41.97545],[-120.64238,41.9754],[-120.64201,41.9753],[-120.64119,41.97515],[-120.64095,41.97509],[-120.64042,41.97487],[-120.64015,41.97473],[-120.63997,41.97465],[-120.63977,41.97459],[-120.63929,41.97453],[-120.63903,41.97452],[-120.63869,41.97454],[-120.63831,41.97463],[-120.63797,41.97472],[-120.63714,41.97501],[-120.63685,41.97504],[-120.63669,41.97504],[-120.63659,41.97504],[-120.6365,41.97502],[-120.63639,41.97498],[-120.63629,41.97493],[-120.63618,41.97485],[-120.63586,41.97455],[-120.6356,41.97434],[-120.63543,41.97423],[-120.63525,41.97418],[-120.63494,41.97412],[-120.63478,41.97413],[-120.63449,41.97418],[-120.6342,41.97431],[-120.63397,41.97444],[-120.63345,41.9748],[-120.63282,41.9753],[-120.63268,41.97538],[-120.63248,41.97548],[-120.63093,41.97592],[-120.63062,41.97599],[-120.63019,41.97612],[-120.62938,41.97635],[-120.62915,41.97639],[-120.62895,41.97642],[-120.62876,41.97641],[-120.62842,41.97634],[-120.62815,41.97624],[-120.62789,41.9761],[-120.62741,41.97578],[-120.62722,41.97563],[-120.62655,41.97516],[-120.62581,41.97476],[-120.62533,41.97452],[-120.62514,41.97445],[-120.62441,41.97423],[-120.62412,41.97418],[-120.62369,41.97412],[-120.62303,41.97401],[-120.6225,41.97391],[-120.62218,41.97383],[-120.62186,41.97374],[-120.62053,41.97323],[-120.62002,41.97302],[-120.61959,41.97283],[-120.61878,41.9724],[-120.61844,41.97223],[-120.61786,41.97201],[-120.61755,41.97191],[-120.61679,41.97171],[-120.61638,41.97158],[-120.61632,41.97156],[-120.61626,41.9715],[-120.61618,41.97136],[-120.61592,41.97074],[-120.61567,41.97019],[-120.61545,41.96993],[-120.61536,41.96984],[-120.615,41.96959],[-120.61473,41.96944],[-120.61447,41.96932],[-120.61416,41.9692],[-120.61261,41.96869],[-120.6121,41.96856],[-120.61162,41.96842],[-120.61095,41.96823],[-120.61075,41.96817],[-120.61012,41.9679],[-120.60962,41.96765],[-120.60943,41.96755],[-120.60913,41.96742],[-120.60876,41.96722],[-120.60862,41.96711],[-120.60849,41.96702],[-120.60814,41.96681],[-120.60783,41.9666],[-120.60679,41.96578],[-120.60559,41.96493],[-120.60548,41.96482],[-120.60526,41.96454],[-120.60512,41.96433],[-120.60465,41.96392],[-120.60365,41.96324],[-120.60345,41.96314],[-120.60326,41.96307],[-120.60284,41.96298],[-120.60269,41.96297],[-120.60219,41.96301],[-120.60209,41.963],[-120.60203,41.96298],[-120.60197,41.96294],[-120.60191,41.96284],[-120.60189,41.96282],[-120.60168,41.96248],[-120.60156,41.96232],[-120.60136,41.96212],[-120.60113,41.96193],[-120.60088,41.96177],[-120.6006,41.96162],[-120.60039,41.96153],[-120.60026,41.96144],[-120.59984,41.96122],[-120.59965,41.96113],[-120.59949,41.96103],[-120.5994,41.96096],[-120.59932,41.96089],[-120.59924,41.96077],[-120.59917,41.96063],[-120.59915,41.96057],[-120.59879,41.95996],[-120.59871,41.95983],[-120.59843,41.9595],[-120.59826,41.95936],[-120.5979,41.95914],[-120.59732,41.95886],[-120.59715,41.9588],[-120.59683,41.95869],[-120.5965,41.95861],[-120.59615,41.95856],[-120.59581,41.95853],[-120.59544,41.95854],[-120.59535,41.95855],[-120.59525,41.95857],[-120.59505,41.95864],[-120.59487,41.95872],[-120.5947,41.95881],[-120.59424,41.95913],[-120.59279,41.9601],[-120.59263,41.96019],[-120.59246,41.96027],[-120.59227,41.96033],[-120.59208,41.96038],[-120.59188,41.96041],[-120.59167,41.96043],[-120.59147,41.96043],[-120.5908,41.96037],[-120.59039,41.96031],[-120.59,41.96022],[-120.58962,41.9601],[-120.58841,41.95958],[-120.58781,41.95937],[-120.5872,41.95924],[-120.58677,41.95916],[-120.58665,41.95915],[-120.58646,41.95916],[-120.58628,41.9592],[-120.58611,41.95926],[-120.58597,41.95935],[-120.58588,41.95943],[-120.58553,41.95966],[-120.58511,41.9599],[-120.58466,41.96009],[-120.58398,41.96031],[-120.5832,41.96062],[-120.58248,41.96089],[-120.5813,41.96127],[-120.58056,41.9615],[-120.58016,41.96159],[-120.5792,41.96174],[-120.57906,41.96179],[-120.57879,41.96193],[-120.57865,41.96203],[-120.57841,41.96231],[-120.57789,41.96293],[-120.57749,41.96348],[-120.57722,41.96383],[-120.57672,41.96439],[-120.57635,41.96496],[-120.57598,41.96539],[-120.57543,41.96579],[-120.57474,41.96625],[-120.57439,41.96644],[-120.57386,41.96681],[-120.57362,41.96704],[-120.57334,41.96731],[-120.57285,41.96767],[-120.57272,41.96778],[-120.57253,41.96781],[-120.57239,41.96776],[-120.57229,41.96771],[-120.572,41.96749],[-120.57194,41.96746],[-120.57189,41.96745],[-120.57181,41.96747],[-120.57178,41.96749],[-120.57155,41.9678],[-120.57141,41.96812],[-120.57125,41.96888],[-120.57119,41.96931],[-120.57089,41.97029],[-120.57078,41.97077],[-120.57075,41.97104],[-120.57074,41.97146],[-120.57081,41.97172],[-120.57093,41.97198],[-120.57096,41.97208],[-120.571,41.97234],[-120.57098,41.97256]]}},{"type":"Feature","properties":{"name":"46N63","road_class":"unclassified","surface":"gravel","source":"Caltrans All Roads + OpenStreetMap explicit surface","source_detail":"osm way 374362112; Caltrans All Roads public-network geometry match","source_tile":"169/381","public_network_source":"Caltrans All Roads (ARNOLD/HPMS)","surface_source":"OpenStreetMap explicit surface tag","caltrans_match_coverage":0.998,"verified_length_m":24024},"geometry":{"type":"LineString","coordinates":[[-120.32891,41.72495],[-120.32909,41.72536],[-120.32918,41.7257],[-120.32923,41.72606],[-120.3292,41.72646],[-120.3289,41.72724],[-120.32884,41.7275],[-120.32837,41.72836],[-120.32815,41.72886],[-120.32805,41.72923],[-120.32815,41.72969],[-120.32875,41.73044],[-120.3292,41.73108],[-120.32998,41.73225],[-120.33096,41.73392],[-120.33124,41.73467],[-120.33129,41.7352],[-120.33122,41.7357],[-120.33111,41.7361],[-120.33086,41.73653],[-120.33041,41.73685],[-120.32961,41.73723],[-120.32903,41.73757],[-120.3288,41.73791],[-120.32878,41.73816],[-120.32931,41.73847],[-120.33088,41.73917],[-120.33141,41.73954],[-120.33161,41.74005],[-120.33163,41.74045],[-120.33139,41.74079],[-120.33116,41.74103],[-120.33049,41.74112],[-120.32996,41.74117],[-120.32946,41.74141],[-120.32826,41.7426],[-120.32777,41.74284],[-120.32736,41.74284],[-120.32689,41.74271],[-120.32654,41.74256],[-120.32629,41.7425],[-120.32584,41.74282],[-120.32551,41.74317],[-120.32534,41.74331],[-120.32511,41.74336],[-120.32418,41.74319],[-120.32386,41.7432],[-120.32367,41.74325],[-120.32337,41.74357],[-120.323,41.74415],[-120.32272,41.74479],[-120.32245,41.74535],[-120.32245,41.74572],[-120.32255,41.74613],[-120.32287,41.7465],[-120.32382,41.7469],[-120.32453,41.74745],[-120.32504,41.74778],[-120.32562,41.7482],[-120.32643,41.74888],[-120.32688,41.74955],[-120.32699,41.74974],[-120.32708,41.74996],[-120.32714,41.75022],[-120.32717,41.75071],[-120.32714,41.75093],[-120.32711,41.75103],[-120.32702,41.75118],[-120.32692,41.75131],[-120.32654,41.75193],[-120.32649,41.75206],[-120.32648,41.75238],[-120.32739,41.75795],[-120.32752,41.75828],[-120.32772,41.75854],[-120.32818,41.75889],[-120.33264,41.76198],[-120.33411,41.76303],[-120.33452,41.76338],[-120.33492,41.7638],[-120.33539,41.76435],[-120.33607,41.76516],[-120.33657,41.76568],[-120.33787,41.76681],[-120.33819,41.76723],[-120.33908,41.76872],[-120.33925,41.76904],[-120.33944,41.7695],[-120.33947,41.7696],[-120.33949,41.76987],[-120.34006,41.77318],[-120.34021,41.77388],[-120.34028,41.77414],[-120.34036,41.77431],[-120.34058,41.77462],[-120.34157,41.77595],[-120.34167,41.77614],[-120.34214,41.7779],[-120.34222,41.77839],[-120.3423,41.77869],[-120.34235,41.77907],[-120.34253,41.77972],[-120.34262,41.78015],[-120.34293,41.78093],[-120.34296,41.7811],[-120.343,41.78148],[-120.34299,41.78191],[-120.34293,41.78215],[-120.34273,41.78286],[-120.34271,41.78303],[-120.34278,41.78368],[-120.34306,41.78422],[-120.3431,41.78437],[-120.3431,41.78448],[-120.34306,41.7846],[-120.34297,41.78467],[-120.34288,41.78471],[-120.34277,41.78473],[-120.34255,41.78471],[-120.34232,41.78467],[-120.34135,41.78444],[-120.34108,41.78437],[-120.34061,41.78418],[-120.34052,41.78417],[-120.34043,41.78418],[-120.34035,41.78421],[-120.33955,41.78468],[-120.33933,41.78479],[-120.33912,41.78487],[-120.33892,41.78493],[-120.33863,41.78499],[-120.33851,41.785],[-120.33829,41.78499],[-120.33808,41.78495],[-120.3377,41.78476],[-120.33726,41.78444],[-120.33659,41.78412],[-120.33607,41.78378],[-120.3358,41.78365],[-120.33541,41.78351],[-120.33532,41.78346],[-120.33523,41.78339],[-120.335,41.78317],[-120.33487,41.7831],[-120.33458,41.78302],[-120.33446,41.78298],[-120.33435,41.78291],[-120.33411,41.78271],[-120.33392,41.7826],[-120.33351,41.78246],[-120.33334,41.78237],[-120.33322,41.78225],[-120.33319,41.78218],[-120.33308,41.78118],[-120.33304,41.78109],[-120.33297,41.78099],[-120.33287,41.78089],[-120.33275,41.7808],[-120.3326,41.78072],[-120.33235,41.78063],[-120.33176,41.78039],[-120.33157,41.78035],[-120.33138,41.78035],[-120.33082,41.78039],[-120.33061,41.78039],[-120.33032,41.78032],[-120.33004,41.78018],[-120.32976,41.78015],[-120.32966,41.78011],[-120.32955,41.78004],[-120.32947,41.77994],[-120.3293,41.77945],[-120.32924,41.77938],[-120.32917,41.77934],[-120.32906,41.77932],[-120.32889,41.77932],[-120.32873,41.77936],[-120.32863,41.77941],[-120.32825,41.77965],[-120.32763,41.7801],[-120.3272,41.78036],[-120.32711,41.78038],[-120.32701,41.78038],[-120.32692,41.78036],[-120.32651,41.78014],[-120.32638,41.78009],[-120.32614,41.78005],[-120.32607,41.78001],[-120.32602,41.77994],[-120.32594,41.77935],[-120.32586,41.77921],[-120.32573,41.77906],[-120.32555,41.77893],[-120.32514,41.77872],[-120.32432,41.77844],[-120.32354,41.7782],[-120.32338,41.77813],[-120.32327,41.77805],[-120.32318,41.77795],[-120.32258,41.77704],[-120.32234,41.77675],[-120.32209,41.7765],[-120.32167,41.77614],[-120.32049,41.77544],[-120.32012,41.77526],[-120.31997,41.77518],[-120.31983,41.77515],[-120.31935,41.77512],[-120.31871,41.7752],[-120.31838,41.77525],[-120.31781,41.7754],[-120.31757,41.77549],[-120.31746,41.77555],[-120.31741,41.77559],[-120.31736,41.77566],[-120.31735,41.77575],[-120.31738,41.77593],[-120.31744,41.77611],[-120.31747,41.77629],[-120.31746,41.7765],[-120.31739,41.777],[-120.31728,41.77749],[-120.31729,41.77759],[-120.31733,41.7777],[-120.31776,41.77837],[-120.31807,41.77869],[-120.31827,41.77887],[-120.31841,41.77898],[-120.31898,41.77929],[-120.31973,41.77965],[-120.31987,41.77969],[-120.32049,41.77981],[-120.32081,41.77992],[-120.32115,41.77999],[-120.32133,41.78005],[-120.32144,41.78012],[-120.32165,41.78031],[-120.32189,41.78057],[-120.32206,41.78067],[-120.32235,41.7808],[-120.32251,41.78096],[-120.32258,41.78107],[-120.32261,41.7812],[-120.32263,41.7819],[-120.32257,41.78213],[-120.32246,41.78238],[-120.32228,41.78264],[-120.32211,41.7828],[-120.32199,41.78289],[-120.32159,41.78311],[-120.32124,41.78327],[-120.32098,41.78336],[-120.31978,41.78394],[-120.31962,41.78405],[-120.31873,41.78483],[-120.31856,41.78492],[-120.31839,41.78496],[-120.31814,41.78499],[-120.31799,41.785],[-120.31712,41.78498],[-120.31694,41.78499],[-120.31667,41.78505],[-120.31641,41.78517],[-120.31617,41.78536],[-120.3156,41.78598],[-120.31525,41.78626],[-120.31497,41.78655],[-120.31484,41.78671],[-120.31469,41.78701],[-120.31461,41.78712],[-120.3145,41.78724],[-120.31434,41.78733],[-120.31428,41.78739],[-120.31412,41.78756],[-120.31378,41.78782],[-120.31351,41.78798],[-120.31304,41.78813],[-120.31221,41.78838],[-120.31145,41.78854],[-120.31133,41.78859],[-120.31119,41.78866],[-120.31114,41.7887],[-120.31087,41.78901],[-120.31052,41.78967],[-120.31036,41.78987],[-120.31028,41.78996],[-120.30971,41.79046],[-120.30951,41.79059],[-120.30928,41.79068],[-120.30912,41.79068],[-120.30884,41.79065],[-120.30876,41.79065],[-120.30869,41.79069],[-120.30864,41.79076],[-120.30863,41.79083],[-120.30867,41.79092],[-120.30876,41.79108],[-120.30909,41.79153],[-120.30936,41.79185],[-120.30959,41.79209],[-120.30963,41.79218],[-120.30966,41.79232],[-120.30963,41.79268],[-120.30979,41.79331],[-120.3098,41.79342],[-120.30977,41.79348],[-120.30972,41.79353],[-120.30966,41.79355],[-120.30907,41.79367],[-120.30887,41.79369],[-120.30786,41.79365],[-120.30755,41.79366],[-120.30741,41.7937],[-120.30684,41.7939],[-120.30659,41.79401],[-120.306,41.79438],[-120.30546,41.79483],[-120.30531,41.79493],[-120.30495,41.7951],[-120.30433,41.79534],[-120.30395,41.79545],[-120.30329,41.79569],[-120.30265,41.79584],[-120.30222,41.79589],[-120.30199,41.7959],[-120.30142,41.79588],[-120.30109,41.79589],[-120.30091,41.79591],[-120.30068,41.79599],[-120.30048,41.7961],[-120.30025,41.7962],[-120.29976,41.79631],[-120.29942,41.79633],[-120.29921,41.7964],[-120.29911,41.79651],[-120.29906,41.79664],[-120.29901,41.79728],[-120.29897,41.79744],[-120.29879,41.7977],[-120.29846,41.79829],[-120.29808,41.79883],[-120.29741,41.79961],[-120.29732,41.79966],[-120.29724,41.79967],[-120.29718,41.79964],[-120.29714,41.79958],[-120.29713,41.79949],[-120.2972,41.79907],[-120.29719,41.79863],[-120.2973,41.79757],[-120.29726,41.79744],[-120.29718,41.7974],[-120.29706,41.7974],[-120.29679,41.79752],[-120.29626,41.79783],[-120.29589,41.79808],[-120.29578,41.79819],[-120.29532,41.79875],[-120.29527,41.79884],[-120.2952,41.799],[-120.29518,41.79917],[-120.2952,41.79944],[-120.29524,41.79959],[-120.2955,41.80019],[-120.29554,41.80034],[-120.29558,41.80054],[-120.29561,41.80101],[-120.29582,41.80152],[-120.29599,41.80177],[-120.29627,41.80204],[-120.29671,41.80241],[-120.29717,41.80288],[-120.29788,41.8035],[-120.298,41.80359],[-120.29826,41.80368],[-120.29838,41.80375],[-120.29862,41.80395],[-120.29872,41.80405],[-120.29881,41.80419],[-120.29903,41.80461],[-120.29927,41.80492],[-120.29937,41.80517],[-120.29953,41.8058],[-120.29963,41.80634],[-120.29968,41.80649],[-120.29974,41.80658],[-120.30013,41.80701],[-120.30072,41.80773],[-120.30151,41.80902],[-120.30204,41.80978],[-120.30214,41.81006],[-120.30221,41.81038],[-120.30225,41.81085],[-120.30223,41.81106],[-120.302,41.81237],[-120.30176,41.81291],[-120.30148,41.81381],[-120.30133,41.81442],[-120.3012,41.81482],[-120.30108,41.81497],[-120.3006,41.81553],[-120.30027,41.81586],[-120.30009,41.81597],[-120.29958,41.81618],[-120.29947,41.81625],[-120.29941,41.81632],[-120.29936,41.81643],[-120.29932,41.81667],[-120.29927,41.81727],[-120.29936,41.8179],[-120.29935,41.81807],[-120.29925,41.81871],[-120.29906,41.81972],[-120.29903,41.82008],[-120.29901,41.82155],[-120.29896,41.82216],[-120.29887,41.82259],[-120.29868,41.82312],[-120.29798,41.8242],[-120.29766,41.82465],[-120.2972,41.82515],[-120.29703,41.82544],[-120.29696,41.82566],[-120.29696,41.82573],[-120.29698,41.82586],[-120.29706,41.82599],[-120.29712,41.82604],[-120.29776,41.8264],[-120.29822,41.8268],[-120.2985,41.82711],[-120.29855,41.82721],[-120.29872,41.82786],[-120.29874,41.8281],[-120.29876,41.82893],[-120.29883,41.82936],[-120.2988,41.82985],[-120.29883,41.83021],[-120.29888,41.83036],[-120.29896,41.83048],[-120.29936,41.83087],[-120.29964,41.83105],[-120.29991,41.8312],[-120.3001,41.83134],[-120.30052,41.83186],[-120.30082,41.83239],[-120.30097,41.83261],[-120.30127,41.83293],[-120.30161,41.83324],[-120.30192,41.83342],[-120.30203,41.83347],[-120.3032,41.83386],[-120.30342,41.83392],[-120.30396,41.83398],[-120.30411,41.83402],[-120.3051,41.83454],[-120.3054,41.83474],[-120.30566,41.83487],[-120.3059,41.83494],[-120.30647,41.83503],[-120.30707,41.83504],[-120.30719,41.83503],[-120.30774,41.83493],[-120.30797,41.83493],[-120.30877,41.83502],[-120.30898,41.83502],[-120.31158,41.83506],[-120.3125,41.83505],[-120.31265,41.83503],[-120.31279,41.83499],[-120.31294,41.83491],[-120.31322,41.83469],[-120.3134,41.83459],[-120.31351,41.83455],[-120.31373,41.83452],[-120.31388,41.83452],[-120.31424,41.83461],[-120.31453,41.8348],[-120.31514,41.83506],[-120.31524,41.83512],[-120.31537,41.83529],[-120.31545,41.83537],[-120.31556,41.83543],[-120.3166,41.83579],[-120.31669,41.83584],[-120.31677,41.83591],[-120.31716,41.83655],[-120.31743,41.83682],[-120.31758,41.83693],[-120.31768,41.83699],[-120.31781,41.83702],[-120.31803,41.83703],[-120.31829,41.83701],[-120.31861,41.83695],[-120.31954,41.83666],[-120.32005,41.83653],[-120.32026,41.83645],[-120.32034,41.83644],[-120.32045,41.83645],[-120.32054,41.83649],[-120.3211,41.83713],[-120.32136,41.83736],[-120.32143,41.83742],[-120.32179,41.83761],[-120.32197,41.8377],[-120.32215,41.83774],[-120.32226,41.83775],[-120.32278,41.83766],[-120.32309,41.83758],[-120.3233,41.83749],[-120.32381,41.83723],[-120.32439,41.8368],[-120.3246,41.83667],[-120.32591,41.83621],[-120.32611,41.83611],[-120.32631,41.83596],[-120.32695,41.83529],[-120.32716,41.8351],[-120.32722,41.83507],[-120.32735,41.83504],[-120.32747,41.83504],[-120.32758,41.83506],[-120.32765,41.8351],[-120.32778,41.83528],[-120.32797,41.83566],[-120.32814,41.83643],[-120.32825,41.83748],[-120.32829,41.83761],[-120.32836,41.83769],[-120.32846,41.83776],[-120.32873,41.83784],[-120.32932,41.83795],[-120.32963,41.83798],[-120.33073,41.838],[-120.33125,41.838],[-120.33159,41.83801],[-120.33173,41.83803],[-120.33234,41.83818],[-120.33252,41.83825],[-120.33267,41.83834],[-120.33292,41.83855],[-120.33347,41.83908],[-120.33378,41.83933],[-120.33404,41.83952],[-120.33452,41.83982],[-120.33548,41.84036],[-120.33563,41.84041],[-120.33576,41.84044],[-120.33589,41.84045],[-120.33655,41.84037],[-120.33669,41.84035],[-120.33717,41.84035],[-120.33775,41.84042],[-120.33813,41.84049],[-120.34014,41.84106],[-120.34361,41.84198]]}},{"type":"Feature","properties":{"name":"Snowgoose Lane","road_class":"unclassified","surface":"unpaved","source":"Caltrans All Roads + OpenStreetMap explicit surface","source_detail":"osm way 7912037; Caltrans All Roads public-network geometry match","source_tile":"169/380","public_network_source":"Caltrans All Roads (ARNOLD/HPMS)","surface_source":"OpenStreetMap explicit surface tag","caltrans_match_coverage":1.0,"verified_length_m":562},"geometry":{"type":"LineString","coordinates":[[-120.32115,41.99316],[-120.32116,41.9925],[-120.32116,41.99173],[-120.32115,41.99062],[-120.32115,41.98842],[-120.32114,41.98836],[-120.32113,41.98832],[-120.3211,41.98826],[-120.32102,41.9882],[-120.3209,41.98817]]}},{"type":"Feature","properties":{"name":"Southeast Cottonwood Road","road_class":"track","surface":"fine_gravel","source":"Caltrans All Roads + OpenStreetMap explicit surface","source_detail":"osm way 7919958; Caltrans All Roads public-network geometry match","source_tile":"169/380","public_network_source":"Caltrans All Roads (ARNOLD/HPMS)","surface_source":"OpenStreetMap explicit surface tag","caltrans_match_coverage":0.882,"verified_length_m":2272},"geometry":{"type":"LineString","coordinates":[[-120.27885,41.93532],[-120.27882,41.93517],[-120.27882,41.93506],[-120.27886,41.9349],[-120.27892,41.93474],[-120.27909,41.93459],[-120.2794,41.93449],[-120.27971,41.93446],[-120.27999,41.93446],[-120.28025,41.9345],[-120.28052,41.93459],[-120.28082,41.93473],[-120.28114,41.93482],[-120.28146,41.93485],[-120.28169,41.93483],[-120.2818,41.9348],[-120.28193,41.93472],[-120.28197,41.93468],[-120.28205,41.93458],[-120.28212,41.93445],[-120.28219,41.93432],[-120.28232,41.93389],[-120.28237,41.93363],[-120.2824,41.93344],[-120.2824,41.9329],[-120.28248,41.93254],[-120.28246,41.93246],[-120.28239,41.93237],[-120.28202,41.93202],[-120.28178,41.93182],[-120.2816,41.9317],[-120.28149,41.93165],[-120.28129,41.93159],[-120.28101,41.93154],[-120.28089,41.9315],[-120.28077,41.93143],[-120.28069,41.93136],[-120.28058,41.93119],[-120.2805,41.93115],[-120.28047,41.93114],[-120.28043,41.93113],[-120.28008,41.93121],[-120.27989,41.93119],[-120.27974,41.93114],[-120.27939,41.93096],[-120.27924,41.93092],[-120.27903,41.93089],[-120.2789,41.93086],[-120.27879,41.93082],[-120.27869,41.93077],[-120.27862,41.93073],[-120.27859,41.93068],[-120.27857,41.93063],[-120.27853,41.93035],[-120.27849,41.93018],[-120.27846,41.93013],[-120.2784,41.93007],[-120.27828,41.93001],[-120.27819,41.92997],[-120.2781,41.92994],[-120.27781,41.92988],[-120.27771,41.92984],[-120.27766,41.92979],[-120.2776,41.92973],[-120.27758,41.92965],[-120.27759,41.92956],[-120.27763,41.92928],[-120.27763,41.92918],[-120.27759,41.929],[-120.27756,41.92895],[-120.27746,41.92884],[-120.27734,41.92875],[-120.27727,41.92872],[-120.27719,41.92867],[-120.27666,41.92846],[-120.2764,41.92839],[-120.27626,41.92832],[-120.27617,41.92825],[-120.27585,41.92791],[-120.27571,41.92774],[-120.27563,41.92758],[-120.27559,41.92749],[-120.27558,41.92721],[-120.27554,41.92663],[-120.2756,41.92626],[-120.27559,41.92615],[-120.27555,41.92602],[-120.27551,41.92594],[-120.27549,41.92586],[-120.27549,41.92569],[-120.2755,41.92558],[-120.27559,41.92539],[-120.27569,41.92518],[-120.27583,41.92501],[-120.27586,41.9249],[-120.27585,41.92473],[-120.27576,41.92456],[-120.27563,41.92441],[-120.27547,41.92427],[-120.2753,41.92415],[-120.27507,41.92398],[-120.27499,41.92389],[-120.27487,41.92365],[-120.27483,41.92355],[-120.27478,41.92345],[-120.2747,41.92333],[-120.27465,41.92328],[-120.27457,41.92321],[-120.2744,41.92313],[-120.27425,41.92309],[-120.27413,41.92302],[-120.27405,41.92292],[-120.27394,41.92284],[-120.27385,41.92276],[-120.27381,41.92262],[-120.27377,41.92257],[-120.2737,41.9225],[-120.27363,41.92235],[-120.2736,41.92194],[-120.27356,41.92177],[-120.27345,41.92157],[-120.27325,41.92127],[-120.27313,41.92111],[-120.27304,41.92105]]}},{"type":"Feature","properties":{"name":"(unnamed public road)","road_class":"unclassified","surface":"unpaved","source":"Caltrans All Roads + OpenStreetMap explicit surface","source_detail":"osm way 7920452; Caltrans All Roads public-network geometry match","source_tile":"169/380","public_network_source":"Caltrans All Roads (ARNOLD/HPMS)","surface_source":"OpenStreetMap explicit surface tag","caltrans_match_coverage":1.0,"verified_length_m":1529},"geometry":{"type":"LineString","coordinates":[[-120.56847,41.9282],[-120.5676,41.92821],[-120.56643,41.92821],[-120.56549,41.92822],[-120.56478,41.92827],[-120.56461,41.92827],[-120.56378,41.92823],[-120.5626,41.92816],[-120.56169,41.92813],[-120.55917,41.92809],[-120.55899,41.92807],[-120.55889,41.92804],[-120.55655,41.92722],[-120.55539,41.92685],[-120.55436,41.92655],[-120.55383,41.92635],[-120.55343,41.92618],[-120.55309,41.92608],[-120.55286,41.92604],[-120.55252,41.92602],[-120.55203,41.92603],[-120.55159,41.92606],[-120.5513,41.92609],[-120.55062,41.92619]]}},{"type":"Feature","properties":{"name":"Sagegrouse Road","road_class":"unclassified","surface":"unpaved","source":"Caltrans All Roads + OpenStreetMap explicit surface","source_detail":"osm way 7922617; Caltrans All Roads public-network geometry match","source_tile":"169/380","public_network_source":"Caltrans All Roads (ARNOLD/HPMS)","surface_source":"OpenStreetMap explicit surface tag","caltrans_match_coverage":1.0,"verified_length_m":1649},"geometry":{"type":"LineString","coordinates":[[-120.30268,41.9713],[-120.30288,41.97136],[-120.30295,41.97137],[-120.30299,41.97138],[-120.30316,41.97137],[-120.30327,41.97137],[-120.30335,41.97138],[-120.30343,41.9714],[-120.30347,41.97144],[-120.3035,41.97148],[-120.30351,41.97154],[-120.30351,41.97159],[-120.30356,41.97323],[-120.30361,41.97655],[-120.30365,41.9786],[-120.30371,41.98018],[-120.30372,41.98086],[-120.30379,41.98358],[-120.30386,41.98572]]}},{"type":"Feature","properties":{"name":"Sugar Hill Pit Road","road_class":"unclassified","surface":"gravel","source":"Caltrans All Roads + OpenStreetMap explicit surface","source_detail":"osm way 7924801; Caltrans All Roads public-network geometry match","source_tile":"169/380","public_network_source":"Caltrans All Roads (ARNOLD/HPMS)","surface_source":"OpenStreetMap explicit surface tag","caltrans_match_coverage":1.0,"verified_length_m":829},"geometry":{"type":"LineString","coordinates":[[-120.35907,41.80272],[-120.35898,41.80273],[-120.35881,41.80278],[-120.3587,41.80278],[-120.35853,41.80274],[-120.3583,41.80272],[-120.35805,41.80273],[-120.35783,41.80276],[-120.35759,41.80284],[-120.3575,41.80289],[-120.3573,41.80307],[-120.35725,41.80312],[-120.35709,41.80327],[-120.35679,41.80346],[-120.35651,41.80361],[-120.35636,41.80367],[-120.35614,41.80377],[-120.35573,41.80402],[-120.35539,41.80421],[-120.35514,41.80437],[-120.35485,41.80459],[-120.35466,41.80477],[-120.35444,41.80496],[-120.35438,41.80499],[-120.35426,41.80505],[-120.35384,41.80517],[-120.35334,41.80532],[-120.35271,41.8055],[-120.35254,41.80559],[-120.35243,41.80567],[-120.35224,41.80583],[-120.35185,41.80611],[-120.35157,41.80626],[-120.35128,41.80637],[-120.35088,41.80654]]}},{"type":"Feature","properties":{"name":"Pinecreek Canyon Road","road_class":"unclassified","surface":"gravel","source":"Caltrans All Roads + OpenStreetMap explicit surface","source_detail":"osm way 7925368; Caltrans All Roads public-network geometry match","source_tile":"169/380","public_network_source":"Caltrans All Roads (ARNOLD/HPMS)","surface_source":"OpenStreetMap explicit surface tag","caltrans_match_coverage":1.0,"verified_length_m":4215},"geometry":{"type":"LineString","coordinates":[[-120.28615,41.98633],[-120.28597,41.98629],[-120.28581,41.98625],[-120.28562,41.98624],[-120.28539,41.98627],[-120.28511,41.98631],[-120.28458,41.98642],[-120.28447,41.98643],[-120.28406,41.98643],[-120.28369,41.98642],[-120.28336,41.9864],[-120.28308,41.98635],[-120.28281,41.98626],[-120.2826,41.98617],[-120.28258,41.98616],[-120.2824,41.98607],[-120.28223,41.98596],[-120.28204,41.98589],[-120.28153,41.98574],[-120.28139,41.98567],[-120.28094,41.9854],[-120.28076,41.98527],[-120.28063,41.98515],[-120.28061,41.98512],[-120.28058,41.98508],[-120.28048,41.98497],[-120.28041,41.9849],[-120.28034,41.98485],[-120.28013,41.98472],[-120.2797,41.98452],[-120.27963,41.98449],[-120.27927,41.98436],[-120.27894,41.98424],[-120.27866,41.98413],[-120.27831,41.98402],[-120.27794,41.98396],[-120.27739,41.98387],[-120.27727,41.98383],[-120.27712,41.98378],[-120.27692,41.98365],[-120.27672,41.9835],[-120.27662,41.98341],[-120.27624,41.98309],[-120.27597,41.98285],[-120.27585,41.9828],[-120.27569,41.98277],[-120.27554,41.98276],[-120.27518,41.98277],[-120.27495,41.98279],[-120.27418,41.98291],[-120.27372,41.98298],[-120.27352,41.98301],[-120.27335,41.98302],[-120.27214,41.98296],[-120.27147,41.9829],[-120.27122,41.98287],[-120.27064,41.98275],[-120.27035,41.98269],[-120.27023,41.98267],[-120.27013,41.98267],[-120.26999,41.98267],[-120.26942,41.98272],[-120.26914,41.98273],[-120.26885,41.98281],[-120.26836,41.98303],[-120.26825,41.98306],[-120.26801,41.98306],[-120.26794,41.98305],[-120.26762,41.98296],[-120.26748,41.98293],[-120.26711,41.98289],[-120.26647,41.98287],[-120.26598,41.98289],[-120.26572,41.98286],[-120.26524,41.98276],[-120.2649,41.98276],[-120.26462,41.98281],[-120.26416,41.98291],[-120.26389,41.98292],[-120.26289,41.98293],[-120.2626,41.98295],[-120.26237,41.98299],[-120.26226,41.98302],[-120.26138,41.98342],[-120.26131,41.98346],[-120.26122,41.98354],[-120.26107,41.98371],[-120.26091,41.98386],[-120.26079,41.98393],[-120.26051,41.98399],[-120.2602,41.98402],[-120.25995,41.98405],[-120.25982,41.98408],[-120.25974,41.98412],[-120.25968,41.98417],[-120.25952,41.98432],[-120.25939,41.98439],[-120.25916,41.98447],[-120.25859,41.98463],[-120.25832,41.98472],[-120.2579,41.98485],[-120.25775,41.98489],[-120.25759,41.98492],[-120.2573,41.98494],[-120.25685,41.98495],[-120.25667,41.98499],[-120.25631,41.98509],[-120.25608,41.98512],[-120.25544,41.98512],[-120.25523,41.98514],[-120.25507,41.98517],[-120.25488,41.98524],[-120.25417,41.98555],[-120.25414,41.98556],[-120.25398,41.9856],[-120.2538,41.9856],[-120.25371,41.98559],[-120.2536,41.98562],[-120.25347,41.98567],[-120.25335,41.98574],[-120.25317,41.98589],[-120.25308,41.98595],[-120.25293,41.98603],[-120.25277,41.98609],[-120.25265,41.98612],[-120.25242,41.98616],[-120.2522,41.98616],[-120.25199,41.98614],[-120.25187,41.98611],[-120.25174,41.98606],[-120.25155,41.98603],[-120.25137,41.98602],[-120.25118,41.98604],[-120.25102,41.98609],[-120.2492,41.98681],[-120.24779,41.98743],[-120.24761,41.98754],[-120.24746,41.98762],[-120.24733,41.98773],[-120.24724,41.98787],[-120.24708,41.98808],[-120.24699,41.98821],[-120.24688,41.98832],[-120.24674,41.98839],[-120.24657,41.9884],[-120.24584,41.9883],[-120.24557,41.98828],[-120.24518,41.98831],[-120.24485,41.98833],[-120.2443,41.98828],[-120.24388,41.9883],[-120.24374,41.98829],[-120.24363,41.98825],[-120.24334,41.9881],[-120.24307,41.98798],[-120.2429,41.98793],[-120.24273,41.98788],[-120.24246,41.98784],[-120.24231,41.98784],[-120.24207,41.98788],[-120.24195,41.98794],[-120.24181,41.98807],[-120.24169,41.98827],[-120.24163,41.98842],[-120.24159,41.98851],[-120.24151,41.98859],[-120.24132,41.98866],[-120.24114,41.98873],[-120.24067,41.98902],[-120.24054,41.98911]]}},{"type":"Feature","properties":{"name":"Duckpond Lane","road_class":"unclassified","surface":"unpaved","source":"Caltrans All Roads + OpenStreetMap explicit surface","source_detail":"osm way 7926207; Caltrans All Roads public-network geometry match","source_tile":"169/380","public_network_source":"Caltrans All Roads (ARNOLD/HPMS)","surface_source":"OpenStreetMap explicit surface tag","caltrans_match_coverage":1.0,"verified_length_m":552},"geometry":{"type":"LineString","coordinates":[[-120.32391,41.99318],[-120.32391,41.99247],[-120.32391,41.98967],[-120.32392,41.98958],[-120.32393,41.9895],[-120.32394,41.98942],[-120.32393,41.98935],[-120.32392,41.98927],[-120.32392,41.98918],[-120.32392,41.98844],[-120.32392,41.98836],[-120.3239,41.9883],[-120.32387,41.98825],[-120.32384,41.9882]]}},{"type":"Feature","properties":{"name":"New Pine Road","road_class":"unclassified","surface":"unpaved","source":"Caltrans All Roads + OpenStreetMap explicit surface","source_detail":"osm way 7928666; Caltrans All Roads public-network geometry match","source_tile":"169/380","public_network_source":"Caltrans All Roads (ARNOLD/HPMS)","surface_source":"OpenStreetMap explicit surface tag","caltrans_match_coverage":1.0,"verified_length_m":1922},"geometry":{"type":"LineString","coordinates":[[-120.32384,41.9882],[-120.32381,41.98821],[-120.32374,41.98818],[-120.32358,41.98815],[-120.32324,41.98815],[-120.32168,41.98817],[-120.32129,41.98817],[-120.3209,41.98817],[-120.32014,41.98817],[-120.31969,41.98817],[-120.31607,41.98818],[-120.31403,41.98818],[-120.31198,41.98818],[-120.30724,41.98819],[-120.30712,41.98818],[-120.30698,41.98817],[-120.30692,41.98816],[-120.30687,41.98816],[-120.30678,41.98816],[-120.30669,41.98818],[-120.30657,41.98818],[-120.30634,41.98818],[-120.30393,41.98819],[-120.30358,41.98819],[-120.30338,41.98818],[-120.30326,41.98817],[-120.30315,41.98817],[-120.30303,41.98818],[-120.3029,41.98819],[-120.3026,41.98819],[-120.30194,41.9882],[-120.30159,41.9882],[-120.30129,41.98819],[-120.30087,41.98819],[-120.3008,41.9882],[-120.30075,41.98821],[-120.3007,41.98824],[-120.30067,41.98826]]}},{"type":"Feature","properties":{"name":"Goose Lake Road","road_class":"unclassified","surface":"unpaved","source":"Caltrans All Roads + OpenStreetMap explicit surface","source_detail":"osm way 7931158; Caltrans All Roads public-network geometry match","source_tile":"169/380","public_network_source":"Caltrans All Roads (ARNOLD/HPMS)","surface_source":"OpenStreetMap explicit surface tag","caltrans_match_coverage":1.0,"verified_length_m":1699},"geometry":{"type":"LineString","coordinates":[[-120.30065,41.99058],[-120.30069,41.99061],[-120.30075,41.99064],[-120.30084,41.99066],[-120.30095,41.99067],[-120.30115,41.99067],[-120.30143,41.99066],[-120.30168,41.99065],[-120.30184,41.99064],[-120.30241,41.99065],[-120.30255,41.99065],[-120.30398,41.99064],[-120.31266,41.99063],[-120.31404,41.99062],[-120.32115,41.99062]]}},{"type":"Feature","properties":{"name":"South Willow Ranch Road","road_class":"unclassified","surface":"gravel","source":"Caltrans All Roads + OpenStreetMap explicit surface","source_detail":"osm way 7931213; Caltrans All Roads public-network geometry match","source_tile":"169/380","public_network_source":"Caltrans All Roads (ARNOLD/HPMS)","surface_source":"OpenStreetMap explicit surface tag","caltrans_match_coverage":1.0,"verified_length_m":6015},"geometry":{"type":"LineString","coordinates":[[-120.35746,41.90208],[-120.35749,41.9019],[-120.35742,41.90176],[-120.35734,41.90165],[-120.35719,41.9015],[-120.35704,41.9014],[-120.35693,41.90133],[-120.35643,41.90109],[-120.35616,41.90099],[-120.35556,41.90081],[-120.35494,41.90056],[-120.35476,41.90046],[-120.3544,41.90023],[-120.35416,41.90005],[-120.35379,41.89973],[-120.35354,41.89947],[-120.35345,41.89937],[-120.35316,41.89907],[-120.35299,41.89893],[-120.35282,41.89881],[-120.35271,41.89873],[-120.3517,41.89818],[-120.35125,41.89796],[-120.35089,41.89781],[-120.35062,41.89772],[-120.3502,41.89761],[-120.34998,41.89752],[-120.34964,41.89735],[-120.3495,41.89726],[-120.34939,41.89718],[-120.34922,41.89704],[-120.34885,41.89675],[-120.34852,41.89646],[-120.34842,41.89633],[-120.34834,41.89614],[-120.34831,41.89599],[-120.34826,41.89537],[-120.34821,41.89506],[-120.34808,41.89451],[-120.34802,41.89431],[-120.34789,41.894],[-120.34783,41.89391],[-120.34773,41.89379],[-120.34715,41.89326],[-120.34703,41.89311],[-120.34698,41.89303],[-120.34695,41.89292],[-120.34694,41.89281],[-120.34696,41.89165],[-120.34696,41.89095],[-120.34693,41.89082],[-120.34688,41.89071],[-120.34682,41.89062],[-120.34672,41.89052],[-120.34658,41.89039],[-120.34637,41.89024],[-120.3461,41.89008],[-120.34589,41.89],[-120.34527,41.88983],[-120.34225,41.88908],[-120.34073,41.88868],[-120.33859,41.88816],[-120.33833,41.88809],[-120.33797,41.88796],[-120.33755,41.88778],[-120.33734,41.88766],[-120.33711,41.88752],[-120.33683,41.88732],[-120.33626,41.88688],[-120.33557,41.88638],[-120.32904,41.88163],[-120.32863,41.88134],[-120.32832,41.88109],[-120.3282,41.88097],[-120.32811,41.88082],[-120.32805,41.88069],[-120.32801,41.88045],[-120.32786,41.87944],[-120.32769,41.87849],[-120.32767,41.87844],[-120.32751,41.878],[-120.32742,41.87783],[-120.32725,41.87759],[-120.32643,41.87677],[-120.32611,41.8764],[-120.32584,41.87605],[-120.32551,41.87559],[-120.32542,41.87543],[-120.32537,41.87529],[-120.32532,41.87507],[-120.32523,41.87434],[-120.32516,41.87356],[-120.32512,41.87271],[-120.32511,41.87224],[-120.32511,41.87146],[-120.3251,41.87062],[-120.32502,41.86895],[-120.32495,41.86773],[-120.32492,41.86753],[-120.32414,41.86526],[-120.32407,41.86512],[-120.32392,41.86493],[-120.32373,41.86474],[-120.32336,41.86447],[-120.32318,41.8643],[-120.32304,41.86416],[-120.32287,41.86397],[-120.32247,41.86342],[-120.32176,41.86241],[-120.32089,41.86112],[-120.3206,41.86066],[-120.32048,41.86042]]}},{"type":"Feature","properties":{"name":"County Road 133C","road_class":"unclassified","surface":"gravel","source":"Caltrans All Roads + OpenStreetMap explicit surface","source_detail":"osm way 415747501; Caltrans All Roads public-network geometry match","source_tile":"169/380","public_network_source":"Caltrans All Roads (ARNOLD/HPMS)","surface_source":"OpenStreetMap explicit surface tag","caltrans_match_coverage":1.0,"verified_length_m":11388},"geometry":{"type":"LineString","coordinates":[[-120.30186,41.87658],[-120.30207,41.87643],[-120.3023,41.87623],[-120.30263,41.87573],[-120.30277,41.87544],[-120.30289,41.87515],[-120.30303,41.87441],[-120.30343,41.87348],[-120.30362,41.87294],[-120.30395,41.87182],[-120.30405,41.87173],[-120.30413,41.87168],[-120.30425,41.87164],[-120.30443,41.87159],[-120.30459,41.8716],[-120.30475,41.87165],[-120.30479,41.87168],[-120.30486,41.87177],[-120.305,41.87208],[-120.30505,41.87216],[-120.30509,41.87218],[-120.3052,41.8722],[-120.30534,41.87219],[-120.30608,41.87174],[-120.30652,41.87151],[-120.30731,41.87126],[-120.30764,41.87113],[-120.308,41.87093],[-120.30831,41.87073],[-120.30861,41.87048],[-120.30873,41.87036],[-120.3089,41.87017],[-120.30906,41.86989],[-120.3093,41.86864],[-120.3094,41.8684],[-120.30953,41.86814],[-120.30964,41.868],[-120.30988,41.86774],[-120.31078,41.86708],[-120.31145,41.86655],[-120.31331,41.86539],[-120.31737,41.86274],[-120.31867,41.86189],[-120.32007,41.86093],[-120.32025,41.8608],[-120.32039,41.86066],[-120.32048,41.86042],[-120.3204,41.85968],[-120.32024,41.85881],[-120.32019,41.85864],[-120.32002,41.85824],[-120.3198,41.85781],[-120.31942,41.85724],[-120.31896,41.85667],[-120.31853,41.85622],[-120.31837,41.85603],[-120.31829,41.85589],[-120.31827,41.85582],[-120.31825,41.85556],[-120.31841,41.85511],[-120.31849,41.855],[-120.31858,41.85491],[-120.31867,41.85487],[-120.31876,41.85485],[-120.31915,41.85485],[-120.32004,41.85489],[-120.32043,41.85494],[-120.32107,41.85508],[-120.32143,41.85514],[-120.32233,41.8552],[-120.32267,41.8552],[-120.32279,41.85516],[-120.3229,41.85511],[-120.32341,41.85478],[-120.32366,41.85464],[-120.32386,41.85456],[-120.32413,41.85448],[-120.32466,41.85437],[-120.32482,41.85432],[-120.32492,41.85427],[-120.32503,41.85419],[-120.32515,41.85406],[-120.32526,41.8539],[-120.32563,41.85321],[-120.32597,41.85242],[-120.3262,41.85203],[-120.32655,41.85158],[-120.32709,41.85079],[-120.32768,41.85008],[-120.32792,41.84983],[-120.32812,41.84966],[-120.32839,41.84947],[-120.32881,41.8492],[-120.32927,41.84895],[-120.32967,41.84869],[-120.33117,41.84767],[-120.3314,41.84756],[-120.33163,41.84751],[-120.33189,41.84751],[-120.33264,41.84755],[-120.33416,41.84759],[-120.33513,41.84757],[-120.33658,41.84745],[-120.33715,41.84737],[-120.33836,41.84731],[-120.33849,41.84728],[-120.33864,41.84723],[-120.33905,41.84693],[-120.3399,41.84623],[-120.34015,41.84605],[-120.3409,41.84566],[-120.34121,41.84544],[-120.3415,41.8452],[-120.3418,41.8449],[-120.34195,41.8447],[-120.34207,41.84452],[-120.34237,41.84393],[-120.34284,41.84307],[-120.34317,41.84253],[-120.34361,41.84198],[-120.34393,41.84146],[-120.34414,41.84118],[-120.34446,41.84081],[-120.34474,41.84057],[-120.34521,41.84023],[-120.34643,41.83945],[-120.34793,41.83843],[-120.34818,41.83823],[-120.3483,41.83809],[-120.34841,41.83791],[-120.34858,41.83745],[-120.34867,41.83712],[-120.3488,41.83548],[-120.34877,41.8352],[-120.34869,41.8349],[-120.34795,41.8332],[-120.34793,41.83307],[-120.34794,41.833],[-120.34796,41.83295],[-120.34803,41.83291],[-120.34812,41.83287],[-120.34828,41.83282],[-120.34886,41.83276],[-120.34928,41.83275],[-120.34962,41.83277],[-120.34993,41.83282],[-120.35053,41.83297],[-120.35061,41.83297],[-120.35073,41.83295],[-120.35081,41.83289],[-120.35089,41.83273],[-120.35092,41.83253],[-120.3509,41.83202],[-120.35079,41.83152],[-120.35064,41.83111],[-120.35058,41.83088],[-120.35051,41.8305],[-120.35043,41.8302],[-120.35019,41.82953],[-120.34972,41.82868],[-120.34939,41.82794],[-120.34925,41.82753],[-120.34895,41.82643],[-120.3488,41.82604],[-120.34863,41.82575],[-120.34845,41.8255],[-120.34807,41.8251],[-120.34776,41.82485],[-120.3476,41.82476],[-120.34732,41.82463],[-120.34701,41.82455],[-120.34618,41.82441],[-120.34604,41.82437],[-120.34582,41.82424],[-120.34571,41.82411],[-120.34569,41.82398],[-120.34571,41.82385],[-120.34579,41.82365],[-120.34581,41.82356],[-120.34577,41.82346],[-120.34566,41.8233],[-120.3448,41.82228],[-120.34474,41.82219],[-120.34471,41.8221],[-120.34472,41.822],[-120.34477,41.82191],[-120.34498,41.82178],[-120.34519,41.82168],[-120.34575,41.82149],[-120.34595,41.82138],[-120.34615,41.8212],[-120.34622,41.82109],[-120.34631,41.82092],[-120.34637,41.82069],[-120.34641,41.82041],[-120.34643,41.82006],[-120.34641,41.81988],[-120.34637,41.81974],[-120.34619,41.81947],[-120.34616,41.81937],[-120.34618,41.8193],[-120.34621,41.81924],[-120.34662,41.81873],[-120.34673,41.81854],[-120.34676,41.81832],[-120.34675,41.81819],[-120.34673,41.81805],[-120.3466,41.81765],[-120.34661,41.81749],[-120.34668,41.81739],[-120.34691,41.81716],[-120.34762,41.8165],[-120.34807,41.81599],[-120.34814,41.81583],[-120.34817,41.81572],[-120.34824,41.81525],[-120.34821,41.81489],[-120.34816,41.81465],[-120.34816,41.81456],[-120.34821,41.81446],[-120.34838,41.81425],[-120.34854,41.81392],[-120.34862,41.81372],[-120.34879,41.81345],[-120.34933,41.81287],[-120.34989,41.8124],[-120.35023,41.81202],[-120.35059,41.81146],[-120.35106,41.81066],[-120.35172,41.80947],[-120.35205,41.80897],[-120.35233,41.8086],[-120.35249,41.80844],[-120.35256,41.8084],[-120.35302,41.80817],[-120.35379,41.80785],[-120.35399,41.80774],[-120.35425,41.80752],[-120.35456,41.80719],[-120.35525,41.80654],[-120.35566,41.80613],[-120.35608,41.80565],[-120.35687,41.80484],[-120.35811,41.80371],[-120.35866,41.80315]]}},{"type":"Feature","properties":{"name":"Southeast Cottonwood Road Spur A","road_class":"track","surface":"fine_gravel","source":"Caltrans All Roads + OpenStreetMap explicit surface","source_detail":"osm way 890225214; Caltrans All Roads public-network geometry match","source_tile":"169/380","public_network_source":"Caltrans All Roads (ARNOLD/HPMS)","surface_source":"OpenStreetMap explicit surface tag","caltrans_match_coverage":1.0,"verified_length_m":1418},"geometry":{"type":"LineString","coordinates":[[-120.26724,41.92899],[-120.26713,41.92877],[-120.26706,41.92865],[-120.26668,41.92807],[-120.26654,41.92789],[-120.2665,41.92781],[-120.26651,41.92769],[-120.26656,41.92743],[-120.26658,41.92731],[-120.26649,41.92714],[-120.26626,41.9269],[-120.26598,41.92668],[-120.26585,41.92655],[-120.26577,41.92645],[-120.26571,41.92635],[-120.26564,41.92621],[-120.26564,41.92606],[-120.26568,41.92595],[-120.26575,41.92586],[-120.26592,41.92578],[-120.26633,41.92559],[-120.26668,41.92553],[-120.26689,41.92552],[-120.26701,41.92548],[-120.26706,41.92542],[-120.26711,41.92532],[-120.26711,41.92517],[-120.26707,41.92504],[-120.26702,41.92488],[-120.26673,41.92423],[-120.26663,41.92403],[-120.2666,41.92395],[-120.2666,41.9239],[-120.26665,41.92378],[-120.26673,41.92372],[-120.26684,41.92367],[-120.26691,41.92364],[-120.26702,41.92361],[-120.26717,41.92361],[-120.26728,41.92364],[-120.26754,41.92373],[-120.26763,41.92379],[-120.26771,41.92386],[-120.26788,41.92407],[-120.2681,41.92429],[-120.26821,41.92437],[-120.26834,41.92442],[-120.26881,41.92453],[-120.26899,41.92454],[-120.26909,41.92451],[-120.26919,41.92445],[-120.26928,41.92439],[-120.26938,41.92435],[-120.26943,41.92434],[-120.26972,41.92434],[-120.26985,41.92432],[-120.27005,41.92429],[-120.27018,41.92424],[-120.2703,41.92417],[-120.27058,41.92388],[-120.27063,41.92384],[-120.27074,41.9238],[-120.27113,41.92372],[-120.27128,41.92366],[-120.27139,41.92356],[-120.27149,41.92349],[-120.27163,41.92341],[-120.27181,41.92335],[-120.27241,41.92327],[-120.27267,41.92323],[-120.27278,41.9232],[-120.27289,41.9231],[-120.27299,41.92299],[-120.27331,41.92271],[-120.27363,41.92235]]}},{"type":"Feature","properties":{"name":"Corral Creek Road","road_class":"unclassified","surface":"unpaved","source":"Caltrans All Roads + OpenStreetMap explicit surface","source_detail":"osm way 994000481; Caltrans All Roads public-network geometry match","source_tile":"169/380","public_network_source":"Caltrans All Roads (ARNOLD/HPMS)","surface_source":"OpenStreetMap explicit surface tag","caltrans_match_coverage":1.0,"verified_length_m":9902},"geometry":{"type":"LineString","coordinates":[[-120.57098,41.97256],[-120.57091,41.97265],[-120.57081,41.97277],[-120.57064,41.97293],[-120.57027,41.97329],[-120.56996,41.97355],[-120.56976,41.97369],[-120.56937,41.97388],[-120.56913,41.97398],[-120.56818,41.97433],[-120.56773,41.97445],[-120.56633,41.97467],[-120.56602,41.97474],[-120.56578,41.9748],[-120.56473,41.97514],[-120.56447,41.97521],[-120.56425,41.97525],[-120.56379,41.9753],[-120.56355,41.97534],[-120.56289,41.97543],[-120.56213,41.97546],[-120.56086,41.97546],[-120.56011,41.97545],[-120.55943,41.97545],[-120.55838,41.97547],[-120.55819,41.97549],[-120.558,41.97552],[-120.55776,41.97558],[-120.55743,41.97572],[-120.55715,41.97583],[-120.55651,41.97603],[-120.55634,41.97604],[-120.55625,41.97605],[-120.55605,41.97602],[-120.55558,41.97592],[-120.55522,41.97582],[-120.55505,41.97576],[-120.55472,41.9756],[-120.55446,41.97546],[-120.55413,41.97527],[-120.55399,41.97521],[-120.55374,41.97515],[-120.55353,41.97514],[-120.55332,41.97516],[-120.55322,41.9752],[-120.55317,41.97523],[-120.55291,41.97548],[-120.55244,41.97594],[-120.55233,41.97605],[-120.55218,41.97614],[-120.55203,41.97621],[-120.55185,41.97626],[-120.55147,41.97628],[-120.55132,41.97629],[-120.55072,41.97632],[-120.54976,41.97639],[-120.54949,41.9764],[-120.5492,41.97638],[-120.54893,41.97633],[-120.54877,41.97628],[-120.54862,41.97622],[-120.54781,41.97564],[-120.54755,41.97545],[-120.54704,41.97508],[-120.54669,41.9748],[-120.54653,41.97467],[-120.54633,41.9745],[-120.54622,41.97437],[-120.54593,41.97398],[-120.54517,41.97311],[-120.54492,41.97293],[-120.54467,41.97277],[-120.54455,41.97272],[-120.54434,41.97266],[-120.54394,41.97261],[-120.54363,41.97259],[-120.54268,41.97257],[-120.54134,41.97248],[-120.54019,41.9725],[-120.53962,41.97254],[-120.53948,41.97257],[-120.53924,41.97264],[-120.53905,41.97271],[-120.53865,41.97288],[-120.53812,41.97313],[-120.53753,41.97345],[-120.53719,41.97367],[-120.53701,41.97377],[-120.53653,41.97405],[-120.53616,41.97427],[-120.53598,41.97435],[-120.53578,41.97441],[-120.53556,41.97445],[-120.53526,41.97447],[-120.53513,41.97447],[-120.53489,41.97441],[-120.5348,41.9744],[-120.5345,41.97431],[-120.53396,41.97412],[-120.53342,41.97385],[-120.53302,41.97364],[-120.53271,41.97345],[-120.53256,41.97333],[-120.5324,41.97316],[-120.53231,41.97306],[-120.53203,41.97266],[-120.53196,41.97256],[-120.53188,41.97246],[-120.53183,41.97241],[-120.53173,41.97234],[-120.53163,41.9723],[-120.53149,41.97227],[-120.53129,41.97225],[-120.5311,41.97226],[-120.53087,41.97231],[-120.53066,41.9724],[-120.5304,41.97254],[-120.53012,41.97271],[-120.52975,41.97289],[-120.5296,41.97296],[-120.52907,41.97313],[-120.52875,41.97325],[-120.52836,41.97337],[-120.52812,41.9734],[-120.52766,41.97341],[-120.52713,41.9734],[-120.527,41.97339],[-120.52631,41.97328],[-120.52571,41.97317],[-120.52535,41.97308],[-120.52488,41.97293],[-120.52467,41.97285],[-120.52453,41.97281],[-120.52437,41.97278],[-120.52418,41.97273],[-120.52408,41.97269],[-120.52351,41.97244],[-120.52325,41.97227],[-120.52316,41.97221],[-120.52296,41.97201],[-120.52275,41.97164],[-120.5226,41.9714],[-120.52255,41.97133],[-120.52223,41.97105],[-120.52195,41.97083],[-120.5213,41.97028],[-120.52104,41.97004],[-120.52032,41.96947],[-120.52,41.96919],[-120.51979,41.96895],[-120.51964,41.96876],[-120.5195,41.9685],[-120.51915,41.96757],[-120.519,41.96723],[-120.51871,41.96681],[-120.51802,41.96591],[-120.51753,41.96543],[-120.51717,41.96501],[-120.51683,41.96456],[-120.5168,41.9645],[-120.51679,41.96437],[-120.5168,41.96429],[-120.51684,41.96422],[-120.5169,41.96413],[-120.51718,41.96387],[-120.5174,41.96362],[-120.51746,41.96349],[-120.51749,41.96341],[-120.51749,41.96333],[-120.51742,41.96303],[-120.51744,41.96296],[-120.51747,41.96289],[-120.51768,41.96258],[-120.51775,41.96237],[-120.51784,41.96151],[-120.51787,41.96108],[-120.51785,41.96088],[-120.5178,41.96006],[-120.51781,41.95998],[-120.51797,41.95981],[-120.51814,41.95966],[-120.51959,41.95875],[-120.51963,41.9587],[-120.51966,41.95857],[-120.51962,41.95823],[-120.5196,41.95753],[-120.51954,41.95651],[-120.51948,41.95597],[-120.5195,41.95508],[-120.51947,41.95425],[-120.51947,41.95383],[-120.51945,41.9535],[-120.51944,41.95298],[-120.51951,41.95205],[-120.51955,41.95164],[-120.51971,41.95104],[-120.51974,41.95057],[-120.51969,41.95011],[-120.51966,41.9497],[-120.51961,41.94916],[-120.51953,41.94833],[-120.51946,41.94686],[-120.51944,41.94619],[-120.51946,41.94578],[-120.51952,41.94549],[-120.51958,41.94527],[-120.51976,41.94487],[-120.51997,41.9442],[-120.52001,41.9441],[-120.52006,41.94404],[-120.52018,41.9439],[-120.52035,41.94377],[-120.52044,41.94362],[-120.5205,41.94345],[-120.52049,41.9425],[-120.52045,41.94235],[-120.52039,41.94198],[-120.52035,41.94164],[-120.52023,41.94111],[-120.52008,41.94059],[-120.52002,41.94031],[-120.51988,41.93986],[-120.51985,41.93978],[-120.51972,41.93966],[-120.51965,41.93961],[-120.5194,41.93939],[-120.51923,41.9392],[-120.51889,41.93889],[-120.51863,41.9386],[-120.51837,41.93843],[-120.51804,41.93822],[-120.51722,41.93766],[-120.51702,41.93753],[-120.51692,41.93744],[-120.5167,41.93713],[-120.51663,41.937],[-120.51652,41.93677],[-120.51635,41.93649],[-120.51617,41.93617],[-120.51601,41.93578],[-120.51595,41.93553],[-120.51587,41.9353],[-120.51584,41.93502],[-120.5158,41.93477],[-120.51553,41.93409],[-120.51548,41.93393],[-120.51544,41.93373],[-120.51542,41.9335],[-120.51533,41.93314],[-120.51527,41.93291],[-120.51526,41.93284],[-120.51523,41.93273],[-120.51518,41.93261],[-120.51512,41.93253],[-120.51508,41.9325],[-120.51504,41.93247],[-120.51468,41.93222],[-120.51429,41.93205],[-120.51393,41.93194],[-120.51313,41.93174],[-120.51262,41.93162],[-120.51219,41.93151],[-120.51196,41.93145],[-120.51168,41.93142],[-120.51133,41.9314],[-120.50973,41.93153],[-120.50952,41.93151],[-120.50924,41.93144],[-120.50885,41.93132]]}},{"type":"Feature","properties":{"name":"County Road 118","road_class":"unclassified","surface":"gravel","source":"Caltrans All Roads + OpenStreetMap explicit surface","source_detail":"osm way 7912494; Caltrans All Roads public-network geometry match","source_tile":"169/381","public_network_source":"Caltrans All Roads (ARNOLD/HPMS)","surface_source":"OpenStreetMap explicit surface tag","caltrans_match_coverage":0.959,"verified_length_m":51674},"geometry":{"type":"LineString","coordinates":[[-120.32048,41.86042],[-120.32041,41.86037],[-120.32029,41.86021],[-120.32023,41.86006],[-120.32018,41.85986],[-120.32014,41.85928],[-120.3201,41.85908],[-120.31997,41.85875],[-120.31985,41.85859],[-120.31972,41.85846],[-120.31939,41.85818],[-120.31926,41.8581],[-120.31898,41.85799],[-120.31857,41.85792],[-120.31835,41.85792],[-120.31813,41.85795],[-120.31801,41.858],[-120.31719,41.85843],[-120.31684,41.85859],[-120.31671,41.85861],[-120.31655,41.85862],[-120.31633,41.8586],[-120.31621,41.85858],[-120.31556,41.8584],[-120.31503,41.85823],[-120.31475,41.85812],[-120.31434,41.85791],[-120.31378,41.85756],[-120.31298,41.85705],[-120.31254,41.85675],[-120.31241,41.85664],[-120.31229,41.85651],[-120.31197,41.85609],[-120.31159,41.85571],[-120.31108,41.85529],[-120.31086,41.85517],[-120.30945,41.85452],[-120.30817,41.85383],[-120.30751,41.85341],[-120.30587,41.85234],[-120.3048,41.85162],[-120.30327,41.85068],[-120.30282,41.85035],[-120.30257,41.85013],[-120.30233,41.8499],[-120.30216,41.84977],[-120.30193,41.84963],[-120.3017,41.8495],[-120.30128,41.84933],[-120.30087,41.8492],[-120.30066,41.84916],[-120.29942,41.84897],[-120.29921,41.84893],[-120.29907,41.84889],[-120.29896,41.84883],[-120.2988,41.8487],[-120.2986,41.8485],[-120.29843,41.84838],[-120.29728,41.84723],[-120.29688,41.84674],[-120.29665,41.84641],[-120.29628,41.84595],[-120.29613,41.84583],[-120.29499,41.84504],[-120.29467,41.84474],[-120.2944,41.84442],[-120.29424,41.84417],[-120.29418,41.84393],[-120.29414,41.84355],[-120.29405,41.84333],[-120.294,41.84321],[-120.29365,41.84272],[-120.29357,41.84257],[-120.29352,41.84244],[-120.29351,41.84199],[-120.29359,41.8416],[-120.29373,41.8412],[-120.29416,41.84038],[-120.29461,41.83967],[-120.29557,41.83744],[-120.29612,41.83649],[-120.29637,41.83583],[-120.29704,41.83491],[-120.2971,41.83485],[-120.29728,41.83478],[-120.29756,41.83474],[-120.29847,41.83473],[-120.29866,41.83467],[-120.29875,41.83459],[-120.2988,41.83449],[-120.29912,41.83298],[-120.29914,41.83263],[-120.29913,41.83244],[-120.29908,41.83191],[-120.29902,41.8316],[-120.29887,41.8313],[-120.2986,41.83099],[-120.29846,41.83078],[-120.29821,41.83022],[-120.29819,41.83007],[-120.29822,41.8299],[-120.29834,41.82973],[-120.29828,41.8287],[-120.2982,41.82852],[-120.29809,41.8284],[-120.29789,41.82827],[-120.29773,41.82821],[-120.29708,41.828],[-120.297,41.82797],[-120.29686,41.82785],[-120.29654,41.82752],[-120.29645,41.82745],[-120.29619,41.82729],[-120.29603,41.82717],[-120.29552,41.82663],[-120.29524,41.82642],[-120.29497,41.82619],[-120.29472,41.82592],[-120.29448,41.82559],[-120.2938,41.82449],[-120.29311,41.82363],[-120.29273,41.82321],[-120.29205,41.82256],[-120.29164,41.82211],[-120.29118,41.8217],[-120.2906,41.82124],[-120.28936,41.82038],[-120.28863,41.81975],[-120.28827,41.81951],[-120.28811,41.81937],[-120.28798,41.81923],[-120.28777,41.81896],[-120.28773,41.81884],[-120.28772,41.81864],[-120.28763,41.81826],[-120.28743,41.81772],[-120.28714,41.81673],[-120.28691,41.81516],[-120.28687,41.81499],[-120.28673,41.81466],[-120.28631,41.81409],[-120.28518,41.81264],[-120.28461,41.81194],[-120.28405,41.81119],[-120.28394,41.81106],[-120.28298,41.81014],[-120.282,41.80926],[-120.28155,41.80875],[-120.28138,41.8085],[-120.28123,41.80823],[-120.28117,41.80807],[-120.28077,41.80675],[-120.28046,41.80582],[-120.27997,41.80449],[-120.27963,41.80328],[-120.27958,41.8031],[-120.27959,41.80298],[-120.27962,41.80289],[-120.27991,41.80262],[-120.28061,41.8021],[-120.28113,41.80161],[-120.28149,41.8013],[-120.28163,41.8012],[-120.28176,41.80114],[-120.28221,41.80106],[-120.28307,41.80102],[-120.28332,41.80096],[-120.28349,41.80086],[-120.28443,41.80005],[-120.28449,41.79997],[-120.28454,41.79976],[-120.28454,41.79955],[-120.28449,41.79939],[-120.28449,41.7993],[-120.28505,41.79824],[-120.28541,41.7978],[-120.28559,41.79737],[-120.28604,41.79599],[-120.28616,41.79566],[-120.28627,41.79444],[-120.28632,41.79427],[-120.28648,41.79392],[-120.28675,41.79353],[-120.28682,41.7934],[-120.28684,41.79332],[-120.28686,41.79266],[-120.28689,41.79254],[-120.28696,41.79237],[-120.28725,41.79194],[-120.28735,41.79161],[-120.28731,41.79095],[-120.28723,41.79075],[-120.28695,41.7904],[-120.2869,41.79029],[-120.28688,41.79013],[-120.2869,41.7899],[-120.28695,41.78966],[-120.28708,41.78943],[-120.28724,41.78927],[-120.28739,41.78917],[-120.2877,41.78899],[-120.28788,41.78885],[-120.28797,41.78872],[-120.28831,41.78786],[-120.28837,41.78775],[-120.28849,41.7876],[-120.28898,41.78714],[-120.28904,41.78706],[-120.2891,41.78689],[-120.28912,41.78657],[-120.28911,41.78642],[-120.28906,41.78626],[-120.28895,41.78608],[-120.28893,41.78571],[-120.28888,41.78555],[-120.28883,41.78548],[-120.28874,41.78538],[-120.28864,41.78532],[-120.28841,41.7852],[-120.2875,41.78482],[-120.28721,41.78467],[-120.2871,41.7846],[-120.28686,41.7844],[-120.28678,41.7843],[-120.28667,41.78396],[-120.28653,41.78374],[-120.28644,41.78355],[-120.28625,41.78328],[-120.28595,41.78299],[-120.28556,41.78267],[-120.28533,41.78245],[-120.28498,41.78202],[-120.28478,41.78169],[-120.28451,41.78112],[-120.28446,41.78095],[-120.28444,41.78055],[-120.2844,41.78036],[-120.28424,41.77996],[-120.28388,41.77938],[-120.28375,41.77913],[-120.28359,41.77871],[-120.28338,41.7784],[-120.28322,41.77818],[-120.28279,41.77775],[-120.28268,41.77759],[-120.28261,41.77737],[-120.28239,41.77617],[-120.28233,41.77603],[-120.28208,41.77566],[-120.28193,41.77539],[-120.28167,41.77475],[-120.28156,41.77462],[-120.28128,41.77438],[-120.28102,41.77408],[-120.28094,41.77392],[-120.28086,41.77356],[-120.28068,41.77298],[-120.2806,41.77276],[-120.28038,41.77228],[-120.28018,41.772],[-120.27984,41.77164],[-120.27946,41.77133],[-120.27896,41.77085],[-120.27833,41.77037],[-120.27787,41.76998],[-120.27746,41.7696],[-120.27729,41.76939],[-120.27705,41.76899],[-120.27696,41.76879],[-120.27692,41.76869],[-120.27687,41.76847],[-120.27675,41.76749],[-120.2767,41.76729],[-120.27639,41.76688],[-120.27555,41.76588],[-120.27543,41.76576],[-120.27485,41.76526],[-120.27364,41.76433],[-120.27342,41.76422],[-120.2729,41.76397],[-120.27272,41.76386],[-120.27259,41.76372],[-120.27247,41.76349],[-120.27239,41.76339],[-120.27212,41.7632],[-120.27182,41.76301],[-120.27139,41.7628],[-120.27113,41.7627],[-120.27096,41.76262],[-120.27075,41.76248],[-120.27039,41.76219],[-120.27004,41.76196],[-120.26982,41.76183],[-120.26957,41.76174],[-120.26928,41.76167],[-120.26912,41.76164],[-120.26829,41.76156],[-120.268,41.7615],[-120.26788,41.76146],[-120.26778,41.76141],[-120.26742,41.76117],[-120.26729,41.76111],[-120.26693,41.76099],[-120.26666,41.76093],[-120.26651,41.76088],[-120.26633,41.76078],[-120.26578,41.76041],[-120.26525,41.76011],[-120.26482,41.75991],[-120.26337,41.75915],[-120.26271,41.75883],[-120.26215,41.75852],[-120.26197,41.75838],[-120.26183,41.75822],[-120.26136,41.75738],[-120.26107,41.75709],[-120.26059,41.75666],[-120.26041,41.75636],[-120.26026,41.75617],[-120.25992,41.75588],[-120.25951,41.75561],[-120.2593,41.75541],[-120.25915,41.75519],[-120.2589,41.75462],[-120.25882,41.7545],[-120.25871,41.75439],[-120.25857,41.75431],[-120.25841,41.75425],[-120.25772,41.75415],[-120.25727,41.75405],[-120.25692,41.75393],[-120.25638,41.7537],[-120.25603,41.75352],[-120.2557,41.75331],[-120.25525,41.75298],[-120.25491,41.75263],[-120.25486,41.75254],[-120.2548,41.7523],[-120.25459,41.75195],[-120.25437,41.75166],[-120.25391,41.75118],[-120.25359,41.75073],[-120.25346,41.75049],[-120.25342,41.75017],[-120.25346,41.74981],[-120.25363,41.74915],[-120.25369,41.74897],[-120.25373,41.74875],[-120.25375,41.74843],[-120.25372,41.74831],[-120.2536,41.74809],[-120.25353,41.74789],[-120.25351,41.74751],[-120.25359,41.7469],[-120.25374,41.74662],[-120.25385,41.74585],[-120.25391,41.74573],[-120.25411,41.74554],[-120.25417,41.74545],[-120.2542,41.74536],[-120.25423,41.745],[-120.25433,41.74451],[-120.25433,41.74439],[-120.25429,41.74426],[-120.25421,41.74417],[-120.2541,41.74413],[-120.25364,41.74411],[-120.25346,41.74407],[-120.25324,41.744],[-120.25294,41.74399],[-120.25277,41.74401],[-120.2526,41.74406],[-120.252,41.74432],[-120.25187,41.74434],[-120.25174,41.74435],[-120.25159,41.74433],[-120.25134,41.74426],[-120.25123,41.74419],[-120.25113,41.74409],[-120.25083,41.7436],[-120.2507,41.74342],[-120.25063,41.74338],[-120.25056,41.74337],[-120.25032,41.74345],[-120.2501,41.74349],[-120.24998,41.7435],[-120.24961,41.74348],[-120.24944,41.74348],[-120.24928,41.74352],[-120.24814,41.7439],[-120.24708,41.74408],[-120.24683,41.74409],[-120.2467,41.74408],[-120.24605,41.74398],[-120.24595,41.74398],[-120.24585,41.744],[-120.24575,41.74406],[-120.24564,41.74419],[-120.2454,41.74482],[-120.24529,41.74499],[-120.24512,41.74516],[-120.24505,41.74525],[-120.24493,41.74552],[-120.24479,41.74592],[-120.24475,41.74616],[-120.24471,41.74623],[-120.24461,41.74627],[-120.24453,41.74626],[-120.24448,41.74621],[-120.24429,41.74573],[-120.24377,41.74503],[-120.24345,41.74452],[-120.2434,41.74442],[-120.24331,41.74429],[-120.24319,41.74417],[-120.24304,41.74408],[-120.24258,41.74392],[-120.24234,41.74381],[-120.24213,41.74366],[-120.24198,41.74348],[-120.24187,41.74328],[-120.24174,41.74279],[-120.24172,41.74242],[-120.24176,41.7421],[-120.24187,41.74177],[-120.24201,41.74157],[-120.24234,41.7413],[-120.24259,41.74096],[-120.24277,41.74074],[-120.243,41.74049],[-120.24321,41.74032],[-120.24339,41.74019],[-120.24367,41.74006],[-120.24429,41.7398],[-120.24452,41.73974],[-120.24468,41.73966],[-120.2448,41.73957],[-120.24519,41.7392],[-120.24529,41.73913],[-120.24581,41.73898],[-120.24666,41.73857],[-120.24682,41.73845],[-120.24708,41.73813],[-120.24711,41.73807],[-120.24711,41.738],[-120.24708,41.73793],[-120.24684,41.73768],[-120.24659,41.73747],[-120.2462,41.73721],[-120.24612,41.73714],[-120.24601,41.73697],[-120.24593,41.73662],[-120.24587,41.73651],[-120.24578,41.7364],[-120.24518,41.73595],[-120.24502,41.7358],[-120.24444,41.73488],[-120.24434,41.73476],[-120.24422,41.73466],[-120.24418,41.73459],[-120.24418,41.73453],[-120.24446,41.73418],[-120.24468,41.73374],[-120.2448,41.73335],[-120.24531,41.73215],[-120.24532,41.73204],[-120.24531,41.73196],[-120.24533,41.73188],[-120.24538,41.73182],[-120.24561,41.73166],[-120.24577,41.73152],[-120.24609,41.73118],[-120.24644,41.73075],[-120.24648,41.73067],[-120.2465,41.73057],[-120.24649,41.73047],[-120.24642,41.73014],[-120.2463,41.72976],[-120.24631,41.72937],[-120.24637,41.72909],[-120.24642,41.729],[-120.24664,41.72882],[-120.24695,41.72851],[-120.24707,41.72841],[-120.24723,41.72834],[-120.24758,41.72824],[-120.24773,41.72817],[-120.24784,41.72808],[-120.24797,41.72802],[-120.24815,41.72797],[-120.24856,41.72797],[-120.24865,41.72794],[-120.24875,41.72787],[-120.24884,41.72784],[-120.25127,41.72751],[-120.25144,41.7275],[-120.25164,41.7275],[-120.25205,41.72754],[-120.25351,41.72793],[-120.25384,41.72796],[-120.25416,41.72795],[-120.25452,41.72789],[-120.25516,41.72775],[-120.25569,41.72763],[-120.25601,41.72752],[-120.25631,41.72737],[-120.25645,41.72728],[-120.25663,41.72712],[-120.25693,41.72678],[-120.25718,41.72644],[-120.25772,41.72577],[-120.25798,41.72554],[-120.25902,41.72471],[-120.26039,41.72354],[-120.26111,41.72271],[-120.26266,41.72074],[-120.26308,41.72033],[-120.26318,41.72024],[-120.26343,41.72009],[-120.26357,41.72002],[-120.26376,41.71998],[-120.26401,41.71994],[-120.26427,41.71992],[-120.26453,41.71992],[-120.26479,41.71994],[-120.26535,41.72002],[-120.26666,41.72015],[-120.26691,41.72015],[-120.2672,41.72012],[-120.26747,41.72008],[-120.26779,41.71995],[-120.26794,41.71987],[-120.2682,41.71968],[-120.26831,41.71957],[-120.26876,41.7189],[-120.26904,41.71853],[-120.26928,41.7183],[-120.2694,41.71822],[-120.26967,41.71809],[-120.26981,41.71804],[-120.27014,41.71797],[-120.27039,41.71796],[-120.2706,41.71798],[-120.27335,41.71863],[-120.27348,41.71865],[-120.27374,41.71866],[-120.27407,41.71862],[-120.27433,41.71848],[-120.27442,41.71841],[-120.27461,41.71821],[-120.27469,41.71805],[-120.27495,41.71694],[-120.27495,41.71684],[-120.27491,41.71663],[-120.27434,41.71552],[-120.27403,41.71499],[-120.27378,41.71465],[-120.27361,41.71448],[-120.27342,41.71432],[-120.27321,41.71418],[-120.27221,41.71367],[-120.27203,41.71355],[-120.27179,41.71333],[-120.2717,41.71321],[-120.2716,41.71303],[-120.27124,41.7123],[-120.27114,41.71207],[-120.27096,41.7118],[-120.27084,41.71167],[-120.2707,41.71156],[-120.27042,41.71138],[-120.26941,41.71081],[-120.26919,41.71067],[-120.26905,41.71055],[-120.26881,41.71029],[-120.26799,41.70878],[-120.26775,41.70822],[-120.26768,41.70789],[-120.26765,41.7076],[-120.26777,41.70644],[-120.26773,41.70624],[-120.26752,41.70579],[-120.26692,41.7046],[-120.26676,41.70441],[-120.26612,41.70395],[-120.26593,41.7038],[-120.26579,41.70365],[-120.26567,41.7035],[-120.26483,41.7021],[-120.26474,41.70185],[-120.26472,41.70159],[-120.26475,41.70138],[-120.26483,41.70115],[-120.26497,41.70095],[-120.26526,41.70064],[-120.2659,41.70003],[-120.26709,41.69887],[-120.26729,41.69872],[-120.26766,41.69851],[-120.26788,41.69842],[-120.26999,41.69778],[-120.27105,41.6974],[-120.27154,41.6972],[-120.27183,41.69704],[-120.27216,41.69677],[-120.27244,41.69646],[-120.27277,41.69605],[-120.27359,41.69488],[-120.27363,41.69475],[-120.27369,41.69429],[-120.27368,41.69415],[-120.27347,41.69367],[-120.27335,41.69351],[-120.27305,41.6932],[-120.27165,41.69161],[-120.27074,41.69062],[-120.27055,41.69037],[-120.27042,41.69013],[-120.27026,41.68978],[-120.27018,41.68938],[-120.27016,41.68919],[-120.27018,41.68819],[-120.27019,41.6879],[-120.27017,41.687],[-120.27018,41.68691],[-120.2702,41.68655],[-120.27029,41.68626],[-120.27043,41.686],[-120.27053,41.68586],[-120.27067,41.68572],[-120.27092,41.68552],[-120.27113,41.6854],[-120.27194,41.68508],[-120.27293,41.68474],[-120.27337,41.68465],[-120.27376,41.68463],[-120.27413,41.68467],[-120.27447,41.68477],[-120.27476,41.68491],[-120.27792,41.68625],[-120.28046,41.68729],[-120.28087,41.6874],[-120.28113,41.68744],[-120.28139,41.68746],[-120.2825,41.68747],[-120.28442,41.68744],[-120.28532,41.68746],[-120.28824,41.68766],[-120.28885,41.68762],[-120.28903,41.68758],[-120.2892,41.68752],[-120.28934,41.68743],[-120.28956,41.68721],[-120.2899,41.68679],[-120.29021,41.68633],[-120.29032,41.68609],[-120.2904,41.68584],[-120.29044,41.68549],[-120.29043,41.68529],[-120.29036,41.68496],[-120.29029,41.6848],[-120.29019,41.68465],[-120.28999,41.6844],[-120.2898,41.68423],[-120.288,41.68284],[-120.28745,41.6824],[-120.28704,41.68197],[-120.2869,41.68176],[-120.28677,41.68137],[-120.28677,41.68094],[-120.28694,41.68009],[-120.28712,41.67963],[-120.28754,41.67809],[-120.28757,41.67791],[-120.28756,41.67766],[-120.28744,41.67695],[-120.28744,41.67677],[-120.28749,41.67658],[-120.28759,41.67638],[-120.28783,41.6761],[-120.28811,41.67585],[-120.28823,41.67578],[-120.28881,41.67548],[-120.28906,41.6754],[-120.28947,41.67531],[-120.28964,41.6753],[-120.29004,41.67533],[-120.29027,41.67536],[-120.29076,41.67553],[-120.29122,41.67573],[-120.292,41.67615],[-120.29236,41.67641],[-120.29291,41.67689],[-120.29325,41.67712],[-120.29391,41.6779],[-120.29437,41.67856],[-120.29613,41.68007],[-120.29763,41.68101],[-120.29791,41.6812],[-120.29822,41.68138],[-120.29866,41.68156],[-120.29904,41.68164],[-120.29962,41.68166],[-120.30085,41.68165],[-120.30159,41.68159],[-120.30198,41.68151],[-120.30234,41.6814],[-120.30321,41.68109],[-120.30559,41.68019],[-120.30619,41.67995],[-120.30654,41.67978],[-120.30671,41.67964],[-120.30693,41.67937],[-120.30702,41.67921],[-120.30726,41.6786],[-120.3079,41.67651],[-120.30804,41.67553],[-120.30815,41.67431],[-120.30826,41.67353],[-120.30826,41.67343],[-120.30821,41.67322],[-120.30811,41.67303],[-120.30806,41.67296],[-120.30759,41.67258],[-120.30735,41.67233],[-120.30729,41.67223],[-120.30727,41.67213],[-120.30728,41.67202],[-120.30746,41.67138],[-120.30764,41.67086],[-120.30767,41.6698],[-120.30764,41.66936],[-120.30757,41.66911],[-120.30745,41.66888],[-120.30724,41.66865],[-120.30691,41.66845],[-120.30589,41.66796],[-120.30545,41.66772],[-120.30526,41.66757],[-120.30508,41.66738],[-120.30491,41.66715],[-120.30476,41.66686],[-120.3045,41.66618],[-120.30423,41.66526],[-120.30395,41.66455],[-120.30382,41.6643],[-120.30358,41.66394],[-120.30234,41.66183],[-120.30225,41.66174],[-120.3015,41.66118],[-120.30136,41.66105],[-120.30093,41.66051],[-120.30066,41.66004],[-120.30054,41.65963],[-120.3005,41.65938],[-120.30048,41.65912],[-120.30049,41.65844],[-120.3004,41.65691],[-120.30036,41.65673],[-120.30029,41.65658],[-120.30011,41.65632],[-120.29999,41.6562],[-120.29885,41.65533],[-120.29618,41.65353],[-120.29472,41.65265],[-120.29422,41.6523],[-120.29353,41.65177],[-120.29328,41.65155],[-120.29319,41.65142],[-120.29305,41.65115],[-120.29297,41.65088],[-120.29289,41.65061],[-120.29279,41.65002],[-120.29275,41.64992],[-120.29227,41.6492],[-120.29216,41.64898],[-120.29164,41.64765],[-120.29162,41.64756],[-120.29163,41.64744],[-120.29169,41.64732],[-120.29179,41.64719],[-120.29201,41.64702],[-120.29243,41.64673],[-120.29254,41.64661],[-120.29271,41.6463],[-120.29277,41.64615],[-120.29284,41.64589],[-120.29288,41.64558],[-120.29288,41.64542],[-120.29285,41.64522],[-120.29276,41.64491],[-120.29248,41.6443],[-120.29243,41.64413],[-120.2924,41.64395],[-120.2924,41.64377],[-120.29255,41.64263],[-120.29253,41.64166],[-120.29262,41.64144],[-120.29272,41.64134],[-120.29285,41.64126],[-120.293,41.64123],[-120.29329,41.64121],[-120.29357,41.64115],[-120.2937,41.64111],[-120.2943,41.64082],[-120.2944,41.6408],[-120.29452,41.6408],[-120.29475,41.64084],[-120.29485,41.64089],[-120.29493,41.64095],[-120.295,41.64103],[-120.2951,41.64126],[-120.29523,41.64146],[-120.29558,41.64187],[-120.296,41.64228],[-120.29635,41.64259],[-120.29692,41.64304],[-120.29737,41.64341],[-120.29767,41.64359],[-120.2978,41.64364],[-120.29795,41.64367],[-120.2984,41.64369],[-120.2986,41.64373],[-120.29921,41.64388],[-120.29955,41.64392],[-120.30021,41.6439],[-120.30102,41.64399],[-120.30122,41.64398],[-120.30141,41.64394],[-120.30158,41.64388],[-120.30186,41.64372],[-120.30209,41.64361],[-120.30223,41.64356],[-120.30252,41.6435],[-120.30282,41.64349],[-120.30427,41.64366],[-120.30529,41.64393],[-120.30572,41.644],[-120.30597,41.64401],[-120.3061,41.644],[-120.30633,41.64395],[-120.30699,41.64372],[-120.30794,41.64345],[-120.30832,41.6434],[-120.30879,41.64341],[-120.30895,41.6434],[-120.30925,41.64334],[-120.30943,41.64327],[-120.30954,41.64322],[-120.30965,41.64313],[-120.30974,41.64303],[-120.31012,41.64228],[-120.31019,41.64208],[-120.31026,41.6416],[-120.31033,41.64142],[-120.3105,41.64117],[-120.31061,41.64105],[-120.31073,41.64095],[-120.31092,41.64082],[-120.31155,41.64052],[-120.31199,41.64028],[-120.31269,41.63985],[-120.31378,41.63911],[-120.31395,41.63897],[-120.31552,41.6376],[-120.31575,41.63744],[-120.31669,41.63704],[-120.31683,41.63694],[-120.31703,41.63676],[-120.31717,41.63655],[-120.31736,41.63601],[-120.31738,41.63588],[-120.31736,41.63563],[-120.31727,41.6354],[-120.31717,41.63524],[-120.31677,41.63486],[-120.31666,41.6347],[-120.31661,41.63459],[-120.31658,41.63445],[-120.31658,41.63424],[-120.3166,41.63413],[-120.31664,41.63403],[-120.31672,41.63395],[-120.31681,41.63388],[-120.31692,41.63382],[-120.31704,41.63379],[-120.31738,41.63377],[-120.31786,41.63368],[-120.31797,41.63363],[-120.31806,41.63356],[-120.31811,41.63347],[-120.31812,41.63339],[-120.31808,41.63319],[-120.31786,41.63247],[-120.3177,41.63226],[-120.31747,41.63203],[-120.31737,41.63186],[-120.31733,41.63176],[-120.31733,41.63159],[-120.31741,41.63144],[-120.31761,41.63123],[-120.31834,41.63082],[-120.31856,41.63072],[-120.31907,41.63057],[-120.31946,41.63041],[-120.31962,41.63033],[-120.31982,41.63019],[-120.31992,41.63007],[-120.31997,41.62995],[-120.32,41.62983],[-120.31999,41.62969],[-120.31981,41.6285],[-120.31975,41.62834],[-120.31965,41.62819],[-120.31951,41.62806],[-120.31903,41.62772],[-120.31816,41.62703],[-120.31797,41.6269],[-120.31766,41.62674],[-120.31749,41.62669],[-120.3172,41.62663],[-120.31603,41.62646],[-120.31533,41.62638],[-120.31449,41.6263],[-120.31431,41.6263],[-120.31396,41.62634],[-120.31371,41.62641],[-120.31229,41.627],[-120.31215,41.62702],[-120.31201,41.62703],[-120.31187,41.62701],[-120.31174,41.62698],[-120.31162,41.62692],[-120.31155,41.62685],[-120.3115,41.62671],[-120.31146,41.62638],[-120.3115,41.6258],[-120.31145,41.62561],[-120.31141,41.62552],[-120.3113,41.62535],[-120.31122,41.62527],[-120.31084,41.62499],[-120.31039,41.62461],[-120.31034,41.62453],[-120.31033,41.62444],[-120.31036,41.62436],[-120.31092,41.62335],[-120.31096,41.62315],[-120.31093,41.62284],[-120.31102,41.62251],[-120.31103,41.62234],[-120.31099,41.62217],[-120.31091,41.62201],[-120.31078,41.62184],[-120.31044,41.62143],[-120.3095,41.62039],[-120.30945,41.6203],[-120.30943,41.62021],[-120.30944,41.62011],[-120.30948,41.62001],[-120.30985,41.61965],[-120.31016,41.61928],[-120.31023,41.61917],[-120.31032,41.61892],[-120.31037,41.61835],[-120.31044,41.61815],[-120.3105,41.61805],[-120.31067,41.61787],[-120.31087,41.6177],[-120.31109,41.61748],[-120.31135,41.61713],[-120.31151,41.61686],[-120.31161,41.61677],[-120.31172,41.6167],[-120.3123,41.61643],[-120.31308,41.61596],[-120.31329,41.61591],[-120.31347,41.61591],[-120.31366,41.61593],[-120.31387,41.61598],[-120.31417,41.61602],[-120.31445,41.61601],[-120.31502,41.61592],[-120.31519,41.61591],[-120.31535,41.61593],[-120.31548,41.61599],[-120.31585,41.61622],[-120.31629,41.61644],[-120.31644,41.61648],[-120.31673,41.61648],[-120.31691,41.61644],[-120.31709,41.61637],[-120.31792,41.61589],[-120.31883,41.6155],[-120.3195,41.61524],[-120.31973,41.6152],[-120.31989,41.61514],[-120.32004,41.61505],[-120.32016,41.61494],[-120.32024,41.61481],[-120.32032,41.61461],[-120.32045,41.61442],[-120.3206,41.61429],[-120.32074,41.61424],[-120.32085,41.61422],[-120.32114,41.61422],[-120.32204,41.61439],[-120.32225,41.61442],[-120.32422,41.61443],[-120.32505,41.61442],[-120.32546,41.61437],[-120.32565,41.61432],[-120.32601,41.61418],[-120.32714,41.61352],[-120.32757,41.61325],[-120.328,41.61294],[-120.32916,41.61219],[-120.32979,41.61186],[-120.3305,41.61144],[-120.33074,41.61132],[-120.33094,41.61124],[-120.33149,41.61109],[-120.33184,41.61104],[-120.33219,41.61101],[-120.33254,41.61101],[-120.33286,41.61103],[-120.33384,41.61104],[-120.33573,41.61109],[-120.3377,41.61118],[-120.33786,41.61117],[-120.33849,41.61111],[-120.33969,41.61089],[-120.34189,41.61043],[-120.34287,41.6102],[-120.34343,41.61009],[-120.34386,41.61003],[-120.34498,41.60978],[-120.34543,41.60972],[-120.34577,41.60969],[-120.34602,41.60965],[-120.34704,41.6094],[-120.34745,41.60936],[-120.34771,41.60936],[-120.34797,41.60938],[-120.34823,41.60942],[-120.34923,41.60965],[-120.35047,41.61007],[-120.3512,41.61033],[-120.35203,41.61059],[-120.3526,41.61079],[-120.35312,41.61102],[-120.3534,41.61117],[-120.35367,41.61135],[-120.35398,41.6116],[-120.3546,41.61224],[-120.35517,41.61288],[-120.35571,41.61342],[-120.35606,41.61366],[-120.35623,41.61374],[-120.35717,41.61412],[-120.35871,41.61467],[-120.3598,41.61503],[-120.36024,41.61512],[-120.36219,41.61519],[-120.36464,41.61521],[-120.36819,41.61525],[-120.37044,41.61524],[-120.37204,41.61519],[-120.37441,41.61508],[-120.37797,41.61493],[-120.3795,41.61485],[-120.3858,41.61461],[-120.38891,41.61445],[-120.3895,41.61443],[-120.38993,41.61444],[-120.39042,41.61448],[-120.39248,41.61485],[-120.39284,41.61491],[-120.39858,41.6161],[-120.4004,41.61645],[-120.4025,41.61691],[-120.40367,41.61709],[-120.40409,41.61713],[-120.40474,41.61724],[-120.405,41.61726],[-120.40563,41.61735],[-120.4067,41.61742],[-120.40719,41.61741],[-120.4085,41.61735],[-120.40921,41.61735],[-120.41007,41.6173],[-120.41117,41.61723],[-120.41172,41.61722],[-120.4132,41.61737]]}},{"type":"Feature","properties":{"name":"Highgrade Road","road_class":"unclassified","surface":"gravel","source":"Caltrans All Roads + OpenStreetMap explicit surface","source_detail":"osm way 7926640; Caltrans All Roads public-network geometry match","source_tile":"170/380","public_network_source":"Caltrans All Roads (ARNOLD/HPMS)","surface_source":"OpenStreetMap explicit surface tag","caltrans_match_coverage":1.0,"verified_length_m":4845},"geometry":{"type":"LineString","coordinates":[[-120.24054,41.98911],[-120.24023,41.98928],[-120.24,41.98938],[-120.23991,41.98945],[-120.23961,41.98972],[-120.23945,41.98981],[-120.23927,41.98986],[-120.23901,41.9899],[-120.23873,41.98992],[-120.23856,41.98991],[-120.2384,41.98985],[-120.23821,41.98973],[-120.23789,41.98948],[-120.23757,41.98937],[-120.23711,41.98931],[-120.23556,41.98923],[-120.23532,41.98918],[-120.23451,41.98893],[-120.23414,41.98892],[-120.23353,41.98931],[-120.2334,41.98937],[-120.23326,41.98939],[-120.23312,41.98939],[-120.23225,41.98915],[-120.23158,41.989],[-120.23098,41.989],[-120.23069,41.98897],[-120.2297,41.9886],[-120.22962,41.98852],[-120.22958,41.98845],[-120.22958,41.98833],[-120.22959,41.98826],[-120.22966,41.98815],[-120.22975,41.98807],[-120.23008,41.98788],[-120.23062,41.98775],[-120.23068,41.98773],[-120.23073,41.98765],[-120.23072,41.9876],[-120.23069,41.98755],[-120.2306,41.98751],[-120.22998,41.9875],[-120.22981,41.98746],[-120.22938,41.98731],[-120.22913,41.98716],[-120.22881,41.98708],[-120.22866,41.98703],[-120.22858,41.98697],[-120.22855,41.9869],[-120.22855,41.98682],[-120.2286,41.98676],[-120.22872,41.98671],[-120.22899,41.98663],[-120.22927,41.98663],[-120.22942,41.98667],[-120.22972,41.98662],[-120.22993,41.98657],[-120.23009,41.9865],[-120.23035,41.98628],[-120.2306,41.98622],[-120.23086,41.98619],[-120.231,41.98612],[-120.23111,41.98603],[-120.23114,41.98595],[-120.23114,41.98589],[-120.23109,41.98584],[-120.23098,41.98577],[-120.23078,41.98572],[-120.23035,41.98573],[-120.23021,41.98568],[-120.23013,41.98561],[-120.2301,41.98545],[-120.2301,41.98532],[-120.23039,41.98499],[-120.23049,41.98483],[-120.23075,41.98428],[-120.23076,41.98412],[-120.23063,41.98376],[-120.23056,41.98364],[-120.23039,41.98345],[-120.23012,41.98326],[-120.23002,41.98315],[-120.22996,41.98304],[-120.22992,41.98297],[-120.22984,41.98285],[-120.22965,41.98258],[-120.22927,41.98225],[-120.22881,41.98183],[-120.22853,41.98148],[-120.22841,41.98126],[-120.22837,41.98114],[-120.22838,41.98102],[-120.22844,41.98087],[-120.22844,41.9808],[-120.22843,41.98072],[-120.22829,41.98057],[-120.22819,41.98043],[-120.22813,41.98025],[-120.22808,41.98013],[-120.22803,41.97998],[-120.22799,41.9798],[-120.22806,41.97947],[-120.22802,41.97936],[-120.22794,41.97924],[-120.22778,41.97912],[-120.22763,41.97903],[-120.22694,41.97879],[-120.22664,41.97862],[-120.22637,41.97854],[-120.22619,41.97843],[-120.22594,41.97826],[-120.22566,41.97811],[-120.22532,41.97802],[-120.22512,41.97792],[-120.22492,41.97776],[-120.22472,41.97759],[-120.22456,41.97745],[-120.22438,41.97736],[-120.22412,41.97733],[-120.22391,41.97724],[-120.22368,41.97712],[-120.22342,41.97702],[-120.22306,41.9769],[-120.22221,41.97655],[-120.22214,41.9765],[-120.22175,41.97611],[-120.22163,41.97604],[-120.22149,41.97601],[-120.22106,41.97584],[-120.2209,41.97583],[-120.22044,41.97584],[-120.22022,41.97583],[-120.21988,41.97573],[-120.2197,41.97576],[-120.21952,41.97585],[-120.2194,41.97597],[-120.21935,41.97602],[-120.21916,41.97608],[-120.21893,41.97624],[-120.21857,41.97653],[-120.2184,41.97662],[-120.21833,41.97673],[-120.21834,41.97687],[-120.21839,41.97706],[-120.2184,41.9772],[-120.21839,41.9773],[-120.2183,41.97742],[-120.21803,41.97764],[-120.21785,41.97773],[-120.21774,41.97777],[-120.21762,41.97777],[-120.21727,41.9777],[-120.21583,41.97747],[-120.21553,41.97737],[-120.21532,41.97725],[-120.21471,41.977],[-120.21455,41.97686],[-120.21441,41.97679],[-120.21423,41.97669],[-120.2141,41.9765],[-120.21404,41.97621],[-120.2141,41.9759],[-120.21407,41.97582],[-120.21401,41.97576],[-120.21396,41.97573],[-120.21384,41.97573],[-120.21373,41.97575],[-120.21356,41.97586],[-120.21331,41.97611],[-120.21321,41.97618],[-120.2131,41.97621],[-120.21267,41.97619],[-120.21249,41.97616],[-120.21235,41.9761],[-120.21202,41.97605],[-120.21175,41.97596],[-120.21144,41.97581],[-120.21117,41.97573],[-120.2103,41.97555],[-120.21015,41.97546],[-120.20986,41.97522],[-120.20974,41.97518],[-120.20962,41.97516],[-120.20915,41.97513],[-120.20863,41.97518],[-120.20822,41.97519],[-120.20805,41.9752],[-120.20797,41.97523],[-120.20794,41.97528],[-120.20787,41.97553],[-120.20778,41.97582],[-120.20762,41.97613],[-120.20754,41.97646],[-120.20753,41.97665],[-120.20761,41.97723],[-120.20759,41.97733]]}},{"type":"Feature","properties":{"name":"Fandango Pass Road","road_class":"unclassified","surface":"gravel","source":"Caltrans All Roads + OpenStreetMap explicit surface","source_detail":"osm way 368648388; Caltrans All Roads public-network geometry match","source_tile":"170/380","public_network_source":"Caltrans All Roads (ARNOLD/HPMS)","surface_source":"OpenStreetMap explicit surface tag","caltrans_match_coverage":1.0,"verified_length_m":17138},"geometry":{"type":"LineString","coordinates":[[-120.29121,41.86951],[-120.29075,41.86914],[-120.28995,41.86838],[-120.28912,41.86768],[-120.28792,41.86677],[-120.28686,41.8659],[-120.28609,41.86522],[-120.28549,41.86476],[-120.28479,41.86427],[-120.2844,41.86402],[-120.28365,41.86356],[-120.28305,41.86322],[-120.28253,41.86294],[-120.28029,41.86181],[-120.27975,41.86152],[-120.27874,41.86098],[-120.27829,41.86071],[-120.27752,41.86028],[-120.27703,41.85997],[-120.27628,41.85947],[-120.27584,41.85911],[-120.27295,41.8565],[-120.27242,41.85602],[-120.2721,41.85571],[-120.27122,41.85469],[-120.27076,41.85423],[-120.27052,41.85399],[-120.27001,41.85348],[-120.2692,41.85272],[-120.26864,41.8522],[-120.26755,41.85113],[-120.26733,41.85091],[-120.26667,41.85029],[-120.26475,41.84849],[-120.2627,41.84651],[-120.2616,41.84548],[-120.26135,41.84525],[-120.2611,41.84504],[-120.26004,41.84419],[-120.25951,41.84378],[-120.2579,41.84251],[-120.25652,41.84146],[-120.25578,41.84086],[-120.25536,41.84053],[-120.25231,41.83816],[-120.24942,41.83592],[-120.24884,41.83549],[-120.24844,41.83522],[-120.24815,41.83505],[-120.24782,41.83487],[-120.24747,41.83472],[-120.2472,41.83463],[-120.247,41.83457],[-120.24672,41.83454],[-120.24645,41.83453],[-120.24411,41.83453],[-120.24378,41.83451],[-120.24371,41.83449],[-120.24365,41.83447],[-120.2436,41.83442],[-120.24357,41.83438],[-120.24355,41.83431],[-120.24353,41.83421],[-120.24351,41.83416],[-120.24357,41.83181],[-120.2436,41.83119],[-120.24359,41.83111],[-120.24354,41.83102],[-120.2435,41.83099],[-120.24344,41.83096],[-120.24338,41.83095],[-120.2433,41.83094],[-120.23861,41.8309],[-120.23657,41.83089],[-120.23644,41.83087],[-120.23637,41.83084],[-120.23625,41.83078],[-120.23615,41.8307],[-120.23535,41.82957],[-120.23499,41.82902],[-120.23476,41.82868],[-120.23453,41.82834],[-120.23435,41.82804],[-120.23431,41.82797],[-120.23423,41.82778],[-120.23417,41.82762],[-120.23413,41.82734],[-120.2341,41.82631],[-120.23409,41.82558],[-120.23406,41.82522],[-120.23403,41.82502],[-120.23389,41.8246],[-120.23374,41.82429],[-120.23369,41.82415],[-120.23364,41.82388],[-120.23361,41.82339],[-120.2335,41.82314],[-120.23346,41.82305],[-120.23336,41.82255],[-120.23331,41.82244],[-120.2332,41.82234],[-120.23298,41.82217],[-120.23223,41.82168],[-120.23186,41.8214],[-120.23154,41.82113],[-120.23092,41.82055],[-120.23065,41.82033],[-120.23052,41.82025],[-120.23032,41.82017],[-120.23023,41.82014],[-120.23002,41.82012],[-120.2295,41.8201],[-120.22906,41.82005],[-120.22881,41.82001],[-120.22845,41.81994],[-120.22782,41.81985],[-120.22734,41.8198],[-120.2269,41.81973],[-120.2267,41.81967],[-120.22592,41.8194],[-120.22545,41.81925],[-120.22496,41.81913],[-120.22477,41.8191],[-120.2246,41.8191],[-120.22448,41.81911],[-120.22427,41.81915],[-120.22393,41.81924],[-120.22347,41.81933],[-120.2232,41.81935],[-120.22314,41.81934],[-120.22311,41.81932],[-120.22308,41.81931],[-120.22305,41.81929],[-120.22298,41.8192],[-120.22288,41.81898],[-120.2228,41.81876],[-120.22274,41.81854],[-120.22268,41.8182],[-120.22264,41.81807],[-120.22215,41.81737],[-120.22199,41.81714],[-120.22165,41.81673],[-120.22149,41.81651],[-120.22139,41.81634],[-120.22126,41.81596],[-120.22116,41.81578],[-120.22098,41.81552],[-120.22074,41.81526],[-120.22029,41.81463],[-120.22004,41.81436],[-120.21989,41.81421],[-120.21929,41.81361],[-120.21891,41.81326],[-120.21877,41.81312],[-120.21857,41.81285],[-120.21842,41.8126],[-120.21836,41.81246],[-120.21786,41.81119],[-120.21781,41.81109],[-120.21775,41.81103],[-120.21751,41.81081],[-120.2172,41.81059],[-120.2168,41.81037],[-120.21636,41.81012],[-120.21561,41.80973],[-120.21537,41.80959],[-120.21511,41.80941],[-120.21481,41.80919],[-120.21429,41.80878],[-120.21401,41.8086],[-120.2139,41.80851],[-120.21373,41.80832],[-120.21355,41.80804],[-120.2134,41.8079],[-120.21334,41.80786],[-120.21307,41.80773],[-120.21094,41.80688],[-120.21035,41.80658],[-120.21017,41.80648],[-120.20979,41.80624],[-120.20968,41.80616],[-120.2094,41.8059],[-120.20916,41.80569],[-120.2089,41.8054],[-120.20861,41.80503],[-120.20828,41.80452],[-120.20809,41.80418],[-120.20772,41.80331],[-120.2076,41.803],[-120.20748,41.80273],[-120.20724,41.80232],[-120.20717,41.80224],[-120.20702,41.8021],[-120.20692,41.80203],[-120.20683,41.80198],[-120.20673,41.80194],[-120.20663,41.80191],[-120.20651,41.80188],[-120.20629,41.80181],[-120.20602,41.80175],[-120.20584,41.80172],[-120.20555,41.80169],[-120.20527,41.80169],[-120.20481,41.80172],[-120.20446,41.80176],[-120.20412,41.80183],[-120.20395,41.80183],[-120.20376,41.80183],[-120.20355,41.80184],[-120.20335,41.80187],[-120.20319,41.80191],[-120.20305,41.80199],[-120.20293,41.80208],[-120.20285,41.80216],[-120.2028,41.80222],[-120.20273,41.80246],[-120.20266,41.80259],[-120.20255,41.80272],[-120.20245,41.80279],[-120.20221,41.80292],[-120.20208,41.80297],[-120.20196,41.80298],[-120.20185,41.80297],[-120.20176,41.80292],[-120.2017,41.80285],[-120.20167,41.80279],[-120.20167,41.8027],[-120.2017,41.80258],[-120.20177,41.80246],[-120.20196,41.80215],[-120.20212,41.80186],[-120.20223,41.80171],[-120.2025,41.80143],[-120.2026,41.80134],[-120.20287,41.80114],[-120.20312,41.801],[-120.2039,41.80059],[-120.20398,41.80054],[-120.20401,41.80051],[-120.20402,41.80046],[-120.20401,41.80041],[-120.20398,41.80039],[-120.20389,41.80037],[-120.20379,41.80038],[-120.20368,41.8004],[-120.20336,41.80051],[-120.20294,41.80063],[-120.20269,41.80068],[-120.20136,41.80101],[-120.201,41.8011],[-120.20091,41.80113],[-120.20077,41.80121],[-120.20067,41.80129],[-120.20045,41.80149],[-120.20038,41.80155],[-120.20028,41.80159],[-120.20023,41.80161],[-120.20018,41.80161],[-120.20012,41.80159],[-120.20007,41.80157],[-120.20004,41.80151],[-120.20004,41.8014],[-120.2001,41.80125],[-120.20029,41.80091],[-120.2004,41.80069],[-120.20047,41.80062],[-120.20075,41.80044],[-120.20135,41.80014],[-120.2016,41.79997],[-120.20182,41.79977],[-120.20191,41.79967],[-120.20196,41.79955],[-120.20198,41.7994],[-120.20195,41.79915],[-120.20197,41.79897],[-120.20199,41.79889],[-120.20207,41.79876],[-120.20224,41.79856],[-120.20245,41.79838],[-120.20248,41.79834],[-120.20255,41.79817],[-120.20261,41.79794],[-120.20282,41.79742],[-120.20284,41.7973],[-120.20283,41.79719],[-120.20277,41.79703],[-120.2027,41.79687],[-120.20268,41.79679],[-120.20269,41.79665],[-120.20271,41.79657],[-120.20305,41.79584],[-120.20316,41.79567],[-120.20333,41.79544],[-120.20335,41.79535],[-120.20334,41.79527],[-120.20325,41.79518],[-120.2032,41.79515],[-120.20304,41.79511],[-120.20298,41.7951],[-120.20293,41.7951],[-120.20283,41.79513],[-120.20269,41.79521],[-120.20258,41.7953],[-120.20247,41.79548],[-120.20243,41.79557],[-120.20241,41.79574],[-120.20239,41.79583],[-120.20226,41.79599],[-120.20215,41.7961],[-120.20203,41.79616],[-120.20172,41.79637],[-120.20147,41.79657],[-120.20132,41.79665],[-120.20114,41.79672],[-120.20087,41.79683],[-120.20063,41.79694],[-120.20045,41.79702],[-120.20034,41.79704],[-120.20029,41.79703],[-120.19976,41.7969],[-120.19939,41.79684],[-120.19931,41.79683],[-120.19916,41.79683],[-120.19897,41.79685],[-120.19887,41.79689],[-120.19881,41.79695],[-120.19875,41.79703],[-120.19861,41.79738],[-120.19856,41.79743],[-120.19844,41.79749],[-120.19803,41.79762],[-120.19777,41.79768],[-120.19765,41.7977],[-120.19735,41.79772],[-120.19727,41.79772],[-120.19694,41.79773],[-120.19663,41.79776],[-120.19638,41.79782],[-120.19623,41.79787],[-120.19593,41.79802],[-120.19579,41.79807],[-120.19556,41.79811],[-120.19536,41.79812],[-120.19528,41.79811],[-120.19512,41.79809],[-120.19456,41.79792],[-120.19434,41.7979],[-120.19425,41.79791],[-120.19415,41.79794],[-120.19396,41.79809],[-120.19391,41.79811],[-120.19379,41.79813],[-120.19374,41.79812],[-120.19366,41.7981],[-120.19363,41.79807],[-120.1936,41.79801],[-120.19361,41.79798],[-120.19363,41.79794],[-120.19366,41.79792],[-120.19388,41.7978],[-120.19487,41.79743],[-120.19525,41.7973],[-120.1954,41.79727],[-120.19568,41.79717],[-120.19572,41.79714],[-120.19574,41.79709],[-120.19573,41.79707],[-120.19568,41.79703],[-120.19563,41.79702],[-120.19459,41.79699],[-120.19421,41.79698],[-120.19389,41.797],[-120.19378,41.79701],[-120.19361,41.79708],[-120.19341,41.79721],[-120.19319,41.79737],[-120.19301,41.79752],[-120.19283,41.79771],[-120.19272,41.79787],[-120.19256,41.79839],[-120.1925,41.79853],[-120.19248,41.79856],[-120.19244,41.79859],[-120.19241,41.7986],[-120.1923,41.7986],[-120.19226,41.79859],[-120.19222,41.79857],[-120.19218,41.79849],[-120.19217,41.79843],[-120.19218,41.79823],[-120.19216,41.79805],[-120.19193,41.79729],[-120.19187,41.79713],[-120.19181,41.79702],[-120.19174,41.79692],[-120.19159,41.79677],[-120.19151,41.7967],[-120.19144,41.79666],[-120.19119,41.79654],[-120.19016,41.79615],[-120.18958,41.79596],[-120.18925,41.79587],[-120.18888,41.79578],[-120.18799,41.79561],[-120.18782,41.7956],[-120.18755,41.79562],[-120.1874,41.79563],[-120.18703,41.79569],[-120.18609,41.79588],[-120.18585,41.79596],[-120.18559,41.79608],[-120.18548,41.7961],[-120.18541,41.79609],[-120.18537,41.79607],[-120.18533,41.79602],[-120.18532,41.79593],[-120.18535,41.79587],[-120.18545,41.79577],[-120.18555,41.79568],[-120.18603,41.79538],[-120.18655,41.79507],[-120.18683,41.79491],[-120.18716,41.79472],[-120.18733,41.7946],[-120.18737,41.79456],[-120.18741,41.79447],[-120.18742,41.79442],[-120.1874,41.79432],[-120.18738,41.79428],[-120.18727,41.79422],[-120.18714,41.79416],[-120.18684,41.79405],[-120.18476,41.79337],[-120.18474,41.79337],[-120.18463,41.79334],[-120.18451,41.79333],[-120.18418,41.79335],[-120.1835,41.79344],[-120.18287,41.79355],[-120.18036,41.79411],[-120.17995,41.79418],[-120.17945,41.79425],[-120.17906,41.79427],[-120.17811,41.79428],[-120.17761,41.7943],[-120.17553,41.7944],[-120.17508,41.79441],[-120.17485,41.79439],[-120.17469,41.79436],[-120.17451,41.7943],[-120.17431,41.7942],[-120.17423,41.79414],[-120.17416,41.79407],[-120.17378,41.79364],[-120.17368,41.79349],[-120.17355,41.79318],[-120.1735,41.79298],[-120.17346,41.79278],[-120.17347,41.79259],[-120.17353,41.79237],[-120.17374,41.79185],[-120.17375,41.79169],[-120.17371,41.79155],[-120.17359,41.79127]]}}]}