{"type":"FeatureCollection","features":[{"type":"Feature","properties":{"name":"46N63","road_class":"unclassified","surface":"gravel","source":"Caltrans All Roads + OpenStreetMap explicit surface","source_detail":"osm way 374362112; Caltrans All Roads public-network geometry match","source_tile":"169/381","public_network_source":"Caltrans All Roads (ARNOLD/HPMS)","surface_source":"OpenStreetMap explicit surface tag","caltrans_match_coverage":0.998,"verified_length_m":24024},"geometry":{"type":"LineString","coordinates":[[-120.32891,41.72495],[-120.32909,41.72536],[-120.32918,41.7257],[-120.32923,41.72606],[-120.3292,41.72646],[-120.3289,41.72724],[-120.32884,41.7275],[-120.32837,41.72836],[-120.32815,41.72886],[-120.32805,41.72923],[-120.32815,41.72969],[-120.32875,41.73044],[-120.3292,41.73108],[-120.32998,41.73225],[-120.33096,41.73392],[-120.33124,41.73467],[-120.33129,41.7352],[-120.33122,41.7357],[-120.33111,41.7361],[-120.33086,41.73653],[-120.33041,41.73685],[-120.32961,41.73723],[-120.32903,41.73757],[-120.3288,41.73791],[-120.32878,41.73816],[-120.32931,41.73847],[-120.33088,41.73917],[-120.33141,41.73954],[-120.33161,41.74005],[-120.33163,41.74045],[-120.33139,41.74079],[-120.33116,41.74103],[-120.33049,41.74112],[-120.32996,41.74117],[-120.32946,41.74141],[-120.32826,41.7426],[-120.32777,41.74284],[-120.32736,41.74284],[-120.32689,41.74271],[-120.32654,41.74256],[-120.32629,41.7425],[-120.32584,41.74282],[-120.32551,41.74317],[-120.32534,41.74331],[-120.32511,41.74336],[-120.32418,41.74319],[-120.32386,41.7432],[-120.32367,41.74325],[-120.32337,41.74357],[-120.323,41.74415],[-120.32272,41.74479],[-120.32245,41.74535],[-120.32245,41.74572],[-120.32255,41.74613],[-120.32287,41.7465],[-120.32382,41.7469],[-120.32453,41.74745],[-120.32504,41.74778],[-120.32562,41.7482],[-120.32643,41.74888],[-120.32688,41.74955],[-120.32699,41.74974],[-120.32708,41.74996],[-120.32714,41.75022],[-120.32717,41.75071],[-120.32714,41.75093],[-120.32711,41.75103],[-120.32702,41.75118],[-120.32692,41.75131],[-120.32654,41.75193],[-120.32649,41.75206],[-120.32648,41.75238],[-120.32739,41.75795],[-120.32752,41.75828],[-120.32772,41.75854],[-120.32818,41.75889],[-120.33264,41.76198],[-120.33411,41.76303],[-120.33452,41.76338],[-120.33492,41.7638],[-120.33539,41.76435],[-120.33607,41.76516],[-120.33657,41.76568],[-120.33787,41.76681],[-120.33819,41.76723],[-120.33908,41.76872],[-120.33925,41.76904],[-120.33944,41.7695],[-120.33947,41.7696],[-120.33949,41.76987],[-120.34006,41.77318],[-120.34021,41.77388],[-120.34028,41.77414],[-120.34036,41.77431],[-120.34058,41.77462],[-120.34157,41.77595],[-120.34167,41.77614],[-120.34214,41.7779],[-120.34222,41.77839],[-120.3423,41.77869],[-120.34235,41.77907],[-120.34253,41.77972],[-120.34262,41.78015],[-120.34293,41.78093],[-120.34296,41.7811],[-120.343,41.78148],[-120.34299,41.78191],[-120.34293,41.78215],[-120.34273,41.78286],[-120.34271,41.78303],[-120.34278,41.78368],[-120.34306,41.78422],[-120.3431,41.78437],[-120.3431,41.78448],[-120.34306,41.7846],[-120.34297,41.78467],[-120.34288,41.78471],[-120.34277,41.78473],[-120.34255,41.78471],[-120.34232,41.78467],[-120.34135,41.78444],[-120.34108,41.78437],[-120.34061,41.78418],[-120.34052,41.78417],[-120.34043,41.78418],[-120.34035,41.78421],[-120.33955,41.78468],[-120.33933,41.78479],[-120.33912,41.78487],[-120.33892,41.78493],[-120.33863,41.78499],[-120.33851,41.785],[-120.33829,41.78499],[-120.33808,41.78495],[-120.3377,41.78476],[-120.33726,41.78444],[-120.33659,41.78412],[-120.33607,41.78378],[-120.3358,41.78365],[-120.33541,41.78351],[-120.33532,41.78346],[-120.33523,41.78339],[-120.335,41.78317],[-120.33487,41.7831],[-120.33458,41.78302],[-120.33446,41.78298],[-120.33435,41.78291],[-120.33411,41.78271],[-120.33392,41.7826],[-120.33351,41.78246],[-120.33334,41.78237],[-120.33322,41.78225],[-120.33319,41.78218],[-120.33308,41.78118],[-120.33304,41.78109],[-120.33297,41.78099],[-120.33287,41.78089],[-120.33275,41.7808],[-120.3326,41.78072],[-120.33235,41.78063],[-120.33176,41.78039],[-120.33157,41.78035],[-120.33138,41.78035],[-120.33082,41.78039],[-120.33061,41.78039],[-120.33032,41.78032],[-120.33004,41.78018],[-120.32976,41.78015],[-120.32966,41.78011],[-120.32955,41.78004],[-120.32947,41.77994],[-120.3293,41.77945],[-120.32924,41.77938],[-120.32917,41.77934],[-120.32906,41.77932],[-120.32889,41.77932],[-120.32873,41.77936],[-120.32863,41.77941],[-120.32825,41.77965],[-120.32763,41.7801],[-120.3272,41.78036],[-120.32711,41.78038],[-120.32701,41.78038],[-120.32692,41.78036],[-120.32651,41.78014],[-120.32638,41.78009],[-120.32614,41.78005],[-120.32607,41.78001],[-120.32602,41.77994],[-120.32594,41.77935],[-120.32586,41.77921],[-120.32573,41.77906],[-120.32555,41.77893],[-120.32514,41.77872],[-120.32432,41.77844],[-120.32354,41.7782],[-120.32338,41.77813],[-120.32327,41.77805],[-120.32318,41.77795],[-120.32258,41.77704],[-120.32234,41.77675],[-120.32209,41.7765],[-120.32167,41.77614],[-120.32049,41.77544],[-120.32012,41.77526],[-120.31997,41.77518],[-120.31983,41.77515],[-120.31935,41.77512],[-120.31871,41.7752],[-120.31838,41.77525],[-120.31781,41.7754],[-120.31757,41.77549],[-120.31746,41.77555],[-120.31741,41.77559],[-120.31736,41.77566],[-120.31735,41.77575],[-120.31738,41.77593],[-120.31744,41.77611],[-120.31747,41.77629],[-120.31746,41.7765],[-120.31739,41.777],[-120.31728,41.77749],[-120.31729,41.77759],[-120.31733,41.7777],[-120.31776,41.77837],[-120.31807,41.77869],[-120.31827,41.77887],[-120.31841,41.77898],[-120.31898,41.77929],[-120.31973,41.77965],[-120.31987,41.77969],[-120.32049,41.77981],[-120.32081,41.77992],[-120.32115,41.77999],[-120.32133,41.78005],[-120.32144,41.78012],[-120.32165,41.78031],[-120.32189,41.78057],[-120.32206,41.78067],[-120.32235,41.7808],[-120.32251,41.78096],[-120.32258,41.78107],[-120.32261,41.7812],[-120.32263,41.7819],[-120.32257,41.78213],[-120.32246,41.78238],[-120.32228,41.78264],[-120.32211,41.7828],[-120.32199,41.78289],[-120.32159,41.78311],[-120.32124,41.78327],[-120.32098,41.78336],[-120.31978,41.78394],[-120.31962,41.78405],[-120.31873,41.78483],[-120.31856,41.78492],[-120.31839,41.78496],[-120.31814,41.78499],[-120.31799,41.785],[-120.31712,41.78498],[-120.31694,41.78499],[-120.31667,41.78505],[-120.31641,41.78517],[-120.31617,41.78536],[-120.3156,41.78598],[-120.31525,41.78626],[-120.31497,41.78655],[-120.31484,41.78671],[-120.31469,41.78701],[-120.31461,41.78712],[-120.3145,41.78724],[-120.31434,41.78733],[-120.31428,41.78739],[-120.31412,41.78756],[-120.31378,41.78782],[-120.31351,41.78798],[-120.31304,41.78813],[-120.31221,41.78838],[-120.31145,41.78854],[-120.31133,41.78859],[-120.31119,41.78866],[-120.31114,41.7887],[-120.31087,41.78901],[-120.31052,41.78967],[-120.31036,41.78987],[-120.31028,41.78996],[-120.30971,41.79046],[-120.30951,41.79059],[-120.30928,41.79068],[-120.30912,41.79068],[-120.30884,41.79065],[-120.30876,41.79065],[-120.30869,41.79069],[-120.30864,41.79076],[-120.30863,41.79083],[-120.30867,41.79092],[-120.30876,41.79108],[-120.30909,41.79153],[-120.30936,41.79185],[-120.30959,41.79209],[-120.30963,41.79218],[-120.30966,41.79232],[-120.30963,41.79268],[-120.30979,41.79331],[-120.3098,41.79342],[-120.30977,41.79348],[-120.30972,41.79353],[-120.30966,41.79355],[-120.30907,41.79367],[-120.30887,41.79369],[-120.30786,41.79365],[-120.30755,41.79366],[-120.30741,41.7937],[-120.30684,41.7939],[-120.30659,41.79401],[-120.306,41.79438],[-120.30546,41.79483],[-120.30531,41.79493],[-120.30495,41.7951],[-120.30433,41.79534],[-120.30395,41.79545],[-120.30329,41.79569],[-120.30265,41.79584],[-120.30222,41.79589],[-120.30199,41.7959],[-120.30142,41.79588],[-120.30109,41.79589],[-120.30091,41.79591],[-120.30068,41.79599],[-120.30048,41.7961],[-120.30025,41.7962],[-120.29976,41.79631],[-120.29942,41.79633],[-120.29921,41.7964],[-120.29911,41.79651],[-120.29906,41.79664],[-120.29901,41.79728],[-120.29897,41.79744],[-120.29879,41.7977],[-120.29846,41.79829],[-120.29808,41.79883],[-120.29741,41.79961],[-120.29732,41.79966],[-120.29724,41.79967],[-120.29718,41.79964],[-120.29714,41.79958],[-120.29713,41.79949],[-120.2972,41.79907],[-120.29719,41.79863],[-120.2973,41.79757],[-120.29726,41.79744],[-120.29718,41.7974],[-120.29706,41.7974],[-120.29679,41.79752],[-120.29626,41.79783],[-120.29589,41.79808],[-120.29578,41.79819],[-120.29532,41.79875],[-120.29527,41.79884],[-120.2952,41.799],[-120.29518,41.79917],[-120.2952,41.79944],[-120.29524,41.79959],[-120.2955,41.80019],[-120.29554,41.80034],[-120.29558,41.80054],[-120.29561,41.80101],[-120.29582,41.80152],[-120.29599,41.80177],[-120.29627,41.80204],[-120.29671,41.80241],[-120.29717,41.80288],[-120.29788,41.8035],[-120.298,41.80359],[-120.29826,41.80368],[-120.29838,41.80375],[-120.29862,41.80395],[-120.29872,41.80405],[-120.29881,41.80419],[-120.29903,41.80461],[-120.29927,41.80492],[-120.29937,41.80517],[-120.29953,41.8058],[-120.29963,41.80634],[-120.29968,41.80649],[-120.29974,41.80658],[-120.30013,41.80701],[-120.30072,41.80773],[-120.30151,41.80902],[-120.30204,41.80978],[-120.30214,41.81006],[-120.30221,41.81038],[-120.30225,41.81085],[-120.30223,41.81106],[-120.302,41.81237],[-120.30176,41.81291],[-120.30148,41.81381],[-120.30133,41.81442],[-120.3012,41.81482],[-120.30108,41.81497],[-120.3006,41.81553],[-120.30027,41.81586],[-120.30009,41.81597],[-120.29958,41.81618],[-120.29947,41.81625],[-120.29941,41.81632],[-120.29936,41.81643],[-120.29932,41.81667],[-120.29927,41.81727],[-120.29936,41.8179],[-120.29935,41.81807],[-120.29925,41.81871],[-120.29906,41.81972],[-120.29903,41.82008],[-120.29901,41.82155],[-120.29896,41.82216],[-120.29887,41.82259],[-120.29868,41.82312],[-120.29798,41.8242],[-120.29766,41.82465],[-120.2972,41.82515],[-120.29703,41.82544],[-120.29696,41.82566],[-120.29696,41.82573],[-120.29698,41.82586],[-120.29706,41.82599],[-120.29712,41.82604],[-120.29776,41.8264],[-120.29822,41.8268],[-120.2985,41.82711],[-120.29855,41.82721],[-120.29872,41.82786],[-120.29874,41.8281],[-120.29876,41.82893],[-120.29883,41.82936],[-120.2988,41.82985],[-120.29883,41.83021],[-120.29888,41.83036],[-120.29896,41.83048],[-120.29936,41.83087],[-120.29964,41.83105],[-120.29991,41.8312],[-120.3001,41.83134],[-120.30052,41.83186],[-120.30082,41.83239],[-120.30097,41.83261],[-120.30127,41.83293],[-120.30161,41.83324],[-120.30192,41.83342],[-120.30203,41.83347],[-120.3032,41.83386],[-120.30342,41.83392],[-120.30396,41.83398],[-120.30411,41.83402],[-120.3051,41.83454],[-120.3054,41.83474],[-120.30566,41.83487],[-120.3059,41.83494],[-120.30647,41.83503],[-120.30707,41.83504],[-120.30719,41.83503],[-120.30774,41.83493],[-120.30797,41.83493],[-120.30877,41.83502],[-120.30898,41.83502],[-120.31158,41.83506],[-120.3125,41.83505],[-120.31265,41.83503],[-120.31279,41.83499],[-120.31294,41.83491],[-120.31322,41.83469],[-120.3134,41.83459],[-120.31351,41.83455],[-120.31373,41.83452],[-120.31388,41.83452],[-120.31424,41.83461],[-120.31453,41.8348],[-120.31514,41.83506],[-120.31524,41.83512],[-120.31537,41.83529],[-120.31545,41.83537],[-120.31556,41.83543],[-120.3166,41.83579],[-120.31669,41.83584],[-120.31677,41.83591],[-120.31716,41.83655],[-120.31743,41.83682],[-120.31758,41.83693],[-120.31768,41.83699],[-120.31781,41.83702],[-120.31803,41.83703],[-120.31829,41.83701],[-120.31861,41.83695],[-120.31954,41.83666],[-120.32005,41.83653],[-120.32026,41.83645],[-120.32034,41.83644],[-120.32045,41.83645],[-120.32054,41.83649],[-120.3211,41.83713],[-120.32136,41.83736],[-120.32143,41.83742],[-120.32179,41.83761],[-120.32197,41.8377],[-120.32215,41.83774],[-120.32226,41.83775],[-120.32278,41.83766],[-120.32309,41.83758],[-120.3233,41.83749],[-120.32381,41.83723],[-120.32439,41.8368],[-120.3246,41.83667],[-120.32591,41.83621],[-120.32611,41.83611],[-120.32631,41.83596],[-120.32695,41.83529],[-120.32716,41.8351],[-120.32722,41.83507],[-120.32735,41.83504],[-120.32747,41.83504],[-120.32758,41.83506],[-120.32765,41.8351],[-120.32778,41.83528],[-120.32797,41.83566],[-120.32814,41.83643],[-120.32825,41.83748],[-120.32829,41.83761],[-120.32836,41.83769],[-120.32846,41.83776],[-120.32873,41.83784],[-120.32932,41.83795],[-120.32963,41.83798],[-120.33073,41.838],[-120.33125,41.838],[-120.33159,41.83801],[-120.33173,41.83803],[-120.33234,41.83818],[-120.33252,41.83825],[-120.33267,41.83834],[-120.33292,41.83855],[-120.33347,41.83908],[-120.33378,41.83933],[-120.33404,41.83952],[-120.33452,41.83982],[-120.33548,41.84036],[-120.33563,41.84041],[-120.33576,41.84044],[-120.33589,41.84045],[-120.33655,41.84037],[-120.33669,41.84035],[-120.33717,41.84035],[-120.33775,41.84042],[-120.33813,41.84049],[-120.34014,41.84106],[-120.34361,41.84198]]}},{"type":"Feature","properties":{"name":"County Road 118","road_class":"unclassified","surface":"gravel","source":"Caltrans All Roads + OpenStreetMap explicit surface","source_detail":"osm way 7912494; Caltrans All Roads public-network geometry match","source_tile":"169/381","public_network_source":"Caltrans All Roads (ARNOLD/HPMS)","surface_source":"OpenStreetMap explicit surface tag","caltrans_match_coverage":0.959,"verified_length_m":51674},"geometry":{"type":"LineString","coordinates":[[-120.32048,41.86042],[-120.32041,41.86037],[-120.32029,41.86021],[-120.32023,41.86006],[-120.32018,41.85986],[-120.32014,41.85928],[-120.3201,41.85908],[-120.31997,41.85875],[-120.31985,41.85859],[-120.31972,41.85846],[-120.31939,41.85818],[-120.31926,41.8581],[-120.31898,41.85799],[-120.31857,41.85792],[-120.31835,41.85792],[-120.31813,41.85795],[-120.31801,41.858],[-120.31719,41.85843],[-120.31684,41.85859],[-120.31671,41.85861],[-120.31655,41.85862],[-120.31633,41.8586],[-120.31621,41.85858],[-120.31556,41.8584],[-120.31503,41.85823],[-120.31475,41.85812],[-120.31434,41.85791],[-120.31378,41.85756],[-120.31298,41.85705],[-120.31254,41.85675],[-120.31241,41.85664],[-120.31229,41.85651],[-120.31197,41.85609],[-120.31159,41.85571],[-120.31108,41.85529],[-120.31086,41.85517],[-120.30945,41.85452],[-120.30817,41.85383],[-120.30751,41.85341],[-120.30587,41.85234],[-120.3048,41.85162],[-120.30327,41.85068],[-120.30282,41.85035],[-120.30257,41.85013],[-120.30233,41.8499],[-120.30216,41.84977],[-120.30193,41.84963],[-120.3017,41.8495],[-120.30128,41.84933],[-120.30087,41.8492],[-120.30066,41.84916],[-120.29942,41.84897],[-120.29921,41.84893],[-120.29907,41.84889],[-120.29896,41.84883],[-120.2988,41.8487],[-120.2986,41.8485],[-120.29843,41.84838],[-120.29728,41.84723],[-120.29688,41.84674],[-120.29665,41.84641],[-120.29628,41.84595],[-120.29613,41.84583],[-120.29499,41.84504],[-120.29467,41.84474],[-120.2944,41.84442],[-120.29424,41.84417],[-120.29418,41.84393],[-120.29414,41.84355],[-120.29405,41.84333],[-120.294,41.84321],[-120.29365,41.84272],[-120.29357,41.84257],[-120.29352,41.84244],[-120.29351,41.84199],[-120.29359,41.8416],[-120.29373,41.8412],[-120.29416,41.84038],[-120.29461,41.83967],[-120.29557,41.83744],[-120.29612,41.83649],[-120.29637,41.83583],[-120.29704,41.83491],[-120.2971,41.83485],[-120.29728,41.83478],[-120.29756,41.83474],[-120.29847,41.83473],[-120.29866,41.83467],[-120.29875,41.83459],[-120.2988,41.83449],[-120.29912,41.83298],[-120.29914,41.83263],[-120.29913,41.83244],[-120.29908,41.83191],[-120.29902,41.8316],[-120.29887,41.8313],[-120.2986,41.83099],[-120.29846,41.83078],[-120.29821,41.83022],[-120.29819,41.83007],[-120.29822,41.8299],[-120.29834,41.82973],[-120.29828,41.8287],[-120.2982,41.82852],[-120.29809,41.8284],[-120.29789,41.82827],[-120.29773,41.82821],[-120.29708,41.828],[-120.297,41.82797],[-120.29686,41.82785],[-120.29654,41.82752],[-120.29645,41.82745],[-120.29619,41.82729],[-120.29603,41.82717],[-120.29552,41.82663],[-120.29524,41.82642],[-120.29497,41.82619],[-120.29472,41.82592],[-120.29448,41.82559],[-120.2938,41.82449],[-120.29311,41.82363],[-120.29273,41.82321],[-120.29205,41.82256],[-120.29164,41.82211],[-120.29118,41.8217],[-120.2906,41.82124],[-120.28936,41.82038],[-120.28863,41.81975],[-120.28827,41.81951],[-120.28811,41.81937],[-120.28798,41.81923],[-120.28777,41.81896],[-120.28773,41.81884],[-120.28772,41.81864],[-120.28763,41.81826],[-120.28743,41.81772],[-120.28714,41.81673],[-120.28691,41.81516],[-120.28687,41.81499],[-120.28673,41.81466],[-120.28631,41.81409],[-120.28518,41.81264],[-120.28461,41.81194],[-120.28405,41.81119],[-120.28394,41.81106],[-120.28298,41.81014],[-120.282,41.80926],[-120.28155,41.80875],[-120.28138,41.8085],[-120.28123,41.80823],[-120.28117,41.80807],[-120.28077,41.80675],[-120.28046,41.80582],[-120.27997,41.80449],[-120.27963,41.80328],[-120.27958,41.8031],[-120.27959,41.80298],[-120.27962,41.80289],[-120.27991,41.80262],[-120.28061,41.8021],[-120.28113,41.80161],[-120.28149,41.8013],[-120.28163,41.8012],[-120.28176,41.80114],[-120.28221,41.80106],[-120.28307,41.80102],[-120.28332,41.80096],[-120.28349,41.80086],[-120.28443,41.80005],[-120.28449,41.79997],[-120.28454,41.79976],[-120.28454,41.79955],[-120.28449,41.79939],[-120.28449,41.7993],[-120.28505,41.79824],[-120.28541,41.7978],[-120.28559,41.79737],[-120.28604,41.79599],[-120.28616,41.79566],[-120.28627,41.79444],[-120.28632,41.79427],[-120.28648,41.79392],[-120.28675,41.79353],[-120.28682,41.7934],[-120.28684,41.79332],[-120.28686,41.79266],[-120.28689,41.79254],[-120.28696,41.79237],[-120.28725,41.79194],[-120.28735,41.79161],[-120.28731,41.79095],[-120.28723,41.79075],[-120.28695,41.7904],[-120.2869,41.79029],[-120.28688,41.79013],[-120.2869,41.7899],[-120.28695,41.78966],[-120.28708,41.78943],[-120.28724,41.78927],[-120.28739,41.78917],[-120.2877,41.78899],[-120.28788,41.78885],[-120.28797,41.78872],[-120.28831,41.78786],[-120.28837,41.78775],[-120.28849,41.7876],[-120.28898,41.78714],[-120.28904,41.78706],[-120.2891,41.78689],[-120.28912,41.78657],[-120.28911,41.78642],[-120.28906,41.78626],[-120.28895,41.78608],[-120.28893,41.78571],[-120.28888,41.78555],[-120.28883,41.78548],[-120.28874,41.78538],[-120.28864,41.78532],[-120.28841,41.7852],[-120.2875,41.78482],[-120.28721,41.78467],[-120.2871,41.7846],[-120.28686,41.7844],[-120.28678,41.7843],[-120.28667,41.78396],[-120.28653,41.78374],[-120.28644,41.78355],[-120.28625,41.78328],[-120.28595,41.78299],[-120.28556,41.78267],[-120.28533,41.78245],[-120.28498,41.78202],[-120.28478,41.78169],[-120.28451,41.78112],[-120.28446,41.78095],[-120.28444,41.78055],[-120.2844,41.78036],[-120.28424,41.77996],[-120.28388,41.77938],[-120.28375,41.77913],[-120.28359,41.77871],[-120.28338,41.7784],[-120.28322,41.77818],[-120.28279,41.77775],[-120.28268,41.77759],[-120.28261,41.77737],[-120.28239,41.77617],[-120.28233,41.77603],[-120.28208,41.77566],[-120.28193,41.77539],[-120.28167,41.77475],[-120.28156,41.77462],[-120.28128,41.77438],[-120.28102,41.77408],[-120.28094,41.77392],[-120.28086,41.77356],[-120.28068,41.77298],[-120.2806,41.77276],[-120.28038,41.77228],[-120.28018,41.772],[-120.27984,41.77164],[-120.27946,41.77133],[-120.27896,41.77085],[-120.27833,41.77037],[-120.27787,41.76998],[-120.27746,41.7696],[-120.27729,41.76939],[-120.27705,41.76899],[-120.27696,41.76879],[-120.27692,41.76869],[-120.27687,41.76847],[-120.27675,41.76749],[-120.2767,41.76729],[-120.27639,41.76688],[-120.27555,41.76588],[-120.27543,41.76576],[-120.27485,41.76526],[-120.27364,41.76433],[-120.27342,41.76422],[-120.2729,41.76397],[-120.27272,41.76386],[-120.27259,41.76372],[-120.27247,41.76349],[-120.27239,41.76339],[-120.27212,41.7632],[-120.27182,41.76301],[-120.27139,41.7628],[-120.27113,41.7627],[-120.27096,41.76262],[-120.27075,41.76248],[-120.27039,41.76219],[-120.27004,41.76196],[-120.26982,41.76183],[-120.26957,41.76174],[-120.26928,41.76167],[-120.26912,41.76164],[-120.26829,41.76156],[-120.268,41.7615],[-120.26788,41.76146],[-120.26778,41.76141],[-120.26742,41.76117],[-120.26729,41.76111],[-120.26693,41.76099],[-120.26666,41.76093],[-120.26651,41.76088],[-120.26633,41.76078],[-120.26578,41.76041],[-120.26525,41.76011],[-120.26482,41.75991],[-120.26337,41.75915],[-120.26271,41.75883],[-120.26215,41.75852],[-120.26197,41.75838],[-120.26183,41.75822],[-120.26136,41.75738],[-120.26107,41.75709],[-120.26059,41.75666],[-120.26041,41.75636],[-120.26026,41.75617],[-120.25992,41.75588],[-120.25951,41.75561],[-120.2593,41.75541],[-120.25915,41.75519],[-120.2589,41.75462],[-120.25882,41.7545],[-120.25871,41.75439],[-120.25857,41.75431],[-120.25841,41.75425],[-120.25772,41.75415],[-120.25727,41.75405],[-120.25692,41.75393],[-120.25638,41.7537],[-120.25603,41.75352],[-120.2557,41.75331],[-120.25525,41.75298],[-120.25491,41.75263],[-120.25486,41.75254],[-120.2548,41.7523],[-120.25459,41.75195],[-120.25437,41.75166],[-120.25391,41.75118],[-120.25359,41.75073],[-120.25346,41.75049],[-120.25342,41.75017],[-120.25346,41.74981],[-120.25363,41.74915],[-120.25369,41.74897],[-120.25373,41.74875],[-120.25375,41.74843],[-120.25372,41.74831],[-120.2536,41.74809],[-120.25353,41.74789],[-120.25351,41.74751],[-120.25359,41.7469],[-120.25374,41.74662],[-120.25385,41.74585],[-120.25391,41.74573],[-120.25411,41.74554],[-120.25417,41.74545],[-120.2542,41.74536],[-120.25423,41.745],[-120.25433,41.74451],[-120.25433,41.74439],[-120.25429,41.74426],[-120.25421,41.74417],[-120.2541,41.74413],[-120.25364,41.74411],[-120.25346,41.74407],[-120.25324,41.744],[-120.25294,41.74399],[-120.25277,41.74401],[-120.2526,41.74406],[-120.252,41.74432],[-120.25187,41.74434],[-120.25174,41.74435],[-120.25159,41.74433],[-120.25134,41.74426],[-120.25123,41.74419],[-120.25113,41.74409],[-120.25083,41.7436],[-120.2507,41.74342],[-120.25063,41.74338],[-120.25056,41.74337],[-120.25032,41.74345],[-120.2501,41.74349],[-120.24998,41.7435],[-120.24961,41.74348],[-120.24944,41.74348],[-120.24928,41.74352],[-120.24814,41.7439],[-120.24708,41.74408],[-120.24683,41.74409],[-120.2467,41.74408],[-120.24605,41.74398],[-120.24595,41.74398],[-120.24585,41.744],[-120.24575,41.74406],[-120.24564,41.74419],[-120.2454,41.74482],[-120.24529,41.74499],[-120.24512,41.74516],[-120.24505,41.74525],[-120.24493,41.74552],[-120.24479,41.74592],[-120.24475,41.74616],[-120.24471,41.74623],[-120.24461,41.74627],[-120.24453,41.74626],[-120.24448,41.74621],[-120.24429,41.74573],[-120.24377,41.74503],[-120.24345,41.74452],[-120.2434,41.74442],[-120.24331,41.74429],[-120.24319,41.74417],[-120.24304,41.74408],[-120.24258,41.74392],[-120.24234,41.74381],[-120.24213,41.74366],[-120.24198,41.74348],[-120.24187,41.74328],[-120.24174,41.74279],[-120.24172,41.74242],[-120.24176,41.7421],[-120.24187,41.74177],[-120.24201,41.74157],[-120.24234,41.7413],[-120.24259,41.74096],[-120.24277,41.74074],[-120.243,41.74049],[-120.24321,41.74032],[-120.24339,41.74019],[-120.24367,41.74006],[-120.24429,41.7398],[-120.24452,41.73974],[-120.24468,41.73966],[-120.2448,41.73957],[-120.24519,41.7392],[-120.24529,41.73913],[-120.24581,41.73898],[-120.24666,41.73857],[-120.24682,41.73845],[-120.24708,41.73813],[-120.24711,41.73807],[-120.24711,41.738],[-120.24708,41.73793],[-120.24684,41.73768],[-120.24659,41.73747],[-120.2462,41.73721],[-120.24612,41.73714],[-120.24601,41.73697],[-120.24593,41.73662],[-120.24587,41.73651],[-120.24578,41.7364],[-120.24518,41.73595],[-120.24502,41.7358],[-120.24444,41.73488],[-120.24434,41.73476],[-120.24422,41.73466],[-120.24418,41.73459],[-120.24418,41.73453],[-120.24446,41.73418],[-120.24468,41.73374],[-120.2448,41.73335],[-120.24531,41.73215],[-120.24532,41.73204],[-120.24531,41.73196],[-120.24533,41.73188],[-120.24538,41.73182],[-120.24561,41.73166],[-120.24577,41.73152],[-120.24609,41.73118],[-120.24644,41.73075],[-120.24648,41.73067],[-120.2465,41.73057],[-120.24649,41.73047],[-120.24642,41.73014],[-120.2463,41.72976],[-120.24631,41.72937],[-120.24637,41.72909],[-120.24642,41.729],[-120.24664,41.72882],[-120.24695,41.72851],[-120.24707,41.72841],[-120.24723,41.72834],[-120.24758,41.72824],[-120.24773,41.72817],[-120.24784,41.72808],[-120.24797,41.72802],[-120.24815,41.72797],[-120.24856,41.72797],[-120.24865,41.72794],[-120.24875,41.72787],[-120.24884,41.72784],[-120.25127,41.72751],[-120.25144,41.7275],[-120.25164,41.7275],[-120.25205,41.72754],[-120.25351,41.72793],[-120.25384,41.72796],[-120.25416,41.72795],[-120.25452,41.72789],[-120.25516,41.72775],[-120.25569,41.72763],[-120.25601,41.72752],[-120.25631,41.72737],[-120.25645,41.72728],[-120.25663,41.72712],[-120.25693,41.72678],[-120.25718,41.72644],[-120.25772,41.72577],[-120.25798,41.72554],[-120.25902,41.72471],[-120.26039,41.72354],[-120.26111,41.72271],[-120.26266,41.72074],[-120.26308,41.72033],[-120.26318,41.72024],[-120.26343,41.72009],[-120.26357,41.72002],[-120.26376,41.71998],[-120.26401,41.71994],[-120.26427,41.71992],[-120.26453,41.71992],[-120.26479,41.71994],[-120.26535,41.72002],[-120.26666,41.72015],[-120.26691,41.72015],[-120.2672,41.72012],[-120.26747,41.72008],[-120.26779,41.71995],[-120.26794,41.71987],[-120.2682,41.71968],[-120.26831,41.71957],[-120.26876,41.7189],[-120.26904,41.71853],[-120.26928,41.7183],[-120.2694,41.71822],[-120.26967,41.71809],[-120.26981,41.71804],[-120.27014,41.71797],[-120.27039,41.71796],[-120.2706,41.71798],[-120.27335,41.71863],[-120.27348,41.71865],[-120.27374,41.71866],[-120.27407,41.71862],[-120.27433,41.71848],[-120.27442,41.71841],[-120.27461,41.71821],[-120.27469,41.71805],[-120.27495,41.71694],[-120.27495,41.71684],[-120.27491,41.71663],[-120.27434,41.71552],[-120.27403,41.71499],[-120.27378,41.71465],[-120.27361,41.71448],[-120.27342,41.71432],[-120.27321,41.71418],[-120.27221,41.71367],[-120.27203,41.71355],[-120.27179,41.71333],[-120.2717,41.71321],[-120.2716,41.71303],[-120.27124,41.7123],[-120.27114,41.71207],[-120.27096,41.7118],[-120.27084,41.71167],[-120.2707,41.71156],[-120.27042,41.71138],[-120.26941,41.71081],[-120.26919,41.71067],[-120.26905,41.71055],[-120.26881,41.71029],[-120.26799,41.70878],[-120.26775,41.70822],[-120.26768,41.70789],[-120.26765,41.7076],[-120.26777,41.70644],[-120.26773,41.70624],[-120.26752,41.70579],[-120.26692,41.7046],[-120.26676,41.70441],[-120.26612,41.70395],[-120.26593,41.7038],[-120.26579,41.70365],[-120.26567,41.7035],[-120.26483,41.7021],[-120.26474,41.70185],[-120.26472,41.70159],[-120.26475,41.70138],[-120.26483,41.70115],[-120.26497,41.70095],[-120.26526,41.70064],[-120.2659,41.70003],[-120.26709,41.69887],[-120.26729,41.69872],[-120.26766,41.69851],[-120.26788,41.69842],[-120.26999,41.69778],[-120.27105,41.6974],[-120.27154,41.6972],[-120.27183,41.69704],[-120.27216,41.69677],[-120.27244,41.69646],[-120.27277,41.69605],[-120.27359,41.69488],[-120.27363,41.69475],[-120.27369,41.69429],[-120.27368,41.69415],[-120.27347,41.69367],[-120.27335,41.69351],[-120.27305,41.6932],[-120.27165,41.69161],[-120.27074,41.69062],[-120.27055,41.69037],[-120.27042,41.69013],[-120.27026,41.68978],[-120.27018,41.68938],[-120.27016,41.68919],[-120.27018,41.68819],[-120.27019,41.6879],[-120.27017,41.687],[-120.27018,41.68691],[-120.2702,41.68655],[-120.27029,41.68626],[-120.27043,41.686],[-120.27053,41.68586],[-120.27067,41.68572],[-120.27092,41.68552],[-120.27113,41.6854],[-120.27194,41.68508],[-120.27293,41.68474],[-120.27337,41.68465],[-120.27376,41.68463],[-120.27413,41.68467],[-120.27447,41.68477],[-120.27476,41.68491],[-120.27792,41.68625],[-120.28046,41.68729],[-120.28087,41.6874],[-120.28113,41.68744],[-120.28139,41.68746],[-120.2825,41.68747],[-120.28442,41.68744],[-120.28532,41.68746],[-120.28824,41.68766],[-120.28885,41.68762],[-120.28903,41.68758],[-120.2892,41.68752],[-120.28934,41.68743],[-120.28956,41.68721],[-120.2899,41.68679],[-120.29021,41.68633],[-120.29032,41.68609],[-120.2904,41.68584],[-120.29044,41.68549],[-120.29043,41.68529],[-120.29036,41.68496],[-120.29029,41.6848],[-120.29019,41.68465],[-120.28999,41.6844],[-120.2898,41.68423],[-120.288,41.68284],[-120.28745,41.6824],[-120.28704,41.68197],[-120.2869,41.68176],[-120.28677,41.68137],[-120.28677,41.68094],[-120.28694,41.68009],[-120.28712,41.67963],[-120.28754,41.67809],[-120.28757,41.67791],[-120.28756,41.67766],[-120.28744,41.67695],[-120.28744,41.67677],[-120.28749,41.67658],[-120.28759,41.67638],[-120.28783,41.6761],[-120.28811,41.67585],[-120.28823,41.67578],[-120.28881,41.67548],[-120.28906,41.6754],[-120.28947,41.67531],[-120.28964,41.6753],[-120.29004,41.67533],[-120.29027,41.67536],[-120.29076,41.67553],[-120.29122,41.67573],[-120.292,41.67615],[-120.29236,41.67641],[-120.29291,41.67689],[-120.29325,41.67712],[-120.29391,41.6779],[-120.29437,41.67856],[-120.29613,41.68007],[-120.29763,41.68101],[-120.29791,41.6812],[-120.29822,41.68138],[-120.29866,41.68156],[-120.29904,41.68164],[-120.29962,41.68166],[-120.30085,41.68165],[-120.30159,41.68159],[-120.30198,41.68151],[-120.30234,41.6814],[-120.30321,41.68109],[-120.30559,41.68019],[-120.30619,41.67995],[-120.30654,41.67978],[-120.30671,41.67964],[-120.30693,41.67937],[-120.30702,41.67921],[-120.30726,41.6786],[-120.3079,41.67651],[-120.30804,41.67553],[-120.30815,41.67431],[-120.30826,41.67353],[-120.30826,41.67343],[-120.30821,41.67322],[-120.30811,41.67303],[-120.30806,41.67296],[-120.30759,41.67258],[-120.30735,41.67233],[-120.30729,41.67223],[-120.30727,41.67213],[-120.30728,41.67202],[-120.30746,41.67138],[-120.30764,41.67086],[-120.30767,41.6698],[-120.30764,41.66936],[-120.30757,41.66911],[-120.30745,41.66888],[-120.30724,41.66865],[-120.30691,41.66845],[-120.30589,41.66796],[-120.30545,41.66772],[-120.30526,41.66757],[-120.30508,41.66738],[-120.30491,41.66715],[-120.30476,41.66686],[-120.3045,41.66618],[-120.30423,41.66526],[-120.30395,41.66455],[-120.30382,41.6643],[-120.30358,41.66394],[-120.30234,41.66183],[-120.30225,41.66174],[-120.3015,41.66118],[-120.30136,41.66105],[-120.30093,41.66051],[-120.30066,41.66004],[-120.30054,41.65963],[-120.3005,41.65938],[-120.30048,41.65912],[-120.30049,41.65844],[-120.3004,41.65691],[-120.30036,41.65673],[-120.30029,41.65658],[-120.30011,41.65632],[-120.29999,41.6562],[-120.29885,41.65533],[-120.29618,41.65353],[-120.29472,41.65265],[-120.29422,41.6523],[-120.29353,41.65177],[-120.29328,41.65155],[-120.29319,41.65142],[-120.29305,41.65115],[-120.29297,41.65088],[-120.29289,41.65061],[-120.29279,41.65002],[-120.29275,41.64992],[-120.29227,41.6492],[-120.29216,41.64898],[-120.29164,41.64765],[-120.29162,41.64756],[-120.29163,41.64744],[-120.29169,41.64732],[-120.29179,41.64719],[-120.29201,41.64702],[-120.29243,41.64673],[-120.29254,41.64661],[-120.29271,41.6463],[-120.29277,41.64615],[-120.29284,41.64589],[-120.29288,41.64558],[-120.29288,41.64542],[-120.29285,41.64522],[-120.29276,41.64491],[-120.29248,41.6443],[-120.29243,41.64413],[-120.2924,41.64395],[-120.2924,41.64377],[-120.29255,41.64263],[-120.29253,41.64166],[-120.29262,41.64144],[-120.29272,41.64134],[-120.29285,41.64126],[-120.293,41.64123],[-120.29329,41.64121],[-120.29357,41.64115],[-120.2937,41.64111],[-120.2943,41.64082],[-120.2944,41.6408],[-120.29452,41.6408],[-120.29475,41.64084],[-120.29485,41.64089],[-120.29493,41.64095],[-120.295,41.64103],[-120.2951,41.64126],[-120.29523,41.64146],[-120.29558,41.64187],[-120.296,41.64228],[-120.29635,41.64259],[-120.29692,41.64304],[-120.29737,41.64341],[-120.29767,41.64359],[-120.2978,41.64364],[-120.29795,41.64367],[-120.2984,41.64369],[-120.2986,41.64373],[-120.29921,41.64388],[-120.29955,41.64392],[-120.30021,41.6439],[-120.30102,41.64399],[-120.30122,41.64398],[-120.30141,41.64394],[-120.30158,41.64388],[-120.30186,41.64372],[-120.30209,41.64361],[-120.30223,41.64356],[-120.30252,41.6435],[-120.30282,41.64349],[-120.30427,41.64366],[-120.30529,41.64393],[-120.30572,41.644],[-120.30597,41.64401],[-120.3061,41.644],[-120.30633,41.64395],[-120.30699,41.64372],[-120.30794,41.64345],[-120.30832,41.6434],[-120.30879,41.64341],[-120.30895,41.6434],[-120.30925,41.64334],[-120.30943,41.64327],[-120.30954,41.64322],[-120.30965,41.64313],[-120.30974,41.64303],[-120.31012,41.64228],[-120.31019,41.64208],[-120.31026,41.6416],[-120.31033,41.64142],[-120.3105,41.64117],[-120.31061,41.64105],[-120.31073,41.64095],[-120.31092,41.64082],[-120.31155,41.64052],[-120.31199,41.64028],[-120.31269,41.63985],[-120.31378,41.63911],[-120.31395,41.63897],[-120.31552,41.6376],[-120.31575,41.63744],[-120.31669,41.63704],[-120.31683,41.63694],[-120.31703,41.63676],[-120.31717,41.63655],[-120.31736,41.63601],[-120.31738,41.63588],[-120.31736,41.63563],[-120.31727,41.6354],[-120.31717,41.63524],[-120.31677,41.63486],[-120.31666,41.6347],[-120.31661,41.63459],[-120.31658,41.63445],[-120.31658,41.63424],[-120.3166,41.63413],[-120.31664,41.63403],[-120.31672,41.63395],[-120.31681,41.63388],[-120.31692,41.63382],[-120.31704,41.63379],[-120.31738,41.63377],[-120.31786,41.63368],[-120.31797,41.63363],[-120.31806,41.63356],[-120.31811,41.63347],[-120.31812,41.63339],[-120.31808,41.63319],[-120.31786,41.63247],[-120.3177,41.63226],[-120.31747,41.63203],[-120.31737,41.63186],[-120.31733,41.63176],[-120.31733,41.63159],[-120.31741,41.63144],[-120.31761,41.63123],[-120.31834,41.63082],[-120.31856,41.63072],[-120.31907,41.63057],[-120.31946,41.63041],[-120.31962,41.63033],[-120.31982,41.63019],[-120.31992,41.63007],[-120.31997,41.62995],[-120.32,41.62983],[-120.31999,41.62969],[-120.31981,41.6285],[-120.31975,41.62834],[-120.31965,41.62819],[-120.31951,41.62806],[-120.31903,41.62772],[-120.31816,41.62703],[-120.31797,41.6269],[-120.31766,41.62674],[-120.31749,41.62669],[-120.3172,41.62663],[-120.31603,41.62646],[-120.31533,41.62638],[-120.31449,41.6263],[-120.31431,41.6263],[-120.31396,41.62634],[-120.31371,41.62641],[-120.31229,41.627],[-120.31215,41.62702],[-120.31201,41.62703],[-120.31187,41.62701],[-120.31174,41.62698],[-120.31162,41.62692],[-120.31155,41.62685],[-120.3115,41.62671],[-120.31146,41.62638],[-120.3115,41.6258],[-120.31145,41.62561],[-120.31141,41.62552],[-120.3113,41.62535],[-120.31122,41.62527],[-120.31084,41.62499],[-120.31039,41.62461],[-120.31034,41.62453],[-120.31033,41.62444],[-120.31036,41.62436],[-120.31092,41.62335],[-120.31096,41.62315],[-120.31093,41.62284],[-120.31102,41.62251],[-120.31103,41.62234],[-120.31099,41.62217],[-120.31091,41.62201],[-120.31078,41.62184],[-120.31044,41.62143],[-120.3095,41.62039],[-120.30945,41.6203],[-120.30943,41.62021],[-120.30944,41.62011],[-120.30948,41.62001],[-120.30985,41.61965],[-120.31016,41.61928],[-120.31023,41.61917],[-120.31032,41.61892],[-120.31037,41.61835],[-120.31044,41.61815],[-120.3105,41.61805],[-120.31067,41.61787],[-120.31087,41.6177],[-120.31109,41.61748],[-120.31135,41.61713],[-120.31151,41.61686],[-120.31161,41.61677],[-120.31172,41.6167],[-120.3123,41.61643],[-120.31308,41.61596],[-120.31329,41.61591],[-120.31347,41.61591],[-120.31366,41.61593],[-120.31387,41.61598],[-120.31417,41.61602],[-120.31445,41.61601],[-120.31502,41.61592],[-120.31519,41.61591],[-120.31535,41.61593],[-120.31548,41.61599],[-120.31585,41.61622],[-120.31629,41.61644],[-120.31644,41.61648],[-120.31673,41.61648],[-120.31691,41.61644],[-120.31709,41.61637],[-120.31792,41.61589],[-120.31883,41.6155],[-120.3195,41.61524],[-120.31973,41.6152],[-120.31989,41.61514],[-120.32004,41.61505],[-120.32016,41.61494],[-120.32024,41.61481],[-120.32032,41.61461],[-120.32045,41.61442],[-120.3206,41.61429],[-120.32074,41.61424],[-120.32085,41.61422],[-120.32114,41.61422],[-120.32204,41.61439],[-120.32225,41.61442],[-120.32422,41.61443],[-120.32505,41.61442],[-120.32546,41.61437],[-120.32565,41.61432],[-120.32601,41.61418],[-120.32714,41.61352],[-120.32757,41.61325],[-120.328,41.61294],[-120.32916,41.61219],[-120.32979,41.61186],[-120.3305,41.61144],[-120.33074,41.61132],[-120.33094,41.61124],[-120.33149,41.61109],[-120.33184,41.61104],[-120.33219,41.61101],[-120.33254,41.61101],[-120.33286,41.61103],[-120.33384,41.61104],[-120.33573,41.61109],[-120.3377,41.61118],[-120.33786,41.61117],[-120.33849,41.61111],[-120.33969,41.61089],[-120.34189,41.61043],[-120.34287,41.6102],[-120.34343,41.61009],[-120.34386,41.61003],[-120.34498,41.60978],[-120.34543,41.60972],[-120.34577,41.60969],[-120.34602,41.60965],[-120.34704,41.6094],[-120.34745,41.60936],[-120.34771,41.60936],[-120.34797,41.60938],[-120.34823,41.60942],[-120.34923,41.60965],[-120.35047,41.61007],[-120.3512,41.61033],[-120.35203,41.61059],[-120.3526,41.61079],[-120.35312,41.61102],[-120.3534,41.61117],[-120.35367,41.61135],[-120.35398,41.6116],[-120.3546,41.61224],[-120.35517,41.61288],[-120.35571,41.61342],[-120.35606,41.61366],[-120.35623,41.61374],[-120.35717,41.61412],[-120.35871,41.61467],[-120.3598,41.61503],[-120.36024,41.61512],[-120.36219,41.61519],[-120.36464,41.61521],[-120.36819,41.61525],[-120.37044,41.61524],[-120.37204,41.61519],[-120.37441,41.61508],[-120.37797,41.61493],[-120.3795,41.61485],[-120.3858,41.61461],[-120.38891,41.61445],[-120.3895,41.61443],[-120.38993,41.61444],[-120.39042,41.61448],[-120.39248,41.61485],[-120.39284,41.61491],[-120.39858,41.6161],[-120.4004,41.61645],[-120.4025,41.61691],[-120.40367,41.61709],[-120.40409,41.61713],[-120.40474,41.61724],[-120.405,41.61726],[-120.40563,41.61735],[-120.4067,41.61742],[-120.40719,41.61741],[-120.4085,41.61735],[-120.40921,41.61735],[-120.41007,41.6173],[-120.41117,41.61723],[-120.41172,41.61722],[-120.4132,41.61737]]}},{"type":"Feature","properties":{"name":"(unnamed public road)","road_class":"track","surface":"gravel","tracktype":"grade3","source":"Caltrans All Roads + OpenStreetMap explicit surface","source_detail":"osm way 7913878; Caltrans All Roads public-network geometry match","source_tile":"169/381","public_network_source":"Caltrans All Roads (ARNOLD/HPMS)","surface_source":"OpenStreetMap explicit surface tag","caltrans_match_coverage":1.0,"verified_length_m":5052},"geometry":{"type":"LineString","coordinates":[[-120.24809,41.5909],[-120.2481,41.59078],[-120.24809,41.59069],[-120.24804,41.59059],[-120.248,41.59053],[-120.24798,41.59043],[-120.24799,41.59037],[-120.24802,41.59031],[-120.24807,41.59024],[-120.24813,41.59011],[-120.24815,41.58987],[-120.24816,41.58967],[-120.2482,41.58948],[-120.24825,41.5894],[-120.24855,41.58916],[-120.24864,41.58913],[-120.24873,41.58913],[-120.24899,41.58915],[-120.24917,41.58915],[-120.24934,41.58914],[-120.24949,41.58911],[-120.2496,41.58908],[-120.24981,41.589],[-120.24991,41.58895],[-120.25,41.58888],[-120.25022,41.58865],[-120.25057,41.58822],[-120.25081,41.58791],[-120.2509,41.58785],[-120.25101,41.58781],[-120.25148,41.58777],[-120.25158,41.58777],[-120.2517,41.58774],[-120.25181,41.5877],[-120.2519,41.58764],[-120.25198,41.58757],[-120.25215,41.58732],[-120.2522,41.58719],[-120.25222,41.58669],[-120.25225,41.58646],[-120.25236,41.58624],[-120.25236,41.58617],[-120.25235,41.58609],[-120.25231,41.58602],[-120.25224,41.58596],[-120.25208,41.58589],[-120.25193,41.58584],[-120.25184,41.58578],[-120.2517,41.58565],[-120.25153,41.58553],[-120.25127,41.5854],[-120.25115,41.58536],[-120.25092,41.5853],[-120.25046,41.58522],[-120.25023,41.58517],[-120.24991,41.58505],[-120.2498,41.58498],[-120.2497,41.58489],[-120.24959,41.58473],[-120.2495,41.58465],[-120.24922,41.58445],[-120.24908,41.58438],[-120.24892,41.58434],[-120.24833,41.58425],[-120.24819,41.58421],[-120.24808,41.58415],[-120.24801,41.58411],[-120.24792,41.58402],[-120.24787,41.5839],[-120.24782,41.58376],[-120.24775,41.58367],[-120.2477,41.58362],[-120.24753,41.5835],[-120.24734,41.5834],[-120.24704,41.58326],[-120.24697,41.5832],[-120.24692,41.58312],[-120.24691,41.58304],[-120.24692,41.58299],[-120.2471,41.58268],[-120.24734,41.5823],[-120.24738,41.58219],[-120.24738,41.58207],[-120.24729,41.58176],[-120.24716,41.58155],[-120.2471,41.5814],[-120.24707,41.58126],[-120.24708,41.58116],[-120.24718,41.58082],[-120.24723,41.58053],[-120.24725,41.58045],[-120.24734,41.5803],[-120.24737,41.58022],[-120.24741,41.58005],[-120.24741,41.57997],[-120.24739,41.57988],[-120.24737,41.57978],[-120.24723,41.57961],[-120.247,41.57942],[-120.2468,41.57921],[-120.2467,41.57916],[-120.24656,41.57913],[-120.24647,41.57908],[-120.24643,41.57904],[-120.24641,41.57897],[-120.24642,41.5789],[-120.24645,41.57886],[-120.24648,41.5788],[-120.24659,41.5782],[-120.24661,41.5781],[-120.2466,41.578],[-120.2466,41.57798],[-120.24653,41.57787],[-120.24649,41.57783],[-120.24636,41.57776],[-120.24571,41.5776],[-120.24558,41.57754],[-120.24548,41.57746],[-120.24525,41.57719],[-120.24509,41.57703],[-120.24493,41.57677],[-120.24484,41.57667],[-120.24472,41.57651],[-120.24463,41.57636],[-120.24449,41.57609],[-120.24441,41.57597],[-120.2442,41.57578],[-120.24414,41.5757],[-120.24411,41.57561],[-120.24411,41.5755],[-120.24415,41.57529],[-120.24413,41.5752],[-120.24412,41.57517],[-120.24411,41.57515],[-120.2439,41.57487],[-120.24356,41.57435],[-120.24324,41.57397],[-120.24316,41.57384],[-120.24299,41.57347],[-120.24298,41.57343],[-120.24296,41.57337],[-120.24292,41.57334],[-120.24279,41.5733],[-120.24261,41.57318],[-120.24248,41.57307],[-120.24221,41.57279],[-120.24208,41.5727],[-120.24143,41.57237],[-120.24113,41.57221],[-120.24051,41.57179],[-120.24046,41.57175],[-120.24037,41.57165],[-120.24031,41.57153],[-120.24025,41.57132],[-120.24011,41.57096],[-120.24007,41.57073],[-120.24007,41.57056],[-120.24009,41.57039],[-120.24014,41.5702],[-120.24024,41.56997],[-120.24027,41.56992],[-120.24038,41.56978],[-120.24083,41.56927],[-120.24132,41.56878],[-120.24149,41.56863],[-120.24158,41.56857],[-120.24204,41.56835],[-120.24268,41.56803],[-120.2434,41.56766],[-120.24358,41.56758],[-120.24361,41.56756],[-120.24377,41.56747],[-120.24393,41.56734],[-120.24398,41.56725],[-120.24402,41.56717],[-120.24403,41.5671],[-120.24405,41.56669],[-120.24408,41.56647],[-120.24426,41.56599],[-120.24428,41.56585],[-120.24424,41.56521],[-120.24421,41.56499],[-120.24418,41.56489],[-120.24408,41.56468],[-120.24399,41.56456],[-120.24359,41.56411],[-120.24301,41.56351],[-120.243,41.56348],[-120.243,41.56343],[-120.24302,41.56335],[-120.24308,41.5633],[-120.24324,41.56321],[-120.24336,41.56318],[-120.24343,41.56318],[-120.24353,41.56319],[-120.24463,41.56353],[-120.24506,41.5636],[-120.24571,41.56368],[-120.24621,41.56371],[-120.24698,41.56374],[-120.24743,41.56371],[-120.24758,41.56369],[-120.24774,41.56365],[-120.24788,41.5636],[-120.24804,41.56353],[-120.24818,41.5635],[-120.2483,41.56347],[-120.24882,41.5635],[-120.2492,41.56352],[-120.24979,41.56358],[-120.25009,41.56362],[-120.25075,41.56366],[-120.25112,41.56365],[-120.25128,41.56366],[-120.25144,41.56369],[-120.25159,41.56374],[-120.25173,41.56383],[-120.25181,41.56387],[-120.25201,41.56395],[-120.25212,41.56398],[-120.25234,41.564],[-120.2524,41.564],[-120.25245,41.564],[-120.25261,41.56399],[-120.25279,41.56393],[-120.25287,41.56392],[-120.25304,41.56387],[-120.2532,41.56379],[-120.25333,41.56369],[-120.25365,41.56338],[-120.25375,41.56331],[-120.25398,41.56319],[-120.25417,41.56313],[-120.2543,41.5631],[-120.25466,41.56307],[-120.25487,41.56303],[-120.25494,41.56294],[-120.25499,41.56286],[-120.25509,41.5627]]}},{"type":"Feature","properties":{"name":"Pencil Road","road_class":"unclassified","surface":"unpaved","source":"Caltrans All Roads + OpenStreetMap explicit surface","source_detail":"osm way 7924684; Caltrans All Roads public-network geometry match","source_tile":"169/381","public_network_source":"Caltrans All Roads (ARNOLD/HPMS)","surface_source":"OpenStreetMap explicit surface tag","caltrans_match_coverage":1.0,"verified_length_m":1234},"geometry":{"type":"LineString","coordinates":[[-120.53513,41.56161],[-120.53499,41.56156],[-120.53483,41.56149],[-120.53473,41.56141],[-120.53469,41.56136],[-120.53466,41.56126],[-120.53465,41.56119],[-120.53471,41.56025],[-120.5348,41.55943],[-120.53483,41.55859],[-120.53484,41.55825],[-120.53486,41.55571],[-120.53486,41.55423],[-120.53485,41.55379],[-120.53485,41.55162],[-120.53482,41.55063]]}},{"type":"Feature","properties":{"name":"Dry Creek Basin Road","road_class":"unclassified","surface":"fine_gravel","source":"Caltrans All Roads + OpenStreetMap explicit surface","source_detail":"osm way 7924950; Caltrans All Roads public-network geometry match","source_tile":"169/381","public_network_source":"Caltrans All Roads (ARNOLD/HPMS)","surface_source":"OpenStreetMap explicit surface tag","caltrans_match_coverage":1.0,"verified_length_m":4497},"geometry":{"type":"LineString","coordinates":[[-120.39238,41.5238],[-120.39192,41.52325],[-120.39182,41.52314],[-120.3917,41.52299],[-120.39161,41.52284],[-120.39136,41.52237],[-120.39124,41.52224],[-120.39113,41.52214],[-120.39103,41.52208],[-120.39091,41.52201],[-120.3908,41.52196],[-120.39058,41.5219],[-120.38979,41.52176],[-120.38961,41.5217],[-120.38949,41.52166],[-120.38937,41.52159],[-120.38928,41.5215],[-120.38884,41.52103],[-120.38877,41.52097],[-120.38868,41.52091],[-120.38855,41.52085],[-120.38833,41.52076],[-120.38811,41.5207],[-120.388,41.52068],[-120.3877,41.52066],[-120.38747,41.52069],[-120.38726,41.52069],[-120.38708,41.52066],[-120.38692,41.52059],[-120.38677,41.52042],[-120.38654,41.51999],[-120.38638,41.51956],[-120.38628,41.51937],[-120.38608,41.51911],[-120.38594,41.51898],[-120.38575,41.51882],[-120.38345,41.51714],[-120.38326,41.51704],[-120.38278,41.51683],[-120.38179,41.51628],[-120.38055,41.51578],[-120.38042,41.51571],[-120.38017,41.51555],[-120.37994,41.51536],[-120.37983,41.51524],[-120.37969,41.51508],[-120.37958,41.515],[-120.37951,41.51497],[-120.37938,41.51495],[-120.3788,41.51494],[-120.37674,41.51494],[-120.37549,41.51496],[-120.37454,41.51497],[-120.37384,41.51497],[-120.37303,41.51498],[-120.37166,41.51497],[-120.3702,41.51496],[-120.37002,41.51496],[-120.36992,41.51496],[-120.36989,41.51502],[-120.36987,41.5151],[-120.36984,41.5153],[-120.36982,41.51644],[-120.36981,41.51672],[-120.36984,41.51696],[-120.36984,41.51742],[-120.36985,41.51834],[-120.36982,41.5185],[-120.36981,41.51856],[-120.36978,41.51861],[-120.36969,41.51864],[-120.36926,41.51865],[-120.36872,41.51866],[-120.36575,41.51861],[-120.36374,41.51862],[-120.36092,41.51861],[-120.3604,41.51862],[-120.35993,41.51868],[-120.3597,41.51869],[-120.35908,41.51865],[-120.35864,41.51867],[-120.35825,41.51868],[-120.35795,41.5187],[-120.3576,41.5187],[-120.35726,41.51869],[-120.35646,41.51865],[-120.35538,41.51867],[-120.35508,41.51867],[-120.35499,41.51864],[-120.35492,41.51856],[-120.3547,41.51835],[-120.35455,41.51828],[-120.35443,41.51823],[-120.35392,41.51814],[-120.3532,41.51799],[-120.35243,41.51799],[-120.35179,41.51784],[-120.35131,41.51779],[-120.35105,41.5178],[-120.35091,41.51782],[-120.35073,41.51786],[-120.35041,41.51796],[-120.35016,41.51804],[-120.34998,41.51806],[-120.34985,41.51804],[-120.34969,41.51806],[-120.34958,41.51804],[-120.34953,41.51799],[-120.3495,41.51794],[-120.34954,41.5179],[-120.34961,41.51789],[-120.34972,41.51792],[-120.3498,41.51798],[-120.34985,41.51804]]}},{"type":"Feature","properties":{"name":"County Road 11","road_class":"unclassified","surface":"unpaved","source":"Caltrans All Roads + OpenStreetMap explicit surface","source_detail":"osm way 7926797; Caltrans All Roads public-network geometry match","source_tile":"169/381","public_network_source":"Caltrans All Roads (ARNOLD/HPMS)","surface_source":"OpenStreetMap explicit surface tag","caltrans_match_coverage":1.0,"verified_length_m":1534},"geometry":{"type":"LineString","coordinates":[[-120.35975,41.73329],[-120.35891,41.73337],[-120.35866,41.73341],[-120.35823,41.73344],[-120.35672,41.73345],[-120.35661,41.73344],[-120.35637,41.73339],[-120.35603,41.73327],[-120.35565,41.73309],[-120.35522,41.73284],[-120.35501,41.73275],[-120.35462,41.7326],[-120.35452,41.73255],[-120.35402,41.73218],[-120.35394,41.73213],[-120.35349,41.73198],[-120.35327,41.73187],[-120.35318,41.73181],[-120.35309,41.73172],[-120.35304,41.73163],[-120.35289,41.73092],[-120.35295,41.72989],[-120.35292,41.7297],[-120.35284,41.72944],[-120.35274,41.7293],[-120.3526,41.72917],[-120.35222,41.72894],[-120.35184,41.72875],[-120.35161,41.72869],[-120.35149,41.72867],[-120.35124,41.72866],[-120.35095,41.7287],[-120.35081,41.72875],[-120.3506,41.72879],[-120.35009,41.72884],[-120.34992,41.72883],[-120.34976,41.7288],[-120.34961,41.72874],[-120.34924,41.72857],[-120.34882,41.72835],[-120.34867,41.72824],[-120.34853,41.72817],[-120.34809,41.72804],[-120.34753,41.7279],[-120.34714,41.72784],[-120.34676,41.72781],[-120.34637,41.72781],[-120.34562,41.72788]]}},{"type":"Feature","properties":{"name":"County Road 11","road_class":"unclassified","surface":"unpaved","source":"Caltrans All Roads + OpenStreetMap explicit surface","source_detail":"osm way 7926824; Caltrans All Roads public-network geometry match","source_tile":"169/381","public_network_source":"Caltrans All Roads (ARNOLD/HPMS)","surface_source":"OpenStreetMap explicit surface tag","caltrans_match_coverage":1.0,"verified_length_m":11982},"geometry":{"type":"LineString","coordinates":[[-120.3409,41.72144],[-120.34038,41.72098],[-120.34021,41.72082],[-120.34004,41.72058],[-120.33996,41.72043],[-120.3398,41.71972],[-120.33954,41.7188],[-120.3395,41.71871],[-120.33943,41.71863],[-120.33934,41.71856],[-120.33919,41.7185],[-120.33893,41.71846],[-120.33881,41.71848],[-120.3387,41.71851],[-120.33855,41.71859],[-120.33843,41.71869],[-120.33807,41.71916],[-120.33771,41.71957],[-120.33705,41.72041],[-120.33664,41.72081],[-120.33629,41.72108],[-120.33568,41.72143],[-120.33551,41.72154],[-120.3353,41.72169],[-120.33503,41.72182],[-120.33447,41.72221],[-120.33425,41.72233],[-120.33386,41.72249],[-120.33354,41.72254],[-120.33332,41.72253],[-120.33298,41.72247],[-120.3326,41.72232],[-120.33221,41.72221],[-120.33192,41.72217],[-120.3316,41.72215],[-120.33115,41.72206],[-120.33101,41.72201],[-120.33066,41.72184],[-120.33039,41.72167],[-120.33002,41.72137],[-120.32987,41.72132],[-120.32973,41.72132],[-120.32958,41.72136],[-120.32952,41.72139],[-120.32945,41.72145],[-120.32936,41.72163],[-120.32935,41.72172],[-120.3294,41.72242],[-120.32939,41.72253],[-120.32934,41.72263],[-120.32927,41.72271],[-120.32916,41.72279],[-120.32883,41.72299],[-120.32823,41.7233],[-120.32813,41.72337],[-120.32803,41.72349],[-120.32796,41.72362],[-120.32795,41.72375],[-120.32797,41.72382],[-120.32835,41.72421],[-120.32856,41.72437],[-120.32866,41.72448],[-120.32883,41.72472],[-120.32891,41.72495],[-120.32896,41.72513],[-120.32894,41.7252],[-120.32887,41.72526],[-120.32878,41.72529],[-120.32868,41.7253],[-120.32858,41.72529],[-120.3285,41.72525],[-120.32843,41.7252],[-120.32823,41.72482],[-120.32816,41.72475],[-120.32806,41.7247],[-120.32794,41.72467],[-120.32694,41.72452],[-120.32664,41.72445],[-120.32643,41.72442],[-120.32632,41.72442],[-120.32619,41.72444],[-120.3252,41.72469],[-120.32498,41.72473],[-120.32335,41.72486],[-120.32271,41.72496],[-120.32248,41.72502],[-120.32167,41.72528],[-120.32106,41.7254],[-120.32001,41.72565],[-120.31977,41.72569],[-120.31856,41.72575],[-120.31828,41.72577],[-120.31766,41.72588],[-120.3174,41.72589],[-120.31639,41.72569],[-120.31611,41.72565],[-120.31586,41.72556],[-120.31573,41.72549],[-120.31571,41.72533],[-120.31576,41.72521],[-120.3158,41.72515],[-120.31591,41.72506],[-120.31608,41.72496],[-120.31637,41.72488],[-120.31658,41.72476],[-120.31668,41.72467],[-120.31686,41.72445],[-120.31707,41.72405],[-120.3171,41.72392],[-120.31704,41.72337],[-120.31704,41.72275],[-120.31702,41.72262],[-120.31692,41.72236],[-120.31673,41.72204],[-120.31671,41.72198],[-120.31672,41.72191],[-120.31676,41.72185],[-120.31698,41.72165],[-120.3171,41.7216],[-120.3172,41.72152],[-120.31728,41.72143],[-120.31764,41.7206],[-120.31785,41.72022],[-120.31797,41.71982],[-120.31798,41.71953],[-120.31794,41.71929],[-120.31767,41.71854],[-120.31727,41.71752],[-120.31714,41.71702],[-120.31704,41.71682],[-120.31689,41.71664],[-120.31678,41.71655],[-120.31577,41.716],[-120.31546,41.71587],[-120.31539,41.71582],[-120.31535,41.71575],[-120.31534,41.71566],[-120.31538,41.71555],[-120.3155,41.71548],[-120.31621,41.71512],[-120.31653,41.71489],[-120.31668,41.71473],[-120.31679,41.71456],[-120.31682,41.71446],[-120.31689,41.71436],[-120.317,41.71428],[-120.31798,41.71386],[-120.31813,41.71377],[-120.31839,41.71358],[-120.3185,41.71346],[-120.31861,41.71332],[-120.31886,41.71276],[-120.319,41.71237],[-120.31937,41.71167],[-120.32006,41.71048],[-120.32025,41.71001],[-120.32025,41.70992],[-120.32021,41.70983],[-120.32015,41.70977],[-120.31965,41.70943],[-120.31942,41.70931],[-120.31918,41.70921],[-120.31893,41.70913],[-120.31863,41.70905],[-120.3174,41.70885],[-120.31686,41.70873],[-120.31605,41.70849],[-120.3154,41.70825],[-120.31429,41.70774],[-120.31396,41.70757],[-120.31344,41.70736],[-120.31318,41.70729],[-120.31236,41.70716],[-120.31216,41.7071],[-120.31163,41.70686],[-120.31092,41.70659],[-120.31051,41.70647],[-120.30967,41.70626],[-120.30922,41.70618],[-120.3087,41.70611],[-120.30738,41.70603],[-120.30644,41.706],[-120.30573,41.70575],[-120.3028,41.70481],[-120.30225,41.70468],[-120.30098,41.7045],[-120.30002,41.70432],[-120.29979,41.70426],[-120.29968,41.70421],[-120.29915,41.7039],[-120.29863,41.70367],[-120.29812,41.70351],[-120.29708,41.7032],[-120.2967,41.70311],[-120.2963,41.70305],[-120.2959,41.70302],[-120.29556,41.70302],[-120.29495,41.70304],[-120.29343,41.70314],[-120.29171,41.70341],[-120.29151,41.70344],[-120.29121,41.70343],[-120.29107,41.7034],[-120.29033,41.70323],[-120.28973,41.703],[-120.28956,41.7029],[-120.28906,41.70255],[-120.28834,41.70215],[-120.28799,41.70198],[-120.28757,41.70179],[-120.28622,41.70126],[-120.28578,41.70103],[-120.28502,41.70055],[-120.28352,41.69943],[-120.28334,41.69928],[-120.28337,41.69897],[-120.28341,41.69876],[-120.28363,41.69818],[-120.284,41.69729],[-120.28416,41.69702],[-120.28457,41.69648],[-120.28466,41.69634],[-120.2849,41.69566],[-120.28526,41.69494],[-120.28532,41.69472],[-120.2854,41.6942],[-120.28547,41.69413],[-120.28553,41.69409],[-120.28569,41.69406],[-120.28601,41.69403],[-120.28662,41.69401],[-120.28685,41.69399],[-120.28707,41.69395],[-120.2881,41.69367],[-120.28858,41.69355],[-120.28902,41.6934],[-120.28969,41.6931],[-120.28996,41.69301],[-120.29024,41.69294],[-120.29122,41.69279],[-120.29141,41.69278],[-120.29179,41.69279],[-120.29198,41.69282],[-120.29227,41.6929],[-120.29273,41.69294],[-120.29319,41.69288],[-120.29341,41.69283],[-120.29367,41.69273],[-120.29426,41.69237],[-120.29466,41.69207],[-120.295,41.69167],[-120.29525,41.69131],[-120.29548,41.69089],[-120.29558,41.69065],[-120.29564,41.69046],[-120.29567,41.69026],[-120.29566,41.69002],[-120.29556,41.68926],[-120.29527,41.68829],[-120.29518,41.68809],[-120.29512,41.68789],[-120.29509,41.68767],[-120.29509,41.68744],[-120.29516,41.68694],[-120.29531,41.6864],[-120.29546,41.686],[-120.29551,41.6858],[-120.29555,41.68554],[-120.29555,41.68527],[-120.2955,41.68497],[-120.29528,41.68424],[-120.29451,41.68292],[-120.29411,41.68238],[-120.29384,41.68193],[-120.29366,41.68174],[-120.29329,41.6814],[-120.293,41.68119],[-120.29263,41.68097],[-120.29211,41.68074],[-120.29168,41.68048],[-120.29131,41.68028],[-120.2911,41.68019],[-120.29091,41.68008],[-120.29074,41.67997],[-120.29045,41.6797],[-120.28934,41.67829],[-120.28922,41.67809],[-120.28847,41.67624],[-120.28823,41.67578]]}},{"type":"Feature","properties":{"name":"Franklin Canyon Road","road_class":"track","surface":"unpaved","tracktype":"grade2","source":"Caltrans All Roads + OpenStreetMap explicit surface","source_detail":"osm way 7930294; Caltrans All Roads public-network geometry match","source_tile":"169/381","public_network_source":"Caltrans All Roads (ARNOLD/HPMS)","surface_source":"OpenStreetMap explicit surface tag","caltrans_match_coverage":1.0,"verified_length_m":5903},"geometry":{"type":"LineString","coordinates":[[-120.37493,41.6717],[-120.37455,41.67173],[-120.37106,41.67172],[-120.36981,41.67171],[-120.36852,41.67172],[-120.36457,41.67169],[-120.36402,41.67169],[-120.36345,41.6717],[-120.36231,41.67168],[-120.36174,41.67168],[-120.36116,41.67174],[-120.36045,41.67175],[-120.35872,41.67177],[-120.35798,41.67175],[-120.35739,41.67172],[-120.35604,41.67175],[-120.35585,41.67172],[-120.35567,41.67167],[-120.35536,41.67153],[-120.35525,41.67151],[-120.35473,41.67152],[-120.3546,41.67151],[-120.35439,41.67144],[-120.35339,41.67112],[-120.35326,41.67106],[-120.35315,41.67098],[-120.35312,41.67094],[-120.35305,41.67081],[-120.35302,41.67069],[-120.35304,41.67047],[-120.35303,41.67043],[-120.35303,41.67041],[-120.35301,41.67035],[-120.35294,41.67027],[-120.35258,41.66998],[-120.35245,41.6699],[-120.35231,41.66985],[-120.35168,41.6697],[-120.35143,41.66962],[-120.35114,41.66949],[-120.35074,41.66928],[-120.35026,41.66907],[-120.35015,41.66903],[-120.35001,41.669],[-120.34916,41.66888],[-120.34855,41.66888],[-120.34837,41.66887],[-120.34781,41.66877],[-120.34779,41.66875],[-120.34744,41.66864],[-120.34701,41.66853],[-120.34674,41.66847],[-120.34632,41.66841],[-120.34605,41.66835],[-120.34577,41.66831],[-120.34555,41.66829],[-120.34502,41.66826],[-120.34465,41.66824],[-120.34458,41.66824],[-120.34443,41.66821],[-120.34419,41.66818],[-120.34404,41.66818],[-120.34366,41.66813],[-120.34355,41.66812],[-120.34318,41.66808],[-120.34304,41.66805],[-120.34294,41.66801],[-120.34284,41.66795],[-120.34268,41.6679],[-120.34246,41.66785],[-120.34227,41.66785],[-120.34209,41.66787],[-120.34152,41.66802],[-120.34143,41.66802],[-120.34139,41.66801],[-120.3413,41.66794],[-120.34101,41.66782],[-120.34083,41.66776],[-120.34064,41.66771],[-120.34041,41.66768],[-120.33988,41.66757],[-120.33955,41.66751],[-120.33913,41.66749],[-120.33895,41.66745],[-120.33849,41.66729],[-120.33824,41.66717],[-120.33808,41.66707],[-120.33747,41.66685],[-120.33718,41.66673],[-120.33706,41.66671],[-120.33694,41.66672],[-120.33683,41.66675],[-120.33674,41.6668],[-120.33661,41.66689],[-120.33654,41.66691],[-120.33636,41.66693],[-120.33618,41.66696],[-120.33606,41.66696],[-120.33595,41.66695],[-120.33575,41.66691],[-120.33549,41.66684],[-120.3351,41.66673],[-120.33484,41.66669],[-120.33451,41.66666],[-120.33438,41.66662],[-120.33411,41.66647],[-120.33402,41.66643],[-120.3339,41.6664],[-120.33374,41.66632],[-120.33366,41.66626],[-120.33358,41.66619],[-120.33342,41.66599],[-120.33322,41.6658],[-120.33306,41.66547],[-120.3329,41.66511],[-120.33289,41.66495],[-120.33286,41.66488],[-120.33274,41.66467],[-120.33261,41.66453],[-120.3325,41.66444],[-120.33239,41.66436],[-120.33201,41.66417],[-120.33168,41.66404],[-120.33131,41.66392],[-120.33112,41.66388],[-120.33102,41.66387],[-120.33085,41.66388],[-120.33074,41.66393],[-120.33064,41.66402],[-120.33046,41.66409],[-120.33035,41.66412],[-120.33017,41.66414],[-120.33003,41.66413],[-120.32989,41.66408],[-120.32981,41.66403],[-120.32974,41.66396],[-120.32972,41.66389],[-120.32977,41.66376],[-120.32978,41.66362],[-120.32975,41.66355],[-120.32948,41.66333],[-120.32918,41.66301],[-120.3291,41.66291],[-120.32894,41.66277],[-120.32879,41.66262],[-120.32873,41.6626],[-120.32863,41.66258],[-120.32856,41.66256],[-120.32851,41.66251],[-120.32815,41.66205],[-120.32805,41.66193],[-120.328,41.66188],[-120.32792,41.66183],[-120.32768,41.66173],[-120.32711,41.6615],[-120.32681,41.66135],[-120.32627,41.66103],[-120.32574,41.6607],[-120.32555,41.6606],[-120.32548,41.66058],[-120.32533,41.66055],[-120.32524,41.66055],[-120.32481,41.66055],[-120.32462,41.66056],[-120.3245,41.66055],[-120.32438,41.66053],[-120.32424,41.66049],[-120.32403,41.66047],[-120.32385,41.66047],[-120.32373,41.66049],[-120.32359,41.66048],[-120.32345,41.66045],[-120.32332,41.6604],[-120.3232,41.66034],[-120.32274,41.66003],[-120.32227,41.65965],[-120.32207,41.65949],[-120.32197,41.65944],[-120.32186,41.65941],[-120.32176,41.6594],[-120.32168,41.65937],[-120.32162,41.65931],[-120.32152,41.65918],[-120.32146,41.65902],[-120.32135,41.65889],[-120.32104,41.65857],[-120.32091,41.65842],[-120.32087,41.65833],[-120.32087,41.6583],[-120.32092,41.65826],[-120.32102,41.65822],[-120.3211,41.65815],[-120.32115,41.65807],[-120.32116,41.65798],[-120.32113,41.65781],[-120.32107,41.65764],[-120.32103,41.65759],[-120.321,41.65753],[-120.32092,41.65743],[-120.32082,41.65733],[-120.32071,41.65724],[-120.32059,41.65716],[-120.32046,41.65708],[-120.32032,41.65702],[-120.31993,41.65689],[-120.31972,41.65674],[-120.31972,41.6564],[-120.31976,41.65631],[-120.31986,41.65622],[-120.32,41.65606],[-120.32016,41.65596],[-120.32028,41.65588],[-120.32039,41.65579],[-120.3205,41.65566],[-120.32064,41.65546],[-120.32069,41.6553],[-120.32071,41.65505],[-120.32067,41.65492],[-120.32055,41.6547],[-120.32045,41.65452],[-120.32039,41.65438],[-120.32037,41.65425],[-120.32037,41.65418],[-120.32039,41.65412],[-120.32055,41.65382],[-120.3206,41.65361],[-120.32063,41.65356],[-120.32072,41.65343],[-120.32086,41.65335],[-120.3209,41.65329],[-120.32098,41.65319],[-120.32098,41.65309],[-120.3209,41.653],[-120.32054,41.65297]]}},{"type":"Feature","properties":{"name":"Plum Valley Road","road_class":"unclassified","surface":"unpaved","source":"Caltrans All Roads + OpenStreetMap explicit surface","source_detail":"osm way 7932147; Caltrans All Roads public-network geometry match","source_tile":"169/381","public_network_source":"Caltrans All Roads (ARNOLD/HPMS)","surface_source":"OpenStreetMap explicit surface tag","caltrans_match_coverage":1.0,"verified_length_m":844},"geometry":{"type":"LineString","coordinates":[[-120.34562,41.72788],[-120.34543,41.72784],[-120.34528,41.72778],[-120.34513,41.72769],[-120.34502,41.72758],[-120.34476,41.72708],[-120.34471,41.72701],[-120.34468,41.72691],[-120.34471,41.72656],[-120.34476,41.72629],[-120.34474,41.72616],[-120.34468,41.72599],[-120.34451,41.72574],[-120.34431,41.72549],[-120.34421,41.7254],[-120.34387,41.72519],[-120.34332,41.72476],[-120.34316,41.72462],[-120.34297,41.72442],[-120.34283,41.72426],[-120.34266,41.72408],[-120.34226,41.72362],[-120.34204,41.72322],[-120.34193,41.72295],[-120.34181,41.72271],[-120.34168,41.72249],[-120.34103,41.72163],[-120.3409,41.72144]]}},{"type":"Feature","properties":{"name":"(unnamed public road)","road_class":"unclassified","surface":"gravel","source":"Caltrans All Roads + OpenStreetMap explicit surface","source_detail":"osm way 891115537; Caltrans All Roads public-network geometry match","source_tile":"169/381","public_network_source":"Caltrans All Roads (ARNOLD/HPMS)","surface_source":"OpenStreetMap explicit surface tag","caltrans_match_coverage":1.0,"verified_length_m":1367},"geometry":{"type":"LineString","coordinates":[[-120.25509,41.5627],[-120.25518,41.56238],[-120.2552,41.56227],[-120.25519,41.56213],[-120.25513,41.56194],[-120.25512,41.56181],[-120.25514,41.56169],[-120.25518,41.56161],[-120.2553,41.56154],[-120.25545,41.5615],[-120.25562,41.56149],[-120.25577,41.56146],[-120.25588,41.5614],[-120.2564,41.56087],[-120.25665,41.56069],[-120.25676,41.56065],[-120.25688,41.56062],[-120.25701,41.5606],[-120.25714,41.56059],[-120.25728,41.56059],[-120.25741,41.5606],[-120.25754,41.56062],[-120.25767,41.56065],[-120.25779,41.56069],[-120.25847,41.56101],[-120.2588,41.56115],[-120.25891,41.5612],[-120.25902,41.56123],[-120.25915,41.56125],[-120.25927,41.56124],[-120.25944,41.5612],[-120.25952,41.56112],[-120.25956,41.56102],[-120.25956,41.56092],[-120.25955,41.56087],[-120.25935,41.56059],[-120.25885,41.55979],[-120.25849,41.55914],[-120.25827,41.55883],[-120.25812,41.55865],[-120.25797,41.55853],[-120.25769,41.55834],[-120.25759,41.55826],[-120.2575,41.55817],[-120.25743,41.55807],[-120.25738,41.55798],[-120.25729,41.55785],[-120.25701,41.55763],[-120.25699,41.55762],[-120.25691,41.55756],[-120.25686,41.55752],[-120.25673,41.55732],[-120.25662,41.55703],[-120.25653,41.55674],[-120.25646,41.55658],[-120.25638,41.55644],[-120.25628,41.55631],[-120.25584,41.55587],[-120.2556,41.55566],[-120.25523,41.55537],[-120.25514,41.55533],[-120.25482,41.55521],[-120.25471,41.55514],[-120.25462,41.55505],[-120.25458,41.55501]]}},{"type":"Feature","properties":{"name":"(unnamed public road)","road_class":"track","surface":"gravel","source":"Caltrans All Roads + OpenStreetMap explicit surface","source_detail":"osm way 891115555; Caltrans All Roads public-network geometry match","source_tile":"169/381","public_network_source":"Caltrans All Roads (ARNOLD/HPMS)","surface_source":"OpenStreetMap explicit surface tag","caltrans_match_coverage":1.0,"verified_length_m":2153},"geometry":{"type":"LineString","coordinates":[[-120.28677,41.68094],[-120.28665,41.68106],[-120.28654,41.68116],[-120.28645,41.68121],[-120.28635,41.68124],[-120.28624,41.68124],[-120.2861,41.6812],[-120.28597,41.68114],[-120.28586,41.68106],[-120.28569,41.68087],[-120.28484,41.6802],[-120.28461,41.68003],[-120.28413,41.67972],[-120.28342,41.6793],[-120.28304,41.67914],[-120.28256,41.67894],[-120.28221,41.67882],[-120.28189,41.67874],[-120.28157,41.67869],[-120.2814,41.67867],[-120.28113,41.67866],[-120.27979,41.67874],[-120.2793,41.67881],[-120.27798,41.67916],[-120.27779,41.6792],[-120.2776,41.67927],[-120.27606,41.68001],[-120.27556,41.68029],[-120.27484,41.68064],[-120.27433,41.68086],[-120.27414,41.68093],[-120.27353,41.68114],[-120.27311,41.68133],[-120.27285,41.68143],[-120.27261,41.68155],[-120.27199,41.68185],[-120.27187,41.68191],[-120.27177,41.68196],[-120.27166,41.68199],[-120.27152,41.68203],[-120.27051,41.68216],[-120.27039,41.68219],[-120.27027,41.68223],[-120.27017,41.68228],[-120.26977,41.6825],[-120.26945,41.68274],[-120.26933,41.68282],[-120.26924,41.68293],[-120.26921,41.68304],[-120.26919,41.68319],[-120.26923,41.68349],[-120.26933,41.68389],[-120.26935,41.6841],[-120.26934,41.68428],[-120.26934,41.68445],[-120.26943,41.68479],[-120.2696,41.68522],[-120.27001,41.68654],[-120.27008,41.68673],[-120.27018,41.68691]]}},{"type":"Feature","properties":{"name":"Payne Peak Road","road_class":"track","surface":"fine_gravel","tracktype":"grade3","source":"Caltrans All Roads + OpenStreetMap explicit surface","source_detail":"osm way 891283459; Caltrans All Roads public-network geometry match","source_tile":"169/381","public_network_source":"Caltrans All Roads (ARNOLD/HPMS)","surface_source":"OpenStreetMap explicit surface tag","caltrans_match_coverage":0.993,"verified_length_m":2124},"geometry":{"type":"LineString","coordinates":[[-120.27746,41.54123],[-120.27732,41.54123],[-120.27724,41.54126],[-120.27722,41.54135],[-120.27724,41.54147],[-120.27731,41.54154],[-120.27743,41.5416],[-120.27755,41.5416],[-120.27763,41.5416],[-120.27774,41.54157],[-120.27801,41.54149],[-120.27812,41.54141],[-120.27817,41.54132],[-120.27822,41.54121],[-120.27825,41.54106],[-120.27826,41.54094],[-120.27823,41.54083],[-120.27808,41.54039],[-120.27804,41.54026],[-120.27789,41.54009],[-120.27786,41.54003],[-120.27787,41.53994],[-120.27794,41.53989],[-120.27859,41.53947],[-120.27886,41.53924],[-120.27906,41.53902],[-120.27929,41.5387],[-120.27942,41.53854],[-120.2795,41.53849],[-120.27969,41.5384],[-120.27977,41.53833],[-120.27983,41.53825],[-120.27988,41.53813],[-120.28001,41.53767],[-120.2801,41.53742],[-120.28011,41.53732],[-120.28007,41.53706],[-120.28002,41.53689],[-120.27993,41.53672],[-120.27966,41.53631],[-120.27954,41.53609],[-120.2795,41.53594],[-120.27948,41.53578],[-120.27948,41.53567],[-120.27952,41.53551],[-120.27965,41.53518],[-120.27981,41.53486],[-120.2799,41.53473],[-120.28003,41.53463],[-120.28022,41.53454],[-120.28029,41.53447],[-120.28032,41.53439],[-120.28037,41.53419],[-120.28042,41.53404],[-120.28051,41.53393],[-120.28064,41.53386],[-120.28073,41.53383],[-120.28079,41.53378],[-120.28086,41.53372],[-120.28091,41.53369],[-120.28114,41.53363],[-120.28124,41.53362],[-120.28135,41.53358],[-120.28152,41.5335],[-120.28163,41.53347],[-120.28182,41.53343],[-120.28208,41.53341],[-120.28216,41.53339],[-120.28244,41.53317],[-120.28285,41.53281],[-120.28314,41.53259],[-120.28331,41.53249],[-120.28359,41.53237],[-120.28384,41.53228],[-120.28431,41.53208],[-120.28459,41.53196],[-120.28477,41.53186],[-120.28483,41.5318],[-120.28513,41.53155],[-120.28522,41.53144],[-120.28536,41.53126],[-120.28567,41.53078],[-120.28603,41.53027],[-120.28606,41.53017],[-120.28608,41.53003],[-120.28605,41.52992],[-120.28599,41.52981],[-120.28588,41.52973],[-120.2858,41.52968],[-120.28574,41.52965],[-120.28484,41.52949],[-120.28411,41.52938],[-120.28375,41.52927],[-120.28356,41.52922],[-120.28294,41.52898],[-120.28282,41.52893],[-120.28273,41.52885],[-120.28267,41.52875],[-120.28263,41.52862],[-120.28257,41.5284],[-120.28257,41.52822]]}},{"type":"Feature","properties":{"name":"Deep Creek Summit Road","road_class":"track","surface":"ground","source":"Caltrans All Roads + OpenStreetMap explicit surface","source_detail":"osm way 7917915; Caltrans All Roads public-network geometry match","source_tile":"169/382","public_network_source":"Caltrans All Roads (ARNOLD/HPMS)","surface_source":"OpenStreetMap explicit surface tag","caltrans_match_coverage":0.932,"verified_length_m":7204},"geometry":{"type":"LineString","coordinates":[[-120.2489,41.47322],[-120.24906,41.47382],[-120.24915,41.47423],[-120.2493,41.47449],[-120.24934,41.47468],[-120.24933,41.4748],[-120.24926,41.47491],[-120.24905,41.47501],[-120.2488,41.47506],[-120.24865,41.47507],[-120.2485,41.4751],[-120.24836,41.47515],[-120.24828,41.4752],[-120.24817,41.47531],[-120.24811,41.47539],[-120.24803,41.47555],[-120.24801,41.47565],[-120.24801,41.47576],[-120.24802,41.47589],[-120.24807,41.4761],[-120.24814,41.47663],[-120.24815,41.47672],[-120.24814,41.47681],[-120.2481,41.47692],[-120.24804,41.47706],[-120.24793,41.4772],[-120.24783,41.47729],[-120.24775,41.47734],[-120.24726,41.47763],[-120.24714,41.47769],[-120.24701,41.47774],[-120.24683,41.47782],[-120.24653,41.47788],[-120.2463,41.4779],[-120.24609,41.47789],[-120.24568,41.47793],[-120.24536,41.47799],[-120.24512,41.47803],[-120.24483,41.47809],[-120.24461,41.47818],[-120.24425,41.47834],[-120.24399,41.47855],[-120.24392,41.47865],[-120.24384,41.4788],[-120.24379,41.47903],[-120.24379,41.47916],[-120.24379,41.47926],[-120.24381,41.4794],[-120.24399,41.4798],[-120.24401,41.47989],[-120.244,41.48001],[-120.24378,41.48075],[-120.24373,41.481],[-120.24369,41.48134],[-120.24363,41.48154],[-120.24355,41.48167],[-120.24283,41.48252],[-120.24271,41.48271],[-120.24265,41.48284],[-120.24262,41.48297],[-120.2426,41.48312],[-120.2426,41.4832],[-120.24263,41.48333],[-120.24283,41.48387],[-120.2429,41.48421],[-120.24299,41.48441],[-120.24305,41.48449],[-120.24313,41.48457],[-120.24322,41.48464],[-120.24331,41.4847],[-120.24341,41.48475],[-120.24358,41.4848],[-120.24375,41.48482],[-120.24437,41.48479],[-120.24525,41.48487],[-120.24607,41.48492],[-120.24626,41.48495],[-120.24654,41.48508],[-120.24698,41.4852],[-120.24723,41.48523],[-120.24746,41.48525],[-120.24791,41.48526],[-120.248,41.48528],[-120.2481,41.48533],[-120.24814,41.48538],[-120.2482,41.48547],[-120.2482,41.48561],[-120.24812,41.48583],[-120.24798,41.48601],[-120.24773,41.48629],[-120.24741,41.48656],[-120.24702,41.48696],[-120.24668,41.48719],[-120.24649,41.48736],[-120.24644,41.48743],[-120.2464,41.4875],[-120.24638,41.48755],[-120.24637,41.48769],[-120.24639,41.48781],[-120.24645,41.48793],[-120.24655,41.488],[-120.24664,41.48806],[-120.24698,41.48823],[-120.24747,41.4884],[-120.24763,41.48843],[-120.24796,41.48848],[-120.24849,41.48861],[-120.24865,41.48866],[-120.24875,41.48871],[-120.24883,41.48877],[-120.24904,41.48892],[-120.24917,41.48896],[-120.2493,41.48897],[-120.24942,41.48895],[-120.24955,41.48891],[-120.24971,41.48891],[-120.24985,41.48893],[-120.24999,41.48897],[-120.25032,41.4891],[-120.25051,41.48919],[-120.25062,41.48926],[-120.25075,41.48937],[-120.25088,41.48947],[-120.25101,41.48954],[-120.25151,41.48969],[-120.25176,41.48974],[-120.25192,41.48976],[-120.25209,41.48974],[-120.25231,41.48971],[-120.25262,41.48971],[-120.25281,41.48973],[-120.25319,41.4898],[-120.25334,41.48985],[-120.25343,41.4899],[-120.25348,41.48994],[-120.25362,41.49004],[-120.25386,41.49022],[-120.25395,41.49035],[-120.25402,41.49044],[-120.25409,41.49059],[-120.25413,41.49069],[-120.25416,41.49078],[-120.25417,41.4909],[-120.25417,41.49106],[-120.25395,41.49156],[-120.25391,41.49173],[-120.25394,41.49181],[-120.25402,41.49194],[-120.25439,41.49226],[-120.25464,41.49242],[-120.25476,41.49249],[-120.25488,41.49254],[-120.255,41.49258],[-120.2552,41.49263],[-120.25539,41.49264],[-120.25558,41.49265],[-120.25573,41.49268],[-120.25582,41.49273],[-120.25587,41.49276],[-120.25602,41.49295],[-120.25611,41.49301],[-120.25621,41.49304],[-120.25674,41.49313],[-120.25692,41.49317],[-120.25725,41.49324],[-120.25756,41.49332],[-120.25777,41.49343],[-120.25789,41.49352],[-120.25796,41.49361],[-120.25803,41.49373],[-120.25812,41.49388],[-120.25814,41.49397],[-120.25814,41.49408],[-120.25808,41.49422],[-120.25797,41.49437],[-120.2578,41.49464],[-120.25772,41.49493],[-120.25769,41.49514],[-120.25768,41.49539],[-120.25772,41.49581],[-120.25776,41.49594],[-120.25782,41.49601],[-120.25791,41.49607],[-120.25806,41.49622],[-120.25823,41.49646],[-120.25836,41.49663],[-120.2584,41.49671],[-120.25841,41.49679],[-120.2584,41.49685],[-120.25836,41.49694],[-120.25831,41.49705],[-120.25827,41.49715],[-120.25826,41.49731],[-120.25827,41.49739],[-120.25833,41.49749],[-120.25843,41.49757],[-120.2585,41.49763],[-120.25863,41.49769],[-120.25881,41.49776],[-120.25892,41.49784],[-120.25902,41.49794],[-120.25924,41.49831],[-120.25934,41.49843],[-120.25944,41.49849],[-120.25957,41.49854],[-120.25964,41.49862],[-120.25969,41.49871],[-120.25972,41.4988],[-120.25978,41.49891],[-120.25987,41.49899],[-120.25993,41.49905],[-120.26002,41.49913],[-120.26014,41.49921],[-120.26039,41.49934],[-120.2605,41.49941],[-120.26055,41.4995],[-120.26057,41.49956],[-120.26068,41.49988],[-120.26074,41.49997],[-120.2608,41.50003],[-120.26087,41.50008],[-120.26098,41.50013],[-120.26139,41.50024],[-120.26152,41.50032],[-120.2616,41.5004],[-120.26167,41.50049],[-120.2617,41.50065],[-120.26174,41.50095],[-120.26184,41.50107],[-120.26193,41.50118],[-120.26198,41.50122],[-120.26227,41.50143],[-120.2624,41.50153],[-120.26251,41.50163],[-120.26272,41.5018],[-120.26284,41.5019],[-120.26288,41.50198],[-120.26289,41.50208],[-120.26289,41.5022],[-120.2629,41.50238],[-120.26292,41.50249],[-120.26297,41.50263],[-120.26308,41.50278],[-120.26328,41.50293],[-120.26353,41.50305],[-120.26365,41.50314],[-120.26368,41.50323],[-120.26369,41.5033],[-120.26367,41.50338],[-120.26364,41.50345],[-120.26342,41.50374],[-120.2631,41.50413],[-120.263,41.50428],[-120.26298,41.50442],[-120.26297,41.50456],[-120.26298,41.50469],[-120.26299,41.50483],[-120.2631,41.50514],[-120.26327,41.50546],[-120.26357,41.50601],[-120.26379,41.50637],[-120.26398,41.50663],[-120.26419,41.50686],[-120.26451,41.50719],[-120.26512,41.50787],[-120.26546,41.50821],[-120.2655,41.50828],[-120.26551,41.50837],[-120.26547,41.50842],[-120.26543,41.50845],[-120.26536,41.50847],[-120.26458,41.50854],[-120.26434,41.50856],[-120.26413,41.50856],[-120.26358,41.5085],[-120.26286,41.50844],[-120.26245,41.50843],[-120.26216,41.50845],[-120.26165,41.50851],[-120.26125,41.50858],[-120.26089,41.50868],[-120.26058,41.5088],[-120.2604,41.50885],[-120.26017,41.5089],[-120.25988,41.50895],[-120.25954,41.509],[-120.25885,41.50907],[-120.25875,41.5091],[-120.2587,41.50913],[-120.25868,41.50921],[-120.2587,41.50929],[-120.25875,41.50935],[-120.25887,41.50943],[-120.25914,41.50957],[-120.25925,41.50959],[-120.25941,41.50961],[-120.2595,41.50963],[-120.25957,41.50966],[-120.25967,41.50972],[-120.25976,41.50979],[-120.25983,41.50987],[-120.25991,41.51006],[-120.25996,41.51015],[-120.25999,41.51029],[-120.26001,41.51048],[-120.25993,41.51089],[-120.25983,41.51118],[-120.25979,41.51137],[-120.25978,41.51157],[-120.25991,41.51229],[-120.25991,41.51237],[-120.25985,41.51254],[-120.25964,41.51277],[-120.25956,41.51291],[-120.25952,41.51303],[-120.2595,41.51318],[-120.25952,41.51339],[-120.25957,41.51359],[-120.25965,41.51377],[-120.25969,41.51403],[-120.25979,41.51457],[-120.25987,41.51486],[-120.25994,41.51501],[-120.26004,41.51513],[-120.26018,41.51523],[-120.26031,41.51533],[-120.26035,41.51538],[-120.26041,41.51548],[-120.26043,41.51553],[-120.26043,41.51559],[-120.2604,41.51567],[-120.26011,41.51588],[-120.25994,41.51602],[-120.25981,41.51635],[-120.25978,41.51647],[-120.25979,41.51658],[-120.25985,41.51681],[-120.26005,41.51731],[-120.26013,41.5175],[-120.26019,41.5176]]}}]}