{"type":"FeatureCollection","features":[{"type":"Feature","properties":{"name":"Wingfield Road","road_class":"unclassified","surface":"gravel","source":"Caltrans All Roads + OpenStreetMap explicit surface","source_detail":"osm way 7919613; Caltrans All Roads public-network geometry match","source_tile":"169/386","public_network_source":"Caltrans All Roads (ARNOLD/HPMS)","surface_source":"OpenStreetMap explicit surface tag","caltrans_match_coverage":1.0,"verified_length_m":3405},"geometry":{"type":"LineString","coordinates":[[-120.56848,40.33608],[-120.56864,40.33609],[-120.56891,40.33608],[-120.56922,40.33605],[-120.56969,40.33597],[-120.56994,40.33595],[-120.57133,40.33593],[-120.57212,40.33591],[-120.57278,40.33588],[-120.5731,40.33586],[-120.57337,40.33584],[-120.57356,40.3358],[-120.57431,40.33564],[-120.57477,40.33555],[-120.57486,40.33554],[-120.57503,40.33554],[-120.57511,40.33555],[-120.57528,40.3356],[-120.57535,40.33563],[-120.57541,40.33568],[-120.57545,40.33572],[-120.57549,40.33577],[-120.57566,40.33615],[-120.57569,40.33619],[-120.57572,40.33624],[-120.57581,40.33632],[-120.57586,40.33635],[-120.57591,40.33638],[-120.57604,40.33643],[-120.57614,40.33645],[-120.5762,40.33646],[-120.57632,40.33645],[-120.5764,40.33646],[-120.57647,40.33648],[-120.57655,40.33652],[-120.57658,40.33654],[-120.57661,40.33659],[-120.57668,40.33673],[-120.57681,40.33692],[-120.57689,40.33701],[-120.57704,40.33717],[-120.57711,40.33723],[-120.57718,40.33728],[-120.57728,40.33733],[-120.57735,40.33736],[-120.57742,40.33739],[-120.5775,40.33741],[-120.57764,40.33743],[-120.57783,40.33744],[-120.57806,40.33744],[-120.57834,40.33742],[-120.57893,40.33739],[-120.579,40.3374],[-120.57906,40.33741],[-120.57912,40.33744],[-120.57917,40.33748],[-120.57944,40.3378],[-120.5796,40.33795],[-120.57975,40.33804],[-120.57997,40.33816],[-120.5803,40.33829],[-120.58093,40.33856],[-120.58099,40.33858],[-120.58105,40.33861],[-120.5811,40.33864],[-120.58114,40.33868],[-120.58123,40.33877],[-120.58131,40.33884],[-120.5814,40.3389],[-120.5815,40.33895],[-120.58163,40.339],[-120.58202,40.33921],[-120.58371,40.34028],[-120.58413,40.34054],[-120.58507,40.34104],[-120.58527,40.34117],[-120.58537,40.34126],[-120.58546,40.34135],[-120.58573,40.3416],[-120.58585,40.34171],[-120.58588,40.34175],[-120.5859,40.34181],[-120.58598,40.34188],[-120.58601,40.3419],[-120.5864,40.3422],[-120.58715,40.34271],[-120.58733,40.34286],[-120.58756,40.34311],[-120.5879,40.34357],[-120.58836,40.34411],[-120.5887,40.34449],[-120.58876,40.34456],[-120.58889,40.34469],[-120.58902,40.34481],[-120.58925,40.34495],[-120.58948,40.34503],[-120.59025,40.34526],[-120.59114,40.34554],[-120.59229,40.34592],[-120.5924,40.34594],[-120.59252,40.34595],[-120.59265,40.34596],[-120.59276,40.34595],[-120.5929,40.34592],[-120.59334,40.34582],[-120.59422,40.34557],[-120.59457,40.34545],[-120.59487,40.34532],[-120.59514,40.34517],[-120.59581,40.34481],[-120.59609,40.34467],[-120.5963,40.3446],[-120.59651,40.34455],[-120.59678,40.34451],[-120.59721,40.34446],[-120.59766,40.34439],[-120.59771,40.34437],[-120.59777,40.34435],[-120.59788,40.3443],[-120.59798,40.34424],[-120.59815,40.34417],[-120.59834,40.3441],[-120.59853,40.34405],[-120.59922,40.34389],[-120.5996,40.34379],[-120.59993,40.34368],[-120.60039,40.34347],[-120.60055,40.34341],[-120.60072,40.34337],[-120.6009,40.34334],[-120.60109,40.34332],[-120.60127,40.34332],[-120.60207,40.34339]]}},{"type":"Feature","properties":{"name":"(unnamed public road)","road_class":"unclassified","surface":"gravel","source":"Caltrans All Roads + OpenStreetMap explicit surface","source_detail":"osm way 225024264; Caltrans All Roads public-network geometry match","source_tile":"169/386","public_network_source":"Caltrans All Roads (ARNOLD/HPMS)","surface_source":"OpenStreetMap explicit surface tag","caltrans_match_coverage":1.0,"verified_length_m":823},"geometry":{"type":"LineString","coordinates":[[-120.57395,40.18803],[-120.57406,40.1878],[-120.57439,40.18757],[-120.57497,40.18719],[-120.57515,40.18713],[-120.57534,40.18709],[-120.5755,40.18689],[-120.57581,40.1866],[-120.5759,40.18654],[-120.576,40.18658],[-120.57618,40.18667],[-120.5765,40.1867],[-120.57672,40.18664],[-120.57706,40.18661],[-120.57731,40.18658],[-120.57744,40.1865],[-120.57751,40.18626],[-120.5775,40.18613],[-120.57743,40.18596],[-120.57723,40.18584],[-120.57716,40.18574],[-120.57726,40.18553],[-120.5773,40.18528],[-120.57724,40.1849],[-120.57733,40.18479],[-120.57759,40.18472],[-120.57817,40.18475],[-120.57846,40.18465],[-120.57893,40.18473],[-120.57943,40.1848],[-120.58006,40.18478]]}}]}