{"type":"FeatureCollection","features":[{"type":"Feature","properties":{"name":"Rock River Road","road_class":"unclassified","surface":"gravel","source":"Caltrans All Roads + OpenStreetMap explicit surface","source_detail":"osm way 1275834954; Caltrans All Roads public-network geometry match","source_tile":"169/395","public_network_source":"Caltrans All Roads (ARNOLD/HPMS)","surface_source":"OpenStreetMap explicit surface tag","caltrans_match_coverage":1.0,"verified_length_m":985},"geometry":{"type":"LineString","coordinates":[[-120.59199,37.74306],[-120.59211,37.74346],[-120.59221,37.74382],[-120.59224,37.74405],[-120.59219,37.7442],[-120.59211,37.74429],[-120.59191,37.7444],[-120.59097,37.74479],[-120.58674,37.74656],[-120.58513,37.74724],[-120.58409,37.74766],[-120.58397,37.74769],[-120.58382,37.74771],[-120.58371,37.74773],[-120.58364,37.74774],[-120.58359,37.74775]]}},{"type":"Feature","properties":{"name":"Cooperstown Road","road_class":"unclassified","surface":"gravel","source":"Caltrans All Roads + OpenStreetMap explicit surface","source_detail":"osm way 1275791945; Caltrans All Roads public-network geometry match","source_tile":"169/395","public_network_source":"Caltrans All Roads (ARNOLD/HPMS)","surface_source":"OpenStreetMap explicit surface tag","caltrans_match_coverage":1.0,"verified_length_m":1734},"geometry":{"type":"LineString","coordinates":[[-120.58989,37.73653],[-120.58963,37.73627],[-120.58955,37.73621],[-120.58934,37.73609],[-120.58917,37.73605],[-120.58878,37.73603],[-120.588,37.73603],[-120.58721,37.736],[-120.58319,37.73594],[-120.58129,37.73592],[-120.58008,37.73591],[-120.57884,37.73589],[-120.57687,37.73585],[-120.57575,37.73581],[-120.57515,37.73581],[-120.57058,37.73672]]}},{"type":"Feature","properties":{"name":"Cooperstown Road","road_class":"unclassified","surface":"gravel","source":"Caltrans All Roads + OpenStreetMap explicit surface","source_detail":"osm way 10600875; Caltrans All Roads public-network geometry match","source_tile":"169/395","public_network_source":"Caltrans All Roads (ARNOLD/HPMS)","surface_source":"OpenStreetMap explicit surface tag","caltrans_match_coverage":1.0,"verified_length_m":3204},"geometry":{"type":"LineString","coordinates":[[-120.54162,37.74032],[-120.54146,37.73994],[-120.54137,37.73973],[-120.54126,37.73948],[-120.54114,37.73918],[-120.54097,37.73883],[-120.54084,37.73854],[-120.54066,37.73818],[-120.54034,37.73753],[-120.53992,37.73676],[-120.53929,37.73562],[-120.53878,37.73469],[-120.53813,37.73347],[-120.53778,37.73279],[-120.53775,37.73274],[-120.53772,37.7327],[-120.53768,37.73265],[-120.53761,37.73263],[-120.5375,37.7326],[-120.53682,37.73252],[-120.53581,37.73242],[-120.53513,37.73233],[-120.53403,37.73218],[-120.53391,37.73215],[-120.53377,37.73212],[-120.53364,37.73208],[-120.5335,37.73203],[-120.53334,37.73196],[-120.53322,37.7319],[-120.53311,37.73184],[-120.53298,37.73175],[-120.53289,37.73168],[-120.53275,37.73154],[-120.53255,37.73131],[-120.53211,37.73083],[-120.53194,37.73063],[-120.53174,37.73045],[-120.53159,37.73031],[-120.53117,37.72996],[-120.53071,37.72958],[-120.53036,37.72929],[-120.52992,37.72895],[-120.52949,37.72859],[-120.52901,37.7282],[-120.52857,37.72781],[-120.52795,37.7272],[-120.52761,37.72684],[-120.52746,37.7267],[-120.52724,37.72652],[-120.52684,37.72622],[-120.52653,37.72599],[-120.52633,37.72586],[-120.52605,37.72569],[-120.52582,37.72557],[-120.52561,37.7255],[-120.52543,37.72545],[-120.52518,37.72539],[-120.52506,37.72537],[-120.52496,37.72533],[-120.52475,37.72525],[-120.52461,37.72517],[-120.52451,37.72509],[-120.5244,37.72497],[-120.52425,37.72474],[-120.52421,37.72467],[-120.52409,37.72449],[-120.52387,37.72417],[-120.5237,37.72396],[-120.52352,37.72374],[-120.5233,37.72346],[-120.52317,37.72332],[-120.52293,37.72304],[-120.52258,37.72271],[-120.52218,37.72234],[-120.52192,37.72208],[-120.52181,37.72197],[-120.52163,37.72175],[-120.52141,37.72148],[-120.52124,37.72128],[-120.52117,37.72117],[-120.52112,37.72103],[-120.52108,37.72093],[-120.52103,37.72079],[-120.52096,37.72049],[-120.5209,37.72028],[-120.52081,37.71993],[-120.52072,37.71969],[-120.52055,37.71934],[-120.52042,37.71909],[-120.52031,37.71884]]}},{"type":"Feature","properties":{"name":"Rock River Road","road_class":"unclassified","surface":"gravel","source":"Caltrans All Roads + OpenStreetMap explicit surface","source_detail":"osm way 10605360; Caltrans All Roads public-network geometry match","source_tile":"169/395","public_network_source":"Caltrans All Roads (ARNOLD/HPMS)","surface_source":"OpenStreetMap explicit surface tag","caltrans_match_coverage":1.0,"verified_length_m":2744},"geometry":{"type":"LineString","coordinates":[[-120.58355,37.74776],[-120.5835,37.74777],[-120.5834,37.7478],[-120.58305,37.74796],[-120.58194,37.74847],[-120.57881,37.74989],[-120.57615,37.75109],[-120.57369,37.75224],[-120.57285,37.75264],[-120.57187,37.75321],[-120.57111,37.75366],[-120.57047,37.75397],[-120.56955,37.75438],[-120.56762,37.75523],[-120.56724,37.7554],[-120.56682,37.75563],[-120.56583,37.75637],[-120.56498,37.75699],[-120.56283,37.75858],[-120.56062,37.76021],[-120.56032,37.76043],[-120.56012,37.7606],[-120.56002,37.76074],[-120.55992,37.76089],[-120.55951,37.76163],[-120.55928,37.76201],[-120.5592,37.76213],[-120.55904,37.76241],[-120.55902,37.76245]]}},{"type":"Feature","properties":{"name":"(unnamed public road)","road_class":"track","surface":"unpaved","tracktype":"grade1","source":"Caltrans All Roads + OpenStreetMap explicit surface","source_detail":"osm way 10692210; Caltrans All Roads public-network geometry match","source_tile":"169/395","public_network_source":"Caltrans All Roads (ARNOLD/HPMS)","surface_source":"OpenStreetMap explicit surface tag","caltrans_match_coverage":0.991,"verified_length_m":2006},"geometry":{"type":"LineString","coordinates":[[-120.42406,37.795],[-120.42398,37.79501],[-120.42173,37.79494],[-120.42058,37.7949],[-120.41962,37.79488],[-120.41901,37.79486],[-120.41883,37.79487],[-120.41851,37.79492],[-120.41747,37.79518],[-120.41709,37.79528],[-120.41677,37.79536],[-120.41658,37.79543],[-120.41641,37.79554],[-120.4162,37.7957],[-120.41608,37.79577],[-120.41595,37.79584],[-120.41579,37.79589],[-120.4157,37.79591],[-120.41543,37.79591],[-120.41526,37.7959],[-120.41518,37.79588],[-120.41503,37.79583],[-120.41491,37.79577],[-120.41477,37.79565],[-120.41455,37.79545],[-120.41442,37.79536],[-120.41428,37.79529],[-120.41406,37.79522],[-120.41388,37.79519],[-120.41366,37.79518],[-120.41346,37.79519],[-120.41337,37.79519],[-120.41328,37.79521],[-120.4132,37.79524],[-120.41309,37.79529],[-120.41249,37.79566],[-120.41171,37.79607],[-120.4113,37.79625],[-120.41117,37.7963],[-120.41099,37.79635],[-120.41061,37.79646],[-120.41051,37.79648],[-120.41039,37.79649],[-120.41028,37.79649],[-120.41015,37.79647],[-120.41006,37.79646],[-120.40999,37.79643],[-120.40978,37.79631],[-120.40969,37.79624],[-120.4096,37.79616],[-120.40955,37.79609],[-120.40953,37.79601],[-120.40951,37.79591],[-120.40952,37.79583],[-120.40959,37.79558],[-120.40975,37.79529],[-120.40978,37.7952],[-120.40979,37.79506],[-120.40972,37.7948],[-120.40936,37.79439],[-120.4091,37.79403],[-120.40904,37.79397],[-120.40897,37.79392],[-120.4086,37.79372],[-120.4085,37.7937],[-120.40833,37.79368],[-120.4081,37.79369],[-120.40792,37.79371],[-120.4078,37.79373],[-120.4077,37.79377],[-120.40745,37.79391],[-120.4074,37.79394],[-120.40715,37.7942],[-120.40667,37.79487],[-120.40622,37.79548]]}},{"type":"Feature","properties":{"name":"(unnamed public road)","road_class":"unclassified","surface":"unpaved","source":"Caltrans All Roads + OpenStreetMap explicit surface","source_detail":"osm way 10700484; Caltrans All Roads public-network geometry match","source_tile":"169/395","public_network_source":"Caltrans All Roads (ARNOLD/HPMS)","surface_source":"OpenStreetMap explicit surface tag","caltrans_match_coverage":1.0,"verified_length_m":523},"geometry":{"type":"LineString","coordinates":[[-120.27874,37.93852],[-120.2789,37.93856],[-120.27901,37.93857],[-120.27909,37.93856],[-120.27915,37.93855],[-120.27932,37.93852],[-120.27972,37.93846],[-120.2799,37.93846],[-120.28004,37.93847],[-120.28013,37.9385],[-120.28018,37.93853],[-120.2802,37.93859],[-120.28019,37.93867],[-120.28015,37.93876],[-120.28009,37.93885],[-120.27998,37.93894],[-120.27984,37.93907],[-120.27979,37.93914],[-120.27978,37.93921],[-120.27977,37.93931],[-120.27978,37.93935],[-120.27986,37.93946],[-120.27993,37.93954],[-120.28,37.9396],[-120.28013,37.93967],[-120.28058,37.93987],[-120.28065,37.93991],[-120.28071,37.94],[-120.28074,37.94007],[-120.28075,37.94015],[-120.28071,37.94029],[-120.28065,37.9404],[-120.28046,37.94067],[-120.28044,37.94073],[-120.28046,37.94086],[-120.28068,37.94144],[-120.28073,37.94152]]}},{"type":"Feature","properties":{"name":"South Serpentine Loop Road","road_class":"track","surface":"ground","tracktype":"grade3","source":"Caltrans All Roads + OpenStreetMap explicit surface","source_detail":"osm way 10710299; Caltrans All Roads public-network geometry match","source_tile":"169/395","public_network_source":"Caltrans All Roads (ARNOLD/HPMS)","surface_source":"OpenStreetMap explicit surface tag","caltrans_match_coverage":1.0,"verified_length_m":2308},"geometry":{"type":"LineString","coordinates":[[-120.46608,37.85243],[-120.46604,37.85259],[-120.46603,37.85267],[-120.46606,37.8528],[-120.46611,37.85292],[-120.46621,37.85307],[-120.46624,37.85318],[-120.46626,37.8533],[-120.46628,37.85336],[-120.46631,37.8534],[-120.46639,37.85346],[-120.46659,37.85356],[-120.46667,37.85363],[-120.46684,37.85384],[-120.4672,37.85423],[-120.4673,37.85439],[-120.46742,37.85465],[-120.46753,37.85482],[-120.46762,37.85493],[-120.46788,37.85517],[-120.4679,37.85518],[-120.46798,37.85524],[-120.46827,37.85537],[-120.46855,37.85546],[-120.4693,37.85565],[-120.46962,37.85574],[-120.47008,37.85592],[-120.47048,37.85603],[-120.47062,37.85611],[-120.47083,37.85626],[-120.47091,37.85633],[-120.47112,37.8565],[-120.47144,37.85683],[-120.47152,37.85689],[-120.47175,37.85703],[-120.47182,37.85708],[-120.47214,37.85735],[-120.47262,37.85767],[-120.47368,37.85826],[-120.47409,37.85844],[-120.47426,37.85853],[-120.47495,37.85901],[-120.47512,37.85914],[-120.47556,37.85952],[-120.47586,37.85977],[-120.47594,37.85983],[-120.47603,37.85987],[-120.47632,37.85993],[-120.47657,37.86002],[-120.47683,37.86015],[-120.47716,37.86037],[-120.47766,37.86073],[-120.47793,37.86095],[-120.47837,37.86135],[-120.47851,37.86145],[-120.47882,37.86162],[-120.47928,37.86192],[-120.47988,37.86238],[-120.48022,37.86268],[-120.48064,37.863],[-120.48108,37.86329],[-120.48152,37.86357],[-120.48164,37.86367],[-120.48172,37.86378],[-120.4818,37.86392],[-120.48195,37.86429],[-120.482,37.86439],[-120.48207,37.86454],[-120.48228,37.86497],[-120.48236,37.86511],[-120.48257,37.86532],[-120.48268,37.8654],[-120.48282,37.86547],[-120.48307,37.86554],[-120.48326,37.86558],[-120.48341,37.86559],[-120.48349,37.86559],[-120.48388,37.86556],[-120.48424,37.8655],[-120.48452,37.86546],[-120.48465,37.86543],[-120.48473,37.86541]]}},{"type":"Feature","properties":{"name":"Shell Road","road_class":"unclassified","surface":"unpaved","source":"Caltrans All Roads + OpenStreetMap explicit surface","source_detail":"osm way 10712817; Caltrans All Roads public-network geometry match","source_tile":"169/395","public_network_source":"Caltrans All Roads (ARNOLD/HPMS)","surface_source":"OpenStreetMap explicit surface tag","caltrans_match_coverage":1.0,"verified_length_m":2160},"geometry":{"type":"LineString","coordinates":[[-120.46232,37.93209],[-120.46236,37.9322],[-120.46247,37.93252],[-120.46259,37.93289],[-120.46265,37.93319],[-120.46289,37.93374],[-120.46294,37.93389],[-120.46306,37.93416],[-120.46309,37.9343],[-120.46315,37.93463],[-120.46325,37.93475],[-120.46323,37.93493],[-120.46319,37.93504],[-120.46314,37.93532],[-120.4631,37.93574],[-120.46299,37.9361],[-120.46295,37.93637],[-120.46297,37.93681],[-120.46301,37.93701],[-120.46313,37.93795],[-120.46314,37.93809],[-120.46313,37.93837],[-120.46306,37.93848],[-120.46286,37.93869],[-120.46277,37.93883],[-120.46271,37.93893],[-120.46259,37.93946],[-120.46249,37.93979],[-120.46252,37.93998],[-120.4626,37.94013],[-120.46271,37.94032],[-120.46279,37.94048],[-120.46285,37.94063],[-120.463,37.94089],[-120.463,37.94118],[-120.46299,37.94127],[-120.46295,37.94138],[-120.46291,37.94146],[-120.4629,37.94168],[-120.46286,37.94194],[-120.46282,37.94208],[-120.46263,37.94253],[-120.46262,37.94256],[-120.46253,37.94271],[-120.46247,37.94291],[-120.46241,37.94309],[-120.46243,37.94319],[-120.46242,37.94324],[-120.46238,37.94333],[-120.46231,37.94342],[-120.46213,37.94358],[-120.46201,37.94374],[-120.46202,37.94389],[-120.46205,37.94396],[-120.4621,37.94406],[-120.46219,37.94434],[-120.46228,37.94467],[-120.46241,37.94493],[-120.46245,37.94506],[-120.46247,37.94526],[-120.46246,37.94544],[-120.46243,37.94571],[-120.46232,37.94616],[-120.46227,37.94631],[-120.4622,37.94645],[-120.4621,37.94677],[-120.46197,37.94704],[-120.46181,37.94752],[-120.46171,37.94791],[-120.46168,37.94808],[-120.4616,37.94861],[-120.46157,37.94874],[-120.46153,37.94883],[-120.4615,37.94888],[-120.46139,37.9492],[-120.46137,37.94934],[-120.46128,37.94953],[-120.46113,37.94981],[-120.46093,37.95026],[-120.46081,37.95042],[-120.46056,37.95066],[-120.46044,37.95076]]}},{"type":"Feature","properties":{"name":"Serpentine Loop Road South","road_class":"track","surface":"ground","tracktype":"grade1","source":"Caltrans All Roads + OpenStreetMap explicit surface","source_detail":"osm way 188215371; Caltrans All Roads public-network geometry match","source_tile":"169/395","public_network_source":"Caltrans All Roads (ARNOLD/HPMS)","surface_source":"OpenStreetMap explicit surface tag","caltrans_match_coverage":1.0,"verified_length_m":1780},"geometry":{"type":"LineString","coordinates":[[-120.47485,37.85301],[-120.47464,37.85293],[-120.47454,37.85291],[-120.47417,37.85291],[-120.47399,37.85291],[-120.47389,37.85291],[-120.47371,37.85294],[-120.4734,37.85301],[-120.47325,37.85303],[-120.47279,37.85304],[-120.47258,37.85302],[-120.47226,37.85295],[-120.47194,37.85286],[-120.47123,37.85271],[-120.47097,37.8527],[-120.47062,37.8527],[-120.47029,37.85275],[-120.46992,37.85275],[-120.46982,37.85277],[-120.46977,37.8528],[-120.46967,37.8529],[-120.46957,37.85299],[-120.46913,37.85324],[-120.46869,37.8536],[-120.46849,37.85373],[-120.46836,37.85378],[-120.46815,37.85382],[-120.4679,37.85383],[-120.46774,37.85382],[-120.4676,37.85378],[-120.46745,37.85371],[-120.46732,37.85362],[-120.46726,37.85356],[-120.4672,37.85347],[-120.46702,37.85318],[-120.46695,37.8531],[-120.46689,37.85306],[-120.46683,37.85306],[-120.46672,37.85305],[-120.46664,37.85302],[-120.4666,37.85298],[-120.46651,37.85276],[-120.46646,37.8527],[-120.46608,37.85243],[-120.46604,37.8524],[-120.46595,37.85226],[-120.46586,37.85216],[-120.46575,37.85209],[-120.46547,37.85196],[-120.46537,37.85188],[-120.46531,37.85181],[-120.46527,37.85167],[-120.46519,37.8515],[-120.46514,37.85144],[-120.46493,37.85121],[-120.46474,37.85096],[-120.46451,37.85071],[-120.46429,37.8505],[-120.46421,37.85042],[-120.46411,37.85034],[-120.46401,37.8503],[-120.46387,37.85025],[-120.46365,37.85018],[-120.46353,37.8501],[-120.4634,37.84997],[-120.46333,37.84993],[-120.46311,37.84985],[-120.46277,37.84973],[-120.46265,37.84971],[-120.46255,37.84971],[-120.46228,37.84974],[-120.46184,37.84978],[-120.46174,37.84977],[-120.46164,37.84973],[-120.46128,37.84942],[-120.46108,37.84929],[-120.4609,37.84919],[-120.46074,37.84913],[-120.46059,37.84909],[-120.46043,37.84908],[-120.46024,37.84908],[-120.46003,37.84912],[-120.45994,37.84913],[-120.45971,37.84918],[-120.45905,37.84939],[-120.45895,37.84941],[-120.45845,37.84939],[-120.4582,37.84942],[-120.45812,37.84942],[-120.45808,37.84941]]}},{"type":"Feature","properties":{"name":"(unnamed public road)","road_class":"track","surface":"dirt","tracktype":"grade2","source":"Caltrans All Roads + OpenStreetMap explicit surface","source_detail":"osm way 1275435272; Caltrans All Roads public-network geometry match","source_tile":"169/395","public_network_source":"Caltrans All Roads (ARNOLD/HPMS)","surface_source":"OpenStreetMap explicit surface tag","caltrans_match_coverage":0.889,"verified_length_m":1218},"geometry":{"type":"LineString","coordinates":[[-120.57336,37.84711],[-120.57327,37.84711],[-120.57303,37.84712],[-120.5726,37.84714],[-120.5723,37.84715],[-120.57213,37.84715],[-120.57201,37.84715],[-120.57181,37.84714],[-120.5715,37.84711],[-120.57124,37.84707],[-120.57107,37.84705],[-120.5708,37.84702],[-120.57042,37.84697],[-120.57035,37.84697],[-120.57024,37.84696],[-120.57006,37.84695],[-120.56988,37.84694],[-120.56954,37.8469],[-120.56876,37.84681],[-120.56848,37.84678],[-120.5677,37.8467],[-120.56766,37.84669],[-120.56759,37.84667],[-120.56749,37.84663],[-120.56744,37.8466],[-120.56738,37.84658],[-120.56733,37.84657],[-120.56729,37.84657],[-120.56724,37.84659],[-120.56719,37.84661],[-120.56712,37.84662],[-120.56705,37.84662],[-120.5663,37.84654],[-120.56575,37.84648],[-120.56561,37.84646],[-120.56557,37.84645],[-120.56552,37.84643],[-120.56545,37.84641],[-120.56539,37.8464],[-120.56532,37.8464],[-120.56524,37.84641],[-120.56519,37.84641],[-120.56513,37.84641],[-120.56505,37.8464],[-120.56489,37.84638],[-120.56474,37.84636],[-120.56457,37.84635],[-120.56442,37.84633],[-120.56421,37.84631],[-120.564,37.84629],[-120.56381,37.84628],[-120.56353,37.84626],[-120.56326,37.84624],[-120.563,37.84623],[-120.5626,37.84622],[-120.56233,37.84621],[-120.56217,37.84621],[-120.56201,37.84621],[-120.56183,37.84621],[-120.56165,37.84621],[-120.56155,37.8462],[-120.56146,37.8462],[-120.56141,37.84619],[-120.56137,37.84618],[-120.56134,37.84615],[-120.56132,37.84613],[-120.56132,37.8461],[-120.56133,37.84604],[-120.56136,37.8459],[-120.56138,37.84578],[-120.56139,37.84574],[-120.56141,37.84569],[-120.5616,37.8454],[-120.56169,37.84525],[-120.5617,37.84522],[-120.56171,37.84517],[-120.5617,37.84511],[-120.56165,37.84502],[-120.56159,37.8449]]}},{"type":"Feature","properties":{"name":"Cooperstown Road","road_class":"unclassified","surface":"gravel","source":"Caltrans All Roads + OpenStreetMap explicit surface","source_detail":"osm way 1275791948; Caltrans All Roads public-network geometry match","source_tile":"169/395","public_network_source":"Caltrans All Roads (ARNOLD/HPMS)","surface_source":"OpenStreetMap explicit surface tag","caltrans_match_coverage":1.0,"verified_length_m":1946},"geometry":{"type":"LineString","coordinates":[[-120.57005,37.73682],[-120.56882,37.73706],[-120.565,37.73782],[-120.56378,37.73805],[-120.56352,37.7381],[-120.56294,37.73823],[-120.5625,37.73844],[-120.56104,37.73931],[-120.56002,37.73997],[-120.55915,37.74055],[-120.55854,37.74084],[-120.5579,37.74104],[-120.5554,37.74182],[-120.5553,37.7419],[-120.55524,37.74197],[-120.5552,37.74204],[-120.55514,37.74214],[-120.55508,37.7422],[-120.555,37.74226],[-120.55485,37.74232],[-120.55327,37.74278],[-120.55284,37.74292],[-120.55261,37.743],[-120.55242,37.74308],[-120.5523,37.74315],[-120.55203,37.74332],[-120.55195,37.74337],[-120.5517,37.74349],[-120.5514,37.74361],[-120.55123,37.74366],[-120.55108,37.74371],[-120.55073,37.74381],[-120.55026,37.74394]]}},{"type":"Feature","properties":{"name":"Cooperstown Road","road_class":"unclassified","surface":"gravel","source":"Caltrans All Roads + OpenStreetMap explicit surface","source_detail":"osm way 1275791950; Caltrans All Roads public-network geometry match","source_tile":"169/395","public_network_source":"Caltrans All Roads (ARNOLD/HPMS)","surface_source":"OpenStreetMap explicit surface tag","caltrans_match_coverage":1.0,"verified_length_m":958},"geometry":{"type":"LineString","coordinates":[[-120.55016,37.74397],[-120.55002,37.74401],[-120.54989,37.74403],[-120.54976,37.74405],[-120.54958,37.74407],[-120.54908,37.74413],[-120.54883,37.74415],[-120.54846,37.74418],[-120.5483,37.74419],[-120.54814,37.74419],[-120.54788,37.7442],[-120.54761,37.74419],[-120.54748,37.74418],[-120.54736,37.74416],[-120.54713,37.74411],[-120.54689,37.74405],[-120.54668,37.74399],[-120.54645,37.74394],[-120.54623,37.7439],[-120.54605,37.74388],[-120.54577,37.74386],[-120.54553,37.74383],[-120.54523,37.74374],[-120.54499,37.74362],[-120.54483,37.74352],[-120.54444,37.74321],[-120.54418,37.74302],[-120.54394,37.74288],[-120.54313,37.74248],[-120.54267,37.74228],[-120.54252,37.7422],[-120.54238,37.74211],[-120.54232,37.74203],[-120.54225,37.74188],[-120.5422,37.74171],[-120.54209,37.74142],[-120.54198,37.74114],[-120.54186,37.74085],[-120.54174,37.7406],[-120.54164,37.74036]]}},{"type":"Feature","properties":{"name":"Cooperstown Road","road_class":"unclassified","surface":"gravel","source":"Caltrans All Roads + OpenStreetMap explicit surface","source_detail":"osm way 1096164072; Caltrans All Roads public-network geometry match","source_tile":"169/396","public_network_source":"Caltrans All Roads (ARNOLD/HPMS)","surface_source":"OpenStreetMap explicit surface tag","caltrans_match_coverage":1.0,"verified_length_m":2264},"geometry":{"type":"LineString","coordinates":[[-120.5202,37.71867],[-120.51997,37.71828],[-120.51913,37.7167],[-120.51785,37.71581],[-120.51659,37.71491],[-120.51613,37.7146],[-120.51516,37.71397],[-120.51266,37.7124],[-120.51178,37.71213],[-120.51113,37.71191],[-120.51051,37.7117],[-120.50974,37.71142],[-120.50872,37.71102],[-120.50708,37.7103],[-120.50366,37.70882],[-120.50327,37.70865],[-120.50288,37.70848],[-120.50205,37.70811],[-120.50158,37.70788],[-120.50148,37.70783],[-120.5009,37.70755],[-120.50047,37.70735],[-120.50003,37.70719],[-120.49971,37.7071]]}}]}