{"type":"FeatureCollection","features":[{"type":"Feature","properties":{"name":"West Gale Avenue","road_class":"unclassified","surface":"unpaved","source":"Caltrans All Roads + OpenStreetMap explicit surface","source_detail":"osm way 10320323; Caltrans All Roads public-network geometry match","source_tile":"169/401","public_network_source":"Caltrans All Roads (ARNOLD/HPMS)","surface_source":"OpenStreetMap explicit surface tag","caltrans_match_coverage":1.0,"verified_length_m":3104},"geometry":{"type":"LineString","coordinates":[[-120.31923,36.18027],[-120.3349,36.18011],[-120.3369,36.18009],[-120.35377,36.17998]]}},{"type":"Feature","properties":{"name":"South Joaquin Ridge Lookout Road","road_class":"track","surface":"gravel","source":"Caltrans All Roads + OpenStreetMap explicit surface","source_detail":"osm way 10346864; Caltrans All Roads public-network geometry match","source_tile":"169/401","public_network_source":"Caltrans All Roads (ARNOLD/HPMS)","surface_source":"OpenStreetMap explicit surface tag","caltrans_match_coverage":0.971,"verified_length_m":4622},"geometry":{"type":"LineString","coordinates":[[-120.40011,36.27489],[-120.40027,36.27492],[-120.40042,36.27495],[-120.40101,36.27541],[-120.40107,36.27564],[-120.40121,36.27587],[-120.40144,36.27656],[-120.40178,36.2767],[-120.40274,36.27711],[-120.40305,36.27814],[-120.40299,36.27944],[-120.40285,36.2801],[-120.40288,36.2807],[-120.40316,36.28193],[-120.4033,36.28281],[-120.40358,36.28338],[-120.40415,36.28399],[-120.40426,36.28422],[-120.40421,36.28461],[-120.40412,36.2853],[-120.40384,36.28527],[-120.40316,36.28484],[-120.40293,36.28482],[-120.40284,36.28493],[-120.40293,36.28525],[-120.40389,36.2863],[-120.40522,36.28688],[-120.40539,36.28715],[-120.40547,36.2875],[-120.40593,36.28789],[-120.40609,36.28942],[-120.40632,36.29008],[-120.40629,36.29052],[-120.40607,36.2907],[-120.40609,36.29113],[-120.40635,36.29152],[-120.40728,36.29239],[-120.40765,36.29306],[-120.40773,36.29308],[-120.4081,36.29402],[-120.40847,36.29454],[-120.4085,36.29482],[-120.40903,36.29608],[-120.40977,36.29677],[-120.4103,36.29745],[-120.41036,36.29763],[-120.41073,36.29802],[-120.41203,36.29876],[-120.41225,36.29969],[-120.41248,36.30022],[-120.41245,36.30047],[-120.41157,36.30079],[-120.41143,36.30107],[-120.41084,36.30146],[-120.4105,36.30201],[-120.40909,36.30274],[-120.40824,36.30299],[-120.4068,36.30317],[-120.40552,36.304],[-120.40431,36.30511],[-120.40386,36.30533],[-120.40369,36.30547],[-120.40356,36.30547],[-120.40346,36.30523],[-120.40355,36.30503],[-120.40357,36.30471],[-120.4035,36.30441],[-120.40343,36.30434]]}}]}