{"type":"FeatureCollection","features":[{"type":"Feature","properties":{"name":"Slacks Canyon Road","road_class":"unclassified","surface":"unpaved","source":"Caltrans All Roads + OpenStreetMap explicit surface","source_detail":"osm way 455179980; Caltrans All Roads public-network geometry match","source_tile":"169/402","public_network_source":"Caltrans All Roads (ARNOLD/HPMS)","surface_source":"OpenStreetMap explicit surface tag","caltrans_match_coverage":1.0,"verified_length_m":1037},"geometry":{"type":"LineString","coordinates":[[-120.58185,36.01125],[-120.58204,36.01131],[-120.58227,36.01138],[-120.58246,36.01143],[-120.58264,36.01146],[-120.58279,36.0115],[-120.58324,36.01161],[-120.58335,36.01167],[-120.58363,36.01184],[-120.58394,36.01205],[-120.58408,36.01216],[-120.58419,36.0123],[-120.58432,36.01245],[-120.58444,36.01254],[-120.58463,36.01269],[-120.58477,36.01279],[-120.58498,36.01289],[-120.58521,36.013],[-120.58542,36.01312],[-120.58564,36.01321],[-120.58584,36.01331],[-120.58603,36.01342],[-120.5862,36.01354],[-120.58632,36.01366],[-120.5864,36.01374],[-120.5865,36.01387],[-120.58655,36.01395],[-120.58671,36.01421],[-120.58686,36.01441],[-120.58697,36.01454],[-120.58707,36.01464],[-120.58728,36.01483],[-120.58751,36.01509],[-120.58776,36.0154],[-120.58801,36.01571],[-120.58813,36.01582],[-120.58826,36.01593],[-120.58846,36.01607],[-120.58867,36.01616],[-120.58878,36.0162],[-120.5889,36.01622],[-120.58901,36.01623],[-120.58927,36.01623],[-120.58965,36.01624],[-120.58979,36.01625],[-120.58992,36.01627],[-120.59011,36.01633],[-120.59049,36.01649],[-120.59068,36.01659]]}},{"type":"Feature","properties":{"name":"Parkfield Grade","road_class":"unclassified","surface":"gravel","source":"Caltrans All Roads + OpenStreetMap explicit surface","source_detail":"osm way 10329315; Caltrans All Roads public-network geometry match","source_tile":"169/402","public_network_source":"Caltrans All Roads (ARNOLD/HPMS)","surface_source":"OpenStreetMap explicit surface tag","caltrans_match_coverage":1.0,"verified_length_m":2178},"geometry":{"type":"LineString","coordinates":[[-120.47253,36.01063],[-120.47216,36.01077],[-120.47198,36.01073],[-120.47189,36.01065],[-120.47186,36.01048],[-120.47199,36.00992],[-120.4721,36.00982],[-120.47213,36.00967],[-120.47185,36.00932],[-120.47169,36.00927],[-120.47134,36.00931],[-120.47117,36.00924],[-120.47112,36.00905],[-120.47113,36.00876],[-120.47104,36.00827],[-120.47117,36.00814],[-120.47141,36.0081],[-120.47222,36.00805],[-120.47247,36.00793],[-120.47263,36.00782],[-120.47269,36.0077],[-120.47287,36.00715],[-120.47297,36.00675],[-120.47297,36.00656],[-120.47262,36.00594],[-120.47265,36.00521],[-120.47241,36.00513],[-120.47186,36.00536],[-120.47166,36.00503],[-120.47173,36.00455],[-120.47249,36.00386],[-120.47264,36.00337],[-120.47293,36.00316],[-120.47276,36.00284],[-120.47305,36.0024],[-120.47316,36.00233],[-120.47311,36.00204],[-120.47272,36.00163],[-120.47245,36.00131],[-120.4721,36.00116],[-120.47204,36.00099],[-120.47218,36.00077],[-120.47231,36.00048],[-120.47226,36.00024],[-120.47205,36.00009],[-120.47187,36.00005],[-120.47162,36.00009],[-120.47108,36.00002],[-120.47098,35.9999],[-120.47108,35.9997],[-120.47111,35.99946],[-120.47111,35.99892],[-120.47124,35.99882],[-120.47149,35.99884],[-120.47172,35.99879],[-120.47217,35.9984],[-120.47227,35.99823],[-120.47202,35.99784],[-120.47172,35.9977],[-120.47121,35.99716],[-120.47112,35.99704],[-120.47104,35.99686]]}},{"type":"Feature","properties":{"name":"Ranchita Canyon Road","road_class":"unclassified","surface":"unpaved","source":"Caltrans All Roads + OpenStreetMap explicit surface","source_detail":"osm way 10463634; Caltrans All Roads public-network geometry match","source_tile":"169/402","public_network_source":"Caltrans All Roads (ARNOLD/HPMS)","surface_source":"OpenStreetMap explicit surface tag","caltrans_match_coverage":1.0,"verified_length_m":1679},"geometry":{"type":"LineString","coordinates":[[-120.5839,35.79072],[-120.5836,35.79118],[-120.58356,35.79132],[-120.58355,35.79137],[-120.58351,35.79192],[-120.58344,35.79276],[-120.58348,35.79326],[-120.58355,35.7943],[-120.58353,35.79717],[-120.58362,35.79788],[-120.58376,35.79894],[-120.58361,35.79951],[-120.58349,35.80032],[-120.58259,35.80253],[-120.58242,35.80345],[-120.58196,35.80469],[-120.58196,35.80501],[-120.58202,35.80562]]}},{"type":"Feature","properties":{"name":"Parkfield-Coalinga Road","road_class":"unclassified","surface":"gravel","source":"Caltrans All Roads + OpenStreetMap explicit surface","source_detail":"osm way 81597165; Caltrans All Roads public-network geometry match","source_tile":"169/402","public_network_source":"Caltrans All Roads (ARNOLD/HPMS)","surface_source":"OpenStreetMap explicit surface tag","caltrans_match_coverage":1.0,"verified_length_m":6569},"geometry":{"type":"LineString","coordinates":[[-120.47589,35.95355],[-120.47604,35.95399],[-120.47608,35.9542],[-120.47634,35.9549],[-120.47631,35.95518],[-120.47604,35.95549],[-120.47631,35.95628],[-120.47637,35.95682],[-120.47632,35.95703],[-120.47602,35.95751],[-120.47603,35.95766],[-120.47636,35.95854],[-120.47641,35.95902],[-120.47632,35.96024],[-120.47574,35.96147],[-120.47572,35.96164],[-120.4759,35.96203],[-120.47593,35.96225],[-120.47556,35.9637],[-120.4752,35.96409],[-120.47478,35.96437],[-120.47362,35.96464],[-120.47324,35.96479],[-120.47307,35.96491],[-120.47299,35.96506],[-120.47305,35.96545],[-120.47296,35.96596],[-120.47312,35.96631],[-120.47311,35.96688],[-120.47303,35.96702],[-120.4729,35.96711],[-120.47269,35.96716],[-120.47196,35.96727],[-120.4718,35.96739],[-120.47149,35.96791],[-120.47097,35.96828],[-120.47089,35.96846],[-120.47084,35.96883],[-120.4706,35.96913],[-120.46943,35.96966],[-120.46909,35.96992],[-120.46899,35.97016],[-120.46896,35.97041],[-120.46916,35.97109],[-120.46905,35.97178],[-120.46892,35.97187],[-120.46826,35.97192],[-120.46805,35.97201],[-120.46751,35.97234],[-120.46742,35.97248],[-120.46742,35.97283],[-120.46666,35.97352],[-120.46624,35.97357],[-120.46565,35.97377],[-120.46472,35.97384],[-120.46452,35.97394],[-120.46438,35.9741],[-120.46423,35.97441],[-120.46409,35.97449],[-120.46354,35.97449],[-120.463,35.9748],[-120.46252,35.97497],[-120.46231,35.97505],[-120.46171,35.9755],[-120.46175,35.97589],[-120.46138,35.97623],[-120.46111,35.97695],[-120.46093,35.9771],[-120.46071,35.9772],[-120.45996,35.97724],[-120.45976,35.9773],[-120.45924,35.97771],[-120.45925,35.97809],[-120.45919,35.97823],[-120.45867,35.97853],[-120.45833,35.97882],[-120.4581,35.97888],[-120.45759,35.97891],[-120.45712,35.97904],[-120.45657,35.97927],[-120.45565,35.97943],[-120.4554,35.97946],[-120.45512,35.97947],[-120.45484,35.97947],[-120.45465,35.97945],[-120.45448,35.97946],[-120.45441,35.97951],[-120.4544,35.97967],[-120.45449,35.9798],[-120.45454,35.97988],[-120.45456,35.97994],[-120.45456,35.98006],[-120.45458,35.98017],[-120.4547,35.98029],[-120.4548,35.98031],[-120.45507,35.98038],[-120.45552,35.98067],[-120.45592,35.98075],[-120.45608,35.98086],[-120.45633,35.98114],[-120.45668,35.98137],[-120.45689,35.98144],[-120.45743,35.98132],[-120.45798,35.98152],[-120.45814,35.98185],[-120.45806,35.98228],[-120.45795,35.98258],[-120.45759,35.98323],[-120.45758,35.98366],[-120.45753,35.98385],[-120.45736,35.98417],[-120.45767,35.98468],[-120.45777,35.98518],[-120.45812,35.98548],[-120.45804,35.98572],[-120.4588,35.98617],[-120.45923,35.98625],[-120.45957,35.98651],[-120.46037,35.98641],[-120.46062,35.9861],[-120.46183,35.98641],[-120.46192,35.98664],[-120.46179,35.98723],[-120.46181,35.98741],[-120.46198,35.98773],[-120.46202,35.98826],[-120.46183,35.98881],[-120.46184,35.98897],[-120.46216,35.98941],[-120.4629,35.98952],[-120.46308,35.9896],[-120.4634,35.98997],[-120.46375,35.99023],[-120.46397,35.9903],[-120.46466,35.99042],[-120.46525,35.99028],[-120.46583,35.9904],[-120.46596,35.99066],[-120.46594,35.99092],[-120.46608,35.99162],[-120.46659,35.99183],[-120.46695,35.99234],[-120.4673,35.99245],[-120.46743,35.99257],[-120.46749,35.99273],[-120.46751,35.99304],[-120.46758,35.99313]]}},{"type":"Feature","properties":{"name":"Parkfield Grade","road_class":"unclassified","surface":"gravel","source":"Caltrans All Roads + OpenStreetMap explicit surface","source_detail":"osm way 81597178; Caltrans All Roads public-network geometry match","source_tile":"169/402","public_network_source":"Caltrans All Roads (ARNOLD/HPMS)","surface_source":"OpenStreetMap explicit surface tag","caltrans_match_coverage":1.0,"verified_length_m":820},"geometry":{"type":"LineString","coordinates":[[-120.47272,36.01071],[-120.47271,36.01082],[-120.47264,36.01091],[-120.47244,36.01104],[-120.47216,36.01119],[-120.47206,36.01136],[-120.47206,36.01167],[-120.4723,36.01223],[-120.47228,36.01249],[-120.47213,36.01287],[-120.47207,36.01316],[-120.47183,36.01365],[-120.47163,36.01393],[-120.47176,36.01447],[-120.47173,36.01501],[-120.47232,36.01534],[-120.47301,36.01565],[-120.47333,36.01624],[-120.47415,36.0165],[-120.47432,36.01646]]}},{"type":"Feature","properties":{"name":"Slacks Canyon Road","road_class":"unclassified","surface":"unpaved","source":"Caltrans All Roads + OpenStreetMap explicit surface","source_detail":"osm way 368629974; Caltrans All Roads public-network geometry match","source_tile":"169/402","public_network_source":"Caltrans All Roads (ARNOLD/HPMS)","surface_source":"OpenStreetMap explicit surface tag","caltrans_match_coverage":1.0,"verified_length_m":5656},"geometry":{"type":"LineString","coordinates":[[-120.54722,35.96152],[-120.54768,35.96177],[-120.54831,35.96222],[-120.54865,35.96265],[-120.54917,35.96368],[-120.55032,35.96541],[-120.55219,35.9672],[-120.55338,35.96883],[-120.55418,35.97031],[-120.55454,35.97099],[-120.55496,35.97107],[-120.55545,35.97124],[-120.55646,35.97146],[-120.55804,35.97181],[-120.56128,35.97245],[-120.56201,35.97258],[-120.56239,35.97272],[-120.56299,35.97342],[-120.56451,35.97536],[-120.56462,35.97561],[-120.56501,35.97597],[-120.56521,35.97602],[-120.5658,35.97653],[-120.56606,35.97694],[-120.56616,35.97762],[-120.56639,35.97797],[-120.56645,35.97824],[-120.56667,35.97861],[-120.56676,35.97879],[-120.56761,35.98049],[-120.56769,35.98092],[-120.5678,35.98126],[-120.568,35.98254],[-120.56784,35.98398],[-120.56786,35.98463],[-120.56803,35.98513],[-120.56844,35.98566],[-120.56843,35.98603],[-120.56772,35.98703],[-120.56763,35.98758],[-120.56786,35.98827],[-120.56854,35.98947],[-120.56852,35.98979],[-120.5684,35.99007],[-120.56788,35.99113],[-120.56762,35.99156],[-120.56742,35.9921],[-120.56732,35.99239],[-120.56763,35.9933],[-120.56791,35.99397],[-120.56796,35.99423],[-120.56791,35.99449],[-120.56776,35.99464],[-120.56735,35.99477],[-120.56596,35.99536],[-120.56591,35.99566],[-120.56626,35.99613],[-120.56668,35.99674],[-120.56712,35.99687],[-120.56828,35.99843],[-120.56881,35.99894],[-120.56959,35.99905],[-120.57034,35.99931],[-120.57067,35.99962],[-120.57121,35.99996],[-120.57141,36.00045],[-120.57157,36.00083]]}},{"type":"Feature","properties":{"name":"Parkfield-Coalinga Road","road_class":"unclassified","surface":"gravel","source":"Caltrans All Roads + OpenStreetMap explicit surface","source_detail":"osm way 455187557; Caltrans All Roads public-network geometry match","source_tile":"169/402","public_network_source":"Caltrans All Roads (ARNOLD/HPMS)","surface_source":"OpenStreetMap explicit surface tag","caltrans_match_coverage":1.0,"verified_length_m":563},"geometry":{"type":"LineString","coordinates":[[-120.46758,35.99313],[-120.46769,35.99316],[-120.46806,35.99317],[-120.46832,35.99325],[-120.46849,35.99348],[-120.46855,35.99356],[-120.46912,35.99383],[-120.46921,35.9941],[-120.46928,35.99424],[-120.46949,35.99444],[-120.46975,35.99462],[-120.47016,35.99505],[-120.47064,35.99541],[-120.47078,35.99552],[-120.47089,35.99591],[-120.47102,35.99645],[-120.47102,35.99664],[-120.47104,35.99686]]}},{"type":"Feature","properties":{"name":"Old CA 41","road_class":"track","surface":"sand","tracktype":"grade5","source":"Caltrans All Roads + OpenStreetMap explicit surface","source_detail":"osm way 1517944136; Caltrans All Roads public-network geometry match","source_tile":"169/403","public_network_source":"Caltrans All Roads (ARNOLD/HPMS)","surface_source":"OpenStreetMap explicit surface tag","caltrans_match_coverage":1.0,"verified_length_m":947},"geometry":{"type":"LineString","coordinates":[[-120.26861,35.74952],[-120.2727,35.74573],[-120.27554,35.74309]]}},{"type":"Feature","properties":{"name":"Old CA 41","road_class":"track","surface":"sand","tracktype":"grade5","source":"Caltrans All Roads + OpenStreetMap explicit surface","source_detail":"osm way 1517944137; Caltrans All Roads public-network geometry match","source_tile":"169/403","public_network_source":"Caltrans All Roads (ARNOLD/HPMS)","surface_source":"OpenStreetMap explicit surface tag","caltrans_match_coverage":1.0,"verified_length_m":947},"geometry":{"type":"LineString","coordinates":[[-120.27554,35.74309],[-120.27265,35.74568],[-120.26861,35.74952]]}}]}