{"type":"FeatureCollection","features":[{"type":"Feature","properties":{"name":"Old CA 41","road_class":"track","surface":"sand","tracktype":"grade5","source":"Caltrans All Roads + OpenStreetMap explicit surface","source_detail":"osm way 1517944136; Caltrans All Roads public-network geometry match","source_tile":"169/403","public_network_source":"Caltrans All Roads (ARNOLD/HPMS)","surface_source":"OpenStreetMap explicit surface tag","caltrans_match_coverage":1.0,"verified_length_m":947},"geometry":{"type":"LineString","coordinates":[[-120.26861,35.74952],[-120.2727,35.74573],[-120.27554,35.74309]]}},{"type":"Feature","properties":{"name":"Old CA 41","road_class":"track","surface":"sand","tracktype":"grade5","source":"Caltrans All Roads + OpenStreetMap explicit surface","source_detail":"osm way 1517944137; Caltrans All Roads public-network geometry match","source_tile":"169/403","public_network_source":"Caltrans All Roads (ARNOLD/HPMS)","surface_source":"OpenStreetMap explicit surface tag","caltrans_match_coverage":1.0,"verified_length_m":947},"geometry":{"type":"LineString","coordinates":[[-120.27554,35.74309],[-120.27265,35.74568],[-120.26861,35.74952]]}},{"type":"Feature","properties":{"name":"(unnamed public road)","road_class":"unclassified","surface":"unpaved","source":"Caltrans All Roads + OpenStreetMap explicit surface","source_detail":"osm way 10535768; Caltrans All Roads public-network geometry match","source_tile":"169/403","public_network_source":"Caltrans All Roads (ARNOLD/HPMS)","surface_source":"OpenStreetMap explicit surface tag","caltrans_match_coverage":1.0,"verified_length_m":1765},"geometry":{"type":"LineString","coordinates":[[-120.25063,35.56427],[-120.25093,35.56424],[-120.25103,35.56421],[-120.25127,35.56412],[-120.25141,35.56408],[-120.25158,35.56401],[-120.2521,35.56377],[-120.25219,35.56375],[-120.25235,35.56374],[-120.25317,35.56374],[-120.2534,35.56376],[-120.25413,35.56378],[-120.25456,35.56383],[-120.25495,35.56392],[-120.25538,35.56407],[-120.25562,35.56413],[-120.25572,35.56417],[-120.25577,35.56421],[-120.25593,35.56432],[-120.25607,35.56451],[-120.25616,35.56458],[-120.25626,35.56463],[-120.25645,35.5647],[-120.25666,35.56473],[-120.25684,35.56473],[-120.25692,35.56471],[-120.25724,35.56462],[-120.25741,35.56458],[-120.25755,35.56457],[-120.25769,35.56457],[-120.25785,35.56459],[-120.25807,35.56468],[-120.25827,35.56479],[-120.25845,35.5649],[-120.25875,35.56508],[-120.25922,35.56538],[-120.25931,35.56542],[-120.25942,35.56543],[-120.25953,35.56544],[-120.25991,35.56541],[-120.26003,35.56536],[-120.26014,35.56526],[-120.26021,35.56515],[-120.26024,35.56508],[-120.26025,35.565],[-120.26023,35.56484],[-120.26021,35.56478],[-120.26021,35.5646],[-120.26025,35.56448],[-120.26033,35.56434],[-120.2604,35.56426],[-120.26061,35.56409],[-120.26067,35.56406],[-120.26078,35.56401],[-120.26087,35.56399],[-120.26093,35.56398],[-120.26103,35.564],[-120.26109,35.56403],[-120.26117,35.56412],[-120.2612,35.56418],[-120.26122,35.56429],[-120.26121,35.56449],[-120.26121,35.56471],[-120.26125,35.56491],[-120.26135,35.56525],[-120.26143,35.56558],[-120.26157,35.56594],[-120.2617,35.56612],[-120.26183,35.5662],[-120.26188,35.56622],[-120.2621,35.56624],[-120.2622,35.56627],[-120.26239,35.56637],[-120.26249,35.56645],[-120.26257,35.5665],[-120.26297,35.5667],[-120.26307,35.56676],[-120.26316,35.56691],[-120.26323,35.56694],[-120.26332,35.56696],[-120.26338,35.56696],[-120.26346,35.56694],[-120.26356,35.56691],[-120.26368,35.56687],[-120.26401,35.56672],[-120.26414,35.56665],[-120.26433,35.56652],[-120.26441,35.56644],[-120.26472,35.56596],[-120.26484,35.56586],[-120.265,35.56578]]}},{"type":"Feature","properties":{"name":"(unnamed public road)","road_class":"track","surface":"unpaved","source":"Caltrans All Roads + OpenStreetMap explicit surface","source_detail":"osm way 10558063; Caltrans All Roads public-network geometry match","source_tile":"169/403","public_network_source":"Caltrans All Roads (ARNOLD/HPMS)","surface_source":"OpenStreetMap explicit surface tag","caltrans_match_coverage":1.0,"verified_length_m":686},"geometry":{"type":"LineString","coordinates":[[-120.50521,35.70531],[-120.50521,35.70536],[-120.50524,35.70544],[-120.50539,35.70566],[-120.5055,35.70586],[-120.50569,35.7064],[-120.50571,35.70648],[-120.50574,35.7066],[-120.50601,35.70817],[-120.50609,35.70872],[-120.50612,35.70909],[-120.50619,35.70936],[-120.50626,35.70991],[-120.50639,35.71042],[-120.50645,35.71077],[-120.50646,35.71088],[-120.50647,35.71113],[-120.50649,35.71121],[-120.50653,35.71131],[-120.50654,35.71134],[-120.50656,35.71138]]}},{"type":"Feature","properties":{"name":"Hughes Canyon Road","road_class":"unclassified","surface":"unpaved","source":"Caltrans All Roads + OpenStreetMap explicit surface","source_detail":"osm way 10560283; Caltrans All Roads public-network geometry match","source_tile":"169/403","public_network_source":"Caltrans All Roads (ARNOLD/HPMS)","surface_source":"OpenStreetMap explicit surface tag","caltrans_match_coverage":1.0,"verified_length_m":1932},"geometry":{"type":"LineString","coordinates":[[-120.25063,35.56427],[-120.25018,35.56427],[-120.25,35.5643],[-120.24984,35.56433],[-120.24882,35.56459],[-120.24834,35.56466],[-120.24792,35.56475],[-120.24752,35.56481],[-120.24742,35.56481],[-120.24721,35.56479],[-120.24713,35.56479],[-120.24684,35.56485],[-120.24649,35.56494],[-120.24615,35.56508],[-120.24599,35.56516],[-120.24574,35.56532],[-120.24517,35.56562],[-120.24508,35.56568],[-120.24501,35.56575],[-120.24468,35.56614],[-120.24453,35.56644],[-120.24431,35.56673],[-120.2442,35.56683],[-120.24408,35.56689],[-120.24401,35.56694],[-120.24395,35.567],[-120.2439,35.56708],[-120.2438,35.56733],[-120.24367,35.56754],[-120.2435,35.56775],[-120.2433,35.56792],[-120.24305,35.56811],[-120.24283,35.56826],[-120.2426,35.56843],[-120.24185,35.5691],[-120.24157,35.56941],[-120.24146,35.56959],[-120.24125,35.5699],[-120.24115,35.57009],[-120.24099,35.57031],[-120.24084,35.57049],[-120.24074,35.5706],[-120.24008,35.5712],[-120.23994,35.57131],[-120.23971,35.5716],[-120.23963,35.5717],[-120.23937,35.57198],[-120.23928,35.57212],[-120.23921,35.57232],[-120.23913,35.5727],[-120.23905,35.57292],[-120.23897,35.57309],[-120.23885,35.57326],[-120.23881,35.57334],[-120.23878,35.57344],[-120.23876,35.5736],[-120.23876,35.57363],[-120.23876,35.57386],[-120.23877,35.57393],[-120.23889,35.57433],[-120.23893,35.57447],[-120.23892,35.5746],[-120.23888,35.57494],[-120.23888,35.57518],[-120.23888,35.57565],[-120.23889,35.57584],[-120.23893,35.57609],[-120.2391,35.57641],[-120.23913,35.57644],[-120.23921,35.57649]]}},{"type":"Feature","properties":{"name":"Shedd Canyon Road","road_class":"unclassified","surface":"unpaved","source":"Caltrans All Roads + OpenStreetMap explicit surface","source_detail":"osm way 10566957; Caltrans All Roads public-network geometry match","source_tile":"169/403","public_network_source":"Caltrans All Roads (ARNOLD/HPMS)","surface_source":"OpenStreetMap explicit surface tag","caltrans_match_coverage":1.0,"verified_length_m":6535},"geometry":{"type":"LineString","coordinates":[[-120.41015,35.5308],[-120.41025,35.53114],[-120.4109,35.5335],[-120.41115,35.53462],[-120.41125,35.53531],[-120.41112,35.53614],[-120.41121,35.53746],[-120.41096,35.53886],[-120.411,35.53921],[-120.41164,35.54084],[-120.41283,35.5424],[-120.41321,35.54325],[-120.41439,35.5471],[-120.41522,35.54933],[-120.41618,35.5517],[-120.41626,35.55216],[-120.41621,35.55265],[-120.41585,35.55323],[-120.41501,35.55407],[-120.41424,35.55472],[-120.4134,35.55524],[-120.4132,35.55547],[-120.41271,35.55626],[-120.41211,35.55725],[-120.41186,35.5579],[-120.41167,35.55912],[-120.41151,35.56075],[-120.41162,35.56114],[-120.41194,35.5616],[-120.41212,35.56181],[-120.41225,35.56196],[-120.41353,35.5629],[-120.41489,35.56457],[-120.41505,35.56483],[-120.41528,35.56543],[-120.41543,35.56643],[-120.41565,35.5669],[-120.41949,35.57194],[-120.42024,35.57283],[-120.42081,35.57341],[-120.42278,35.57517],[-120.42312,35.5757],[-120.42361,35.57683],[-120.42402,35.57754],[-120.42412,35.57825],[-120.42421,35.57847],[-120.42544,35.58017],[-120.42691,35.58199],[-120.42737,35.58253],[-120.42737,35.58259],[-120.42783,35.58314],[-120.4279,35.58321],[-120.42792,35.58324],[-120.42842,35.5835]]}},{"type":"Feature","properties":{"name":"Cammatti Shandon Road","road_class":"unclassified","surface":"unpaved","source":"Caltrans All Roads + OpenStreetMap explicit surface","source_detail":"osm way 10571765; Caltrans All Roads public-network geometry match","source_tile":"169/403","public_network_source":"Caltrans All Roads (ARNOLD/HPMS)","surface_source":"OpenStreetMap explicit surface tag","caltrans_match_coverage":1.0,"verified_length_m":1536},"geometry":{"type":"LineString","coordinates":[[-120.23658,35.54848],[-120.23702,35.54856],[-120.2372,35.54861],[-120.23723,35.54862],[-120.23742,35.54864],[-120.23764,35.54863],[-120.23782,35.54861],[-120.23877,35.54834],[-120.23896,35.5483],[-120.23919,35.54828],[-120.23938,35.54827],[-120.23963,35.54828],[-120.2399,35.5483],[-120.23998,35.54832],[-120.24015,35.5484],[-120.24066,35.54875],[-120.24142,35.54939],[-120.2416,35.54957],[-120.24169,35.5497],[-120.24174,35.54977],[-120.24179,35.54986],[-120.24183,35.54996],[-120.242,35.55036],[-120.24208,35.55052],[-120.24212,35.5506],[-120.24222,35.55082],[-120.24238,35.55114],[-120.24272,35.55159],[-120.24342,35.55255],[-120.24437,35.55385],[-120.24445,35.55393],[-120.24456,35.554],[-120.24478,35.55412],[-120.24511,35.55432],[-120.24625,35.55493],[-120.24636,35.55499],[-120.24648,35.55502],[-120.24667,35.55502],[-120.24707,35.55499],[-120.24801,35.55496],[-120.24921,35.55491]]}},{"type":"Feature","properties":{"name":"Camatta Shandon Road","road_class":"unclassified","surface":"unpaved","source":"Caltrans All Roads + OpenStreetMap explicit surface","source_detail":"osm way 10571768; Caltrans All Roads public-network geometry match","source_tile":"169/403","public_network_source":"Caltrans All Roads (ARNOLD/HPMS)","surface_source":"OpenStreetMap explicit surface tag","caltrans_match_coverage":1.0,"verified_length_m":867},"geometry":{"type":"LineString","coordinates":[[-120.265,35.56578],[-120.26518,35.56584],[-120.26545,35.56593],[-120.26605,35.56618],[-120.26608,35.56619],[-120.26662,35.5664],[-120.26689,35.56655],[-120.26721,35.5668],[-120.26766,35.56712],[-120.26794,35.5673],[-120.26856,35.56766],[-120.26878,35.5678],[-120.26942,35.56824],[-120.26957,35.56833],[-120.27006,35.56867],[-120.27187,35.56973],[-120.27221,35.56992],[-120.27243,35.57003],[-120.27284,35.57021]]}},{"type":"Feature","properties":{"name":"Cammati-Shandon Road","road_class":"unclassified","surface":"unpaved","source":"Caltrans All Roads + OpenStreetMap explicit surface","source_detail":"osm way 10574060; Caltrans All Roads public-network geometry match","source_tile":"169/403","public_network_source":"Caltrans All Roads (ARNOLD/HPMS)","surface_source":"OpenStreetMap explicit surface tag","caltrans_match_coverage":1.0,"verified_length_m":2896},"geometry":{"type":"LineString","coordinates":[[-120.27284,35.57021],[-120.27358,35.57055],[-120.274,35.57073],[-120.27423,35.57084],[-120.27528,35.5714],[-120.27609,35.57182],[-120.27689,35.57226],[-120.27713,35.57242],[-120.27756,35.57274],[-120.27786,35.57292],[-120.27828,35.57314],[-120.27879,35.5734],[-120.27917,35.57359],[-120.27952,35.57371],[-120.27986,35.57379],[-120.28021,35.57385],[-120.28046,35.57392],[-120.28067,35.57402],[-120.28074,35.57407],[-120.28086,35.57412],[-120.28116,35.57424],[-120.2813,35.57427],[-120.28148,35.57428],[-120.28222,35.57425],[-120.28256,35.57425],[-120.2827,35.57426],[-120.2829,35.5743],[-120.2831,35.57436],[-120.2832,35.57442],[-120.28335,35.5745],[-120.28348,35.5746],[-120.28354,35.57465],[-120.28362,35.57471],[-120.28372,35.57477],[-120.28385,35.57485],[-120.28402,35.57498],[-120.28413,35.57509],[-120.28419,35.57516],[-120.28436,35.57538],[-120.28459,35.57569],[-120.28526,35.57654],[-120.28551,35.57681],[-120.28567,35.57697],[-120.28607,35.57736],[-120.28643,35.57768],[-120.28745,35.57847],[-120.28773,35.57871],[-120.2886,35.57947],[-120.28905,35.57977],[-120.2898,35.58022],[-120.28993,35.5803],[-120.29006,35.5804],[-120.29014,35.58049],[-120.29033,35.58072],[-120.29054,35.58095],[-120.29106,35.58145],[-120.29149,35.58182],[-120.29201,35.58239],[-120.29224,35.5827],[-120.29235,35.58289],[-120.29259,35.58322],[-120.29268,35.58338],[-120.29288,35.5836],[-120.29357,35.58427],[-120.2939,35.58458],[-120.29432,35.58502],[-120.29461,35.58529],[-120.29482,35.58545],[-120.29509,35.58561],[-120.29529,35.5857],[-120.29537,35.58573],[-120.29586,35.5859],[-120.29605,35.58598],[-120.29617,35.58603],[-120.29631,35.5861],[-120.29664,35.58628],[-120.29667,35.5863],[-120.29678,35.58635]]}},{"type":"Feature","properties":{"name":"Cammati-Shandon Road","road_class":"unclassified","surface":"unpaved","source":"Caltrans All Roads + OpenStreetMap explicit surface","source_detail":"osm way 326304715; Caltrans All Roads public-network geometry match","source_tile":"169/403","public_network_source":"Caltrans All Roads (ARNOLD/HPMS)","surface_source":"OpenStreetMap explicit surface tag","caltrans_match_coverage":1.0,"verified_length_m":2052},"geometry":{"type":"LineString","coordinates":[[-120.24921,35.55491],[-120.24958,35.5549],[-120.25177,35.5548],[-120.25215,35.5548],[-120.25274,35.55482],[-120.2536,35.55486],[-120.25405,35.55485],[-120.25428,35.55485],[-120.25437,35.55486],[-120.2545,35.5549],[-120.2546,35.55493],[-120.2547,35.55499],[-120.2549,35.55515],[-120.25505,35.55531],[-120.25525,35.55558],[-120.25564,35.55605],[-120.25567,35.55608],[-120.25581,35.55623],[-120.25592,35.55637],[-120.25598,35.55645],[-120.25613,35.55665],[-120.25634,35.55696],[-120.25642,35.55708],[-120.25676,35.55749],[-120.25688,35.55762],[-120.25705,35.55784],[-120.25716,35.55797],[-120.25748,35.55848],[-120.25791,35.55923],[-120.25815,35.55964],[-120.25875,35.56072],[-120.2589,35.56102],[-120.2591,35.5614],[-120.25951,35.5621],[-120.25979,35.56248],[-120.26016,35.56285],[-120.26046,35.56309],[-120.26064,35.56321],[-120.26094,35.56338],[-120.26115,35.56348],[-120.26133,35.56358],[-120.26176,35.56386],[-120.26216,35.5641],[-120.2629,35.56452],[-120.26379,35.56504],[-120.26425,35.56531],[-120.26477,35.56566],[-120.26485,35.56571],[-120.265,35.56578]]}},{"type":"Feature","properties":{"name":"Hughes Canyon Road","road_class":"unclassified","surface":"unpaved","source":"Caltrans All Roads + OpenStreetMap explicit surface","source_detail":"osm way 326834150; Caltrans All Roads public-network geometry match","source_tile":"170/403","public_network_source":"Caltrans All Roads (ARNOLD/HPMS)","surface_source":"OpenStreetMap explicit surface tag","caltrans_match_coverage":1.0,"verified_length_m":5117},"geometry":{"type":"LineString","coordinates":[[-120.23845,35.58118],[-120.23843,35.58185],[-120.23846,35.58196],[-120.23859,35.58221],[-120.23861,35.58231],[-120.23864,35.58244],[-120.23862,35.58314],[-120.2386,35.58326],[-120.23856,35.58343],[-120.23851,35.58391],[-120.23846,35.58415],[-120.23845,35.58445],[-120.23848,35.58476],[-120.2385,35.58492],[-120.23853,35.58503],[-120.23856,35.58509],[-120.23887,35.58547],[-120.23894,35.5856],[-120.23901,35.58579],[-120.23904,35.58594],[-120.23903,35.58609],[-120.23898,35.58628],[-120.23893,35.58646],[-120.23889,35.58673],[-120.23889,35.58708],[-120.23889,35.58725],[-120.23892,35.58741],[-120.239,35.5876],[-120.2392,35.58792],[-120.23927,35.58814],[-120.23944,35.58837],[-120.23947,35.58845],[-120.23949,35.58855],[-120.23954,35.58862],[-120.23967,35.58875],[-120.23988,35.58899],[-120.23996,35.58911],[-120.24015,35.58933],[-120.24021,35.58937],[-120.24029,35.58943],[-120.24039,35.58954],[-120.24049,35.58967],[-120.24055,35.58976],[-120.24063,35.58993],[-120.24067,35.58999],[-120.24068,35.59005],[-120.24071,35.59013],[-120.24074,35.59025],[-120.24081,35.59047],[-120.24086,35.59058],[-120.24093,35.59072],[-120.24099,35.59075],[-120.24117,35.59083],[-120.24126,35.59088],[-120.24134,35.59095],[-120.2414,35.59104],[-120.24143,35.59114],[-120.24149,35.59128],[-120.2415,35.5914],[-120.24139,35.59171],[-120.24137,35.59189],[-120.24142,35.59208],[-120.24144,35.59233],[-120.24141,35.59243],[-120.24122,35.59281],[-120.2412,35.59305],[-120.24115,35.59318],[-120.24092,35.59353],[-120.24074,35.5938],[-120.24065,35.5939],[-120.24058,35.59404],[-120.24057,35.59425],[-120.24047,35.59439],[-120.2404,35.59444],[-120.24017,35.59462],[-120.24006,35.59473],[-120.23995,35.59485],[-120.23989,35.59494],[-120.23983,35.59511],[-120.23986,35.59522],[-120.23987,35.59528],[-120.23991,35.59539],[-120.23991,35.59551],[-120.23981,35.5957],[-120.23955,35.59622],[-120.23947,35.59639],[-120.23935,35.5966],[-120.23926,35.5967],[-120.23924,35.59674],[-120.23913,35.59702],[-120.2391,35.59708],[-120.23899,35.5972],[-120.23895,35.59728],[-120.23893,35.59734],[-120.23893,35.59759],[-120.23896,35.59768],[-120.23897,35.59773],[-120.23902,35.59788],[-120.23909,35.59802],[-120.23933,35.5983],[-120.23946,35.59847],[-120.23954,35.59859],[-120.23956,35.59869],[-120.23966,35.59896],[-120.2397,35.59909],[-120.2397,35.59935],[-120.23954,35.59958],[-120.23947,35.59984],[-120.23937,35.60007],[-120.23922,35.60027],[-120.23913,35.60041],[-120.23897,35.60059],[-120.23876,35.60079],[-120.23856,35.60104],[-120.23846,35.60122],[-120.23827,35.60158],[-120.2382,35.60178],[-120.23815,35.60198],[-120.23804,35.60219],[-120.23798,35.60229],[-120.23793,35.60245],[-120.2379,35.60266],[-120.23786,35.60282],[-120.23773,35.60305],[-120.23741,35.60369],[-120.23736,35.60377],[-120.23727,35.60407],[-120.23723,35.60424],[-120.2372,35.6043],[-120.23716,35.60435],[-120.23708,35.6044],[-120.23698,35.60445],[-120.23686,35.60452],[-120.23671,35.60463],[-120.23661,35.60471],[-120.23625,35.60518],[-120.23622,35.60525],[-120.2362,35.60537],[-120.23618,35.60544],[-120.23606,35.60559],[-120.23597,35.60573],[-120.23583,35.60601],[-120.23572,35.60639],[-120.23541,35.60699],[-120.23534,35.6072],[-120.23533,35.60738],[-120.23535,35.60748],[-120.23541,35.60758],[-120.23547,35.60766],[-120.23569,35.6078],[-120.23593,35.60795],[-120.23608,35.60814],[-120.23614,35.60826],[-120.23618,35.60838],[-120.2362,35.60852],[-120.23619,35.60884],[-120.23628,35.60962],[-120.23635,35.60994],[-120.23635,35.6101],[-120.23638,35.61034],[-120.23648,35.61067],[-120.2365,35.6113],[-120.23653,35.61142],[-120.23672,35.6118],[-120.23681,35.61192],[-120.23692,35.61207],[-120.23694,35.61214],[-120.23693,35.6122],[-120.23686,35.6123],[-120.23673,35.61244],[-120.23669,35.61252],[-120.23668,35.61261],[-120.23669,35.61268],[-120.23674,35.61274],[-120.23682,35.61278],[-120.23722,35.61289],[-120.23734,35.61295],[-120.23738,35.61299],[-120.23739,35.61307],[-120.23736,35.61315],[-120.23711,35.61344],[-120.23708,35.61351],[-120.23708,35.61358],[-120.23709,35.61362],[-120.23711,35.61365],[-120.23717,35.6137],[-120.23734,35.61378],[-120.23756,35.61384],[-120.23793,35.61388],[-120.23805,35.61389],[-120.23828,35.61393],[-120.23869,35.61406],[-120.23882,35.61412],[-120.23891,35.61417],[-120.23899,35.61427],[-120.23914,35.61463],[-120.23924,35.61475],[-120.23943,35.61479],[-120.23977,35.61479],[-120.24014,35.6148],[-120.24019,35.61479],[-120.24024,35.61476],[-120.24029,35.6147],[-120.24028,35.61492],[-120.24017,35.6149],[-120.24009,35.61488],[-120.2386,35.61483],[-120.23796,35.61491],[-120.23737,35.61484],[-120.23724,35.61486],[-120.23716,35.61489],[-120.23707,35.61495],[-120.23691,35.61512],[-120.23683,35.61517],[-120.23673,35.6152],[-120.23663,35.61519],[-120.23633,35.61511],[-120.23609,35.61502],[-120.23592,35.61492],[-120.23586,35.6149],[-120.2358,35.6149],[-120.23571,35.61492],[-120.23563,35.61497],[-120.23554,35.61503],[-120.23506,35.61554],[-120.23462,35.61586],[-120.23445,35.61594],[-120.23436,35.616],[-120.23408,35.61617],[-120.23381,35.61639],[-120.23374,35.61649],[-120.23355,35.61676],[-120.23329,35.61714],[-120.23325,35.6172],[-120.23319,35.61728]]}},{"type":"Feature","properties":{"name":"(unnamed public road)","road_class":"unclassified","surface":"unpaved","source":"Caltrans All Roads + OpenStreetMap explicit surface","source_detail":"osm way 329381247; Caltrans All Roads public-network geometry match","source_tile":"169/403","public_network_source":"Caltrans All Roads (ARNOLD/HPMS)","surface_source":"OpenStreetMap explicit surface tag","caltrans_match_coverage":1.0,"verified_length_m":514},"geometry":{"type":"LineString","coordinates":[[-120.40454,35.53069],[-120.40744,35.5306],[-120.40904,35.53057],[-120.40995,35.53067],[-120.41015,35.5308]]}},{"type":"Feature","properties":{"name":"Shedd Canyon Road","road_class":"track","surface":"unpaved","source":"Caltrans All Roads + OpenStreetMap explicit surface","source_detail":"osm way 334919610; Caltrans All Roads public-network geometry match","source_tile":"169/403","public_network_source":"Caltrans All Roads (ARNOLD/HPMS)","surface_source":"OpenStreetMap explicit surface tag","caltrans_match_coverage":0.957,"verified_length_m":5297},"geometry":{"type":"LineString","coordinates":[[-120.38928,35.49067],[-120.38896,35.49159],[-120.38868,35.4918],[-120.38812,35.49206],[-120.38805,35.49219],[-120.38818,35.4932],[-120.38869,35.49475],[-120.38887,35.49576],[-120.38906,35.49612],[-120.38967,35.49671],[-120.38981,35.4968],[-120.39011,35.49695],[-120.39043,35.49713],[-120.39063,35.49727],[-120.39071,35.49736],[-120.39074,35.49745],[-120.39059,35.49755],[-120.39011,35.49752],[-120.38993,35.49758],[-120.3896,35.49774],[-120.38892,35.49831],[-120.38893,35.49859],[-120.38909,35.49905],[-120.39158,35.49907],[-120.39185,35.4991],[-120.39206,35.49927],[-120.39212,35.49943],[-120.39256,35.50055],[-120.39275,35.50104],[-120.393,35.50164],[-120.39321,35.50219],[-120.39351,35.50291],[-120.39379,35.50361],[-120.39403,35.50426],[-120.39414,35.50447],[-120.39422,35.50451],[-120.39428,35.50457],[-120.3944,35.50478],[-120.39458,35.50506],[-120.3951,35.50601],[-120.39568,35.50707],[-120.39654,35.50868],[-120.39667,35.50893],[-120.39684,35.50924],[-120.39716,35.50984],[-120.39756,35.51055],[-120.39767,35.51076],[-120.39776,35.51092],[-120.39789,35.51118],[-120.39793,35.51142],[-120.39794,35.51191],[-120.39792,35.51206],[-120.39784,35.51226],[-120.39771,35.51255],[-120.39764,35.51276],[-120.39756,35.51282],[-120.39746,35.51298],[-120.39732,35.51313],[-120.39718,35.51329],[-120.39709,35.5134],[-120.39695,35.51355],[-120.39689,35.51369],[-120.39676,35.51398],[-120.39665,35.51427],[-120.39663,35.51438],[-120.39663,35.51449],[-120.39663,35.51461],[-120.39664,35.51468],[-120.39686,35.51541],[-120.3969,35.51564],[-120.39693,35.51649],[-120.39697,35.51658],[-120.39704,35.51667],[-120.39736,35.51728],[-120.39745,35.51744],[-120.39751,35.51757],[-120.39756,35.5177],[-120.39762,35.51787],[-120.39766,35.5181],[-120.39769,35.51842],[-120.3977,35.51879],[-120.39768,35.51899],[-120.39768,35.51913],[-120.39764,35.51936],[-120.3976,35.51954],[-120.3976,35.51968],[-120.39764,35.51974],[-120.39774,35.51987],[-120.39784,35.52004],[-120.39789,35.52016],[-120.39792,35.52026],[-120.398,35.52099],[-120.39805,35.52139],[-120.39814,35.52297],[-120.39817,35.52393],[-120.39819,35.52411],[-120.39836,35.52468],[-120.39845,35.5249],[-120.39857,35.52507],[-120.39865,35.52515],[-120.39895,35.52535],[-120.39921,35.5255],[-120.39948,35.52567],[-120.40022,35.52609],[-120.40065,35.52637],[-120.40165,35.52722],[-120.40199,35.52754],[-120.4022,35.5277],[-120.40232,35.5278],[-120.40292,35.52826],[-120.40319,35.52848],[-120.40331,35.52862],[-120.40338,35.52872],[-120.4035,35.52901],[-120.40387,35.52974],[-120.40431,35.53052],[-120.40437,35.53059],[-120.40454,35.53069]]}},{"type":"Feature","properties":{"name":"Shedd Canyon Road","road_class":"unclassified","surface":"unpaved","source":"Caltrans All Roads + OpenStreetMap explicit surface","source_detail":"osm way 830417427; Caltrans All Roads public-network geometry match","source_tile":"169/403","public_network_source":"Caltrans All Roads (ARNOLD/HPMS)","surface_source":"OpenStreetMap explicit surface tag","caltrans_match_coverage":1.0,"verified_length_m":2938},"geometry":{"type":"LineString","coordinates":[[-120.38451,35.47108],[-120.38446,35.47126],[-120.38441,35.47138],[-120.38319,35.47147],[-120.38267,35.47155],[-120.38231,35.4717],[-120.38216,35.47184],[-120.38196,35.47216],[-120.38154,35.47244],[-120.38139,35.47264],[-120.38102,35.47315],[-120.38108,35.47335],[-120.38173,35.47382],[-120.38214,35.4742],[-120.38246,35.47495],[-120.38267,35.47516],[-120.38297,35.47535],[-120.38357,35.47553],[-120.3839,35.47555],[-120.38414,35.47559],[-120.38456,35.47587],[-120.3846,35.47605],[-120.38456,35.47619],[-120.38428,35.4766],[-120.38427,35.47684],[-120.38434,35.47701],[-120.38448,35.47711],[-120.38482,35.4772],[-120.38538,35.47713],[-120.38569,35.47721],[-120.38614,35.47746],[-120.38655,35.47774],[-120.38666,35.47805],[-120.38674,35.4784],[-120.38669,35.47944],[-120.38688,35.47995],[-120.38683,35.48051],[-120.38698,35.48077],[-120.38762,35.481],[-120.38776,35.48123],[-120.3881,35.48234],[-120.38805,35.48288],[-120.3882,35.48318],[-120.38857,35.48336],[-120.38898,35.48334],[-120.3893,35.48339],[-120.3897,35.48342],[-120.38986,35.48356],[-120.38989,35.48415],[-120.38974,35.48517],[-120.38974,35.48622],[-120.38967,35.48675],[-120.38944,35.4871],[-120.38935,35.48748],[-120.38895,35.48797],[-120.38862,35.48858],[-120.3884,35.48914],[-120.38842,35.48928],[-120.38856,35.4894],[-120.38924,35.48963],[-120.38945,35.48983],[-120.38945,35.49007],[-120.3893,35.49055]]}},{"type":"Feature","properties":{"name":"Old CA 41;Old CA 46","road_class":"track","surface":"compacted","tracktype":"grade4","source":"Caltrans All Roads + OpenStreetMap explicit surface","source_detail":"osm way 1517944116; Caltrans All Roads public-network geometry match","source_tile":"169/403","public_network_source":"Caltrans All Roads (ARNOLD/HPMS)","surface_source":"OpenStreetMap explicit surface tag","caltrans_match_coverage":1.0,"verified_length_m":1800},"geometry":{"type":"LineString","coordinates":[[-120.29721,35.72255],[-120.298,35.72124],[-120.29905,35.71958],[-120.29963,35.71869],[-120.30031,35.71785],[-120.30069,35.71743],[-120.30123,35.71695],[-120.30195,35.71639],[-120.30263,35.71591],[-120.31052,35.71082]]}},{"type":"Feature","properties":{"name":"Old CA 41;Old CA 46","road_class":"track","surface":"compacted","tracktype":"grade4","source":"Caltrans All Roads + OpenStreetMap explicit surface","source_detail":"osm way 1517944117; Caltrans All Roads public-network geometry match","source_tile":"169/403","public_network_source":"Caltrans All Roads (ARNOLD/HPMS)","surface_source":"OpenStreetMap explicit surface tag","caltrans_match_coverage":1.0,"verified_length_m":1551},"geometry":{"type":"LineString","coordinates":[[-120.31052,35.71082],[-120.31108,35.71051],[-120.31256,35.70947],[-120.31422,35.70838],[-120.31616,35.70712],[-120.32006,35.70462],[-120.32148,35.70371],[-120.32202,35.70332],[-120.32247,35.7029],[-120.32296,35.70234],[-120.32336,35.70166]]}},{"type":"Feature","properties":{"name":"Old CA 41;Old CA 46","road_class":"track","surface":"compacted","tracktype":"grade4","source":"Caltrans All Roads + OpenStreetMap explicit surface","source_detail":"osm way 1517944119; Caltrans All Roads public-network geometry match","source_tile":"169/403","public_network_source":"Caltrans All Roads (ARNOLD/HPMS)","surface_source":"OpenStreetMap explicit surface tag","caltrans_match_coverage":1.0,"verified_length_m":1557},"geometry":{"type":"LineString","coordinates":[[-120.32328,35.70152],[-120.32287,35.70218],[-120.32251,35.70273],[-120.322,35.70322],[-120.32152,35.70358],[-120.31605,35.70709],[-120.31306,35.70903],[-120.31104,35.71046],[-120.31052,35.71082]]}},{"type":"Feature","properties":{"name":"Old CA 41;Old CA 46","road_class":"track","surface":"compacted","tracktype":"grade4","source":"Caltrans All Roads + OpenStreetMap explicit surface","source_detail":"osm way 1517944120; Caltrans All Roads public-network geometry match","source_tile":"169/403","public_network_source":"Caltrans All Roads (ARNOLD/HPMS)","surface_source":"OpenStreetMap explicit surface tag","caltrans_match_coverage":1.0,"verified_length_m":676},"geometry":{"type":"LineString","coordinates":[[-120.33612,35.68823],[-120.33684,35.6869],[-120.33738,35.68602],[-120.33956,35.68281]]}},{"type":"Feature","properties":{"name":"Old CA 46","road_class":"track","surface":"sand","tracktype":"grade5","source":"Caltrans All Roads + OpenStreetMap explicit surface","source_detail":"osm way 1517944129; Caltrans All Roads public-network geometry match","source_tile":"169/403","public_network_source":"Caltrans All Roads (ARNOLD/HPMS)","surface_source":"OpenStreetMap explicit surface tag","caltrans_match_coverage":1.0,"verified_length_m":2243},"geometry":{"type":"LineString","coordinates":[[-120.28083,35.7351],[-120.27291,35.73651],[-120.26327,35.73887],[-120.25691,35.74047]]}},{"type":"Feature","properties":{"name":"Old CA 41","road_class":"track","surface":"sand","tracktype":"grade5","source":"Caltrans All Roads + OpenStreetMap explicit surface","source_detail":"osm way 1517944135; Caltrans All Roads public-network geometry match","source_tile":"169/403","public_network_source":"Caltrans All Roads (ARNOLD/HPMS)","surface_source":"OpenStreetMap explicit surface tag","caltrans_match_coverage":1.0,"verified_length_m":1060},"geometry":{"type":"LineString","coordinates":[[-120.28327,35.73588],[-120.28107,35.73791],[-120.27554,35.74309]]}},{"type":"Feature","properties":{"name":"Old CA 41;Old CA 46","road_class":"track","surface":"compacted","tracktype":"grade4","source":"Caltrans All Roads + OpenStreetMap explicit surface","source_detail":"osm way 1517944145; Caltrans All Roads public-network geometry match","source_tile":"169/403","public_network_source":"Caltrans All Roads (ARNOLD/HPMS)","surface_source":"OpenStreetMap explicit surface tag","caltrans_match_coverage":1.0,"verified_length_m":1369},"geometry":{"type":"LineString","coordinates":[[-120.3336,35.69082],[-120.33299,35.69135],[-120.33113,35.69324],[-120.32874,35.69572],[-120.32429,35.69999],[-120.32397,35.70037]]}},{"type":"Feature","properties":{"name":"Old CA 41;Old CA 46","road_class":"track","surface":"compacted","tracktype":"grade4","source":"Caltrans All Roads + OpenStreetMap explicit surface","source_detail":"osm way 1517944147; Caltrans All Roads public-network geometry match","source_tile":"169/403","public_network_source":"Caltrans All Roads (ARNOLD/HPMS)","surface_source":"OpenStreetMap explicit surface tag","caltrans_match_coverage":1.0,"verified_length_m":1368},"geometry":{"type":"LineString","coordinates":[[-120.32407,35.70042],[-120.32435,35.70004],[-120.32479,35.69959],[-120.32897,35.69567],[-120.33305,35.6914],[-120.3336,35.69082]]}}]}