{"type":"FeatureCollection","features":[{"type":"Feature","properties":{"name":"National Forest Development Road 407 Trail","road_class":"track","tracktype":"grade4","source":"OpenStreetMap","source_detail":"osm way 5138323","source_tile":"168/380","surface_inferred":true},"geometry":{"type":"LineString","coordinates":[[-120.7936,42.01761],[-120.79438,42.01741],[-120.79638,42.01706],[-120.79977,42.01653],[-120.80062,42.01645],[-120.80177,42.0164],[-120.80226,42.01648],[-120.80431,42.01696],[-120.805,42.01714],[-120.80628,42.01744],[-120.80773,42.01776],[-120.80881,42.01796],[-120.80922,42.01818],[-120.80938,42.01831],[-120.80996,42.01964],[-120.81005,42.02023],[-120.81029,42.02087],[-120.8104,42.02137],[-120.81038,42.02206],[-120.81039,42.02245],[-120.81057,42.02289],[-120.8109,42.02334],[-120.81104,42.02361],[-120.81113,42.02458],[-120.8112,42.02541],[-120.81113,42.02575],[-120.81089,42.02613],[-120.81035,42.02683],[-120.80972,42.0276],[-120.80926,42.02865],[-120.80908,42.02925],[-120.80838,42.03005],[-120.80848,42.03028],[-120.80884,42.03058],[-120.80908,42.03085],[-120.80916,42.03102],[-120.80918,42.03121],[-120.80897,42.03157],[-120.80876,42.03181],[-120.80852,42.03201],[-120.80839,42.03222],[-120.80856,42.03251],[-120.80868,42.03269],[-120.80864,42.03302],[-120.80845,42.03341],[-120.80771,42.0346],[-120.80726,42.03536],[-120.80718,42.03551],[-120.8072,42.03579],[-120.80757,42.03608],[-120.808,42.03644],[-120.80839,42.03744],[-120.80858,42.03777],[-120.80906,42.0382],[-120.80997,42.03901],[-120.81054,42.03939],[-120.81134,42.03956],[-120.81207,42.03928],[-120.81321,42.03885],[-120.81455,42.03838],[-120.81491,42.03836],[-120.81526,42.03844],[-120.81568,42.03871],[-120.81635,42.03916],[-120.81748,42.04019],[-120.8176,42.04047],[-120.81763,42.04141],[-120.81781,42.04163],[-120.81886,42.04243],[-120.81913,42.04285],[-120.8191,42.04351],[-120.81869,42.04412],[-120.81857,42.04456],[-120.81853,42.04516],[-120.81883,42.04557],[-120.81963,42.04614],[-120.82047,42.04665],[-120.82159,42.04706],[-120.82299,42.04802],[-120.82337,42.04842],[-120.82396,42.04867]]}},{"type":"Feature","properties":{"name":"(unnamed public road)","road_class":"track","tracktype":"grade5","source":"OpenStreetMap","source_detail":"osm way 5138541","source_tile":"168/380","surface_inferred":true},"geometry":{"type":"LineString","coordinates":[[-120.67966,42.03022],[-120.68014,42.03035],[-120.6806,42.03056],[-120.68085,42.03053],[-120.68113,42.03024],[-120.68137,42.0304],[-120.6818,42.03051],[-120.68211,42.03071],[-120.68229,42.03096],[-120.68244,42.0313],[-120.6827,42.03145],[-120.68295,42.03132],[-120.68308,42.03118],[-120.68327,42.0311],[-120.68355,42.03104],[-120.68424,42.03095],[-120.68495,42.03089],[-120.68518,42.03109],[-120.68532,42.03135],[-120.68555,42.03178],[-120.68569,42.03233],[-120.68577,42.03351],[-120.68542,42.03443],[-120.68603,42.03576],[-120.68581,42.03619],[-120.68573,42.0369],[-120.68532,42.03745],[-120.68473,42.03793],[-120.68422,42.03855],[-120.68358,42.0392],[-120.68331,42.04006],[-120.68265,42.04107],[-120.6826,42.04166],[-120.68245,42.04221],[-120.68245,42.04287],[-120.68244,42.04314],[-120.68245,42.04389],[-120.68294,42.04422],[-120.68376,42.04454]]}},{"type":"Feature","properties":{"name":"(unnamed public road)","road_class":"track","source":"OpenStreetMap","source_detail":"osm way 5138735","source_tile":"169/380","surface_inferred":true},"geometry":{"type":"LineString","coordinates":[[-120.58841,42.02492],[-120.58838,42.02549],[-120.58746,42.02737],[-120.58777,42.02799],[-120.58786,42.02803],[-120.58799,42.02831],[-120.58823,42.02847],[-120.58823,42.02856],[-120.58857,42.0289],[-120.58884,42.02954],[-120.58881,42.03046],[-120.58866,42.03084],[-120.58863,42.03153],[-120.58875,42.03169],[-120.58888,42.03233],[-120.58986,42.03315],[-120.59179,42.03404],[-120.59204,42.03423],[-120.59243,42.03512],[-120.59243,42.03569],[-120.59216,42.03601],[-120.59063,42.03702],[-120.59035,42.0372],[-120.59023,42.03738],[-120.58925,42.03731],[-120.58796,42.03752],[-120.5875,42.03718],[-120.58685,42.0369],[-120.58654,42.0369],[-120.58636,42.0369],[-120.58563,42.03718],[-120.5848,42.03773],[-120.58403,42.03807],[-120.58348,42.03811],[-120.58336,42.03812],[-120.58256,42.0381],[-120.58208,42.03799],[-120.58146,42.03764],[-120.58061,42.03729],[-120.5782,42.03693],[-120.57728,42.03654],[-120.57649,42.03588],[-120.57624,42.03547],[-120.57612,42.03446],[-120.57554,42.03359],[-120.57541,42.03302],[-120.57461,42.03183],[-120.57434,42.03101],[-120.57305,42.02918],[-120.57216,42.02851],[-120.5698,42.0276],[-120.56931,42.0273],[-120.56882,42.02687],[-120.56793,42.02573],[-120.56716,42.02522],[-120.56584,42.02474],[-120.56498,42.02451],[-120.564,42.02449],[-120.56278,42.02465],[-120.56238,42.02451],[-120.56225,42.02433],[-120.56112,42.0244],[-120.561,42.0246],[-120.55876,42.026],[-120.55854,42.02643],[-120.55845,42.02689],[-120.55821,42.02737],[-120.55747,42.02806],[-120.5563,42.02886],[-120.55563,42.02937]]}},{"type":"Feature","properties":{"name":"(unnamed public road)","road_class":"track","tracktype":"grade4","source":"OpenStreetMap","source_detail":"osm way 5139142","source_tile":"168/380","surface_inferred":true},"geometry":{"type":"LineString","coordinates":[[-120.82862,42.02279],[-120.82902,42.02245],[-120.82937,42.02202],[-120.82985,42.02195],[-120.83041,42.02197],[-120.83085,42.02192],[-120.83143,42.02176],[-120.8319,42.02184],[-120.83239,42.02173],[-120.83271,42.02188],[-120.83293,42.02206],[-120.8333,42.02245],[-120.83462,42.02422],[-120.83566,42.02563],[-120.83597,42.02622],[-120.8366,42.0277],[-120.83683,42.02823],[-120.83718,42.02876],[-120.83796,42.02989],[-120.83888,42.03064],[-120.83977,42.03117],[-120.8415,42.03182],[-120.84193,42.032],[-120.84229,42.03224],[-120.84255,42.03259],[-120.84293,42.03317],[-120.84364,42.03381],[-120.84415,42.03407],[-120.84481,42.03427],[-120.84588,42.03441],[-120.84773,42.03462],[-120.8481,42.03472],[-120.84856,42.03492],[-120.84911,42.03531],[-120.84945,42.03571],[-120.85033,42.03734],[-120.85061,42.03783],[-120.85115,42.03878],[-120.85148,42.03919],[-120.85271,42.04031],[-120.8536,42.04106],[-120.85432,42.04166],[-120.85478,42.0419],[-120.85546,42.04222],[-120.85644,42.04271],[-120.85749,42.04332],[-120.85777,42.04352]]}},{"type":"Feature","properties":{"name":"(unnamed public road)","road_class":"track","tracktype":"grade4","source":"OpenStreetMap","source_detail":"osm way 5141493","source_tile":"168/380","surface_inferred":true},"geometry":{"type":"LineString","coordinates":[[-120.65008,42.03858],[-120.65058,42.03822],[-120.65073,42.03811],[-120.65082,42.03793],[-120.65052,42.03761],[-120.64999,42.03677],[-120.64955,42.03666],[-120.64932,42.03633],[-120.64873,42.03585],[-120.6476,42.03533],[-120.64675,42.03469],[-120.64644,42.03412],[-120.6461,42.03346],[-120.64593,42.03304],[-120.64596,42.03257],[-120.64633,42.0319],[-120.64643,42.03127],[-120.64674,42.03087],[-120.64674,42.03063],[-120.64644,42.03],[-120.64629,42.02968],[-120.64634,42.02935],[-120.64635,42.02907],[-120.64647,42.02869],[-120.64658,42.02838],[-120.6463,42.02798],[-120.64634,42.0272],[-120.64642,42.02704],[-120.64671,42.02687],[-120.64738,42.0266],[-120.64779,42.0263],[-120.64838,42.02578],[-120.64859,42.02523],[-120.64858,42.02483],[-120.64836,42.02433],[-120.64761,42.02365],[-120.64724,42.02322],[-120.6467,42.02226],[-120.64587,42.0218],[-120.64516,42.02152],[-120.6446,42.0213],[-120.64398,42.02105],[-120.64349,42.02092],[-120.64165,42.02145],[-120.63895,42.02133],[-120.63804,42.02154],[-120.63506,42.02286],[-120.63312,42.02446],[-120.63133,42.02577],[-120.6309,42.02603],[-120.62868,42.02761],[-120.6267,42.02903],[-120.62611,42.02953],[-120.62497,42.0305],[-120.62469,42.03075],[-120.62438,42.03092],[-120.62423,42.0312],[-120.62398,42.03137],[-120.62347,42.0316],[-120.62302,42.03169],[-120.62261,42.03191],[-120.62228,42.03193],[-120.62209,42.03214],[-120.62059,42.03298],[-120.61915,42.03397],[-120.61897,42.03419],[-120.61884,42.03461],[-120.61888,42.03596],[-120.61857,42.03665],[-120.61816,42.03683],[-120.61784,42.0371],[-120.61675,42.03749],[-120.6158,42.03751],[-120.61558,42.03763],[-120.61538,42.03804],[-120.61517,42.03848],[-120.61489,42.03898],[-120.61492,42.03952],[-120.61469,42.03988],[-120.61428,42.04136],[-120.61406,42.04203],[-120.61292,42.04261],[-120.61276,42.04293],[-120.61264,42.04294],[-120.61244,42.04284],[-120.61198,42.0428],[-120.61173,42.0427],[-120.61115,42.04197],[-120.61023,42.04197],[-120.60949,42.04179],[-120.60897,42.04184],[-120.60851,42.04204],[-120.60833,42.04273],[-120.60811,42.04298],[-120.60814,42.0433],[-120.60833,42.04357],[-120.6087,42.0438],[-120.60913,42.04394],[-120.60983,42.04369],[-120.61017,42.04378],[-120.61017,42.04401],[-120.60947,42.04456],[-120.60922,42.04501],[-120.60864,42.04707],[-120.6083,42.04739],[-120.60756,42.04758],[-120.60649,42.04739],[-120.60582,42.04751],[-120.60502,42.04801],[-120.60413,42.04829],[-120.60388,42.04845],[-120.60355,42.04842],[-120.60324,42.0481],[-120.60306,42.04801],[-120.60223,42.04808],[-120.60143,42.04833],[-120.60088,42.04842],[-120.60018,42.04836],[-120.59964,42.04848],[-120.59899,42.04859],[-120.59842,42.04876],[-120.59741,42.04881],[-120.59692,42.04909]]}},{"type":"Feature","properties":{"name":"National Forest Development Road 4020","road_class":"unclassified","surface":"gravel","source":"OpenStreetMap","source_detail":"osm way 5142836","source_tile":"168/380"},"geometry":{"type":"LineString","coordinates":[[-120.55208,42.08483],[-120.55242,42.08479],[-120.55315,42.0846],[-120.55394,42.08444],[-120.55442,42.08441],[-120.55469,42.08443],[-120.55514,42.08467],[-120.55549,42.08502],[-120.55602,42.08558],[-120.55631,42.08587],[-120.55648,42.08597],[-120.55665,42.08602],[-120.55685,42.08599],[-120.55696,42.08586],[-120.55695,42.08559],[-120.55686,42.0849],[-120.55675,42.08432],[-120.55687,42.08413],[-120.55702,42.08392],[-120.55713,42.08369],[-120.55712,42.0833],[-120.55706,42.08245],[-120.55716,42.08216],[-120.55752,42.08185],[-120.55762,42.08154],[-120.55761,42.08119],[-120.55768,42.08088],[-120.55782,42.08075],[-120.55804,42.08068],[-120.55852,42.08051],[-120.55886,42.08034],[-120.55938,42.07967],[-120.55972,42.07935],[-120.56053,42.0789],[-120.56107,42.0786],[-120.5614,42.07841],[-120.56195,42.0781],[-120.56317,42.07741],[-120.5639,42.07698],[-120.56601,42.07577],[-120.56757,42.07485],[-120.56897,42.07404],[-120.56944,42.07381],[-120.57042,42.07334],[-120.57064,42.07316],[-120.57074,42.07298],[-120.57075,42.07269],[-120.57068,42.07236],[-120.57048,42.07198],[-120.57044,42.0718],[-120.57046,42.07158],[-120.57076,42.07086],[-120.57094,42.07034],[-120.57098,42.06985],[-120.57075,42.06927],[-120.5705,42.06889],[-120.56972,42.06826],[-120.56901,42.0677],[-120.56856,42.06752],[-120.56674,42.06695],[-120.5663,42.06673],[-120.56603,42.06652],[-120.56564,42.06619],[-120.56523,42.0657],[-120.56482,42.06512],[-120.5647,42.06466],[-120.5647,42.06463],[-120.56469,42.0641],[-120.56476,42.06355],[-120.56476,42.06311],[-120.56464,42.06269],[-120.56448,42.06212],[-120.56437,42.06181],[-120.56428,42.06144],[-120.56416,42.06107],[-120.56375,42.06052],[-120.56354,42.06025],[-120.56331,42.05998],[-120.56313,42.05968],[-120.56297,42.05905],[-120.56307,42.05848],[-120.5635,42.05737],[-120.56356,42.05679],[-120.56329,42.0554],[-120.56326,42.05469],[-120.56345,42.05422],[-120.5644,42.05345],[-120.56501,42.05309],[-120.56554,42.05272],[-120.56631,42.05225],[-120.56686,42.05173],[-120.56709,42.05144],[-120.56775,42.05063],[-120.56924,42.0493],[-120.57035,42.04867],[-120.57092,42.048],[-120.57202,42.04689],[-120.573,42.04646],[-120.57406,42.04605],[-120.5745,42.0456],[-120.57472,42.04523],[-120.57488,42.04504],[-120.57533,42.04472],[-120.57632,42.04405],[-120.5777,42.04345],[-120.57845,42.04318],[-120.57921,42.04294],[-120.58006,42.04269],[-120.58068,42.04242],[-120.58152,42.04167],[-120.58248,42.04076],[-120.5829,42.04038],[-120.58332,42.04016],[-120.58393,42.04],[-120.58448,42.03992],[-120.585,42.03991],[-120.58558,42.04006],[-120.58604,42.04017],[-120.58661,42.04041],[-120.58691,42.04068],[-120.58711,42.04105],[-120.58715,42.04122],[-120.58731,42.04189],[-120.58748,42.04253],[-120.58762,42.04305],[-120.58794,42.04349],[-120.5885,42.04426],[-120.58858,42.04493],[-120.58842,42.04533],[-120.58844,42.04598],[-120.58865,42.04654],[-120.58906,42.04689],[-120.58984,42.04695],[-120.59087,42.04717],[-120.59167,42.0472],[-120.59321,42.048],[-120.59411,42.04827],[-120.59502,42.04844],[-120.59626,42.04866],[-120.59663,42.04882],[-120.59692,42.04909],[-120.59799,42.05013],[-120.59844,42.05073],[-120.60024,42.05172],[-120.6011,42.05191],[-120.60163,42.05212],[-120.60263,42.05226],[-120.60371,42.05198],[-120.60436,42.05211],[-120.60519,42.05203],[-120.60631,42.05202],[-120.60753,42.05201],[-120.60832,42.05209],[-120.60884,42.0523],[-120.60925,42.05256],[-120.60947,42.05277],[-120.60989,42.05318],[-120.61024,42.05332],[-120.61118,42.05341],[-120.61138,42.05335],[-120.61151,42.05326],[-120.61166,42.0529],[-120.61193,42.05252],[-120.61208,42.05238],[-120.61232,42.05226],[-120.61254,42.05227],[-120.61273,42.05234],[-120.61338,42.05263],[-120.61365,42.0526],[-120.61393,42.05239],[-120.61405,42.05222],[-120.61419,42.05183],[-120.61435,42.05168],[-120.61457,42.05155],[-120.61522,42.05131],[-120.61547,42.05114],[-120.61567,42.05086],[-120.61568,42.05048],[-120.61574,42.05036],[-120.61707,42.04954],[-120.61726,42.04928],[-120.61736,42.04908],[-120.61752,42.04876],[-120.6179,42.04826],[-120.61834,42.04804],[-120.61905,42.04777],[-120.62001,42.04749],[-120.62094,42.04743],[-120.62155,42.04743],[-120.62247,42.0474],[-120.62293,42.04729],[-120.62365,42.04689],[-120.6245,42.0462],[-120.62457,42.04605],[-120.62465,42.04541],[-120.62475,42.04515],[-120.62491,42.04483],[-120.62551,42.04387],[-120.62608,42.04334],[-120.62821,42.04191],[-120.62926,42.04155],[-120.62946,42.04143],[-120.62957,42.0413],[-120.62966,42.04104],[-120.62973,42.04053],[-120.6299,42.04018],[-120.63019,42.03993],[-120.63082,42.03966],[-120.63149,42.03955],[-120.63317,42.0394],[-120.63412,42.03932],[-120.63458,42.03913],[-120.63501,42.03872],[-120.63532,42.03852],[-120.63596,42.03842],[-120.63642,42.03848],[-120.63707,42.03876],[-120.63777,42.03915],[-120.63839,42.03931],[-120.63921,42.03933],[-120.64087,42.03921],[-120.64207,42.03903],[-120.64298,42.03898],[-120.64356,42.03904],[-120.64512,42.03936],[-120.64551,42.0394],[-120.64608,42.03931],[-120.64656,42.03936],[-120.64686,42.03951],[-120.64704,42.03967],[-120.64735,42.03979],[-120.64769,42.03972],[-120.64788,42.03965],[-120.64822,42.03957],[-120.64889,42.03937],[-120.64944,42.03883],[-120.64966,42.03868],[-120.65008,42.03858],[-120.65077,42.03858],[-120.65155,42.03867],[-120.65217,42.03879],[-120.65276,42.03898],[-120.65357,42.03954],[-120.65393,42.03987],[-120.65403,42.04015],[-120.65379,42.04045],[-120.65315,42.04062],[-120.65285,42.04075],[-120.65279,42.04097],[-120.6529,42.04141],[-120.65314,42.04261],[-120.65314,42.04291],[-120.65301,42.04368],[-120.65284,42.04425],[-120.65284,42.04446],[-120.65293,42.04465],[-120.6533,42.04492],[-120.6541,42.04524],[-120.6544,42.04542],[-120.65526,42.04644],[-120.65551,42.04681],[-120.65561,42.04709],[-120.65562,42.04747],[-120.65575,42.04773],[-120.65599,42.0478],[-120.65656,42.04785],[-120.65692,42.04801],[-120.65702,42.0482],[-120.65695,42.04897],[-120.65681,42.05047],[-120.65671,42.05077],[-120.65652,42.05096],[-120.65613,42.05112],[-120.6558,42.05134],[-120.65554,42.05196],[-120.65494,42.05244],[-120.6542,42.053],[-120.65382,42.05324],[-120.65378,42.05333],[-120.65378,42.05342],[-120.65384,42.05359],[-120.65426,42.05377],[-120.6559,42.05422],[-120.65746,42.05463],[-120.65806,42.05482],[-120.65857,42.05511],[-120.65885,42.0555],[-120.65913,42.05605],[-120.65944,42.05669],[-120.65956,42.05688],[-120.65972,42.05705],[-120.65996,42.05709],[-120.66033,42.05692],[-120.66114,42.05665],[-120.66169,42.05641],[-120.66197,42.05628],[-120.66256,42.05622],[-120.6629,42.05625],[-120.66328,42.05637],[-120.66376,42.05671],[-120.66435,42.05726],[-120.66447,42.05745],[-120.66449,42.0578],[-120.66456,42.05862],[-120.66459,42.0598],[-120.66458,42.06001],[-120.66461,42.06015],[-120.66475,42.06028],[-120.66506,42.06031],[-120.66567,42.06002],[-120.666,42.05995],[-120.66629,42.05997],[-120.66694,42.06009],[-120.6673,42.06007],[-120.6678,42.05985],[-120.66843,42.0595],[-120.66878,42.05923],[-120.66881,42.05909],[-120.66876,42.05898],[-120.6684,42.05843],[-120.66841,42.05815],[-120.66871,42.05788],[-120.66927,42.05769],[-120.67013,42.05741],[-120.67079,42.05725],[-120.67136,42.05722],[-120.67156,42.05719],[-120.67175,42.05713],[-120.67183,42.05698],[-120.6718,42.05683],[-120.67161,42.05667],[-120.67125,42.05631],[-120.67112,42.05606],[-120.67067,42.05505],[-120.67038,42.05439],[-120.6703,42.0541],[-120.67027,42.05373],[-120.67035,42.05352],[-120.67065,42.05324],[-120.67142,42.05284],[-120.67166,42.0521],[-120.67181,42.05142],[-120.67197,42.05067],[-120.67173,42.05023],[-120.67109,42.04959],[-120.67067,42.04911],[-120.67052,42.04849],[-120.67052,42.04779],[-120.67095,42.04719],[-120.67167,42.04646],[-120.67221,42.0461],[-120.67233,42.04542],[-120.67251,42.04514],[-120.6733,42.04485],[-120.67461,42.04429],[-120.67487,42.04411],[-120.67506,42.04379],[-120.67534,42.04355],[-120.6758,42.04334],[-120.67619,42.0432],[-120.67645,42.04307],[-120.67666,42.04291],[-120.67672,42.04272],[-120.67651,42.04237],[-120.67638,42.04209],[-120.6763,42.04178],[-120.67622,42.04137],[-120.67632,42.04057],[-120.67613,42.04],[-120.67593,42.03958],[-120.67589,42.03928],[-120.67594,42.0391],[-120.67611,42.03885],[-120.67626,42.03872],[-120.67645,42.03855],[-120.67659,42.03838],[-120.67672,42.0382],[-120.67677,42.03795],[-120.67676,42.03765],[-120.67672,42.03742],[-120.67669,42.03713],[-120.67679,42.03684],[-120.67686,42.03668],[-120.67698,42.03647],[-120.67719,42.03618],[-120.67733,42.03593],[-120.67755,42.03573],[-120.67772,42.03561],[-120.67787,42.03556],[-120.67824,42.03539],[-120.67852,42.03513],[-120.67847,42.03479],[-120.67838,42.03427],[-120.67836,42.03397],[-120.67839,42.03383],[-120.67859,42.03361],[-120.67879,42.03355],[-120.67891,42.03354],[-120.67908,42.03355],[-120.67924,42.03356],[-120.67944,42.03356],[-120.67965,42.03356],[-120.67998,42.03358],[-120.68034,42.03345],[-120.68048,42.03324],[-120.68048,42.0329],[-120.68043,42.03244],[-120.68074,42.03208],[-120.68095,42.03178],[-120.68089,42.03156],[-120.68078,42.03139],[-120.68056,42.03124],[-120.68015,42.03103],[-120.67981,42.03076],[-120.67958,42.03056],[-120.67958,42.03044],[-120.67966,42.03022],[-120.67965,42.03002],[-120.67958,42.02977],[-120.67913,42.02927],[-120.67902,42.02898],[-120.67896,42.02863],[-120.67894,42.02843],[-120.679,42.02821],[-120.67926,42.02785],[-120.67939,42.02748],[-120.67955,42.02716],[-120.68012,42.0266],[-120.68048,42.02633],[-120.68089,42.02587],[-120.68127,42.0257],[-120.68139,42.02551],[-120.68126,42.0249],[-120.68135,42.02472],[-120.68177,42.02428],[-120.68197,42.02409],[-120.6822,42.02392],[-120.6828,42.02382],[-120.6833,42.02354],[-120.68393,42.02334],[-120.68465,42.023],[-120.68529,42.02276],[-120.68557,42.02277],[-120.68586,42.0229],[-120.68621,42.02324],[-120.68644,42.02365],[-120.68643,42.02387],[-120.68616,42.02408],[-120.68607,42.02425],[-120.68617,42.02441],[-120.68641,42.02451],[-120.68679,42.02453],[-120.68716,42.02448],[-120.6876,42.02418],[-120.68804,42.0239],[-120.68839,42.02375],[-120.68869,42.02372],[-120.68896,42.02378],[-120.68923,42.02398],[-120.6894,42.02419],[-120.68968,42.02433],[-120.69004,42.02434],[-120.69071,42.02414],[-120.69148,42.0239],[-120.69187,42.02352],[-120.6921,42.0234],[-120.69244,42.02341],[-120.69279,42.02352],[-120.6933,42.02361],[-120.69366,42.02352],[-120.69389,42.02336],[-120.69413,42.02321],[-120.69448,42.02318],[-120.69493,42.02332],[-120.69543,42.02349],[-120.69583,42.02357],[-120.69653,42.02341],[-120.69687,42.02333],[-120.69728,42.02338],[-120.69765,42.02338],[-120.6983,42.02329],[-120.69876,42.02322],[-120.69958,42.02315],[-120.70001,42.02309],[-120.70049,42.02298],[-120.70059,42.02287],[-120.70062,42.02268],[-120.7006,42.02254],[-120.70065,42.02238],[-120.70116,42.02204],[-120.70152,42.02177],[-120.70177,42.02177],[-120.70203,42.02181],[-120.70255,42.02193],[-120.70323,42.02212],[-120.70372,42.02206],[-120.70465,42.02229],[-120.70554,42.02262],[-120.70614,42.02296],[-120.70637,42.02319],[-120.7066,42.02333],[-120.70853,42.02383],[-120.70907,42.02386],[-120.70976,42.02406],[-120.71039,42.02413],[-120.71263,42.02401],[-120.71345,42.02385],[-120.71501,42.02342],[-120.71583,42.02319],[-120.7167,42.0228],[-120.71714,42.02261],[-120.7184,42.02255],[-120.71923,42.02246],[-120.71984,42.02231],[-120.72044,42.02214],[-120.72092,42.02202],[-120.72135,42.02195],[-120.72176,42.02186],[-120.72336,42.02135],[-120.7238,42.02129],[-120.72418,42.02121],[-120.72453,42.02108],[-120.72519,42.0208],[-120.7256,42.02069],[-120.7261,42.02085],[-120.72651,42.02096],[-120.72707,42.02104],[-120.72748,42.02103],[-120.72796,42.02097],[-120.72958,42.0203],[-120.72989,42.02017],[-120.73022,42.02016],[-120.73093,42.02014],[-120.73121,42.0201],[-120.73158,42.01995],[-120.73179,42.01974],[-120.73211,42.01931],[-120.73243,42.01888],[-120.7336,42.01853],[-120.73443,42.01824],[-120.73529,42.018],[-120.73635,42.01788],[-120.73749,42.0178],[-120.73994,42.01765],[-120.74028,42.01765],[-120.7406,42.0177],[-120.74121,42.01783],[-120.74409,42.01888],[-120.74443,42.01898],[-120.74978,42.0217],[-120.7501,42.02192],[-120.75025,42.02212],[-120.75056,42.02259],[-120.75103,42.02334],[-120.7514,42.02384],[-120.75181,42.02425]]}},{"type":"Feature","properties":{"name":"National Forest Development Road 394","road_class":"unclassified","surface":"unpaved","source":"OpenStreetMap","source_detail":"osm way 5144716","source_tile":"168/380"},"geometry":{"type":"LineString","coordinates":[[-120.86842,42.02999],[-120.86877,42.03055],[-120.86893,42.0309],[-120.86908,42.03124],[-120.86934,42.03176],[-120.86984,42.03273],[-120.87003,42.03311],[-120.87034,42.03378],[-120.87024,42.03433],[-120.86961,42.03549],[-120.8682,42.03798],[-120.86806,42.03834],[-120.86747,42.03899],[-120.86635,42.03975],[-120.86569,42.04026],[-120.86516,42.04051],[-120.8644,42.04064],[-120.86307,42.04078],[-120.8606,42.04102],[-120.85939,42.04114],[-120.85909,42.04137],[-120.85882,42.04176],[-120.85802,42.04314],[-120.85777,42.04352],[-120.85754,42.04394],[-120.85718,42.04466],[-120.85675,42.04524],[-120.8562,42.04566],[-120.85545,42.04623],[-120.85438,42.04707],[-120.85335,42.04751],[-120.85266,42.04766],[-120.85201,42.04786],[-120.85152,42.0483],[-120.85005,42.05019],[-120.84932,42.05073],[-120.84844,42.05137],[-120.84771,42.05161],[-120.84639,42.05196],[-120.84596,42.05208],[-120.84545,42.05217],[-120.84493,42.05222],[-120.84386,42.0522],[-120.84194,42.05197],[-120.83546,42.05128],[-120.833,42.05086],[-120.8277,42.05],[-120.8269,42.04989],[-120.8257,42.04969],[-120.82559,42.04967],[-120.82525,42.04961],[-120.82477,42.04952],[-120.8243,42.04942],[-120.82383,42.04938],[-120.82333,42.04941],[-120.82287,42.04951],[-120.81767,42.05237],[-120.81596,42.05335],[-120.81435,42.05419],[-120.81388,42.05439],[-120.81348,42.05449],[-120.81255,42.05463],[-120.80973,42.05503],[-120.80877,42.0552],[-120.80814,42.05541],[-120.80722,42.05625],[-120.80624,42.05725],[-120.80625,42.05826],[-120.80623,42.05852],[-120.80615,42.05916],[-120.80564,42.05976],[-120.80499,42.06036],[-120.80477,42.06071],[-120.80482,42.06486],[-120.80474,42.06606],[-120.80441,42.06692],[-120.80367,42.06739],[-120.80315,42.06813],[-120.80276,42.06897],[-120.80249,42.06947],[-120.80229,42.06965],[-120.80205,42.06984],[-120.80138,42.06997],[-120.80087,42.0702],[-120.80055,42.07058],[-120.80009,42.0711],[-120.79916,42.0721],[-120.79812,42.07358],[-120.79701,42.07644],[-120.79648,42.07806],[-120.79645,42.07852],[-120.79654,42.07983],[-120.79584,42.08055],[-120.79599,42.08192],[-120.79576,42.08246],[-120.79532,42.0829],[-120.79412,42.08346],[-120.79354,42.08416],[-120.7932,42.08472],[-120.79285,42.0856],[-120.79268,42.08824],[-120.79262,42.08984],[-120.79197,42.09096],[-120.79158,42.09155],[-120.79129,42.09201],[-120.78982,42.09432],[-120.78905,42.09524],[-120.78803,42.09602],[-120.78706,42.09667],[-120.78441,42.09819],[-120.7821,42.09947],[-120.78114,42.09999]]}},{"type":"Feature","properties":{"name":"(unnamed public road)","road_class":"track","source":"OpenStreetMap","source_detail":"osm way 5145793","source_tile":"168/380","surface_inferred":true},"geometry":{"type":"LineString","coordinates":[[-120.7063,42.03032],[-120.70459,42.03029],[-120.70428,42.02974],[-120.70397,42.02949],[-120.70278,42.02911],[-120.70235,42.02906],[-120.7018,42.02913],[-120.70137,42.02929],[-120.70057,42.02993],[-120.70005,42.03014],[-120.69882,42.03046],[-120.69833,42.03082],[-120.69815,42.03105],[-120.69812,42.03137],[-120.69784,42.03183],[-120.69689,42.0343],[-120.69612,42.03528],[-120.69591,42.03654],[-120.69625,42.03764],[-120.69775,42.03914],[-120.69842,42.03901],[-120.69879,42.03871],[-120.69885,42.03679],[-120.69922,42.03649],[-120.70127,42.03587],[-120.70195,42.03562],[-120.70284,42.035],[-120.70302,42.03466],[-120.70302,42.03443],[-120.70281,42.03407],[-120.70121,42.0324],[-120.70014,42.03192],[-120.69925,42.03173],[-120.69812,42.03137]]}},{"type":"Feature","properties":{"name":"(unnamed public road)","road_class":"unclassified","surface":"gravel","source":"OpenStreetMap","source_detail":"osm way 5146519","source_tile":"168/380"},"geometry":{"type":"LineString","coordinates":[[-120.78568,42.02139],[-120.7849,42.02324],[-120.78425,42.02501],[-120.78408,42.02618],[-120.78414,42.02685],[-120.78434,42.02751],[-120.78476,42.02831],[-120.78507,42.02887],[-120.78538,42.02947],[-120.78592,42.0306],[-120.78616,42.03109],[-120.78641,42.03163],[-120.78659,42.03201],[-120.78686,42.03257],[-120.78709,42.03299],[-120.78796,42.03481],[-120.78891,42.03651],[-120.78985,42.03802],[-120.79034,42.03872],[-120.79067,42.03932],[-120.79103,42.03999],[-120.79133,42.04046],[-120.79204,42.04163],[-120.79278,42.0425],[-120.79324,42.04306],[-120.79334,42.04332],[-120.79322,42.04405],[-120.79317,42.04459],[-120.7932,42.04475],[-120.7933,42.04493],[-120.79374,42.04527],[-120.79417,42.04553],[-120.79464,42.04576],[-120.79595,42.04615],[-120.79661,42.04621],[-120.79792,42.04619],[-120.79855,42.0462],[-120.79907,42.04632],[-120.79997,42.04672],[-120.80107,42.04719],[-120.80165,42.04749],[-120.80191,42.04767],[-120.80209,42.04788],[-120.8024,42.04844],[-120.80254,42.04876],[-120.8031,42.04956],[-120.80339,42.04997],[-120.80356,42.05012],[-120.80386,42.05022],[-120.80447,42.05028],[-120.80494,42.05031],[-120.8054,42.05021],[-120.80676,42.04995],[-120.80807,42.04968],[-120.80896,42.04948],[-120.8099,42.04933],[-120.81221,42.04913],[-120.81287,42.04897],[-120.81351,42.04874],[-120.81501,42.04797],[-120.81567,42.04759],[-120.81626,42.04709],[-120.8165,42.04697],[-120.81674,42.04695],[-120.81703,42.04705],[-120.81714,42.04722],[-120.81713,42.04751],[-120.81679,42.04844],[-120.81676,42.04875],[-120.81678,42.0493],[-120.81676,42.04955],[-120.81665,42.04983],[-120.81651,42.05004],[-120.81543,42.0511],[-120.81481,42.05178],[-120.81444,42.05228],[-120.8141,42.05282],[-120.81395,42.05321],[-120.81396,42.05347],[-120.81409,42.05376],[-120.81435,42.05419]]}},{"type":"Feature","properties":{"name":"(unnamed public road)","road_class":"track","tracktype":"grade5","source":"OpenStreetMap","source_detail":"osm way 5146647","source_tile":"168/380","surface_inferred":true},"geometry":{"type":"LineString","coordinates":[[-120.65312,42.01815],[-120.6535,42.01824],[-120.65382,42.01836],[-120.6541,42.01851],[-120.65453,42.01896],[-120.65516,42.02053],[-120.65544,42.02127],[-120.65598,42.02293],[-120.65606,42.02329],[-120.65602,42.02427],[-120.65604,42.02452],[-120.65623,42.02476],[-120.65678,42.02507],[-120.65708,42.02525],[-120.65738,42.02577],[-120.65755,42.02599],[-120.65768,42.02623],[-120.65813,42.02679],[-120.65847,42.02701],[-120.65907,42.027],[-120.65934,42.02732],[-120.65914,42.02787],[-120.65922,42.02864],[-120.65955,42.02897],[-120.6603,42.02988],[-120.66033,42.03059],[-120.66043,42.03094],[-120.66067,42.03117],[-120.66115,42.03126],[-120.66162,42.03144],[-120.66192,42.0318],[-120.66221,42.03194],[-120.66227,42.03217],[-120.66217,42.03245],[-120.66208,42.03266],[-120.66165,42.03283],[-120.66139,42.03299],[-120.66128,42.03319],[-120.66124,42.03401],[-120.66109,42.03492],[-120.66096,42.03574],[-120.66092,42.03602],[-120.66106,42.03667],[-120.66119,42.03751],[-120.66121,42.03851],[-120.66119,42.03892],[-120.66122,42.03921],[-120.66145,42.03982],[-120.66155,42.03997],[-120.66179,42.04022],[-120.66187,42.04037],[-120.66203,42.04096],[-120.66202,42.04121],[-120.66182,42.04155],[-120.66182,42.04199],[-120.6619,42.0424],[-120.66193,42.04276],[-120.66194,42.04316],[-120.66221,42.04396],[-120.66262,42.04467],[-120.66275,42.04509],[-120.6629,42.04524],[-120.66312,42.04527],[-120.66362,42.04528],[-120.66445,42.04525],[-120.6647,42.04526],[-120.66493,42.04525],[-120.66518,42.04528],[-120.66531,42.0454],[-120.66524,42.04552],[-120.66507,42.04561],[-120.66474,42.04573],[-120.66446,42.04578],[-120.6642,42.0458],[-120.66387,42.04587],[-120.6635,42.04604]]}},{"type":"Feature","properties":{"name":"National Forest Development Road 4003","road_class":"track","source":"OpenStreetMap","source_detail":"osm way 5489573","source_tile":"168/380","surface_inferred":true},"geometry":{"type":"LineString","coordinates":[[-120.88014,42.03131],[-120.88089,42.03205],[-120.88124,42.03234],[-120.88145,42.03246],[-120.88182,42.03264],[-120.88227,42.03287],[-120.88269,42.03318],[-120.88322,42.03356],[-120.88414,42.03429],[-120.8846,42.03474],[-120.88502,42.03509],[-120.88523,42.03528],[-120.88597,42.03612],[-120.88638,42.03654],[-120.88667,42.03691],[-120.88681,42.03715],[-120.88698,42.03759],[-120.88726,42.03822],[-120.8875,42.03863],[-120.88776,42.03928],[-120.88798,42.0398],[-120.88808,42.03988],[-120.88826,42.04002],[-120.88861,42.04016],[-120.8896,42.04057],[-120.89038,42.04097],[-120.89091,42.04122],[-120.8917,42.04155],[-120.89224,42.04176],[-120.89273,42.04186],[-120.89342,42.04193],[-120.89481,42.04201],[-120.89581,42.04208],[-120.89637,42.04205],[-120.89681,42.042],[-120.89741,42.04192],[-120.89785,42.04191],[-120.89818,42.04201],[-120.89841,42.04209],[-120.89894,42.04241],[-120.89967,42.04288],[-120.90027,42.04327],[-120.90048,42.0435],[-120.90073,42.0438],[-120.9014,42.04437],[-120.90203,42.04491],[-120.90241,42.04517],[-120.903,42.04548],[-120.90337,42.04567],[-120.90386,42.04595],[-120.90428,42.04616],[-120.90448,42.04625],[-120.90459,42.04635],[-120.90466,42.04645],[-120.90467,42.04663],[-120.90467,42.04687],[-120.90471,42.04721],[-120.90471,42.04768],[-120.90464,42.04808],[-120.90459,42.04853],[-120.90452,42.04888],[-120.90451,42.04915],[-120.90449,42.0494],[-120.90443,42.04965],[-120.90439,42.04994],[-120.90439,42.05014],[-120.90433,42.0504],[-120.90431,42.05054],[-120.90432,42.05071],[-120.90426,42.05089],[-120.90419,42.05107],[-120.90416,42.05129],[-120.90409,42.05149],[-120.90399,42.05166],[-120.9038,42.05197],[-120.90364,42.05223],[-120.90359,42.05231],[-120.90357,42.05253],[-120.9035,42.05284],[-120.90331,42.05373],[-120.90326,42.05399],[-120.90317,42.0546],[-120.90306,42.05493],[-120.90281,42.05565],[-120.90246,42.05643],[-120.90233,42.05684],[-120.90234,42.0571],[-120.90241,42.05745],[-120.90259,42.05791],[-120.90278,42.0584],[-120.90285,42.05859],[-120.90288,42.0588],[-120.90285,42.05935],[-120.90284,42.06006],[-120.90278,42.06043],[-120.90269,42.06077],[-120.90255,42.06114],[-120.90253,42.06143],[-120.90242,42.06185],[-120.90236,42.06208],[-120.90239,42.06239],[-120.9024,42.06266],[-120.90245,42.06294],[-120.90262,42.06323],[-120.90277,42.06354],[-120.90294,42.06382],[-120.90348,42.06377],[-120.90365,42.06378],[-120.90379,42.06381],[-120.90395,42.06393],[-120.9044,42.06445],[-120.90516,42.06526],[-120.90553,42.0656],[-120.90578,42.06578],[-120.90627,42.06612],[-120.90645,42.06633],[-120.90656,42.06654],[-120.90663,42.06681],[-120.90664,42.06708],[-120.90657,42.06747],[-120.90638,42.06828],[-120.90627,42.06863],[-120.90611,42.06917],[-120.90609,42.06947],[-120.90612,42.0697],[-120.90621,42.06993],[-120.90666,42.07099],[-120.90675,42.07124],[-120.90699,42.07187],[-120.9071,42.07206],[-120.90738,42.0724],[-120.90854,42.0737],[-120.90965,42.07506],[-120.91027,42.07581],[-120.91167,42.07756],[-120.91195,42.078],[-120.9121,42.0783],[-120.91266,42.07924],[-120.91277,42.07948],[-120.91281,42.07965],[-120.91286,42.07993],[-120.91294,42.08046],[-120.91304,42.0807],[-120.91323,42.081],[-120.91362,42.08147],[-120.91422,42.08207],[-120.91446,42.08222],[-120.91472,42.08233],[-120.91522,42.08245],[-120.91791,42.08311],[-120.91845,42.0833],[-120.9187,42.08339],[-120.91894,42.08353],[-120.9191,42.08367],[-120.91924,42.08385],[-120.91938,42.08407],[-120.91988,42.08507],[-120.92016,42.08572],[-120.92025,42.08606],[-120.92029,42.08648],[-120.92029,42.08671],[-120.9203,42.08708],[-120.92034,42.08739],[-120.92043,42.08801],[-120.92047,42.08818],[-120.92095,42.0892],[-120.92112,42.08964],[-120.92135,42.09011],[-120.92171,42.09109],[-120.92185,42.09147],[-120.92187,42.09163],[-120.92191,42.09194],[-120.92192,42.09222],[-120.92187,42.09274],[-120.92181,42.09296],[-120.92159,42.09355],[-120.92132,42.09424],[-120.92103,42.09514],[-120.92075,42.09562],[-120.92056,42.09584],[-120.92024,42.09618],[-120.92001,42.0966],[-120.91954,42.09706],[-120.91911,42.09739],[-120.91884,42.0977],[-120.9185,42.09832],[-120.91825,42.09876],[-120.91808,42.09895],[-120.91776,42.09923],[-120.91704,42.09971],[-120.91619,42.10017],[-120.91557,42.10046],[-120.91446,42.1011],[-120.91387,42.10149],[-120.91328,42.10175],[-120.91269,42.10191],[-120.9122,42.102],[-120.91145,42.10218],[-120.91059,42.10241],[-120.90881,42.10289],[-120.9069,42.10339],[-120.90342,42.1046],[-120.90173,42.10505],[-120.9012,42.10531],[-120.90014,42.10602],[-120.89905,42.10679],[-120.89834,42.10737],[-120.89761,42.10812],[-120.89729,42.10848],[-120.89678,42.10896],[-120.89646,42.10927],[-120.89632,42.10937],[-120.89606,42.10946],[-120.89577,42.10948],[-120.89532,42.10943],[-120.89474,42.10932],[-120.8943,42.10928],[-120.89333,42.10911],[-120.89229,42.10865]]}},{"type":"Feature","properties":{"name":"National Forest Development Road 409","road_class":"track","source":"OpenStreetMap","source_detail":"osm way 5494028","source_tile":"168/380","surface_inferred":true},"geometry":{"type":"LineString","coordinates":[[-120.92226,42.00505],[-120.92269,42.00515],[-120.92321,42.00524],[-120.92371,42.00541],[-120.92402,42.00574],[-120.92411,42.00595],[-120.9242,42.00629],[-120.92425,42.00663],[-120.92437,42.00746],[-120.92443,42.00785],[-120.92467,42.00821],[-120.92526,42.00886],[-120.92592,42.0094],[-120.92638,42.00996],[-120.9269,42.01049],[-120.9271,42.01069],[-120.92751,42.01083],[-120.92834,42.01117],[-120.92969,42.01179],[-120.9301,42.01177],[-120.9303,42.0119],[-120.93061,42.01206],[-120.93103,42.01235],[-120.93129,42.01279],[-120.93172,42.01345],[-120.93196,42.0143],[-120.93212,42.01476],[-120.93171,42.01549],[-120.93083,42.01656],[-120.92985,42.01755],[-120.92937,42.01836],[-120.92895,42.01924],[-120.92904,42.01992],[-120.92891,42.0209],[-120.92926,42.02201],[-120.92905,42.02274],[-120.92847,42.0235],[-120.92834,42.02379],[-120.92837,42.02416],[-120.92881,42.02488],[-120.92875,42.02508],[-120.92871,42.02529],[-120.92871,42.02561],[-120.92875,42.02591],[-120.9288,42.02628],[-120.92898,42.0274],[-120.92896,42.02798],[-120.92847,42.02845],[-120.92813,42.0287],[-120.92797,42.02918],[-120.92789,42.02991],[-120.92803,42.03071],[-120.92768,42.03162],[-120.92795,42.03223],[-120.92783,42.03317],[-120.9284,42.03367],[-120.92827,42.0341],[-120.92841,42.0345],[-120.92855,42.03472],[-120.9284,42.03539],[-120.92824,42.03605],[-120.92836,42.03669],[-120.92827,42.03722],[-120.92804,42.03756],[-120.92806,42.03801],[-120.92798,42.03847],[-120.9286,42.03908],[-120.92888,42.03919],[-120.92957,42.03914],[-120.92995,42.03992],[-120.93004,42.0401],[-120.9301,42.0403],[-120.9303,42.04051],[-120.93048,42.04073],[-120.93085,42.04117],[-120.93113,42.04164],[-120.9315,42.04203],[-120.93162,42.04237],[-120.93178,42.04283],[-120.93197,42.04332],[-120.93204,42.0437],[-120.93181,42.04394],[-120.93167,42.04419],[-120.93155,42.04433],[-120.93139,42.04453],[-120.93125,42.04481],[-120.93118,42.04518],[-120.93088,42.04553],[-120.93046,42.04587],[-120.93007,42.0463],[-120.92978,42.04641],[-120.92954,42.04648],[-120.92906,42.04663],[-120.92858,42.04695],[-120.92765,42.04746],[-120.92726,42.04759],[-120.92691,42.04764],[-120.92653,42.04787],[-120.92632,42.04827],[-120.9263,42.04862],[-120.92635,42.04899],[-120.92623,42.04956],[-120.92591,42.05029],[-120.9259,42.05078],[-120.92584,42.05112],[-120.92584,42.05145],[-120.92589,42.0518],[-120.92594,42.05219],[-120.92584,42.05247],[-120.92555,42.05274],[-120.92526,42.05285],[-120.92497,42.05293],[-120.92456,42.0531],[-120.92439,42.05321]]}},{"type":"Feature","properties":{"name":"(unnamed public road)","road_class":"track","tracktype":"grade5","source":"OpenStreetMap","source_detail":"osm way 889623908","source_tile":"168/380","surface_inferred":true},"geometry":{"type":"LineString","coordinates":[[-120.73819,42.03603],[-120.73784,42.03556],[-120.73772,42.03533],[-120.73762,42.03517],[-120.73752,42.03492],[-120.73713,42.0345],[-120.73676,42.03416],[-120.73674,42.03398],[-120.73665,42.03363],[-120.73649,42.0331],[-120.73644,42.03285],[-120.73643,42.03266],[-120.7364,42.03252]]}},{"type":"Feature","properties":{"name":"National Forest Development Road 412","road_class":"track","tracktype":"grade5","source":"OpenStreetMap","source_detail":"osm way 993806009","source_tile":"168/380","surface_inferred":true},"geometry":{"type":"LineString","coordinates":[[-120.7261,42.02085],[-120.72572,42.02105],[-120.72549,42.02112],[-120.72522,42.02124],[-120.72449,42.02151],[-120.72234,42.02208],[-120.72089,42.02317],[-120.7199,42.02405],[-120.71968,42.02468],[-120.71973,42.02527],[-120.72011,42.02637],[-120.72017,42.02662],[-120.72038,42.02697],[-120.72153,42.02858],[-120.72282,42.0302],[-120.72335,42.03079],[-120.72404,42.0313],[-120.72444,42.03213],[-120.72455,42.03262],[-120.7248,42.03326],[-120.72515,42.03427],[-120.72498,42.03475],[-120.72418,42.03475],[-120.72309,42.03482],[-120.72276,42.03496],[-120.72239,42.03501],[-120.72179,42.03485],[-120.72024,42.03463],[-120.71897,42.0342],[-120.71456,42.03288],[-120.70989,42.03123],[-120.70897,42.03114],[-120.70879,42.03068],[-120.70857,42.03045],[-120.70817,42.03034],[-120.70781,42.03036],[-120.70719,42.0307],[-120.70682,42.03073],[-120.7063,42.03032],[-120.70621,42.03002],[-120.70637,42.02958],[-120.70637,42.02897],[-120.70554,42.02773],[-120.70554,42.02739],[-120.70636,42.0267],[-120.70636,42.02631],[-120.70606,42.02602],[-120.70587,42.02515],[-120.70532,42.02478],[-120.70416,42.02428],[-120.70271,42.02302],[-120.7017,42.02255],[-120.70142,42.02236],[-120.70116,42.02204]]}}]}