{"type":"FeatureCollection","features":[{"type":"Feature","properties":{"name":"(unnamed public road)","road_class":"track","source":"OpenStreetMap","source_detail":"osm way 10284178","source_tile":"168/393","surface_inferred":true},"geometry":{"type":"LineString","coordinates":[[-120.92247,38.37646],[-120.92271,38.37732],[-120.92274,38.37862],[-120.92265,38.37883],[-120.92259,38.38002],[-120.92175,38.38185],[-120.92166,38.38233],[-120.9214,38.38306],[-120.92128,38.38338],[-120.92123,38.38464],[-120.92128,38.38484],[-120.92154,38.38514],[-120.92157,38.38592],[-120.92076,38.3875],[-120.92061,38.38816],[-120.92038,38.38864],[-120.92032,38.38905],[-120.9205,38.38976],[-120.92069,38.39018],[-120.92085,38.3905],[-120.92109,38.39084],[-120.92128,38.39111],[-120.92143,38.39178],[-120.92137,38.39322],[-120.9216,38.39322],[-120.92207,38.39301],[-120.92277,38.39268],[-120.92297,38.39267],[-120.92337,38.39283],[-120.92352,38.39297],[-120.92361,38.39409],[-120.92367,38.39427],[-120.92361,38.39603],[-120.92343,38.39677],[-120.92355,38.39837],[-120.92349,38.40033],[-120.92361,38.40056],[-120.92433,38.40082],[-120.92494,38.40072],[-120.92547,38.40045],[-120.9257,38.40015],[-120.92582,38.39995],[-120.92584,38.39862],[-120.92669,38.39775],[-120.92672,38.39761],[-120.92695,38.3975],[-120.92756,38.39764],[-120.92803,38.39752],[-120.92852,38.39729],[-120.92951,38.39729],[-120.93015,38.39709],[-120.93201,38.3961],[-120.93259,38.3961],[-120.93352,38.39679],[-120.9339,38.39688],[-120.93562,38.3969],[-120.9369,38.39734],[-120.93771,38.3972],[-120.93832,38.39693],[-120.94001,38.39702],[-120.94126,38.39667],[-120.94169,38.39647],[-120.94184,38.39647]]}},{"type":"Feature","properties":{"name":"(unnamed public road)","road_class":"track","source":"OpenStreetMap","source_detail":"osm way 307660494","source_tile":"168/393","surface_inferred":true},"geometry":{"type":"LineString","coordinates":[[-120.84789,38.54639],[-120.84806,38.54636],[-120.84818,38.54642],[-120.84826,38.54662],[-120.84831,38.54681],[-120.84836,38.54721],[-120.8484,38.54743],[-120.84851,38.54763],[-120.84869,38.54791],[-120.84902,38.54829],[-120.84919,38.54857],[-120.84932,38.54869],[-120.84947,38.54898],[-120.84961,38.5492],[-120.84972,38.54939]]}},{"type":"Feature","properties":{"name":"(unnamed public road)","road_class":"track","source":"OpenStreetMap","source_detail":"osm way 10283135","source_tile":"168/393","surface_inferred":true},"geometry":{"type":"LineString","coordinates":[[-120.78817,38.49101],[-120.7887,38.49099],[-120.78938,38.49101],[-120.78953,38.49091],[-120.78977,38.49069],[-120.79008,38.49059],[-120.79031,38.49063],[-120.79048,38.49075],[-120.79082,38.49091],[-120.79103,38.49091],[-120.79123,38.4908],[-120.79152,38.49051]]}},{"type":"Feature","properties":{"name":"(unnamed public road)","road_class":"track","source":"OpenStreetMap","source_detail":"osm way 10283309","source_tile":"168/393","surface_inferred":true},"geometry":{"type":"LineString","coordinates":[[-120.93644,38.35808],[-120.93616,38.35755],[-120.93615,38.35721]]}},{"type":"Feature","properties":{"name":"(unnamed public road)","road_class":"track","source":"OpenStreetMap","source_detail":"osm way 10283356","source_tile":"168/393","surface_inferred":true},"geometry":{"type":"LineString","coordinates":[[-120.68573,38.43164],[-120.68591,38.43185],[-120.68626,38.43243]]}},{"type":"Feature","properties":{"name":"(unnamed public road)","road_class":"track","source":"OpenStreetMap","source_detail":"osm way 10283469","source_tile":"168/393","surface_inferred":true},"geometry":{"type":"LineString","coordinates":[[-120.68486,38.43155],[-120.68457,38.43156],[-120.68433,38.43161],[-120.68393,38.43175]]}},{"type":"Feature","properties":{"name":"(unnamed public road)","road_class":"track","source":"OpenStreetMap","source_detail":"osm way 10283475","source_tile":"168/393","surface_inferred":true},"geometry":{"type":"LineString","coordinates":[[-120.68561,38.43165],[-120.68565,38.43193],[-120.68565,38.43212],[-120.68558,38.43233],[-120.68546,38.43246]]}},{"type":"Feature","properties":{"name":"(unnamed public road)","road_class":"track","source":"OpenStreetMap","source_detail":"osm way 10283479","source_tile":"168/393","surface_inferred":true},"geometry":{"type":"LineString","coordinates":[[-120.65865,38.35936],[-120.66107,38.35945],[-120.663,38.36091],[-120.66431,38.36081],[-120.66511,38.35997],[-120.66577,38.3599],[-120.66618,38.3594],[-120.66604,38.35879],[-120.66548,38.35818],[-120.66522,38.35811],[-120.66478,38.35822],[-120.66442,38.3577],[-120.6641,38.35699],[-120.66377,38.35671],[-120.664,38.35581],[-120.66411,38.35577],[-120.66438,38.35485],[-120.6645,38.35467],[-120.66473,38.35451],[-120.66504,38.35437],[-120.66504,38.35416],[-120.66489,38.35397],[-120.66512,38.35343],[-120.66539,38.35307],[-120.66603,38.35296],[-120.66634,38.3524]]}},{"type":"Feature","properties":{"name":"(unnamed public road)","road_class":"track","source":"OpenStreetMap","source_detail":"osm way 10283481","source_tile":"168/393","surface_inferred":true},"geometry":{"type":"LineString","coordinates":[[-120.66462,38.46353],[-120.66584,38.46397],[-120.66674,38.46408],[-120.66808,38.46397]]}},{"type":"Feature","properties":{"name":"(unnamed public road)","road_class":"track","source":"OpenStreetMap","source_detail":"osm way 10283717","source_tile":"168/393","surface_inferred":true},"geometry":{"type":"LineString","coordinates":[[-120.69238,38.43615],[-120.69223,38.4359]]}},{"type":"Feature","properties":{"name":"(unnamed public road)","road_class":"track","source":"OpenStreetMap","source_detail":"osm way 10283781","source_tile":"168/393","surface_inferred":true},"geometry":{"type":"LineString","coordinates":[[-120.84886,38.34596],[-120.8478,38.34681],[-120.84725,38.34752],[-120.84642,38.34904],[-120.84618,38.34954],[-120.84622,38.34976]]}},{"type":"Feature","properties":{"name":"(unnamed public road)","road_class":"track","source":"OpenStreetMap","source_detail":"osm way 10283834","source_tile":"168/393","surface_inferred":true},"geometry":{"type":"LineString","coordinates":[[-120.69209,38.43387],[-120.69208,38.43371],[-120.69212,38.43358],[-120.69224,38.43353],[-120.69245,38.43354],[-120.69275,38.4336]]}},{"type":"Feature","properties":{"name":"(unnamed public road)","road_class":"track","source":"OpenStreetMap","source_detail":"osm way 10283841","source_tile":"168/393","surface_inferred":true},"geometry":{"type":"LineString","coordinates":[[-120.69103,38.43639],[-120.69059,38.43638],[-120.69015,38.43635],[-120.68985,38.43621],[-120.68972,38.4361],[-120.68964,38.43604]]}},{"type":"Feature","properties":{"name":"(unnamed public road)","road_class":"track","source":"OpenStreetMap","source_detail":"osm way 10283903","source_tile":"168/393","surface_inferred":true},"geometry":{"type":"LineString","coordinates":[[-120.61885,38.44624],[-120.61911,38.44634],[-120.61943,38.44691]]}},{"type":"Feature","properties":{"name":"(unnamed public road)","road_class":"track","source":"OpenStreetMap","source_detail":"osm way 10284108","source_tile":"168/393","surface_inferred":true},"geometry":{"type":"LineString","coordinates":[[-120.709,38.44686],[-120.70912,38.44694],[-120.70933,38.44701],[-120.70943,38.44703],[-120.70955,38.44708],[-120.70975,38.44719],[-120.70983,38.44724],[-120.70988,38.44728],[-120.70997,38.44734]]}},{"type":"Feature","properties":{"name":"(unnamed public road)","road_class":"track","source":"OpenStreetMap","source_detail":"osm way 10284145","source_tile":"168/393","surface_inferred":true},"geometry":{"type":"LineString","coordinates":[[-120.90827,38.36391],[-120.90856,38.36441],[-120.90841,38.36533],[-120.90786,38.36586],[-120.90786,38.36594],[-120.90786,38.36617],[-120.90803,38.36638],[-120.9098,38.36762],[-120.91099,38.36879],[-120.91201,38.3689],[-120.91242,38.36901],[-120.9128,38.36899],[-120.91347,38.3686],[-120.91407,38.36849]]}},{"type":"Feature","properties":{"name":"(unnamed public road)","road_class":"track","source":"OpenStreetMap","source_detail":"osm way 10284150","source_tile":"168/393","surface_inferred":true},"geometry":{"type":"LineString","coordinates":[[-120.85412,38.46822],[-120.85565,38.46824],[-120.85741,38.46822]]}},{"type":"Feature","properties":{"name":"(unnamed public road)","road_class":"track","source":"OpenStreetMap","source_detail":"osm way 10284252","source_tile":"168/393","surface_inferred":true},"geometry":{"type":"LineString","coordinates":[[-120.78766,38.42893],[-120.78737,38.42969],[-120.78714,38.42978],[-120.78615,38.42971],[-120.78609,38.43001],[-120.7862,38.43015],[-120.78652,38.43028],[-120.7869,38.4306],[-120.78734,38.43131],[-120.78737,38.43184],[-120.78708,38.43218],[-120.78626,38.43248],[-120.78568,38.43285],[-120.78495,38.43303],[-120.78475,38.43326],[-120.7846,38.43356],[-120.78466,38.4344],[-120.78481,38.43469],[-120.78484,38.43475],[-120.78507,38.43582],[-120.78536,38.43607],[-120.78536,38.43646],[-120.78516,38.43687],[-120.7851,38.43795],[-120.78501,38.43829],[-120.78553,38.43891],[-120.7855,38.439],[-120.78515,38.43919],[-120.78501,38.43944],[-120.78524,38.44001],[-120.78527,38.44067],[-120.78504,38.442],[-120.78527,38.44278],[-120.78559,38.44333],[-120.78613,38.44358],[-120.78623,38.44396],[-120.78627,38.44428],[-120.78624,38.44437],[-120.78616,38.44442],[-120.78595,38.44449],[-120.78569,38.44459],[-120.7855,38.44469],[-120.78512,38.44508],[-120.78509,38.44519],[-120.78516,38.4454],[-120.78495,38.44549],[-120.78472,38.44549],[-120.78376,38.44535],[-120.78368,38.44534],[-120.78353,38.44533],[-120.78212,38.44472],[-120.78096,38.44424],[-120.77927,38.4433],[-120.77895,38.44313],[-120.77875,38.44298],[-120.77857,38.44279],[-120.77845,38.44264],[-120.77834,38.44251],[-120.77831,38.44247],[-120.7781,38.44248],[-120.77779,38.44251],[-120.77739,38.44255],[-120.77727,38.44254],[-120.7771,38.4425],[-120.77695,38.44243],[-120.77654,38.44227],[-120.77648,38.44222],[-120.77629,38.44193],[-120.77604,38.44136],[-120.77593,38.4412],[-120.77563,38.44085],[-120.77546,38.44069],[-120.77533,38.44052],[-120.77516,38.44033],[-120.77472,38.44014],[-120.77471,38.44006],[-120.77475,38.43992],[-120.77468,38.43974],[-120.77446,38.43957],[-120.7743,38.43908],[-120.77415,38.43848]]}},{"type":"Feature","properties":{"name":"(unnamed public road)","road_class":"track","source":"OpenStreetMap","source_detail":"osm way 10284259","source_tile":"168/393","surface_inferred":true},"geometry":{"type":"LineString","coordinates":[[-120.91408,38.36572],[-120.91431,38.36673],[-120.91411,38.36769],[-120.91407,38.36849],[-120.91436,38.36865],[-120.91472,38.36872],[-120.91502,38.3687],[-120.91515,38.36872],[-120.91541,38.36883],[-120.91564,38.36905],[-120.91589,38.36931],[-120.91605,38.36957],[-120.91607,38.3697],[-120.91611,38.36977],[-120.9163,38.36988],[-120.9171,38.37021],[-120.91747,38.37025],[-120.91765,38.37023],[-120.91781,38.37018],[-120.91824,38.37002],[-120.91847,38.37],[-120.91871,38.37002],[-120.9189,38.37001],[-120.91913,38.36995],[-120.91934,38.36996],[-120.91968,38.37003]]}},{"type":"Feature","properties":{"name":"(unnamed public road)","road_class":"track","source":"OpenStreetMap","source_detail":"osm way 10284262","source_tile":"168/393","surface_inferred":true},"geometry":{"type":"LineString","coordinates":[[-120.7855,38.439],[-120.78638,38.43891],[-120.78722,38.43864],[-120.78771,38.43822],[-120.78783,38.43795],[-120.78851,38.43778],[-120.78864,38.43747],[-120.78895,38.4362],[-120.78894,38.4358],[-120.78863,38.43559],[-120.78867,38.43532],[-120.78897,38.43521],[-120.78891,38.43445],[-120.78879,38.43401],[-120.78946,38.43367],[-120.78952,38.43344],[-120.78888,38.43287],[-120.78839,38.4326],[-120.78798,38.43225],[-120.78792,38.43212],[-120.78807,38.43196],[-120.78885,38.43168],[-120.78929,38.43127],[-120.78935,38.43095],[-120.78827,38.42999],[-120.78818,38.42971],[-120.78812,38.42925],[-120.78766,38.42893],[-120.78731,38.42856],[-120.78706,38.42814],[-120.78687,38.42775],[-120.78665,38.42735],[-120.78645,38.42689],[-120.78638,38.42659],[-120.78646,38.4264],[-120.78646,38.42634],[-120.78636,38.42619],[-120.78628,38.42619],[-120.78621,38.42623]]}},{"type":"Feature","properties":{"name":"(unnamed public road)","road_class":"track","source":"OpenStreetMap","source_detail":"osm way 10284292","source_tile":"168/393","surface_inferred":true},"geometry":{"type":"LineString","coordinates":[[-120.82008,38.4141],[-120.82021,38.4143],[-120.82097,38.41516],[-120.82213,38.41649],[-120.8223,38.41703],[-120.82221,38.41732],[-120.82196,38.4177],[-120.82177,38.41784],[-120.8215,38.41793],[-120.82103,38.41793],[-120.82082,38.41801],[-120.81969,38.41725],[-120.81937,38.41714],[-120.81922,38.41709]]}},{"type":"Feature","properties":{"name":"(unnamed public road)","road_class":"track","source":"OpenStreetMap","source_detail":"osm way 10284294","source_tile":"168/393","surface_inferred":true},"geometry":{"type":"LineString","coordinates":[[-120.91506,38.38928],[-120.91416,38.38974],[-120.91335,38.38951],[-120.91303,38.38958],[-120.91276,38.39043],[-120.91262,38.39271],[-120.91246,38.39295],[-120.91227,38.39319],[-120.9123,38.39367],[-120.91231,38.3937],[-120.91241,38.39386],[-120.91279,38.39413],[-120.91352,38.39434],[-120.91424,38.39511],[-120.91454,38.39557],[-120.91535,38.3961],[-120.91593,38.39592],[-120.91625,38.39555],[-120.91634,38.39493],[-120.91596,38.3942],[-120.9155,38.39216],[-120.91558,38.39063],[-120.91544,38.39004],[-120.91506,38.38928],[-120.91506,38.38741],[-120.915,38.38727],[-120.91515,38.38672],[-120.91515,38.38621],[-120.91515,38.38612],[-120.91465,38.38562],[-120.91439,38.38498],[-120.91422,38.38411],[-120.91396,38.38372],[-120.91373,38.3831],[-120.91387,38.38233],[-120.91409,38.38161],[-120.91379,38.38131],[-120.91324,38.38108],[-120.9131,38.38081],[-120.9131,38.38047],[-120.91283,38.37984],[-120.91274,38.37956],[-120.91303,38.37913],[-120.91316,38.3789],[-120.9132,38.37871],[-120.91315,38.37853],[-120.91302,38.37838],[-120.91271,38.37807]]}},{"type":"Feature","properties":{"name":"(unnamed public road)","road_class":"track","source":"OpenStreetMap","source_detail":"osm way 10284375","source_tile":"168/393","surface_inferred":true},"geometry":{"type":"LineString","coordinates":[[-120.78068,38.43147],[-120.78105,38.43209],[-120.78117,38.43264],[-120.78117,38.43362],[-120.78085,38.4341],[-120.7805,38.43442],[-120.77905,38.43495],[-120.77884,38.43543],[-120.77852,38.43575],[-120.77803,38.43607],[-120.77782,38.43648],[-120.77721,38.43705],[-120.77718,38.43799],[-120.77692,38.43824],[-120.77648,38.43824],[-120.77596,38.43804],[-120.7757,38.43808],[-120.77529,38.43856],[-120.7743,38.43908]]}},{"type":"Feature","properties":{"name":"(unnamed public road)","road_class":"track","source":"OpenStreetMap","source_detail":"osm way 10284425","source_tile":"168/393","surface_inferred":true},"geometry":{"type":"LineString","coordinates":[[-120.85306,38.39261],[-120.85315,38.3928],[-120.85434,38.39317],[-120.85597,38.39303],[-120.8582,38.39312],[-120.85943,38.39305],[-120.86001,38.39273],[-120.86068,38.39257],[-120.86149,38.39257],[-120.86233,38.3928],[-120.86352,38.39259],[-120.86414,38.39241],[-120.8653,38.39241],[-120.86629,38.39213],[-120.86704,38.39209],[-120.86882,38.39268],[-120.86931,38.39312],[-120.86954,38.39346],[-120.86957,38.39456],[-120.86897,38.39591],[-120.86847,38.3965],[-120.86783,38.3971],[-120.8671,38.3972],[-120.8648,38.39682],[-120.86345,38.39646],[-120.8621,38.39675],[-120.86184,38.39771],[-120.86144,38.39825],[-120.86061,38.3983],[-120.85987,38.3985],[-120.85652,38.39835],[-120.85493,38.3987],[-120.85285,38.39897],[-120.85045,38.39884],[-120.84873,38.39876],[-120.84632,38.39896],[-120.84505,38.39903],[-120.84391,38.39938]]}},{"type":"Feature","properties":{"name":"(unnamed public road)","road_class":"track","source":"OpenStreetMap","source_detail":"osm way 10284471","source_tile":"168/393","surface_inferred":true},"geometry":{"type":"LineString","coordinates":[[-120.92654,38.37012],[-120.9264,38.37029],[-120.9263,38.37039],[-120.92614,38.37047],[-120.92581,38.37055],[-120.92571,38.37068],[-120.92564,38.37152],[-120.92554,38.37187],[-120.92534,38.37218],[-120.92516,38.37282],[-120.92462,38.37325],[-120.92435,38.37376],[-120.92419,38.37403],[-120.92384,38.37438],[-120.92385,38.37459],[-120.92402,38.37491],[-120.92417,38.37534],[-120.92401,38.37554],[-120.92367,38.3757],[-120.92355,38.37582],[-120.92344,38.37629],[-120.92328,38.37655],[-120.92312,38.37649],[-120.92247,38.37646],[-120.92163,38.37622],[-120.9203,38.37603],[-120.91963,38.37628],[-120.91937,38.37638],[-120.91919,38.37634],[-120.919,38.37634],[-120.91805,38.37608],[-120.91757,38.37591],[-120.91719,38.37585],[-120.91678,38.37593],[-120.91638,38.37607],[-120.91571,38.37654],[-120.9151,38.37697],[-120.9148,38.37715],[-120.91465,38.37745],[-120.91443,38.37764],[-120.91396,38.37785],[-120.91371,38.37797],[-120.91349,38.37827],[-120.9134,38.37866],[-120.91328,38.37903],[-120.91313,38.37913],[-120.91303,38.37913]]}},{"type":"Feature","properties":{"name":"(unnamed public road)","road_class":"track","source":"OpenStreetMap","source_detail":"osm way 10284634","source_tile":"168/393","surface_inferred":true},"geometry":{"type":"LineString","coordinates":[[-120.78613,38.44358],[-120.78676,38.44412],[-120.78713,38.4442],[-120.78742,38.44447],[-120.78774,38.44502],[-120.78832,38.44518],[-120.78931,38.44527],[-120.79013,38.4458]]}},{"type":"Feature","properties":{"name":"(unnamed public road)","road_class":"track","source":"OpenStreetMap","source_detail":"osm way 10284641","source_tile":"168/393","surface_inferred":true},"geometry":{"type":"LineString","coordinates":[[-120.81381,38.44248],[-120.81384,38.44344],[-120.8141,38.44388],[-120.81451,38.4442],[-120.81573,38.44482],[-120.81579,38.44509],[-120.81564,38.44543],[-120.81477,38.44633],[-120.81468,38.44688]]}},{"type":"Feature","properties":{"name":"(unnamed public road)","road_class":"track","source":"OpenStreetMap","source_detail":"osm way 10284712","source_tile":"169/393","surface_inferred":true},"geometry":{"type":"LineString","coordinates":[[-120.58582,38.46106],[-120.58617,38.46124],[-120.58617,38.46154],[-120.58606,38.46172],[-120.58556,38.46207],[-120.5851,38.46218],[-120.58388,38.46232],[-120.58318,38.46275],[-120.58299,38.46325]]}},{"type":"Feature","properties":{"name":"(unnamed public road)","road_class":"track","source":"OpenStreetMap","source_detail":"osm way 10284778","source_tile":"168/393","surface_inferred":true},"geometry":{"type":"LineString","coordinates":[[-120.91506,38.38741],[-120.91579,38.38745],[-120.91631,38.38727],[-120.91686,38.38722],[-120.91732,38.38744],[-120.91785,38.3877],[-120.91826,38.3877],[-120.91878,38.38729],[-120.9189,38.38699],[-120.91942,38.38651],[-120.91951,38.38633],[-120.92006,38.3856],[-120.92128,38.38484]]}},{"type":"Feature","properties":{"name":"(unnamed public road)","road_class":"track","source":"OpenStreetMap","source_detail":"osm way 10284791","source_tile":"168/393","surface_inferred":true},"geometry":{"type":"LineString","coordinates":[[-120.85138,38.47945],[-120.85134,38.47952],[-120.84958,38.47972]]}},{"type":"Feature","properties":{"name":"(unnamed public road)","road_class":"track","source":"OpenStreetMap","source_detail":"osm way 10284895","source_tile":"168/393","surface_inferred":true},"geometry":{"type":"LineString","coordinates":[[-120.60704,38.50241],[-120.6075,38.5025],[-120.60878,38.50243],[-120.60908,38.5025],[-120.61012,38.5022],[-120.6111,38.50235],[-120.61155,38.50261],[-120.61184,38.5028]]}},{"type":"Feature","properties":{"name":"(unnamed public road)","road_class":"track","source":"OpenStreetMap","source_detail":"osm way 10284933","source_tile":"168/393","surface_inferred":true},"geometry":{"type":"LineString","coordinates":[[-120.7769,38.49653],[-120.77735,38.49759],[-120.7777,38.49808],[-120.77828,38.49835],[-120.77936,38.49851],[-120.78233,38.49858],[-120.78518,38.49912],[-120.7854,38.49923],[-120.78557,38.49944],[-120.78563,38.49968],[-120.78556,38.50021],[-120.78531,38.50088],[-120.78529,38.50114],[-120.78536,38.50139],[-120.7855,38.50196]]}},{"type":"Feature","properties":{"name":"Cedar Pine Drive","road_class":"unclassified","surface":"unpaved","source":"OpenStreetMap","source_detail":"osm way 10285312","source_tile":"168/393"},"geometry":{"type":"LineString","coordinates":[[-120.66658,38.48263],[-120.66696,38.4827],[-120.6674,38.48272],[-120.66784,38.48294],[-120.6679,38.48318],[-120.66808,38.4834],[-120.66846,38.48367],[-120.66874,38.48386],[-120.66919,38.48405],[-120.66943,38.48401],[-120.66971,38.48398],[-120.67015,38.48434],[-120.67052,38.48446],[-120.67092,38.48459],[-120.67119,38.48496],[-120.67115,38.4854],[-120.67117,38.48568],[-120.67123,38.48598],[-120.67153,38.48613],[-120.67169,38.48611],[-120.67191,38.48608],[-120.67248,38.48647],[-120.67281,38.48669],[-120.67339,38.48687],[-120.67375,38.48692],[-120.67411,38.48693],[-120.67431,38.48686],[-120.67445,38.48663],[-120.67455,38.48645],[-120.67477,38.48634],[-120.67506,38.48636],[-120.67532,38.48658],[-120.67568,38.48675],[-120.67589,38.48654],[-120.67607,38.48646],[-120.67631,38.48645],[-120.67652,38.4865],[-120.67673,38.48638],[-120.67685,38.48616],[-120.67699,38.48608],[-120.67703,38.48605],[-120.67734,38.48603],[-120.6779,38.48602],[-120.67837,38.48609],[-120.6786,38.48626],[-120.67887,38.48661],[-120.67882,38.48688],[-120.67868,38.48706],[-120.67866,38.48721],[-120.67874,38.48742],[-120.67857,38.48763],[-120.6785,38.48782],[-120.6784,38.48813],[-120.67815,38.48836],[-120.67787,38.48844],[-120.67753,38.48847],[-120.67726,38.48839],[-120.67693,38.48828],[-120.67668,38.48829],[-120.67655,38.48832],[-120.67642,38.48841],[-120.67634,38.48869],[-120.67623,38.48891],[-120.67582,38.48915],[-120.67534,38.48938],[-120.6751,38.48964],[-120.67495,38.48972],[-120.67469,38.48987],[-120.67441,38.48998],[-120.67409,38.49006],[-120.67396,38.49014],[-120.67381,38.49027],[-120.67369,38.4905],[-120.67364,38.49061],[-120.67361,38.49071],[-120.67355,38.49094],[-120.67328,38.49135],[-120.67295,38.49166],[-120.67253,38.49197],[-120.67212,38.49226],[-120.672,38.49232],[-120.67178,38.49262],[-120.67174,38.49268],[-120.67163,38.49295],[-120.6716,38.49321],[-120.67156,38.49345]]}},{"type":"Feature","properties":{"name":"Moonshine Road","road_class":"track","source":"OpenStreetMap","source_detail":"osm way 10285471","source_tile":"168/393","surface_inferred":true},"geometry":{"type":"LineString","coordinates":[[-120.70008,38.45827],[-120.70016,38.45812],[-120.70027,38.45784],[-120.70023,38.45765],[-120.7001,38.45747],[-120.70005,38.45729],[-120.7001,38.45714],[-120.70029,38.45701],[-120.70063,38.45697],[-120.70105,38.45695],[-120.70143,38.45687],[-120.70185,38.45681],[-120.70207,38.45673],[-120.70219,38.45654],[-120.7024,38.4564],[-120.70263,38.45636],[-120.70301,38.4565],[-120.70343,38.45662],[-120.7038,38.45666],[-120.70416,38.45653]]}},{"type":"Feature","properties":{"name":"Marble Quarry Road","road_class":"track","source":"OpenStreetMap","source_detail":"osm way 10285848","source_tile":"168/393","surface_inferred":true},"geometry":{"type":"LineString","coordinates":[[-120.68484,38.43148],[-120.68486,38.43155],[-120.68487,38.43162],[-120.68509,38.43168],[-120.68561,38.43165],[-120.68573,38.43164],[-120.687,38.43178],[-120.68806,38.43206],[-120.68834,38.43259],[-120.68846,38.43283],[-120.68865,38.43272],[-120.68878,38.43238],[-120.68927,38.43244],[-120.69033,38.43292],[-120.69061,38.43334],[-120.69101,38.43346],[-120.69121,38.43366],[-120.69139,38.43396],[-120.69209,38.43387],[-120.69238,38.43402],[-120.69249,38.43454],[-120.69282,38.43462],[-120.69349,38.43447],[-120.69417,38.43441],[-120.69476,38.43445],[-120.6951,38.43469],[-120.69511,38.43488],[-120.69508,38.43513],[-120.69498,38.43541],[-120.69475,38.43557],[-120.69424,38.43585],[-120.69397,38.43594],[-120.69238,38.43615],[-120.69229,38.43616],[-120.69139,38.43632],[-120.69103,38.43639],[-120.69066,38.43647],[-120.69027,38.43674],[-120.69033,38.43695],[-120.69057,38.43699],[-120.69092,38.43696],[-120.69127,38.43695],[-120.69151,38.43704],[-120.69167,38.43719],[-120.6916,38.4373],[-120.69124,38.43739],[-120.69089,38.43742],[-120.69058,38.43739],[-120.69045,38.43738]]}},{"type":"Feature","properties":{"name":"Marble Quarry Road","road_class":"track","source":"OpenStreetMap","source_detail":"osm way 10285849","source_tile":"168/393","surface_inferred":true},"geometry":{"type":"LineString","coordinates":[[-120.68795,38.42958],[-120.68721,38.43052],[-120.68652,38.43103],[-120.68542,38.43133],[-120.68484,38.43148]]}},{"type":"Feature","properties":{"name":"Mount Echo Road","road_class":"track","source":"OpenStreetMap","source_detail":"osm way 10285975","source_tile":"168/393","surface_inferred":true},"geometry":{"type":"LineString","coordinates":[[-120.90468,38.38999],[-120.90419,38.3901],[-120.90404,38.38994],[-120.90396,38.38928],[-120.9041,38.38896],[-120.90426,38.38885],[-120.90442,38.38873],[-120.90456,38.3887],[-120.90567,38.38877],[-120.90574,38.3888]]}},{"type":"Feature","properties":{"name":"Mount Echo Road","road_class":"track","source":"OpenStreetMap","source_detail":"osm way 10286413","source_tile":"168/393","surface_inferred":true},"geometry":{"type":"LineString","coordinates":[[-120.90396,38.38928],[-120.90215,38.3896],[-120.90064,38.39019],[-120.89954,38.39044],[-120.89837,38.39095],[-120.89776,38.39104],[-120.89695,38.39099],[-120.89602,38.39083],[-120.89482,38.39102],[-120.89349,38.39088],[-120.89183,38.3903],[-120.88962,38.39046],[-120.88904,38.39067],[-120.88791,38.39156],[-120.88706,38.39209],[-120.88683,38.3925],[-120.88619,38.39296],[-120.88543,38.39325],[-120.88459,38.39337],[-120.8843,38.39364],[-120.88372,38.3938]]}},{"type":"Feature","properties":{"name":"Suckertown Road","road_class":"track","source":"OpenStreetMap","source_detail":"osm way 10286882","source_tile":"168/393","surface_inferred":true},"geometry":{"type":"LineString","coordinates":[[-120.71605,38.48861],[-120.71634,38.48846],[-120.71648,38.48844],[-120.7168,38.48841],[-120.7171,38.48834],[-120.71732,38.48832],[-120.71777,38.48844],[-120.71834,38.4883],[-120.71866,38.48821],[-120.71903,38.48803],[-120.71973,38.48768],[-120.71994,38.48754],[-120.72028,38.48729],[-120.72097,38.48694],[-120.72134,38.48681],[-120.7222,38.48653],[-120.72242,38.48637],[-120.72266,38.48622],[-120.72289,38.48611],[-120.72326,38.48603],[-120.72356,38.48594],[-120.72371,38.48585],[-120.72381,38.48571],[-120.72389,38.48541],[-120.72401,38.48502],[-120.72409,38.48469],[-120.72423,38.48458],[-120.7246,38.48452],[-120.72509,38.48462],[-120.72527,38.4845],[-120.72547,38.4843],[-120.72605,38.4838],[-120.72615,38.48382],[-120.72677,38.48423],[-120.72695,38.48425],[-120.72716,38.48416],[-120.72736,38.48405],[-120.7275,38.48406],[-120.72778,38.48408],[-120.72811,38.48407],[-120.72848,38.48404],[-120.7289,38.48387],[-120.72932,38.48351],[-120.72981,38.48305],[-120.73014,38.4829],[-120.73049,38.48284],[-120.73107,38.48279],[-120.73135,38.48263],[-120.73151,38.48244],[-120.7317,38.48233],[-120.73182,38.48225],[-120.73215,38.4819],[-120.73226,38.4815],[-120.73257,38.48129],[-120.7329,38.4812],[-120.73321,38.48115],[-120.73344,38.48099],[-120.73378,38.48091],[-120.73395,38.48098],[-120.73371,38.48152],[-120.73336,38.48223],[-120.73327,38.48251],[-120.73313,38.48282],[-120.73307,38.4832],[-120.73311,38.48327],[-120.73328,38.48333],[-120.73349,38.48318],[-120.73358,38.48299],[-120.73385,38.4826],[-120.73405,38.48228],[-120.73409,38.48222],[-120.73413,38.48218],[-120.73447,38.48206],[-120.73493,38.48214],[-120.73534,38.48263],[-120.73573,38.483],[-120.73583,38.48329],[-120.73596,38.48367],[-120.73608,38.4839],[-120.73644,38.48431],[-120.73657,38.48473],[-120.73673,38.48495],[-120.73685,38.48522],[-120.73698,38.4853],[-120.73727,38.48536],[-120.73753,38.48548],[-120.73781,38.48563],[-120.73802,38.48571],[-120.73836,38.48575],[-120.73859,38.48575],[-120.73876,38.48575],[-120.73882,38.48575],[-120.73885,38.48598],[-120.73893,38.48614],[-120.73902,38.48632],[-120.73899,38.48645],[-120.73884,38.4866],[-120.73861,38.48676],[-120.73864,38.48692],[-120.73885,38.48709],[-120.73902,38.48718],[-120.7393,38.48723],[-120.73937,38.48728],[-120.73943,38.48733]]}},{"type":"Feature","properties":{"name":"Clapboard Road","road_class":"track","source":"OpenStreetMap","source_detail":"osm way 10286916","source_tile":"168/393","surface_inferred":true},"geometry":{"type":"LineString","coordinates":[[-120.6276,38.44673],[-120.62756,38.44725],[-120.6274,38.448],[-120.6273,38.44847],[-120.62718,38.44889],[-120.62722,38.45019]]}},{"type":"Feature","properties":{"name":"Sonshine","road_class":"unclassified","surface":"unpaved","source":"OpenStreetMap","source_detail":"osm way 10287392","source_tile":"168/393"},"geometry":{"type":"LineString","coordinates":[[-120.69904,38.44669],[-120.69951,38.44686],[-120.69976,38.44695],[-120.7001,38.44707],[-120.70036,38.44717],[-120.70069,38.44736],[-120.70097,38.44752],[-120.70124,38.4476],[-120.70144,38.44765],[-120.70165,38.44775],[-120.7019,38.44789],[-120.702,38.44799],[-120.70206,38.44818],[-120.7022,38.44831],[-120.70248,38.44847],[-120.70265,38.44867],[-120.70283,38.44891],[-120.70307,38.44941],[-120.70333,38.44997],[-120.70332,38.45055],[-120.70334,38.45069],[-120.70339,38.4508],[-120.7035,38.45091],[-120.70407,38.45125],[-120.70452,38.45149],[-120.70457,38.4515],[-120.70463,38.45149],[-120.70482,38.45143],[-120.70509,38.45135],[-120.70521,38.4513],[-120.7054,38.45128],[-120.70554,38.45126],[-120.70565,38.45129],[-120.70581,38.45141],[-120.70593,38.4515],[-120.70605,38.4516],[-120.70616,38.45177],[-120.70628,38.45197],[-120.70645,38.45217]]}},{"type":"Feature","properties":{"name":"(unnamed public road)","road_class":"track","source":"OpenStreetMap","source_detail":"osm way 10315012","source_tile":"169/393","surface_inferred":true},"geometry":{"type":"LineString","coordinates":[[-120.56345,38.52616],[-120.56316,38.52657],[-120.56316,38.52673],[-120.56404,38.52732],[-120.56435,38.52753],[-120.56455,38.52755],[-120.5652,38.5276],[-120.56564,38.5279],[-120.56569,38.52829],[-120.56593,38.52845],[-120.5675,38.52907],[-120.56803,38.5295],[-120.56834,38.52996],[-120.56843,38.53004],[-120.56887,38.53042],[-120.56948,38.53074],[-120.57021,38.53149],[-120.57056,38.5317],[-120.57104,38.53181],[-120.57134,38.53188],[-120.57263,38.5319],[-120.57295,38.532],[-120.5733,38.53227],[-120.5735,38.5327],[-120.57379,38.53284],[-120.57534,38.53314],[-120.576,38.53307],[-120.57629,38.53293],[-120.57705,38.53257],[-120.58008,38.5328],[-120.58064,38.53325],[-120.58105,38.53343],[-120.58113,38.53346],[-120.58267,38.53337],[-120.58401,38.53298],[-120.58594,38.53298],[-120.58728,38.53348],[-120.58788,38.53337],[-120.58838,38.53327],[-120.58961,38.5333],[-120.59019,38.53337],[-120.5906,38.53369],[-120.59101,38.53385],[-120.59179,38.53379],[-120.59307,38.53368],[-120.59538,38.53339],[-120.59683,38.53291],[-120.59808,38.53268],[-120.59899,38.53229],[-120.59931,38.53231],[-120.59963,38.53247],[-120.60023,38.53294],[-120.60071,38.53332],[-120.60082,38.5338],[-120.60088,38.53583],[-120.60106,38.53666],[-120.60152,38.53739],[-120.60182,38.53851],[-120.60202,38.53883],[-120.60263,38.53915],[-120.60286,38.53938],[-120.60272,38.53988],[-120.6031,38.54043],[-120.60313,38.54109],[-120.60327,38.54112],[-120.60359,38.54096],[-120.60377,38.54062],[-120.60397,38.54048],[-120.6042,38.54052],[-120.6042,38.5408],[-120.60397,38.54114],[-120.60368,38.54219],[-120.60371,38.54274],[-120.604,38.54306],[-120.60412,38.54345],[-120.60415,38.54407],[-120.60429,38.54407],[-120.60456,38.54375],[-120.60453,38.54315],[-120.6042,38.54226],[-120.60432,38.54201],[-120.6047,38.54171],[-120.60496,38.54096],[-120.6056,38.5402],[-120.60627,38.54018],[-120.60668,38.54009],[-120.60688,38.53988],[-120.60712,38.53936],[-120.60741,38.53908],[-120.60779,38.5389],[-120.60895,38.53885],[-120.60968,38.53912],[-120.60974,38.53931],[-120.61055,38.53965],[-120.6107,38.53981],[-120.61096,38.54075],[-120.61096,38.54272],[-120.61105,38.54279],[-120.61123,38.54306],[-120.61134,38.54356],[-120.61193,38.54382],[-120.61228,38.54452],[-120.61254,38.54462],[-120.61388,38.5445],[-120.61388,38.54423],[-120.61364,38.54388]]}},{"type":"Feature","properties":{"name":"(unnamed public road)","road_class":"track","source":"OpenStreetMap","source_detail":"osm way 10317617","source_tile":"168/393","surface_inferred":true},"geometry":{"type":"LineString","coordinates":[[-120.619,38.53571],[-120.61833,38.53555],[-120.61783,38.53521],[-120.61748,38.53528],[-120.61722,38.53544],[-120.61673,38.53542],[-120.61649,38.53535],[-120.61565,38.53542],[-120.61553,38.53535],[-120.61556,38.53512],[-120.61664,38.53441],[-120.61687,38.53418],[-120.61687,38.53391],[-120.61678,38.53384],[-120.61632,38.53395],[-120.61355,38.53533],[-120.61347,38.53538],[-120.61329,38.53551],[-120.61317,38.53592],[-120.61285,38.5361],[-120.61224,38.53626],[-120.61183,38.53663],[-120.61169,38.537],[-120.61175,38.53727],[-120.61201,38.53766],[-120.61227,38.53793],[-120.6123,38.53844],[-120.61204,38.53901],[-120.61181,38.53924],[-120.60968,38.53912]]}},{"type":"Feature","properties":{"name":"(unnamed public road)","road_class":"track","source":"OpenStreetMap","source_detail":"osm way 10318212","source_tile":"169/393","surface_inferred":true},"geometry":{"type":"LineString","coordinates":[[-120.58946,38.5365],[-120.58827,38.53691],[-120.58652,38.53721],[-120.58448,38.53769],[-120.58297,38.53787],[-120.58172,38.53829],[-120.57991,38.53847]]}},{"type":"Feature","properties":{"name":"(unnamed public road)","road_class":"track","source":"OpenStreetMap","source_detail":"osm way 10318868","source_tile":"168/393","surface_inferred":true},"geometry":{"type":"LineString","coordinates":[[-120.60514,38.50332],[-120.60599,38.50298],[-120.60625,38.503],[-120.60756,38.50348],[-120.60814,38.5038],[-120.60835,38.50442],[-120.60902,38.50465],[-120.60972,38.50517],[-120.60983,38.50568],[-120.61024,38.50588],[-120.61094,38.50597],[-120.61109,38.50616],[-120.611,38.50634],[-120.60908,38.50639],[-120.60852,38.50652],[-120.60646,38.50657],[-120.60555,38.50707],[-120.60518,38.50714],[-120.60436,38.50705],[-120.60407,38.50751],[-120.60398,38.50808],[-120.60395,38.50879],[-120.60384,38.50907],[-120.60395,38.50923],[-120.60428,38.50918],[-120.60474,38.50897],[-120.60593,38.50801],[-120.6062,38.5079],[-120.60692,38.50803],[-120.60771,38.50849],[-120.60838,38.50858],[-120.60893,38.50881],[-120.6096,38.50881],[-120.61062,38.50865],[-120.61112,38.5087],[-120.61138,38.50888],[-120.61158,38.5092],[-120.61176,38.50977],[-120.61243,38.50961],[-120.61286,38.50975],[-120.61388,38.50975],[-120.6142,38.51004],[-120.61438,38.51082],[-120.61453,38.51094]]}},{"type":"Feature","properties":{"name":"(unnamed public road)","road_class":"track","source":"OpenStreetMap","source_detail":"osm way 10319666","source_tile":"169/393","surface_inferred":true},"geometry":{"type":"LineString","coordinates":[[-120.57885,38.50953],[-120.57893,38.5094],[-120.57899,38.5093],[-120.57895,38.50902],[-120.57895,38.50886],[-120.57912,38.50816],[-120.57952,38.50731],[-120.57944,38.50623],[-120.57958,38.50573],[-120.57967,38.50514],[-120.57929,38.5047],[-120.57929,38.50413],[-120.57955,38.50399],[-120.58022,38.50392],[-120.58072,38.50427],[-120.58136,38.50449],[-120.58136,38.50507],[-120.58147,38.50514],[-120.58229,38.50495],[-120.58249,38.50465],[-120.58311,38.50459],[-120.5834,38.50468],[-120.58383,38.50534],[-120.58433,38.50555],[-120.58444,38.50566],[-120.5845,38.50648],[-120.58468,38.50669],[-120.58488,38.50664],[-120.58529,38.50614],[-120.5854,38.50566],[-120.58567,38.50539],[-120.58605,38.50516],[-120.5866,38.50509],[-120.58706,38.50527],[-120.58738,38.50559],[-120.58727,38.5074],[-120.58765,38.50749],[-120.58788,38.50731],[-120.58829,38.50726],[-120.5887,38.50735],[-120.58887,38.50678],[-120.58904,38.50664],[-120.58937,38.5066],[-120.59047,38.5071],[-120.59091,38.50701],[-120.59097,38.50653],[-120.59047,38.50564],[-120.5905,38.50527],[-120.59105,38.50525],[-120.59181,38.50582],[-120.59263,38.50587],[-120.59292,38.50644],[-120.59309,38.5066],[-120.59327,38.50662],[-120.59347,38.50653],[-120.59402,38.50596],[-120.59435,38.50587],[-120.59449,38.50593],[-120.59478,38.50644],[-120.59507,38.50651],[-120.59574,38.50632],[-120.59647,38.50628],[-120.59691,38.50671],[-120.59717,38.5068],[-120.59734,38.5068],[-120.59828,38.50635],[-120.59868,38.50628],[-120.5988,38.50637],[-120.59906,38.50705],[-120.59929,38.50731],[-120.59976,38.50742],[-120.60037,38.50701],[-120.60087,38.50694],[-120.60113,38.50703],[-120.60136,38.50724],[-120.60174,38.50778],[-120.60247,38.50797],[-120.60264,38.50808],[-120.6032,38.50822],[-120.60398,38.50808]]}},{"type":"Feature","properties":{"name":"(unnamed public road)","road_class":"track","source":"OpenStreetMap","source_detail":"osm way 182103364","source_tile":"168/393","surface_inferred":true},"geometry":{"type":"LineString","coordinates":[[-120.5978,38.40774],[-120.598,38.40764],[-120.59824,38.40751],[-120.59853,38.40736],[-120.59883,38.4073],[-120.59917,38.40731],[-120.59934,38.40736],[-120.59958,38.40727],[-120.59988,38.40711],[-120.60019,38.40701],[-120.60034,38.40702],[-120.6004,38.40704]]}},{"type":"Feature","properties":{"name":"(unnamed public road)","road_class":"track","source":"OpenStreetMap","source_detail":"osm way 182103365","source_tile":"168/393","surface_inferred":true},"geometry":{"type":"LineString","coordinates":[[-120.59582,38.40805],[-120.59563,38.40781],[-120.59534,38.40742],[-120.59524,38.4072],[-120.59524,38.40693],[-120.59518,38.40666],[-120.59502,38.40632],[-120.59479,38.40614],[-120.59448,38.40613],[-120.59419,38.40626],[-120.59413,38.40636],[-120.5942,38.4065]]}},{"type":"Feature","properties":{"name":"(unnamed public road)","road_class":"track","source":"OpenStreetMap","source_detail":"osm way 182103366","source_tile":"168/393","surface_inferred":true},"geometry":{"type":"LineString","coordinates":[[-120.59532,38.40875],[-120.59545,38.40881],[-120.59555,38.4089],[-120.59563,38.40893],[-120.59575,38.40886],[-120.59581,38.40876],[-120.59605,38.40864],[-120.59627,38.40861],[-120.59655,38.40859],[-120.59683,38.40858],[-120.59711,38.40853],[-120.59731,38.40847],[-120.59743,38.4084],[-120.59766,38.40838],[-120.59777,38.40832],[-120.59776,38.40815],[-120.59779,38.40796],[-120.59792,38.40783]]}},{"type":"Feature","properties":{"name":"(unnamed public road)","road_class":"track","source":"OpenStreetMap","source_detail":"osm way 182103367","source_tile":"168/393","surface_inferred":true},"geometry":{"type":"LineString","coordinates":[[-120.59439,38.42355],[-120.59598,38.42259]]}},{"type":"Feature","properties":{"name":"(unnamed public road)","road_class":"track","source":"OpenStreetMap","source_detail":"osm way 182103368","source_tile":"168/393","surface_inferred":true},"geometry":{"type":"LineString","coordinates":[[-120.59581,38.41207],[-120.59766,38.41062],[-120.59813,38.41018],[-120.59913,38.40949],[-120.59945,38.40924],[-120.59999,38.4089],[-120.60047,38.40859],[-120.60052,38.4083],[-120.60048,38.40768],[-120.60045,38.40743],[-120.60055,38.40719],[-120.60053,38.40707],[-120.60043,38.40703],[-120.6004,38.40704],[-120.60031,38.40705],[-120.59932,38.40765],[-120.59883,38.40785],[-120.59852,38.40792],[-120.5982,38.40791],[-120.59795,38.40785],[-120.59792,38.40783],[-120.5978,38.40774],[-120.59733,38.4074],[-120.59718,38.40734],[-120.59698,38.40737],[-120.59678,38.4075],[-120.59623,38.40782],[-120.59582,38.40805],[-120.59566,38.40815],[-120.59538,38.40842],[-120.59531,38.40867],[-120.59532,38.40875],[-120.59538,38.40902],[-120.59529,38.40924],[-120.59502,38.40961],[-120.5948,38.41003],[-120.59467,38.4104],[-120.59448,38.41099],[-120.59443,38.41119],[-120.59431,38.41137]]}},{"type":"Feature","properties":{"name":"Ponderosa Way North","road_class":"track","source":"OpenStreetMap","source_detail":"osm way 188537221","source_tile":"168/393","surface_inferred":true},"geometry":{"type":"LineString","coordinates":[[-120.63133,38.34097],[-120.6314,38.34085],[-120.63152,38.34072],[-120.63165,38.34064],[-120.63228,38.34041],[-120.63301,38.34042],[-120.63383,38.34072],[-120.63516,38.341],[-120.6358,38.34128],[-120.63623,38.34181],[-120.63626,38.34199],[-120.63652,38.34215],[-120.63821,38.34239],[-120.63946,38.34221],[-120.64091,38.3422],[-120.64132,38.34238],[-120.64129,38.34259],[-120.64074,38.34286],[-120.63838,38.34331],[-120.63677,38.34403],[-120.63509,38.34375],[-120.63463,38.34313],[-120.63405,38.34271],[-120.63376,38.34273],[-120.63355,38.34291],[-120.63358,38.34346],[-120.63375,38.34381],[-120.63421,38.34411],[-120.63584,38.34467],[-120.63627,38.34497],[-120.63685,38.34504],[-120.63854,38.34482],[-120.64029,38.34476],[-120.64052,38.34488],[-120.64052,38.34526],[-120.64002,38.34609],[-120.63894,38.34711],[-120.6385,38.34791],[-120.6368,38.34967],[-120.63633,38.35076],[-120.6361,38.35166],[-120.63613,38.35223],[-120.63665,38.35269],[-120.63711,38.35362],[-120.63734,38.35374],[-120.63824,38.35376],[-120.63856,38.35383],[-120.63897,38.3542],[-120.63906,38.35504],[-120.63917,38.3552],[-120.6392,38.35568]]}},{"type":"Feature","properties":{"name":"(unnamed public road)","road_class":"track","source":"OpenStreetMap","source_detail":"osm way 307634158","source_tile":"168/393","surface_inferred":true},"geometry":{"type":"LineString","coordinates":[[-120.87743,38.43696],[-120.87708,38.43695],[-120.87652,38.43724],[-120.87591,38.43747],[-120.87539,38.43759],[-120.87484,38.43763],[-120.87459,38.43753],[-120.87439,38.43749],[-120.87413,38.43755],[-120.87387,38.43761],[-120.87365,38.43762],[-120.87343,38.43754],[-120.87327,38.43748]]}},{"type":"Feature","properties":{"name":"(unnamed public road)","road_class":"track","source":"OpenStreetMap","source_detail":"osm way 307634160","source_tile":"168/393","surface_inferred":true},"geometry":{"type":"LineString","coordinates":[[-120.88386,38.43448],[-120.88358,38.43448],[-120.88319,38.43446],[-120.88259,38.43445],[-120.88222,38.43448],[-120.88182,38.43446],[-120.88147,38.43446],[-120.88119,38.43454],[-120.88089,38.43472],[-120.88064,38.43484],[-120.88026,38.43491],[-120.87923,38.43488],[-120.87866,38.4349],[-120.87834,38.43486],[-120.87811,38.43468],[-120.87783,38.43466],[-120.87741,38.43464],[-120.8772,38.43468]]}},{"type":"Feature","properties":{"name":"(unnamed public road)","road_class":"track","source":"OpenStreetMap","source_detail":"osm way 307634161","source_tile":"168/393","surface_inferred":true},"geometry":{"type":"LineString","coordinates":[[-120.88157,38.41677],[-120.88182,38.41689],[-120.88204,38.41695],[-120.88248,38.41705]]}},{"type":"Feature","properties":{"name":"(unnamed public road)","road_class":"track","source":"OpenStreetMap","source_detail":"osm way 307634165","source_tile":"168/393","surface_inferred":true},"geometry":{"type":"LineString","coordinates":[[-120.89329,38.40031],[-120.89302,38.40023],[-120.89271,38.40019],[-120.89255,38.4002],[-120.89247,38.40033],[-120.89243,38.40045],[-120.89233,38.40054],[-120.89218,38.40054],[-120.89209,38.40043]]}},{"type":"Feature","properties":{"name":"(unnamed public road)","road_class":"track","source":"OpenStreetMap","source_detail":"osm way 375490795","source_tile":"168/393","surface_inferred":true},"geometry":{"type":"LineString","coordinates":[[-120.91893,38.44311],[-120.91979,38.44254]]}},{"type":"Feature","properties":{"name":"Old Tonzi Road","road_class":"track","source":"OpenStreetMap","source_detail":"osm way 562607381","source_tile":"168/393","surface_inferred":true},"geometry":{"type":"LineString","coordinates":[[-120.83138,38.40679],[-120.83109,38.4069],[-120.83059,38.40691],[-120.83001,38.40691],[-120.82686,38.40583],[-120.82675,38.40581],[-120.82085,38.40373],[-120.82075,38.40366],[-120.82066,38.40354],[-120.82059,38.40282],[-120.82057,38.40275],[-120.82044,38.40257],[-120.81979,38.40202],[-120.81929,38.40158],[-120.8189,38.40114],[-120.8187,38.40077],[-120.81837,38.40035],[-120.81826,38.40002],[-120.81796,38.39968],[-120.81733,38.39954],[-120.81668,38.39937],[-120.81632,38.39929],[-120.816,38.3992]]}},{"type":"Feature","properties":{"name":"Sonshine Lane","road_class":"track","source":"OpenStreetMap","source_detail":"osm way 582087583","source_tile":"168/393","surface_inferred":true},"geometry":{"type":"LineString","coordinates":[[-120.70645,38.45217],[-120.70668,38.45229],[-120.70708,38.45259],[-120.70731,38.45283],[-120.70751,38.45302],[-120.70788,38.45313],[-120.70811,38.45324],[-120.70859,38.45372],[-120.70882,38.45398],[-120.70895,38.45406],[-120.70915,38.45413],[-120.70939,38.45414],[-120.70975,38.45416],[-120.70996,38.45419],[-120.71035,38.45456],[-120.71078,38.45503],[-120.71097,38.45517],[-120.71117,38.4553],[-120.71165,38.45562],[-120.71199,38.45574],[-120.71235,38.45581],[-120.71254,38.45579],[-120.71282,38.45566],[-120.71304,38.4555],[-120.71313,38.45544],[-120.71322,38.45544],[-120.71336,38.45546],[-120.71352,38.45558],[-120.71377,38.45582],[-120.71402,38.45607],[-120.71421,38.4564],[-120.71444,38.45653],[-120.71478,38.45668],[-120.7151,38.45672],[-120.71528,38.45683],[-120.71543,38.45695],[-120.71567,38.45697],[-120.71592,38.45697],[-120.71614,38.45702],[-120.71633,38.45704],[-120.71696,38.45707]]}},{"type":"Feature","properties":{"name":"(unnamed public road)","road_class":"track","source":"OpenStreetMap","source_detail":"osm way 582114028","source_tile":"168/393","surface_inferred":true},"geometry":{"type":"LineString","coordinates":[[-120.69291,38.48591],[-120.69264,38.4859],[-120.69253,38.48577],[-120.69247,38.48553],[-120.69236,38.48528],[-120.69218,38.48505],[-120.69207,38.48486],[-120.69201,38.48454],[-120.69195,38.4843],[-120.69203,38.48405],[-120.69221,38.484],[-120.69288,38.48383],[-120.69339,38.48365],[-120.69444,38.48302],[-120.69487,38.4828],[-120.69549,38.48256],[-120.69602,38.48238],[-120.69673,38.48223],[-120.69785,38.48206],[-120.69825,38.48203],[-120.69866,38.48189],[-120.69989,38.48151],[-120.70009,38.48148],[-120.70039,38.48146],[-120.70097,38.48146],[-120.70123,38.48143],[-120.70132,38.48137],[-120.70136,38.48125],[-120.70135,38.48113]]}},{"type":"Feature","properties":{"name":"(unnamed public road)","road_class":"track","source":"OpenStreetMap","source_detail":"osm way 585021948","source_tile":"168/393","surface_inferred":true},"geometry":{"type":"LineString","coordinates":[[-120.73411,38.42186],[-120.73431,38.42176],[-120.73444,38.42172],[-120.73452,38.42164],[-120.73457,38.42157],[-120.73461,38.42144],[-120.73464,38.42131],[-120.73465,38.42119],[-120.73465,38.42107],[-120.73463,38.42091],[-120.73459,38.42082],[-120.73455,38.42072],[-120.73455,38.42056],[-120.7345,38.42025],[-120.73445,38.41994],[-120.73436,38.41968],[-120.73432,38.41956],[-120.73431,38.41929],[-120.73432,38.41886],[-120.73442,38.41868]]}},{"type":"Feature","properties":{"name":"Hodaka Way","road_class":"track","source":"OpenStreetMap","source_detail":"osm way 660572289","source_tile":"168/393","surface_inferred":true},"geometry":{"type":"LineString","coordinates":[[-120.72743,38.43577],[-120.72735,38.43584],[-120.72721,38.43591],[-120.7271,38.43599],[-120.72709,38.43606],[-120.72713,38.43622],[-120.72716,38.43647],[-120.72713,38.43658],[-120.72705,38.43662]]}},{"type":"Feature","properties":{"name":"(unnamed public road)","road_class":"track","source":"OpenStreetMap","source_detail":"osm way 782901036","source_tile":"168/393","surface_inferred":true},"geometry":{"type":"LineString","coordinates":[[-120.78691,38.44838],[-120.78662,38.4483],[-120.78634,38.44825],[-120.78598,38.44822],[-120.78584,38.44816],[-120.78563,38.44802],[-120.78541,38.44777],[-120.78513,38.44746],[-120.78509,38.44743],[-120.78483,38.44717],[-120.78466,38.44703],[-120.78451,38.44697],[-120.78435,38.44691],[-120.7842,38.44686],[-120.78409,38.44679],[-120.78396,38.44654],[-120.78396,38.44633],[-120.78395,38.44622],[-120.78394,38.44612],[-120.78388,38.446],[-120.78378,38.44591],[-120.78372,38.44581],[-120.78373,38.44553],[-120.78376,38.44535]]}},{"type":"Feature","properties":{"name":"(unnamed public road)","road_class":"track","source":"OpenStreetMap","source_detail":"osm way 782902907","source_tile":"168/393","surface_inferred":true},"geometry":{"type":"LineString","coordinates":[[-120.85542,38.35986],[-120.85554,38.36019],[-120.85571,38.36063]]}},{"type":"Feature","properties":{"name":"(unnamed public road)","road_class":"track","source":"OpenStreetMap","source_detail":"osm way 782902908","source_tile":"168/393","surface_inferred":true},"geometry":{"type":"LineString","coordinates":[[-120.85523,38.35887],[-120.85505,38.35887],[-120.85488,38.35884],[-120.85419,38.35855],[-120.85405,38.3585],[-120.854,38.35851],[-120.85394,38.35856],[-120.85387,38.35865],[-120.85374,38.35872],[-120.85369,38.35904],[-120.85366,38.35969],[-120.85368,38.35973],[-120.85386,38.35978],[-120.85432,38.35993],[-120.85451,38.36004],[-120.85461,38.36009],[-120.85479,38.36015],[-120.85492,38.36027],[-120.85504,38.36033]]}},{"type":"Feature","properties":{"name":"(unnamed public road)","road_class":"track","source":"OpenStreetMap","source_detail":"osm way 783022713","source_tile":"168/393","surface_inferred":true},"geometry":{"type":"LineString","coordinates":[[-120.70091,38.52253],[-120.69921,38.52252]]}},{"type":"Feature","properties":{"name":"(unnamed public road)","road_class":"track","source":"OpenStreetMap","source_detail":"osm way 783790986","source_tile":"168/393","surface_inferred":true},"geometry":{"type":"LineString","coordinates":[[-120.78613,38.44358],[-120.78616,38.44346],[-120.78616,38.44291],[-120.78654,38.44257],[-120.78665,38.44253],[-120.78723,38.44258],[-120.78728,38.44255],[-120.78729,38.44245],[-120.78725,38.44214],[-120.78722,38.44183],[-120.78722,38.4416],[-120.78725,38.44141],[-120.78716,38.44118],[-120.78693,38.44085],[-120.78686,38.44072],[-120.78683,38.44029],[-120.78697,38.4401],[-120.78716,38.43992],[-120.78745,38.43966],[-120.78784,38.4395],[-120.78796,38.43941],[-120.78798,38.43934],[-120.78795,38.4392],[-120.78796,38.43909],[-120.78816,38.43887],[-120.78828,38.4388]]}},{"type":"Feature","properties":{"name":"(unnamed public road)","road_class":"track","source":"OpenStreetMap","source_detail":"osm way 784137828","source_tile":"168/393","surface_inferred":true},"geometry":{"type":"LineString","coordinates":[[-120.84955,38.35554],[-120.85054,38.35581],[-120.85118,38.3564],[-120.85248,38.35679],[-120.85327,38.35734],[-120.85394,38.35755],[-120.85414,38.35775],[-120.85417,38.35816],[-120.85523,38.35887],[-120.8553,38.35892],[-120.85545,38.35913],[-120.85554,38.35942],[-120.85558,38.35957],[-120.85554,38.35972],[-120.85542,38.35986],[-120.85504,38.36033],[-120.85496,38.36042],[-120.85451,38.36084],[-120.85428,38.36116],[-120.85461,38.36274],[-120.85531,38.36427],[-120.85554,38.36503],[-120.85545,38.36578],[-120.85513,38.36631],[-120.85441,38.36892]]}},{"type":"Feature","properties":{"name":"(unnamed public road)","road_class":"track","source":"OpenStreetMap","source_detail":"osm way 784454435","source_tile":"168/393","surface_inferred":true},"geometry":{"type":"LineString","coordinates":[[-120.88435,38.42413],[-120.88398,38.42384],[-120.88369,38.4235],[-120.88339,38.4229],[-120.88318,38.4226],[-120.88291,38.42249],[-120.88264,38.42248],[-120.88247,38.42266],[-120.88249,38.42299]]}},{"type":"Feature","properties":{"name":"(unnamed public road)","road_class":"track","source":"OpenStreetMap","source_detail":"osm way 784718860","source_tile":"168/393","surface_inferred":true},"geometry":{"type":"LineString","coordinates":[[-120.91274,38.37956],[-120.91258,38.37977],[-120.91237,38.38039],[-120.91248,38.38077],[-120.91264,38.38088],[-120.91324,38.38108]]}},{"type":"Feature","properties":{"name":"(unnamed public road)","road_class":"track","source":"OpenStreetMap","source_detail":"osm way 787115840","source_tile":"168/393","surface_inferred":true},"geometry":{"type":"LineString","coordinates":[[-120.90426,38.38885],[-120.90404,38.3887],[-120.9039,38.38862],[-120.9038,38.38855],[-120.90375,38.38852],[-120.90368,38.38849],[-120.90361,38.38847],[-120.90353,38.38845],[-120.90343,38.38842],[-120.90332,38.38841],[-120.90314,38.38839],[-120.90299,38.38838],[-120.90288,38.38837],[-120.90283,38.38837],[-120.90276,38.38838],[-120.90267,38.38841],[-120.90256,38.38847],[-120.90238,38.38859]]}},{"type":"Feature","properties":{"name":"(unnamed public road)","road_class":"track","source":"OpenStreetMap","source_detail":"osm way 807942225","source_tile":"168/393","surface_inferred":true},"geometry":{"type":"LineString","coordinates":[[-120.86408,38.46871],[-120.86438,38.46874],[-120.86544,38.46898],[-120.86599,38.46928],[-120.86654,38.46977],[-120.86672,38.46991],[-120.86727,38.47007],[-120.86787,38.47013],[-120.86853,38.47005],[-120.86877,38.47006],[-120.86965,38.4699],[-120.86988,38.46996],[-120.87014,38.46998],[-120.87084,38.4699],[-120.87173,38.47001],[-120.87217,38.47026],[-120.87267,38.47076],[-120.87311,38.47146]]}},{"type":"Feature","properties":{"name":"(unnamed public road)","road_class":"track","source":"OpenStreetMap","source_detail":"osm way 841560908","source_tile":"168/393","surface_inferred":true},"geometry":{"type":"LineString","coordinates":[[-120.88443,38.4241],[-120.88455,38.42422],[-120.88457,38.42434],[-120.88454,38.42444],[-120.88449,38.42452],[-120.8843,38.42466],[-120.88394,38.42483]]}},{"type":"Feature","properties":{"name":"Bell Road","road_class":"unclassified","surface":"unpaved","source":"OpenStreetMap","source_detail":"osm way 841978363","source_tile":"168/393"},"geometry":{"type":"LineString","coordinates":[[-120.83836,38.54703],[-120.83831,38.54653],[-120.83823,38.5463],[-120.83802,38.54602],[-120.83735,38.54512],[-120.83724,38.54496],[-120.83715,38.5449],[-120.83698,38.54482],[-120.83647,38.54468],[-120.83599,38.54453],[-120.83588,38.54452],[-120.83576,38.54456],[-120.83544,38.54478],[-120.83529,38.54492],[-120.83497,38.54538],[-120.83486,38.54551],[-120.83462,38.54554],[-120.83435,38.54555],[-120.83427,38.54553],[-120.83411,38.54537],[-120.83397,38.54518],[-120.83385,38.54513],[-120.83373,38.5451],[-120.83356,38.54512],[-120.83341,38.54517],[-120.83326,38.54525],[-120.83294,38.54547],[-120.83269,38.54571],[-120.83234,38.54601],[-120.83184,38.54654],[-120.83163,38.54675],[-120.83139,38.54691],[-120.83054,38.54726],[-120.83052,38.54727],[-120.82971,38.54747],[-120.82901,38.54776],[-120.82876,38.54783],[-120.82834,38.54791]]}},{"type":"Feature","properties":{"name":"(unnamed public road)","road_class":"track","source":"OpenStreetMap","source_detail":"osm way 843810657","source_tile":"168/393","surface_inferred":true},"geometry":{"type":"LineString","coordinates":[[-120.88386,38.43448],[-120.88403,38.43435],[-120.88415,38.43392],[-120.88422,38.43364],[-120.88441,38.43331]]}},{"type":"Feature","properties":{"name":"(unnamed public road)","road_class":"track","source":"OpenStreetMap","source_detail":"osm way 843810658","source_tile":"168/393","surface_inferred":true},"geometry":{"type":"LineString","coordinates":[[-120.88386,38.43448],[-120.88398,38.43471],[-120.88406,38.43509],[-120.88409,38.43521],[-120.88418,38.43556],[-120.88423,38.43562],[-120.88436,38.43563],[-120.88461,38.43557],[-120.88467,38.43549],[-120.88467,38.43543],[-120.8846,38.43538],[-120.88438,38.4353],[-120.88409,38.43521]]}},{"type":"Feature","properties":{"name":"(unnamed public road)","road_class":"track","source":"OpenStreetMap","source_detail":"osm way 844111123","source_tile":"168/393","surface_inferred":true},"geometry":{"type":"LineString","coordinates":[[-120.78368,38.44534],[-120.78369,38.44527],[-120.78366,38.4452],[-120.78362,38.44511],[-120.78359,38.44499],[-120.78358,38.4449],[-120.7836,38.44484],[-120.78369,38.44465],[-120.78372,38.44455],[-120.78372,38.44449],[-120.78368,38.44444],[-120.78362,38.44441],[-120.78347,38.44438],[-120.78337,38.44435],[-120.78327,38.4443],[-120.78317,38.44423],[-120.78307,38.4442],[-120.78296,38.44415],[-120.78293,38.44411],[-120.78292,38.44406],[-120.78294,38.44403],[-120.78302,38.44397],[-120.78321,38.44388],[-120.78336,38.44376],[-120.78351,38.44367],[-120.78361,38.44361],[-120.78372,38.4436],[-120.78383,38.44358],[-120.78389,38.44354],[-120.78393,38.44349],[-120.78394,38.44344],[-120.78393,38.44323],[-120.7839,38.44312],[-120.78389,38.44305]]}},{"type":"Feature","properties":{"name":"(unnamed public road)","road_class":"track","source":"OpenStreetMap","source_detail":"osm way 846111222","source_tile":"168/393","surface_inferred":true},"geometry":{"type":"LineString","coordinates":[[-120.78509,38.44743],[-120.78514,38.44735],[-120.7852,38.44729],[-120.78523,38.44725],[-120.78523,38.44714],[-120.78522,38.44702],[-120.7852,38.44693],[-120.78517,38.44689],[-120.78513,38.44684],[-120.78508,38.4468],[-120.78495,38.44677],[-120.78479,38.44674],[-120.78471,38.44673],[-120.78463,38.4467],[-120.78452,38.44663],[-120.78446,38.4466],[-120.78437,38.44653],[-120.78431,38.44645],[-120.78422,38.44636],[-120.78418,38.4463],[-120.78411,38.44625],[-120.78401,38.44622],[-120.78395,38.44622]]}},{"type":"Feature","properties":{"name":"(unnamed public road)","road_class":"track","source":"OpenStreetMap","source_detail":"osm way 1526486482","source_tile":"168/393","surface_inferred":true},"geometry":{"type":"LineString","coordinates":[[-120.92217,38.51818],[-120.92198,38.51841],[-120.92172,38.51864],[-120.92135,38.51886],[-120.92107,38.51899],[-120.92088,38.51903],[-120.92067,38.51909],[-120.92047,38.51919],[-120.9203,38.51922],[-120.91987,38.51923],[-120.91964,38.51925],[-120.91934,38.5193],[-120.91914,38.51928],[-120.91895,38.51926],[-120.91879,38.51926],[-120.91863,38.5193]]}},{"type":"Feature","properties":{"name":"(unnamed public road)","road_class":"track","source":"OpenStreetMap","source_detail":"osm way 1526486483","source_tile":"168/393","surface_inferred":true},"geometry":{"type":"LineString","coordinates":[[-120.9079,38.51941],[-120.90807,38.51933],[-120.90824,38.5193],[-120.90849,38.51928],[-120.90875,38.51928],[-120.90905,38.51931],[-120.90923,38.51936],[-120.90938,38.51947],[-120.90952,38.51964],[-120.90965,38.51974],[-120.90981,38.51986]]}}]}