{"type":"FeatureCollection","features":[{"type":"Feature","properties":{"name":"(unnamed public road)","road_class":"track","source":"OpenStreetMap","source_detail":"osm way 10434749","source_tile":"168/396","surface_inferred":true},"geometry":{"type":"LineString","coordinates":[[-120.66043,37.48855],[-120.66026,37.49165]]}},{"type":"Feature","properties":{"name":"(unnamed public road)","road_class":"track","source":"OpenStreetMap","source_detail":"osm way 10435224","source_tile":"168/396","surface_inferred":true},"geometry":{"type":"LineString","coordinates":[[-120.79902,37.46367],[-120.79981,37.46364],[-120.80042,37.46362],[-120.80125,37.46357],[-120.80173,37.46351],[-120.80215,37.46338],[-120.80281,37.46312],[-120.803,37.463]]}},{"type":"Feature","properties":{"name":"(unnamed public road)","road_class":"track","source":"OpenStreetMap","source_detail":"osm way 10437490","source_tile":"168/396","surface_inferred":true},"geometry":{"type":"LineString","coordinates":[[-120.78703,37.46329],[-120.78778,37.46385],[-120.78783,37.46387],[-120.78788,37.46387],[-120.78791,37.46385],[-120.78793,37.46382],[-120.78799,37.46383]]}},{"type":"Feature","properties":{"name":"(unnamed public road)","road_class":"track","source":"OpenStreetMap","source_detail":"osm way 10438068","source_tile":"168/396","surface_inferred":true},"geometry":{"type":"LineString","coordinates":[[-120.62968,37.44845],[-120.62908,37.44832],[-120.62886,37.44826],[-120.62879,37.44819],[-120.62873,37.44808],[-120.6287,37.44789],[-120.62864,37.44784],[-120.62857,37.44782],[-120.62847,37.44782],[-120.62808,37.44785],[-120.62792,37.44785],[-120.62769,37.44783],[-120.62724,37.44779],[-120.62713,37.44779],[-120.62691,37.4478],[-120.6266,37.44787],[-120.62655,37.44787],[-120.62637,37.44786],[-120.62606,37.44781],[-120.62589,37.4478],[-120.62575,37.44781],[-120.62565,37.44782],[-120.62554,37.44784],[-120.62532,37.44792],[-120.62514,37.44797],[-120.62489,37.44806],[-120.62465,37.44814],[-120.62414,37.44832],[-120.62392,37.44838],[-120.62374,37.44842],[-120.62319,37.4485],[-120.62256,37.44865],[-120.62245,37.44869],[-120.62238,37.44873],[-120.6223,37.44879],[-120.62223,37.44884],[-120.62195,37.44909],[-120.62188,37.44923],[-120.62187,37.44944],[-120.62194,37.44998],[-120.62197,37.45043],[-120.62193,37.45073]]}},{"type":"Feature","properties":{"name":"(unnamed public road)","road_class":"track","source":"OpenStreetMap","source_detail":"osm way 10438321","source_tile":"169/396","surface_inferred":true},"geometry":{"type":"LineString","coordinates":[[-120.58954,37.5352],[-120.58779,37.53455],[-120.5848,37.53343],[-120.57825,37.53166],[-120.57519,37.52957],[-120.57466,37.52875],[-120.57339,37.52679],[-120.57316,37.52614],[-120.5742,37.5209]]}},{"type":"Feature","properties":{"name":"(unnamed public road)","road_class":"track","surface":"unpaved","source":"OpenStreetMap","source_detail":"osm way 10438821","source_tile":"168/397"},"geometry":{"type":"LineString","coordinates":[[-120.78661,37.43408],[-120.78654,37.43438],[-120.78627,37.43534],[-120.78588,37.4359],[-120.78556,37.43641],[-120.78546,37.43661],[-120.78542,37.43687],[-120.78552,37.43756],[-120.78595,37.4382],[-120.78667,37.4389],[-120.78729,37.43962],[-120.78797,37.44009],[-120.7889,37.44082],[-120.78948,37.44132],[-120.78973,37.44156],[-120.78983,37.44176],[-120.79017,37.44295],[-120.79022,37.44305]]}},{"type":"Feature","properties":{"name":"(unnamed public road)","road_class":"track","source":"OpenStreetMap","source_detail":"osm way 10439217","source_tile":"168/396","surface_inferred":true},"geometry":{"type":"LineString","coordinates":[[-120.6307,37.44083],[-120.63086,37.44174],[-120.63082,37.44181],[-120.63071,37.44187],[-120.63042,37.4419],[-120.6286,37.44186],[-120.62844,37.44187],[-120.62831,37.44191],[-120.62816,37.44203],[-120.62767,37.44285],[-120.62729,37.44351],[-120.62686,37.44442],[-120.6262,37.44608],[-120.62622,37.44619],[-120.62645,37.44668]]}},{"type":"Feature","properties":{"name":"(unnamed public road)","road_class":"track","source":"OpenStreetMap","source_detail":"osm way 10440385","source_tile":"168/396","surface_inferred":true},"geometry":{"type":"LineString","coordinates":[[-120.807,37.45947],[-120.80592,37.46029],[-120.80459,37.46032],[-120.80311,37.46129],[-120.80306,37.4621],[-120.80307,37.4623],[-120.80298,37.46254],[-120.803,37.463],[-120.80314,37.46335],[-120.80335,37.46343]]}},{"type":"Feature","properties":{"name":"(unnamed public road)","road_class":"track","source":"OpenStreetMap","source_detail":"osm way 10445012","source_tile":"168/396","surface_inferred":true},"geometry":{"type":"LineString","coordinates":[[-120.7203,37.46284],[-120.71996,37.46285],[-120.71889,37.46283],[-120.71743,37.46282],[-120.71592,37.4628],[-120.71483,37.46279],[-120.71441,37.46279],[-120.71394,37.46279],[-120.71273,37.46279],[-120.71219,37.46279],[-120.7101,37.46279],[-120.70947,37.4628],[-120.70816,37.46275],[-120.70809,37.46273],[-120.70803,37.46269],[-120.70798,37.46264],[-120.70796,37.46258]]}},{"type":"Feature","properties":{"name":"(unnamed public road)","road_class":"track","source":"OpenStreetMap","source_detail":"osm way 10446340","source_tile":"168/396","surface_inferred":true},"geometry":{"type":"LineString","coordinates":[[-120.73977,37.4702],[-120.73901,37.47021],[-120.73765,37.47019],[-120.73758,37.4702],[-120.73737,37.47022],[-120.73329,37.47017]]}},{"type":"Feature","properties":{"name":"(unnamed public road)","road_class":"track","source":"OpenStreetMap","source_detail":"osm way 238690531","source_tile":"168/396","surface_inferred":true},"geometry":{"type":"LineString","coordinates":[[-120.88116,37.51463],[-120.88097,37.51452],[-120.87928,37.51453]]}},{"type":"Feature","properties":{"name":"(unnamed public road)","road_class":"track","source":"OpenStreetMap","source_detail":"osm way 297303043","source_tile":"168/396","surface_inferred":true},"geometry":{"type":"LineString","coordinates":[[-120.69441,37.45541],[-120.69074,37.45545],[-120.69005,37.45544],[-120.68958,37.45545],[-120.68799,37.45544],[-120.68785,37.45543],[-120.68707,37.45542],[-120.68558,37.45543],[-120.68553,37.45542],[-120.6855,37.4554],[-120.68543,37.45535],[-120.68541,37.45532],[-120.68082,37.45532],[-120.67623,37.45528],[-120.67359,37.45527],[-120.67353,37.45526],[-120.67348,37.45525]]}},{"type":"Feature","properties":{"name":"Shaffer Road","road_class":"track","source":"OpenStreetMap","source_detail":"osm way 449655266","source_tile":"169/396","surface_inferred":true},"geometry":{"type":"LineString","coordinates":[[-120.59737,37.46042],[-120.59722,37.4607],[-120.59718,37.4608],[-120.59716,37.46089],[-120.59715,37.46098],[-120.59717,37.46129],[-120.59715,37.46141],[-120.5971,37.46156],[-120.59698,37.46186],[-120.59696,37.46196],[-120.59696,37.46204],[-120.59698,37.46214],[-120.597,37.46222],[-120.59711,37.46244],[-120.59716,37.46254],[-120.59723,37.46283],[-120.59727,37.46296],[-120.59743,37.46328],[-120.59743,37.46333],[-120.5974,37.46337],[-120.59731,37.46344],[-120.5973,37.4635],[-120.59731,37.46355],[-120.59754,37.46384],[-120.59774,37.46415],[-120.59787,37.46435],[-120.59795,37.46449],[-120.59822,37.46513],[-120.59831,37.4654],[-120.59839,37.46572],[-120.5984,37.4658],[-120.59839,37.46594],[-120.59835,37.46603],[-120.59803,37.46648],[-120.5978,37.46686],[-120.59779,37.46691],[-120.5978,37.46711],[-120.5978,37.46725],[-120.59776,37.46737],[-120.59766,37.46749],[-120.59757,37.46758],[-120.59727,37.46782],[-120.59707,37.46798],[-120.59672,37.46822],[-120.59651,37.46834],[-120.59559,37.46873],[-120.59526,37.46888],[-120.59475,37.4691],[-120.59466,37.46912],[-120.59457,37.46918],[-120.59454,37.46922],[-120.59454,37.46927],[-120.59454,37.46929],[-120.59455,37.46933],[-120.5947,37.46959],[-120.59474,37.46969],[-120.59475,37.46975],[-120.59475,37.46982],[-120.59473,37.46987],[-120.59472,37.46989],[-120.59467,37.46992],[-120.59455,37.47],[-120.59434,37.47011],[-120.59411,37.47021],[-120.59388,37.47029],[-120.59366,37.47036],[-120.59247,37.47063],[-120.5924,37.47064],[-120.59232,37.47064],[-120.59224,37.47062],[-120.59208,37.47056],[-120.59124,37.4702],[-120.59098,37.47008],[-120.59084,37.47],[-120.59057,37.46979],[-120.59049,37.46975],[-120.59044,37.4697],[-120.59033,37.46954],[-120.59023,37.46942],[-120.58987,37.46901],[-120.58977,37.46894],[-120.58969,37.46892],[-120.58938,37.46892],[-120.58928,37.46891],[-120.58875,37.46879],[-120.5881,37.46869],[-120.5876,37.46863],[-120.58721,37.46856],[-120.5865,37.46838],[-120.58636,37.46836],[-120.58623,37.46836],[-120.58611,37.46828],[-120.58569,37.46838],[-120.58549,37.46845],[-120.58531,37.4685],[-120.58487,37.46856],[-120.58413,37.46867],[-120.58398,37.46871],[-120.58388,37.46875],[-120.58367,37.46888],[-120.58356,37.4689],[-120.58342,37.46887],[-120.58314,37.46875],[-120.58293,37.46865],[-120.58272,37.46859],[-120.58218,37.4685],[-120.58207,37.46843],[-120.582,37.46834],[-120.58191,37.46814],[-120.58168,37.4679],[-120.58144,37.46772],[-120.58091,37.46746],[-120.58045,37.46705],[-120.58038,37.46696],[-120.58038,37.46683],[-120.58041,37.46649],[-120.58041,37.46635],[-120.58039,37.46599],[-120.58039,37.46554],[-120.58039,37.46508],[-120.58039,37.46489],[-120.58037,37.46463],[-120.58039,37.4645]]}},{"type":"Feature","properties":{"name":"(unnamed public road)","road_class":"track","source":"OpenStreetMap","source_detail":"osm way 450956843","source_tile":"168/396","surface_inferred":true},"geometry":{"type":"LineString","coordinates":[[-120.62193,37.45073],[-120.62193,37.45086],[-120.62197,37.45095],[-120.62206,37.451],[-120.6222,37.45102],[-120.62239,37.451],[-120.62263,37.45092],[-120.62288,37.45086],[-120.62308,37.45085],[-120.62325,37.45088],[-120.62345,37.45094],[-120.62363,37.45096],[-120.62418,37.45091],[-120.62446,37.45084],[-120.62547,37.45049],[-120.62704,37.44982],[-120.62799,37.44927],[-120.62867,37.44895],[-120.6291,37.44879],[-120.62926,37.44867],[-120.62935,37.44859],[-120.62944,37.44853],[-120.62951,37.44849],[-120.62968,37.44845]]}},{"type":"Feature","properties":{"name":"(unnamed public road)","road_class":"track","source":"OpenStreetMap","source_detail":"osm way 450956848","source_tile":"168/396","surface_inferred":true},"geometry":{"type":"LineString","coordinates":[[-120.62193,37.45073],[-120.62175,37.45109],[-120.62163,37.4512],[-120.62142,37.45133]]}},{"type":"Feature","properties":{"name":"(unnamed public road)","road_class":"track","motor_vehicle":"yes","source":"OpenStreetMap","source_detail":"osm way 673275640","source_tile":"168/396","surface_inferred":true},"geometry":{"type":"LineString","coordinates":[[-120.86658,37.68923],[-120.8677,37.68922],[-120.86802,37.68923],[-120.86822,37.68924],[-120.86839,37.68922],[-120.87014,37.68921],[-120.87202,37.68923],[-120.87294,37.68922],[-120.87305,37.6893],[-120.87329,37.68926],[-120.88168,37.68923],[-120.88328,37.68921],[-120.88407,37.6892],[-120.88448,37.68921],[-120.88489,37.68922]]}},{"type":"Feature","properties":{"name":"(unnamed public road)","road_class":"track","surface":"unpaved","source":"OpenStreetMap","source_detail":"osm way 673353276","source_tile":"168/397"},"geometry":{"type":"LineString","coordinates":[[-120.78638,37.43408],[-120.7863,37.43447],[-120.78622,37.43487],[-120.78614,37.43515],[-120.78595,37.43549],[-120.78538,37.43633],[-120.78524,37.43656],[-120.78523,37.43676],[-120.78533,37.43744],[-120.78538,37.43762],[-120.78566,37.43811],[-120.78582,37.43831],[-120.78614,37.43866],[-120.78699,37.43965],[-120.78718,37.43986],[-120.78737,37.44]]}},{"type":"Feature","properties":{"name":"(unnamed public road)","road_class":"track","source":"OpenStreetMap","source_detail":"osm way 705437779","source_tile":"169/396","surface_inferred":true},"geometry":{"type":"LineString","coordinates":[[-120.59134,37.68935],[-120.59073,37.68937],[-120.58976,37.68953],[-120.58886,37.6899],[-120.58775,37.69081],[-120.5872,37.69104],[-120.57466,37.69563],[-120.56801,37.69367],[-120.56312,37.69203]]}},{"type":"Feature","properties":{"name":"(unnamed public road)","road_class":"track","source":"OpenStreetMap","source_detail":"osm way 752143854","source_tile":"168/396","surface_inferred":true},"geometry":{"type":"LineString","coordinates":[[-120.87202,37.68923],[-120.87204,37.68971]]}},{"type":"Feature","properties":{"name":"(unnamed public road)","road_class":"track","source":"OpenStreetMap","source_detail":"osm way 777955679","source_tile":"168/396","surface_inferred":true},"geometry":{"type":"LineString","coordinates":[[-120.87907,37.55483],[-120.88132,37.55484],[-120.88146,37.55485],[-120.88365,37.55486],[-120.88374,37.55488],[-120.88582,37.55486],[-120.89282,37.55487]]}},{"type":"Feature","properties":{"name":"(unnamed public road)","road_class":"track","source":"OpenStreetMap","source_detail":"osm way 782865292","source_tile":"168/396","surface_inferred":true},"geometry":{"type":"LineString","coordinates":[[-120.85623,37.55844],[-120.85733,37.55844],[-120.85907,37.55846],[-120.86077,37.55847],[-120.86079,37.55666]]}},{"type":"Feature","properties":{"name":"(unnamed public road)","road_class":"track","source":"OpenStreetMap","source_detail":"osm way 782865293","source_tile":"168/396","surface_inferred":true},"geometry":{"type":"LineString","coordinates":[[-120.85907,37.55846],[-120.85907,37.55664]]}},{"type":"Feature","properties":{"name":"(unnamed public road)","road_class":"track","source":"OpenStreetMap","source_detail":"osm way 782865294","source_tile":"168/396","surface_inferred":true},"geometry":{"type":"LineString","coordinates":[[-120.85733,37.55844],[-120.85733,37.55738],[-120.85733,37.55666]]}},{"type":"Feature","properties":{"name":"(unnamed public road)","road_class":"track","source":"OpenStreetMap","source_detail":"osm way 782865295","source_tile":"168/396","surface_inferred":true},"geometry":{"type":"LineString","coordinates":[[-120.85733,37.55738],[-120.85623,37.55737]]}},{"type":"Feature","properties":{"name":"(unnamed public road)","road_class":"track","source":"OpenStreetMap","source_detail":"osm way 782865296","source_tile":"168/396","surface_inferred":true},"geometry":{"type":"LineString","coordinates":[[-120.85623,37.55664],[-120.85372,37.55665],[-120.8537,37.55844],[-120.85553,37.55846],[-120.8556,37.55843],[-120.85623,37.55844]]}},{"type":"Feature","properties":{"name":"(unnamed public road)","road_class":"track","source":"OpenStreetMap","source_detail":"osm way 782894188","source_tile":"168/396","surface_inferred":true},"geometry":{"type":"LineString","coordinates":[[-120.82948,37.64685],[-120.82913,37.64677],[-120.82893,37.64673],[-120.82856,37.64662],[-120.82811,37.64649],[-120.82765,37.64634],[-120.82712,37.64619],[-120.82696,37.64615],[-120.82674,37.64611],[-120.82654,37.6461],[-120.82629,37.64608],[-120.82559,37.64609],[-120.82441,37.6461],[-120.82293,37.64609],[-120.82295,37.6473],[-120.82304,37.64911]]}},{"type":"Feature","properties":{"name":"(unnamed public road)","road_class":"track","source":"OpenStreetMap","source_detail":"osm way 782894189","source_tile":"168/396","surface_inferred":true},"geometry":{"type":"LineString","coordinates":[[-120.8219,37.64913],[-120.82193,37.64889],[-120.82196,37.64865],[-120.82192,37.64773],[-120.82191,37.6475],[-120.82186,37.6461],[-120.82264,37.64609],[-120.82293,37.64609]]}},{"type":"Feature","properties":{"name":"(unnamed public road)","road_class":"track","source":"OpenStreetMap","source_detail":"osm way 782894190","source_tile":"168/396","surface_inferred":true},"geometry":{"type":"LineString","coordinates":[[-120.82192,37.64773],[-120.82103,37.64772],[-120.81998,37.6477],[-120.81763,37.64769],[-120.81757,37.64609],[-120.81859,37.64607],[-120.82069,37.64607],[-120.82098,37.64608],[-120.82186,37.6461]]}},{"type":"Feature","properties":{"name":"(unnamed public road)","road_class":"track","source":"OpenStreetMap","source_detail":"osm way 782894191","source_tile":"168/396","surface_inferred":true},"geometry":{"type":"LineString","coordinates":[[-120.81763,37.64769],[-120.81768,37.64885],[-120.81775,37.64887],[-120.8178,37.64889],[-120.818,37.64886],[-120.81831,37.64889],[-120.81843,37.64894],[-120.81938,37.64891],[-120.82089,37.64888],[-120.82107,37.64888],[-120.82193,37.64889]]}},{"type":"Feature","properties":{"name":"(unnamed public road)","road_class":"track","source":"OpenStreetMap","source_detail":"osm way 782894192","source_tile":"168/396","surface_inferred":true},"geometry":{"type":"LineString","coordinates":[[-120.82107,37.64888],[-120.82103,37.64772],[-120.82098,37.64608]]}},{"type":"Feature","properties":{"name":"Meikle Road","road_class":"track","source":"OpenStreetMap","source_detail":"osm way 782981101","source_tile":"168/396","surface_inferred":true},"geometry":{"type":"LineString","coordinates":[[-120.71901,37.59488],[-120.71787,37.59493],[-120.71768,37.59493],[-120.7176,37.59496],[-120.71752,37.59502],[-120.71747,37.59504]]}},{"type":"Feature","properties":{"name":"(unnamed public road)","road_class":"track","source":"OpenStreetMap","source_detail":"osm way 782997225","source_tile":"168/396","surface_inferred":true},"geometry":{"type":"LineString","coordinates":[[-120.80329,37.46428],[-120.80338,37.46448],[-120.80344,37.46462],[-120.80349,37.46471],[-120.80361,37.46478],[-120.80384,37.4647],[-120.80389,37.46456],[-120.80388,37.4639],[-120.8038,37.46386],[-120.80355,37.46381],[-120.80326,37.46371]]}},{"type":"Feature","properties":{"name":"(unnamed public road)","road_class":"track","source":"OpenStreetMap","source_detail":"osm way 782997226","source_tile":"168/396","surface_inferred":true},"geometry":{"type":"LineString","coordinates":[[-120.80388,37.4639],[-120.80404,37.46388],[-120.80412,37.46387],[-120.80429,37.4639],[-120.80437,37.4639],[-120.80444,37.46388],[-120.80446,37.46384],[-120.8043,37.46379],[-120.80348,37.46357],[-120.80334,37.46355]]}},{"type":"Feature","properties":{"name":"(unnamed public road)","road_class":"track","source":"OpenStreetMap","source_detail":"osm way 783787775","source_tile":"168/396","surface_inferred":true},"geometry":{"type":"LineString","coordinates":[[-120.80515,37.49262],[-120.80511,37.49317],[-120.8051,37.49334],[-120.80515,37.49338],[-120.80546,37.49344],[-120.80549,37.49347],[-120.80552,37.49444],[-120.80547,37.49448],[-120.80104,37.49448],[-120.80107,37.49261]]}},{"type":"Feature","properties":{"name":"(unnamed public road)","road_class":"track","source":"OpenStreetMap","source_detail":"osm way 784732169","source_tile":"168/396","surface_inferred":true},"geometry":{"type":"LineString","coordinates":[[-120.72404,37.45524],[-120.72401,37.45528],[-120.72397,37.45532],[-120.72393,37.45534],[-120.72388,37.45535],[-120.72215,37.45533],[-120.72207,37.45532],[-120.722,37.4553],[-120.72192,37.45527]]}},{"type":"Feature","properties":{"name":"(unnamed public road)","road_class":"track","source":"OpenStreetMap","source_detail":"osm way 784816913","source_tile":"168/396","surface_inferred":true},"geometry":{"type":"LineString","coordinates":[[-120.83102,37.58013],[-120.83101,37.58039],[-120.83102,37.58088],[-120.83103,37.58121],[-120.83096,37.5814],[-120.83095,37.5818],[-120.83091,37.5832],[-120.83091,37.58373],[-120.83092,37.58452],[-120.83092,37.5857],[-120.83067,37.58569],[-120.83031,37.5857],[-120.82892,37.58569]]}},{"type":"Feature","properties":{"name":"(unnamed public road)","road_class":"track","source":"OpenStreetMap","source_detail":"osm way 784816914","source_tile":"168/396","surface_inferred":true},"geometry":{"type":"LineString","coordinates":[[-120.83095,37.5818],[-120.83039,37.58178],[-120.82973,37.58178],[-120.82889,37.58177]]}},{"type":"Feature","properties":{"name":"(unnamed public road)","road_class":"track","source":"OpenStreetMap","source_detail":"osm way 784816915","source_tile":"168/396","surface_inferred":true},"geometry":{"type":"LineString","coordinates":[[-120.83091,37.58373],[-120.83019,37.58373],[-120.8289,37.58371]]}},{"type":"Feature","properties":{"name":"(unnamed public road)","road_class":"track","source":"OpenStreetMap","source_detail":"osm way 784973651","source_tile":"168/396","surface_inferred":true},"geometry":{"type":"LineString","coordinates":[[-120.73727,37.57195],[-120.73702,37.57196],[-120.73692,37.57196],[-120.73667,37.57192],[-120.73637,37.57184],[-120.73606,37.57175],[-120.73589,37.57172],[-120.73577,37.57171],[-120.73557,37.57169],[-120.73532,37.57169],[-120.73503,37.57168],[-120.7347,37.57173],[-120.73429,37.57177],[-120.73406,37.57181]]}},{"type":"Feature","properties":{"name":"(unnamed public road)","road_class":"track","source":"OpenStreetMap","source_detail":"osm way 786508935","source_tile":"168/396","surface_inferred":true},"geometry":{"type":"LineString","coordinates":[[-120.78745,37.49974],[-120.78743,37.49666]]}},{"type":"Feature","properties":{"name":"(unnamed public road)","road_class":"track","source":"OpenStreetMap","source_detail":"osm way 786519383","source_tile":"168/396","surface_inferred":true},"geometry":{"type":"LineString","coordinates":[[-120.73721,37.5775],[-120.73434,37.57748],[-120.73402,37.57748],[-120.73348,37.57749],[-120.73063,37.57749],[-120.73044,37.57751]]}},{"type":"Feature","properties":{"name":"(unnamed public road)","road_class":"track","source":"OpenStreetMap","source_detail":"osm way 800878398","source_tile":"168/396","surface_inferred":true},"geometry":{"type":"LineString","coordinates":[[-120.77481,37.71285],[-120.7747,37.71279],[-120.77464,37.71273],[-120.77458,37.71263],[-120.77456,37.71253],[-120.77458,37.71247],[-120.77465,37.71244],[-120.77481,37.71244]]}},{"type":"Feature","properties":{"name":"(unnamed public road)","road_class":"track","source":"OpenStreetMap","source_detail":"osm way 801459982","source_tile":"168/396","surface_inferred":true},"geometry":{"type":"LineString","coordinates":[[-120.70862,37.71092],[-120.70855,37.71084],[-120.70842,37.71078],[-120.70825,37.71076],[-120.70809,37.71077],[-120.70793,37.71078],[-120.70755,37.71079],[-120.70756,37.71092]]}},{"type":"Feature","properties":{"name":"(unnamed public road)","road_class":"track","source":"OpenStreetMap","source_detail":"osm way 802943035","source_tile":"168/396","surface_inferred":true},"geometry":{"type":"LineString","coordinates":[[-120.70136,37.68101],[-120.70105,37.68097],[-120.70076,37.68094],[-120.70046,37.68092],[-120.70035,37.6809],[-120.70019,37.68084],[-120.69922,37.68052],[-120.69828,37.68021],[-120.69806,37.68015],[-120.69782,37.68008],[-120.69747,37.68006],[-120.69675,37.68007],[-120.69629,37.68005],[-120.69568,37.68003],[-120.69556,37.68001],[-120.69547,37.67999],[-120.69537,37.67995],[-120.69531,37.67991],[-120.69522,37.67983],[-120.69509,37.67967],[-120.69501,37.67954],[-120.69498,37.67946],[-120.69496,37.67936],[-120.69495,37.67916],[-120.69496,37.67864],[-120.69495,37.67786],[-120.69493,37.6765],[-120.69492,37.67593],[-120.6949,37.67581],[-120.69488,37.67574],[-120.69483,37.67565],[-120.69431,37.67513],[-120.69424,37.67507],[-120.69415,37.67503],[-120.69406,37.67502],[-120.69359,37.67498],[-120.69334,37.67496],[-120.69294,37.67493],[-120.69252,37.67483]]}},{"type":"Feature","properties":{"name":"(unnamed public road)","road_class":"track","source":"OpenStreetMap","source_detail":"osm way 803675933","source_tile":"168/396","surface_inferred":true},"geometry":{"type":"LineString","coordinates":[[-120.93608,37.57964],[-120.936,37.57964],[-120.93557,37.57963],[-120.93547,37.57963],[-120.93542,37.57965],[-120.93537,37.57968],[-120.93536,37.57972],[-120.93536,37.57978],[-120.93536,37.57994],[-120.93538,37.58023]]}},{"type":"Feature","properties":{"name":"(unnamed public road)","road_class":"track","source":"OpenStreetMap","source_detail":"osm way 806645540","source_tile":"168/396","surface_inferred":true},"geometry":{"type":"LineString","coordinates":[[-120.73819,37.71097],[-120.73818,37.71078],[-120.73819,37.71067],[-120.73819,37.71036],[-120.73819,37.71005],[-120.73817,37.70974],[-120.73818,37.70945],[-120.73817,37.7091],[-120.73816,37.70836],[-120.73816,37.70803],[-120.73816,37.70784],[-120.73815,37.70757],[-120.73815,37.7072],[-120.73815,37.70685],[-120.73814,37.70641],[-120.73815,37.70595],[-120.73816,37.7055],[-120.73815,37.70477],[-120.73815,37.70404],[-120.73812,37.7036],[-120.73819,37.70357],[-120.73905,37.70357],[-120.74008,37.70357],[-120.74063,37.70356],[-120.74067,37.70352],[-120.74067,37.7034]]}},{"type":"Feature","properties":{"name":"(unnamed public road)","road_class":"track","source":"OpenStreetMap","source_detail":"osm way 806662845","source_tile":"168/396","surface_inferred":true},"geometry":{"type":"LineString","coordinates":[[-120.90279,37.65533],[-120.90247,37.65534],[-120.90229,37.65533],[-120.90215,37.65534],[-120.90203,37.65536],[-120.90192,37.65532],[-120.90183,37.65526],[-120.90179,37.65516],[-120.90179,37.65506],[-120.90183,37.65498],[-120.90184,37.65496],[-120.90184,37.65492],[-120.90177,37.65488],[-120.90171,37.65483],[-120.9017,37.65479],[-120.9017,37.65474],[-120.90174,37.65464]]}},{"type":"Feature","properties":{"name":"(unnamed public road)","road_class":"track","source":"OpenStreetMap","source_detail":"osm way 806662846","source_tile":"168/396","surface_inferred":true},"geometry":{"type":"LineString","coordinates":[[-120.90174,37.65464],[-120.90145,37.65463],[-120.90128,37.65464],[-120.90081,37.65464],[-120.90011,37.65464],[-120.89964,37.65464]]}},{"type":"Feature","properties":{"name":"(unnamed public road)","road_class":"track","source":"OpenStreetMap","source_detail":"osm way 813157703","source_tile":"168/396","surface_inferred":true},"geometry":{"type":"LineString","coordinates":[[-120.78799,37.46383],[-120.78807,37.46386]]}},{"type":"Feature","properties":{"name":"(unnamed public road)","road_class":"track","source":"OpenStreetMap","source_detail":"osm way 813157704","source_tile":"168/396","surface_inferred":true},"geometry":{"type":"LineString","coordinates":[[-120.78807,37.46386],[-120.78834,37.46362],[-120.78861,37.46343],[-120.78906,37.46318],[-120.78992,37.4631],[-120.79077,37.46328]]}},{"type":"Feature","properties":{"name":"(unnamed public road)","road_class":"track","source":"OpenStreetMap","source_detail":"osm way 813158928","source_tile":"168/396","surface_inferred":true},"geometry":{"type":"LineString","coordinates":[[-120.80335,37.46343],[-120.80334,37.46353]]}},{"type":"Feature","properties":{"name":"(unnamed public road)","road_class":"track","source":"OpenStreetMap","source_detail":"osm way 813158929","source_tile":"168/396","surface_inferred":true},"geometry":{"type":"LineString","coordinates":[[-120.80334,37.46353],[-120.80334,37.46355],[-120.80326,37.46371],[-120.80329,37.46428]]}},{"type":"Feature","properties":{"name":"(unnamed public road)","road_class":"track","source":"OpenStreetMap","source_detail":"osm way 813835109","source_tile":"168/396","surface_inferred":true},"geometry":{"type":"LineString","coordinates":[[-120.7565,37.71073],[-120.75645,37.7109],[-120.75644,37.71115],[-120.75647,37.71133],[-120.75652,37.71238],[-120.75648,37.71403],[-120.75647,37.71548],[-120.75646,37.71666],[-120.75644,37.71801]]}},{"type":"Feature","properties":{"name":"(unnamed public road)","road_class":"track","source":"OpenStreetMap","source_detail":"osm way 817441292","source_tile":"168/396","surface_inferred":true},"geometry":{"type":"LineString","coordinates":[[-120.69878,37.67628],[-120.69879,37.67716],[-120.69879,37.67783],[-120.69879,37.67813]]}},{"type":"Feature","properties":{"name":"(unnamed public road)","road_class":"track","source":"OpenStreetMap","source_detail":"osm way 818636874","source_tile":"168/396","surface_inferred":true},"geometry":{"type":"LineString","coordinates":[[-120.75561,37.56564],[-120.75444,37.56565],[-120.75052,37.56565],[-120.74949,37.56567],[-120.74836,37.56567],[-120.74668,37.56567],[-120.74635,37.56567],[-120.74636,37.56304],[-120.74643,37.55957]]}},{"type":"Feature","properties":{"name":"(unnamed public road)","road_class":"track","source":"OpenStreetMap","source_detail":"osm way 821295042","source_tile":"168/396","surface_inferred":true},"geometry":{"type":"LineString","coordinates":[[-120.78489,37.5366],[-120.78489,37.5367]]}},{"type":"Feature","properties":{"name":"(unnamed public road)","road_class":"track","source":"OpenStreetMap","source_detail":"osm way 829226338","source_tile":"168/396","surface_inferred":true},"geometry":{"type":"LineString","coordinates":[[-120.90929,37.60931],[-120.9093,37.60951],[-120.90932,37.60962],[-120.90936,37.60968],[-120.90938,37.60974],[-120.9094,37.60981],[-120.90944,37.60988],[-120.90949,37.6099],[-120.90952,37.6099]]}},{"type":"Feature","properties":{"name":"(unnamed public road)","road_class":"track","source":"OpenStreetMap","source_detail":"osm way 832073311","source_tile":"168/396","surface_inferred":true},"geometry":{"type":"LineString","coordinates":[[-120.67158,37.49866],[-120.6718,37.49869],[-120.67198,37.49872],[-120.67234,37.49872],[-120.67237,37.49872],[-120.67313,37.49873],[-120.67325,37.49874],[-120.67329,37.49876],[-120.67329,37.49883],[-120.67327,37.49895],[-120.6732,37.49914],[-120.67315,37.49921],[-120.67307,37.49927],[-120.67293,37.49931],[-120.67267,37.49936],[-120.67234,37.49943],[-120.6721,37.49948],[-120.67163,37.49957]]}},{"type":"Feature","properties":{"name":"(unnamed public road)","road_class":"track","source":"OpenStreetMap","source_detail":"osm way 832073312","source_tile":"168/396","surface_inferred":true},"geometry":{"type":"LineString","coordinates":[[-120.67234,37.49943],[-120.67233,37.4992],[-120.67234,37.49872]]}},{"type":"Feature","properties":{"name":"(unnamed public road)","road_class":"track","source":"OpenStreetMap","source_detail":"osm way 832433852","source_tile":"168/396","surface_inferred":true},"geometry":{"type":"LineString","coordinates":[[-120.75406,37.67181],[-120.75389,37.67207],[-120.75343,37.67261],[-120.75296,37.67318],[-120.75249,37.67375],[-120.7524,37.67391],[-120.75219,37.67421],[-120.75221,37.67428],[-120.75232,37.67435],[-120.75269,37.67451],[-120.7536,37.67483],[-120.75392,37.67496],[-120.75399,37.67501],[-120.75405,37.67506],[-120.7541,37.67512],[-120.7541,37.67516],[-120.75374,37.6754]]}},{"type":"Feature","properties":{"name":"(unnamed public road)","road_class":"track","source":"OpenStreetMap","source_detail":"osm way 875434761","source_tile":"168/396","surface_inferred":true},"geometry":{"type":"LineString","coordinates":[[-120.78496,37.4779],[-120.7849,37.4777],[-120.78493,37.47586],[-120.78495,37.47478],[-120.78495,37.47427],[-120.78498,37.47291],[-120.78497,37.47278],[-120.78492,37.47261],[-120.78488,37.47251],[-120.78482,37.47242],[-120.78482,37.47236],[-120.78483,37.47227],[-120.78485,37.47223],[-120.78491,37.47216],[-120.78496,37.47212],[-120.78498,37.47209],[-120.785,37.47204],[-120.78503,37.47125],[-120.78505,37.47003],[-120.78507,37.46997],[-120.78509,37.4699],[-120.7852,37.46972],[-120.78682,37.46717],[-120.78687,37.46707],[-120.78751,37.46506],[-120.78769,37.46449],[-120.78774,37.4643],[-120.78774,37.46428],[-120.78776,37.46417],[-120.78775,37.46413],[-120.78774,37.4641],[-120.78773,37.46408],[-120.78771,37.46406],[-120.78684,37.46335],[-120.78661,37.46318],[-120.78469,37.46167],[-120.78457,37.46155],[-120.78452,37.46147],[-120.78444,37.46133],[-120.7844,37.46124],[-120.78439,37.46118],[-120.78438,37.46111],[-120.78438,37.46078],[-120.78441,37.46041],[-120.78449,37.45844]]}},{"type":"Feature","properties":{"name":"Meikle Road","road_class":"track","source":"OpenStreetMap","source_detail":"osm way 875434763","source_tile":"168/396","surface_inferred":true},"geometry":{"type":"LineString","coordinates":[[-120.71895,37.59866],[-120.71898,37.5965],[-120.71901,37.59488]]}},{"type":"Feature","properties":{"name":"(unnamed public road)","road_class":"track","source":"OpenStreetMap","source_detail":"osm way 882640165","source_tile":"168/396","surface_inferred":true},"geometry":{"type":"LineString","coordinates":[[-120.70994,37.44825],[-120.70994,37.44652],[-120.70995,37.44648],[-120.70999,37.44643],[-120.71009,37.44638],[-120.71015,37.44634],[-120.71017,37.4463],[-120.71017,37.4462]]}},{"type":"Feature","properties":{"name":"(unnamed public road)","road_class":"track","source":"OpenStreetMap","source_detail":"osm way 892928751","source_tile":"168/396","surface_inferred":true},"geometry":{"type":"LineString","coordinates":[[-120.70449,37.47005],[-120.70449,37.47018],[-120.70448,37.4703],[-120.70447,37.47031],[-120.70444,37.47033],[-120.70438,37.47034],[-120.70415,37.47035],[-120.70413,37.47035],[-120.70413,37.47036],[-120.70411,37.47038],[-120.70409,37.47041],[-120.70407,37.47043],[-120.70404,37.47044],[-120.70399,37.47045],[-120.7036,37.47045],[-120.70352,37.47045],[-120.7035,37.47022],[-120.7035,37.47018],[-120.70352,37.47014],[-120.70354,37.47012],[-120.70357,37.4701],[-120.7036,37.47009],[-120.70414,37.47009],[-120.70415,37.47004]]}},{"type":"Feature","properties":{"name":"(unnamed public road)","road_class":"track","source":"OpenStreetMap","source_detail":"osm way 892928752","source_tile":"168/396","surface_inferred":true},"geometry":{"type":"LineString","coordinates":[[-120.70414,37.47009],[-120.70413,37.47035]]}},{"type":"Feature","properties":{"name":"(unnamed public road)","road_class":"track","source":"OpenStreetMap","source_detail":"osm way 892928753","source_tile":"168/396","surface_inferred":true},"geometry":{"type":"LineString","coordinates":[[-120.70331,37.4724],[-120.70354,37.47241],[-120.70357,37.47202],[-120.70358,37.47167],[-120.70356,37.4711],[-120.70356,37.47078],[-120.70352,37.47045]]}},{"type":"Feature","properties":{"name":"(unnamed public road)","road_class":"track","source":"OpenStreetMap","source_detail":"osm way 894463155","source_tile":"168/396","surface_inferred":true},"geometry":{"type":"LineString","coordinates":[[-120.78768,37.64191],[-120.78846,37.6419],[-120.78893,37.6419],[-120.78986,37.64191],[-120.79004,37.64191]]}},{"type":"Feature","properties":{"name":"(unnamed public road)","road_class":"track","source":"OpenStreetMap","source_detail":"osm way 894463156","source_tile":"168/396","surface_inferred":true},"geometry":{"type":"LineString","coordinates":[[-120.78893,37.6419],[-120.78889,37.6417],[-120.78881,37.6416],[-120.78873,37.64149],[-120.78873,37.64139],[-120.78872,37.6411]]}},{"type":"Feature","properties":{"name":"(unnamed public road)","road_class":"track","source":"OpenStreetMap","source_detail":"osm way 894463157","source_tile":"168/396","surface_inferred":true},"geometry":{"type":"LineString","coordinates":[[-120.78768,37.64191],[-120.78655,37.64193],[-120.78478,37.64193],[-120.78377,37.64192],[-120.78308,37.64193],[-120.78221,37.64193],[-120.78152,37.64192],[-120.78078,37.64192],[-120.78004,37.64193],[-120.77942,37.64193]]}},{"type":"Feature","properties":{"name":"(unnamed public road)","road_class":"track","source":"OpenStreetMap","source_detail":"osm way 894473235","source_tile":"168/396","surface_inferred":true},"geometry":{"type":"LineString","coordinates":[[-120.92122,37.51983],[-120.92089,37.51983],[-120.92059,37.51983],[-120.92004,37.51983],[-120.91986,37.51983],[-120.91952,37.51984],[-120.91923,37.51983],[-120.91897,37.51984],[-120.91863,37.51984],[-120.91824,37.51985],[-120.91774,37.51985],[-120.91752,37.51986],[-120.91744,37.51988],[-120.91739,37.51988],[-120.91737,37.51987],[-120.91736,37.51984],[-120.91737,37.51969],[-120.91736,37.51947],[-120.91737,37.51921],[-120.91737,37.51899],[-120.91738,37.51894]]}},{"type":"Feature","properties":{"name":"(unnamed public road)","road_class":"track","source":"OpenStreetMap","source_detail":"osm way 894478494","source_tile":"168/396","surface_inferred":true},"geometry":{"type":"LineString","coordinates":[[-120.76607,37.54746],[-120.76637,37.5475],[-120.76686,37.54752],[-120.7685,37.5475],[-120.77071,37.54748],[-120.77233,37.54745]]}},{"type":"Feature","properties":{"name":"(unnamed public road)","road_class":"track","source":"OpenStreetMap","source_detail":"osm way 894478496","source_tile":"168/396","surface_inferred":true},"geometry":{"type":"LineString","coordinates":[[-120.76463,37.55042],[-120.76869,37.55037]]}},{"type":"Feature","properties":{"name":"(unnamed public road)","road_class":"track","source":"OpenStreetMap","source_detail":"osm way 894478497","source_tile":"168/396","surface_inferred":true},"geometry":{"type":"LineString","coordinates":[[-120.76463,37.54986],[-120.76868,37.54985]]}},{"type":"Feature","properties":{"name":"(unnamed public road)","road_class":"track","source":"OpenStreetMap","source_detail":"osm way 894478498","source_tile":"168/396","surface_inferred":true},"geometry":{"type":"LineString","coordinates":[[-120.76867,37.54929],[-120.76462,37.54929]]}},{"type":"Feature","properties":{"name":"(unnamed public road)","road_class":"track","source":"OpenStreetMap","source_detail":"osm way 894507569","source_tile":"168/396","surface_inferred":true},"geometry":{"type":"LineString","coordinates":[[-120.78157,37.69642],[-120.78164,37.6963],[-120.78162,37.69546],[-120.78158,37.69346],[-120.78155,37.69178],[-120.78151,37.69022],[-120.78148,37.68871],[-120.78146,37.68751],[-120.78143,37.68602],[-120.7814,37.68483],[-120.78138,37.68344],[-120.78135,37.68292]]}},{"type":"Feature","properties":{"name":"(unnamed public road)","road_class":"track","source":"OpenStreetMap","source_detail":"osm way 894511872","source_tile":"168/396","surface_inferred":true},"geometry":{"type":"LineString","coordinates":[[-120.78771,37.64381],[-120.7887,37.64382],[-120.78938,37.64382],[-120.79029,37.64382],[-120.7907,37.64381],[-120.79114,37.6438],[-120.79167,37.64381],[-120.79227,37.64382],[-120.79241,37.64384],[-120.79261,37.64384],[-120.79347,37.64386],[-120.79399,37.64386],[-120.79474,37.64387],[-120.79521,37.64387],[-120.79542,37.64386],[-120.79551,37.64382],[-120.79641,37.64383],[-120.79703,37.64383]]}},{"type":"Feature","properties":{"name":"(unnamed public road)","road_class":"track","source":"OpenStreetMap","source_detail":"osm way 894782417","source_tile":"168/396","surface_inferred":true},"geometry":{"type":"LineString","coordinates":[[-120.80549,37.49754],[-120.80549,37.49807],[-120.80548,37.49832]]}},{"type":"Feature","properties":{"name":"(unnamed public road)","road_class":"track","source":"OpenStreetMap","source_detail":"osm way 894786870","source_tile":"168/396","surface_inferred":true},"geometry":{"type":"LineString","coordinates":[[-120.7372,37.5682],[-120.737,37.56809],[-120.73668,37.56787],[-120.73654,37.56777],[-120.73634,37.56757],[-120.73613,37.56733],[-120.73591,37.56712],[-120.73579,37.56704],[-120.73567,37.56698],[-120.73552,37.56693],[-120.73524,37.56687],[-120.7352,37.56685],[-120.7351,37.5668]]}},{"type":"Feature","properties":{"name":"(unnamed public road)","road_class":"track","source":"OpenStreetMap","source_detail":"osm way 894802633","source_tile":"168/396","surface_inferred":true},"geometry":{"type":"LineString","coordinates":[[-120.7665,37.69068],[-120.76651,37.69087],[-120.7655,37.69088],[-120.76411,37.69089],[-120.76218,37.6909],[-120.76002,37.69094],[-120.7579,37.69096],[-120.75623,37.69096],[-120.75438,37.69097],[-120.75268,37.69097]]}},{"type":"Feature","properties":{"name":"(unnamed public road)","road_class":"track","source":"OpenStreetMap","source_detail":"osm way 894806022","source_tile":"168/396","surface_inferred":true},"geometry":{"type":"LineString","coordinates":[[-120.7922,37.58391],[-120.79014,37.5839]]}},{"type":"Feature","properties":{"name":"(unnamed public road)","road_class":"track","source":"OpenStreetMap","source_detail":"osm way 894839180","source_tile":"168/396","surface_inferred":true},"geometry":{"type":"LineString","coordinates":[[-120.82165,37.45981],[-120.82188,37.45981],[-120.82246,37.45982],[-120.82313,37.45982],[-120.82365,37.45982],[-120.82386,37.45982],[-120.82392,37.45982],[-120.82396,37.45984],[-120.82398,37.45985],[-120.82401,37.4599],[-120.82402,37.45998],[-120.82404,37.46005],[-120.82406,37.46008]]}},{"type":"Feature","properties":{"name":"(unnamed public road)","road_class":"track","source":"OpenStreetMap","source_detail":"osm way 894852393","source_tile":"168/396","surface_inferred":true},"geometry":{"type":"LineString","coordinates":[[-120.76454,37.62367],[-120.76544,37.62367],[-120.76682,37.62366]]}},{"type":"Feature","properties":{"name":"(unnamed public road)","road_class":"track","source":"OpenStreetMap","source_detail":"osm way 896452936","source_tile":"168/396","surface_inferred":true},"geometry":{"type":"LineString","coordinates":[[-120.70741,37.54751],[-120.70728,37.54749],[-120.70492,37.54748]]}},{"type":"Feature","properties":{"name":"(unnamed public road)","road_class":"track","source":"OpenStreetMap","source_detail":"osm way 917308164","source_tile":"168/396","surface_inferred":true},"geometry":{"type":"LineString","coordinates":[[-120.80104,37.49448],[-120.79878,37.49448],[-120.7988,37.50004]]}},{"type":"Feature","properties":{"name":"(unnamed public road)","road_class":"track","source":"OpenStreetMap","source_detail":"osm way 938428679","source_tile":"168/396","surface_inferred":true},"geometry":{"type":"LineString","coordinates":[[-120.77873,37.6456],[-120.77897,37.64562],[-120.78211,37.64564],[-120.78449,37.64563],[-120.78502,37.64564],[-120.78576,37.64565],[-120.78752,37.64567],[-120.78773,37.64567]]}},{"type":"Feature","properties":{"name":"(unnamed public road)","road_class":"track","source":"OpenStreetMap","source_detail":"osm way 964961835","source_tile":"168/396","surface_inferred":true},"geometry":{"type":"LineString","coordinates":[[-120.85191,37.58382],[-120.84947,37.58382],[-120.84715,37.5838]]}},{"type":"Feature","properties":{"name":"(unnamed public road)","road_class":"track","source":"OpenStreetMap","source_detail":"osm way 992689752","source_tile":"168/397","surface_inferred":true},"geometry":{"type":"LineString","coordinates":[[-120.85776,37.44054],[-120.85784,37.43883],[-120.85786,37.4386],[-120.8579,37.43773],[-120.85791,37.43703],[-120.85786,37.43697],[-120.85777,37.43692],[-120.85768,37.43686],[-120.85765,37.43678],[-120.85764,37.43672],[-120.85762,37.43655],[-120.85761,37.43643]]}},{"type":"Feature","properties":{"name":"(unnamed public road)","road_class":"track","source":"OpenStreetMap","source_detail":"osm way 1092606385","source_tile":"168/396","surface_inferred":true},"geometry":{"type":"LineString","coordinates":[[-120.70818,37.4555],[-120.70809,37.45572],[-120.70807,37.45627],[-120.70804,37.45734],[-120.70805,37.45851],[-120.70805,37.45989],[-120.70802,37.46098],[-120.70798,37.46132],[-120.70797,37.46149],[-120.70797,37.46239],[-120.70797,37.4625],[-120.70796,37.46258],[-120.7079,37.46264],[-120.70784,37.46268],[-120.70775,37.46273],[-120.70767,37.46275],[-120.70599,37.46273],[-120.70591,37.46271],[-120.70583,37.46268],[-120.70577,37.46262],[-120.70574,37.46255]]}},{"type":"Feature","properties":{"name":"(unnamed public road)","road_class":"track","source":"OpenStreetMap","source_detail":"osm way 1210337759","source_tile":"168/396","surface_inferred":true},"geometry":{"type":"LineString","coordinates":[[-120.67818,37.60915],[-120.67821,37.60896],[-120.67822,37.59582],[-120.67821,37.59576],[-120.67819,37.5957],[-120.67815,37.59565],[-120.67809,37.5956]]}},{"type":"Feature","properties":{"name":"(unnamed public road)","road_class":"track","source":"OpenStreetMap","source_detail":"osm way 1210337760","source_tile":"168/396","surface_inferred":true},"geometry":{"type":"LineString","coordinates":[[-120.669,37.59559],[-120.66899,37.59567],[-120.66898,37.59576],[-120.66894,37.60914]]}},{"type":"Feature","properties":{"name":"(unnamed public road)","road_class":"track","source":"OpenStreetMap","source_detail":"osm way 1210337761","source_tile":"168/396","surface_inferred":true},"geometry":{"type":"LineString","coordinates":[[-120.67829,37.60915],[-120.67818,37.60915],[-120.67368,37.60915],[-120.66894,37.60914],[-120.66542,37.60913],[-120.6652,37.60912],[-120.66498,37.6091],[-120.66453,37.6091],[-120.66432,37.60911],[-120.6642,37.60912],[-120.66392,37.60915]]}},{"type":"Feature","properties":{"name":"(unnamed public road)","road_class":"track","source":"OpenStreetMap","source_detail":"osm way 1210337762","source_tile":"168/396","surface_inferred":true},"geometry":{"type":"LineString","coordinates":[[-120.67374,37.5956],[-120.6737,37.59562],[-120.67367,37.59564],[-120.67365,37.59567],[-120.67364,37.59574],[-120.67368,37.60915]]}},{"type":"Feature","properties":{"name":"(unnamed public road)","road_class":"track","source":"OpenStreetMap","source_detail":"osm way 1210337763","source_tile":"168/396","surface_inferred":true},"geometry":{"type":"LineString","coordinates":[[-120.67892,37.59562],[-120.67865,37.59563],[-120.67848,37.59565],[-120.6783,37.59566],[-120.67809,37.5956],[-120.67786,37.59556],[-120.67759,37.59555],[-120.67733,37.59555],[-120.67688,37.59562],[-120.67533,37.59561],[-120.67374,37.5956],[-120.67356,37.59561],[-120.669,37.59559],[-120.6641,37.59557]]}},{"type":"Feature","properties":{"name":"(unnamed public road)","road_class":"track","source":"OpenStreetMap","source_detail":"osm way 1252646352","source_tile":"168/396","surface_inferred":true},"geometry":{"type":"LineString","coordinates":[[-120.84501,37.48316],[-120.84497,37.48306],[-120.84484,37.48291],[-120.8443,37.48247],[-120.84422,37.4824],[-120.8442,37.48235],[-120.84421,37.48229],[-120.84449,37.48209],[-120.84456,37.48207],[-120.84462,37.48208],[-120.84468,37.48212],[-120.84507,37.48247]]}},{"type":"Feature","properties":{"name":"(unnamed public road)","road_class":"track","source":"OpenStreetMap","source_detail":"osm way 1263920487","source_tile":"168/396","surface_inferred":true},"geometry":{"type":"LineString","coordinates":[[-120.88857,37.53279],[-120.8886,37.53278],[-120.88878,37.53277],[-120.88902,37.53277],[-120.88919,37.53276],[-120.8893,37.53276],[-120.88943,37.53277],[-120.88954,37.53278],[-120.88966,37.53276],[-120.88968,37.53264],[-120.88972,37.5326],[-120.88979,37.53257],[-120.88987,37.53245],[-120.88991,37.53241]]}},{"type":"Feature","properties":{"name":"(unnamed public road)","road_class":"track","source":"OpenStreetMap","source_detail":"osm way 1263920491","source_tile":"168/396","surface_inferred":true},"geometry":{"type":"LineString","coordinates":[[-120.88836,37.53321],[-120.88827,37.53326],[-120.88818,37.53331],[-120.88811,37.53337],[-120.88803,37.53343],[-120.88791,37.5335],[-120.88779,37.53354],[-120.88767,37.53355],[-120.88754,37.53354],[-120.88738,37.53351],[-120.88725,37.53348],[-120.88712,37.53347],[-120.88701,37.5335],[-120.88695,37.53356],[-120.88694,37.53362],[-120.88694,37.53368]]}},{"type":"Feature","properties":{"name":"(unnamed public road)","road_class":"track","source":"OpenStreetMap","source_detail":"osm way 1263920492","source_tile":"168/396","surface_inferred":true},"geometry":{"type":"LineString","coordinates":[[-120.88763,37.53366],[-120.88754,37.53366],[-120.8875,37.5337],[-120.88709,37.53369],[-120.88694,37.53368],[-120.88663,37.53369],[-120.88637,37.53369],[-120.88615,37.53366],[-120.88595,37.53364],[-120.88575,37.53364],[-120.88552,37.53364],[-120.88531,37.53363],[-120.88503,37.53363]]}},{"type":"Feature","properties":{"name":"(unnamed public road)","road_class":"track","source":"OpenStreetMap","source_detail":"osm way 1264328881","source_tile":"168/396","surface_inferred":true},"geometry":{"type":"LineString","coordinates":[[-120.88874,37.52878],[-120.88716,37.5291],[-120.88674,37.5291],[-120.88667,37.52905],[-120.88666,37.52897],[-120.88675,37.52875],[-120.88682,37.52859],[-120.88684,37.52844],[-120.88679,37.5283],[-120.88668,37.52816],[-120.88653,37.52802],[-120.88603,37.52759],[-120.88593,37.52744]]}},{"type":"Feature","properties":{"name":"(unnamed public road)","road_class":"track","source":"OpenStreetMap","source_detail":"osm way 1264834618","source_tile":"168/396","surface_inferred":true},"geometry":{"type":"LineString","coordinates":[[-120.88827,37.53679],[-120.88827,37.53691],[-120.88826,37.54031]]}},{"type":"Feature","properties":{"name":"(unnamed public road)","road_class":"track","source":"OpenStreetMap","source_detail":"osm way 1264834619","source_tile":"168/396","surface_inferred":true},"geometry":{"type":"LineString","coordinates":[[-120.88827,37.53691],[-120.88721,37.53685],[-120.88684,37.53685],[-120.88619,37.53685],[-120.88612,37.53686],[-120.88605,37.53685],[-120.88584,37.53682],[-120.88378,37.53683],[-120.88376,37.54027]]}},{"type":"Feature","properties":{"name":"(unnamed public road)","road_class":"track","source":"OpenStreetMap","source_detail":"osm way 1264834620","source_tile":"168/396","surface_inferred":true},"geometry":{"type":"LineString","coordinates":[[-120.88612,37.53686],[-120.8861,37.53699],[-120.88609,37.53759],[-120.88609,37.53834],[-120.88608,37.53945],[-120.88608,37.54016],[-120.88609,37.5402],[-120.88614,37.54022],[-120.88617,37.54022],[-120.88619,37.54024],[-120.88621,37.5403]]}},{"type":"Feature","properties":{"name":"(unnamed public road)","road_class":"track","source":"OpenStreetMap","source_detail":"osm way 1264834621","source_tile":"168/396","surface_inferred":true},"geometry":{"type":"LineString","coordinates":[[-120.89056,37.54398],[-120.89055,37.54295],[-120.89138,37.54294],[-120.89158,37.54294],[-120.89163,37.54293],[-120.89167,37.54289],[-120.89168,37.54282],[-120.89168,37.54034],[-120.89166,37.5403],[-120.89162,37.54029],[-120.89058,37.54029],[-120.88884,37.5403],[-120.8883,37.54031],[-120.88826,37.54031],[-120.88621,37.5403],[-120.88614,37.54032],[-120.88607,37.54034]]}},{"type":"Feature","properties":{"name":"(unnamed public road)","road_class":"track","source":"OpenStreetMap","source_detail":"osm way 1264834622","source_tile":"168/396","surface_inferred":true},"geometry":{"type":"LineString","coordinates":[[-120.88376,37.54027],[-120.88595,37.54028],[-120.88603,37.54029],[-120.88607,37.54034]]}},{"type":"Feature","properties":{"name":"(unnamed public road)","road_class":"track","source":"OpenStreetMap","source_detail":"osm way 1264834623","source_tile":"168/396","surface_inferred":true},"geometry":{"type":"LineString","coordinates":[[-120.89158,37.54294],[-120.89159,37.54307]]}},{"type":"Feature","properties":{"name":"(unnamed public road)","road_class":"track","source":"OpenStreetMap","source_detail":"osm way 1264834627","source_tile":"168/396","surface_inferred":true},"geometry":{"type":"LineString","coordinates":[[-120.8883,37.54031],[-120.88829,37.54333],[-120.88831,37.54385],[-120.88816,37.54391]]}},{"type":"Feature","properties":{"name":"(unnamed public road)","road_class":"track","source":"OpenStreetMap","source_detail":"osm way 1264834631","source_tile":"168/396","surface_inferred":true},"geometry":{"type":"LineString","coordinates":[[-120.88831,37.54385],[-120.88839,37.54388],[-120.88849,37.5439],[-120.88877,37.5439],[-120.88887,37.54386],[-120.88887,37.5438],[-120.88885,37.54375],[-120.88884,37.54367],[-120.88884,37.5403]]}},{"type":"Feature","properties":{"name":"(unnamed public road)","road_class":"track","source":"OpenStreetMap","source_detail":"osm way 1265291847","source_tile":"168/396","surface_inferred":true},"geometry":{"type":"LineString","coordinates":[[-120.88134,37.5475],[-120.87989,37.5475],[-120.87925,37.5475],[-120.87925,37.5468],[-120.87987,37.5468],[-120.88134,37.5468],[-120.88134,37.5475]]}},{"type":"Feature","properties":{"name":"(unnamed public road)","road_class":"track","source":"OpenStreetMap","source_detail":"osm way 1265291848","source_tile":"168/396","surface_inferred":true},"geometry":{"type":"LineString","coordinates":[[-120.87989,37.5475],[-120.87987,37.5468],[-120.87987,37.54658],[-120.8799,37.54629],[-120.8799,37.54578],[-120.88075,37.54579],[-120.88075,37.54519],[-120.88083,37.54508],[-120.88082,37.54451],[-120.88081,37.54395]]}},{"type":"Feature","properties":{"name":"(unnamed public road)","road_class":"track","surface":"gravel","tracktype":"grade2","source":"OpenStreetMap","source_detail":"osm way 1301576977","source_tile":"168/396"},"geometry":{"type":"LineString","coordinates":[[-120.921,37.66743],[-120.92025,37.66743],[-120.91993,37.66745],[-120.91965,37.66747],[-120.91952,37.66755],[-120.91952,37.6678],[-120.91958,37.66789],[-120.91968,37.66794],[-120.92034,37.66795],[-120.92042,37.66796],[-120.92077,37.66798]]}},{"type":"Feature","properties":{"name":"(unnamed public road)","road_class":"track","surface":"compacted","tracktype":"grade2","source":"OpenStreetMap","source_detail":"osm way 1301576979","source_tile":"168/396"},"geometry":{"type":"LineString","coordinates":[[-120.91952,37.6678],[-120.91935,37.6678],[-120.91929,37.66785],[-120.91929,37.66851],[-120.91942,37.6686],[-120.9197,37.66863],[-120.92014,37.66863],[-120.92042,37.66871],[-120.92097,37.66884]]}},{"type":"Feature","properties":{"name":"(unnamed public road)","road_class":"track","surface":"compacted","tracktype":"grade2","source":"OpenStreetMap","source_detail":"osm way 1301576980","source_tile":"168/396"},"geometry":{"type":"LineString","coordinates":[[-120.92099,37.6685],[-120.92074,37.66847],[-120.92057,37.66846],[-120.92039,37.66849],[-120.92021,37.66855],[-120.92014,37.66863]]}},{"type":"Feature","properties":{"name":"(unnamed public road)","road_class":"track","surface":"dirt","source":"OpenStreetMap","source_detail":"osm way 1344041142","source_tile":"168/396"},"geometry":{"type":"LineString","coordinates":[[-120.80895,37.49629],[-120.80892,37.49661],[-120.80891,37.49665],[-120.8089,37.49667],[-120.80889,37.49669],[-120.80886,37.49671],[-120.8088,37.49674],[-120.80868,37.49679],[-120.80865,37.4968],[-120.80851,37.49687],[-120.80848,37.49688],[-120.80845,37.49689],[-120.80842,37.49689],[-120.80823,37.49689],[-120.8078,37.49689]]}},{"type":"Feature","properties":{"name":"(unnamed public road)","road_class":"track","source":"OpenStreetMap","source_detail":"osm way 1354864361","source_tile":"168/396","surface_inferred":true},"geometry":{"type":"LineString","coordinates":[[-120.84935,37.63889],[-120.84952,37.63889],[-120.84954,37.64007],[-120.84848,37.64008],[-120.84855,37.63989]]}},{"type":"Feature","properties":{"name":"(unnamed public road)","road_class":"track","surface":"dirt","tracktype":"grade3","source":"OpenStreetMap","source_detail":"osm way 1369514646","source_tile":"168/396"},"geometry":{"type":"LineString","coordinates":[[-120.8169,37.49636],[-120.81677,37.49636],[-120.81465,37.49636],[-120.81459,37.49636],[-120.81454,37.49636],[-120.81441,37.49635],[-120.81434,37.49635],[-120.81249,37.49635],[-120.81246,37.49634],[-120.81242,37.49634],[-120.81218,37.49633],[-120.81213,37.49633],[-120.81209,37.49633],[-120.81002,37.49632],[-120.80998,37.49632],[-120.80996,37.49632],[-120.80994,37.49631],[-120.80986,37.49629],[-120.80984,37.49629],[-120.80981,37.49628],[-120.80978,37.49629],[-120.80974,37.49629],[-120.80971,37.49629],[-120.80967,37.49629],[-120.80895,37.49629],[-120.80868,37.49628],[-120.8078,37.49629]]}},{"type":"Feature","properties":{"name":"(unnamed public road)","road_class":"track","surface":"dirt","access":"permissive","source":"OpenStreetMap","source_detail":"osm way 1369522370","source_tile":"168/396"},"geometry":{"type":"LineString","coordinates":[[-120.81677,37.49636],[-120.81678,37.49581],[-120.81678,37.4958],[-120.81677,37.49579],[-120.81676,37.49578],[-120.81674,37.49578],[-120.81569,37.49579],[-120.81567,37.49578],[-120.81566,37.49578],[-120.81566,37.49577],[-120.81566,37.4952],[-120.81567,37.49519],[-120.81568,37.49518],[-120.81569,37.49518],[-120.81661,37.49517],[-120.8167,37.49518],[-120.81672,37.49518],[-120.81674,37.49518],[-120.81676,37.49517],[-120.81678,37.49516],[-120.81679,37.49515],[-120.81679,37.49478],[-120.81679,37.49474],[-120.81678,37.4947],[-120.81677,37.49466],[-120.81675,37.49462],[-120.81673,37.4946],[-120.81669,37.49459],[-120.81665,37.49459],[-120.81461,37.49458],[-120.81459,37.49459],[-120.81458,37.4946],[-120.81457,37.49461],[-120.81457,37.49462],[-120.81457,37.49464],[-120.81459,37.49597],[-120.81459,37.49605],[-120.81454,37.49636]]}},{"type":"Feature","properties":{"name":"(unnamed public road)","road_class":"track","surface":"dirt","source":"OpenStreetMap","source_detail":"osm way 1386876954","source_tile":"168/396"},"geometry":{"type":"LineString","coordinates":[[-120.887,37.52586],[-120.88687,37.52602],[-120.8863,37.52625],[-120.88628,37.52629]]}},{"type":"Feature","properties":{"name":"(unnamed public road)","road_class":"track","source":"OpenStreetMap","source_detail":"osm way 1390644231","source_tile":"168/396","surface_inferred":true},"geometry":{"type":"LineString","coordinates":[[-120.71294,37.45195],[-120.71292,37.45192],[-120.71291,37.4519],[-120.71287,37.45187]]}},{"type":"Feature","properties":{"name":"(unnamed public road)","road_class":"track","source":"OpenStreetMap","source_detail":"osm way 1390644232","source_tile":"168/396","surface_inferred":true},"geometry":{"type":"LineString","coordinates":[[-120.71919,37.45191],[-120.7192,37.44939],[-120.71948,37.44939],[-120.71955,37.44939],[-120.71962,37.44938],[-120.71969,37.44936],[-120.71975,37.44933],[-120.71979,37.44928],[-120.71983,37.44923],[-120.71985,37.44916],[-120.71986,37.4491],[-120.71986,37.44827]]}},{"type":"Feature","properties":{"name":"(unnamed public road)","road_class":"track","source":"OpenStreetMap","source_detail":"osm way 1390664833","source_tile":"168/396","surface_inferred":true},"geometry":{"type":"LineString","coordinates":[[-120.76267,37.45583],[-120.76269,37.45352],[-120.76269,37.45228],[-120.76271,37.44868],[-120.76272,37.4486],[-120.76273,37.44855],[-120.76275,37.44849]]}},{"type":"Feature","properties":{"name":"(unnamed public road)","road_class":"track","source":"OpenStreetMap","source_detail":"osm way 1390664834","source_tile":"168/396","surface_inferred":true},"geometry":{"type":"LineString","coordinates":[[-120.76269,37.45228],[-120.75813,37.45224]]}},{"type":"Feature","properties":{"name":"(unnamed public road)","road_class":"track","source":"OpenStreetMap","source_detail":"osm way 1390664871","source_tile":"168/396","surface_inferred":true},"geometry":{"type":"LineString","coordinates":[[-120.69439,37.45877],[-120.69433,37.45879],[-120.69423,37.4588],[-120.69412,37.45878],[-120.69396,37.45876],[-120.69381,37.45875],[-120.69366,37.45876],[-120.69353,37.45876],[-120.69184,37.45876],[-120.68601,37.45876],[-120.68554,37.45873]]}},{"type":"Feature","properties":{"name":"(unnamed public road)","road_class":"track","source":"OpenStreetMap","source_detail":"osm way 1390664872","source_tile":"168/396","surface_inferred":true},"geometry":{"type":"LineString","coordinates":[[-120.69184,37.45876],[-120.69184,37.46265]]}},{"type":"Feature","properties":{"name":"(unnamed public road)","road_class":"track","source":"OpenStreetMap","source_detail":"osm way 1390664873","source_tile":"168/396","surface_inferred":true},"geometry":{"type":"LineString","coordinates":[[-120.69763,37.46269],[-120.69756,37.46264],[-120.6975,37.46258],[-120.69745,37.46251],[-120.69745,37.46226],[-120.69741,37.46208],[-120.69735,37.46192],[-120.69723,37.46177],[-120.69646,37.46113],[-120.6961,37.46081],[-120.696,37.4607],[-120.69596,37.46064],[-120.69584,37.46042],[-120.69572,37.4602],[-120.69551,37.45996],[-120.69546,37.45989],[-120.69545,37.45983],[-120.69545,37.45976],[-120.69539,37.45969],[-120.69538,37.45963]]}},{"type":"Feature","properties":{"name":"(unnamed public road)","road_class":"track","source":"OpenStreetMap","source_detail":"osm way 1390664874","source_tile":"168/396","surface_inferred":true},"geometry":{"type":"LineString","coordinates":[[-120.69745,37.46251],[-120.6971,37.46251],[-120.69687,37.46246],[-120.69578,37.46195],[-120.6955,37.46186],[-120.6953,37.46181],[-120.6951,37.46178],[-120.69462,37.46178]]}},{"type":"Feature","properties":{"name":"(unnamed public road)","road_class":"track","source":"OpenStreetMap","source_detail":"osm way 1390664877","source_tile":"168/396","surface_inferred":true},"geometry":{"type":"LineString","coordinates":[[-120.69602,37.46267],[-120.69461,37.46267],[-120.69184,37.46265],[-120.69079,37.46264],[-120.69001,37.46266],[-120.68569,37.46262],[-120.68562,37.46261],[-120.68556,37.46259],[-120.68553,37.46256],[-120.68551,37.46253],[-120.68549,37.4589],[-120.68554,37.45873]]}},{"type":"Feature","properties":{"name":"(unnamed public road)","road_class":"track","source":"OpenStreetMap","source_detail":"osm way 1390664878","source_tile":"168/396","surface_inferred":true},"geometry":{"type":"LineString","coordinates":[[-120.69461,37.46267],[-120.69462,37.46178],[-120.69462,37.45988],[-120.69463,37.45982],[-120.69466,37.45977],[-120.69471,37.45973],[-120.69484,37.45965],[-120.6949,37.45959]]}},{"type":"Feature","properties":{"name":"(unnamed public road)","road_class":"track","source":"OpenStreetMap","source_detail":"osm way 1390664880","source_tile":"168/396","surface_inferred":true},"geometry":{"type":"LineString","coordinates":[[-120.69637,37.46086],[-120.69636,37.46088],[-120.69636,37.46091],[-120.69636,37.46094],[-120.69637,37.46098],[-120.69644,37.46106],[-120.69646,37.4611],[-120.69646,37.46113]]}},{"type":"Feature","properties":{"name":"(unnamed public road)","road_class":"track","source":"OpenStreetMap","source_detail":"osm way 1390664881","source_tile":"168/396","surface_inferred":true},"geometry":{"type":"LineString","coordinates":[[-120.69821,37.45887],[-120.69833,37.45896],[-120.69837,37.459],[-120.69839,37.45906],[-120.69839,37.45913],[-120.69837,37.45921],[-120.69834,37.4593],[-120.69833,37.45938],[-120.69833,37.45951],[-120.69833,37.45962],[-120.69832,37.45971],[-120.6983,37.45983],[-120.69829,37.4599],[-120.6983,37.46],[-120.69833,37.46017],[-120.69832,37.46033],[-120.69828,37.46074],[-120.69827,37.46077],[-120.69825,37.4608],[-120.69823,37.46082],[-120.69819,37.46083],[-120.69658,37.46084],[-120.69646,37.46084],[-120.69637,37.46086],[-120.69634,37.46086],[-120.6963,37.46086],[-120.69626,37.46086],[-120.69623,37.46084],[-120.69619,37.46081],[-120.69596,37.46064]]}},{"type":"Feature","properties":{"name":"(unnamed public road)","road_class":"track","source":"OpenStreetMap","source_detail":"osm way 1390753347","source_tile":"168/396","surface_inferred":true},"geometry":{"type":"LineString","coordinates":[[-120.73331,37.45687],[-120.73327,37.45687],[-120.73323,37.45687],[-120.73319,37.45687],[-120.73316,37.45689],[-120.73313,37.45691],[-120.73311,37.45694]]}},{"type":"Feature","properties":{"name":"(unnamed public road)","road_class":"track","source":"OpenStreetMap","source_detail":"osm way 1390753370","source_tile":"168/396","surface_inferred":true},"geometry":{"type":"LineString","coordinates":[[-120.75791,37.47019],[-120.75796,37.47023],[-120.75804,37.47025],[-120.75817,37.47027],[-120.75952,37.47028],[-120.75959,37.47026],[-120.75966,37.47022],[-120.75973,37.47019],[-120.75983,37.47017],[-120.75992,37.47016],[-120.76019,37.4702],[-120.76026,37.47021],[-120.76034,37.47021],[-120.76042,37.4702],[-120.76063,37.47017],[-120.76071,37.47016],[-120.76215,37.47015],[-120.76223,37.47015],[-120.76228,37.47012]]}},{"type":"Feature","properties":{"name":"(unnamed public road)","road_class":"track","source":"OpenStreetMap","source_detail":"osm way 1390753402","source_tile":"168/396","surface_inferred":true},"geometry":{"type":"LineString","coordinates":[[-120.73079,37.45733],[-120.73078,37.45945]]}},{"type":"Feature","properties":{"name":"(unnamed public road)","road_class":"track","source":"OpenStreetMap","source_detail":"osm way 1423442331","source_tile":"168/396","surface_inferred":true},"geometry":{"type":"LineString","coordinates":[[-120.85194,37.63685],[-120.85337,37.63684]]}},{"type":"Feature","properties":{"name":"(unnamed public road)","road_class":"track","source":"OpenStreetMap","source_detail":"osm way 1445735672","source_tile":"168/396","surface_inferred":true},"geometry":{"type":"LineString","coordinates":[[-120.74559,37.51741],[-120.74643,37.51614],[-120.74637,37.51602]]}},{"type":"Feature","properties":{"name":"(unnamed public road)","road_class":"track","source":"OpenStreetMap","source_detail":"osm way 1445735678","source_tile":"168/396","surface_inferred":true},"geometry":{"type":"LineString","coordinates":[[-120.75603,37.51616],[-120.75541,37.51624],[-120.75537,37.51634],[-120.75536,37.51683],[-120.75546,37.51738],[-120.75574,37.51805],[-120.75589,37.51822]]}},{"type":"Feature","properties":{"name":"(unnamed public road)","road_class":"track","source":"OpenStreetMap","source_detail":"osm way 1445735684","source_tile":"168/396","surface_inferred":true},"geometry":{"type":"LineString","coordinates":[[-120.7554,37.51882],[-120.75403,37.51878]]}},{"type":"Feature","properties":{"name":"(unnamed public road)","road_class":"track","source":"OpenStreetMap","source_detail":"osm way 1445735685","source_tile":"168/396","surface_inferred":true},"geometry":{"type":"LineString","coordinates":[[-120.75372,37.51878],[-120.75276,37.51876],[-120.75085,37.51874],[-120.75036,37.51873],[-120.74997,37.51873],[-120.7495,37.51873]]}},{"type":"Feature","properties":{"name":"(unnamed public road)","road_class":"track","source":"OpenStreetMap","source_detail":"osm way 1445735686","source_tile":"168/396","surface_inferred":true},"geometry":{"type":"LineString","coordinates":[[-120.7495,37.51873],[-120.74861,37.51968],[-120.74817,37.51995],[-120.74761,37.52009],[-120.74543,37.52067],[-120.74461,37.52065],[-120.74359,37.52036],[-120.74209,37.5199],[-120.74145,37.51962],[-120.74108,37.51918],[-120.74089,37.51844],[-120.74085,37.51743],[-120.74075,37.51706],[-120.74054,37.51681],[-120.7402,37.51659],[-120.73988,37.51653],[-120.73966,37.51652]]}},{"type":"Feature","properties":{"name":"(unnamed public road)","road_class":"track","source":"OpenStreetMap","source_detail":"osm way 1445735687","source_tile":"168/396","surface_inferred":true},"geometry":{"type":"LineString","coordinates":[[-120.74997,37.51873],[-120.74994,37.52055],[-120.74994,37.52103],[-120.74977,37.52116],[-120.74769,37.52116],[-120.7476,37.52106],[-120.74735,37.52102]]}},{"type":"Feature","properties":{"name":"(unnamed public road)","road_class":"track","source":"OpenStreetMap","source_detail":"osm way 1445735688","source_tile":"168/396","surface_inferred":true},"geometry":{"type":"LineString","coordinates":[[-120.7473,37.52024],[-120.74731,37.52098],[-120.74735,37.52102]]}},{"type":"Feature","properties":{"name":"(unnamed public road)","road_class":"track","source":"OpenStreetMap","source_detail":"osm way 1445735689","source_tile":"168/396","surface_inferred":true},"geometry":{"type":"LineString","coordinates":[[-120.7476,37.52106],[-120.74761,37.52009]]}},{"type":"Feature","properties":{"name":"(unnamed public road)","road_class":"track","source":"OpenStreetMap","source_detail":"osm way 1445735690","source_tile":"168/396","surface_inferred":true},"geometry":{"type":"LineString","coordinates":[[-120.74994,37.52055],[-120.75081,37.52053],[-120.75085,37.51874]]}},{"type":"Feature","properties":{"name":"(unnamed public road)","road_class":"track","source":"OpenStreetMap","source_detail":"osm way 1445735691","source_tile":"168/396","surface_inferred":true},"geometry":{"type":"LineString","coordinates":[[-120.75036,37.51873],[-120.75038,37.51807],[-120.75064,37.51787],[-120.75123,37.5171],[-120.75148,37.51637],[-120.75205,37.51627],[-120.75288,37.51641],[-120.75276,37.51876]]}},{"type":"Feature","properties":{"name":"(unnamed public road)","road_class":"track","source":"OpenStreetMap","source_detail":"osm way 1445735705","source_tile":"168/396","surface_inferred":true},"geometry":{"type":"LineString","coordinates":[[-120.73474,37.51367],[-120.73467,37.51356],[-120.73453,37.5135],[-120.73426,37.5135],[-120.73351,37.51355],[-120.73338,37.5135],[-120.73334,37.51038],[-120.73337,37.50669]]}},{"type":"Feature","properties":{"name":"(unnamed public road)","road_class":"track","source":"OpenStreetMap","source_detail":"osm way 1445735706","source_tile":"168/396","surface_inferred":true},"geometry":{"type":"LineString","coordinates":[[-120.73338,37.5135],[-120.73331,37.51395],[-120.7281,37.51393],[-120.72785,37.51387],[-120.72786,37.50735],[-120.72807,37.5071],[-120.72833,37.50667]]}},{"type":"Feature","properties":{"name":"(unnamed public road)","road_class":"track","source":"OpenStreetMap","source_detail":"osm way 1445735707","source_tile":"168/396","surface_inferred":true},"geometry":{"type":"LineString","coordinates":[[-120.72785,37.51387],[-120.72782,37.51399]]}},{"type":"Feature","properties":{"name":"(unnamed public road)","road_class":"track","source":"OpenStreetMap","source_detail":"osm way 1445735708","source_tile":"168/396","surface_inferred":true},"geometry":{"type":"LineString","coordinates":[[-120.72782,37.51399],[-120.73037,37.51403],[-120.7305,37.51416],[-120.73045,37.51573]]}},{"type":"Feature","properties":{"name":"(unnamed public road)","road_class":"track","source":"OpenStreetMap","source_detail":"osm way 1445735709","source_tile":"168/396","surface_inferred":true},"geometry":{"type":"LineString","coordinates":[[-120.72782,37.51399],[-120.71949,37.51392],[-120.71943,37.51402],[-120.71943,37.52117]]}},{"type":"Feature","properties":{"name":"(unnamed public road)","road_class":"track","source":"OpenStreetMap","source_detail":"osm way 1451595813","source_tile":"168/396","surface_inferred":true},"geometry":{"type":"LineString","coordinates":[[-120.75862,37.49633],[-120.75862,37.49679]]}},{"type":"Feature","properties":{"name":"(unnamed public road)","road_class":"track","source":"OpenStreetMap","source_detail":"osm way 1503108709","source_tile":"168/396","surface_inferred":true},"geometry":{"type":"LineString","coordinates":[[-120.68165,37.66127],[-120.68139,37.66133],[-120.68131,37.66135],[-120.68109,37.66138]]}},{"type":"Feature","properties":{"name":"(unnamed public road)","road_class":"track","source":"OpenStreetMap","source_detail":"osm way 1503108710","source_tile":"168/396","surface_inferred":true},"geometry":{"type":"LineString","coordinates":[[-120.68167,37.66134],[-120.68176,37.66131],[-120.68183,37.66127],[-120.68187,37.66121],[-120.68198,37.66103],[-120.68203,37.66092],[-120.68204,37.66088]]}},{"type":"Feature","properties":{"name":"(unnamed public road)","road_class":"track","source":"OpenStreetMap","source_detail":"osm way 1503108713","source_tile":"168/396","surface_inferred":true},"geometry":{"type":"LineString","coordinates":[[-120.68184,37.66451],[-120.68169,37.66459],[-120.68112,37.66496],[-120.68083,37.66513],[-120.68008,37.66561],[-120.67965,37.66587],[-120.67942,37.66599],[-120.67919,37.66609],[-120.67895,37.66617],[-120.67881,37.66621],[-120.67859,37.66627],[-120.6784,37.66632],[-120.67823,37.66633]]}},{"type":"Feature","properties":{"name":"(unnamed public road)","road_class":"track","source":"OpenStreetMap","source_detail":"osm way 1503108714","source_tile":"168/396","surface_inferred":true},"geometry":{"type":"LineString","coordinates":[[-120.68175,37.66574],[-120.68165,37.66564],[-120.68144,37.66539],[-120.68123,37.66512],[-120.68112,37.66496],[-120.68097,37.66475],[-120.68085,37.66457],[-120.68075,37.66445],[-120.68065,37.66437],[-120.68049,37.66428],[-120.68026,37.66415],[-120.67995,37.66402],[-120.67982,37.66397]]}},{"type":"Feature","properties":{"name":"(unnamed public road)","road_class":"track","source":"OpenStreetMap","source_detail":"osm way 1503108715","source_tile":"168/396","surface_inferred":true},"geometry":{"type":"LineString","coordinates":[[-120.68194,37.6665],[-120.68177,37.66657],[-120.68163,37.66662],[-120.68152,37.66664],[-120.68141,37.66665],[-120.6813,37.66665],[-120.68121,37.66666],[-120.68108,37.6667],[-120.68097,37.66674],[-120.68082,37.66682],[-120.68066,37.66691],[-120.68052,37.66697],[-120.68041,37.66702],[-120.68031,37.66705],[-120.68019,37.66708],[-120.67987,37.66716],[-120.67955,37.66723],[-120.6794,37.66725],[-120.67931,37.66725],[-120.67921,37.66724],[-120.67911,37.6672],[-120.67899,37.66713],[-120.67887,37.66706],[-120.67873,37.66697],[-120.67852,37.66682],[-120.67844,37.66673],[-120.67839,37.66666],[-120.67831,37.66647],[-120.67826,37.66638],[-120.67823,37.66633]]}},{"type":"Feature","properties":{"name":"(unnamed public road)","road_class":"track","source":"OpenStreetMap","source_detail":"osm way 1503108716","source_tile":"168/396","surface_inferred":true},"geometry":{"type":"LineString","coordinates":[[-120.6813,37.66665],[-120.68127,37.66663],[-120.68097,37.66658],[-120.68065,37.66654],[-120.68041,37.66652],[-120.68028,37.66652],[-120.68018,37.66653],[-120.68005,37.66655]]}},{"type":"Feature","properties":{"name":"(unnamed public road)","road_class":"track","source":"OpenStreetMap","source_detail":"osm way 1503108717","source_tile":"168/396","surface_inferred":true},"geometry":{"type":"LineString","coordinates":[[-120.68083,37.66513],[-120.68084,37.66517],[-120.6807,37.66545],[-120.68056,37.66572],[-120.68035,37.66607],[-120.68014,37.66638],[-120.6801,37.66644],[-120.68007,37.66651],[-120.68005,37.66655]]}},{"type":"Feature","properties":{"name":"(unnamed public road)","road_class":"track","source":"OpenStreetMap","source_detail":"osm way 1503108718","source_tile":"168/396","surface_inferred":true},"geometry":{"type":"LineString","coordinates":[[-120.68005,37.66655],[-120.67982,37.66661],[-120.67968,37.66663],[-120.67955,37.66665],[-120.67945,37.66665],[-120.67935,37.66664],[-120.67927,37.66662],[-120.67917,37.66659]]}},{"type":"Feature","properties":{"name":"(unnamed public road)","road_class":"track","source":"OpenStreetMap","source_detail":"osm way 1503108719","source_tile":"168/396","surface_inferred":true},"geometry":{"type":"LineString","coordinates":[[-120.67917,37.66659],[-120.6791,37.66659],[-120.67903,37.66662],[-120.67899,37.66665],[-120.67896,37.66669],[-120.67893,37.66675],[-120.6789,37.66683],[-120.67888,37.66693],[-120.67887,37.66706]]}},{"type":"Feature","properties":{"name":"(unnamed public road)","road_class":"track","source":"OpenStreetMap","source_detail":"osm way 1503108720","source_tile":"168/396","surface_inferred":true},"geometry":{"type":"LineString","coordinates":[[-120.67917,37.66659],[-120.67906,37.66651],[-120.67898,37.66643],[-120.6789,37.66634],[-120.67884,37.66627],[-120.67881,37.66621],[-120.67877,37.66612],[-120.67867,37.66586],[-120.67859,37.66566],[-120.67856,37.66554],[-120.67853,37.66544],[-120.67852,37.66537]]}},{"type":"Feature","properties":{"name":"(unnamed public road)","road_class":"track","source":"OpenStreetMap","source_detail":"osm way 1503108721","source_tile":"168/396","surface_inferred":true},"geometry":{"type":"LineString","coordinates":[[-120.68192,37.67166],[-120.68198,37.67176],[-120.68205,37.67195],[-120.68209,37.67209],[-120.68209,37.67221],[-120.68207,37.67232],[-120.682,37.67247],[-120.68191,37.67259],[-120.68188,37.67267]]}},{"type":"Feature","properties":{"name":"(unnamed public road)","road_class":"track","source":"OpenStreetMap","source_detail":"osm way 1503108724","source_tile":"168/396","surface_inferred":true},"geometry":{"type":"LineString","coordinates":[[-120.67614,37.67696],[-120.67595,37.67702],[-120.67575,37.67712],[-120.67554,37.67726],[-120.67533,37.67739],[-120.67512,37.67754]]}},{"type":"Feature","properties":{"name":"(unnamed public road)","road_class":"track","source":"OpenStreetMap","source_detail":"osm way 1503145909","source_tile":"168/396","surface_inferred":true},"geometry":{"type":"LineString","coordinates":[[-120.67248,37.65441],[-120.67255,37.65464],[-120.67276,37.65515],[-120.67298,37.6557]]}},{"type":"Feature","properties":{"name":"(unnamed public road)","road_class":"track","source":"OpenStreetMap","source_detail":"osm way 1503213562","source_tile":"168/396","surface_inferred":true},"geometry":{"type":"LineString","coordinates":[[-120.64303,37.7034],[-120.64305,37.70326],[-120.64303,37.70294],[-120.64302,37.70275]]}},{"type":"Feature","properties":{"name":"(unnamed public road)","road_class":"track","source":"OpenStreetMap","source_detail":"osm way 1503213571","source_tile":"168/396","surface_inferred":true},"geometry":{"type":"LineString","coordinates":[[-120.64832,37.70325],[-120.64827,37.70344],[-120.64817,37.70378],[-120.64808,37.70408],[-120.64797,37.70442],[-120.64786,37.70467],[-120.64779,37.70481],[-120.64775,37.70493],[-120.64776,37.70501],[-120.64778,37.70511],[-120.64792,37.70548],[-120.648,37.70571],[-120.64804,37.70592],[-120.6481,37.70622],[-120.64811,37.70633],[-120.64809,37.70641],[-120.64806,37.70649]]}},{"type":"Feature","properties":{"name":"(unnamed public road)","road_class":"track","source":"OpenStreetMap","source_detail":"osm way 1503213586","source_tile":"168/396","surface_inferred":true},"geometry":{"type":"LineString","coordinates":[[-120.65163,37.70303],[-120.65177,37.70293],[-120.65194,37.7028],[-120.65207,37.70268],[-120.65214,37.70258],[-120.65217,37.70251],[-120.65219,37.70245],[-120.65219,37.70235]]}},{"type":"Feature","properties":{"name":"(unnamed public road)","road_class":"track","source":"OpenStreetMap","source_detail":"osm way 1508281519","source_tile":"168/396","surface_inferred":true},"geometry":{"type":"LineString","coordinates":[[-120.85707,37.7128],[-120.85693,37.71283],[-120.85657,37.71292],[-120.85449,37.7135],[-120.8537,37.71371],[-120.85179,37.71422],[-120.85167,37.71426],[-120.85163,37.71428]]}},{"type":"Feature","properties":{"name":"(unnamed public road)","road_class":"track","source":"OpenStreetMap","source_detail":"osm way 1508281520","source_tile":"168/396","surface_inferred":true},"geometry":{"type":"LineString","coordinates":[[-120.85713,37.71618],[-120.85706,37.71615],[-120.85702,37.71613],[-120.85698,37.71613]]}},{"type":"Feature","properties":{"name":"(unnamed public road)","road_class":"track","source":"OpenStreetMap","source_detail":"osm way 1508281521","source_tile":"168/396","surface_inferred":true},"geometry":{"type":"LineString","coordinates":[[-120.85712,37.71608],[-120.85708,37.71609],[-120.85705,37.7161],[-120.85702,37.71612],[-120.85698,37.71613],[-120.85689,37.71615],[-120.85681,37.71616],[-120.85671,37.71619],[-120.8559,37.71643],[-120.85549,37.71654],[-120.8554,37.71657],[-120.85482,37.71671]]}},{"type":"Feature","properties":{"name":"(unnamed public road)","road_class":"track","source":"OpenStreetMap","source_detail":"osm way 1514076723","source_tile":"168/396","surface_inferred":true},"geometry":{"type":"LineString","coordinates":[[-120.78973,37.49621],[-120.78968,37.49976]]}}]}