{"type":"FeatureCollection","features":[{"type":"Feature","properties":{"name":"(unnamed public road)","road_class":"track","access":"military","source":"OpenStreetMap","source_detail":"osm way 16247100","source_tile":"168/407","surface_inferred":true},"geometry":{"type":"LineString","coordinates":[[-120.63947,34.59555],[-120.63947,34.59587],[-120.6394,34.59621],[-120.63933,34.59649],[-120.63933,34.59657],[-120.63934,34.59667],[-120.63943,34.59696],[-120.6396,34.59736],[-120.63966,34.5976],[-120.63967,34.59773],[-120.63966,34.59795],[-120.63962,34.59818],[-120.63955,34.59832],[-120.63939,34.59852],[-120.63934,34.59863],[-120.63932,34.59871],[-120.63927,34.59912],[-120.63929,34.5992],[-120.63935,34.59931],[-120.63964,34.59961],[-120.63975,34.59972],[-120.64023,34.60005],[-120.64033,34.60013],[-120.64052,34.60039],[-120.64064,34.60059],[-120.64065,34.60066],[-120.64066,34.60076],[-120.64064,34.60083],[-120.64062,34.60089],[-120.64057,34.60095],[-120.64047,34.60105],[-120.64041,34.60113],[-120.64032,34.60131],[-120.64029,34.60138],[-120.64028,34.60146],[-120.64029,34.60152],[-120.64031,34.60157],[-120.64037,34.60165],[-120.64048,34.60174],[-120.64067,34.60184],[-120.64078,34.60192],[-120.64084,34.60198],[-120.64089,34.60204],[-120.64091,34.60218],[-120.64091,34.60231],[-120.6409,34.60258]]}},{"type":"Feature","properties":{"name":"(unnamed public road)","road_class":"track","source":"OpenStreetMap","source_detail":"osm way 1491110111","source_tile":"168/407","surface_inferred":true},"geometry":{"type":"LineString","coordinates":[[-120.63767,34.59969],[-120.63705,34.5997],[-120.63695,34.59968],[-120.63617,34.59932],[-120.63608,34.59924],[-120.63572,34.59877],[-120.63569,34.59868],[-120.63571,34.59844],[-120.63585,34.59701],[-120.6359,34.59631],[-120.63588,34.59621],[-120.63575,34.59595]]}},{"type":"Feature","properties":{"name":"(unnamed public road)","road_class":"track","source":"OpenStreetMap","source_detail":"osm way 1491110112","source_tile":"168/407","surface_inferred":true},"geometry":{"type":"LineString","coordinates":[[-120.63572,34.59877],[-120.63553,34.59871],[-120.63537,34.59862],[-120.6311,34.59627],[-120.63105,34.59622],[-120.62998,34.595]]}},{"type":"Feature","properties":{"name":"(unnamed public road)","road_class":"track","access":"military","source":"OpenStreetMap","source_detail":"osm way 16225071","source_tile":"168/407","surface_inferred":true},"geometry":{"type":"LineString","coordinates":[[-120.64868,34.57696],[-120.6488,34.57704],[-120.64889,34.57715],[-120.64885,34.57733],[-120.64853,34.57749],[-120.64805,34.57757],[-120.64776,34.57775],[-120.64758,34.57781],[-120.64672,34.57776],[-120.64586,34.57767],[-120.64555,34.57761],[-120.64442,34.5774],[-120.64418,34.57738]]}},{"type":"Feature","properties":{"name":"Old Honda Ridge Road","road_class":"track","access":"military","source":"OpenStreetMap","source_detail":"osm way 16259048","source_tile":"169/407","surface_inferred":true},"geometry":{"type":"LineString","coordinates":[[-120.5891,34.58854],[-120.58906,34.58867],[-120.58903,34.58872],[-120.58897,34.58878],[-120.58891,34.58882],[-120.58884,34.58885],[-120.58876,34.58887],[-120.58868,34.58887],[-120.5886,34.58885],[-120.58848,34.5888],[-120.58831,34.58867],[-120.58806,34.58847],[-120.58752,34.58815],[-120.58742,34.58811],[-120.5872,34.58806],[-120.58673,34.588],[-120.58654,34.58795],[-120.58643,34.58789],[-120.58636,34.58785],[-120.5863,34.58778],[-120.58624,34.58771],[-120.58617,34.58763],[-120.58611,34.5876],[-120.58602,34.58757],[-120.58585,34.58755],[-120.58558,34.58761],[-120.58549,34.58761],[-120.58542,34.5876],[-120.58535,34.58757],[-120.5852,34.58748],[-120.58472,34.58713],[-120.58461,34.58707],[-120.58454,34.58704],[-120.58431,34.587],[-120.5841,34.58699],[-120.58396,34.58695],[-120.58371,34.58678],[-120.58364,34.58675],[-120.58358,34.58675],[-120.58344,34.58676],[-120.58336,34.58678],[-120.5833,34.58682],[-120.58318,34.58695],[-120.58292,34.5874],[-120.58288,34.58745],[-120.58283,34.58747],[-120.58275,34.58749],[-120.58267,34.58749],[-120.58251,34.58749],[-120.58239,34.58747],[-120.58224,34.58743],[-120.58207,34.58736],[-120.58194,34.58729],[-120.58179,34.58717],[-120.58171,34.58707],[-120.58165,34.58697],[-120.58154,34.5867],[-120.5815,34.58664],[-120.58145,34.5866],[-120.58136,34.58657],[-120.58114,34.58656],[-120.58102,34.58659],[-120.58095,34.58661],[-120.58069,34.58675],[-120.58061,34.58678],[-120.58016,34.5868],[-120.58004,34.5868],[-120.57991,34.58677],[-120.57985,34.58673],[-120.57972,34.58656],[-120.57968,34.5865],[-120.57963,34.58644],[-120.57956,34.5864],[-120.57948,34.58636],[-120.57937,34.58633],[-120.57928,34.58632],[-120.57904,34.58632],[-120.57889,34.58634],[-120.57873,34.58637],[-120.57813,34.58646],[-120.57804,34.58646],[-120.57793,34.58643],[-120.57787,34.5864],[-120.57784,34.58637],[-120.57745,34.58558],[-120.57741,34.58552],[-120.5773,34.58541],[-120.57711,34.58529],[-120.57707,34.58526],[-120.57702,34.58518],[-120.57696,34.58507],[-120.57692,34.58495],[-120.57692,34.5848],[-120.57693,34.5847],[-120.57706,34.58447],[-120.5771,34.58434],[-120.5771,34.58429],[-120.57708,34.58419],[-120.57704,34.58413],[-120.57699,34.58408],[-120.57693,34.58404],[-120.57686,34.58402],[-120.57675,34.58401],[-120.57663,34.58402],[-120.57628,34.58412],[-120.57563,34.58432],[-120.57518,34.5845],[-120.57507,34.58453],[-120.57498,34.58455],[-120.57487,34.58455],[-120.57465,34.58452],[-120.57455,34.58449],[-120.57432,34.58439],[-120.57417,34.5843],[-120.57384,34.58407],[-120.57366,34.5839],[-120.57362,34.58385],[-120.57347,34.58343],[-120.5734,34.58329],[-120.57335,34.5832],[-120.57315,34.58301],[-120.57307,34.58294],[-120.57285,34.58285],[-120.57262,34.58279],[-120.5725,34.58277],[-120.57231,34.58276],[-120.57221,34.58278],[-120.57176,34.5829],[-120.57076,34.58315],[-120.57028,34.58331],[-120.56983,34.58348],[-120.56967,34.58356],[-120.56927,34.58373]]}},{"type":"Feature","properties":{"name":"(unnamed public road)","road_class":"track","access":"military","source":"OpenStreetMap","source_detail":"osm way 43287237","source_tile":"168/407","surface_inferred":true},"geometry":{"type":"LineString","coordinates":[[-120.64555,34.57761],[-120.64576,34.57745],[-120.64585,34.57736],[-120.64608,34.57727],[-120.64613,34.57721],[-120.64619,34.57706],[-120.64632,34.57701],[-120.64653,34.577],[-120.64669,34.57702],[-120.64683,34.57705],[-120.64698,34.57706],[-120.6472,34.57701]]}},{"type":"Feature","properties":{"name":"(unnamed public road)","road_class":"track","source":"OpenStreetMap","source_detail":"osm way 1491109814","source_tile":"168/407","surface_inferred":true},"geometry":{"type":"LineString","coordinates":[[-120.63346,34.5714],[-120.63339,34.57151],[-120.63329,34.57156],[-120.63315,34.57155],[-120.63304,34.5715],[-120.6327,34.57124],[-120.63246,34.57103],[-120.63222,34.57073],[-120.63207,34.57058],[-120.63184,34.57046],[-120.63138,34.57029],[-120.63111,34.57013],[-120.63062,34.56983],[-120.6302,34.56958],[-120.62992,34.56946],[-120.62956,34.56934],[-120.62925,34.56923],[-120.62914,34.56918],[-120.62898,34.56915],[-120.62882,34.56914],[-120.62817,34.56927],[-120.62759,34.56942],[-120.62688,34.56957],[-120.62673,34.56964],[-120.62659,34.56978],[-120.62636,34.57008],[-120.62616,34.57039],[-120.6261,34.57062],[-120.62611,34.57085],[-120.6262,34.57115]]}},{"type":"Feature","properties":{"name":"(unnamed public road)","road_class":"track","source":"OpenStreetMap","source_detail":"osm way 1491109815","source_tile":"168/407","surface_inferred":true},"geometry":{"type":"LineString","coordinates":[[-120.63062,34.56983],[-120.63067,34.56972],[-120.63074,34.56964],[-120.6308,34.56957],[-120.63087,34.56943],[-120.63095,34.56925]]}},{"type":"Feature","properties":{"name":"(unnamed public road)","road_class":"track","source":"OpenStreetMap","source_detail":"osm way 1491109816","source_tile":"168/407","surface_inferred":true},"geometry":{"type":"LineString","coordinates":[[-120.6302,34.56958],[-120.63024,34.56933]]}},{"type":"Feature","properties":{"name":"(unnamed public road)","road_class":"track","source":"OpenStreetMap","source_detail":"osm way 1491109817","source_tile":"168/407","surface_inferred":true},"geometry":{"type":"LineString","coordinates":[[-120.62925,34.56923],[-120.62918,34.56917],[-120.62914,34.5691],[-120.6291,34.56898],[-120.62908,34.56885],[-120.6291,34.56876],[-120.62919,34.56868],[-120.62954,34.5685]]}},{"type":"Feature","properties":{"name":"(unnamed public road)","road_class":"track","source":"OpenStreetMap","source_detail":"osm way 1491109818","source_tile":"168/407","surface_inferred":true},"geometry":{"type":"LineString","coordinates":[[-120.62669,34.57088],[-120.6262,34.57115],[-120.62584,34.57141],[-120.62519,34.57192],[-120.62506,34.57206],[-120.62464,34.57259],[-120.62438,34.57283],[-120.62427,34.57291],[-120.62413,34.57294],[-120.62393,34.57292],[-120.62354,34.5728],[-120.62322,34.57273],[-120.62302,34.57272],[-120.62278,34.57277],[-120.62258,34.5729],[-120.62204,34.57351],[-120.62189,34.57363],[-120.62157,34.57379],[-120.62125,34.57408],[-120.61994,34.57538],[-120.61969,34.57553],[-120.61957,34.57568],[-120.61948,34.57583],[-120.61937,34.57591],[-120.61899,34.57607],[-120.61894,34.57613],[-120.61894,34.57623],[-120.61897,34.57635]]}},{"type":"Feature","properties":{"name":"(unnamed public road)","road_class":"track","source":"OpenStreetMap","source_detail":"osm way 1491110113","source_tile":"168/407","surface_inferred":true},"geometry":{"type":"LineString","coordinates":[[-120.63144,34.59598],[-120.63199,34.59637],[-120.63214,34.59643],[-120.63227,34.59645],[-120.63243,34.59645],[-120.63575,34.59595],[-120.63589,34.5959],[-120.63618,34.59577],[-120.63636,34.59572],[-120.63682,34.59569],[-120.637,34.59568]]}},{"type":"Feature","properties":{"name":"(unnamed public road)","road_class":"track","source":"OpenStreetMap","source_detail":"osm way 1491110114","source_tile":"168/407","surface_inferred":true},"geometry":{"type":"LineString","coordinates":[[-120.63682,34.59569],[-120.63677,34.59576],[-120.63677,34.59586],[-120.63682,34.59612],[-120.63682,34.59629],[-120.63677,34.59643],[-120.63654,34.59665],[-120.63615,34.5968],[-120.63585,34.59701]]}},{"type":"Feature","properties":{"name":"(unnamed public road)","road_class":"track","source":"OpenStreetMap","source_detail":"osm way 1491110115","source_tile":"168/407","surface_inferred":true},"geometry":{"type":"LineString","coordinates":[[-120.63765,34.59677],[-120.63739,34.59677],[-120.63726,34.59674],[-120.63717,34.59666],[-120.63714,34.59657],[-120.637,34.59568],[-120.63714,34.59517],[-120.6372,34.59496],[-120.63724,34.59477],[-120.63724,34.59467]]}}]}