{"type":"FeatureCollection","features":[{"type":"Feature","properties":{"name":"16014: KENNEDY MEADOWS  USGS SACATAR CANYON","source":"Bureau of Land Management","source_detail":"BLM GTLF OBJECTID 154397","source_id":"{AC0B9D40-259F-41F8-9110-A75B2A944F86}","road_class":"transportation_system_-_primitive_road","surface":"natural","vehicle_class":"4wd_low","allowed_mode":"all_moto_veh","access_restriction":"unknown","seasonal_restriction":"not_listed","route_plan_id":"833","gis_miles":0.09476267},"geometry":{"type":"LineString","coordinates":[[-118.08456,35.97167],[-118.08454,35.97172],[-118.0845,35.97176],[-118.08445,35.97181],[-118.08441,35.97189],[-118.08441,35.97198],[-118.08443,35.97209],[-118.08445,35.97221],[-118.08446,35.97233],[-118.08443,35.97246],[-118.08439,35.97259],[-118.08433,35.97271],[-118.08428,35.97283],[-118.08421,35.97294],[-118.08419,35.97297]]}},{"type":"Feature","properties":{"name":"Sacatar Ranch Rd","source":"Bureau of Land Management","source_detail":"BLM GTLF OBJECTID 155088","source_id":"{1A104CD8-034B-4697-BF28-2EEA958EB027}","road_class":"transportation_system_-_primitive_road","surface":"natural_improved","vehicle_class":"2wd_low","allowed_mode":"all_moto_veh","access_restriction":"not_listed","seasonal_restriction":"not_listed","route_plan_id":"1073","gis_miles":0.50616481},"geometry":{"type":"LineString","coordinates":[[-118.09599,35.99113],[-118.09571,35.99113],[-118.09543,35.99113],[-118.09514,35.99113],[-118.09486,35.99114],[-118.09456,35.99115],[-118.09427,35.99115],[-118.09396,35.99115],[-118.09365,35.99116],[-118.09334,35.99115],[-118.09304,35.99114],[-118.09274,35.99111],[-118.09247,35.99105],[-118.0922,35.991],[-118.09193,35.99096],[-118.09167,35.99095],[-118.09143,35.99095],[-118.0912,35.99098],[-118.09099,35.99102],[-118.0908,35.99107],[-118.09061,35.99111],[-118.0904,35.99112],[-118.09018,35.99111],[-118.08994,35.99112],[-118.08972,35.99113],[-118.08949,35.99115],[-118.08928,35.99116],[-118.08908,35.99117],[-118.08888,35.99117],[-118.08869,35.99116],[-118.08849,35.99114],[-118.08828,35.99113],[-118.08807,35.99112],[-118.08786,35.99111],[-118.08766,35.99111],[-118.08746,35.99111],[-118.08728,35.99111],[-118.08712,35.9911],[-118.08701,35.99107]]}},{"type":"Feature","properties":{"name":"16001 CANEBRAKE ROAD","source":"Bureau of Land Management","source_detail":"BLM GTLF OBJECTID 155234","source_id":"{E09FE9C3-9972-4862-B283-B26BC6B358D7}","road_class":"transportation_system_-_primitive_road","surface":"natural_improved","vehicle_class":"4wd_low","allowed_mode":"unk","access_restriction":"unknown","seasonal_restriction":"not_listed","route_plan_id":"1301","gis_miles":1.8577265},"geometry":{"type":"LineString","coordinates":[[-118.05385,35.81473],[-118.05384,35.81485],[-118.05385,35.81502],[-118.05373,35.81513],[-118.05358,35.81535],[-118.05352,35.81589],[-118.05342,35.81633],[-118.05334,35.81671],[-118.05324,35.81692],[-118.05316,35.81703],[-118.05302,35.81717],[-118.05288,35.81724],[-118.05264,35.81729],[-118.05242,35.81732],[-118.05218,35.81739],[-118.0519,35.8175],[-118.0518,35.81766],[-118.05167,35.81787],[-118.05149,35.81821],[-118.05133,35.81851],[-118.05104,35.81899],[-118.05088,35.81924],[-118.05074,35.81946],[-118.05065,35.81967],[-118.0506,35.81983],[-118.0506,35.82003],[-118.05059,35.82031],[-118.05058,35.82049],[-118.05058,35.82067],[-118.05059,35.82084],[-118.05057,35.82098],[-118.05054,35.82107],[-118.05048,35.82121],[-118.0501,35.82232],[-118.0499,35.82284],[-118.04977,35.82314],[-118.04974,35.82325],[-118.04964,35.82354],[-118.0496,35.82373],[-118.04953,35.8239],[-118.04947,35.82399],[-118.04939,35.82411],[-118.04929,35.82425],[-118.04901,35.82458],[-118.04881,35.82479],[-118.04859,35.82508],[-118.04841,35.82525],[-118.04836,35.82528],[-118.04818,35.82537],[-118.048,35.82548],[-118.04798,35.82549],[-118.04785,35.82557],[-118.04775,35.82566],[-118.04764,35.82576],[-118.04754,35.82591],[-118.04736,35.82626],[-118.0471,35.82679],[-118.04696,35.82717],[-118.04694,35.82722],[-118.04691,35.82745],[-118.0469,35.82771],[-118.04691,35.8279],[-118.0469,35.82807],[-118.0469,35.82828],[-118.04692,35.82846],[-118.04685,35.82868],[-118.04684,35.82882],[-118.04675,35.829],[-118.04666,35.82917],[-118.04659,35.82935],[-118.04648,35.82952],[-118.0463,35.82987],[-118.04612,35.83009],[-118.0458,35.83047],[-118.04563,35.83073],[-118.04555,35.8309],[-118.04543,35.83108],[-118.04534,35.8313],[-118.04532,35.83147],[-118.04528,35.83162],[-118.04526,35.83185],[-118.0453,35.83203],[-118.04535,35.83222],[-118.04538,35.83243],[-118.0454,35.83261],[-118.04538,35.83274],[-118.04532,35.83298],[-118.04522,35.8332],[-118.04512,35.83343],[-118.04502,35.83361],[-118.04493,35.83374],[-118.04483,35.8339],[-118.04479,35.83405],[-118.0448,35.83436],[-118.04481,35.83457],[-118.04479,35.83477],[-118.04473,35.83495],[-118.04464,35.83514],[-118.04448,35.83532],[-118.04433,35.83547],[-118.04409,35.83568],[-118.04402,35.83576],[-118.04399,35.83581],[-118.04383,35.83596],[-118.04357,35.83615],[-118.0433,35.83632],[-118.04311,35.83648],[-118.04296,35.83664],[-118.04282,35.8368],[-118.04267,35.837],[-118.04255,35.83722],[-118.04243,35.83742],[-118.04242,35.83764],[-118.04247,35.83785],[-118.0427,35.83818],[-118.04304,35.83871],[-118.04316,35.8389]]}},{"type":"Feature","properties":{"name":"832","source":"Bureau of Land Management","source_detail":"BLM GTLF OBJECTID 155812","source_id":"{A763AEC4-4D4A-4239-95C5-E4018BFB1510}","road_class":"transportation_system_-_primitive_road","surface":"natural_improved","vehicle_class":"2wd_low","allowed_mode":"all_moto_veh","access_restriction":"not_listed","seasonal_restriction":"not_listed","route_plan_id":"832","gis_miles":0.70006098},"geometry":{"type":"LineString","coordinates":[[-118.09215,35.97231],[-118.09209,35.97228],[-118.09202,35.97228],[-118.09195,35.9723],[-118.09186,35.97232],[-118.09175,35.97234],[-118.09162,35.97234],[-118.09148,35.97235],[-118.09136,35.97236],[-118.09126,35.97236],[-118.09117,35.97236],[-118.09105,35.97234],[-118.09092,35.97232],[-118.0908,35.97231],[-118.09068,35.97231],[-118.09057,35.97231],[-118.09046,35.97232],[-118.09032,35.97233],[-118.09015,35.97236],[-118.08997,35.97239],[-118.08978,35.97243],[-118.08959,35.97246],[-118.08939,35.97249],[-118.08918,35.97251],[-118.08897,35.97251],[-118.08876,35.97252],[-118.08855,35.97252],[-118.08836,35.97251],[-118.08817,35.97249],[-118.088,35.97245],[-118.08783,35.97239],[-118.08768,35.97232],[-118.08754,35.97224],[-118.0874,35.97217],[-118.08727,35.97211],[-118.08713,35.97207],[-118.08699,35.97206],[-118.08684,35.97206],[-118.08669,35.97208],[-118.08654,35.9721],[-118.08643,35.97209],[-118.08631,35.97208],[-118.08618,35.97206],[-118.08605,35.97208],[-118.08596,35.97214],[-118.08588,35.97221],[-118.0858,35.97227],[-118.08571,35.97233],[-118.08562,35.97239],[-118.08551,35.97245],[-118.08538,35.9725],[-118.08526,35.97252],[-118.08515,35.97249],[-118.08506,35.97243],[-118.08498,35.97234],[-118.08493,35.97223],[-118.08489,35.97211],[-118.08484,35.97198],[-118.08479,35.97186],[-118.08472,35.97176],[-118.08464,35.97169],[-118.08456,35.97167],[-118.08451,35.97164],[-118.08445,35.97162],[-118.08439,35.97161],[-118.08433,35.9716],[-118.08429,35.97159],[-118.08425,35.97159],[-118.08419,35.97158],[-118.08412,35.97158],[-118.08403,35.97158],[-118.08393,35.97158],[-118.08381,35.97159],[-118.08369,35.9716],[-118.08356,35.97163],[-118.08343,35.97164],[-118.08329,35.97167],[-118.08315,35.97169],[-118.08303,35.97171],[-118.08293,35.97172],[-118.08283,35.97174],[-118.08272,35.97179],[-118.08258,35.97184],[-118.08242,35.9719],[-118.08225,35.972],[-118.08211,35.97211],[-118.082,35.97222],[-118.08191,35.97234],[-118.08182,35.97246],[-118.08174,35.97259],[-118.08167,35.9727],[-118.08159,35.97279],[-118.08151,35.97288],[-118.08142,35.97296],[-118.08141,35.97296]]}},{"type":"Feature","properties":{"name":"16002: LONG VALLEY LOOP ROAD","source":"Bureau of Land Management","source_detail":"BLM GTLF OBJECTID 156779","source_id":"{FB806422-BD38-463C-9B79-16BC6D356073}","road_class":"transportation_system_-_primitive_road","surface":"natural_improved","vehicle_class":"4wd_low","allowed_mode":"all_moto_veh","access_restriction":"unknown","seasonal_restriction":"not_listed","route_plan_id":"1274","gis_miles":1.27195072},"geometry":{"type":"LineString","coordinates":[[-118.01897,35.87313],[-118.01908,35.8731],[-118.01926,35.8731],[-118.01951,35.87316],[-118.01973,35.8732],[-118.01994,35.8732],[-118.02018,35.87321],[-118.02045,35.87318],[-118.02069,35.87315],[-118.02085,35.87312],[-118.02108,35.87307],[-118.02124,35.87304],[-118.02142,35.87304],[-118.02165,35.87306],[-118.02175,35.87308],[-118.02195,35.87313],[-118.02214,35.87318],[-118.02242,35.87323],[-118.0227,35.87331],[-118.02293,35.8734],[-118.02315,35.87348],[-118.02334,35.87353],[-118.02346,35.87358],[-118.02369,35.87364],[-118.02389,35.87371],[-118.02396,35.87374],[-118.02403,35.87379],[-118.02416,35.87386],[-118.0243,35.87392],[-118.02443,35.87392],[-118.02464,35.8739],[-118.0248,35.8739],[-118.02499,35.8739],[-118.02528,35.87391],[-118.02537,35.87393],[-118.02545,35.87399],[-118.0255,35.87407],[-118.02554,35.87419],[-118.02559,35.87433],[-118.02564,35.87445],[-118.02572,35.87453],[-118.02585,35.87458],[-118.02594,35.8746],[-118.02617,35.87463],[-118.02632,35.87461],[-118.02652,35.8746],[-118.02667,35.87458],[-118.02681,35.8746],[-118.02694,35.87462],[-118.02705,35.87465],[-118.02716,35.87467],[-118.02727,35.87468],[-118.02745,35.87467],[-118.02762,35.87468],[-118.02779,35.87472],[-118.02798,35.87483],[-118.02815,35.87491],[-118.02828,35.87494],[-118.02844,35.87494],[-118.02863,35.87491],[-118.02878,35.87489],[-118.02893,35.87493],[-118.02908,35.87505],[-118.0292,35.87513],[-118.02934,35.87516],[-118.02949,35.87516],[-118.02961,35.87515],[-118.02975,35.87519],[-118.0299,35.87529],[-118.03004,35.87541],[-118.03016,35.87553],[-118.03027,35.87563],[-118.03036,35.87572],[-118.03052,35.87582],[-118.03067,35.87592],[-118.03082,35.87602],[-118.03096,35.87608],[-118.03111,35.87616],[-118.03133,35.87619],[-118.03149,35.87622],[-118.03172,35.87626],[-118.03194,35.87633],[-118.03217,35.8764],[-118.03237,35.87649],[-118.03249,35.87655],[-118.03268,35.8766],[-118.03287,35.87664],[-118.03297,35.87666],[-118.03315,35.87668],[-118.03331,35.8767],[-118.03349,35.87673],[-118.03362,35.87675],[-118.03375,35.87678],[-118.03385,35.87683],[-118.03401,35.87689],[-118.03409,35.87693],[-118.03417,35.87697],[-118.03431,35.87703],[-118.03443,35.8771],[-118.03457,35.87717],[-118.03469,35.87724],[-118.03483,35.8773],[-118.03493,35.87733],[-118.03505,35.87735],[-118.03517,35.87731],[-118.03534,35.87731],[-118.03552,35.8773],[-118.03568,35.87728],[-118.03587,35.87731],[-118.036,35.87739],[-118.03608,35.87745],[-118.03618,35.8775],[-118.03632,35.87756],[-118.03646,35.87763],[-118.03663,35.87766],[-118.03681,35.8777],[-118.03697,35.87772],[-118.03714,35.87772],[-118.03725,35.87773],[-118.03755,35.87781],[-118.03765,35.87787],[-118.03776,35.87793],[-118.03787,35.87799],[-118.03798,35.87802],[-118.03806,35.87808],[-118.03815,35.87815],[-118.03824,35.87818],[-118.03834,35.87821],[-118.03845,35.87824],[-118.03858,35.87826],[-118.03873,35.87832],[-118.03886,35.87839],[-118.0389,35.87843],[-118.039,35.87852],[-118.03906,35.87861],[-118.03917,35.87875],[-118.03921,35.87881]]}},{"type":"Feature","properties":{"name":"Unnamed BLM route","source":"Bureau of Land Management","source_detail":"BLM GTLF OBJECTID 157053","source_id":"{DB15E89A-4208-40A6-AB50-9A4AE3042460}","road_class":"transportation_system_-_primitive_road","surface":"natural_improved","vehicle_class":"4wd_low","allowed_mode":"all_moto_veh","access_restriction":"unknown","seasonal_restriction":"not_listed","gis_miles":0.06396378},"geometry":{"type":"LineString","coordinates":[[-118.08654,35.9721],[-118.0866,35.97212],[-118.08661,35.97218],[-118.08661,35.97224],[-118.0866,35.9723],[-118.08662,35.97234],[-118.08666,35.97238],[-118.08669,35.97244],[-118.08671,35.97251],[-118.08671,35.97259],[-118.08671,35.97269],[-118.08671,35.97278],[-118.08672,35.97286],[-118.08674,35.97293],[-118.08677,35.97297]]}},{"type":"Feature","properties":{"name":"16001 CANEBRAKE ROAD","source":"Bureau of Land Management","source_detail":"BLM GTLF OBJECTID 157692","source_id":"{8BE6AE6A-392C-4B7D-B63F-0870530CFE5E}","road_class":"transportation_system_-_primitive_road","surface":"aggregate","vehicle_class":"4wd_low","allowed_mode":"unk","access_restriction":"unknown","seasonal_restriction":"not_listed","route_plan_id":"1301","gis_miles":3.83529523},"geometry":{"type":"LineString","coordinates":[[-118.0133,35.86933],[-118.01333,35.86924],[-118.01335,35.86916],[-118.0134,35.86905],[-118.01351,35.86886],[-118.01366,35.86858],[-118.01381,35.86834],[-118.01392,35.86818],[-118.01403,35.86804],[-118.01411,35.86797],[-118.0142,35.86785],[-118.01428,35.86775],[-118.01434,35.86766],[-118.01442,35.86756],[-118.0145,35.86746],[-118.01458,35.86736],[-118.01467,35.86724],[-118.01475,35.86713],[-118.01482,35.86703],[-118.01489,35.86694],[-118.01496,35.86685],[-118.01504,35.86675],[-118.01513,35.86665],[-118.01525,35.86656],[-118.01532,35.86653],[-118.01539,35.8665],[-118.01555,35.86648],[-118.01572,35.86649],[-118.01588,35.8665],[-118.01604,35.86649],[-118.01622,35.86646],[-118.01638,35.86639],[-118.01649,35.86632],[-118.01658,35.86625],[-118.01669,35.86617],[-118.01682,35.86606],[-118.01697,35.86594],[-118.0171,35.8658],[-118.01722,35.86565],[-118.01733,35.86549],[-118.01734,35.86548],[-118.01736,35.86545],[-118.01744,35.86532],[-118.01758,35.86514],[-118.01759,35.86513],[-118.01779,35.86499],[-118.01803,35.8649],[-118.01822,35.86483],[-118.01835,35.86475],[-118.01846,35.86466],[-118.01851,35.8646],[-118.01854,35.86456],[-118.01859,35.86449],[-118.01865,35.8644],[-118.0187,35.86427],[-118.01875,35.86414],[-118.01877,35.86398],[-118.01877,35.86386],[-118.01877,35.86381],[-118.01876,35.86376],[-118.01875,35.8637],[-118.01873,35.86366],[-118.01872,35.86363],[-118.01869,35.86355],[-118.01864,35.86344],[-118.01858,35.86331],[-118.01858,35.86315],[-118.0187,35.86301],[-118.01886,35.8629],[-118.01897,35.86281],[-118.01901,35.86276],[-118.01904,35.86274],[-118.01909,35.86265],[-118.01916,35.8625],[-118.01923,35.86232],[-118.01928,35.8621],[-118.01931,35.86187],[-118.01936,35.8617],[-118.01937,35.86167],[-118.01942,35.86157],[-118.01951,35.86144],[-118.01962,35.86129],[-118.01973,35.86113],[-118.01982,35.86096],[-118.01989,35.86077],[-118.01995,35.86059],[-118.02004,35.86043],[-118.02019,35.86029],[-118.02039,35.86022],[-118.0206,35.8602],[-118.02081,35.86025],[-118.02092,35.8603],[-118.02102,35.86035],[-118.02116,35.86042],[-118.02134,35.86051],[-118.02154,35.86056],[-118.02169,35.86058],[-118.02187,35.86054],[-118.02204,35.86048],[-118.02221,35.86039],[-118.02227,35.86036],[-118.0223,35.86034],[-118.0224,35.86027],[-118.02256,35.86017],[-118.02273,35.86006],[-118.02291,35.85993],[-118.02312,35.8598],[-118.02327,35.85971],[-118.02336,35.85965],[-118.02346,35.8596],[-118.02358,35.85953],[-118.02368,35.85947],[-118.02376,35.85942],[-118.0238,35.85939],[-118.02384,35.85936],[-118.02394,35.85925],[-118.02401,35.85912],[-118.02405,35.859],[-118.02408,35.85887],[-118.02412,35.8587],[-118.02416,35.85851],[-118.02421,35.85831],[-118.02426,35.85809],[-118.02432,35.85787],[-118.02437,35.85762],[-118.02444,35.85737],[-118.02454,35.85715],[-118.02454,35.85714],[-118.0247,35.85695],[-118.0249,35.85679],[-118.02513,35.85666],[-118.02536,35.85653],[-118.02554,35.85639],[-118.02565,35.85626],[-118.0257,35.8562],[-118.02577,35.85613],[-118.02591,35.85604],[-118.02613,35.85596],[-118.02637,35.85591],[-118.0265,35.85583],[-118.02652,35.85581],[-118.02653,35.85578],[-118.02655,35.85569],[-118.02652,35.85555],[-118.02648,35.85537],[-118.02649,35.85517],[-118.02657,35.85497],[-118.02664,35.85486],[-118.02667,35.8548],[-118.02669,35.85474],[-118.0267,35.85467],[-118.0267,35.85461],[-118.02669,35.85453],[-118.02665,35.85442],[-118.02657,35.85428],[-118.02645,35.85411],[-118.02635,35.85388],[-118.02635,35.85363],[-118.0264,35.85339],[-118.02653,35.85317],[-118.02669,35.85299],[-118.02677,35.85291],[-118.02685,35.85282],[-118.02694,35.85271],[-118.02704,35.85256],[-118.02711,35.85238],[-118.02713,35.85219],[-118.02711,35.85199],[-118.02709,35.85185],[-118.02705,35.8517],[-118.02701,35.85152],[-118.02695,35.85132],[-118.02693,35.85121],[-118.02691,35.85116],[-118.02691,35.85116],[-118.0269,35.85113],[-118.02688,35.85109],[-118.02687,35.85105],[-118.02684,35.851],[-118.02682,35.85092],[-118.02677,35.85081],[-118.02673,35.8507],[-118.02672,35.85067],[-118.02668,35.85058],[-118.02664,35.85047],[-118.02661,35.85036],[-118.0266,35.85028],[-118.02659,35.85019],[-118.02659,35.85011],[-118.02661,35.85001],[-118.02665,35.8499],[-118.02676,35.8498],[-118.02693,35.84977],[-118.02712,35.84985],[-118.02731,35.84999],[-118.02751,35.85012],[-118.02772,35.85021],[-118.02787,35.85027],[-118.02795,35.85029],[-118.028,35.85031],[-118.0281,35.85035],[-118.02827,35.8504],[-118.02844,35.85046],[-118.02864,35.85052],[-118.02884,35.85059],[-118.02903,35.85063],[-118.02911,35.85065],[-118.02914,35.85065],[-118.02919,35.85065],[-118.02931,35.85066],[-118.02952,35.85066],[-118.02973,35.85067],[-118.02991,35.85072],[-118.0301,35.8508],[-118.03027,35.85091],[-118.03043,35.85099],[-118.03057,35.85101],[-118.03069,35.85098],[-118.03081,35.85089],[-118.0309,35.85074],[-118.03096,35.8506],[-118.03099,35.8505],[-118.031,35.85043],[-118.031,35.85035],[-118.03099,35.85025],[-118.03099,35.85013],[-118.03099,35.84998],[-118.03099,35.84984],[-118.03098,35.8497],[-118.03102,35.84955],[-118.03114,35.84942],[-118.0313,35.84934],[-118.03148,35.84928],[-118.03157,35.84924],[-118.03164,35.84921],[-118.03174,35.84916],[-118.03185,35.8491],[-118.03199,35.84906],[-118.03216,35.84903],[-118.03235,35.84901],[-118.03252,35.84901],[-118.03272,35.84906],[-118.0329,35.84915],[-118.03303,35.84924],[-118.03311,35.8493],[-118.03322,35.84937],[-118.03335,35.84944],[-118.03344,35.84947],[-118.03347,35.84947],[-118.03352,35.84948],[-118.0336,35.84947],[-118.03368,35.84944],[-118.03378,35.84937],[-118.03386,35.84927],[-118.03388,35.84913],[-118.03388,35.84897],[-118.03389,35.8488],[-118.03393,35.84868],[-118.03396,35.84862],[-118.03397,35.84859],[-118.03401,35.8485],[-118.03409,35.84834],[-118.03419,35.84817],[-118.0343,35.84803],[-118.03441,35.84791],[-118.0346,35.84778],[-118.03484,35.84766],[-118.03506,35.84755],[-118.03524,35.84743],[-118.03537,35.84727],[-118.0355,35.8471],[-118.03569,35.84694],[-118.03593,35.84688],[-118.03614,35.84683],[-118.03635,35.84672],[-118.03656,35.8466],[-118.03679,35.84649],[-118.037,35.84637],[-118.0372,35.84627],[-118.03734,35.84619],[-118.03738,35.84617],[-118.03742,35.84614],[-118.03751,35.84606],[-118.03764,35.84594],[-118.03778,35.8458],[-118.0379,35.84563],[-118.03803,35.84547],[-118.03817,35.84535],[-118.03829,35.84527],[-118.03845,35.8452],[-118.03868,35.84515],[-118.03897,35.84518],[-118.03923,35.84524],[-118.03944,35.84519],[-118.03951,35.84514],[-118.03953,35.84512],[-118.03955,35.84507],[-118.03957,35.84496],[-118.0396,35.8448],[-118.03973,35.84466],[-118.03995,35.84459],[-118.04011,35.84454],[-118.04024,35.84451],[-118.0404,35.84448],[-118.04057,35.84448],[-118.04075,35.84451],[-118.04096,35.84454],[-118.04112,35.84453],[-118.04121,35.8445],[-118.04125,35.84448],[-118.04129,35.84444],[-118.0413,35.84435],[-118.04128,35.84424],[-118.04124,35.84413],[-118.04124,35.84401],[-118.04126,35.84387],[-118.04133,35.84373],[-118.04141,35.84361],[-118.0415,35.8435],[-118.0416,35.84336],[-118.04174,35.8432],[-118.04193,35.84309],[-118.04213,35.84304],[-118.04233,35.84301],[-118.04256,35.84296],[-118.04277,35.84293],[-118.04296,35.84292],[-118.04311,35.84297],[-118.04323,35.84304],[-118.04332,35.84311],[-118.04345,35.84318],[-118.0436,35.8432],[-118.04372,35.84316],[-118.0438,35.84309],[-118.04386,35.84302],[-118.04389,35.84297],[-118.04394,35.84289],[-118.04403,35.84278],[-118.04414,35.84267],[-118.04425,35.8426],[-118.04437,35.84253],[-118.04445,35.84247],[-118.04447,35.84244],[-118.04447,35.84242],[-118.04448,35.84232],[-118.0445,35.84216],[-118.04457,35.84199],[-118.04467,35.8418],[-118.04477,35.84161],[-118.04486,35.84145],[-118.04501,35.84132],[-118.04521,35.84122],[-118.04547,35.84116],[-118.0457,35.84116],[-118.0459,35.84113],[-118.04603,35.84111],[-118.04607,35.84109],[-118.04623,35.84108],[-118.04645,35.84111],[-118.04664,35.84118],[-118.04677,35.84123],[-118.04686,35.84125],[-118.04698,35.84126],[-118.04717,35.84127],[-118.04738,35.84132],[-118.04755,35.84141],[-118.0477,35.84152],[-118.0478,35.84161],[-118.04789,35.84168],[-118.04797,35.84172],[-118.04803,35.84173],[-118.04806,35.84173],[-118.04813,35.84172],[-118.04817,35.84171],[-118.0482,35.84169],[-118.04826,35.84163],[-118.04829,35.84153],[-118.0483,35.84149],[-118.0483,35.84146],[-118.04829,35.84137],[-118.04825,35.84125],[-118.04815,35.84111],[-118.04805,35.84101],[-118.04796,35.84095],[-118.04787,35.84088],[-118.04775,35.84082],[-118.04766,35.8408],[-118.04759,35.84078],[-118.04754,35.84077],[-118.04751,35.84077],[-118.04745,35.84076],[-118.04735,35.84075],[-118.04723,35.84071],[-118.04712,35.84068],[-118.04708,35.84066],[-118.04706,35.84065],[-118.04698,35.84062],[-118.04686,35.84055],[-118.04676,35.84047],[-118.04668,35.8404],[-118.0466,35.84033],[-118.04651,35.84025],[-118.04644,35.84018],[-118.04641,35.84014],[-118.04639,35.84012],[-118.04637,35.8401],[-118.04629,35.84003],[-118.04615,35.83991],[-118.04598,35.83976],[-118.0458,35.83962],[-118.04566,35.83951],[-118.04557,35.83946],[-118.04544,35.8394],[-118.04531,35.83936],[-118.04517,35.83933],[-118.04503,35.83932],[-118.04491,35.83933],[-118.04482,35.83932],[-118.04476,35.83932],[-118.04469,35.83931],[-118.04458,35.83929],[-118.04444,35.83926],[-118.04431,35.83924],[-118.04425,35.83923],[-118.04421,35.83922],[-118.04418,35.83922],[-118.04417,35.83922],[-118.04406,35.8392],[-118.04387,35.83918],[-118.0437,35.83915],[-118.04356,35.83912],[-118.04344,35.83908],[-118.04336,35.83904],[-118.04335,35.83903],[-118.04331,35.83901],[-118.04328,35.83899],[-118.04324,35.83896],[-118.0432,35.83893],[-118.04318,35.83891],[-118.04316,35.8389]]}},{"type":"Feature","properties":{"name":"1307","source":"Bureau of Land Management","source_detail":"BLM GTLF OBJECTID 158207","source_id":"{34E3D924-7008-4D74-8449-3C155169408D}","road_class":"transportation_system_-_primitive_road","surface":"natural","vehicle_class":"4wd_low","allowed_mode":"all_moto_veh","access_restriction":"unknown","seasonal_restriction":"not_listed","route_plan_id":"1307","gis_miles":0.12613777},"geometry":{"type":"LineString","coordinates":[[-118.01028,35.86585],[-118.0101,35.86581],[-118.00987,35.86585],[-118.00968,35.86596],[-118.00956,35.86612],[-118.00941,35.86628],[-118.00921,35.86642],[-118.00905,35.8665],[-118.00894,35.86651],[-118.00872,35.86652],[-118.0085,35.86654],[-118.00839,35.86657]]}},{"type":"Feature","properties":{"name":"1316","source":"Bureau of Land Management","source_detail":"BLM GTLF OBJECTID 158316","source_id":"{39BCEF65-2E8B-4452-822A-AA3733A9F63C}","road_class":"transportation_system_-_primitive_road","surface":"natural","vehicle_class":"4wd_low","allowed_mode":"all_moto_veh","access_restriction":"unknown","seasonal_restriction":"not_listed","route_plan_id":"1316","gis_miles":0.31552818},"geometry":{"type":"LineString","coordinates":[[-118.01255,35.86902],[-118.01247,35.86898],[-118.01245,35.86891],[-118.01241,35.86883],[-118.01237,35.86876],[-118.01235,35.86873],[-118.01233,35.86869],[-118.0123,35.86867],[-118.01225,35.86865],[-118.0122,35.86863],[-118.01214,35.86862],[-118.01206,35.86862],[-118.01197,35.86865],[-118.01188,35.86867],[-118.01177,35.86869],[-118.01167,35.86869],[-118.01157,35.86869],[-118.01146,35.86868],[-118.01135,35.86868],[-118.01126,35.86868],[-118.01117,35.86867],[-118.01108,35.86866],[-118.01099,35.86863],[-118.01093,35.86859],[-118.01088,35.86852],[-118.01093,35.86833],[-118.01097,35.86821],[-118.01098,35.86811],[-118.01091,35.86792],[-118.01079,35.8676],[-118.01071,35.86746],[-118.01063,35.86734],[-118.01052,35.86722],[-118.01047,35.86712],[-118.0105,35.867],[-118.01057,35.86684],[-118.01063,35.86674],[-118.01067,35.86667],[-118.01067,35.86655],[-118.01059,35.86637],[-118.01048,35.86618],[-118.01039,35.86605],[-118.01028,35.86585]]}},{"type":"Feature","properties":{"name":"16002: LONG VALLEY LOOP ROAD","source":"Bureau of Land Management","source_detail":"BLM GTLF OBJECTID 158496","source_id":"{79A7C0B7-5D1C-4FCB-A7C3-3921AE039575}","road_class":"transportation_system_-_primitive_road","surface":"natural_improved","vehicle_class":"4wd_low","allowed_mode":"unk","access_restriction":"unknown","seasonal_restriction":"not_listed","route_plan_id":"1274","gis_miles":4.52367785},"geometry":{"type":"LineString","coordinates":[[-118.12359,35.89153],[-118.12368,35.89158],[-118.12377,35.8916],[-118.12387,35.89164],[-118.12396,35.89166],[-118.12409,35.89165],[-118.12417,35.89164],[-118.12427,35.89161],[-118.12434,35.89157],[-118.12446,35.89151],[-118.12459,35.89143],[-118.12465,35.89133],[-118.12465,35.8912],[-118.12464,35.89111],[-118.12463,35.89103],[-118.12463,35.89096],[-118.12463,35.89089],[-118.12469,35.89082],[-118.12476,35.89075],[-118.12491,35.89065],[-118.12512,35.89051],[-118.12529,35.89039],[-118.12535,35.89034],[-118.1254,35.8903],[-118.12545,35.89024],[-118.12546,35.89013],[-118.12537,35.88999],[-118.12522,35.88984],[-118.12494,35.88965],[-118.12471,35.88948],[-118.12448,35.88928],[-118.12433,35.88912],[-118.12424,35.88893],[-118.12418,35.88877],[-118.12413,35.88856],[-118.1241,35.88846],[-118.12404,35.88832],[-118.12397,35.88821],[-118.12389,35.8881],[-118.12383,35.88804],[-118.12375,35.88796],[-118.12367,35.88789],[-118.12355,35.88783],[-118.12339,35.88776],[-118.12323,35.88771],[-118.12311,35.88767],[-118.123,35.88764],[-118.12289,35.8876],[-118.12273,35.88753],[-118.12259,35.88744],[-118.12243,35.88736],[-118.12231,35.88729],[-118.12204,35.88721],[-118.12185,35.88716],[-118.12168,35.88699],[-118.12159,35.88687],[-118.12143,35.88671],[-118.12131,35.88667],[-118.1212,35.88666],[-118.12111,35.88667],[-118.12099,35.88664],[-118.12089,35.88662],[-118.12085,35.8866],[-118.1208,35.88658],[-118.12076,35.88649],[-118.12074,35.8864],[-118.12078,35.88631],[-118.12087,35.88617],[-118.12098,35.88601],[-118.12109,35.88585],[-118.12121,35.88567],[-118.12142,35.88538],[-118.12148,35.88529],[-118.12152,35.88522],[-118.12156,35.88514],[-118.12162,35.88501],[-118.12164,35.88487],[-118.12164,35.88471],[-118.12161,35.88456],[-118.12154,35.88439],[-118.12149,35.88426],[-118.12133,35.88412],[-118.12123,35.88404],[-118.12101,35.88394],[-118.12086,35.88391],[-118.12072,35.8839],[-118.12056,35.8839],[-118.12038,35.8839],[-118.12026,35.8839],[-118.12019,35.88385],[-118.1201,35.88378],[-118.12006,35.88369],[-118.12005,35.88361],[-118.12011,35.8835],[-118.12055,35.88327],[-118.12095,35.8831],[-118.12124,35.88298],[-118.12163,35.88268],[-118.12172,35.88249],[-118.12178,35.88206],[-118.12181,35.88191],[-118.12186,35.88168],[-118.12192,35.88136],[-118.12195,35.88114],[-118.12193,35.88094],[-118.12191,35.88078],[-118.12188,35.88063],[-118.12181,35.88041],[-118.12177,35.8802],[-118.12176,35.88005],[-118.12176,35.87989],[-118.12177,35.87974],[-118.12184,35.87965],[-118.12195,35.87955],[-118.12216,35.87939],[-118.12229,35.87931],[-118.12241,35.87921],[-118.12252,35.8791],[-118.12259,35.87893],[-118.12261,35.8788],[-118.12257,35.87867],[-118.12255,35.8785],[-118.12254,35.87839],[-118.12253,35.87828],[-118.12246,35.87818],[-118.1223,35.87799],[-118.12218,35.87786],[-118.12211,35.8778],[-118.122,35.87769],[-118.12196,35.87758],[-118.12194,35.87744],[-118.12195,35.8772],[-118.12192,35.87703],[-118.12175,35.87655],[-118.12178,35.87623],[-118.12186,35.87599],[-118.12195,35.87577],[-118.12206,35.87568],[-118.12226,35.87558],[-118.12252,35.87554],[-118.12289,35.87549],[-118.12313,35.87543],[-118.12342,35.87529],[-118.12371,35.87515],[-118.12408,35.87493],[-118.12444,35.87477],[-118.12472,35.87462],[-118.12498,35.87449],[-118.12549,35.87425],[-118.12617,35.87392],[-118.1265,35.87376],[-118.12682,35.87358],[-118.12708,35.87338],[-118.12721,35.87321],[-118.12733,35.87298],[-118.12754,35.87249],[-118.12765,35.87218],[-118.12783,35.87183],[-118.12797,35.8714],[-118.12809,35.87121],[-118.12822,35.87099],[-118.12838,35.87073],[-118.12847,35.87057],[-118.12858,35.87042],[-118.12866,35.87028],[-118.12895,35.86983],[-118.12921,35.8694],[-118.12927,35.8693],[-118.12936,35.86916],[-118.12952,35.86889],[-118.1297,35.8686],[-118.12983,35.8684],[-118.12994,35.86818],[-118.12999,35.86803],[-118.13005,35.86789],[-118.13017,35.86733],[-118.13026,35.86702],[-118.1303,35.86678],[-118.13035,35.86662],[-118.13041,35.86651],[-118.13049,35.86638],[-118.13057,35.86627],[-118.13063,35.86618],[-118.13076,35.86603],[-118.13116,35.86559],[-118.13153,35.8651],[-118.13165,35.86496],[-118.13174,35.86485],[-118.13189,35.86469],[-118.13203,35.86454],[-118.13215,35.86444],[-118.13229,35.8643],[-118.13242,35.86417],[-118.13251,35.864],[-118.13258,35.86387],[-118.1326,35.86379],[-118.13264,35.86368],[-118.13268,35.86355],[-118.13269,35.86344],[-118.13268,35.86332],[-118.13266,35.8632],[-118.13268,35.86308],[-118.1327,35.8629],[-118.13276,35.86214],[-118.13278,35.86198],[-118.13278,35.86185],[-118.13285,35.8615],[-118.13296,35.86096],[-118.13306,35.86003],[-118.13309,35.85982],[-118.13315,35.85967],[-118.13327,35.85945],[-118.13352,35.85891],[-118.13392,35.85813],[-118.134,35.85796],[-118.13415,35.85762],[-118.1343,35.85731],[-118.13446,35.85697],[-118.13471,35.85652],[-118.13509,35.85575],[-118.1353,35.8554],[-118.13545,35.8552],[-118.13585,35.85462],[-118.13596,35.85441],[-118.13605,35.85425],[-118.1361,35.85409],[-118.13617,35.85394],[-118.13628,35.8537],[-118.13637,35.8535],[-118.13648,35.85329],[-118.13657,35.85312],[-118.13663,35.85303],[-118.13668,35.85292],[-118.13672,35.85286],[-118.13676,35.85275],[-118.1368,35.85266],[-118.13684,35.85253],[-118.13688,35.85239],[-118.1369,35.85229],[-118.1369,35.85207],[-118.1369,35.85177],[-118.13691,35.85165],[-118.13691,35.85156],[-118.13693,35.85109],[-118.13695,35.85094],[-118.13696,35.85081],[-118.13696,35.85072],[-118.13696,35.85065],[-118.13698,35.85055],[-118.13699,35.85041],[-118.13701,35.85031],[-118.13715,35.85002],[-118.13728,35.84972],[-118.13734,35.84962],[-118.1374,35.8495],[-118.13749,35.84932],[-118.13758,35.84915],[-118.13768,35.84895],[-118.13785,35.8486],[-118.13795,35.84838],[-118.13805,35.84821],[-118.13835,35.84762],[-118.13847,35.84742],[-118.13854,35.84729],[-118.13862,35.84707],[-118.13866,35.84689],[-118.13868,35.84672],[-118.13868,35.84671],[-118.13867,35.84669],[-118.13866,35.84667],[-118.13864,35.84663],[-118.13858,35.84636],[-118.13857,35.8462],[-118.13855,35.84609],[-118.13851,35.84586],[-118.1385,35.84573],[-118.13848,35.84568],[-118.13849,35.84555],[-118.13844,35.84543],[-118.13845,35.84536],[-118.13843,35.84525],[-118.13842,35.84511],[-118.13839,35.84505],[-118.13837,35.84496],[-118.13835,35.84486],[-118.13833,35.8447],[-118.13831,35.84458],[-118.13821,35.84405],[-118.13819,35.8439],[-118.13817,35.84383],[-118.13814,35.84375],[-118.13805,35.84359],[-118.13784,35.84336],[-118.1376,35.84312],[-118.13751,35.84302],[-118.13726,35.84278],[-118.13695,35.84248],[-118.1365,35.84224],[-118.13611,35.84208],[-118.13584,35.84198],[-118.13562,35.84184],[-118.1355,35.84179],[-118.1352,35.84173],[-118.13497,35.84169],[-118.13471,35.84168],[-118.13445,35.84164],[-118.13415,35.8416],[-118.13391,35.84157],[-118.13363,35.8416],[-118.1334,35.84158],[-118.13325,35.84156],[-118.133,35.84158],[-118.13279,35.84159],[-118.13265,35.8416],[-118.13252,35.84162],[-118.13239,35.84163],[-118.1321,35.84167],[-118.13191,35.84169],[-118.13162,35.84172],[-118.13147,35.84173],[-118.13129,35.84178],[-118.13109,35.84173],[-118.13088,35.84167],[-118.1307,35.84164],[-118.13058,35.8416],[-118.13047,35.84155],[-118.13036,35.84151],[-118.13028,35.84146],[-118.13021,35.84142],[-118.13011,35.84135],[-118.13001,35.84126],[-118.12994,35.84119],[-118.12989,35.84113],[-118.12985,35.84105],[-118.12978,35.84097]]}},{"type":"Feature","properties":{"name":"Red Barn Rd","source":"Bureau of Land Management","source_detail":"BLM GTLF OBJECTID 158589","source_id":"{FD301498-2A2C-456A-ACFF-2DD6BBD8F5F7}","road_class":"transportation_system_-_primitive_road","surface":"natural_improved","vehicle_class":"2wd_low","allowed_mode":"all_moto_veh","access_restriction":"not_listed","seasonal_restriction":"not_listed","route_plan_id":"1317","gis_miles":1.29094898},"geometry":{"type":"LineString","coordinates":[[-118.08976,35.95594],[-118.09007,35.95626],[-118.09017,35.95641],[-118.09035,35.95656],[-118.09058,35.95674],[-118.09076,35.95695],[-118.0909,35.95711],[-118.09103,35.9572],[-118.09119,35.95736],[-118.09134,35.95752],[-118.0915,35.95776],[-118.09161,35.95797],[-118.09164,35.9581],[-118.0917,35.95816],[-118.09181,35.95825],[-118.09197,35.9584],[-118.0921,35.95854],[-118.09219,35.95864],[-118.09225,35.95876],[-118.09228,35.95885],[-118.09237,35.95895],[-118.09244,35.959],[-118.09258,35.95904],[-118.0927,35.95905],[-118.09285,35.95912],[-118.093,35.95923],[-118.09313,35.95934],[-118.09319,35.95941],[-118.09319,35.95952],[-118.09317,35.95972],[-118.09319,35.95994],[-118.09319,35.96013],[-118.09317,35.9603],[-118.09311,35.96047],[-118.093,35.96064],[-118.0929,35.9608],[-118.09277,35.96092],[-118.09275,35.96101],[-118.09279,35.96113],[-118.09288,35.96128],[-118.09295,35.96135],[-118.09304,35.96141],[-118.09321,35.96147],[-118.09344,35.96152],[-118.0936,35.96157],[-118.09379,35.96168],[-118.09396,35.96175],[-118.09419,35.96185],[-118.09439,35.96195],[-118.0947,35.96211],[-118.09488,35.96219],[-118.09508,35.9623],[-118.0952,35.96239],[-118.09533,35.96254],[-118.0955,35.96274],[-118.09561,35.96293],[-118.09575,35.9631],[-118.0959,35.96327],[-118.09607,35.96346],[-118.09626,35.96365],[-118.09639,35.96373],[-118.09663,35.96381],[-118.09682,35.96389],[-118.09701,35.96399],[-118.0972,35.96405],[-118.09733,35.96407],[-118.09763,35.96409],[-118.09787,35.96413],[-118.09809,35.96419],[-118.09829,35.96421],[-118.0984,35.96424],[-118.09869,35.96436],[-118.09886,35.9644],[-118.09904,35.96442],[-118.09926,35.96442],[-118.09947,35.96443],[-118.09955,35.96445],[-118.09964,35.9645],[-118.09972,35.96463],[-118.09983,35.96483],[-118.09992,35.96498],[-118.1,35.96509],[-118.10015,35.96521],[-118.10036,35.96539],[-118.10047,35.96547],[-118.10059,35.96554],[-118.10071,35.96565],[-118.10079,35.96575],[-118.10087,35.96588],[-118.10096,35.96599],[-118.10104,35.96607],[-118.10114,35.96614],[-118.10127,35.96622],[-118.1014,35.96627],[-118.10159,35.96632],[-118.10177,35.96635],[-118.10194,35.96639],[-118.10226,35.96645],[-118.10248,35.96648],[-118.10259,35.9665],[-118.10281,35.96656],[-118.10297,35.96658],[-118.1031,35.96658],[-118.10324,35.96658],[-118.1034,35.9666],[-118.10355,35.96665],[-118.10374,35.96668],[-118.10385,35.96667],[-118.10394,35.96661],[-118.10401,35.96657],[-118.10411,35.96658],[-118.10434,35.96663],[-118.10452,35.96666],[-118.10466,35.96665],[-118.10479,35.96664],[-118.10493,35.96658],[-118.10496,35.96656]]}},{"type":"Feature","properties":{"name":"16002: LONG VALLEY LOOP ROAD","source":"Bureau of Land Management","source_detail":"BLM GTLF OBJECTID 159022","source_id":"{FE30D16F-3FDE-43B5-90EB-12321BF15B9A}","road_class":"transportation_system_-_primitive_road","surface":"natural_improved","vehicle_class":"4wd_low","allowed_mode":"unk","access_restriction":"unknown","seasonal_restriction":"not_listed","route_plan_id":"1274","gis_miles":4.61075327},"geometry":{"type":"LineString","coordinates":[[-118.0573,35.88416],[-118.05746,35.88419],[-118.05772,35.88424],[-118.05787,35.88422],[-118.05796,35.88419],[-118.05805,35.88414],[-118.05818,35.88409],[-118.05827,35.88406],[-118.05842,35.88405],[-118.05859,35.88408],[-118.0588,35.8841],[-118.0589,35.88411],[-118.05922,35.8841],[-118.05933,35.88408],[-118.05947,35.88404],[-118.05953,35.88402],[-118.05957,35.88401],[-118.05963,35.88399],[-118.05971,35.88397],[-118.05987,35.88396],[-118.06001,35.88393],[-118.06012,35.88391],[-118.06029,35.88382],[-118.06044,35.88373],[-118.06059,35.88366],[-118.06068,35.88361],[-118.06077,35.88357],[-118.06082,35.88355],[-118.06093,35.88352],[-118.06101,35.88352],[-118.06109,35.88351],[-118.06117,35.88351],[-118.06125,35.88351],[-118.06132,35.88352],[-118.06156,35.88361],[-118.06175,35.88367],[-118.06195,35.88374],[-118.06207,35.88379],[-118.06232,35.88389],[-118.06246,35.88389],[-118.06253,35.88389],[-118.06269,35.88388],[-118.06276,35.88389],[-118.06282,35.88393],[-118.06292,35.88392],[-118.0631,35.88392],[-118.06323,35.88397],[-118.06339,35.88404],[-118.06345,35.88406],[-118.06359,35.88412],[-118.06375,35.88418],[-118.06385,35.88422],[-118.06395,35.88426],[-118.0641,35.88433],[-118.06418,35.88439],[-118.06427,35.88447],[-118.06433,35.88453],[-118.06439,35.8846],[-118.06446,35.88469],[-118.06454,35.88478],[-118.06465,35.88485],[-118.06475,35.88491],[-118.06494,35.88497],[-118.06512,35.88501],[-118.06534,35.88506],[-118.06559,35.8851],[-118.06581,35.88513],[-118.06599,35.88515],[-118.06613,35.88518],[-118.06632,35.8852],[-118.06656,35.88522],[-118.06672,35.88524],[-118.06693,35.88526],[-118.06707,35.88528],[-118.06718,35.8853],[-118.06729,35.88531],[-118.06739,35.88532],[-118.0675,35.88534],[-118.06772,35.88539],[-118.06791,35.88545],[-118.06808,35.88551],[-118.06827,35.88559],[-118.06849,35.8857],[-118.06866,35.88579],[-118.06885,35.88589],[-118.06908,35.88601],[-118.06922,35.88612],[-118.06943,35.88627],[-118.06952,35.88635],[-118.06958,35.8864],[-118.0697,35.88649],[-118.06985,35.88659],[-118.06996,35.88664],[-118.07008,35.88667],[-118.07015,35.88669],[-118.07028,35.88672],[-118.07041,35.88675],[-118.0707,35.88681],[-118.07096,35.8869],[-118.07113,35.88694],[-118.07127,35.88698],[-118.07141,35.887],[-118.0716,35.88706],[-118.07173,35.88708],[-118.07195,35.88711],[-118.07206,35.8871],[-118.07214,35.88709],[-118.07245,35.88704],[-118.07256,35.88703],[-118.07278,35.88703],[-118.07314,35.88708],[-118.07346,35.88716],[-118.07369,35.88721],[-118.07384,35.88725],[-118.07399,35.88731],[-118.07409,35.88738],[-118.0742,35.88748],[-118.07428,35.88758],[-118.07438,35.88768],[-118.07448,35.88775],[-118.07458,35.88781],[-118.07466,35.88786],[-118.07479,35.88793],[-118.0749,35.88801],[-118.07503,35.88805],[-118.0752,35.88807],[-118.0753,35.88814],[-118.07542,35.88823],[-118.07556,35.88837],[-118.07573,35.88849],[-118.07615,35.88869],[-118.07658,35.88897],[-118.07688,35.88906],[-118.07699,35.88913],[-118.07718,35.88932],[-118.07736,35.88952],[-118.07753,35.88966],[-118.07773,35.88974],[-118.07792,35.88978],[-118.07828,35.89001],[-118.07864,35.89034],[-118.0791,35.89073],[-118.07931,35.89089],[-118.07954,35.89102],[-118.07974,35.89108],[-118.08012,35.8911],[-118.08043,35.89118],[-118.08075,35.8913],[-118.08095,35.8914],[-118.08119,35.89153],[-118.08154,35.89175],[-118.08212,35.89212],[-118.08332,35.89269],[-118.08351,35.89279],[-118.08386,35.89298],[-118.08404,35.8931],[-118.08419,35.89326],[-118.08436,35.89343],[-118.08453,35.89357],[-118.08486,35.89378],[-118.08515,35.89389],[-118.08544,35.894],[-118.08575,35.89412],[-118.08601,35.89424],[-118.08629,35.89436],[-118.08647,35.89443],[-118.08651,35.89445],[-118.08655,35.89448],[-118.08659,35.8945],[-118.08663,35.89453],[-118.08665,35.89456],[-118.08671,35.8946],[-118.08676,35.89463],[-118.08685,35.89468],[-118.08696,35.89473],[-118.08715,35.89481],[-118.08734,35.89489],[-118.08766,35.89503],[-118.08781,35.89509],[-118.08801,35.89521],[-118.0882,35.89533],[-118.08837,35.89544],[-118.08851,35.8955],[-118.08865,35.89553],[-118.08887,35.89555],[-118.089,35.89554],[-118.08923,35.89548],[-118.0894,35.89547],[-118.08968,35.89545],[-118.08993,35.89544],[-118.09017,35.89541],[-118.09035,35.89536],[-118.09052,35.89532],[-118.09054,35.89532],[-118.09084,35.89527],[-118.09112,35.89524],[-118.09136,35.89524],[-118.09168,35.89524],[-118.09202,35.89523],[-118.09233,35.89526],[-118.09261,35.89531],[-118.09286,35.89539],[-118.093,35.89546],[-118.09311,35.89553],[-118.09323,35.89562],[-118.09339,35.8957],[-118.09353,35.89575],[-118.09362,35.89582],[-118.09374,35.89588],[-118.09388,35.89591],[-118.09403,35.89596],[-118.09416,35.896],[-118.09452,35.89606],[-118.09465,35.89608],[-118.09477,35.8961],[-118.09489,35.89612],[-118.09498,35.89612],[-118.09508,35.89612],[-118.09516,35.89612],[-118.09527,35.89611],[-118.09536,35.89611],[-118.09546,35.89611],[-118.09561,35.89612],[-118.09579,35.89612],[-118.09592,35.89611],[-118.09601,35.89611],[-118.09613,35.8961],[-118.09625,35.89608],[-118.0964,35.89607],[-118.09653,35.89609],[-118.0966,35.89611],[-118.09667,35.89614],[-118.09678,35.8962],[-118.09682,35.89627],[-118.0969,35.89634],[-118.09701,35.89636],[-118.09707,35.89635],[-118.09712,35.89633],[-118.09717,35.89631],[-118.09723,35.89629],[-118.0973,35.89627],[-118.09737,35.89627],[-118.09744,35.89627],[-118.09753,35.89628],[-118.09761,35.8963],[-118.09778,35.89635],[-118.09795,35.89641],[-118.09814,35.89647],[-118.09833,35.89655],[-118.09853,35.89666],[-118.09868,35.89676],[-118.09884,35.8969],[-118.09895,35.89701],[-118.09906,35.89706],[-118.09922,35.89709],[-118.09938,35.89715],[-118.09958,35.89722],[-118.09974,35.89728],[-118.09994,35.89737],[-118.10013,35.89746],[-118.10028,35.89757],[-118.10037,35.89772],[-118.1004,35.89789],[-118.10043,35.89796],[-118.10048,35.89798],[-118.10053,35.898],[-118.10059,35.89802],[-118.10064,35.89803],[-118.10068,35.89803],[-118.10078,35.89802],[-118.10089,35.89805],[-118.10096,35.89808],[-118.10102,35.89811],[-118.10109,35.89816],[-118.10114,35.89819],[-118.10117,35.89823],[-118.10122,35.89827],[-118.10128,35.89831],[-118.10132,35.89834],[-118.1014,35.89838],[-118.1015,35.89843],[-118.10156,35.89847],[-118.10165,35.89851],[-118.10172,35.89851],[-118.10179,35.8985],[-118.10186,35.89848],[-118.10198,35.89844],[-118.10208,35.89843],[-118.10217,35.89842],[-118.10229,35.89841],[-118.10239,35.89838],[-118.10246,35.89835],[-118.10254,35.89831],[-118.10262,35.89826],[-118.10271,35.89822],[-118.10279,35.8982],[-118.10289,35.89821],[-118.10294,35.89823],[-118.10298,35.89827],[-118.10302,35.89832],[-118.1031,35.89846],[-118.10316,35.89849],[-118.10321,35.89851],[-118.10326,35.89851],[-118.10335,35.89849],[-118.10344,35.89848],[-118.10355,35.89844],[-118.10362,35.89841],[-118.10372,35.89838],[-118.10382,35.89833],[-118.10394,35.8983],[-118.10402,35.89829],[-118.10413,35.89831],[-118.1042,35.89833],[-118.10425,35.89836],[-118.10432,35.89839],[-118.10439,35.89842],[-118.10444,35.89846],[-118.10455,35.89849],[-118.10463,35.89852],[-118.10471,35.89852],[-118.10478,35.89851],[-118.10484,35.89849],[-118.10491,35.89847],[-118.10498,35.89845],[-118.10505,35.89844],[-118.10513,35.8984],[-118.1052,35.89836],[-118.10528,35.8983],[-118.1054,35.89824],[-118.1055,35.89821],[-118.10561,35.89818],[-118.10574,35.89816],[-118.10585,35.89816],[-118.10591,35.89816],[-118.10597,35.89816],[-118.10605,35.89816],[-118.10616,35.89815],[-118.10625,35.89813],[-118.10635,35.89811],[-118.10646,35.89808],[-118.1066,35.89806],[-118.10679,35.89804],[-118.10698,35.89803],[-118.10709,35.89804],[-118.10721,35.89807],[-118.10728,35.8981],[-118.10735,35.89813],[-118.10742,35.89817],[-118.10743,35.89821],[-118.10748,35.89822],[-118.10751,35.89826],[-118.10754,35.89831],[-118.1076,35.89841],[-118.10765,35.89848],[-118.10774,35.89859],[-118.1078,35.89866],[-118.10787,35.89874],[-118.10793,35.89883],[-118.10796,35.89889],[-118.10798,35.89894],[-118.10802,35.899],[-118.10802,35.89913],[-118.10807,35.89922],[-118.10813,35.89929],[-118.10826,35.89937],[-118.10837,35.8994],[-118.10856,35.89949],[-118.10864,35.89954],[-118.10875,35.89959],[-118.10884,35.89963],[-118.10893,35.89966],[-118.10901,35.89968],[-118.10909,35.89969],[-118.10917,35.89969],[-118.10925,35.89968],[-118.10933,35.89969],[-118.10938,35.89972],[-118.10949,35.89976],[-118.11026,35.89997],[-118.11042,35.90001],[-118.11064,35.90008],[-118.11081,35.90013],[-118.11089,35.90015],[-118.11099,35.90014],[-118.11106,35.90011],[-118.11107,35.90004],[-118.11104,35.89995],[-118.1104,35.89959],[-118.11027,35.8995],[-118.1102,35.89944],[-118.11018,35.89941],[-118.11016,35.89939],[-118.11013,35.89933],[-118.11015,35.89927],[-118.11019,35.89921],[-118.11025,35.89918],[-118.11035,35.89919],[-118.11045,35.89922],[-118.11052,35.89924],[-118.11059,35.89926],[-118.11072,35.89926],[-118.11088,35.89923],[-118.11103,35.8992],[-118.11116,35.89917],[-118.11134,35.89914],[-118.11149,35.8991],[-118.11164,35.89907],[-118.11176,35.89906],[-118.1119,35.89906],[-118.11203,35.89907],[-118.11218,35.89908],[-118.11225,35.89906],[-118.11233,35.89904],[-118.1124,35.899],[-118.11249,35.89898],[-118.11263,35.89891],[-118.11274,35.89883],[-118.11287,35.89875],[-118.11296,35.8987],[-118.11316,35.89864],[-118.11333,35.89861],[-118.11343,35.89861],[-118.1135,35.89861],[-118.11362,35.8986],[-118.11374,35.89853],[-118.11385,35.89842],[-118.11392,35.89834],[-118.11405,35.89808],[-118.11414,35.89793],[-118.11434,35.89775],[-118.11437,35.89767],[-118.11435,35.89748],[-118.11434,35.8973],[-118.11437,35.8971],[-118.11441,35.89699],[-118.11448,35.89688],[-118.11463,35.8967],[-118.11471,35.89658],[-118.11475,35.89641],[-118.11484,35.89624],[-118.11489,35.89608],[-118.11499,35.89585],[-118.11508,35.8957],[-118.11522,35.89555],[-118.11535,35.8954],[-118.11594,35.89465],[-118.11621,35.89425],[-118.11626,35.89417],[-118.11633,35.89411],[-118.11644,35.89403],[-118.11659,35.89401],[-118.11677,35.89398],[-118.11691,35.89395],[-118.11702,35.89393],[-118.11716,35.89391],[-118.11722,35.89388],[-118.11732,35.89384],[-118.11747,35.89376],[-118.11757,35.89373],[-118.1177,35.89371],[-118.11785,35.89372],[-118.11801,35.89371],[-118.11821,35.89371],[-118.11831,35.8937],[-118.11845,35.89368],[-118.11865,35.8936],[-118.11878,35.89355],[-118.11891,35.8935],[-118.11904,35.89344],[-118.11913,35.89339],[-118.11927,35.89335],[-118.1194,35.89334],[-118.1195,35.89335],[-118.11963,35.89336],[-118.11972,35.89337],[-118.11984,35.89339],[-118.11998,35.89343],[-118.12009,35.89342],[-118.1202,35.89344],[-118.12032,35.89347],[-118.12041,35.89349],[-118.12063,35.89352],[-118.12076,35.89347],[-118.12082,35.89342],[-118.12087,35.89338],[-118.12098,35.89325],[-118.12101,35.89316],[-118.12106,35.89306],[-118.12112,35.89295],[-118.12117,35.89284],[-118.12123,35.89272],[-118.12129,35.89262],[-118.12139,35.89255],[-118.12144,35.89248],[-118.12152,35.89238],[-118.12158,35.8923],[-118.12162,35.8922],[-118.12167,35.8921],[-118.12175,35.892],[-118.12182,35.89193],[-118.12196,35.89181],[-118.12212,35.89173],[-118.12224,35.89169],[-118.12235,35.89163],[-118.1225,35.89159],[-118.1227,35.89152],[-118.123,35.8915],[-118.12316,35.89152],[-118.12324,35.89151],[-118.12329,35.89151],[-118.12337,35.89151],[-118.12344,35.8915],[-118.12352,35.89151],[-118.12359,35.89153]]}},{"type":"Feature","properties":{"name":"16002: LONG VALLEY LOOP ROAD","source":"Bureau of Land Management","source_detail":"BLM GTLF OBJECTID 159389","source_id":"{D5B272F7-6DC5-4EA2-9164-68413FC1AD94}","road_class":"transportation_system_-_primitive_road","surface":"natural_improved","vehicle_class":"4wd_low","allowed_mode":"unk","access_restriction":"unknown","seasonal_restriction":"not_listed","route_plan_id":"1274","gis_miles":2.12558181},"geometry":{"type":"LineString","coordinates":[[-118.11342,35.82602],[-118.11343,35.82599],[-118.11353,35.82584],[-118.11364,35.82568],[-118.11377,35.82546],[-118.11387,35.82533],[-118.11399,35.82515],[-118.11413,35.825],[-118.11423,35.82485],[-118.11438,35.82463],[-118.11465,35.82427],[-118.11477,35.82405],[-118.11488,35.82391],[-118.11498,35.82375],[-118.1151,35.8236],[-118.11518,35.82347],[-118.11522,35.8234],[-118.11538,35.82319],[-118.11555,35.82293],[-118.11576,35.82261],[-118.1158,35.82252],[-118.11581,35.82245],[-118.11583,35.82238],[-118.11582,35.82233],[-118.11582,35.82227],[-118.11574,35.82207],[-118.11562,35.82182],[-118.11555,35.82166],[-118.11557,35.82153],[-118.11556,35.8214],[-118.11549,35.8213],[-118.1154,35.82124],[-118.11526,35.82117],[-118.11505,35.82111],[-118.11487,35.821],[-118.11484,35.82085],[-118.11484,35.82081],[-118.11485,35.82072],[-118.11482,35.82062],[-118.11476,35.82055],[-118.1147,35.82048],[-118.11461,35.8204],[-118.11452,35.82033],[-118.11435,35.82023],[-118.11424,35.82015],[-118.11415,35.82013],[-118.114,35.82008],[-118.11374,35.82],[-118.11345,35.81994],[-118.113,35.81984],[-118.11272,35.81979],[-118.11252,35.81974],[-118.11244,35.81967],[-118.11237,35.81958],[-118.11234,35.81949],[-118.11229,35.81939],[-118.11219,35.81932],[-118.11208,35.81926],[-118.11195,35.81924],[-118.11179,35.81923],[-118.11164,35.81921],[-118.1115,35.81919],[-118.11137,35.81913],[-118.11126,35.81908],[-118.11111,35.81901],[-118.11091,35.81895],[-118.11077,35.8189],[-118.11068,35.81886],[-118.1106,35.8188],[-118.11048,35.81863],[-118.11041,35.81839],[-118.11031,35.81815],[-118.11017,35.81785],[-118.11005,35.81753],[-118.10995,35.81735],[-118.10989,35.81719],[-118.10992,35.81709],[-118.11001,35.81688],[-118.11011,35.81672],[-118.11009,35.81658],[-118.11005,35.81645],[-118.11001,35.81631],[-118.10998,35.81618],[-118.10997,35.816],[-118.10998,35.81584],[-118.10996,35.81569],[-118.10985,35.81559],[-118.10968,35.81554],[-118.10954,35.81551],[-118.10938,35.81543],[-118.10919,35.81532],[-118.10906,35.81524],[-118.10893,35.81519],[-118.10877,35.81517],[-118.10862,35.81522],[-118.10844,35.81531],[-118.10832,35.81541],[-118.1082,35.81553],[-118.10811,35.81564],[-118.10804,35.81573],[-118.10798,35.81585],[-118.10792,35.816],[-118.10789,35.81611],[-118.1079,35.81624],[-118.10785,35.81638],[-118.10779,35.81647],[-118.10775,35.81652],[-118.10774,35.81653],[-118.10771,35.81656],[-118.10769,35.81657],[-118.10749,35.81665],[-118.1074,35.81665],[-118.10728,35.81665],[-118.10715,35.81664],[-118.10704,35.81661],[-118.10695,35.81658],[-118.10685,35.81654],[-118.10672,35.81648],[-118.10665,35.81645],[-118.10655,35.81642],[-118.10645,35.81641],[-118.10637,35.8164],[-118.10629,35.81641],[-118.1062,35.81642],[-118.10612,35.81646],[-118.10605,35.81649],[-118.106,35.81653],[-118.10595,35.81657],[-118.10592,35.81663],[-118.10588,35.81667],[-118.10585,35.81673],[-118.10582,35.81678],[-118.10577,35.81685],[-118.10572,35.81692],[-118.10568,35.81699],[-118.1056,35.81705],[-118.10551,35.81708],[-118.10541,35.81709],[-118.1053,35.81707],[-118.10521,35.81705],[-118.10513,35.81701],[-118.10505,35.81695],[-118.10498,35.8169],[-118.10491,35.81685],[-118.10484,35.81682],[-118.10478,35.81676],[-118.10467,35.8167],[-118.10453,35.81666],[-118.10438,35.81663],[-118.10425,35.8166],[-118.10412,35.81656],[-118.10399,35.81652],[-118.10391,35.81645],[-118.10382,35.81639],[-118.10376,35.81633],[-118.10372,35.81626],[-118.10367,35.81619],[-118.10363,35.8161],[-118.10358,35.81601],[-118.10357,35.81593],[-118.10354,35.81582],[-118.10351,35.8157],[-118.10347,35.8156],[-118.10341,35.81549],[-118.10334,35.81539],[-118.10323,35.81531],[-118.10316,35.81527],[-118.10301,35.81521],[-118.10281,35.81515],[-118.10265,35.81509],[-118.10243,35.81497],[-118.10223,35.81482],[-118.10207,35.81475],[-118.10189,35.81466],[-118.10176,35.81456],[-118.10161,35.81446],[-118.10148,35.81436],[-118.10133,35.81426],[-118.10111,35.81409],[-118.10099,35.81401],[-118.10082,35.81388],[-118.1006,35.81374],[-118.10044,35.81365],[-118.10029,35.8136],[-118.10007,35.81355],[-118.09996,35.81356],[-118.09983,35.81359],[-118.09972,35.81363],[-118.09961,35.81367],[-118.09949,35.81368],[-118.09934,35.81367],[-118.0992,35.81365],[-118.09905,35.8136],[-118.09894,35.81353],[-118.09882,35.81346],[-118.09869,35.81344],[-118.09856,35.8135],[-118.0985,35.81356],[-118.09837,35.81366],[-118.09827,35.81377],[-118.09814,35.8139],[-118.09801,35.81401],[-118.09789,35.81412],[-118.09774,35.81426],[-118.09759,35.81447],[-118.09746,35.8149],[-118.09745,35.81503],[-118.09744,35.81515],[-118.09744,35.81524],[-118.09744,35.81533],[-118.09743,35.81545],[-118.09741,35.81554],[-118.09734,35.81559],[-118.09722,35.81565],[-118.0971,35.81568],[-118.09699,35.81568],[-118.09689,35.81566],[-118.09676,35.81563],[-118.09664,35.81562],[-118.09652,35.81564],[-118.09645,35.81568],[-118.09637,35.81572],[-118.09626,35.81578],[-118.09618,35.81584],[-118.09599,35.81589],[-118.09577,35.81584],[-118.09563,35.8158],[-118.09544,35.81574],[-118.09527,35.81567],[-118.09506,35.8156],[-118.09482,35.8156],[-118.09466,35.81561],[-118.09449,35.81564],[-118.09445,35.81565]]}},{"type":"Feature","properties":{"name":"16002: LONG VALLEY LOOP ROAD","source":"Bureau of Land Management","source_detail":"BLM GTLF OBJECTID 160060","source_id":"{EEC10B08-CA4A-40E3-9767-FDDC724CCCE8}","road_class":"transportation_system_-_primitive_road","surface":"natural_improved","vehicle_class":"4wd_low","allowed_mode":"unk","access_restriction":"unknown","seasonal_restriction":"not_listed","route_plan_id":"1274","gis_miles":1.8237809},"geometry":{"type":"LineString","coordinates":[[-118.12978,35.84097],[-118.12979,35.84088],[-118.12982,35.84082],[-118.12985,35.84079],[-118.12989,35.84076],[-118.12993,35.84074],[-118.12999,35.84072],[-118.13005,35.8407],[-118.13013,35.84069],[-118.13023,35.8407],[-118.13034,35.84073],[-118.13045,35.84077],[-118.13062,35.84085],[-118.1307,35.84088],[-118.13082,35.84087],[-118.13096,35.84085],[-118.13107,35.84078],[-118.13114,35.84071],[-118.13122,35.84063],[-118.13129,35.84055],[-118.13135,35.84048],[-118.13139,35.8404],[-118.13142,35.84034],[-118.13145,35.8403],[-118.1315,35.84026],[-118.13155,35.84022],[-118.13163,35.84016],[-118.1317,35.84014],[-118.13177,35.84009],[-118.13189,35.84005],[-118.13201,35.84],[-118.13213,35.83991],[-118.13222,35.8398],[-118.1323,35.83973],[-118.13237,35.83967],[-118.13246,35.83959],[-118.13253,35.83952],[-118.13258,35.83945],[-118.13262,35.83938],[-118.13262,35.83929],[-118.1326,35.83923],[-118.13257,35.83916],[-118.13254,35.83909],[-118.13251,35.839],[-118.13249,35.83891],[-118.13252,35.83882],[-118.13256,35.83875],[-118.13263,35.83866],[-118.13266,35.8386],[-118.13272,35.83853],[-118.13277,35.83844],[-118.13279,35.83837],[-118.1328,35.83826],[-118.13278,35.83815],[-118.13274,35.83809],[-118.1327,35.83803],[-118.13265,35.83797],[-118.13258,35.83791],[-118.1325,35.83786],[-118.13239,35.8378],[-118.13229,35.83775],[-118.1322,35.83772],[-118.13207,35.83767],[-118.13198,35.83756],[-118.13194,35.83746],[-118.13193,35.83739],[-118.13191,35.83732],[-118.13189,35.83727],[-118.13186,35.83721],[-118.13182,35.83716],[-118.13175,35.8371],[-118.13169,35.83704],[-118.13164,35.83698],[-118.13157,35.83695],[-118.13152,35.83691],[-118.13144,35.83686],[-118.13137,35.83682],[-118.13132,35.83678],[-118.13127,35.83676],[-118.1312,35.83673],[-118.13112,35.83669],[-118.13103,35.83664],[-118.13096,35.8366],[-118.1309,35.83656],[-118.13082,35.8365],[-118.13076,35.83646],[-118.13068,35.83641],[-118.1306,35.83636],[-118.13052,35.83634],[-118.1304,35.83637],[-118.13027,35.8364],[-118.13014,35.83643],[-118.13002,35.83646],[-118.12985,35.83648],[-118.12974,35.83646],[-118.12962,35.83641],[-118.12957,35.83637],[-118.12953,35.83634],[-118.12942,35.83629],[-118.12935,35.83623],[-118.12926,35.83615],[-118.12919,35.8361],[-118.1291,35.83603],[-118.12894,35.8359],[-118.12884,35.83578],[-118.12875,35.83568],[-118.1287,35.83561],[-118.12865,35.83556],[-118.1286,35.8355],[-118.12854,35.83543],[-118.12846,35.83534],[-118.12839,35.83525],[-118.12835,35.83519],[-118.12828,35.83511],[-118.12819,35.83501],[-118.12809,35.83492],[-118.12803,35.83486],[-118.12798,35.83482],[-118.12789,35.83473],[-118.12778,35.83468],[-118.12764,35.83463],[-118.12751,35.83458],[-118.12738,35.83454],[-118.12727,35.83452],[-118.12711,35.83452],[-118.12698,35.83452],[-118.12684,35.83453],[-118.12674,35.83452],[-118.12664,35.83451],[-118.12653,35.83451],[-118.12642,35.83453],[-118.1263,35.83454],[-118.1262,35.83456],[-118.12612,35.83459],[-118.12599,35.83465],[-118.12585,35.83467],[-118.12578,35.83469],[-118.12568,35.83467],[-118.1256,35.83463],[-118.12547,35.83459],[-118.12537,35.83455],[-118.12528,35.83452],[-118.12519,35.8345],[-118.12513,35.83447],[-118.12504,35.83444],[-118.12494,35.83441],[-118.12485,35.83436],[-118.1248,35.83433],[-118.12473,35.83425],[-118.12467,35.8342],[-118.12458,35.83414],[-118.1245,35.83411],[-118.12443,35.83404],[-118.12437,35.83395],[-118.12434,35.83389],[-118.12437,35.83384],[-118.12439,35.83377],[-118.12443,35.83371],[-118.1245,35.83368],[-118.12461,35.83359],[-118.12466,35.83352],[-118.12471,35.83344],[-118.12473,35.83338],[-118.12472,35.83331],[-118.12471,35.83324],[-118.12467,35.83316],[-118.12464,35.83311],[-118.12458,35.83299],[-118.12452,35.83289],[-118.12448,35.83282],[-118.12444,35.83276],[-118.12439,35.83267],[-118.12435,35.83259],[-118.12429,35.83249],[-118.12423,35.83242],[-118.12415,35.83236],[-118.12407,35.83231],[-118.12402,35.83224],[-118.12394,35.83218],[-118.12387,35.83208],[-118.12381,35.83199],[-118.12373,35.83186],[-118.12366,35.83177],[-118.12365,35.83166],[-118.12366,35.83153],[-118.12368,35.83141],[-118.12367,35.8313],[-118.12365,35.83119],[-118.12366,35.83112],[-118.12366,35.83099],[-118.1237,35.83083],[-118.12372,35.83065],[-118.12374,35.83054],[-118.12375,35.8304],[-118.12374,35.83014],[-118.12366,35.82991],[-118.12361,35.82967],[-118.12356,35.82955],[-118.12353,35.8295],[-118.12348,35.82944],[-118.1234,35.8294],[-118.12337,35.82934],[-118.12332,35.82927],[-118.12327,35.8292],[-118.12326,35.82911],[-118.12325,35.82905],[-118.12322,35.82899],[-118.12318,35.82896],[-118.12313,35.82893],[-118.12306,35.82892],[-118.12299,35.82895],[-118.12289,35.82897],[-118.12281,35.829],[-118.12271,35.82902],[-118.12261,35.82903],[-118.1225,35.82904],[-118.1224,35.82906],[-118.12229,35.82907],[-118.12217,35.82908],[-118.12211,35.82909],[-118.12202,35.8291],[-118.12191,35.82911],[-118.12178,35.8291],[-118.12164,35.8291],[-118.12154,35.82907],[-118.12145,35.82905],[-118.12133,35.82903],[-118.12123,35.82901],[-118.12114,35.82899],[-118.12106,35.82901],[-118.12096,35.82903],[-118.12086,35.82905],[-118.12076,35.82909],[-118.12067,35.82912],[-118.12058,35.82916],[-118.12051,35.8292],[-118.1204,35.82921],[-118.12032,35.82922],[-118.12024,35.82921],[-118.12014,35.82918],[-118.12009,35.82914],[-118.12,35.82909],[-118.1199,35.82903],[-118.11979,35.82897],[-118.11967,35.82891],[-118.11957,35.82881],[-118.1195,35.82874],[-118.11934,35.82862],[-118.11928,35.82859],[-118.11924,35.82858],[-118.11915,35.82856],[-118.11906,35.82855],[-118.11894,35.82855],[-118.11887,35.82857],[-118.11884,35.82863],[-118.11883,35.82869],[-118.11881,35.82876],[-118.11878,35.82884],[-118.11877,35.8289],[-118.11876,35.82896],[-118.11875,35.82902],[-118.11873,35.8291],[-118.1187,35.82918],[-118.11867,35.82924],[-118.11864,35.82932],[-118.11857,35.82951],[-118.1185,35.82979],[-118.11851,35.82995],[-118.1185,35.82999],[-118.1185,35.83005],[-118.1185,35.8301],[-118.1185,35.83017],[-118.1185,35.83021],[-118.11851,35.83029],[-118.11853,35.83036],[-118.11857,35.83041],[-118.11859,35.83048],[-118.11862,35.83055],[-118.11867,35.83062],[-118.11869,35.83068],[-118.11872,35.83075],[-118.11873,35.83079],[-118.11872,35.83083],[-118.11872,35.83087],[-118.1187,35.8309],[-118.11869,35.83098],[-118.11866,35.83106],[-118.11862,35.83117],[-118.11861,35.83128],[-118.11859,35.83137],[-118.11858,35.83145],[-118.11858,35.83152],[-118.11858,35.8316],[-118.11856,35.83168],[-118.11855,35.83174],[-118.1185,35.8318],[-118.11842,35.83187],[-118.11833,35.83191],[-118.11824,35.83194],[-118.11818,35.83197],[-118.11808,35.83199],[-118.11804,35.832]]}}]}