{"type":"FeatureCollection","features":[{"type":"Feature","properties":{"name":"995","source":"Bureau of Land Management","source_detail":"BLM GTLF OBJECTID 154306","source_id":"{E1EC81CD-5087-4224-8BD1-A79281B99352}","road_class":"transportation_system_-_primitive_road","surface":"natural","vehicle_class":"4wd_high_clearance_specialized","allowed_mode":"unk","access_restriction":"not_listed","seasonal_restriction":"not_listed","gis_miles":1.07154408},"geometry":{"type":"LineString","coordinates":[[-114.83419,33.43426],[-114.83419,33.43426],[-114.83354,33.43395],[-114.83268,33.43389],[-114.83157,33.43408],[-114.83082,33.43373],[-114.82936,33.43362],[-114.8279,33.43381],[-114.82674,33.43387],[-114.82512,33.43389],[-114.82442,33.43366],[-114.82261,33.43365],[-114.82045,33.43315],[-114.8193,33.43304],[-114.81703,33.433],[-114.81662,33.43308],[-114.81607,33.43311]]}},{"type":"Feature","properties":{"name":"993","source":"Bureau of Land Management","source_detail":"BLM GTLF OBJECTID 155647","source_id":"{0973B91C-6640-4B67-B1F6-3464749B6350}","road_class":"transportation_system_-_primitive_road","surface":"natural","vehicle_class":"4wd_high_clearance_specialized","allowed_mode":"unk","access_restriction":"not_listed","seasonal_restriction":"not_listed","gis_miles":4.04253559},"geometry":{"type":"LineString","coordinates":[[-114.84953,33.41651],[-114.84947,33.41693],[-114.84947,33.41744],[-114.84922,33.418],[-114.84896,33.41878],[-114.84826,33.41958],[-114.84785,33.41989],[-114.84729,33.42001],[-114.8465,33.41991],[-114.84587,33.41978],[-114.84523,33.41995],[-114.84441,33.42053],[-114.84432,33.42094],[-114.8441,33.42121],[-114.84357,33.42187],[-114.84306,33.42204],[-114.84159,33.42225],[-114.84081,33.42212],[-114.84001,33.42195],[-114.8394,33.42213],[-114.83871,33.42267],[-114.83795,33.42261],[-114.83736,33.42279],[-114.83678,33.42331],[-114.83581,33.42374],[-114.83484,33.42406],[-114.83418,33.42451],[-114.83376,33.42518],[-114.83326,33.42566],[-114.83199,33.42561],[-114.83117,33.42527],[-114.83053,33.4251],[-114.82983,33.42516],[-114.82872,33.42522],[-114.82782,33.425],[-114.82708,33.425],[-114.82645,33.42521],[-114.82589,33.4253],[-114.82538,33.42543],[-114.8249,33.42575],[-114.82386,33.42603],[-114.82307,33.42605],[-114.82196,33.4258],[-114.82123,33.42588],[-114.82047,33.42626],[-114.81925,33.42683],[-114.81904,33.42708],[-114.81896,33.42743],[-114.81908,33.42791],[-114.81865,33.42847],[-114.81809,33.42884],[-114.81747,33.4295],[-114.81716,33.4299],[-114.81715,33.4303],[-114.8171,33.43075],[-114.817,33.43126],[-114.81671,33.43177],[-114.81666,33.43252],[-114.81647,33.43286],[-114.81607,33.43311],[-114.8156,33.43366],[-114.81548,33.43372],[-114.81497,33.43395],[-114.81497,33.43395],[-114.81413,33.43423],[-114.81384,33.43448],[-114.81272,33.43472],[-114.81229,33.43503],[-114.81154,33.43514],[-114.81104,33.43516],[-114.81036,33.4351],[-114.80934,33.43501],[-114.8084,33.43513],[-114.80788,33.43529],[-114.80688,33.43519],[-114.80604,33.43495],[-114.80482,33.43504],[-114.80389,33.43486],[-114.80297,33.43442],[-114.80234,33.43403],[-114.80198,33.43372],[-114.80174,33.43356],[-114.80117,33.43331],[-114.80056,33.43329],[-114.8,33.43313],[-114.79963,33.43304],[-114.79939,33.43288],[-114.79839,33.43269],[-114.79738,33.43272],[-114.79558,33.43298],[-114.79484,33.43325],[-114.79459,33.43326],[-114.79374,33.43371],[-114.79373,33.43372]]}},{"type":"Feature","properties":{"name":"66005: BRADSHAW TRAIL","source":"Bureau of Land Management","source_detail":"BLM GTLF OBJECTID 156601","source_id":"{C13BEB32-7620-4793-A2C5-D57A18E03553}","road_class":"transportation_system_-_primitive_road","surface":"natural_improved","vehicle_class":"4wd_low","allowed_mode":"unk","access_restriction":"unknown","seasonal_restriction":"not_listed","gis_miles":2.01741103},"geometry":{"type":"LineString","coordinates":[[-114.77887,33.49003],[-114.77865,33.49001],[-114.77849,33.49],[-114.77833,33.49],[-114.77801,33.48999],[-114.77769,33.48998],[-114.77737,33.48998],[-114.77705,33.48998],[-114.77673,33.48999],[-114.77639,33.49],[-114.77604,33.49002],[-114.7757,33.49004],[-114.77535,33.49006],[-114.775,33.49009],[-114.77466,33.49013],[-114.7743,33.49016],[-114.77395,33.4902],[-114.7736,33.49025],[-114.77324,33.49029],[-114.77287,33.49035],[-114.7725,33.49041],[-114.77213,33.49047],[-114.77176,33.49052],[-114.77139,33.49056],[-114.77101,33.49059],[-114.77062,33.49062],[-114.77024,33.49064],[-114.76985,33.49066],[-114.76946,33.49069],[-114.76907,33.49071],[-114.7687,33.49071],[-114.76833,33.49071],[-114.76797,33.49071],[-114.76761,33.49071],[-114.76725,33.4907],[-114.76689,33.4907],[-114.76653,33.4907],[-114.76618,33.49072],[-114.76583,33.49075],[-114.7655,33.49083],[-114.76517,33.49095],[-114.76484,33.49107],[-114.76451,33.49117],[-114.76417,33.49124],[-114.76384,33.49129],[-114.7635,33.4913],[-114.76316,33.49131],[-114.76282,33.49131],[-114.76251,33.49131],[-114.76221,33.49131],[-114.76189,33.4913],[-114.76157,33.49128],[-114.76124,33.49126],[-114.7609,33.49122],[-114.76054,33.49118],[-114.76019,33.49113],[-114.75985,33.49109],[-114.75951,33.49106],[-114.75918,33.49102],[-114.75885,33.491],[-114.75852,33.49098],[-114.75817,33.49096],[-114.75781,33.49095],[-114.75745,33.49093],[-114.75708,33.49092],[-114.7567,33.4909],[-114.75632,33.49089],[-114.75594,33.49088],[-114.75556,33.49087],[-114.75519,33.49083],[-114.75483,33.4908],[-114.75445,33.4908],[-114.75406,33.49082],[-114.75368,33.49085],[-114.75329,33.49087],[-114.75289,33.49086],[-114.7525,33.49082],[-114.7521,33.49075],[-114.75172,33.49067],[-114.75134,33.4906],[-114.75096,33.49053],[-114.75057,33.49048],[-114.75019,33.49044],[-114.74981,33.49041],[-114.74944,33.49037],[-114.74905,33.49036],[-114.74866,33.49035],[-114.74826,33.49037],[-114.74786,33.49038],[-114.74748,33.49041],[-114.74713,33.49047],[-114.7468,33.49054],[-114.74647,33.49059],[-114.74612,33.49059],[-114.74576,33.49052],[-114.74537,33.49052],[-114.74497,33.49062],[-114.74455,33.49071],[-114.74428,33.49075]]}},{"type":"Feature","properties":{"name":"66005: BRADSHAW TRAIL","source":"Bureau of Land Management","source_detail":"BLM GTLF OBJECTID 156678","source_id":"{FDF7C975-2C6E-452B-BD30-8597517F632B}","road_class":"transportation_system_-_primitive_road","surface":"natural_improved","vehicle_class":"4wd_low","allowed_mode":"unk","access_restriction":"unknown","seasonal_restriction":"not_listed","gis_miles":16.97177597},"geometry":{"type":"LineString","coordinates":[[-115.06202,33.42869],[-115.06186,33.42871],[-115.06151,33.42876],[-115.06117,33.4288],[-115.06082,33.42883],[-115.06048,33.42886],[-115.06014,33.42889],[-115.05981,33.42892],[-115.05948,33.42895],[-115.05914,33.42898],[-115.05881,33.42901],[-115.05848,33.42903],[-115.05816,33.42906],[-115.05786,33.4291],[-115.05757,33.42915],[-115.05729,33.42921],[-115.05702,33.42925],[-115.05673,33.42929],[-115.05642,33.42935],[-115.0561,33.42943],[-115.05578,33.42951],[-115.05546,33.42961],[-115.05515,33.42972],[-115.05486,33.42983],[-115.05457,33.42994],[-115.05429,33.43003],[-115.05399,33.43011],[-115.05369,33.43018],[-115.0534,33.43023],[-115.05313,33.43025],[-115.05285,33.43025],[-115.05255,33.43026],[-115.05229,33.43031],[-115.05206,33.4304],[-115.05183,33.43053],[-115.05159,33.43066],[-115.05131,33.43077],[-115.05103,33.43089],[-115.05075,33.43104],[-115.05046,33.43119],[-115.05017,33.43134],[-115.04985,33.43149],[-115.04954,33.43164],[-115.04923,33.43177],[-115.04893,33.4319],[-115.04866,33.43202],[-115.04841,33.43217],[-115.04814,33.43233],[-115.04787,33.43249],[-115.04758,33.43263],[-115.04729,33.43276],[-115.04697,33.43289],[-115.04665,33.43303],[-115.04631,33.43316],[-115.04598,33.4333],[-115.04564,33.43344],[-115.04531,33.43359],[-115.04499,33.43374],[-115.04468,33.43387],[-115.04435,33.434],[-115.04401,33.43411],[-115.04368,33.43422],[-115.04335,33.43433],[-115.04302,33.43446],[-115.04268,33.4346],[-115.04235,33.43475],[-115.04202,33.43491],[-115.0417,33.43507],[-115.04136,33.43521],[-115.04101,33.43535],[-115.04068,33.43547],[-115.04034,33.43551],[-115.04,33.4355],[-115.03967,33.43556],[-115.03934,33.43566],[-115.03902,33.43576],[-115.0387,33.43587],[-115.03839,33.43599],[-115.03808,33.4361],[-115.03777,33.43622],[-115.03746,33.43635],[-115.03717,33.4365],[-115.03687,33.43662],[-115.03657,33.43669],[-115.03626,33.43676],[-115.03595,33.43685],[-115.03565,33.43694],[-115.03535,33.43703],[-115.03503,33.43713],[-115.03475,33.43723],[-115.0347,33.43724],[-115.03434,33.43736],[-115.03399,33.43748],[-115.03365,33.43762],[-115.03333,33.43778],[-115.03301,33.43794],[-115.0327,33.4381],[-115.03239,33.43826],[-115.03208,33.43841],[-115.03176,33.43857],[-115.03143,33.43871],[-115.0311,33.43883],[-115.03076,33.43894],[-115.03042,33.43903],[-115.03009,33.43911],[-115.02975,33.43922],[-115.02943,33.43937],[-115.0291,33.43954],[-115.02875,33.4397],[-115.02841,33.43986],[-115.02808,33.44003],[-115.02776,33.44022],[-115.02747,33.4404],[-115.02718,33.44059],[-115.02689,33.44078],[-115.0266,33.44095],[-115.02628,33.44112],[-115.02596,33.44127],[-115.02563,33.4414],[-115.0253,33.44152],[-115.02495,33.44165],[-115.02459,33.44177],[-115.02422,33.44186],[-115.02386,33.44193],[-115.02349,33.442],[-115.02314,33.44209],[-115.02278,33.44221],[-115.02244,33.44233],[-115.02211,33.44248],[-115.02178,33.44264],[-115.02145,33.44279],[-115.02111,33.44291],[-115.02075,33.44303],[-115.02042,33.44316],[-115.0201,33.44329],[-115.01977,33.44341],[-115.01943,33.44349],[-115.01908,33.4435],[-115.01872,33.44345],[-115.0184,33.44339],[-115.01808,33.44337],[-115.01778,33.44344],[-115.01747,33.44355],[-115.01716,33.44369],[-115.01683,33.44385],[-115.01652,33.44401],[-115.0162,33.44417],[-115.01587,33.44435],[-115.01555,33.44452],[-115.01525,33.44469],[-115.01495,33.44487],[-115.01466,33.44506],[-115.01436,33.44523],[-115.01404,33.44538],[-115.01369,33.44548],[-115.01332,33.44555],[-115.01295,33.4456],[-115.01259,33.44572],[-115.01226,33.44591],[-115.01196,33.44611],[-115.01164,33.44631],[-115.01132,33.44651],[-115.01102,33.44672],[-115.01073,33.44693],[-115.01044,33.44715],[-115.01015,33.44737],[-115.00986,33.44759],[-115.00958,33.44782],[-115.00931,33.44804],[-115.00906,33.44827],[-115.00883,33.44849],[-115.00859,33.44872],[-115.00833,33.44894],[-115.00806,33.44917],[-115.00776,33.44939],[-115.00745,33.44962],[-115.00715,33.44986],[-115.00689,33.45009],[-115.00665,33.45033],[-115.00645,33.45059],[-115.00626,33.45086],[-115.00606,33.45112],[-115.0058,33.45134],[-115.0055,33.45153],[-115.00517,33.45167],[-115.00483,33.45178],[-115.00448,33.45189],[-115.00414,33.45201],[-115.0038,33.45214],[-115.00347,33.45228],[-115.00314,33.45242],[-115.0028,33.45255],[-115.00246,33.45267],[-115.00212,33.45279],[-115.00177,33.4529],[-115.00142,33.453],[-115.00107,33.4531],[-115.00072,33.4532],[-115.00037,33.4533],[-115.00002,33.4534],[-114.99967,33.4535],[-114.99932,33.4536],[-114.99896,33.45368],[-114.9986,33.45374],[-114.99823,33.45378],[-114.99786,33.45382],[-114.9975,33.45387],[-114.99713,33.45391],[-114.99677,33.45396],[-114.9964,33.45402],[-114.99604,33.45408],[-114.99569,33.45417],[-114.99535,33.4543],[-114.99502,33.45444],[-114.99468,33.45456],[-114.99434,33.45468],[-114.99401,33.45482],[-114.99368,33.45497],[-114.99335,33.4551],[-114.99301,33.45522],[-114.99266,33.45534],[-114.99231,33.45545],[-114.99193,33.45552],[-114.99159,33.45557],[-114.99124,33.45569],[-114.99092,33.45586],[-114.99062,33.45603],[-114.99032,33.45622],[-114.99003,33.45641],[-114.98973,33.4566],[-114.98944,33.45679],[-114.98915,33.45698],[-114.98885,33.45716],[-114.98854,33.45733],[-114.98822,33.45748],[-114.98788,33.45761],[-114.98754,33.45772],[-114.98718,33.45782],[-114.98682,33.45788],[-114.98646,33.45794],[-114.98612,33.45807],[-114.98583,33.45827],[-114.98554,33.45846],[-114.98525,33.45865],[-114.98496,33.45884],[-114.98466,33.45903],[-114.98437,33.45921],[-114.98406,33.45938],[-114.98372,33.45952],[-114.98337,33.45962],[-114.98301,33.45969],[-114.98265,33.45975],[-114.98228,33.4598],[-114.98192,33.45985],[-114.98155,33.4599],[-114.98119,33.45996],[-114.98083,33.46003],[-114.98047,33.46012],[-114.98012,33.46021],[-114.97977,33.46032],[-114.97943,33.46043],[-114.97909,33.46055],[-114.97874,33.46066],[-114.9784,33.46078],[-114.97805,33.46088],[-114.9777,33.46097],[-114.97734,33.46107],[-114.97699,33.46116],[-114.97664,33.46125],[-114.97629,33.46135],[-114.97593,33.46144],[-114.97558,33.46152],[-114.97522,33.4616],[-114.97486,33.46169],[-114.9745,33.46177],[-114.97415,33.46186],[-114.9738,33.46195],[-114.97344,33.46204],[-114.97309,33.46213],[-114.97273,33.46223],[-114.97238,33.46232],[-114.97203,33.46243],[-114.97169,33.46254],[-114.97134,33.46265],[-114.971,33.46277],[-114.97066,33.46289],[-114.97031,33.463],[-114.96996,33.4631],[-114.96961,33.46319],[-114.96926,33.46329],[-114.96891,33.4634],[-114.96857,33.46352],[-114.96824,33.46366],[-114.96791,33.46381],[-114.9676,33.46397],[-114.96729,33.46415],[-114.96699,33.46432],[-114.96668,33.4645],[-114.96638,33.46468],[-114.96608,33.46485],[-114.96577,33.46503],[-114.96547,33.46522],[-114.96517,33.4654],[-114.96489,33.46559],[-114.96466,33.46584],[-114.96452,33.46613],[-114.96442,33.46642],[-114.96432,33.46672],[-114.96421,33.46701],[-114.96409,33.4673],[-114.96395,33.46758],[-114.96395,33.46759],[-114.96376,33.46782],[-114.96355,33.468],[-114.96333,33.46816],[-114.96312,33.46833],[-114.96291,33.46848],[-114.9627,33.46864],[-114.96246,33.46878],[-114.96219,33.46889],[-114.96191,33.46897],[-114.96163,33.46903],[-114.96135,33.46909],[-114.96106,33.46917],[-114.96079,33.46926],[-114.96052,33.46938],[-114.96027,33.46951],[-114.96001,33.46964],[-114.95975,33.46977],[-114.95949,33.46988],[-114.95924,33.46998],[-114.95898,33.47008],[-114.95873,33.47017],[-114.95848,33.47027],[-114.95824,33.47038],[-114.95799,33.47049],[-114.95776,33.47062],[-114.95752,33.47075],[-114.95728,33.4709],[-114.95702,33.47105],[-114.95675,33.4712],[-114.9565,33.47133],[-114.95625,33.47144],[-114.95597,33.47152],[-114.95566,33.47158],[-114.95533,33.47161],[-114.95499,33.47164],[-114.95465,33.47166],[-114.9543,33.4717],[-114.95395,33.47175],[-114.9536,33.47182],[-114.95326,33.47189],[-114.95294,33.47196],[-114.95263,33.47202],[-114.95234,33.47209],[-114.95205,33.47215],[-114.95176,33.47222],[-114.95149,33.47231],[-114.95124,33.47242],[-114.95099,33.47253],[-114.95074,33.47262],[-114.9505,33.47268],[-114.95044,33.4727],[-114.95025,33.47275],[-114.94999,33.47285],[-114.94972,33.47296],[-114.94945,33.47305],[-114.94918,33.4731],[-114.9489,33.47312],[-114.94863,33.47312],[-114.94837,33.47316],[-114.94811,33.47325],[-114.94785,33.47339],[-114.94762,33.47355],[-114.94739,33.47371],[-114.94718,33.4739],[-114.94698,33.4741],[-114.94678,33.4743],[-114.94657,33.4745],[-114.94637,33.47471],[-114.9462,33.47492],[-114.94604,33.47512],[-114.94587,33.4753],[-114.94567,33.47546],[-114.94546,33.47561],[-114.94523,33.47576],[-114.945,33.47593],[-114.94475,33.47611],[-114.94448,33.47626],[-114.94417,33.47639],[-114.94382,33.47652],[-114.94347,33.47664],[-114.9431,33.47674],[-114.94273,33.47683],[-114.94235,33.47691],[-114.94197,33.47699],[-114.9416,33.47708],[-114.94123,33.47718],[-114.94085,33.47727],[-114.94048,33.47736],[-114.94011,33.47747],[-114.93974,33.47758],[-114.93938,33.47768],[-114.93901,33.4778],[-114.93865,33.47792],[-114.93829,33.47804],[-114.93792,33.47815],[-114.93756,33.47826],[-114.93719,33.47838],[-114.93682,33.47849],[-114.93645,33.47859],[-114.93609,33.47871],[-114.93572,33.47882],[-114.93535,33.47891],[-114.93498,33.479],[-114.9346,33.47909],[-114.93423,33.47919],[-114.93387,33.47931],[-114.93351,33.47943],[-114.93315,33.47955],[-114.93279,33.47967],[-114.93243,33.47981],[-114.93207,33.47993],[-114.93169,33.48002],[-114.93132,33.4801],[-114.93094,33.48019],[-114.93057,33.48029],[-114.9302,33.48039],[-114.92983,33.48049],[-114.92946,33.48059],[-114.92908,33.48067],[-114.92871,33.48073],[-114.92832,33.48078],[-114.92794,33.48084],[-114.92756,33.48091],[-114.92718,33.48098],[-114.9268,33.48106],[-114.92642,33.48114],[-114.92605,33.48123],[-114.92567,33.48133],[-114.92533,33.48141],[-114.9253,33.48141],[-114.92495,33.48148],[-114.92467,33.4815],[-114.92441,33.48149],[-114.92416,33.48156],[-114.92392,33.48165],[-114.92366,33.48173],[-114.92339,33.48179],[-114.92313,33.48187],[-114.92287,33.48194],[-114.9226,33.482],[-114.92233,33.48206],[-114.92206,33.48213],[-114.92177,33.48219],[-114.92146,33.48225],[-114.92114,33.48232],[-114.92082,33.48238],[-114.92051,33.48245],[-114.9202,33.48252],[-114.91988,33.48259],[-114.91954,33.48264],[-114.9192,33.48268],[-114.91886,33.48272],[-114.91853,33.48278],[-114.91821,33.48284],[-114.91786,33.4829],[-114.91751,33.48297],[-114.91717,33.48305],[-114.91683,33.48316],[-114.9165,33.48327],[-114.91617,33.48339],[-114.91583,33.48348],[-114.91549,33.48356],[-114.91516,33.48363],[-114.91482,33.48369],[-114.91448,33.48373],[-114.91413,33.48378],[-114.91378,33.48383],[-114.91344,33.48389],[-114.91311,33.48396],[-114.91277,33.48402],[-114.91244,33.48409],[-114.9121,33.48414],[-114.91176,33.48418],[-114.91143,33.48421],[-114.9111,33.48426],[-114.91077,33.48434],[-114.91046,33.48442],[-114.91014,33.48451],[-114.90984,33.48463],[-114.90959,33.48479],[-114.90938,33.48499],[-114.90915,33.48514],[-114.90889,33.48524],[-114.90862,33.48533],[-114.90835,33.48544],[-114.90808,33.48555],[-114.90779,33.48565],[-114.90749,33.48575],[-114.90717,33.48585],[-114.90685,33.48594],[-114.90652,33.48604],[-114.90618,33.48614],[-114.90583,33.48624],[-114.90547,33.48634],[-114.90512,33.48645],[-114.90475,33.48655],[-114.90439,33.48666],[-114.90403,33.48677],[-114.90367,33.48686],[-114.90331,33.48696],[-114.90295,33.48705],[-114.90259,33.48715],[-114.90223,33.48724],[-114.90187,33.48734],[-114.90151,33.48744],[-114.90115,33.48754],[-114.9008,33.48765],[-114.90044,33.48775],[-114.90008,33.48786],[-114.89972,33.48796],[-114.89937,33.48807],[-114.89901,33.48818],[-114.89866,33.48829],[-114.8983,33.4884],[-114.89795,33.4885],[-114.89759,33.48861],[-114.89724,33.48872],[-114.89688,33.48883],[-114.89653,33.48894],[-114.89617,33.48904],[-114.89581,33.48912],[-114.89543,33.48916],[-114.89506,33.4892],[-114.89468,33.48924],[-114.89432,33.48929],[-114.89431,33.48929],[-114.89394,33.48936],[-114.8936,33.48948],[-114.8933,33.48968],[-114.89309,33.48994],[-114.89293,33.49022],[-114.89276,33.49046],[-114.89254,33.4906],[-114.89227,33.49061],[-114.89201,33.49057],[-114.89172,33.49052],[-114.89171,33.49051],[-114.89141,33.49046],[-114.89107,33.4904],[-114.89071,33.49037],[-114.89041,33.49037],[-114.89034,33.49037],[-114.89,33.49036],[-114.8897,33.49039],[-114.88945,33.49043],[-114.88921,33.49049],[-114.88899,33.49056],[-114.8888,33.49063],[-114.88861,33.49069],[-114.88844,33.49075],[-114.8883,33.49081],[-114.88813,33.49087],[-114.88799,33.49092],[-114.88797,33.49092],[-114.88779,33.49098],[-114.88757,33.49103],[-114.88734,33.49111],[-114.88708,33.4912],[-114.88679,33.49129],[-114.88648,33.4914],[-114.88614,33.49151],[-114.88581,33.49162],[-114.88547,33.49173],[-114.88513,33.49184],[-114.8848,33.49196],[-114.88447,33.49207],[-114.88415,33.49219],[-114.88385,33.4923],[-114.88354,33.49241],[-114.88322,33.49252],[-114.88291,33.49264],[-114.88261,33.49277],[-114.88235,33.49292],[-114.88214,33.49312],[-114.88193,33.49332],[-114.88171,33.49353],[-114.88149,33.49371],[-114.88126,33.49388],[-114.88101,33.49403],[-114.88073,33.49414],[-114.88044,33.49423],[-114.88014,33.49429],[-114.87986,33.49436],[-114.87959,33.49446],[-114.8793,33.49456],[-114.87903,33.49467],[-114.87876,33.49477],[-114.87848,33.49488],[-114.87821,33.49499],[-114.87794,33.49511],[-114.87767,33.49521],[-114.87741,33.49531],[-114.87715,33.49541],[-114.87686,33.49548],[-114.87657,33.4955],[-114.87628,33.49549],[-114.876,33.4955],[-114.87573,33.49553],[-114.87548,33.49557],[-114.87524,33.49563],[-114.87509,33.49567],[-114.87497,33.49571],[-114.8748,33.49576],[-114.8746,33.49584],[-114.87437,33.49593],[-114.87413,33.49602],[-114.87388,33.49612],[-114.87363,33.49621],[-114.87337,33.49629],[-114.87311,33.49638],[-114.87284,33.49646],[-114.87257,33.49654],[-114.87229,33.49663],[-114.87201,33.49674],[-114.87173,33.49686],[-114.87146,33.49697],[-114.87118,33.49709],[-114.87089,33.4972],[-114.87059,33.49732],[-114.87029,33.49744],[-114.86999,33.49757],[-114.86969,33.49772],[-114.86941,33.49787],[-114.86913,33.49805],[-114.86886,33.4982],[-114.86861,33.49832],[-114.86833,33.49844],[-114.86803,33.49855],[-114.86771,33.49864],[-114.86739,33.49877],[-114.86709,33.49893],[-114.86681,33.49912],[-114.86655,33.4993],[-114.86632,33.49944],[-114.86605,33.49955],[-114.86575,33.49961],[-114.86546,33.49964],[-114.86517,33.49964],[-114.86487,33.49965],[-114.86457,33.49966],[-114.86427,33.49972],[-114.864,33.49983],[-114.86375,33.49999],[-114.8635,33.50015],[-114.86322,33.50027],[-114.86291,33.50025],[-114.86262,33.50017],[-114.86232,33.50005],[-114.86199,33.49995],[-114.86164,33.49985],[-114.86127,33.4998],[-114.86089,33.49982],[-114.86053,33.49991],[-114.86023,33.50006],[-114.85996,33.50026],[-114.85968,33.50043],[-114.85937,33.50054],[-114.85903,33.50059],[-114.85868,33.50062],[-114.85834,33.50062],[-114.85799,33.50062],[-114.85765,33.5006],[-114.85732,33.50059],[-114.85697,33.50059],[-114.85663,33.50058],[-114.8563,33.50057],[-114.85596,33.50055],[-114.85562,33.50056],[-114.85527,33.5006],[-114.85493,33.50066],[-114.85458,33.50072],[-114.85423,33.50075],[-114.8539,33.50072],[-114.85356,33.50066],[-114.85322,33.5006],[-114.85288,33.50052],[-114.85254,33.50043],[-114.8522,33.50033],[-114.85187,33.50023],[-114.85152,33.50014],[-114.85117,33.50009],[-114.85083,33.50008],[-114.85053,33.49999],[-114.85033,33.49982],[-114.85014,33.49964],[-114.84994,33.49948],[-114.84972,33.49931],[-114.84945,33.49914],[-114.84911,33.49899],[-114.84878,33.49889],[-114.8485,33.49878],[-114.84825,33.49862],[-114.84803,33.49844],[-114.84774,33.49833],[-114.84742,33.49823],[-114.84712,33.49812],[-114.84682,33.49798],[-114.84651,33.49782],[-114.84619,33.4977],[-114.84584,33.49765],[-114.84549,33.49761],[-114.84514,33.49756],[-114.84479,33.49752],[-114.84446,33.4975],[-114.84415,33.49748],[-114.84386,33.49745],[-114.8436,33.49744],[-114.84335,33.49746],[-114.84309,33.49746],[-114.84282,33.49744],[-114.84258,33.49739],[-114.84235,33.49736],[-114.84212,33.49739],[-114.84188,33.49747],[-114.84166,33.49751],[-114.84145,33.49746],[-114.84122,33.49736],[-114.84102,33.49726],[-114.84081,33.49721],[-114.8406,33.49718],[-114.84038,33.49716],[-114.84014,33.4971],[-114.83983,33.49703],[-114.8395,33.49695],[-114.83919,33.49688],[-114.83887,33.49681],[-114.83856,33.49676],[-114.83827,33.49672],[-114.83804,33.49669],[-114.83784,33.49665],[-114.8376,33.4966],[-114.83734,33.49653],[-114.83708,33.49645],[-114.8368,33.49636],[-114.83654,33.49627],[-114.83628,33.49619],[-114.83608,33.49613],[-114.83591,33.49605],[-114.83573,33.49592],[-114.83551,33.49575],[-114.8353,33.4956],[-114.83517,33.49542],[-114.83511,33.4952],[-114.83502,33.495],[-114.83487,33.49485],[-114.83466,33.49472],[-114.83439,33.49468],[-114.83416,33.49473],[-114.83394,33.49479],[-114.83373,33.49484],[-114.83352,33.49486],[-114.83331,33.49484],[-114.83309,33.49481],[-114.83288,33.49477],[-114.83267,33.49475],[-114.83243,33.49477],[-114.8322,33.4948],[-114.83198,33.49483],[-114.83177,33.49483],[-114.83157,33.49483],[-114.83136,33.49483],[-114.83117,33.49482],[-114.83099,33.49478],[-114.83081,33.49471],[-114.83064,33.49463],[-114.83045,33.49454],[-114.83027,33.49449],[-114.8301,33.49444],[-114.82994,33.49434],[-114.82981,33.49421],[-114.82968,33.4941],[-114.82953,33.49401],[-114.82934,33.49396],[-114.82915,33.49391],[-114.82897,33.49383],[-114.82879,33.49374],[-114.82862,33.49366],[-114.82843,33.49361],[-114.82824,33.49361],[-114.82805,33.49362],[-114.82786,33.49363],[-114.82766,33.49362],[-114.82748,33.49358],[-114.8273,33.49353],[-114.82713,33.49346],[-114.82694,33.4934],[-114.82674,33.49334],[-114.82654,33.49332],[-114.82634,33.49331],[-114.82614,33.4933],[-114.82593,33.49328],[-114.82573,33.49324],[-114.82555,33.49319],[-114.82537,33.49312],[-114.82518,33.49306],[-114.82496,33.49301],[-114.82475,33.49298],[-114.82455,33.49298],[-114.82439,33.49304],[-114.82429,33.49318],[-114.82428,33.49336],[-114.8243,33.49355],[-114.82425,33.49373],[-114.8241,33.49386],[-114.8239,33.49393],[-114.82364,33.49395],[-114.82335,33.49394],[-114.82306,33.49397],[-114.82279,33.49404],[-114.82254,33.49416],[-114.82231,33.49432],[-114.82207,33.49448],[-114.82179,33.49456],[-114.82149,33.49456],[-114.82117,33.49449],[-114.82084,33.49439],[-114.82051,33.49427],[-114.82017,33.49415],[-114.81983,33.49403],[-114.81949,33.49392],[-114.81915,33.49382],[-114.81879,33.49375],[-114.81844,33.49369],[-114.81809,33.49363],[-114.81773,33.49359],[-114.81736,33.49355],[-114.81701,33.49351],[-114.81665,33.49348],[-114.81629,33.49345],[-114.81593,33.49341],[-114.81557,33.49336],[-114.81522,33.49329],[-114.81487,33.49322],[-114.81452,33.49314],[-114.81417,33.49306],[-114.81383,33.49297],[-114.81348,33.49289],[-114.81314,33.4928],[-114.81279,33.49271],[-114.81245,33.49262],[-114.8121,33.49253],[-114.81176,33.49243],[-114.81142,33.49233],[-114.81108,33.49224],[-114.81073,33.49216],[-114.81037,33.4921],[-114.81002,33.49205],[-114.80966,33.49202],[-114.80929,33.49201],[-114.80894,33.49197],[-114.80858,33.4919],[-114.80823,33.49185],[-114.80787,33.49182],[-114.80751,33.49182],[-114.80714,33.49181],[-114.80678,33.49177],[-114.80643,33.49169],[-114.80609,33.49158],[-114.80575,33.49147],[-114.80541,33.49137],[-114.80507,33.49129],[-114.80471,33.49122],[-114.80437,33.49113],[-114.80403,33.49103],[-114.8037,33.4909],[-114.80338,33.49077],[-114.80305,33.49064],[-114.80272,33.49051],[-114.8024,33.49039],[-114.80206,33.49029],[-114.8017,33.49023],[-114.80134,33.49021],[-114.80098,33.4902],[-114.80062,33.49019],[-114.80026,33.49018],[-114.7999,33.49017],[-114.79954,33.49016],[-114.79918,33.49018],[-114.79882,33.49023],[-114.79852,33.49029],[-114.79847,33.4903],[-114.79813,33.49039],[-114.7978,33.49049],[-114.79748,33.49058],[-114.7972,33.49064],[-114.79689,33.49068],[-114.79657,33.49068],[-114.79625,33.49067],[-114.79594,33.49066],[-114.79594,33.49066]]}},{"type":"Feature","properties":{"name":"991","source":"Bureau of Land Management","source_detail":"BLM GTLF OBJECTID 157287","source_id":"{3D5C5D4C-F10B-4AD5-B9B3-67D88DA9C5EB}","road_class":"transportation_system_-_primitive_road","surface":"natural","vehicle_class":"4wd_high_clearance_specialized","allowed_mode":"unk","access_restriction":"not_listed","seasonal_restriction":"not_listed","gis_miles":0.22128474},"geometry":{"type":"LineString","coordinates":[[-114.79609,33.43372],[-114.79629,33.43339],[-114.79679,33.43332],[-114.79708,33.43329],[-114.79752,33.43324],[-114.79919,33.43315],[-114.79963,33.43304]]}},{"type":"Feature","properties":{"name":"991","source":"Bureau of Land Management","source_detail":"BLM GTLF OBJECTID 158146","source_id":"{4E1EDE4F-C3F4-40A6-921D-8043C0900498}","road_class":"transportation_system_-_primitive_road","surface":"natural","vehicle_class":"4wd_high_clearance_specialized","allowed_mode":"unk","access_restriction":"not_listed","seasonal_restriction":"not_listed","gis_miles":0.9295413},"geometry":{"type":"LineString","coordinates":[[-114.8,33.43313],[-114.80022,33.4327],[-114.80045,33.43269],[-114.80069,33.43272],[-114.80099,33.43284],[-114.80124,33.43294],[-114.80156,33.43304],[-114.80207,33.43293],[-114.80289,33.43275],[-114.80338,33.4327],[-114.80371,33.43283],[-114.80471,33.43307],[-114.805,33.43313],[-114.80591,33.43321],[-114.80663,33.43335],[-114.80681,33.43329],[-114.80706,33.43316],[-114.80733,33.43312],[-114.80752,33.43307],[-114.80771,33.43314],[-114.80826,33.43329],[-114.80846,33.43331],[-114.80893,33.43315],[-114.80938,33.43296],[-114.80979,33.43282],[-114.81004,33.43275],[-114.81022,33.43272],[-114.81186,33.43272],[-114.81221,33.4327],[-114.81258,33.4326],[-114.81373,33.43223],[-114.81443,33.43202],[-114.81508,33.43187]]}},{"type":"Feature","properties":{"name":"66005: BRADSHAW TRAIL","source":"Bureau of Land Management","source_detail":"BLM GTLF OBJECTID 158549","source_id":"{384DDBCF-D3B5-4C3B-948F-FB48DFDE9A23}","road_class":"transportation_system_-_primitive_road","surface":"natural_improved","vehicle_class":"4wd_low","allowed_mode":"unk","access_restriction":"unknown","seasonal_restriction":"not_listed","gis_miles":2.12653213},"geometry":{"type":"MultiLineString","coordinates":[[[-114.74428,33.49075],[-114.74409,33.49078],[-114.74364,33.49086],[-114.74322,33.49094],[-114.74287,33.49102],[-114.74259,33.4911],[-114.74237,33.49121],[-114.74217,33.49142],[-114.742,33.49169],[-114.74182,33.49199],[-114.74163,33.49228],[-114.74143,33.49256],[-114.74123,33.49281],[-114.74094,33.49299],[-114.74057,33.49303],[-114.74017,33.49302],[-114.73974,33.49302],[-114.73929,33.49301],[-114.73883,33.493],[-114.73837,33.49299],[-114.73773,33.49298],[-114.73725,33.49297],[-114.73677,33.49297],[-114.73629,33.49296],[-114.73582,33.49295],[-114.73535,33.49294],[-114.73487,33.49294],[-114.73439,33.49294],[-114.7339,33.49293],[-114.73341,33.49292],[-114.73293,33.49292],[-114.73246,33.49291],[-114.73201,33.4929],[-114.73156,33.49289],[-114.73111,33.49288],[-114.73065,33.49288],[-114.73019,33.49287],[-114.72972,33.49287],[-114.72925,33.49286],[-114.72879,33.49286],[-114.72834,33.49285],[-114.72792,33.49284],[-114.72755,33.49283],[-114.72743,33.49283],[-114.7273,33.49283],[-114.72713,33.49282]],[[-114.72713,33.49282],[-114.72712,33.49282],[-114.72712,33.49282],[-114.7271,33.49282],[-114.72706,33.49282],[-114.72702,33.49282],[-114.72696,33.49282],[-114.72689,33.49282],[-114.72682,33.49282],[-114.72675,33.49282],[-114.72667,33.49282],[-114.72657,33.49282],[-114.72646,33.49282],[-114.72634,33.49281],[-114.7262,33.49281],[-114.72607,33.49281],[-114.72593,33.49281],[-114.72577,33.49281],[-114.72559,33.4928],[-114.7254,33.4928],[-114.7252,33.4928],[-114.72498,33.49279],[-114.72475,33.49279],[-114.72453,33.49278],[-114.7243,33.49278],[-114.72406,33.49278],[-114.72381,33.49277],[-114.72355,33.49277],[-114.72329,33.49276],[-114.72302,33.49276],[-114.72276,33.49276],[-114.72249,33.49275],[-114.72221,33.49275],[-114.72194,33.49274],[-114.72168,33.49274],[-114.72141,33.49273],[-114.72114,33.49273],[-114.72087,33.49272],[-114.72059,33.49272],[-114.72031,33.49272],[-114.72003,33.49271],[-114.71975,33.49271],[-114.71946,33.49272],[-114.71918,33.49271],[-114.71891,33.49271],[-114.71863,33.4927],[-114.71837,33.49269],[-114.7181,33.49269],[-114.71784,33.49268],[-114.71758,33.49268],[-114.71732,33.49267],[-114.71705,33.49267],[-114.71679,33.49266],[-114.71653,33.49266],[-114.71627,33.49265],[-114.71601,33.49265],[-114.71575,33.49264],[-114.71548,33.49264],[-114.71523,33.49263],[-114.71498,33.49263],[-114.71473,33.49263],[-114.71449,33.49262],[-114.71425,33.49262],[-114.71402,33.49261],[-114.71379,33.49261],[-114.71357,33.49261],[-114.71336,33.49261],[-114.71314,33.4926],[-114.71293,33.4926],[-114.71273,33.4926],[-114.71252,33.49259],[-114.71231,33.49259],[-114.7121,33.49258],[-114.7119,33.49258],[-114.71169,33.49257],[-114.71149,33.49257],[-114.71129,33.49257],[-114.7111,33.49257],[-114.7109,33.49256],[-114.71072,33.49256],[-114.71053,33.49255],[-114.71035,33.49255],[-114.71018,33.49255],[-114.71002,33.49255],[-114.70987,33.49254],[-114.70973,33.49254],[-114.70961,33.49254],[-114.7095,33.49253],[-114.7094,33.49253],[-114.70932,33.49253],[-114.70925,33.49253],[-114.70919,33.49253],[-114.70914,33.49253],[-114.70875,33.49253],[-114.70874,33.49253],[-114.70872,33.49253]]]}},{"type":"Feature","properties":{"name":"66005: BRADSHAW TRAIL","source":"Bureau of Land Management","source_detail":"BLM GTLF OBJECTID 159390","source_id":"{52A5E4D3-03D2-4931-8C61-577D2B2B7972}","road_class":"transportation_system_-_primitive_road","surface":"natural_improved","vehicle_class":"4wd_low","allowed_mode":"unk","access_restriction":"unknown","seasonal_restriction":"not_listed","gis_miles":1.00104523},"geometry":{"type":"LineString","coordinates":[[-114.79594,33.49066],[-114.79565,33.49066],[-114.79536,33.49068],[-114.79507,33.49075],[-114.79497,33.49077],[-114.79477,33.49082],[-114.79447,33.49089],[-114.79417,33.49093],[-114.79386,33.49091],[-114.79354,33.49087],[-114.79322,33.49084],[-114.79291,33.49085],[-114.79269,33.49093],[-114.79264,33.49095],[-114.79237,33.49104],[-114.79204,33.49108],[-114.7917,33.49106],[-114.79137,33.49101],[-114.79105,33.49094],[-114.79075,33.49086],[-114.79045,33.49075],[-114.79015,33.49066],[-114.78975,33.49055],[-114.78945,33.49048],[-114.78913,33.49044],[-114.78881,33.49042],[-114.7885,33.49042],[-114.78819,33.49039],[-114.78786,33.49033],[-114.78753,33.49026],[-114.78719,33.49019],[-114.78685,33.49016],[-114.78651,33.49016],[-114.78618,33.49018],[-114.78585,33.4902],[-114.78552,33.49022],[-114.78519,33.49025],[-114.78487,33.49026],[-114.78454,33.49027],[-114.78421,33.49027],[-114.78388,33.49027],[-114.78356,33.49026],[-114.78323,33.49026],[-114.7829,33.49026],[-114.78257,33.49026],[-114.78224,33.49026],[-114.78191,33.49027],[-114.78158,33.49026],[-114.78126,33.49025],[-114.78092,33.49024],[-114.78059,33.49021],[-114.78027,33.49018],[-114.77993,33.49014],[-114.77961,33.49011],[-114.77929,33.49007],[-114.77897,33.49003],[-114.77887,33.49003]]}}]}