{"type":"FeatureCollection","features":[{"type":"Feature","properties":{"name":"(unnamed public road)","road_class":"track","source":"OpenStreetMap","source_detail":"osm way 28886487","source_tile":"180/414","surface_inferred":true},"geometry":{"type":"LineString","coordinates":[[-116.67992,32.54461],[-116.67984,32.54478],[-116.6798,32.54494],[-116.67984,32.54502],[-116.67996,32.54531],[-116.67979,32.54611],[-116.67961,32.54649],[-116.67966,32.54716],[-116.67991,32.54766],[-116.67996,32.5478],[-116.68001,32.54798],[-116.68,32.54802],[-116.67996,32.54823],[-116.68004,32.54864],[-116.68009,32.54907],[-116.6802,32.54942],[-116.68033,32.54976],[-116.68033,32.54995],[-116.68032,32.55009],[-116.68028,32.55021],[-116.68024,32.55034],[-116.68021,32.55045],[-116.68021,32.55054],[-116.68019,32.55066],[-116.68019,32.55073],[-116.6802,32.5508],[-116.68024,32.55093],[-116.68027,32.55112],[-116.68032,32.55154],[-116.68037,32.55189],[-116.68047,32.55223],[-116.68056,32.55243],[-116.6806,32.55249],[-116.68061,32.55254],[-116.68061,32.55257],[-116.68059,32.55261],[-116.68057,32.55268],[-116.68056,32.5528],[-116.68056,32.55296],[-116.68058,32.55306],[-116.68061,32.55314],[-116.68065,32.55321],[-116.68068,32.55329],[-116.6807,32.55337],[-116.68069,32.55345],[-116.68067,32.5536],[-116.68068,32.55373],[-116.68071,32.55381],[-116.68074,32.55386],[-116.68089,32.55401],[-116.68098,32.55405],[-116.68105,32.55409],[-116.68108,32.55413],[-116.68111,32.55419],[-116.68115,32.55428],[-116.68126,32.55449],[-116.68136,32.55464],[-116.68139,32.55473],[-116.6814,32.55476],[-116.68139,32.55481],[-116.68136,32.55486],[-116.68135,32.5549],[-116.68136,32.55494],[-116.68137,32.55501],[-116.68135,32.5551],[-116.68129,32.55516],[-116.68121,32.55524],[-116.68107,32.55536],[-116.68093,32.5555],[-116.68093,32.55566]]}}]}