{"type":"FeatureCollection","features":[{"type":"Feature","properties":{"name":"66005: BRADSHAW TRAIL","source":"Bureau of Land Management","source_detail":"BLM GTLF OBJECTID 154714","source_id":"{61F36FA2-9560-4E12-88E2-F8DE84C577BD}","road_class":"transportation_system_-_primitive_road","surface":"natural_improved","vehicle_class":"4wd_low","allowed_mode":"unk","access_restriction":"unknown","seasonal_restriction":"not_listed","gis_miles":22.70963156},"geometry":{"type":"LineString","coordinates":[[-115.56092,33.55419],[-115.56078,33.55404],[-115.56062,33.55382],[-115.56056,33.55357],[-115.56046,33.55333],[-115.56028,33.55314],[-115.56016,33.55292],[-115.55998,33.55269],[-115.55976,33.55248],[-115.55953,33.55227],[-115.55932,33.55207],[-115.55914,33.55183],[-115.55895,33.55158],[-115.55872,33.55135],[-115.55849,33.55114],[-115.55829,33.55093],[-115.55813,33.55069],[-115.55797,33.55045],[-115.55779,33.55023],[-115.5576,33.55],[-115.55743,33.54976],[-115.55729,33.54952],[-115.55714,33.54927],[-115.55697,33.54903],[-115.5568,33.54879],[-115.55663,33.54858],[-115.55642,33.54838],[-115.55622,33.5482],[-115.55602,33.54801],[-115.55581,33.54783],[-115.55556,33.54769],[-115.55528,33.54761],[-115.55504,33.54752],[-115.55483,33.54741],[-115.55461,33.54728],[-115.55439,33.54712],[-115.55418,33.54693],[-115.55398,33.54672],[-115.5538,33.5465],[-115.55364,33.54627],[-115.55347,33.54605],[-115.55329,33.54582],[-115.55309,33.54561],[-115.55289,33.54539],[-115.55268,33.54518],[-115.55248,33.54496],[-115.5523,33.54475],[-115.55213,33.54452],[-115.552,33.54427],[-115.55186,33.54401],[-115.55173,33.54375],[-115.55161,33.54349],[-115.5515,33.54324],[-115.55141,33.543],[-115.55133,33.54277],[-115.55124,33.54253],[-115.55112,33.5423],[-115.55097,33.54207],[-115.55078,33.54185],[-115.55055,33.54165],[-115.55032,33.54145],[-115.55011,33.54125],[-115.5499,33.54104],[-115.54971,33.54083],[-115.54951,33.54063],[-115.54934,33.54043],[-115.54915,33.54022],[-115.54893,33.54002],[-115.54868,33.53983],[-115.54842,33.53965],[-115.54817,33.53946],[-115.54793,33.53931],[-115.54771,33.53918],[-115.54749,33.53906],[-115.54727,33.53894],[-115.54708,33.53884],[-115.54701,33.53879],[-115.54695,33.53876],[-115.54683,33.53869],[-115.54668,33.53858],[-115.5465,33.53845],[-115.54633,33.5383],[-115.54618,33.53814],[-115.54603,33.53798],[-115.54587,33.5378],[-115.54572,33.53762],[-115.54555,33.53743],[-115.54539,33.53725],[-115.54524,33.53706],[-115.54507,33.53685],[-115.54489,33.53665],[-115.54472,33.53649],[-115.54469,33.53646],[-115.5445,33.53628],[-115.54429,33.5361],[-115.54407,33.53593],[-115.54386,33.53576],[-115.54368,33.53562],[-115.54356,33.53549],[-115.54345,33.53536],[-115.54337,33.53521],[-115.54331,33.53506],[-115.54326,33.53489],[-115.54321,33.5347],[-115.54316,33.53449],[-115.54309,33.53429],[-115.54301,33.53408],[-115.5429,33.53388],[-115.54277,33.53369],[-115.5426,33.53354],[-115.54242,33.5334],[-115.54224,33.53325],[-115.54209,33.53308],[-115.54194,33.53292],[-115.54181,33.53275],[-115.54169,33.53257],[-115.54156,33.53238],[-115.54145,33.53217],[-115.54132,33.53197],[-115.54119,33.53175],[-115.54106,33.53155],[-115.54094,33.53135],[-115.54077,33.53119],[-115.54055,33.53107],[-115.54032,33.53097],[-115.54008,33.53087],[-115.53985,33.53075],[-115.53965,33.5306],[-115.53944,33.53044],[-115.53922,33.5303],[-115.53899,33.53018],[-115.53875,33.53007],[-115.53851,33.52995],[-115.53826,33.52982],[-115.53804,33.52968],[-115.53783,33.52952],[-115.53763,33.52936],[-115.53745,33.52918],[-115.53726,33.52902],[-115.53706,33.52887],[-115.53688,33.52871],[-115.53672,33.52854],[-115.53656,33.52835],[-115.53639,33.52818],[-115.5362,33.52801],[-115.536,33.52784],[-115.53581,33.52768],[-115.53561,33.52753],[-115.53539,33.52741],[-115.53516,33.52731],[-115.53492,33.52721],[-115.53468,33.5271],[-115.53445,33.52699],[-115.5342,33.5269],[-115.53392,33.52684],[-115.53364,33.52678],[-115.53337,33.52672],[-115.53309,33.52667],[-115.53284,33.52661],[-115.53259,33.52655],[-115.53234,33.52648],[-115.53209,33.52641],[-115.53183,33.52633],[-115.53157,33.52624],[-115.5313,33.52616],[-115.53102,33.52607],[-115.53076,33.52597],[-115.53051,33.52588],[-115.53025,33.5258],[-115.52999,33.52574],[-115.52974,33.52567],[-115.52947,33.52559],[-115.52919,33.52552],[-115.52891,33.52546],[-115.52863,33.52538],[-115.52836,33.5253],[-115.52809,33.52522],[-115.52781,33.52514],[-115.52753,33.52506],[-115.52725,33.52497],[-115.52698,33.52488],[-115.52671,33.52478],[-115.52645,33.5247],[-115.52618,33.52462],[-115.52592,33.52457],[-115.52564,33.52454],[-115.52537,33.52452],[-115.52508,33.52451],[-115.5248,33.52449],[-115.52452,33.52447],[-115.52423,33.52445],[-115.52394,33.52446],[-115.52366,33.52446],[-115.52337,33.52448],[-115.52306,33.5245],[-115.52276,33.52455],[-115.52245,33.52461],[-115.52216,33.52467],[-115.52186,33.52473],[-115.52156,33.52477],[-115.52126,33.52481],[-115.52094,33.52486],[-115.52064,33.5249],[-115.52033,33.52494],[-115.52003,33.52499],[-115.51973,33.52505],[-115.51942,33.5251],[-115.51912,33.52515],[-115.51882,33.5252],[-115.5185,33.52525],[-115.5182,33.52529],[-115.51791,33.52534],[-115.51762,33.52538],[-115.51733,33.52542],[-115.51705,33.52547],[-115.51676,33.52552],[-115.51647,33.52557],[-115.51617,33.52563],[-115.51587,33.52569],[-115.51557,33.52575],[-115.51527,33.52583],[-115.51498,33.52591],[-115.51469,33.52599],[-115.51442,33.52606],[-115.51415,33.52614],[-115.51388,33.52625],[-115.51363,33.52636],[-115.51335,33.52646],[-115.51304,33.52654],[-115.51275,33.52659],[-115.51246,33.52662],[-115.51219,33.5266],[-115.51192,33.52655],[-115.51162,33.52655],[-115.51134,33.5266],[-115.51106,33.52667],[-115.5108,33.52671],[-115.51051,33.52673],[-115.51022,33.52676],[-115.50992,33.52679],[-115.50963,33.52682],[-115.50933,33.52684],[-115.50904,33.52685],[-115.50875,33.52685],[-115.50845,33.52685],[-115.50817,33.52689],[-115.50789,33.52694],[-115.50759,33.52698],[-115.5073,33.52702],[-115.50701,33.52705],[-115.50672,33.5271],[-115.50644,33.52716],[-115.50615,33.52722],[-115.50586,33.52728],[-115.50555,33.52733],[-115.50524,33.52737],[-115.50494,33.5274],[-115.50464,33.52744],[-115.50435,33.52749],[-115.50406,33.52755],[-115.50378,33.52761],[-115.5035,33.52764],[-115.5032,33.52765],[-115.50289,33.52768],[-115.50257,33.52772],[-115.50225,33.52776],[-115.50194,33.52779],[-115.50161,33.52782],[-115.5013,33.52785],[-115.50099,33.52789],[-115.50068,33.52794],[-115.50037,33.52797],[-115.50006,33.52796],[-115.49975,33.52795],[-115.49943,33.52797],[-115.49912,33.528],[-115.4988,33.52803],[-115.49847,33.52806],[-115.49814,33.52809],[-115.49783,33.52813],[-115.49752,33.52819],[-115.49722,33.52824],[-115.4969,33.52828],[-115.49656,33.5283],[-115.49626,33.52832],[-115.49592,33.52834],[-115.49559,33.52836],[-115.49527,33.52839],[-115.49501,33.52841],[-115.49477,33.5284],[-115.49453,33.52839],[-115.49428,33.52839],[-115.49401,33.52839],[-115.49373,33.52839],[-115.49346,33.5284],[-115.49318,33.52841],[-115.49289,33.52844],[-115.49259,33.52846],[-115.49226,33.52847],[-115.49194,33.52848],[-115.49164,33.52847],[-115.49134,33.52847],[-115.49103,33.52847],[-115.4909,33.52847],[-115.49073,33.52847],[-115.49046,33.52848],[-115.4902,33.52851],[-115.49014,33.52851],[-115.48992,33.52852],[-115.48964,33.52853],[-115.48936,33.52854],[-115.48909,33.52855],[-115.48884,33.52856],[-115.48859,33.52857],[-115.48833,33.52858],[-115.48807,33.52859],[-115.48784,33.52859],[-115.4876,33.52859],[-115.48735,33.52859],[-115.48708,33.52858],[-115.4868,33.5286],[-115.48648,33.52863],[-115.48615,33.52867],[-115.48584,33.5287],[-115.48552,33.52872],[-115.48521,33.52874],[-115.48491,33.52875],[-115.48461,33.52876],[-115.48432,33.52877],[-115.48403,33.52877],[-115.48373,33.52875],[-115.48341,33.52872],[-115.48311,33.52871],[-115.4828,33.52874],[-115.48251,33.52877],[-115.48221,33.52881],[-115.48189,33.52886],[-115.48158,33.5289],[-115.48127,33.52893],[-115.48098,33.52894],[-115.48073,33.52893],[-115.48047,33.52893],[-115.48018,33.52893],[-115.4799,33.52894],[-115.47961,33.52895],[-115.47933,33.52897],[-115.47907,33.52897],[-115.47882,33.52896],[-115.4786,33.52896],[-115.47835,33.52896],[-115.47809,33.52896],[-115.47784,33.52895],[-115.47761,33.52889],[-115.4774,33.52879],[-115.4772,33.5287],[-115.47695,33.52864],[-115.47666,33.52861],[-115.47636,33.5286],[-115.47606,33.5286],[-115.47577,33.52861],[-115.47549,33.52862],[-115.47523,33.52862],[-115.47501,33.52859],[-115.47479,33.52856],[-115.47454,33.52851],[-115.47428,33.52846],[-115.474,33.52839],[-115.47371,33.52833],[-115.47345,33.52828],[-115.47321,33.52823],[-115.47298,33.52819],[-115.47272,33.52814],[-115.47245,33.52811],[-115.47219,33.5281],[-115.47193,33.5281],[-115.47167,33.52809],[-115.4714,33.52809],[-115.47114,33.52808],[-115.47091,33.52806],[-115.47068,33.52803],[-115.47043,33.52799],[-115.47014,33.52795],[-115.46984,33.52794],[-115.46955,33.52794],[-115.46927,33.52794],[-115.469,33.52794],[-115.46876,33.52793],[-115.46853,33.52792],[-115.46829,33.52791],[-115.46804,33.52788],[-115.4678,33.52785],[-115.46755,33.52781],[-115.46728,33.52778],[-115.467,33.52775],[-115.46672,33.52772],[-115.46643,33.5277],[-115.46615,33.52767],[-115.4659,33.52763],[-115.46565,33.52758],[-115.4654,33.52753],[-115.46514,33.52747],[-115.46489,33.52742],[-115.46463,33.52739],[-115.46436,33.52738],[-115.46409,33.52737],[-115.46383,33.52735],[-115.46358,33.5273],[-115.4633,33.52726],[-115.46301,33.52724],[-115.46272,33.52722],[-115.46246,33.5272],[-115.46224,33.52717],[-115.46204,33.52713],[-115.4618,33.52708],[-115.46155,33.52705],[-115.46132,33.52704],[-115.46108,33.52703],[-115.46083,33.52702],[-115.46058,33.52701],[-115.46035,33.52696],[-115.46009,33.5269],[-115.45984,33.52684],[-115.4596,33.52679],[-115.4596,33.52679],[-115.45935,33.52674],[-115.45909,33.52668],[-115.45882,33.52663],[-115.45853,33.52658],[-115.45826,33.52655],[-115.45802,33.52652],[-115.45778,33.52648],[-115.45756,33.52646],[-115.45735,33.52642],[-115.45712,33.52638],[-115.4569,33.52634],[-115.4567,33.5263],[-115.45647,33.52626],[-115.45623,33.52623],[-115.45598,33.5262],[-115.45573,33.52615],[-115.45548,33.5261],[-115.45524,33.52605],[-115.455,33.52601],[-115.45475,33.52598],[-115.45449,33.52594],[-115.45423,33.52589],[-115.45399,33.52586],[-115.45376,33.52591],[-115.45354,33.52598],[-115.45354,33.52598],[-115.4533,33.52602],[-115.45308,33.52601],[-115.45285,33.52596],[-115.45258,33.52589],[-115.45228,33.52579],[-115.45198,33.52568],[-115.45168,33.52557],[-115.4514,33.52547],[-115.45112,33.52537],[-115.45083,33.52527],[-115.45053,33.52518],[-115.45039,33.52515],[-115.45023,33.52511],[-115.44993,33.52503],[-115.44963,33.52494],[-115.44932,33.52483],[-115.44903,33.52472],[-115.44873,33.5246],[-115.44843,33.52448],[-115.4481,33.52437],[-115.44776,33.52429],[-115.44741,33.5242],[-115.44708,33.52411],[-115.44673,33.524],[-115.44639,33.5239],[-115.44607,33.5238],[-115.4458,33.52375],[-115.44553,33.52374],[-115.44523,33.52372],[-115.44495,33.52367],[-115.44471,33.52358],[-115.44447,33.52344],[-115.44419,33.5233],[-115.44387,33.52318],[-115.44356,33.52306],[-115.44329,33.52291],[-115.44303,33.52275],[-115.44277,33.52262],[-115.44256,33.52254],[-115.44238,33.52253],[-115.44216,33.52258],[-115.44194,33.52264],[-115.44173,33.5227],[-115.44152,33.52275],[-115.44132,33.52278],[-115.4411,33.52278],[-115.44085,33.52275],[-115.44059,33.52272],[-115.44032,33.52265],[-115.44006,33.52254],[-115.4398,33.52239],[-115.43956,33.52224],[-115.43931,33.5221],[-115.43904,33.52197],[-115.43878,33.52184],[-115.43852,33.52168],[-115.43826,33.52151],[-115.438,33.52134],[-115.43775,33.52114],[-115.43751,33.52094],[-115.43726,33.52073],[-115.43698,33.52054],[-115.43667,33.52043],[-115.43634,33.5204],[-115.436,33.52039],[-115.43566,33.52034],[-115.43532,33.52024],[-115.435,33.52011],[-115.43469,33.51996],[-115.43466,33.51995],[-115.43439,33.51981],[-115.4341,33.51965],[-115.43381,33.5195],[-115.43351,33.51941],[-115.4332,33.51935],[-115.43289,33.51925],[-115.43258,33.51912],[-115.43224,33.51904],[-115.43189,33.51896],[-115.43155,33.51886],[-115.43121,33.51875],[-115.43089,33.51864],[-115.43059,33.5185],[-115.43031,33.51835],[-115.43004,33.51818],[-115.42976,33.51799],[-115.42945,33.51782],[-115.42914,33.51767],[-115.42887,33.51749],[-115.4286,33.51728],[-115.42832,33.51714],[-115.428,33.51712],[-115.42771,33.51722],[-115.42745,33.51735],[-115.42719,33.51747],[-115.42692,33.51752],[-115.42662,33.51752],[-115.42632,33.5175],[-115.42605,33.51751],[-115.42577,33.51758],[-115.42552,33.51765],[-115.42536,33.51769],[-115.42519,33.51772],[-115.42503,33.51773],[-115.4249,33.51775],[-115.42477,33.51776],[-115.4246,33.51778],[-115.42445,33.51779],[-115.4244,33.51779],[-115.42427,33.51779],[-115.42408,33.51778],[-115.42389,33.51775],[-115.42368,33.51771],[-115.42343,33.51767],[-115.42316,33.51759],[-115.42293,33.51744],[-115.42271,33.51726],[-115.42246,33.51708],[-115.42218,33.5169],[-115.42188,33.51675],[-115.42156,33.51662],[-115.42125,33.51654],[-115.42099,33.51647],[-115.42097,33.51647],[-115.42076,33.51641],[-115.42059,33.51635],[-115.42042,33.51626],[-115.42025,33.51616],[-115.42008,33.51605],[-115.41993,33.51594],[-115.41978,33.51584],[-115.41964,33.51574],[-115.4195,33.51565],[-115.41936,33.51556],[-115.41921,33.51547],[-115.41906,33.51538],[-115.41892,33.5153],[-115.41879,33.51522],[-115.41863,33.51515],[-115.41843,33.51505],[-115.41823,33.51491],[-115.41806,33.51474],[-115.41787,33.51455],[-115.41764,33.51438],[-115.41738,33.51422],[-115.41709,33.51407],[-115.41677,33.51393],[-115.41643,33.51378],[-115.41608,33.51363],[-115.41575,33.51348],[-115.41543,33.5133],[-115.41511,33.51313],[-115.41478,33.51297],[-115.41446,33.5128],[-115.41414,33.51262],[-115.41385,33.51243],[-115.41357,33.51223],[-115.4133,33.51204],[-115.41304,33.51186],[-115.41277,33.51169],[-115.41249,33.51153],[-115.41218,33.51139],[-115.41189,33.51126],[-115.41158,33.51113],[-115.41129,33.511],[-115.411,33.51086],[-115.41072,33.51069],[-115.41045,33.51051],[-115.41017,33.51034],[-115.4099,33.51017],[-115.40964,33.51],[-115.40938,33.50984],[-115.40911,33.50968],[-115.40883,33.50951],[-115.40855,33.50936],[-115.40827,33.5092],[-115.40798,33.50904],[-115.40769,33.50889],[-115.40739,33.50875],[-115.40708,33.50861],[-115.40678,33.50848],[-115.4065,33.50834],[-115.40626,33.50819],[-115.40601,33.50803],[-115.40573,33.50793],[-115.40547,33.50785],[-115.40518,33.50778],[-115.40488,33.50768],[-115.4046,33.50758],[-115.40435,33.50745],[-115.40417,33.5073],[-115.40401,33.50716],[-115.40384,33.50706],[-115.40359,33.50696],[-115.40333,33.50685],[-115.40307,33.50672],[-115.40282,33.50658],[-115.40255,33.50647],[-115.40226,33.50644],[-115.40193,33.50645],[-115.40162,33.50643],[-115.40135,33.50633],[-115.40107,33.5062],[-115.40076,33.50609],[-115.40043,33.50602],[-115.4001,33.50594],[-115.39978,33.50583],[-115.39948,33.50569],[-115.39918,33.50556],[-115.39888,33.50541],[-115.39857,33.50526],[-115.39826,33.50517],[-115.39793,33.50515],[-115.39756,33.50516],[-115.39718,33.50517],[-115.39681,33.50518],[-115.39645,33.50519],[-115.39609,33.5052],[-115.39575,33.5052],[-115.39542,33.50519],[-115.39509,33.50517],[-115.39476,33.50513],[-115.39443,33.50506],[-115.39412,33.50497],[-115.39381,33.5049],[-115.39351,33.50484],[-115.39329,33.50471],[-115.39318,33.50453],[-115.39308,33.50435],[-115.3929,33.50414],[-115.39264,33.50395],[-115.39236,33.50383],[-115.39212,33.50372],[-115.39194,33.50358],[-115.39179,33.5034],[-115.39163,33.50321],[-115.39145,33.50306],[-115.39122,33.50298],[-115.39093,33.50294],[-115.39062,33.50293],[-115.3903,33.50293],[-115.38997,33.50291],[-115.38964,33.50287],[-115.38932,33.50284],[-115.38899,33.50287],[-115.38867,33.50291],[-115.38835,33.50292],[-115.38803,33.50286],[-115.38772,33.50277],[-115.38738,33.50267],[-115.38704,33.50257],[-115.3867,33.50248],[-115.3864,33.50237],[-115.38615,33.50223],[-115.38592,33.50205],[-115.3857,33.50186],[-115.38547,33.50168],[-115.38524,33.50151],[-115.38499,33.50135],[-115.38473,33.50127],[-115.38445,33.50121],[-115.38414,33.50117],[-115.38382,33.50115],[-115.38348,33.50113],[-115.38314,33.5011],[-115.38281,33.50104],[-115.38251,33.50099],[-115.3822,33.50097],[-115.38192,33.50102],[-115.38165,33.50112],[-115.38134,33.50121],[-115.38102,33.50125],[-115.38076,33.50122],[-115.38059,33.50109],[-115.38052,33.5009],[-115.38045,33.50068],[-115.38034,33.50046],[-115.38019,33.50028],[-115.38017,33.50026],[-115.38,33.50015],[-115.37979,33.50003],[-115.37958,33.49994],[-115.37939,33.49985],[-115.3792,33.49976],[-115.37901,33.49966],[-115.37878,33.49956],[-115.37853,33.49947],[-115.37825,33.49943],[-115.37793,33.4994],[-115.37763,33.49937],[-115.37735,33.49935],[-115.37709,33.49932],[-115.37684,33.49931],[-115.3766,33.4993],[-115.37635,33.49931],[-115.37608,33.49934],[-115.3758,33.49938],[-115.37552,33.49941],[-115.37524,33.49943],[-115.37498,33.49943],[-115.37471,33.4994],[-115.37446,33.49935],[-115.37422,33.49928],[-115.37398,33.49919],[-115.37371,33.49909],[-115.37344,33.499],[-115.37318,33.49893],[-115.37291,33.49886],[-115.37263,33.4988],[-115.37232,33.49876],[-115.372,33.49874],[-115.37167,33.49872],[-115.37134,33.49872],[-115.37101,33.49871],[-115.3707,33.4987],[-115.37043,33.49867],[-115.37021,33.49857],[-115.37003,33.49843],[-115.36985,33.49833],[-115.36963,33.49828],[-115.36938,33.49828],[-115.36909,33.49829],[-115.36879,33.49833],[-115.36849,33.49838],[-115.36818,33.49843],[-115.36788,33.4985],[-115.3676,33.49858],[-115.36733,33.49868],[-115.36703,33.49876],[-115.36672,33.49881],[-115.36642,33.49882],[-115.36612,33.49885],[-115.36584,33.4989],[-115.36568,33.49894],[-115.36557,33.49897],[-115.36529,33.49905],[-115.36501,33.49913],[-115.36472,33.49918],[-115.36443,33.4992],[-115.36413,33.4992],[-115.36383,33.49923],[-115.36353,33.49926],[-115.36322,33.4993],[-115.36294,33.49933],[-115.36269,33.49934],[-115.36244,33.49936],[-115.36218,33.49937],[-115.36191,33.49937],[-115.36165,33.49938],[-115.36141,33.4994],[-115.36126,33.49941],[-115.36121,33.49942],[-115.36101,33.49943],[-115.36078,33.49943],[-115.36053,33.49943],[-115.36027,33.4994],[-115.36001,33.49936],[-115.35973,33.4993],[-115.35943,33.49925],[-115.35912,33.4992],[-115.35879,33.49916],[-115.35847,33.49912],[-115.35816,33.49908],[-115.35787,33.49902],[-115.35757,33.49896],[-115.35729,33.49889],[-115.35701,33.49879],[-115.35674,33.49869],[-115.35647,33.49858],[-115.35622,33.49847],[-115.356,33.49838],[-115.35578,33.49832],[-115.35556,33.49825],[-115.35532,33.49814],[-115.35508,33.49803],[-115.35486,33.49792],[-115.35465,33.49779],[-115.35442,33.4977],[-115.35415,33.49766],[-115.35386,33.49767],[-115.35358,33.49768],[-115.35332,33.49767],[-115.35308,33.49764],[-115.35285,33.49759],[-115.35258,33.49752],[-115.35229,33.49745],[-115.35199,33.49737],[-115.3517,33.4973],[-115.3514,33.49721],[-115.35109,33.49713],[-115.35078,33.49706],[-115.35046,33.49699],[-115.35013,33.49692],[-115.34979,33.49684],[-115.34946,33.49677],[-115.34914,33.4967],[-115.34884,33.49663],[-115.34855,33.49655],[-115.34828,33.49646],[-115.34801,33.49637],[-115.34772,33.49628],[-115.34743,33.49621],[-115.34714,33.49615],[-115.34684,33.49606],[-115.34656,33.49594],[-115.34633,33.4958],[-115.34614,33.49568],[-115.34594,33.49561],[-115.3457,33.49557],[-115.34545,33.49553],[-115.3452,33.49547],[-115.34498,33.49539],[-115.3448,33.49532],[-115.34464,33.49524],[-115.3445,33.49515],[-115.34437,33.49503],[-115.3442,33.49491],[-115.34396,33.49479],[-115.34368,33.49471],[-115.34337,33.49464],[-115.34308,33.49459],[-115.34278,33.49454],[-115.34247,33.49449],[-115.34215,33.49445],[-115.34183,33.49441],[-115.34149,33.49438],[-115.34113,33.49435],[-115.34078,33.49432],[-115.34045,33.49431],[-115.34014,33.49431],[-115.33985,33.4943],[-115.33961,33.49423],[-115.33953,33.49419],[-115.33939,33.49412],[-115.33911,33.49403],[-115.3388,33.49396],[-115.33848,33.49389],[-115.33817,33.49384],[-115.33786,33.49379],[-115.33757,33.49372],[-115.3373,33.49362],[-115.33701,33.49355],[-115.33671,33.49355],[-115.33643,33.49355],[-115.33618,33.49351],[-115.33599,33.49337],[-115.33581,33.4932],[-115.33563,33.49302],[-115.33541,33.49287],[-115.33512,33.49278],[-115.33481,33.49271],[-115.33447,33.49263],[-115.33413,33.49257],[-115.33377,33.49254],[-115.33341,33.49254],[-115.33306,33.4925],[-115.33274,33.49241],[-115.3324,33.49229],[-115.33207,33.49217],[-115.33174,33.49207],[-115.33139,33.49205],[-115.33105,33.4921],[-115.33071,33.49212],[-115.33037,33.49212],[-115.33031,33.49213],[-115.33003,33.49218],[-115.3297,33.4923],[-115.32934,33.49241],[-115.32902,33.4925],[-115.32881,33.4925],[-115.3287,33.4925],[-115.32846,33.49237],[-115.32838,33.49215],[-115.32832,33.4919],[-115.32819,33.49168],[-115.32798,33.49152],[-115.32773,33.49136],[-115.32745,33.49118],[-115.32716,33.49103],[-115.32691,33.49084],[-115.32668,33.49066],[-115.3264,33.49049],[-115.32614,33.49032],[-115.32588,33.49017],[-115.3256,33.49003],[-115.32531,33.48988],[-115.32504,33.48972],[-115.32478,33.48957],[-115.32449,33.48946],[-115.32418,33.4894],[-115.32384,33.48935],[-115.32353,33.48928],[-115.32325,33.4892],[-115.323,33.48911],[-115.32277,33.48901],[-115.32253,33.4889],[-115.32227,33.48878],[-115.32198,33.48867],[-115.32166,33.48858],[-115.32132,33.48851],[-115.32096,33.48845],[-115.32059,33.48842],[-115.32021,33.48839],[-115.31984,33.48834],[-115.31948,33.48827],[-115.31915,33.48819],[-115.31884,33.48809],[-115.31856,33.48797],[-115.31829,33.48782],[-115.31803,33.48767],[-115.31776,33.48757],[-115.31749,33.48748],[-115.31726,33.48741],[-115.31705,33.48732],[-115.31685,33.48723],[-115.31664,33.48715],[-115.31642,33.48707],[-115.3162,33.48698],[-115.31599,33.48686],[-115.3158,33.48674],[-115.31561,33.48663],[-115.31539,33.48654],[-115.31515,33.48644],[-115.31493,33.48634],[-115.31472,33.48625],[-115.31454,33.48616],[-115.31437,33.48607],[-115.31421,33.48599],[-115.31416,33.48597],[-115.31406,33.48592],[-115.31393,33.48585],[-115.31378,33.48576],[-115.31364,33.48567],[-115.3135,33.48558],[-115.31334,33.48549],[-115.3132,33.48538],[-115.31307,33.48529],[-115.31297,33.48521],[-115.31287,33.48514],[-115.31275,33.48505],[-115.31262,33.48496],[-115.31247,33.48488],[-115.3123,33.48481],[-115.31211,33.48472],[-115.31191,33.48461],[-115.31172,33.48452],[-115.31154,33.48441],[-115.31138,33.48428],[-115.3112,33.48415],[-115.31099,33.48398],[-115.31074,33.48384],[-115.31047,33.48372],[-115.31018,33.4836],[-115.30987,33.48348],[-115.30956,33.48336],[-115.30928,33.48322],[-115.30902,33.48309],[-115.30879,33.48294],[-115.30858,33.48278],[-115.30838,33.48261],[-115.3082,33.48245],[-115.30801,33.48229],[-115.30781,33.48214],[-115.30759,33.482],[-115.30739,33.48188],[-115.30721,33.48174],[-115.30703,33.4816],[-115.30681,33.48143],[-115.30657,33.48128],[-115.30633,33.48113],[-115.30612,33.48098],[-115.30589,33.48084],[-115.30562,33.48074],[-115.30532,33.48067],[-115.305,33.48059],[-115.3047,33.4805],[-115.30441,33.48039],[-115.30415,33.48025],[-115.30389,33.4801],[-115.30364,33.47995],[-115.30338,33.4798],[-115.30311,33.47966],[-115.30282,33.47951],[-115.30257,33.47931],[-115.30233,33.4791],[-115.3021,33.47892],[-115.30185,33.47877],[-115.30161,33.47863],[-115.30138,33.4785],[-115.30113,33.47835],[-115.30089,33.4782],[-115.30066,33.47803],[-115.30043,33.47786],[-115.30024,33.47767],[-115.30001,33.4775],[-115.29975,33.47736],[-115.29949,33.47723],[-115.29921,33.47711],[-115.29895,33.47696],[-115.29873,33.47678],[-115.29853,33.47657],[-115.29835,33.47636],[-115.29818,33.47617],[-115.29796,33.476],[-115.29772,33.47588],[-115.29747,33.47577],[-115.29722,33.47566],[-115.29697,33.47555],[-115.29673,33.47545],[-115.29649,33.47535],[-115.29624,33.47526],[-115.29599,33.47519],[-115.29575,33.47512],[-115.29552,33.47504],[-115.29533,33.47494],[-115.29516,33.4748],[-115.29496,33.47465],[-115.29474,33.4745],[-115.29448,33.47435],[-115.29423,33.47418],[-115.294,33.474],[-115.29378,33.47381],[-115.29355,33.47367],[-115.29334,33.47355],[-115.29313,33.47343],[-115.29295,33.4733],[-115.29278,33.47316],[-115.29261,33.47302],[-115.29245,33.47288],[-115.2923,33.47273],[-115.29213,33.47258],[-115.29195,33.47241],[-115.29174,33.47224],[-115.29151,33.47207],[-115.29127,33.47189],[-115.29103,33.47172],[-115.29088,33.47161],[-115.29078,33.47154],[-115.29055,33.47137],[-115.29031,33.47119],[-115.29007,33.471],[-115.28989,33.47085],[-115.28981,33.4708],[-115.28957,33.47061],[-115.28934,33.47042],[-115.28911,33.47023],[-115.2889,33.47003],[-115.2887,33.46983],[-115.28849,33.46963],[-115.28828,33.46945],[-115.28804,33.46928],[-115.28775,33.46912],[-115.28743,33.46895],[-115.2871,33.46879],[-115.28678,33.46863],[-115.28647,33.46846],[-115.28617,33.46831],[-115.2859,33.46815],[-115.28565,33.46796],[-115.28543,33.46776],[-115.28523,33.46757],[-115.28505,33.46738],[-115.28486,33.4672],[-115.28463,33.46702],[-115.28438,33.46681],[-115.28413,33.46661],[-115.28389,33.46639],[-115.28368,33.46618],[-115.28346,33.46595],[-115.28325,33.46572],[-115.28303,33.46549],[-115.28281,33.46528],[-115.28255,33.46508],[-115.2823,33.4649],[-115.28209,33.46471],[-115.28189,33.4645],[-115.28172,33.46429],[-115.28158,33.46406],[-115.28144,33.46382],[-115.28129,33.46359],[-115.28111,33.46337],[-115.28089,33.46313],[-115.28064,33.46292],[-115.28041,33.46269],[-115.28021,33.46243],[-115.28003,33.4622],[-115.27984,33.46199],[-115.27961,33.46179],[-115.27933,33.46161],[-115.27906,33.46143],[-115.27879,33.46123],[-115.27857,33.46102],[-115.27844,33.46081],[-115.27826,33.46061],[-115.278,33.46044],[-115.27773,33.46027],[-115.27749,33.46007],[-115.27727,33.45986],[-115.27705,33.45965],[-115.27685,33.45944],[-115.27665,33.45922],[-115.27644,33.459],[-115.27624,33.45875],[-115.27605,33.45849],[-115.27588,33.45822],[-115.27572,33.45795],[-115.27553,33.45771],[-115.27527,33.45751],[-115.27498,33.45735],[-115.2747,33.45718],[-115.27442,33.45699],[-115.27414,33.45678],[-115.27386,33.45657],[-115.27359,33.45637],[-115.27332,33.45615],[-115.27303,33.45595],[-115.27273,33.45577],[-115.27244,33.45556],[-115.27219,33.45533],[-115.27196,33.45508],[-115.27174,33.45482],[-115.27151,33.45455],[-115.27128,33.4543],[-115.27105,33.45403],[-115.27082,33.45378],[-115.27055,33.45357],[-115.27027,33.45335],[-115.27003,33.45312],[-115.26983,33.45285],[-115.26968,33.45257],[-115.26954,33.45229],[-115.26941,33.45203],[-115.26927,33.45181],[-115.26911,33.45157],[-115.26897,33.45133],[-115.26887,33.45108],[-115.26884,33.45081],[-115.26888,33.45059],[-115.2689,33.45043],[-115.26886,33.45027],[-115.2688,33.45014],[-115.26872,33.44999],[-115.26868,33.44984],[-115.26865,33.44971],[-115.26866,33.44959],[-115.26871,33.44945],[-115.26879,33.44926],[-115.26888,33.44902],[-115.26897,33.44876],[-115.26901,33.44849],[-115.26904,33.44825],[-115.26906,33.44803],[-115.26908,33.44781],[-115.26912,33.44757],[-115.26918,33.44733],[-115.2692,33.44711],[-115.26912,33.4469],[-115.26892,33.44672],[-115.2687,33.44652],[-115.26852,33.4463],[-115.26836,33.44606],[-115.26816,33.44584],[-115.26793,33.44563],[-115.26773,33.44541],[-115.26755,33.44518],[-115.26735,33.44493],[-115.26715,33.4447],[-115.26692,33.44451],[-115.26669,33.44436],[-115.26648,33.44423],[-115.26627,33.44409],[-115.26608,33.44391],[-115.2659,33.44374],[-115.26575,33.44361],[-115.26561,33.44351],[-115.26546,33.44344],[-115.26529,33.44338],[-115.26511,33.44333],[-115.26491,33.44328],[-115.26472,33.44323],[-115.26456,33.44318],[-115.26439,33.44314],[-115.26424,33.44311],[-115.2641,33.44307],[-115.26395,33.44304],[-115.26379,33.443],[-115.26364,33.44297],[-115.26348,33.44293],[-115.26332,33.4429],[-115.26315,33.44288],[-115.26297,33.44284],[-115.26281,33.44281],[-115.26267,33.44277],[-115.26253,33.44273],[-115.2624,33.44269],[-115.26228,33.44265],[-115.26214,33.44259],[-115.262,33.44251],[-115.26187,33.44241],[-115.26173,33.44231],[-115.2616,33.44221],[-115.26144,33.44212],[-115.26127,33.44202],[-115.2611,33.44192],[-115.26094,33.44183],[-115.26078,33.44172],[-115.26063,33.44161],[-115.26049,33.44151],[-115.26035,33.44139],[-115.26022,33.44127],[-115.26007,33.44116],[-115.25992,33.44104],[-115.25977,33.44093],[-115.25961,33.44082],[-115.25944,33.44072],[-115.25926,33.44063],[-115.25908,33.44055],[-115.25889,33.44048],[-115.2587,33.44041],[-115.2585,33.44033],[-115.2583,33.44024],[-115.25809,33.44014],[-115.2579,33.44005],[-115.25772,33.43995],[-115.25757,33.43987],[-115.25741,33.43977],[-115.25724,33.43968],[-115.25706,33.43957],[-115.25688,33.43946],[-115.25671,33.43934],[-115.25657,33.4392],[-115.25641,33.43906],[-115.25623,33.43893],[-115.25603,33.43881],[-115.25587,33.43869],[-115.25573,33.43853],[-115.25561,33.43837],[-115.2555,33.43823],[-115.25539,33.4381],[-115.25527,33.43799],[-115.25515,33.43787],[-115.25501,33.43776],[-115.25486,33.43766],[-115.25468,33.43756],[-115.25447,33.43745],[-115.25426,33.43733],[-115.25405,33.43721],[-115.25387,33.4371],[-115.25375,33.43699],[-115.25367,33.43692],[-115.25359,33.43681],[-115.25348,33.43668],[-115.25337,33.43653],[-115.25324,33.4364],[-115.25311,33.43625],[-115.25299,33.43612],[-115.25287,33.436],[-115.25274,33.43588],[-115.25261,33.43575],[-115.25247,33.43562],[-115.2523,33.4355],[-115.25212,33.43538],[-115.25194,33.43526],[-115.25175,33.4351],[-115.25154,33.43495],[-115.25133,33.43479],[-115.25112,33.43461],[-115.25093,33.43442],[-115.25074,33.43423],[-115.25054,33.43405],[-115.25033,33.43389],[-115.25012,33.43375],[-115.2499,33.43363],[-115.24967,33.43355],[-115.24945,33.43347],[-115.24924,33.43338],[-115.24902,33.43329],[-115.24879,33.43318],[-115.24856,33.43308],[-115.24833,33.433],[-115.2481,33.43293],[-115.24791,33.43286],[-115.24772,33.4328],[-115.2475,33.43269],[-115.24725,33.43258],[-115.247,33.43246],[-115.24674,33.43234],[-115.24648,33.43222],[-115.24624,33.43211],[-115.24604,33.432],[-115.24584,33.43188],[-115.24562,33.43175],[-115.24539,33.43164],[-115.24516,33.43155],[-115.24494,33.43143],[-115.24475,33.43133],[-115.2446,33.43124],[-115.24446,33.43116],[-115.24431,33.43104],[-115.24419,33.43088],[-115.24412,33.4307],[-115.24405,33.43052],[-115.24396,33.43035],[-115.24384,33.43022],[-115.24369,33.43011],[-115.24351,33.43002],[-115.24329,33.42992],[-115.24306,33.42984],[-115.24286,33.42975],[-115.24273,33.42966],[-115.24263,33.42956],[-115.24252,33.42945],[-115.24238,33.42935],[-115.24221,33.4293],[-115.24203,33.42928],[-115.24182,33.42928],[-115.24161,33.42927],[-115.24139,33.42925],[-115.24119,33.42924],[-115.24102,33.42923],[-115.24083,33.42924],[-115.24072,33.42927],[-115.24063,33.42928],[-115.24046,33.42934],[-115.24032,33.4294],[-115.24018,33.42949],[-115.24001,33.4296],[-115.23982,33.42972],[-115.23964,33.42984],[-115.23945,33.42995],[-115.23924,33.43006],[-115.23903,33.43018],[-115.23882,33.4303],[-115.2386,33.43045],[-115.23836,33.4306],[-115.23812,33.43077],[-115.23789,33.43094],[-115.23767,33.43111],[-115.23745,33.43128],[-115.23723,33.43143],[-115.23703,33.43158],[-115.23685,33.43174],[-115.23666,33.43191],[-115.23647,33.43211],[-115.23627,33.43231],[-115.23607,33.43251],[-115.23588,33.4327],[-115.2357,33.43286],[-115.23554,33.43301],[-115.23538,33.43316],[-115.23521,33.4333],[-115.23509,33.43339],[-115.23498,33.43347],[-115.23483,33.43355],[-115.23466,33.43365],[-115.23446,33.43373],[-115.23423,33.43381],[-115.23397,33.43388],[-115.23368,33.43394],[-115.23339,33.43401],[-115.2333,33.43402]]}},{"type":"Feature","properties":{"name":"66005: BRADSHAW TRAIL","source":"Bureau of Land Management","source_detail":"BLM GTLF OBJECTID 156678","source_id":"{FDF7C975-2C6E-452B-BD30-8597517F632B}","road_class":"transportation_system_-_primitive_road","surface":"natural_improved","vehicle_class":"4wd_low","allowed_mode":"unk","access_restriction":"unknown","seasonal_restriction":"not_listed","gis_miles":16.97177597},"geometry":{"type":"LineString","coordinates":[[-115.06202,33.42869],[-115.06186,33.42871],[-115.06151,33.42876],[-115.06117,33.4288],[-115.06082,33.42883],[-115.06048,33.42886],[-115.06014,33.42889],[-115.05981,33.42892],[-115.05948,33.42895],[-115.05914,33.42898],[-115.05881,33.42901],[-115.05848,33.42903],[-115.05816,33.42906],[-115.05786,33.4291],[-115.05757,33.42915],[-115.05729,33.42921],[-115.05702,33.42925],[-115.05673,33.42929],[-115.05642,33.42935],[-115.0561,33.42943],[-115.05578,33.42951],[-115.05546,33.42961],[-115.05515,33.42972],[-115.05486,33.42983],[-115.05457,33.42994],[-115.05429,33.43003],[-115.05399,33.43011],[-115.05369,33.43018],[-115.0534,33.43023],[-115.05313,33.43025],[-115.05285,33.43025],[-115.05255,33.43026],[-115.05229,33.43031],[-115.05206,33.4304],[-115.05183,33.43053],[-115.05159,33.43066],[-115.05131,33.43077],[-115.05103,33.43089],[-115.05075,33.43104],[-115.05046,33.43119],[-115.05017,33.43134],[-115.04985,33.43149],[-115.04954,33.43164],[-115.04923,33.43177],[-115.04893,33.4319],[-115.04866,33.43202],[-115.04841,33.43217],[-115.04814,33.43233],[-115.04787,33.43249],[-115.04758,33.43263],[-115.04729,33.43276],[-115.04697,33.43289],[-115.04665,33.43303],[-115.04631,33.43316],[-115.04598,33.4333],[-115.04564,33.43344],[-115.04531,33.43359],[-115.04499,33.43374],[-115.04468,33.43387],[-115.04435,33.434],[-115.04401,33.43411],[-115.04368,33.43422],[-115.04335,33.43433],[-115.04302,33.43446],[-115.04268,33.4346],[-115.04235,33.43475],[-115.04202,33.43491],[-115.0417,33.43507],[-115.04136,33.43521],[-115.04101,33.43535],[-115.04068,33.43547],[-115.04034,33.43551],[-115.04,33.4355],[-115.03967,33.43556],[-115.03934,33.43566],[-115.03902,33.43576],[-115.0387,33.43587],[-115.03839,33.43599],[-115.03808,33.4361],[-115.03777,33.43622],[-115.03746,33.43635],[-115.03717,33.4365],[-115.03687,33.43662],[-115.03657,33.43669],[-115.03626,33.43676],[-115.03595,33.43685],[-115.03565,33.43694],[-115.03535,33.43703],[-115.03503,33.43713],[-115.03475,33.43723],[-115.0347,33.43724],[-115.03434,33.43736],[-115.03399,33.43748],[-115.03365,33.43762],[-115.03333,33.43778],[-115.03301,33.43794],[-115.0327,33.4381],[-115.03239,33.43826],[-115.03208,33.43841],[-115.03176,33.43857],[-115.03143,33.43871],[-115.0311,33.43883],[-115.03076,33.43894],[-115.03042,33.43903],[-115.03009,33.43911],[-115.02975,33.43922],[-115.02943,33.43937],[-115.0291,33.43954],[-115.02875,33.4397],[-115.02841,33.43986],[-115.02808,33.44003],[-115.02776,33.44022],[-115.02747,33.4404],[-115.02718,33.44059],[-115.02689,33.44078],[-115.0266,33.44095],[-115.02628,33.44112],[-115.02596,33.44127],[-115.02563,33.4414],[-115.0253,33.44152],[-115.02495,33.44165],[-115.02459,33.44177],[-115.02422,33.44186],[-115.02386,33.44193],[-115.02349,33.442],[-115.02314,33.44209],[-115.02278,33.44221],[-115.02244,33.44233],[-115.02211,33.44248],[-115.02178,33.44264],[-115.02145,33.44279],[-115.02111,33.44291],[-115.02075,33.44303],[-115.02042,33.44316],[-115.0201,33.44329],[-115.01977,33.44341],[-115.01943,33.44349],[-115.01908,33.4435],[-115.01872,33.44345],[-115.0184,33.44339],[-115.01808,33.44337],[-115.01778,33.44344],[-115.01747,33.44355],[-115.01716,33.44369],[-115.01683,33.44385],[-115.01652,33.44401],[-115.0162,33.44417],[-115.01587,33.44435],[-115.01555,33.44452],[-115.01525,33.44469],[-115.01495,33.44487],[-115.01466,33.44506],[-115.01436,33.44523],[-115.01404,33.44538],[-115.01369,33.44548],[-115.01332,33.44555],[-115.01295,33.4456],[-115.01259,33.44572],[-115.01226,33.44591],[-115.01196,33.44611],[-115.01164,33.44631],[-115.01132,33.44651],[-115.01102,33.44672],[-115.01073,33.44693],[-115.01044,33.44715],[-115.01015,33.44737],[-115.00986,33.44759],[-115.00958,33.44782],[-115.00931,33.44804],[-115.00906,33.44827],[-115.00883,33.44849],[-115.00859,33.44872],[-115.00833,33.44894],[-115.00806,33.44917],[-115.00776,33.44939],[-115.00745,33.44962],[-115.00715,33.44986],[-115.00689,33.45009],[-115.00665,33.45033],[-115.00645,33.45059],[-115.00626,33.45086],[-115.00606,33.45112],[-115.0058,33.45134],[-115.0055,33.45153],[-115.00517,33.45167],[-115.00483,33.45178],[-115.00448,33.45189],[-115.00414,33.45201],[-115.0038,33.45214],[-115.00347,33.45228],[-115.00314,33.45242],[-115.0028,33.45255],[-115.00246,33.45267],[-115.00212,33.45279],[-115.00177,33.4529],[-115.00142,33.453],[-115.00107,33.4531],[-115.00072,33.4532],[-115.00037,33.4533],[-115.00002,33.4534],[-114.99967,33.4535],[-114.99932,33.4536],[-114.99896,33.45368],[-114.9986,33.45374],[-114.99823,33.45378],[-114.99786,33.45382],[-114.9975,33.45387],[-114.99713,33.45391],[-114.99677,33.45396],[-114.9964,33.45402],[-114.99604,33.45408],[-114.99569,33.45417],[-114.99535,33.4543],[-114.99502,33.45444],[-114.99468,33.45456],[-114.99434,33.45468],[-114.99401,33.45482],[-114.99368,33.45497],[-114.99335,33.4551],[-114.99301,33.45522],[-114.99266,33.45534],[-114.99231,33.45545],[-114.99193,33.45552],[-114.99159,33.45557],[-114.99124,33.45569],[-114.99092,33.45586],[-114.99062,33.45603],[-114.99032,33.45622],[-114.99003,33.45641],[-114.98973,33.4566],[-114.98944,33.45679],[-114.98915,33.45698],[-114.98885,33.45716],[-114.98854,33.45733],[-114.98822,33.45748],[-114.98788,33.45761],[-114.98754,33.45772],[-114.98718,33.45782],[-114.98682,33.45788],[-114.98646,33.45794],[-114.98612,33.45807],[-114.98583,33.45827],[-114.98554,33.45846],[-114.98525,33.45865],[-114.98496,33.45884],[-114.98466,33.45903],[-114.98437,33.45921],[-114.98406,33.45938],[-114.98372,33.45952],[-114.98337,33.45962],[-114.98301,33.45969],[-114.98265,33.45975],[-114.98228,33.4598],[-114.98192,33.45985],[-114.98155,33.4599],[-114.98119,33.45996],[-114.98083,33.46003],[-114.98047,33.46012],[-114.98012,33.46021],[-114.97977,33.46032],[-114.97943,33.46043],[-114.97909,33.46055],[-114.97874,33.46066],[-114.9784,33.46078],[-114.97805,33.46088],[-114.9777,33.46097],[-114.97734,33.46107],[-114.97699,33.46116],[-114.97664,33.46125],[-114.97629,33.46135],[-114.97593,33.46144],[-114.97558,33.46152],[-114.97522,33.4616],[-114.97486,33.46169],[-114.9745,33.46177],[-114.97415,33.46186],[-114.9738,33.46195],[-114.97344,33.46204],[-114.97309,33.46213],[-114.97273,33.46223],[-114.97238,33.46232],[-114.97203,33.46243],[-114.97169,33.46254],[-114.97134,33.46265],[-114.971,33.46277],[-114.97066,33.46289],[-114.97031,33.463],[-114.96996,33.4631],[-114.96961,33.46319],[-114.96926,33.46329],[-114.96891,33.4634],[-114.96857,33.46352],[-114.96824,33.46366],[-114.96791,33.46381],[-114.9676,33.46397],[-114.96729,33.46415],[-114.96699,33.46432],[-114.96668,33.4645],[-114.96638,33.46468],[-114.96608,33.46485],[-114.96577,33.46503],[-114.96547,33.46522],[-114.96517,33.4654],[-114.96489,33.46559],[-114.96466,33.46584],[-114.96452,33.46613],[-114.96442,33.46642],[-114.96432,33.46672],[-114.96421,33.46701],[-114.96409,33.4673],[-114.96395,33.46758],[-114.96395,33.46759],[-114.96376,33.46782],[-114.96355,33.468],[-114.96333,33.46816],[-114.96312,33.46833],[-114.96291,33.46848],[-114.9627,33.46864],[-114.96246,33.46878],[-114.96219,33.46889],[-114.96191,33.46897],[-114.96163,33.46903],[-114.96135,33.46909],[-114.96106,33.46917],[-114.96079,33.46926],[-114.96052,33.46938],[-114.96027,33.46951],[-114.96001,33.46964],[-114.95975,33.46977],[-114.95949,33.46988],[-114.95924,33.46998],[-114.95898,33.47008],[-114.95873,33.47017],[-114.95848,33.47027],[-114.95824,33.47038],[-114.95799,33.47049],[-114.95776,33.47062],[-114.95752,33.47075],[-114.95728,33.4709],[-114.95702,33.47105],[-114.95675,33.4712],[-114.9565,33.47133],[-114.95625,33.47144],[-114.95597,33.47152],[-114.95566,33.47158],[-114.95533,33.47161],[-114.95499,33.47164],[-114.95465,33.47166],[-114.9543,33.4717],[-114.95395,33.47175],[-114.9536,33.47182],[-114.95326,33.47189],[-114.95294,33.47196],[-114.95263,33.47202],[-114.95234,33.47209],[-114.95205,33.47215],[-114.95176,33.47222],[-114.95149,33.47231],[-114.95124,33.47242],[-114.95099,33.47253],[-114.95074,33.47262],[-114.9505,33.47268],[-114.95044,33.4727],[-114.95025,33.47275],[-114.94999,33.47285],[-114.94972,33.47296],[-114.94945,33.47305],[-114.94918,33.4731],[-114.9489,33.47312],[-114.94863,33.47312],[-114.94837,33.47316],[-114.94811,33.47325],[-114.94785,33.47339],[-114.94762,33.47355],[-114.94739,33.47371],[-114.94718,33.4739],[-114.94698,33.4741],[-114.94678,33.4743],[-114.94657,33.4745],[-114.94637,33.47471],[-114.9462,33.47492],[-114.94604,33.47512],[-114.94587,33.4753],[-114.94567,33.47546],[-114.94546,33.47561],[-114.94523,33.47576],[-114.945,33.47593],[-114.94475,33.47611],[-114.94448,33.47626],[-114.94417,33.47639],[-114.94382,33.47652],[-114.94347,33.47664],[-114.9431,33.47674],[-114.94273,33.47683],[-114.94235,33.47691],[-114.94197,33.47699],[-114.9416,33.47708],[-114.94123,33.47718],[-114.94085,33.47727],[-114.94048,33.47736],[-114.94011,33.47747],[-114.93974,33.47758],[-114.93938,33.47768],[-114.93901,33.4778],[-114.93865,33.47792],[-114.93829,33.47804],[-114.93792,33.47815],[-114.93756,33.47826],[-114.93719,33.47838],[-114.93682,33.47849],[-114.93645,33.47859],[-114.93609,33.47871],[-114.93572,33.47882],[-114.93535,33.47891],[-114.93498,33.479],[-114.9346,33.47909],[-114.93423,33.47919],[-114.93387,33.47931],[-114.93351,33.47943],[-114.93315,33.47955],[-114.93279,33.47967],[-114.93243,33.47981],[-114.93207,33.47993],[-114.93169,33.48002],[-114.93132,33.4801],[-114.93094,33.48019],[-114.93057,33.48029],[-114.9302,33.48039],[-114.92983,33.48049],[-114.92946,33.48059],[-114.92908,33.48067],[-114.92871,33.48073],[-114.92832,33.48078],[-114.92794,33.48084],[-114.92756,33.48091],[-114.92718,33.48098],[-114.9268,33.48106],[-114.92642,33.48114],[-114.92605,33.48123],[-114.92567,33.48133],[-114.92533,33.48141],[-114.9253,33.48141],[-114.92495,33.48148],[-114.92467,33.4815],[-114.92441,33.48149],[-114.92416,33.48156],[-114.92392,33.48165],[-114.92366,33.48173],[-114.92339,33.48179],[-114.92313,33.48187],[-114.92287,33.48194],[-114.9226,33.482],[-114.92233,33.48206],[-114.92206,33.48213],[-114.92177,33.48219],[-114.92146,33.48225],[-114.92114,33.48232],[-114.92082,33.48238],[-114.92051,33.48245],[-114.9202,33.48252],[-114.91988,33.48259],[-114.91954,33.48264],[-114.9192,33.48268],[-114.91886,33.48272],[-114.91853,33.48278],[-114.91821,33.48284],[-114.91786,33.4829],[-114.91751,33.48297],[-114.91717,33.48305],[-114.91683,33.48316],[-114.9165,33.48327],[-114.91617,33.48339],[-114.91583,33.48348],[-114.91549,33.48356],[-114.91516,33.48363],[-114.91482,33.48369],[-114.91448,33.48373],[-114.91413,33.48378],[-114.91378,33.48383],[-114.91344,33.48389],[-114.91311,33.48396],[-114.91277,33.48402],[-114.91244,33.48409],[-114.9121,33.48414],[-114.91176,33.48418],[-114.91143,33.48421],[-114.9111,33.48426],[-114.91077,33.48434],[-114.91046,33.48442],[-114.91014,33.48451],[-114.90984,33.48463],[-114.90959,33.48479],[-114.90938,33.48499],[-114.90915,33.48514],[-114.90889,33.48524],[-114.90862,33.48533],[-114.90835,33.48544],[-114.90808,33.48555],[-114.90779,33.48565],[-114.90749,33.48575],[-114.90717,33.48585],[-114.90685,33.48594],[-114.90652,33.48604],[-114.90618,33.48614],[-114.90583,33.48624],[-114.90547,33.48634],[-114.90512,33.48645],[-114.90475,33.48655],[-114.90439,33.48666],[-114.90403,33.48677],[-114.90367,33.48686],[-114.90331,33.48696],[-114.90295,33.48705],[-114.90259,33.48715],[-114.90223,33.48724],[-114.90187,33.48734],[-114.90151,33.48744],[-114.90115,33.48754],[-114.9008,33.48765],[-114.90044,33.48775],[-114.90008,33.48786],[-114.89972,33.48796],[-114.89937,33.48807],[-114.89901,33.48818],[-114.89866,33.48829],[-114.8983,33.4884],[-114.89795,33.4885],[-114.89759,33.48861],[-114.89724,33.48872],[-114.89688,33.48883],[-114.89653,33.48894],[-114.89617,33.48904],[-114.89581,33.48912],[-114.89543,33.48916],[-114.89506,33.4892],[-114.89468,33.48924],[-114.89432,33.48929],[-114.89431,33.48929],[-114.89394,33.48936],[-114.8936,33.48948],[-114.8933,33.48968],[-114.89309,33.48994],[-114.89293,33.49022],[-114.89276,33.49046],[-114.89254,33.4906],[-114.89227,33.49061],[-114.89201,33.49057],[-114.89172,33.49052],[-114.89171,33.49051],[-114.89141,33.49046],[-114.89107,33.4904],[-114.89071,33.49037],[-114.89041,33.49037],[-114.89034,33.49037],[-114.89,33.49036],[-114.8897,33.49039],[-114.88945,33.49043],[-114.88921,33.49049],[-114.88899,33.49056],[-114.8888,33.49063],[-114.88861,33.49069],[-114.88844,33.49075],[-114.8883,33.49081],[-114.88813,33.49087],[-114.88799,33.49092],[-114.88797,33.49092],[-114.88779,33.49098],[-114.88757,33.49103],[-114.88734,33.49111],[-114.88708,33.4912],[-114.88679,33.49129],[-114.88648,33.4914],[-114.88614,33.49151],[-114.88581,33.49162],[-114.88547,33.49173],[-114.88513,33.49184],[-114.8848,33.49196],[-114.88447,33.49207],[-114.88415,33.49219],[-114.88385,33.4923],[-114.88354,33.49241],[-114.88322,33.49252],[-114.88291,33.49264],[-114.88261,33.49277],[-114.88235,33.49292],[-114.88214,33.49312],[-114.88193,33.49332],[-114.88171,33.49353],[-114.88149,33.49371],[-114.88126,33.49388],[-114.88101,33.49403],[-114.88073,33.49414],[-114.88044,33.49423],[-114.88014,33.49429],[-114.87986,33.49436],[-114.87959,33.49446],[-114.8793,33.49456],[-114.87903,33.49467],[-114.87876,33.49477],[-114.87848,33.49488],[-114.87821,33.49499],[-114.87794,33.49511],[-114.87767,33.49521],[-114.87741,33.49531],[-114.87715,33.49541],[-114.87686,33.49548],[-114.87657,33.4955],[-114.87628,33.49549],[-114.876,33.4955],[-114.87573,33.49553],[-114.87548,33.49557],[-114.87524,33.49563],[-114.87509,33.49567],[-114.87497,33.49571],[-114.8748,33.49576],[-114.8746,33.49584],[-114.87437,33.49593],[-114.87413,33.49602],[-114.87388,33.49612],[-114.87363,33.49621],[-114.87337,33.49629],[-114.87311,33.49638],[-114.87284,33.49646],[-114.87257,33.49654],[-114.87229,33.49663],[-114.87201,33.49674],[-114.87173,33.49686],[-114.87146,33.49697],[-114.87118,33.49709],[-114.87089,33.4972],[-114.87059,33.49732],[-114.87029,33.49744],[-114.86999,33.49757],[-114.86969,33.49772],[-114.86941,33.49787],[-114.86913,33.49805],[-114.86886,33.4982],[-114.86861,33.49832],[-114.86833,33.49844],[-114.86803,33.49855],[-114.86771,33.49864],[-114.86739,33.49877],[-114.86709,33.49893],[-114.86681,33.49912],[-114.86655,33.4993],[-114.86632,33.49944],[-114.86605,33.49955],[-114.86575,33.49961],[-114.86546,33.49964],[-114.86517,33.49964],[-114.86487,33.49965],[-114.86457,33.49966],[-114.86427,33.49972],[-114.864,33.49983],[-114.86375,33.49999],[-114.8635,33.50015],[-114.86322,33.50027],[-114.86291,33.50025],[-114.86262,33.50017],[-114.86232,33.50005],[-114.86199,33.49995],[-114.86164,33.49985],[-114.86127,33.4998],[-114.86089,33.49982],[-114.86053,33.49991],[-114.86023,33.50006],[-114.85996,33.50026],[-114.85968,33.50043],[-114.85937,33.50054],[-114.85903,33.50059],[-114.85868,33.50062],[-114.85834,33.50062],[-114.85799,33.50062],[-114.85765,33.5006],[-114.85732,33.50059],[-114.85697,33.50059],[-114.85663,33.50058],[-114.8563,33.50057],[-114.85596,33.50055],[-114.85562,33.50056],[-114.85527,33.5006],[-114.85493,33.50066],[-114.85458,33.50072],[-114.85423,33.50075],[-114.8539,33.50072],[-114.85356,33.50066],[-114.85322,33.5006],[-114.85288,33.50052],[-114.85254,33.50043],[-114.8522,33.50033],[-114.85187,33.50023],[-114.85152,33.50014],[-114.85117,33.50009],[-114.85083,33.50008],[-114.85053,33.49999],[-114.85033,33.49982],[-114.85014,33.49964],[-114.84994,33.49948],[-114.84972,33.49931],[-114.84945,33.49914],[-114.84911,33.49899],[-114.84878,33.49889],[-114.8485,33.49878],[-114.84825,33.49862],[-114.84803,33.49844],[-114.84774,33.49833],[-114.84742,33.49823],[-114.84712,33.49812],[-114.84682,33.49798],[-114.84651,33.49782],[-114.84619,33.4977],[-114.84584,33.49765],[-114.84549,33.49761],[-114.84514,33.49756],[-114.84479,33.49752],[-114.84446,33.4975],[-114.84415,33.49748],[-114.84386,33.49745],[-114.8436,33.49744],[-114.84335,33.49746],[-114.84309,33.49746],[-114.84282,33.49744],[-114.84258,33.49739],[-114.84235,33.49736],[-114.84212,33.49739],[-114.84188,33.49747],[-114.84166,33.49751],[-114.84145,33.49746],[-114.84122,33.49736],[-114.84102,33.49726],[-114.84081,33.49721],[-114.8406,33.49718],[-114.84038,33.49716],[-114.84014,33.4971],[-114.83983,33.49703],[-114.8395,33.49695],[-114.83919,33.49688],[-114.83887,33.49681],[-114.83856,33.49676],[-114.83827,33.49672],[-114.83804,33.49669],[-114.83784,33.49665],[-114.8376,33.4966],[-114.83734,33.49653],[-114.83708,33.49645],[-114.8368,33.49636],[-114.83654,33.49627],[-114.83628,33.49619],[-114.83608,33.49613],[-114.83591,33.49605],[-114.83573,33.49592],[-114.83551,33.49575],[-114.8353,33.4956],[-114.83517,33.49542],[-114.83511,33.4952],[-114.83502,33.495],[-114.83487,33.49485],[-114.83466,33.49472],[-114.83439,33.49468],[-114.83416,33.49473],[-114.83394,33.49479],[-114.83373,33.49484],[-114.83352,33.49486],[-114.83331,33.49484],[-114.83309,33.49481],[-114.83288,33.49477],[-114.83267,33.49475],[-114.83243,33.49477],[-114.8322,33.4948],[-114.83198,33.49483],[-114.83177,33.49483],[-114.83157,33.49483],[-114.83136,33.49483],[-114.83117,33.49482],[-114.83099,33.49478],[-114.83081,33.49471],[-114.83064,33.49463],[-114.83045,33.49454],[-114.83027,33.49449],[-114.8301,33.49444],[-114.82994,33.49434],[-114.82981,33.49421],[-114.82968,33.4941],[-114.82953,33.49401],[-114.82934,33.49396],[-114.82915,33.49391],[-114.82897,33.49383],[-114.82879,33.49374],[-114.82862,33.49366],[-114.82843,33.49361],[-114.82824,33.49361],[-114.82805,33.49362],[-114.82786,33.49363],[-114.82766,33.49362],[-114.82748,33.49358],[-114.8273,33.49353],[-114.82713,33.49346],[-114.82694,33.4934],[-114.82674,33.49334],[-114.82654,33.49332],[-114.82634,33.49331],[-114.82614,33.4933],[-114.82593,33.49328],[-114.82573,33.49324],[-114.82555,33.49319],[-114.82537,33.49312],[-114.82518,33.49306],[-114.82496,33.49301],[-114.82475,33.49298],[-114.82455,33.49298],[-114.82439,33.49304],[-114.82429,33.49318],[-114.82428,33.49336],[-114.8243,33.49355],[-114.82425,33.49373],[-114.8241,33.49386],[-114.8239,33.49393],[-114.82364,33.49395],[-114.82335,33.49394],[-114.82306,33.49397],[-114.82279,33.49404],[-114.82254,33.49416],[-114.82231,33.49432],[-114.82207,33.49448],[-114.82179,33.49456],[-114.82149,33.49456],[-114.82117,33.49449],[-114.82084,33.49439],[-114.82051,33.49427],[-114.82017,33.49415],[-114.81983,33.49403],[-114.81949,33.49392],[-114.81915,33.49382],[-114.81879,33.49375],[-114.81844,33.49369],[-114.81809,33.49363],[-114.81773,33.49359],[-114.81736,33.49355],[-114.81701,33.49351],[-114.81665,33.49348],[-114.81629,33.49345],[-114.81593,33.49341],[-114.81557,33.49336],[-114.81522,33.49329],[-114.81487,33.49322],[-114.81452,33.49314],[-114.81417,33.49306],[-114.81383,33.49297],[-114.81348,33.49289],[-114.81314,33.4928],[-114.81279,33.49271],[-114.81245,33.49262],[-114.8121,33.49253],[-114.81176,33.49243],[-114.81142,33.49233],[-114.81108,33.49224],[-114.81073,33.49216],[-114.81037,33.4921],[-114.81002,33.49205],[-114.80966,33.49202],[-114.80929,33.49201],[-114.80894,33.49197],[-114.80858,33.4919],[-114.80823,33.49185],[-114.80787,33.49182],[-114.80751,33.49182],[-114.80714,33.49181],[-114.80678,33.49177],[-114.80643,33.49169],[-114.80609,33.49158],[-114.80575,33.49147],[-114.80541,33.49137],[-114.80507,33.49129],[-114.80471,33.49122],[-114.80437,33.49113],[-114.80403,33.49103],[-114.8037,33.4909],[-114.80338,33.49077],[-114.80305,33.49064],[-114.80272,33.49051],[-114.8024,33.49039],[-114.80206,33.49029],[-114.8017,33.49023],[-114.80134,33.49021],[-114.80098,33.4902],[-114.80062,33.49019],[-114.80026,33.49018],[-114.7999,33.49017],[-114.79954,33.49016],[-114.79918,33.49018],[-114.79882,33.49023],[-114.79852,33.49029],[-114.79847,33.4903],[-114.79813,33.49039],[-114.7978,33.49049],[-114.79748,33.49058],[-114.7972,33.49064],[-114.79689,33.49068],[-114.79657,33.49068],[-114.79625,33.49067],[-114.79594,33.49066],[-114.79594,33.49066]]}},{"type":"Feature","properties":{"name":"66005: BRADSHAW TRAIL","source":"Bureau of Land Management","source_detail":"BLM GTLF OBJECTID 158266","source_id":"{08B34EFB-67BF-4640-A6B1-8E6B1E6B0025}","road_class":"transportation_system_-_primitive_road","surface":"natural_improved","vehicle_class":"4wd_low","allowed_mode":"unk","access_restriction":"unknown","seasonal_restriction":"not_listed","gis_miles":1.17174216},"geometry":{"type":"LineString","coordinates":[[-115.22458,33.43729],[-115.22455,33.43729],[-115.22431,33.43721],[-115.22408,33.43712],[-115.22383,33.43702],[-115.22354,33.43691],[-115.22324,33.43679],[-115.22293,33.43668],[-115.2226,33.43656],[-115.22226,33.43645],[-115.22192,33.43635],[-115.22159,33.43626],[-115.22128,33.43615],[-115.22102,33.43599],[-115.22081,33.43577],[-115.22061,33.43555],[-115.22042,33.43532],[-115.2202,33.43509],[-115.21995,33.43488],[-115.21969,33.43469],[-115.21939,33.43455],[-115.21907,33.43442],[-115.21875,33.43429],[-115.21844,33.43412],[-115.21814,33.43394],[-115.21786,33.43374],[-115.21759,33.43355],[-115.21734,33.43335],[-115.21711,33.43314],[-115.21687,33.43293],[-115.21661,33.43275],[-115.21631,33.43261],[-115.21602,33.43244],[-115.21575,33.43225],[-115.21551,33.43203],[-115.21525,33.43182],[-115.21499,33.4316],[-115.21474,33.43139],[-115.21445,33.43121],[-115.21416,33.43105],[-115.21385,33.4309],[-115.21352,33.43076],[-115.2132,33.43063],[-115.21288,33.43051],[-115.21257,33.43038],[-115.21225,33.43026],[-115.21191,33.43017],[-115.21154,33.43014],[-115.21114,33.43009],[-115.21077,33.42999],[-115.21042,33.42988],[-115.21007,33.4298],[-115.20972,33.42969],[-115.2094,33.42955],[-115.2091,33.42945],[-115.20877,33.42942],[-115.20841,33.42941],[-115.20804,33.42937],[-115.20766,33.42933],[-115.20731,33.42928]]}},{"type":"Feature","properties":{"name":"66005: BRADSHAW TRAIL","source":"Bureau of Land Management","source_detail":"BLM GTLF OBJECTID 159145","source_id":"{D125FD9B-D6F4-4A1F-8ADF-DDD3B2829952}","road_class":"transportation_system_-_primitive_road","surface":"natural_improved","vehicle_class":"4wd_low","allowed_mode":"unk","access_restriction":"unknown","seasonal_restriction":"not_listed","gis_miles":0.61610613},"geometry":{"type":"LineString","coordinates":[[-115.2333,33.43402],[-115.2331,33.43406],[-115.23283,33.43406],[-115.23257,33.43402],[-115.23227,33.43396],[-115.23196,33.43389],[-115.23166,33.43384],[-115.23133,33.43382],[-115.23101,33.43382],[-115.23074,33.4339],[-115.23049,33.43406],[-115.23024,33.43417],[-115.22998,33.43421],[-115.2297,33.4342],[-115.22944,33.43422],[-115.22922,33.43439],[-115.22909,33.43461],[-115.22896,33.43483],[-115.22879,33.43503],[-115.2286,33.43521],[-115.22843,33.43541],[-115.22828,33.43559],[-115.22815,33.43577],[-115.22804,33.43595],[-115.22791,33.43612],[-115.22777,33.43628],[-115.22762,33.43643],[-115.2275,33.43659],[-115.22738,33.43676],[-115.2272,33.4369],[-115.22698,33.437],[-115.22672,33.4371],[-115.22647,33.43718],[-115.22623,33.43723],[-115.22595,33.43723],[-115.22565,33.43724],[-115.22535,33.43727],[-115.2251,33.43729],[-115.22508,33.4373],[-115.22481,33.43731],[-115.22458,33.43729]]}},{"type":"Feature","properties":{"name":"66073: PALEN TO FORD DRY LAKE (PALEN DUNES)","source":"Bureau of Land Management","source_detail":"BLM GTLF OBJECTID 161629","source_id":"{C1DFC7BA-66A6-4DAE-8188-834099C20737}","road_class":"transportation_system_-_primitive_road","surface":"natural","vehicle_class":"4wd_low","allowed_mode":"unk","access_restriction":"unknown","seasonal_restriction":"not_listed","gis_miles":2.64634732},"geometry":{"type":"LineString","coordinates":[[-115.05675,33.6278],[-115.05685,33.62783],[-115.05696,33.62786],[-115.05707,33.62789],[-115.05719,33.62792],[-115.0573,33.62795],[-115.05741,33.62798],[-115.05752,33.62801],[-115.05763,33.62804],[-115.05774,33.62807],[-115.05785,33.6281],[-115.05797,33.62813],[-115.05808,33.62816],[-115.05819,33.62818],[-115.0583,33.62821],[-115.05841,33.62824],[-115.05853,33.62827],[-115.05864,33.62829],[-115.05876,33.62832],[-115.05887,33.62835],[-115.05899,33.62838],[-115.05911,33.62841],[-115.05923,33.62844],[-115.05934,33.62847],[-115.05945,33.6285],[-115.05956,33.62853],[-115.05968,33.62856],[-115.05979,33.62859],[-115.0599,33.62861],[-115.06002,33.62864],[-115.06013,33.62867],[-115.06024,33.6287],[-115.06035,33.62873],[-115.06046,33.62875],[-115.06057,33.62878],[-115.06068,33.62881],[-115.06079,33.62884],[-115.06091,33.62887],[-115.06102,33.62889],[-115.06113,33.62892],[-115.06124,33.62895],[-115.06136,33.62898],[-115.06147,33.62901],[-115.06158,33.62904],[-115.0617,33.62906],[-115.06181,33.62909],[-115.06192,33.62912],[-115.06203,33.62915],[-115.06214,33.62918],[-115.06225,33.6292],[-115.06236,33.62923],[-115.06247,33.62926],[-115.06258,33.62928],[-115.06269,33.62931],[-115.06281,33.62934],[-115.06292,33.62937],[-115.06304,33.6294],[-115.06315,33.62943],[-115.06327,33.62946],[-115.06339,33.62949],[-115.0635,33.62952],[-115.06362,33.62955],[-115.06373,33.62958],[-115.06385,33.62961],[-115.06396,33.62964],[-115.06407,33.62967],[-115.06419,33.62969],[-115.0643,33.62972],[-115.06441,33.62975],[-115.06452,33.62977],[-115.06463,33.62979],[-115.06472,33.62981],[-115.06478,33.62982],[-115.0648,33.62983],[-115.06486,33.62984],[-115.06491,33.62986],[-115.06511,33.62991],[-115.06516,33.62993],[-115.06522,33.62995],[-115.06529,33.62997],[-115.06537,33.62999],[-115.06545,33.63001],[-115.06554,33.63004],[-115.06563,33.63007],[-115.06573,33.63009],[-115.06583,33.63012],[-115.06593,33.63015],[-115.06603,33.63017],[-115.06613,33.6302],[-115.06623,33.63022],[-115.06633,33.63025],[-115.06642,33.63027],[-115.06652,33.6303],[-115.06663,33.63033],[-115.06673,33.63036],[-115.06683,33.63038],[-115.06694,33.63041],[-115.06705,33.63044],[-115.06715,33.63047],[-115.06726,33.63049],[-115.06737,33.63052],[-115.06748,33.63055],[-115.0676,33.63058],[-115.06771,33.63061],[-115.06782,33.63064],[-115.06794,33.63066],[-115.06805,33.63069],[-115.06816,33.63072],[-115.06828,33.63075],[-115.06839,33.63077],[-115.0685,33.6308],[-115.06862,33.63083],[-115.06873,33.63086],[-115.06884,33.63089],[-115.06895,33.63091],[-115.06907,33.63094],[-115.06918,33.63097],[-115.0693,33.631],[-115.06941,33.63103],[-115.06953,33.63106],[-115.06964,33.63108],[-115.06975,33.63111],[-115.06986,33.63114],[-115.06998,33.63117],[-115.07009,33.6312],[-115.0702,33.63123],[-115.07032,33.63126],[-115.07043,33.63129],[-115.07055,33.63132],[-115.07066,33.63135],[-115.07077,33.63138],[-115.07089,33.63141],[-115.071,33.63144],[-115.07112,33.63147],[-115.07123,33.6315],[-115.07135,33.63153],[-115.07146,33.63156],[-115.07158,33.63158],[-115.07169,33.63161],[-115.0718,33.63164],[-115.07191,33.63167],[-115.07202,33.6317],[-115.07214,33.63172],[-115.07225,33.63175],[-115.07236,33.63178],[-115.07247,33.63181],[-115.07258,33.63184],[-115.0727,33.63186],[-115.07281,33.63189],[-115.07292,33.63192],[-115.07304,33.63195],[-115.07315,33.63198],[-115.07326,33.63201],[-115.07338,33.63204],[-115.07349,33.63206],[-115.0736,33.63209],[-115.07371,33.63212],[-115.07382,33.63215],[-115.07394,33.63217],[-115.07405,33.6322],[-115.07416,33.63223],[-115.07428,33.63226],[-115.07439,33.63229],[-115.0745,33.63232],[-115.07462,33.63235],[-115.07473,33.63238],[-115.07485,33.63241],[-115.07497,33.63244],[-115.07508,33.63247],[-115.0752,33.63249],[-115.07532,33.63252],[-115.07544,33.63255],[-115.07556,33.63258],[-115.07567,33.63261],[-115.07579,33.63264],[-115.07591,33.63267],[-115.07603,33.6327],[-115.07615,33.63273],[-115.07627,33.63276],[-115.07639,33.63279],[-115.0765,33.63281],[-115.07662,33.63284],[-115.07672,33.63287],[-115.07682,33.6329],[-115.07692,33.63294],[-115.077,33.63299],[-115.07709,33.63305],[-115.07717,33.63311],[-115.07725,33.63318],[-115.07733,33.63324],[-115.0774,33.63331],[-115.07748,33.63338],[-115.07756,33.63344],[-115.07763,33.6335],[-115.07771,33.63357],[-115.07778,33.63364],[-115.07786,33.6337],[-115.07793,33.63376],[-115.078,33.63382],[-115.07806,33.63387],[-115.07812,33.63392],[-115.07818,33.63398],[-115.07824,33.63404],[-115.0783,33.63409],[-115.07836,33.63415],[-115.07843,33.6342],[-115.0785,33.63426],[-115.07857,33.63431],[-115.07864,33.63437],[-115.07871,33.63442],[-115.07878,33.63448],[-115.07886,33.63453],[-115.07893,33.63459],[-115.07901,33.63465],[-115.07909,33.6347],[-115.07917,33.63476],[-115.07925,33.63482],[-115.07933,33.63487],[-115.07941,33.63493],[-115.07949,33.63498],[-115.07957,33.63504],[-115.07965,33.63509],[-115.07973,33.63514],[-115.07981,33.63519],[-115.07989,33.63524],[-115.07997,33.63529],[-115.08005,33.63535],[-115.08014,33.6354],[-115.08022,33.63545],[-115.08031,33.6355],[-115.08039,33.63555],[-115.08048,33.63559],[-115.08057,33.63564],[-115.08065,33.63568],[-115.08074,33.63573],[-115.08082,33.63577],[-115.08091,33.63582],[-115.08099,33.63587],[-115.08108,33.63591],[-115.08117,33.63595],[-115.08124,33.63599],[-115.08131,33.63602],[-115.08137,33.63604],[-115.08142,33.63606],[-115.08147,33.63607],[-115.0815,33.63608],[-115.08154,33.63609],[-115.08158,33.6361],[-115.08161,33.63611],[-115.08164,33.63612],[-115.08167,33.63613],[-115.08169,33.63613],[-115.08171,33.63614],[-115.08173,33.63615],[-115.08176,33.63616],[-115.08179,33.63617],[-115.08182,33.6362],[-115.08186,33.63622],[-115.08189,33.63623],[-115.08193,33.63625],[-115.08196,33.63627],[-115.08198,33.6363],[-115.082,33.63631],[-115.08202,33.63633],[-115.08203,33.63633],[-115.08203,33.63634],[-115.08212,33.6364],[-115.08217,33.63642],[-115.08222,33.63645],[-115.08228,33.63648],[-115.08234,33.6365],[-115.0824,33.63653],[-115.08246,33.63656],[-115.08252,33.63658],[-115.08258,33.63661],[-115.08265,33.63664],[-115.08272,33.63667],[-115.08279,33.63669],[-115.08286,33.63672],[-115.08294,33.63674],[-115.08302,33.63676],[-115.08309,33.63678],[-115.08317,33.6368],[-115.08326,33.63682],[-115.08334,33.63684],[-115.08342,33.63686],[-115.0835,33.63688],[-115.08359,33.63689],[-115.08367,33.63691],[-115.08375,33.63692],[-115.08384,33.63694],[-115.08392,33.63696],[-115.084,33.63698],[-115.08408,33.637],[-115.08415,33.63702],[-115.08424,33.63704],[-115.08432,33.63706],[-115.0844,33.63708],[-115.08448,33.63711],[-115.08457,33.63713],[-115.08465,33.63715],[-115.08473,33.63717],[-115.0848,33.63719],[-115.08488,33.63721],[-115.08495,33.63723],[-115.08503,33.63725],[-115.08511,33.63727],[-115.08519,33.63729],[-115.08527,33.63731],[-115.08535,33.63733],[-115.08543,33.63735],[-115.08551,33.63737],[-115.08559,33.63739],[-115.08568,33.63741],[-115.08576,33.63743],[-115.08585,33.63745],[-115.08593,33.63748],[-115.08602,33.6375],[-115.08611,33.63752],[-115.08619,33.63755],[-115.08628,33.63757],[-115.08637,33.63759],[-115.08646,33.63761],[-115.08654,33.63764],[-115.08663,33.63765],[-115.08672,33.63767],[-115.0868,33.6377],[-115.08689,33.63772],[-115.08698,33.63774],[-115.08706,33.63776],[-115.08715,33.63778],[-115.08724,33.6378],[-115.08732,33.63783],[-115.08741,33.63785],[-115.0875,33.63787],[-115.08759,33.6379],[-115.08768,33.63792],[-115.08777,33.63794],[-115.08786,33.63796],[-115.08795,33.63798],[-115.08803,33.638],[-115.08812,33.63802],[-115.08821,33.63805],[-115.08829,33.63807],[-115.08838,33.63809],[-115.08847,33.63812],[-115.08856,33.63814],[-115.08864,33.63817],[-115.08873,33.63819],[-115.08883,33.63821],[-115.08892,33.63823],[-115.08901,33.63825],[-115.0891,33.63827],[-115.08918,33.63829],[-115.08927,33.63831],[-115.08935,33.63833],[-115.08943,33.63835],[-115.08952,33.63838],[-115.0896,33.6384],[-115.08969,33.63842],[-115.08977,33.63844],[-115.08986,33.63846],[-115.08994,33.63848],[-115.09002,33.6385],[-115.09011,33.63852],[-115.09019,33.63855],[-115.09027,33.63857],[-115.09036,33.63859],[-115.09045,33.63862],[-115.09053,33.63864],[-115.09063,33.63866],[-115.09072,33.63869],[-115.09081,33.63871],[-115.0909,33.63873],[-115.091,33.63876],[-115.09109,33.63878],[-115.09118,33.63881],[-115.09127,33.63883],[-115.09137,33.63885],[-115.09146,33.63888],[-115.09155,33.6389],[-115.09164,33.63892],[-115.09173,33.63895],[-115.09182,33.63897],[-115.09191,33.63899],[-115.092,33.63901],[-115.09209,33.63904],[-115.09218,33.63906],[-115.09227,33.63908],[-115.09236,33.6391],[-115.09245,33.63913],[-115.09255,33.63915],[-115.09265,33.63918],[-115.09274,33.63921],[-115.09285,33.63923],[-115.09295,33.63926],[-115.09306,33.63929],[-115.09316,33.63931],[-115.09327,33.63934],[-115.09337,33.63936],[-115.09348,33.63939],[-115.09358,33.63942],[-115.09368,33.63944],[-115.09378,33.63947],[-115.09388,33.63949],[-115.09398,33.63952],[-115.09408,33.63954],[-115.09418,33.63957],[-115.09428,33.63959],[-115.09438,33.63962],[-115.09449,33.63964],[-115.09459,33.63967],[-115.09469,33.6397],[-115.09479,33.63972],[-115.0949,33.63975],[-115.09501,33.63978],[-115.09512,33.6398],[-115.09522,33.63983],[-115.09533,33.63986],[-115.09544,33.63989],[-115.09556,33.63992],[-115.09567,33.63994],[-115.09578,33.63997],[-115.09589,33.64],[-115.096,33.64003],[-115.09611,33.64007],[-115.09621,33.6401],[-115.09632,33.64013],[-115.09643,33.64015],[-115.09654,33.64018],[-115.09665,33.6402],[-115.09677,33.64023],[-115.09688,33.64026],[-115.097,33.64028],[-115.09711,33.64031],[-115.09722,33.64034],[-115.09733,33.64037],[-115.09744,33.6404],[-115.09756,33.64042],[-115.09767,33.64045],[-115.09778,33.64048],[-115.09789,33.64051],[-115.098,33.64054],[-115.0981,33.64056],[-115.0982,33.64059],[-115.0983,33.64062],[-115.09841,33.64065],[-115.09851,33.64067],[-115.09862,33.6407],[-115.09873,33.64073],[-115.09883,33.64076],[-115.09894,33.64078],[-115.09903,33.64081],[-115.09912,33.64083],[-115.09923,33.64085],[-115.09939,33.64088]]}}]}