{"type":"FeatureCollection","features":[{"type":"Feature","properties":{"name":"455","source":"Bureau of Land Management","source_detail":"BLM GTLF OBJECTID 153843","source_id":"{1242D0C0-DE57-4018-B10F-AC5D1AF2EC65}","road_class":"transportation_system_-_primitive_road","surface":"natural","vehicle_class":"4wd_high_clearance_specialized","allowed_mode":"unk","access_restriction":"not_listed","seasonal_restriction":"not_listed","gis_miles":0.94776253},"geometry":{"type":"LineString","coordinates":[[-114.99539,32.75449],[-114.9955,32.75495],[-114.99547,32.75533],[-114.99535,32.75577],[-114.99519,32.75623],[-114.99505,32.75661],[-114.99491,32.75697],[-114.99443,32.75858],[-114.99421,32.75897],[-114.99378,32.76071],[-114.99356,32.76139],[-114.9934,32.76218],[-114.99334,32.76271],[-114.99337,32.7631],[-114.99345,32.76359],[-114.99367,32.76414],[-114.99395,32.76464],[-114.99448,32.76544],[-114.99537,32.76663],[-114.99563,32.76693],[-114.99578,32.7671],[-114.99595,32.76733],[-114.99597,32.76744]]}},{"type":"Feature","properties":{"name":"499","source":"Bureau of Land Management","source_detail":"BLM GTLF OBJECTID 153850","source_id":"{9B28D5BA-9E10-42B2-9D19-30CCC0C6CAE4}","road_class":"transportation_system_-_primitive_road","surface":"natural","vehicle_class":"4wd_high_clearance_specialized","allowed_mode":"unk","access_restriction":"not_listed","seasonal_restriction":"not_listed","gis_miles":0.44824302},"geometry":{"type":"LineString","coordinates":[[-115.21855,32.70567],[-115.21844,32.70674],[-115.21841,32.70873],[-115.21842,32.71074],[-115.21842,32.71218]]}},{"type":"Feature","properties":{"name":"455","source":"Bureau of Land Management","source_detail":"BLM GTLF OBJECTID 153870","source_id":"{91263EA8-8A9F-4ADA-9D0A-2594512C886B}","road_class":"transportation_system_-_primitive_road","surface":"natural","vehicle_class":"4wd_high_clearance_specialized","allowed_mode":"unk","access_restriction":"not_listed","seasonal_restriction":"not_listed","gis_miles":0.1401355},"geometry":{"type":"LineString","coordinates":[[-114.99054,32.77795],[-114.99007,32.77878],[-114.9898,32.77927],[-114.98958,32.77965],[-114.9895,32.77979]]}},{"type":"Feature","properties":{"name":"388","source":"Bureau of Land Management","source_detail":"BLM GTLF OBJECTID 154084","source_id":"{34E14E63-DB8A-4305-B18B-B47D1DC9ECD2}","road_class":"transportation_system_-_primitive_road","surface":"natural","vehicle_class":"4wd_high_clearance_specialized","allowed_mode":"unk","access_restriction":"not_listed","seasonal_restriction":"not_listed","gis_miles":0.94956087},"geometry":{"type":"LineString","coordinates":[[-115.00616,32.76668],[-115.00616,32.76668],[-115.00623,32.76651],[-115.00618,32.76598],[-115.00608,32.76393],[-115.00613,32.76203],[-115.00617,32.76002],[-115.0062,32.75802],[-115.00622,32.75604],[-115.0062,32.7529]]}},{"type":"Feature","properties":{"name":"057","source":"Bureau of Land Management","source_detail":"BLM GTLF OBJECTID 154171","source_id":"{34EF4EAB-08B1-4488-975D-F7134449673D}","road_class":"transportation_system_-_primitive_road","surface":"natural","vehicle_class":"4wd_high_clearance_specialized","allowed_mode":"unk","access_restriction":"not_listed","seasonal_restriction":"not_listed","gis_miles":0.10630697},"geometry":{"type":"LineString","coordinates":[[-115.26611,32.75075],[-115.26612,32.75076],[-115.26648,32.75084],[-115.26684,32.75085],[-115.26752,32.75084],[-115.26791,32.75083],[-115.26792,32.75083]]}},{"type":"Feature","properties":{"name":"223","source":"Bureau of Land Management","source_detail":"BLM GTLF OBJECTID 154172","source_id":"{836F4C39-6693-4B95-B209-12822EB42C00}","road_class":"transportation_system_-_primitive_road","surface":"natural","vehicle_class":"4wd_high_clearance_specialized","allowed_mode":"unk","access_restriction":"not_listed","seasonal_restriction":"not_listed","gis_miles":0.49706965},"geometry":{"type":"LineString","coordinates":[[-115.2667,32.75467],[-115.26653,32.75478],[-115.26598,32.75514],[-115.26572,32.75539],[-115.26563,32.75574],[-115.26555,32.75596],[-115.2656,32.75617],[-115.26572,32.75648],[-115.26607,32.75729],[-115.26616,32.75746],[-115.26629,32.75777],[-115.2664,32.75824],[-115.26653,32.75829],[-115.26661,32.75839],[-115.26687,32.75859],[-115.26703,32.75871],[-115.26729,32.75878],[-115.26773,32.75862],[-115.2682,32.75834],[-115.26858,32.75816],[-115.26894,32.75788],[-115.26917,32.75772],[-115.26945,32.75761]]}},{"type":"Feature","properties":{"name":"440","source":"Bureau of Land Management","source_detail":"BLM GTLF OBJECTID 154203","source_id":"{5268324E-F881-44C3-8E57-30298EB8DE4D}","road_class":"transportation_system_-_primitive_road","surface":"natural","vehicle_class":"4wd_high_clearance_specialized","allowed_mode":"unk","access_restriction":"not_listed","seasonal_restriction":"not_listed","gis_miles":3.62900251},"geometry":{"type":"LineString","coordinates":[[-115.25503,32.83302],[-115.25471,32.83301],[-115.25438,32.83295],[-115.25378,32.83306],[-115.25324,32.83319],[-115.25277,32.83327],[-115.2527,32.83328],[-115.25225,32.8333],[-115.25182,32.83334],[-115.25146,32.8334],[-115.25111,32.83351],[-115.25079,32.83356],[-115.25039,32.83368],[-115.25012,32.83356],[-115.24998,32.83351],[-115.24918,32.8335],[-115.24891,32.83343],[-115.24815,32.83316],[-115.24796,32.83312],[-115.24777,32.83313],[-115.2476,32.83317],[-115.24688,32.83315],[-115.24654,32.83315],[-115.24634,32.83314],[-115.24552,32.83314],[-115.24497,32.83305],[-115.24464,32.83295],[-115.24417,32.83276],[-115.24375,32.83259],[-115.24347,32.83229],[-115.24322,32.83198],[-115.24311,32.83176],[-115.243,32.83156],[-115.24289,32.83121],[-115.24262,32.83094],[-115.24218,32.83057],[-115.24191,32.83035],[-115.24177,32.83024],[-115.24158,32.83009],[-115.24159,32.82985],[-115.2416,32.8296],[-115.24155,32.82946],[-115.24143,32.82934],[-115.24117,32.82922],[-115.24039,32.82913],[-115.23919,32.82894],[-115.23733,32.82858],[-115.23652,32.8284],[-115.23557,32.82822],[-115.23491,32.82807],[-115.2339,32.82784],[-115.23202,32.82742],[-115.23151,32.82729],[-115.23056,32.82711],[-115.22968,32.82688],[-115.2288,32.82664],[-115.22798,32.82641],[-115.22731,32.82624],[-115.2265,32.82601],[-115.22575,32.82577],[-115.22501,32.82554],[-115.2244,32.82525],[-115.22365,32.82502],[-115.22304,32.82485],[-115.22162,32.82459],[-115.22033,32.82437],[-115.21972,32.82426],[-115.2186,32.82401],[-115.2183,32.82396],[-115.21749,32.82384],[-115.21674,32.82373],[-115.21613,32.82366],[-115.21583,32.82369],[-115.21565,32.82374],[-115.21547,32.8237],[-115.21531,32.82361],[-115.21464,32.82354],[-115.21376,32.82342],[-115.21332,32.82332],[-115.21297,32.82327],[-115.2127,32.82324],[-115.21234,32.82313],[-115.21166,32.82295],[-115.21092,32.82284],[-115.21049,32.82276],[-115.21008,32.82275],[-115.20927,32.82274],[-115.20848,32.82271],[-115.20746,32.82276],[-115.20692,32.8227],[-115.20569,32.82268],[-115.20407,32.8228],[-115.20319,32.82286],[-115.2022,32.82291],[-115.20169,32.82308],[-115.20129,32.82323],[-115.20108,32.82324],[-115.20081,32.82323],[-115.20039,32.82319],[-115.19987,32.82308],[-115.19931,32.82295],[-115.19882,32.82285],[-115.19835,32.8228],[-115.19776,32.82271],[-115.19749,32.82267],[-115.19702,32.82219],[-115.19702,32.82218]]}},{"type":"Feature","properties":{"name":"476","source":"Bureau of Land Management","source_detail":"BLM GTLF OBJECTID 154224","source_id":"{6E63134F-B5B3-4CDF-B9EF-2A69BB522514}","road_class":"transportation_system_-_primitive_road","surface":"natural","vehicle_class":"4wd_high_clearance_specialized","allowed_mode":"unk","access_restriction":"not_listed","seasonal_restriction":"not_listed","gis_miles":0.01714135},"geometry":{"type":"LineString","coordinates":[[-115.09031,32.83149],[-115.09046,32.83139],[-115.09055,32.83135]]}},{"type":"Feature","properties":{"name":"491","source":"Bureau of Land Management","source_detail":"BLM GTLF OBJECTID 154334","source_id":"{B73C365C-B86C-47E6-B36E-87F05673A313}","road_class":"transportation_system_-_primitive_road","surface":"natural","vehicle_class":"4wd_high_clearance_specialized","allowed_mode":"unk","access_restriction":"not_listed","seasonal_restriction":"not_listed","gis_miles":6.64249759},"geometry":{"type":"MultiLineString","coordinates":[[[-114.99471,32.78157],[-114.99667,32.78234],[-114.99975,32.78331],[-115.00107,32.7838],[-115.00176,32.78399],[-115.00303,32.78445],[-115.00419,32.78481],[-115.00466,32.78503],[-115.00615,32.78552],[-115.00803,32.78612],[-115.00883,32.78629],[-115.01185,32.78735],[-115.01396,32.78815],[-115.01538,32.78867],[-115.01593,32.78888],[-115.01685,32.78914],[-115.01871,32.7898],[-115.02032,32.79042],[-115.0207,32.79054],[-115.02228,32.79109],[-115.0226,32.79123],[-115.02321,32.79148],[-115.02374,32.79164],[-115.02564,32.79232],[-115.02852,32.79344],[-115.02916,32.79359],[-115.02943,32.79368],[-115.02995,32.79396],[-115.03055,32.7941],[-115.03056,32.79411],[-115.03163,32.79447],[-115.03243,32.79476],[-115.03296,32.79487],[-115.03356,32.79505],[-115.03397,32.79527],[-115.03472,32.79545],[-115.0351,32.79569],[-115.03562,32.79587],[-115.03601,32.79601],[-115.03621,32.79607]],[[-114.95461,32.73457],[-114.95548,32.73586],[-114.95675,32.73793],[-114.95802,32.73996],[-114.95928,32.742],[-114.96063,32.74415],[-114.96183,32.74612],[-114.96318,32.74826],[-114.96437,32.75027],[-114.96563,32.75226],[-114.96689,32.75419],[-114.96806,32.75613],[-114.96932,32.7582],[-114.97055,32.76019],[-114.97167,32.762],[-114.9721,32.76268],[-114.9725,32.76316],[-114.9728,32.76366],[-114.97296,32.76408],[-114.97398,32.76571],[-114.97464,32.76676],[-114.97544,32.7677],[-114.97718,32.76959],[-114.97903,32.77161],[-114.9808,32.77356],[-114.98214,32.77508],[-114.98332,32.77639],[-114.98388,32.77693],[-114.98447,32.77746],[-114.98529,32.77809],[-114.98595,32.77861],[-114.98649,32.77896],[-114.98723,32.7793],[-114.98803,32.77951],[-114.98872,32.7796],[-114.98905,32.77968],[-114.9895,32.77979],[-114.98962,32.77982],[-114.99194,32.78037],[-114.99291,32.78096],[-114.99327,32.78107]]]}},{"type":"Feature","properties":{"name":"432","source":"Bureau of Land Management","source_detail":"BLM GTLF OBJECTID 154345","source_id":"{2B500DF7-4638-4D03-89D0-76F9C407391D}","road_class":"transportation_system_-_primitive_road","surface":"natural","vehicle_class":"4wd_high_clearance_specialized","allowed_mode":"unk","access_restriction":"not_listed","seasonal_restriction":"not_listed","gis_miles":0.24758758},"geometry":{"type":"LineString","coordinates":[[-115.01641,32.79608],[-115.0164,32.79608],[-115.01593,32.79671],[-115.01555,32.79706],[-115.01505,32.79737],[-115.01438,32.79777],[-115.01349,32.79821],[-115.01333,32.79845]]}},{"type":"Feature","properties":{"name":"498","source":"Bureau of Land Management","source_detail":"BLM GTLF OBJECTID 154413","source_id":"{A1217C8D-9878-4031-951D-03D9FA4C93A6}","road_class":"transportation_system_-_primitive_road","surface":"natural","vehicle_class":"4wd_high_clearance_specialized","allowed_mode":"unk","access_restriction":"not_listed","seasonal_restriction":"not_listed","gis_miles":5.15380759},"geometry":{"type":"LineString","coordinates":[[-115.2214,32.71287],[-115.22139,32.71449],[-115.2214,32.71638],[-115.22136,32.71751],[-115.2214,32.71844],[-115.2214,32.71873],[-115.2214,32.71896],[-115.22139,32.7193],[-115.22137,32.71977],[-115.22139,32.72048],[-115.22139,32.72249],[-115.22138,32.72448],[-115.22141,32.72648],[-115.22136,32.72858],[-115.22138,32.73069],[-115.22141,32.73274],[-115.22142,32.73471],[-115.22141,32.7367],[-115.22142,32.73864],[-115.22138,32.7407],[-115.22136,32.74134],[-115.22138,32.74221],[-115.22137,32.74269],[-115.22137,32.74445],[-115.2214,32.74645],[-115.22139,32.74826],[-115.22139,32.74994],[-115.22136,32.75144],[-115.2215,32.75149],[-115.22196,32.75164],[-115.22255,32.75167],[-115.22307,32.75174],[-115.22375,32.75176],[-115.22428,32.7517],[-115.22485,32.75186],[-115.22523,32.75203],[-115.22571,32.75219],[-115.22591,32.7523],[-115.22618,32.75237],[-115.22918,32.75235],[-115.23273,32.75237],[-115.23635,32.75236],[-115.24008,32.75238],[-115.24229,32.75239],[-115.24388,32.75237],[-115.24493,32.75238],[-115.24535,32.75237],[-115.24561,32.75233],[-115.24596,32.7523],[-115.24619,32.75231],[-115.24633,32.7523],[-115.24661,32.75224],[-115.24757,32.75223],[-115.24909,32.75226],[-115.25061,32.75222],[-115.25194,32.75223],[-115.25241,32.75224],[-115.25421,32.75223],[-115.25759,32.75225],[-115.25832,32.75225],[-115.25918,32.75227],[-115.25951,32.75218],[-115.25972,32.75214],[-115.26124,32.75214],[-115.26183,32.75216],[-115.26254,32.75216],[-115.26283,32.75211],[-115.26302,32.7522],[-115.26348,32.75255],[-115.26372,32.75267],[-115.26373,32.75267]]}},{"type":"Feature","properties":{"name":"456","source":"Bureau of Land Management","source_detail":"BLM GTLF OBJECTID 154414","source_id":"{9AA62C7C-8C68-44D2-9BCA-8CC664326572}","road_class":"transportation_system_-_primitive_road","surface":"natural","vehicle_class":"4wd_high_clearance_specialized","allowed_mode":"unk","access_restriction":"not_listed","seasonal_restriction":"not_listed","gis_miles":1.04436408},"geometry":{"type":"LineString","coordinates":[[-115.26357,32.72346],[-115.26341,32.7234],[-115.26299,32.72342],[-115.26289,32.72343],[-115.26276,32.7234],[-115.26257,32.72337],[-115.26237,32.7234],[-115.26221,32.7234],[-115.26212,32.7234],[-115.26203,32.72343],[-115.26188,32.72338],[-115.2618,32.72336],[-115.26178,32.72336],[-115.26171,32.72337],[-115.26166,32.72336],[-115.26145,32.72341],[-115.26137,32.7234],[-115.26115,32.72336],[-115.26047,32.72336],[-115.2602,32.7233],[-115.25988,32.72333],[-115.25954,32.72334],[-115.25821,32.72329],[-115.2573,32.72327],[-115.25703,32.72331],[-115.25663,32.72331],[-115.25574,32.72329],[-115.2554,32.72322],[-115.25478,32.72324],[-115.25457,32.72329],[-115.25395,32.72329],[-115.25371,32.72334],[-115.25319,32.7233],[-115.25263,32.72331],[-115.25211,32.72319],[-115.25192,32.72327],[-115.25155,32.72321],[-115.25074,32.72325],[-115.25058,32.72324],[-115.25033,32.72328],[-115.25011,32.72314],[-115.24997,32.72312],[-115.24967,32.72325],[-115.24932,32.72327],[-115.24881,32.72334],[-115.24784,32.72328],[-115.24695,32.72324],[-115.24666,32.7232],[-115.24644,32.72296],[-115.24627,32.7227]]}},{"type":"Feature","properties":{"name":"036","source":"Bureau of Land Management","source_detail":"BLM GTLF OBJECTID 154424","source_id":"{6781D29C-EAEF-4079-8876-FBD751DBC1FA}","road_class":"transportation_system_-_primitive_road","surface":"natural","vehicle_class":"4wd_high_clearance_specialized","allowed_mode":"unk","access_restriction":"not_listed","seasonal_restriction":"not_listed","gis_miles":0.2414533},"geometry":{"type":"LineString","coordinates":[[-115.26734,32.74811],[-115.26781,32.74803],[-115.26828,32.74797],[-115.26878,32.74798],[-115.26914,32.74805],[-115.26916,32.74805],[-115.26937,32.74809],[-115.26991,32.74815],[-115.27015,32.7482],[-115.27045,32.74827],[-115.27086,32.7485],[-115.27126,32.74874]]}},{"type":"Feature","properties":{"name":"474","source":"Bureau of Land Management","source_detail":"BLM GTLF OBJECTID 154548","source_id":"{9AAA55C1-2BEE-490D-94ED-50D187771D9C}","road_class":"transportation_system_-_primitive_road","surface":"natural","vehicle_class":"4wd_high_clearance_specialized","allowed_mode":"unk","access_restriction":"not_listed","seasonal_restriction":"not_listed","gis_miles":5.06517964},"geometry":{"type":"LineString","coordinates":[[-114.96216,32.71626],[-114.96216,32.71766],[-114.96217,32.71951],[-114.96217,32.71986],[-114.96221,32.71993],[-114.96235,32.72007],[-114.96257,32.72009],[-114.96281,32.72006],[-114.96313,32.72],[-114.96402,32.71999],[-114.96431,32.71998],[-114.96466,32.7199],[-114.96508,32.71991],[-114.96546,32.71991],[-114.96581,32.71995],[-114.96607,32.72003],[-114.9663,32.72015],[-114.9667,32.72045],[-114.96686,32.72066],[-114.96713,32.72101],[-114.96731,32.72122],[-114.96761,32.72159],[-114.96899,32.72326],[-114.9699,32.72442],[-114.97043,32.72505],[-114.97107,32.72584],[-114.97149,32.72635],[-114.97168,32.72673],[-114.97197,32.72696],[-114.97206,32.72704],[-114.97284,32.72804],[-114.97421,32.72967],[-114.97572,32.73155],[-114.97729,32.73351],[-114.97894,32.7355],[-114.98052,32.73746],[-114.98141,32.73857],[-114.98223,32.73945],[-114.98263,32.74007],[-114.98378,32.74137],[-114.9855,32.74332],[-114.98725,32.74529],[-114.98917,32.74746],[-114.99086,32.74935],[-114.99267,32.75138],[-114.99373,32.75259],[-114.99436,32.75332],[-114.99539,32.75449],[-114.99616,32.75534],[-114.99732,32.75666],[-114.99902,32.75858],[-115.00078,32.76056],[-115.00128,32.76111],[-115.00248,32.76245],[-115.00405,32.76425],[-115.00554,32.76596],[-115.00616,32.76668],[-115.00617,32.76669],[-115.00611,32.76691],[-115.00642,32.76695],[-115.00709,32.7677],[-115.00866,32.7694],[-115.00963,32.77059],[-115.00988,32.77088],[-115.01027,32.77122],[-115.01161,32.77276],[-115.01229,32.77356]]}},{"type":"Feature","properties":{"name":"474","source":"Bureau of Land Management","source_detail":"BLM GTLF OBJECTID 154635","source_id":"{DCE9564F-4FB0-43DA-BECD-7A12274717C2}","road_class":"transportation_system_-_primitive_road","surface":"natural","vehicle_class":"4wd_high_clearance_specialized","allowed_mode":"unk","access_restriction":"not_listed","seasonal_restriction":"not_listed","gis_miles":0.68279295},"geometry":{"type":"MultiLineString","coordinates":[[[-115.02916,32.79245],[-115.02928,32.79258],[-115.02933,32.79276],[-115.03,32.79348],[-115.03056,32.79411]],[[-115.02587,32.78883],[-115.02685,32.78992],[-115.02761,32.79077]],[[-115.01943,32.78158],[-115.02006,32.78229],[-115.02168,32.78411],[-115.02329,32.78592]]]}},{"type":"Feature","properties":{"name":"495","source":"Bureau of Land Management","source_detail":"BLM GTLF OBJECTID 154908","source_id":"{5AE08B69-F517-4A02-9DDA-84C1F5C4F08D}","road_class":"transportation_system_-_primitive_road","surface":"natural","vehicle_class":"4wd_high_clearance_specialized","allowed_mode":"unk","access_restriction":"not_listed","seasonal_restriction":"not_listed","gis_miles":6.43625248},"geometry":{"type":"LineString","coordinates":[[-115.22933,32.83734],[-115.22933,32.83734],[-115.22931,32.83925],[-115.22929,32.84121],[-115.22929,32.84243],[-115.22928,32.84341],[-115.22928,32.84538],[-115.22928,32.84578],[-115.22927,32.84735],[-115.22928,32.849],[-115.2293,32.85092],[-115.22933,32.85276],[-115.22931,32.85413],[-115.22705,32.85411],[-115.22339,32.85411],[-115.22,32.85409],[-115.21642,32.85404],[-115.21263,32.85405],[-115.21226,32.85411],[-115.21185,32.85414],[-115.21157,32.85413],[-115.21118,32.8541],[-115.21091,32.8541],[-115.21043,32.85414],[-115.21027,32.85417],[-115.20996,32.85421],[-115.20968,32.85433],[-115.20941,32.85438],[-115.20914,32.85449],[-115.20887,32.85461],[-115.20846,32.85478],[-115.20817,32.85495],[-115.20778,32.85523],[-115.20741,32.8555],[-115.20703,32.85574],[-115.20676,32.85592],[-115.20638,32.8562],[-115.20603,32.85648],[-115.20586,32.85667],[-115.2056,32.85683],[-115.20525,32.85711],[-115.20512,32.85745],[-115.20491,32.85762],[-115.20477,32.85785],[-115.20457,32.85802],[-115.2043,32.85837],[-115.20409,32.8587],[-115.20388,32.85905],[-115.20361,32.85939],[-115.20327,32.85968],[-115.20305,32.85985],[-115.20232,32.86017],[-115.20201,32.86039],[-115.20157,32.86059],[-115.20134,32.86073],[-115.20108,32.86093],[-115.20082,32.86115],[-115.20051,32.86149],[-115.20018,32.86179],[-115.19986,32.86212],[-115.19952,32.86246],[-115.19931,32.86264],[-115.19911,32.8628],[-115.19877,32.86315],[-115.19849,32.86349],[-115.19829,32.86366],[-115.198,32.86397],[-115.19774,32.86417],[-115.19754,32.86434],[-115.19733,32.86454],[-115.19715,32.86473],[-115.19667,32.86523],[-115.19637,32.8656],[-115.19596,32.86611],[-115.19571,32.86647],[-115.19549,32.86662],[-115.19521,32.86696],[-115.19507,32.86731],[-115.19494,32.86765],[-115.19479,32.86793],[-115.19466,32.86822],[-115.19453,32.86838],[-115.19448,32.86845],[-115.19412,32.86871],[-115.19391,32.86885],[-115.19354,32.86918],[-115.19339,32.86929],[-115.19326,32.86937],[-115.19286,32.86956],[-115.19247,32.86973],[-115.19218,32.86985],[-115.19176,32.87004],[-115.19142,32.87016],[-115.19109,32.87026],[-115.19083,32.87031],[-115.19043,32.87038],[-115.18985,32.87048],[-115.18925,32.87056],[-115.18882,32.87067],[-115.18838,32.87086],[-115.1882,32.87097],[-115.18782,32.87107],[-115.18745,32.8713],[-115.18708,32.8715],[-115.18687,32.87163],[-115.18604,32.87196],[-115.18533,32.87221],[-115.18445,32.87252],[-115.18381,32.87272],[-115.18315,32.87296],[-115.1824,32.87319],[-115.18206,32.87332],[-115.18183,32.87334],[-115.18158,32.87329],[-115.181,32.87309],[-115.18075,32.87303],[-115.18058,32.87305],[-115.18037,32.8731],[-115.18009,32.87321],[-115.17988,32.87341],[-115.17987,32.87342],[-115.17959,32.87414],[-115.17931,32.87432],[-115.17887,32.87449],[-115.17848,32.87475],[-115.17797,32.87479],[-115.1773,32.87484],[-115.17722,32.87485],[-115.17695,32.87486],[-115.17674,32.87499],[-115.17615,32.87506],[-115.17548,32.87511],[-115.17463,32.87496],[-115.17439,32.87476],[-115.17385,32.8747],[-115.17351,32.8747],[-115.1731,32.8747],[-115.17256,32.87464],[-115.17202,32.87461],[-115.17176,32.87451],[-115.17149,32.87446],[-115.17047,32.87441],[-115.17006,32.87442],[-115.16931,32.87436],[-115.16855,32.87435],[-115.16762,32.87431],[-115.16686,32.87428],[-115.16626,32.87374],[-115.16551,32.87357],[-115.16477,32.87345],[-115.16402,32.87333],[-115.16327,32.87356],[-115.1624,32.87403],[-115.16164,32.8741],[-115.16021,32.87403],[-115.15994,32.874],[-115.15899,32.87402],[-115.15798,32.87395],[-115.15688,32.87388],[-115.15577,32.87385],[-115.15503,32.87386],[-115.15458,32.8738],[-115.15363,32.8738],[-115.15282,32.87379],[-115.15186,32.87378],[-115.15112,32.87374],[-115.15052,32.8737],[-115.14985,32.87368]]}},{"type":"Feature","properties":{"name":"486","source":"Bureau of Land Management","source_detail":"BLM GTLF OBJECTID 154974","source_id":"{2BCED92B-20B1-461B-9F29-4DCBBCC82ED4}","road_class":"transportation_system_-_primitive_road","surface":"natural","vehicle_class":"4wd_high_clearance_specialized","allowed_mode":"unk","access_restriction":"not_listed","seasonal_restriction":"not_listed","gis_miles":2.33390746},"geometry":{"type":"LineString","coordinates":[[-115.25292,32.84095],[-115.25289,32.84141],[-115.2528,32.84204],[-115.2529,32.84253],[-115.25293,32.8428],[-115.25276,32.84344],[-115.25254,32.84393],[-115.25249,32.84412],[-115.25241,32.84437],[-115.25226,32.84488],[-115.25217,32.84537],[-115.25214,32.84548],[-115.25205,32.84577],[-115.2519,32.846],[-115.25186,32.84611],[-115.25177,32.84634],[-115.25166,32.84668],[-115.25155,32.84702],[-115.25149,32.84736],[-115.25133,32.84788],[-115.25111,32.84834],[-115.25095,32.84863],[-115.25068,32.84912],[-115.25051,32.8495],[-115.25027,32.84989],[-115.25007,32.85038],[-115.24972,32.85108],[-115.24956,32.85135],[-115.24927,32.85208],[-115.24912,32.85269],[-115.24894,32.85315],[-115.24893,32.85348],[-115.24884,32.85478],[-115.24872,32.85504],[-115.24858,32.85529],[-115.24825,32.85581],[-115.24816,32.85605],[-115.24812,32.85686],[-115.24814,32.85716],[-115.24815,32.85737],[-115.24817,32.8576],[-115.24813,32.85789],[-115.24802,32.85828],[-115.24788,32.85879],[-115.2478,32.85915],[-115.24763,32.85963],[-115.24761,32.85994],[-115.24759,32.86016],[-115.24736,32.86087],[-115.24732,32.86125],[-115.24723,32.86146],[-115.24707,32.86162],[-115.24693,32.8619],[-115.24684,32.86227],[-115.24677,32.86279],[-115.24675,32.86332],[-115.24668,32.86374],[-115.24668,32.86375],[-115.24667,32.86378],[-115.24669,32.86408],[-115.2467,32.86464],[-115.24664,32.86499],[-115.24658,32.86551],[-115.24657,32.86581],[-115.24639,32.8664],[-115.24633,32.86664],[-115.24633,32.86687],[-115.24643,32.86715],[-115.24652,32.86736],[-115.24648,32.86767],[-115.24648,32.86791],[-115.24653,32.86855],[-115.24629,32.86885],[-115.24595,32.86948],[-115.24594,32.86963],[-115.24602,32.86994],[-115.24604,32.87007],[-115.24605,32.87029],[-115.24602,32.87049],[-115.24592,32.87072],[-115.24586,32.87082],[-115.24583,32.87098],[-115.24563,32.87153],[-115.24543,32.87169],[-115.24538,32.87186],[-115.24539,32.87203],[-115.24534,32.87218],[-115.24528,32.87234],[-115.24532,32.87257],[-115.24544,32.87272],[-115.24553,32.87292],[-115.24553,32.87306],[-115.24549,32.87327],[-115.24562,32.87354]]}},{"type":"Feature","properties":{"name":"392","source":"Bureau of Land Management","source_detail":"BLM GTLF OBJECTID 155098","source_id":"{0884A357-6FA2-40AE-B6C4-D1FF6B533AD0}","road_class":"transportation_system_-_primitive_road","surface":"natural","vehicle_class":"4wd_high_clearance_specialized","allowed_mode":"unk","access_restriction":"not_listed","seasonal_restriction":"not_listed","gis_miles":1.51689266},"geometry":{"type":"LineString","coordinates":[[-115.26771,32.70425],[-115.26743,32.70461],[-115.26719,32.70481],[-115.26698,32.70505],[-115.26705,32.70527],[-115.2665,32.70552],[-115.26635,32.70569],[-115.26609,32.70593],[-115.26558,32.7067],[-115.26374,32.70942],[-115.26217,32.71177],[-115.26206,32.71208],[-115.26202,32.71244],[-115.262,32.71455],[-115.26196,32.71632],[-115.26197,32.71652],[-115.26207,32.71669],[-115.26219,32.71705],[-115.26224,32.71741],[-115.26221,32.71755],[-115.26213,32.71775],[-115.2618,32.71791],[-115.26181,32.718],[-115.26193,32.71816],[-115.26181,32.71848],[-115.26171,32.71862],[-115.26179,32.71873],[-115.26188,32.71885],[-115.26186,32.71897],[-115.2618,32.71918],[-115.26173,32.7194],[-115.26168,32.71954],[-115.26167,32.71976],[-115.26166,32.72],[-115.2616,32.72023],[-115.26159,32.72038],[-115.26151,32.72048],[-115.26153,32.72057],[-115.26161,32.72069],[-115.26176,32.72081],[-115.26179,32.72098],[-115.2617,32.72114],[-115.26171,32.72144],[-115.26177,32.72155],[-115.26189,32.72163],[-115.26195,32.72174],[-115.26216,32.72177],[-115.26224,32.72183],[-115.26234,32.72186],[-115.26244,32.72185],[-115.26253,32.72186],[-115.26266,32.72203],[-115.26277,32.7221],[-115.26281,32.7222],[-115.26274,32.72228],[-115.26276,32.72243],[-115.2624,32.72272],[-115.26226,32.72277],[-115.26211,32.72282],[-115.26206,32.72291],[-115.26203,32.72305],[-115.26201,32.72316],[-115.26195,32.72323],[-115.26185,32.72328],[-115.2618,32.72336]]}},{"type":"Feature","properties":{"name":"496","source":"Bureau of Land Management","source_detail":"BLM GTLF OBJECTID 156096","source_id":"{00DF5A6B-454C-45C7-9FE9-01BE9C351ED6}","road_class":"transportation_system_-_primitive_road","surface":"natural","vehicle_class":"4wd_high_clearance_specialized","allowed_mode":"unk","access_restriction":"not_listed","seasonal_restriction":"not_listed","gis_miles":1.87984006},"geometry":{"type":"LineString","coordinates":[[-115.13198,32.85445],[-115.13291,32.85346],[-115.13478,32.85156],[-115.13654,32.8497],[-115.13743,32.8487],[-115.13778,32.8484],[-115.13814,32.8482],[-115.13906,32.84793],[-115.14044,32.84754],[-115.14174,32.84725],[-115.1419,32.84719],[-115.14269,32.84693],[-115.14318,32.84675],[-115.14441,32.8462],[-115.14603,32.84552],[-115.14664,32.84527],[-115.14731,32.84481],[-115.14819,32.84431],[-115.14917,32.84394],[-115.15062,32.84332],[-115.15131,32.843],[-115.15194,32.8427],[-115.15382,32.8416],[-115.1543,32.84126],[-115.15457,32.84088],[-115.15473,32.84044],[-115.15496,32.83982],[-115.15494,32.83932],[-115.15494,32.83918],[-115.15493,32.83866],[-115.15487,32.83766]]}},{"type":"Feature","properties":{"name":"387","source":"Bureau of Land Management","source_detail":"BLM GTLF OBJECTID 156689","source_id":"{55D9665F-C942-4C24-8725-83086068C152}","road_class":"transportation_system_-_primitive_road","surface":"natural","vehicle_class":"4wd_high_clearance_specialized","allowed_mode":"unk","access_restriction":"not_listed","seasonal_restriction":"not_listed","gis_miles":1.73328292},"geometry":{"type":"LineString","coordinates":[[-115.02318,32.75272],[-115.02083,32.75273],[-115.01748,32.75276],[-115.014,32.75274],[-115.01066,32.75274],[-115.00831,32.75272],[-115.00638,32.75265],[-115.00624,32.75274],[-115.0062,32.7529],[-115.00605,32.75277],[-115.00562,32.75266],[-115.00532,32.75263],[-115.00475,32.75264],[-115.00131,32.75261],[-114.99801,32.75261],[-114.99373,32.75259]]}},{"type":"Feature","properties":{"name":"469","source":"Bureau of Land Management","source_detail":"BLM GTLF OBJECTID 156758","source_id":"{ACAA9BF5-DB04-4B4E-AB1D-7BB8D4C729B8}","road_class":"transportation_system_-_primitive_road","surface":"natural","vehicle_class":"4wd_high_clearance_specialized","allowed_mode":"unk","access_restriction":"not_listed","seasonal_restriction":"not_listed","gis_miles":2.30786587},"geometry":{"type":"LineString","coordinates":[[-115.02882,32.79607],[-115.02876,32.79605],[-115.02737,32.79552],[-115.02695,32.79528],[-115.02611,32.79494],[-115.02539,32.79461],[-115.02494,32.79431],[-115.02428,32.794],[-115.02297,32.79343],[-115.02284,32.79337],[-115.0226,32.79315],[-115.02246,32.79309],[-115.02127,32.79273],[-115.02053,32.79251],[-115.01944,32.79219],[-115.01921,32.79215],[-115.01911,32.79214],[-115.01889,32.79207],[-115.01834,32.79187],[-115.01807,32.79178],[-115.01557,32.79084],[-115.01467,32.79051],[-115.01209,32.78954],[-115.01167,32.78938],[-115.01046,32.78895],[-115.01002,32.78877],[-115.00937,32.78861],[-115.00886,32.78846],[-115.0079,32.78804],[-115.00717,32.78771],[-115.00673,32.78759],[-115.00605,32.78738],[-115.00538,32.78713],[-115.00518,32.7871],[-115.00473,32.78688],[-115.00442,32.7868],[-115.00422,32.78669],[-115.0039,32.78653],[-115.00349,32.78639],[-115.00271,32.78629],[-115.00166,32.78604],[-115.00051,32.78587],[-114.99987,32.78571],[-114.9985,32.7852],[-114.99731,32.78481],[-114.9962,32.7843],[-114.99411,32.78347],[-114.99263,32.78287]]}},{"type":"Feature","properties":{"name":"380","source":"Bureau of Land Management","source_detail":"BLM GTLF OBJECTID 156971","source_id":"{4ED984A2-87D8-4D3B-92A9-3ECB5976EACC}","road_class":"transportation_system_-_primitive_road","surface":"natural","vehicle_class":"4wd_high_clearance_specialized","allowed_mode":"unk","access_restriction":"not_listed","seasonal_restriction":"not_listed","gis_miles":3.14180368},"geometry":{"type":"MultiLineString","coordinates":[[[-115.1262,32.75239],[-115.12635,32.75221],[-115.12643,32.75192],[-115.12645,32.75164],[-115.12652,32.75117],[-115.12652,32.75074],[-115.12651,32.75053],[-115.12644,32.75002],[-115.12643,32.74977],[-115.12644,32.7494],[-115.12646,32.7491],[-115.12638,32.7487],[-115.12635,32.74835],[-115.12634,32.74797],[-115.12639,32.74746],[-115.12635,32.74724],[-115.12632,32.74715],[-115.12635,32.74698],[-115.12636,32.74644],[-115.12631,32.74626],[-115.12638,32.74535],[-115.12639,32.74521],[-115.12633,32.74503],[-115.1263,32.74492],[-115.12629,32.74454],[-115.12631,32.74441],[-115.12631,32.74339],[-115.12629,32.74315],[-115.1263,32.74292],[-115.12634,32.74271],[-115.12631,32.74153],[-115.12634,32.74133],[-115.1263,32.74113],[-115.12631,32.74067],[-115.12633,32.74049],[-115.12634,32.73963],[-115.12638,32.73766],[-115.12638,32.7376],[-115.1264,32.73603],[-115.12645,32.7355],[-115.12645,32.73533],[-115.12648,32.73477],[-115.12645,32.73389],[-115.12641,32.73336],[-115.12645,32.73224],[-115.12639,32.73135],[-115.12639,32.7311],[-115.12644,32.73058],[-115.12646,32.72991],[-115.12643,32.72958],[-115.12637,32.72912],[-115.12638,32.72856],[-115.12641,32.72828],[-115.12638,32.72805],[-115.12634,32.72737],[-115.12618,32.72679],[-115.12618,32.72678],[-115.12618,32.72678],[-115.12618,32.72654],[-115.12623,32.72616],[-115.12616,32.72483],[-115.12622,32.72467],[-115.12625,32.72386],[-115.12621,32.72349],[-115.12609,32.72302]],[[-115.1262,32.72191],[-115.12611,32.72139],[-115.12619,32.72101],[-115.12621,32.72043],[-115.12623,32.72031],[-115.1263,32.7202],[-115.1264,32.72001],[-115.12642,32.71769],[-115.12634,32.71717],[-115.12616,32.71584],[-115.12613,32.71458],[-115.12617,32.71435],[-115.12615,32.71322],[-115.12609,32.71232],[-115.12616,32.712],[-115.12619,32.71184],[-115.12628,32.71158],[-115.12628,32.71144],[-115.12625,32.71132],[-115.1262,32.71119],[-115.12615,32.71065],[-115.12625,32.70973],[-115.12629,32.70934],[-115.12629,32.70817],[-115.12629,32.70703],[-115.12628,32.70696],[-115.12627,32.70588]]]}},{"type":"Feature","properties":{"name":"364","source":"Bureau of Land Management","source_detail":"BLM GTLF OBJECTID 157068","source_id":"{75CA6D2F-9795-4426-B1E0-93C2E9458C0A}","road_class":"transportation_system_-_primitive_road","surface":"natural","vehicle_class":"4wd_high_clearance_specialized","allowed_mode":"unk","access_restriction":"not_listed","seasonal_restriction":"not_listed","gis_miles":1.00791576},"geometry":{"type":"LineString","coordinates":[[-115.26985,32.76414],[-115.26984,32.76411],[-115.26966,32.76346],[-115.26942,32.76281],[-115.26929,32.7619],[-115.26923,32.7613],[-115.26919,32.76074],[-115.26899,32.75969],[-115.269,32.75941],[-115.2692,32.75877],[-115.26929,32.75846],[-115.26945,32.75761],[-115.26945,32.75759],[-115.26968,32.75735],[-115.27001,32.75709],[-115.27048,32.75692],[-115.27063,32.75679],[-115.27062,32.75618],[-115.27054,32.75591],[-115.27044,32.75551],[-115.27024,32.7549],[-115.27023,32.75453],[-115.27027,32.75394],[-115.27022,32.75356],[-115.27013,32.75337],[-115.26983,32.75319],[-115.2695,32.75298],[-115.26905,32.75248],[-115.26889,32.75226],[-115.2688,32.75214],[-115.2684,32.75159],[-115.26808,32.75118],[-115.26792,32.75084]]}},{"type":"Feature","properties":{"name":"494","source":"Bureau of Land Management","source_detail":"BLM GTLF OBJECTID 157210","source_id":"{C25AF6FE-0CEF-481B-AD53-162587A9FFC2}","road_class":"transportation_system_-_primitive_road","surface":"natural","vehicle_class":"4wd_high_clearance_specialized","allowed_mode":"unk","access_restriction":"not_listed","seasonal_restriction":"not_listed","gis_miles":5.99454223},"geometry":{"type":"LineString","coordinates":[[-115.15349,32.83232],[-115.15407,32.8322],[-115.15503,32.83201],[-115.15733,32.83156],[-115.15875,32.83126],[-115.15996,32.83101],[-115.16054,32.83089],[-115.16149,32.8307],[-115.1638,32.83027],[-115.16493,32.82997],[-115.16539,32.8299],[-115.16586,32.82991],[-115.16675,32.82997],[-115.16829,32.83015],[-115.17064,32.83041],[-115.17428,32.83079],[-115.175,32.83083],[-115.17583,32.83092],[-115.17797,32.83114],[-115.18139,32.83148],[-115.18268,32.83161],[-115.18269,32.83161],[-115.18404,32.83176],[-115.18452,32.8318],[-115.18493,32.83182],[-115.18637,32.83198],[-115.18796,32.83213],[-115.18991,32.83235],[-115.19169,32.83253],[-115.19288,32.83264],[-115.19421,32.83279],[-115.19514,32.83288],[-115.19782,32.83313],[-115.19782,32.83313],[-115.19897,32.83327],[-115.20284,32.83366],[-115.20636,32.83401],[-115.20935,32.83433],[-115.21026,32.83446],[-115.21424,32.83506],[-115.21816,32.83564],[-115.22179,32.83622],[-115.22539,32.83676],[-115.22933,32.83734],[-115.22933,32.83734],[-115.23289,32.83791],[-115.23352,32.83801],[-115.23665,32.83849],[-115.23891,32.83882],[-115.24016,32.839],[-115.2419,32.83926],[-115.24386,32.83956],[-115.24778,32.84015],[-115.24956,32.84043],[-115.25177,32.84078],[-115.25292,32.84095],[-115.25333,32.84102],[-115.2541,32.84114],[-115.255,32.84127]]}},{"type":"Feature","properties":{"name":"468","source":"Bureau of Land Management","source_detail":"BLM GTLF OBJECTID 157302","source_id":"{EC11F532-C3DB-4488-9F09-727B63B4A472}","road_class":"transportation_system_-_primitive_road","surface":"natural_improved","vehicle_class":"4wd_low","allowed_mode":"unk","access_restriction":"not_listed","seasonal_restriction":"not_listed","gis_miles":19.37962698},"geometry":{"type":"MultiLineString","coordinates":[[[-114.94342,32.71305],[-114.94346,32.71341],[-114.94306,32.71399],[-114.94307,32.71418],[-114.94358,32.71569],[-114.94419,32.71741],[-114.94488,32.71929],[-114.94564,32.72138],[-114.9463,32.72318],[-114.94664,32.72413],[-114.94705,32.72513],[-114.94748,32.726],[-114.94777,32.7266],[-114.94821,32.72745],[-114.94885,32.72855],[-114.9492,32.7291],[-114.95026,32.73081],[-114.95138,32.73264],[-114.95245,32.73435],[-114.95365,32.73631],[-114.9546,32.73782]],[[-115.00915,32.79608],[-115.0097,32.7964],[-115.01333,32.79845],[-115.01448,32.79911],[-115.017,32.8006],[-115.01798,32.80124],[-115.01961,32.80236],[-115.02147,32.80372],[-115.02512,32.80634],[-115.02813,32.80853],[-115.02881,32.80902],[-115.03252,32.81171],[-115.03641,32.81453],[-115.04008,32.81718],[-115.04385,32.81989],[-115.0479,32.82283],[-115.05154,32.82548],[-115.05548,32.82834],[-115.05912,32.83097],[-115.06277,32.83361],[-115.06556,32.83563],[-115.06663,32.83639],[-115.0682,32.83752],[-115.06913,32.83822],[-115.07011,32.83904],[-115.07118,32.83998],[-115.07192,32.8407],[-115.07249,32.8413],[-115.07307,32.84196],[-115.07322,32.84213],[-115.07376,32.84281],[-115.07511,32.84438],[-115.07735,32.84704],[-115.07972,32.8498],[-115.0814,32.85174],[-115.08192,32.85236],[-115.08422,32.85508],[-115.08644,32.8577],[-115.08873,32.8604],[-115.091,32.86308],[-115.0935,32.866],[-115.09583,32.86876],[-115.09816,32.8715],[-115.10052,32.87428],[-115.10287,32.87705],[-115.10518,32.87974],[-115.10738,32.88234],[-115.10744,32.88242],[-115.10865,32.88383],[-115.11103,32.88663],[-115.11205,32.88786],[-115.11287,32.8888],[-115.11464,32.89086],[-115.1151,32.89142],[-115.11566,32.89209],[-115.11629,32.89278],[-115.11742,32.89413],[-115.11974,32.89684],[-115.12192,32.89941],[-115.12262,32.90023],[-115.12263,32.90025],[-115.12421,32.90212],[-115.12653,32.90484],[-115.12893,32.90766],[-115.12969,32.90853],[-115.13018,32.9091],[-115.13099,32.91004],[-115.13337,32.91281],[-115.13551,32.91534],[-115.13793,32.91817],[-115.14007,32.92068],[-115.14055,32.92126],[-115.14163,32.92253],[-115.14239,32.92341],[-115.14461,32.92601],[-115.14696,32.9288],[-115.14927,32.93153],[-115.15158,32.93426],[-115.15229,32.93508],[-115.15301,32.93592],[-115.15396,32.93701],[-115.15628,32.93971],[-115.15863,32.94251],[-115.16047,32.94468],[-115.16106,32.94536],[-115.16332,32.94803],[-115.16552,32.95062],[-115.16564,32.95076],[-115.16791,32.95342],[-115.1703,32.95615],[-115.17285,32.95887],[-115.17345,32.95952],[-115.1737,32.95979],[-115.17536,32.9615],[-115.17538,32.96152]],[[-115.18216,32.96921],[-115.18247,32.9696],[-115.18254,32.96969],[-115.18366,32.97107],[-115.18427,32.97182],[-115.18491,32.97247],[-115.18493,32.9725]],[[-115.26491,33.06522],[-115.26536,33.06576],[-115.26776,33.0686],[-115.26991,33.07107],[-115.27173,33.07322],[-115.27358,33.07534],[-115.27418,33.07593],[-115.27607,33.07762],[-115.27721,33.07865],[-115.2801,33.08124],[-115.28299,33.0838],[-115.28498,33.0856],[-115.28614,33.08663],[-115.28898,33.08917],[-115.28941,33.08954]]]}},{"type":"Feature","properties":{"name":"044","source":"Bureau of Land Management","source_detail":"BLM GTLF OBJECTID 157605","source_id":"{66E386E9-4AFA-415F-B7A9-DE5F23BC17CA}","road_class":"transportation_system_-_primitive_road","surface":"natural","vehicle_class":"4wd_high_clearance_specialized","allowed_mode":"unk","access_restriction":"not_listed","seasonal_restriction":"not_listed","gis_miles":1.28527626},"geometry":{"type":"LineString","coordinates":[[-115.26484,32.83229],[-115.26498,32.83214],[-115.2652,32.83186],[-115.26559,32.83151],[-115.2658,32.83134],[-115.26621,32.83111],[-115.26681,32.83089],[-115.26705,32.83086],[-115.26739,32.83065],[-115.26794,32.83029],[-115.26887,32.83009],[-115.2694,32.82989],[-115.26991,32.83006],[-115.27022,32.83016],[-115.27062,32.83027],[-115.27086,32.83024],[-115.27103,32.83027],[-115.2713,32.83039],[-115.27169,32.83041],[-115.27195,32.83043],[-115.27219,32.83049],[-115.27245,32.83051],[-115.27293,32.83051],[-115.2733,32.8305],[-115.27352,32.83045],[-115.27374,32.83046],[-115.27415,32.83052],[-115.27426,32.83056],[-115.27469,32.83058],[-115.27529,32.83059],[-115.27584,32.8306],[-115.27625,32.83064],[-115.27771,32.83089],[-115.27797,32.83093],[-115.27823,32.83096],[-115.27863,32.83102],[-115.27902,32.831],[-115.27947,32.83108],[-115.27994,32.83118],[-115.28037,32.83124],[-115.28086,32.83141],[-115.28172,32.83186],[-115.28256,32.83228],[-115.28315,32.8323],[-115.28351,32.83237],[-115.28534,32.83263]]}},{"type":"Feature","properties":{"name":"469","source":"Bureau of Land Management","source_detail":"BLM GTLF OBJECTID 157615","source_id":"{57D38587-4757-4DCF-984C-EA42957B0EA6}","road_class":"transportation_system_-_primitive_road","surface":"natural","vehicle_class":"4wd_high_clearance_specialized","allowed_mode":"unk","access_restriction":"not_listed","seasonal_restriction":"not_listed","gis_miles":13.17701588},"geometry":{"type":"LineString","coordinates":[[-115.16047,32.94468],[-115.16066,32.94346],[-115.16074,32.94203],[-115.16034,32.94071],[-115.16029,32.93882],[-115.15935,32.9375],[-115.15908,32.93658],[-115.15855,32.93555],[-115.15816,32.93466],[-115.15788,32.93354],[-115.15793,32.93309],[-115.15795,32.93279],[-115.15763,32.93204],[-115.15762,32.93201],[-115.15675,32.93067],[-115.15621,32.92952],[-115.15535,32.92751],[-115.1544,32.92636],[-115.15353,32.9247],[-115.15314,32.92355],[-115.15226,32.92206],[-115.15092,32.92022],[-115.14979,32.91864],[-115.14964,32.91844],[-115.14955,32.91832],[-115.14776,32.91596],[-115.14608,32.91344],[-115.14541,32.91234],[-115.14454,32.91085],[-115.14381,32.9097],[-115.14286,32.90895],[-115.14212,32.90832],[-115.14151,32.90786],[-115.14097,32.90774],[-115.14016,32.90693],[-115.13928,32.90618],[-115.13875,32.90561],[-115.13807,32.90526],[-115.13726,32.90474],[-115.13699,32.90457],[-115.1369,32.90444],[-115.13625,32.90342],[-115.13524,32.90227],[-115.13416,32.90152],[-115.13342,32.90042],[-115.13221,32.89944],[-115.13181,32.89875],[-115.13019,32.89783],[-115.12911,32.89708],[-115.12884,32.89639],[-115.1281,32.89541],[-115.12759,32.89474],[-115.12628,32.89277],[-115.12567,32.89179],[-115.12482,32.89085],[-115.12378,32.88969],[-115.12257,32.88834],[-115.12161,32.88719],[-115.12067,32.88631],[-115.1197,32.88538],[-115.11916,32.88487],[-115.1181,32.88387],[-115.11461,32.87954],[-115.1142,32.87905],[-115.11386,32.87867],[-115.11199,32.87648],[-115.1085,32.8724],[-115.10413,32.86756],[-115.10197,32.86423],[-115.10183,32.864],[-115.09777,32.85866],[-115.0925,32.85405],[-115.0884,32.85046],[-115.08645,32.85114],[-115.08566,32.85014],[-115.08485,32.84907],[-115.08439,32.84845],[-115.08397,32.84792],[-115.08313,32.84684],[-115.08284,32.84649],[-115.08245,32.84592],[-115.08207,32.84544],[-115.08185,32.84522],[-115.08151,32.84472],[-115.08114,32.8442],[-115.07842,32.84078],[-115.07748,32.83953],[-115.07748,32.83952],[-115.07672,32.83854],[-115.07494,32.83622],[-115.07284,32.8335],[-115.07089,32.83097],[-115.06924,32.82881],[-115.06831,32.82755],[-115.06736,32.82633],[-115.06625,32.82493],[-115.0651,32.82342],[-115.06334,32.82114],[-115.06191,32.81928],[-115.06081,32.81772],[-115.0604,32.81741],[-115.06018,32.81716],[-115.05927,32.81633],[-115.05824,32.81539],[-115.05628,32.81353],[-115.05468,32.81204],[-115.0523,32.80979],[-115.05026,32.80786],[-115.04952,32.80725],[-115.04849,32.80649],[-115.04737,32.80574],[-115.04597,32.80483],[-115.04432,32.8038],[-115.0408,32.8015],[-115.03759,32.79944],[-115.0369,32.79919],[-115.03662,32.79915],[-115.03637,32.79902],[-115.03316,32.79782],[-115.03249,32.79758],[-115.03214,32.79737],[-115.0312,32.79699],[-115.03011,32.7966],[-115.02967,32.79638],[-115.02882,32.79607]]}},{"type":"Feature","properties":{"name":"360","source":"Bureau of Land Management","source_detail":"BLM GTLF OBJECTID 157623","source_id":"{8748852F-E0FB-48BD-B19E-3BBEC58BA330}","road_class":"transportation_system_-_primitive_road","surface":"natural","vehicle_class":"4wd_high_clearance_specialized","allowed_mode":"unk","access_restriction":"not_listed","seasonal_restriction":"not_listed","gis_miles":0.27878841},"geometry":{"type":"LineString","coordinates":[[-115.08781,32.71231],[-115.0885,32.71632]]}},{"type":"Feature","properties":{"name":"470","source":"Bureau of Land Management","source_detail":"BLM GTLF OBJECTID 157855","source_id":"{260D1AC0-14B9-496A-9E3C-273EF86DCF20}","road_class":"transportation_system_-_primitive_road","surface":"natural","vehicle_class":"4wd_high_clearance_specialized","allowed_mode":"unk","access_restriction":"not_listed","seasonal_restriction":"not_listed","gis_miles":0.98808035},"geometry":{"type":"LineString","coordinates":[[-115.28052,32.81089],[-115.27978,32.81097],[-115.27939,32.81096],[-115.27875,32.81089],[-115.27829,32.81083],[-115.27775,32.81083],[-115.27726,32.81081],[-115.27657,32.81075],[-115.27598,32.81074],[-115.2754,32.81078],[-115.27444,32.81078],[-115.27108,32.8108],[-115.26894,32.81079],[-115.26745,32.81084],[-115.26427,32.81094],[-115.26387,32.8109],[-115.26363,32.81079]]}},{"type":"Feature","properties":{"name":"375","source":"Bureau of Land Management","source_detail":"BLM GTLF OBJECTID 158041","source_id":"{E18ACCCF-396A-4C95-A201-6F613A6CC989}","road_class":"transportation_system_-_primitive_road","surface":"natural","vehicle_class":"4wd_high_clearance_specialized","allowed_mode":"unk","access_restriction":"not_listed","seasonal_restriction":"not_listed","gis_miles":4.38246972},"geometry":{"type":"LineString","coordinates":[[-115.24619,32.75231],[-115.24628,32.75205],[-115.24632,32.75168],[-115.2463,32.74889],[-115.24626,32.74597],[-115.24627,32.74315],[-115.24629,32.74033],[-115.2463,32.7375],[-115.24625,32.73476],[-115.2463,32.73194],[-115.24628,32.72923],[-115.24626,32.72673],[-115.24626,32.72631],[-115.24625,32.72397],[-115.24627,32.7227],[-115.24628,32.72179],[-115.24627,32.7205],[-115.24626,32.71775],[-115.24626,32.71499],[-115.24625,32.71429],[-115.24621,32.71406],[-115.24624,32.71384],[-115.24624,32.71367],[-115.24587,32.71361],[-115.24564,32.71353],[-115.24535,32.71353],[-115.24483,32.71346],[-115.2445,32.71353],[-115.24411,32.71345],[-115.2435,32.71348],[-115.24276,32.71344],[-115.24147,32.71338],[-115.24064,32.71339],[-115.2395,32.71335],[-115.23566,32.71327],[-115.23439,32.71324],[-115.22939,32.71308],[-115.22446,32.71295],[-115.2214,32.71287],[-115.21972,32.71283],[-115.21855,32.71273],[-115.21734,32.71269],[-115.21731,32.71223]]}},{"type":"Feature","properties":{"name":"356","source":"Bureau of Land Management","source_detail":"BLM GTLF OBJECTID 158083","source_id":"{81BE0A54-34CC-4144-8BEB-3EE0BFF6A393}","road_class":"transportation_system_-_primitive_road","surface":"natural","vehicle_class":"4wd_high_clearance_specialized","allowed_mode":"unk","access_restriction":"not_listed","seasonal_restriction":"not_listed","gis_miles":16.04271979},"geometry":{"type":"MultiLineString","coordinates":[[[-115.21197,32.75379],[-115.21119,32.75343],[-115.21079,32.75324],[-115.21036,32.75303],[-115.20869,32.75211],[-115.20714,32.75153],[-115.20545,32.75117],[-115.20463,32.75087],[-115.20393,32.75065],[-115.20343,32.7505],[-115.20271,32.75031],[-115.20269,32.7503],[-115.20223,32.75011],[-115.20146,32.74997],[-115.20086,32.74983],[-115.20044,32.74966],[-115.20017,32.7496],[-115.1999,32.7496],[-115.19963,32.74954],[-115.19936,32.74949],[-115.19895,32.74943],[-115.19855,32.74925],[-115.19821,32.74914],[-115.19794,32.74919],[-115.19746,32.74908],[-115.19719,32.74902],[-115.19692,32.74895],[-115.19665,32.74884],[-115.19625,32.74878],[-115.19584,32.74866],[-115.19557,32.74866],[-115.1953,32.74866],[-115.19503,32.74854],[-115.1946,32.74839],[-115.19415,32.74831],[-115.19374,32.74808],[-115.19334,32.74785],[-115.19307,32.74779],[-115.1928,32.74773],[-115.19239,32.74768],[-115.19199,32.74756],[-115.19171,32.7475],[-115.19131,32.74727],[-115.19091,32.74698],[-115.19064,32.74686],[-115.19009,32.74669],[-115.18962,32.74651],[-115.18922,32.7464],[-115.18874,32.74634],[-115.18847,32.74622],[-115.1882,32.74616],[-115.18773,32.74582],[-115.18732,32.74559],[-115.18685,32.74553],[-115.18658,32.74547],[-115.18617,32.74541],[-115.18584,32.74518],[-115.18536,32.74512],[-115.18496,32.74494],[-115.18455,32.74483],[-115.18408,32.74471],[-115.18381,32.74454],[-115.1834,32.74448],[-115.18313,32.74436],[-115.16425,32.7387],[-115.16362,32.73843],[-115.16321,32.73816],[-115.15712,32.73626],[-115.15267,32.73494],[-115.15041,32.73439],[-115.14986,32.73399],[-115.1424,32.73167],[-115.13654,32.72991],[-115.13466,32.7294],[-115.13312,32.72889],[-115.12757,32.72715],[-115.12618,32.72678],[-115.12618,32.72678],[-115.12562,32.72654],[-115.12474,32.72624],[-115.12129,32.72523],[-115.11871,32.72444],[-115.11792,32.72416],[-115.11631,32.72371],[-115.11424,32.72309],[-115.11114,32.72208],[-115.1081,32.72113],[-115.10677,32.72075],[-115.10484,32.72014],[-115.10146,32.71909],[-115.09803,32.71805],[-115.09499,32.71716],[-115.09351,32.71666],[-115.09291,32.71646],[-115.09216,32.71632],[-115.09148,32.71633],[-115.0885,32.71632],[-115.08552,32.71631],[-115.08318,32.71626],[-115.08204,32.71624],[-115.07847,32.71623],[-115.07502,32.71625],[-115.0747,32.71626],[-115.07148,32.71628],[-115.06777,32.71626],[-115.0667,32.71626],[-115.06479,32.71624],[-115.06101,32.71628],[-115.05745,32.71627],[-115.0541,32.71629],[-115.05124,32.71626],[-115.05092,32.71652],[-115.04966,32.71619],[-115.04947,32.7162],[-115.04904,32.7163],[-115.04759,32.71631],[-115.04518,32.7163],[-115.04397,32.71636],[-115.04058,32.71637],[-115.03716,32.71641],[-115.03629,32.71644],[-115.03375,32.71644],[-115.03192,32.71644],[-115.03058,32.71645],[-115.02784,32.71639],[-115.02706,32.71635],[-115.02516,32.7162],[-115.02478,32.71627],[-115.02404,32.71614],[-115.02328,32.71624],[-115.02156,32.71622],[-115.02128,32.71626],[-115.02057,32.71627],[-115.0171,32.71626],[-115.01381,32.71629],[-115.01031,32.71626],[-115.00675,32.71625],[-115.00318,32.7163],[-114.9996,32.71628],[-114.99591,32.71628],[-114.99226,32.71632],[-114.98964,32.71628],[-114.98858,32.71633],[-114.98511,32.71625],[-114.98149,32.7163],[-114.97808,32.71632],[-114.97448,32.71629],[-114.97246,32.71627]],[[-114.97178,32.71628],[-114.97093,32.71628],[-114.96728,32.71625],[-114.96374,32.71626],[-114.96217,32.71626],[-114.96216,32.71626],[-114.96052,32.71627],[-114.95769,32.71628],[-114.95464,32.71628],[-114.95157,32.71624],[-114.94856,32.71626],[-114.94555,32.71624],[-114.94501,32.71632]]]}},{"type":"Feature","properties":{"name":"468","source":"Bureau of Land Management","source_detail":"BLM GTLF OBJECTID 158199","source_id":"{F123ED08-DA41-4890-8CEB-1AE7CC287D94}","road_class":"transportation_system_-_primitive_road","surface":"natural_improved","vehicle_class":"4wd_low","allowed_mode":"unk","access_restriction":"not_listed","seasonal_restriction":"not_listed","gis_miles":5.1998551},"geometry":{"type":"LineString","coordinates":[[-114.9546,32.73782],[-114.95472,32.73801],[-114.9558,32.73976],[-114.95683,32.74141],[-114.95803,32.74337],[-114.9591,32.74507],[-114.96014,32.74673],[-114.96125,32.74855],[-114.96235,32.7503],[-114.96319,32.75168],[-114.96345,32.7521],[-114.96456,32.75387],[-114.96557,32.75549],[-114.96662,32.75718],[-114.96785,32.75916],[-114.96897,32.76095],[-114.96975,32.76226],[-114.97007,32.7628],[-114.97123,32.7645],[-114.97257,32.76628],[-114.97333,32.76724],[-114.97398,32.76796],[-114.97538,32.76946],[-114.97706,32.7713],[-114.9787,32.77312],[-114.98021,32.77482],[-114.98181,32.77658],[-114.98314,32.77791],[-114.98488,32.77946],[-114.98635,32.78065],[-114.987,32.78116],[-114.98756,32.78157],[-114.9899,32.78321],[-114.99161,32.78441],[-114.99432,32.78629],[-114.99565,32.7872],[-114.99702,32.78813],[-114.99948,32.78988],[-115.00129,32.79111],[-115.00424,32.79314],[-115.0066,32.79462],[-115.00915,32.79608]]}},{"type":"Feature","properties":{"name":"T670440","source":"Bureau of Land Management","source_detail":"BLM GTLF OBJECTID 158345","source_id":"{2E50F69A-BDA7-4940-BF04-C8C490570BFA}","road_class":"transportation_system_-_primitive_road","surface":"natural","vehicle_class":"4wd_low","allowed_mode":"unk","access_restriction":"unknown","seasonal_restriction":"not_listed","gis_miles":3.62900251},"geometry":{"type":"LineString","coordinates":[[-115.25503,32.83302],[-115.25471,32.83301],[-115.25438,32.83295],[-115.25378,32.83306],[-115.25324,32.83319],[-115.25277,32.83327],[-115.2527,32.83328],[-115.25225,32.8333],[-115.25182,32.83334],[-115.25146,32.8334],[-115.25111,32.83351],[-115.25079,32.83356],[-115.25039,32.83368],[-115.25012,32.83356],[-115.24998,32.83351],[-115.24918,32.8335],[-115.24891,32.83343],[-115.24815,32.83316],[-115.24796,32.83312],[-115.24777,32.83313],[-115.2476,32.83317],[-115.24688,32.83315],[-115.24654,32.83315],[-115.24634,32.83314],[-115.24552,32.83314],[-115.24497,32.83305],[-115.24464,32.83295],[-115.24417,32.83276],[-115.24375,32.83259],[-115.24347,32.83229],[-115.24322,32.83198],[-115.24311,32.83176],[-115.243,32.83156],[-115.24289,32.83121],[-115.24262,32.83094],[-115.24218,32.83057],[-115.24191,32.83035],[-115.24177,32.83024],[-115.24158,32.83009],[-115.24159,32.82985],[-115.2416,32.8296],[-115.24155,32.82946],[-115.24143,32.82934],[-115.24117,32.82922],[-115.24039,32.82913],[-115.23919,32.82894],[-115.23733,32.82858],[-115.23652,32.8284],[-115.23557,32.82822],[-115.23491,32.82807],[-115.2339,32.82784],[-115.23202,32.82742],[-115.23151,32.82729],[-115.23056,32.82711],[-115.22968,32.82688],[-115.2288,32.82664],[-115.22798,32.82641],[-115.22731,32.82624],[-115.2265,32.82601],[-115.22575,32.82577],[-115.22501,32.82554],[-115.2244,32.82525],[-115.22365,32.82502],[-115.22304,32.82485],[-115.22162,32.82459],[-115.22033,32.82437],[-115.21972,32.82426],[-115.2186,32.82401],[-115.2183,32.82396],[-115.21749,32.82384],[-115.21674,32.82373],[-115.21613,32.82366],[-115.21583,32.82369],[-115.21565,32.82374],[-115.21547,32.8237],[-115.21531,32.82361],[-115.21464,32.82354],[-115.21376,32.82342],[-115.21332,32.82332],[-115.21297,32.82327],[-115.2127,32.82324],[-115.21234,32.82313],[-115.21166,32.82295],[-115.21092,32.82284],[-115.21049,32.82276],[-115.21008,32.82275],[-115.20927,32.82274],[-115.20848,32.82271],[-115.20746,32.82276],[-115.20692,32.8227],[-115.20569,32.82268],[-115.20407,32.8228],[-115.20319,32.82286],[-115.2022,32.82291],[-115.20169,32.82308],[-115.20129,32.82323],[-115.20108,32.82324],[-115.20081,32.82323],[-115.20039,32.82319],[-115.19987,32.82308],[-115.19931,32.82295],[-115.19882,32.82285],[-115.19835,32.8228],[-115.19776,32.82271],[-115.19749,32.82267],[-115.19702,32.82219],[-115.19702,32.82218]]}},{"type":"Feature","properties":{"name":"371","source":"Bureau of Land Management","source_detail":"BLM GTLF OBJECTID 158392","source_id":"{4592BB57-0DD6-49DC-9C6F-383DBCD20380}","road_class":"transportation_system_-_primitive_road","surface":"natural","vehicle_class":"4wd_high_clearance_specialized","allowed_mode":"unk","access_restriction":"not_listed","seasonal_restriction":"not_listed","gis_miles":0.75908699},"geometry":{"type":"LineString","coordinates":[[-115.19782,32.83313],[-115.19768,32.83294],[-115.19762,32.83276],[-115.19759,32.83184],[-115.19752,32.83009],[-115.19744,32.828],[-115.19744,32.82742],[-115.19739,32.82684],[-115.19736,32.82627],[-115.19734,32.82568],[-115.1973,32.8249],[-115.19729,32.82484],[-115.19727,32.82421],[-115.19728,32.82386],[-115.19721,32.82365],[-115.19723,32.82302],[-115.19721,32.82283],[-115.19719,32.82263],[-115.19707,32.82245],[-115.19703,32.82221],[-115.19702,32.82219]]}},{"type":"Feature","properties":{"name":"471","source":"Bureau of Land Management","source_detail":"BLM GTLF OBJECTID 158683","source_id":"{4F331A86-E6AE-499C-93C5-478E7E20E3F8}","road_class":"transportation_system_-_primitive_road","surface":"natural_improved","vehicle_class":"4wd_low","allowed_mode":"unk","access_restriction":"not_listed","seasonal_restriction":"not_listed","gis_miles":2.09533872},"geometry":{"type":"LineString","coordinates":[[-115.27882,32.79624],[-115.27881,32.79599],[-115.27872,32.7948],[-115.27855,32.79285],[-115.27836,32.79099],[-115.27818,32.78911],[-115.2781,32.78853],[-115.27809,32.78839],[-115.27787,32.78722],[-115.27751,32.78546],[-115.27745,32.78518],[-115.27693,32.78311],[-115.27645,32.78109],[-115.27603,32.77923],[-115.27561,32.77744],[-115.27517,32.77546],[-115.27489,32.77484],[-115.27461,32.77427],[-115.27456,32.77417],[-115.27404,32.77343],[-115.27352,32.77275],[-115.27312,32.77221],[-115.27272,32.77147],[-115.27235,32.77061],[-115.27218,32.77005],[-115.27201,32.76939],[-115.27172,32.76834],[-115.27157,32.76764],[-115.27131,32.76674],[-115.27131,32.76673]]}},{"type":"Feature","properties":{"name":"491","source":"Bureau of Land Management","source_detail":"BLM GTLF OBJECTID 158772","source_id":"{BCA146C9-49FC-4F1E-8E62-2E341D221577}","road_class":"transportation_system_-_primitive_road","surface":"natural","vehicle_class":"4wd_high_clearance_specialized","allowed_mode":"unk","access_restriction":"not_listed","seasonal_restriction":"not_listed","gis_miles":1.80688444},"geometry":{"type":"MultiLineString","coordinates":[[[-115.10916,32.85011],[-115.10927,32.85018],[-115.10962,32.85025],[-115.11009,32.85011],[-115.11032,32.85041],[-115.11131,32.85168],[-115.11243,32.85316],[-115.1128,32.85367],[-115.11313,32.8541]],[[-115.0576,32.80525],[-115.05792,32.80547],[-115.05868,32.80594],[-115.05903,32.80613],[-115.05969,32.80649],[-115.0608,32.80741],[-115.06172,32.8082],[-115.06264,32.80884],[-115.06283,32.80897],[-115.06342,32.80913],[-115.06385,32.80928],[-115.06421,32.80945],[-115.06465,32.80972],[-115.06492,32.80997],[-115.06514,32.81027],[-115.06532,32.81039],[-115.06566,32.81053],[-115.06575,32.81058]],[[-114.94399,32.71329],[-114.94406,32.7138],[-114.94429,32.71446],[-114.94486,32.71604],[-114.94501,32.71632],[-114.94522,32.7167],[-114.94577,32.71809],[-114.94644,32.71998],[-114.94717,32.72205],[-114.94789,32.72365],[-114.9484,32.7245]]]}},{"type":"Feature","properties":{"name":"494","source":"Bureau of Land Management","source_detail":"BLM GTLF OBJECTID 159566","source_id":"{24A06EF1-E1FC-4986-8E4B-FD9C9DB90FD6}","road_class":"transportation_system_-_primitive_road","surface":"natural","vehicle_class":"4wd_high_clearance_specialized","allowed_mode":"unk","access_restriction":"not_listed","seasonal_restriction":"not_listed","gis_miles":1.97991715},"geometry":{"type":"MultiLineString","coordinates":[[[-115.10916,32.83987],[-115.1098,32.8396]],[[-115.11603,32.83626],[-115.1161,32.83615],[-115.11634,32.83596],[-115.11672,32.83572],[-115.11732,32.83532],[-115.11749,32.8351],[-115.11763,32.83489],[-115.11773,32.83466],[-115.11801,32.83442],[-115.11837,32.83434],[-115.11867,32.83421],[-115.11903,32.83417],[-115.1193,32.83413],[-115.11961,32.83415],[-115.12006,32.8342],[-115.12028,32.83429],[-115.12077,32.83431],[-115.12114,32.83429],[-115.12145,32.8344],[-115.12161,32.83442],[-115.12171,32.83449],[-115.12192,32.83451],[-115.12218,32.83448],[-115.12304,32.83451],[-115.12335,32.83457],[-115.12364,32.83452],[-115.124,32.8346],[-115.12464,32.83473],[-115.12528,32.83476],[-115.12552,32.83486],[-115.12586,32.83485],[-115.12603,32.83485],[-115.12619,32.83487],[-115.12639,32.83497],[-115.12699,32.8351],[-115.12741,32.83522],[-115.12758,32.83519],[-115.12784,32.83532],[-115.12853,32.83535],[-115.12878,32.83531],[-115.12898,32.8353],[-115.12932,32.83524],[-115.12967,32.83516],[-115.12998,32.83511],[-115.13026,32.83509],[-115.13061,32.83495],[-115.1309,32.83496],[-115.13145,32.83474],[-115.1316,32.83475],[-115.13219,32.83479],[-115.13282,32.8347],[-115.13303,32.83472],[-115.13383,32.83458],[-115.13427,32.83454],[-115.13452,32.8342],[-115.13487,32.83399],[-115.13513,32.83393],[-115.13536,32.83376],[-115.13575,32.8337],[-115.13626,32.83358],[-115.1363,32.83347],[-115.13658,32.83329],[-115.13695,32.83323],[-115.13721,32.83298],[-115.1373,32.83275],[-115.13752,32.83237],[-115.1376,32.83221],[-115.13782,32.83203],[-115.1381,32.83193],[-115.13841,32.83168],[-115.13864,32.83134],[-115.13871,32.83122],[-115.13903,32.83107],[-115.13944,32.83079],[-115.13953,32.83069],[-115.13958,32.83063],[-115.13975,32.83056],[-115.13993,32.83057],[-115.14034,32.83068],[-115.14046,32.83068],[-115.14055,32.83068],[-115.14074,32.83066],[-115.14107,32.83063],[-115.14165,32.83055],[-115.14238,32.83044],[-115.143,32.83031],[-115.14444,32.82979],[-115.14537,32.82946]]]}},{"type":"Feature","properties":{"name":"476","source":"Bureau of Land Management","source_detail":"BLM GTLF OBJECTID 159625","source_id":"{B37CB69D-0617-442A-82EB-B432380E8758}","road_class":"transportation_system_-_primitive_road","surface":"natural","vehicle_class":"4wd_high_clearance_specialized","allowed_mode":"unk","access_restriction":"not_listed","seasonal_restriction":"not_listed","gis_miles":1.23574749},"geometry":{"type":"LineString","coordinates":[[-115.07322,32.84213],[-115.07398,32.8417],[-115.07569,32.84065],[-115.07748,32.83953],[-115.07845,32.83892],[-115.08101,32.83736],[-115.0822,32.83663],[-115.08329,32.83593],[-115.08523,32.83475],[-115.08621,32.83411],[-115.0888,32.8325],[-115.08909,32.83232],[-115.08951,32.83204],[-115.09031,32.83149]]}},{"type":"Feature","properties":{"name":"374","source":"Bureau of Land Management","source_detail":"BLM GTLF OBJECTID 159827","source_id":"{7C239CCE-4628-4158-A610-66FC8997BF5A}","road_class":"transportation_system_-_primitive_road","surface":"natural","vehicle_class":"4wd_high_clearance_specialized","allowed_mode":"unk","access_restriction":"not_listed","seasonal_restriction":"not_listed","gis_miles":0.98099889},"geometry":{"type":"LineString","coordinates":[[-115.1262,32.75239],[-115.12598,32.75249],[-115.12557,32.75253],[-115.12326,32.75257],[-115.12297,32.75256],[-115.12168,32.75252],[-115.11989,32.75249],[-115.11957,32.75236],[-115.1193,32.75233],[-115.11901,32.75233],[-115.1185,32.75222],[-115.11789,32.7521],[-115.11763,32.75211],[-115.11724,32.7521],[-115.11701,32.75211],[-115.11658,32.75215],[-115.11617,32.75221],[-115.11599,32.75221],[-115.11576,32.75219],[-115.11555,32.75217],[-115.11435,32.7522],[-115.11411,32.75224],[-115.11399,32.75227],[-115.11371,32.75226],[-115.11345,32.75223],[-115.11299,32.75227],[-115.11262,32.7523],[-115.11223,32.75238],[-115.11193,32.75242],[-115.1106,32.75227],[-115.10955,32.75235]]}},{"type":"Feature","properties":{"name":"026","source":"Bureau of Land Management","source_detail":"BLM GTLF OBJECTID 159878","source_id":"{714F6BB8-E077-4226-A301-D55C10B9BFBE}","road_class":"transportation_system_-_primitive_road","surface":"natural","vehicle_class":"4wd_high_clearance_specialized","allowed_mode":"unk","access_restriction":"not_listed","seasonal_restriction":"not_listed","gis_miles":0.04570023},"geometry":{"type":"LineString","coordinates":[[-115.27751,32.78546],[-115.27725,32.7855],[-115.27673,32.78547]]}},{"type":"Feature","properties":{"name":"485","source":"Bureau of Land Management","source_detail":"BLM GTLF OBJECTID 160222","source_id":"{0009F850-5382-402D-8EFD-1FCEBA5BD4F5}","road_class":"transportation_system_-_primitive_road","surface":"natural","vehicle_class":"4wd_high_clearance_specialized","allowed_mode":"unk","access_restriction":"not_listed","seasonal_restriction":"not_listed","gis_miles":3.97687586},"geometry":{"type":"LineString","coordinates":[[-115.25277,32.83327],[-115.25271,32.83363],[-115.25277,32.8339],[-115.25274,32.83411],[-115.25292,32.83472],[-115.25286,32.83522],[-115.25281,32.83592],[-115.25293,32.83646],[-115.2528,32.83713],[-115.25265,32.83749],[-115.25274,32.83827],[-115.25293,32.83982],[-115.25324,32.84046],[-115.2541,32.84114],[-115.25448,32.84152],[-115.25476,32.84171],[-115.2549,32.84185],[-115.25495,32.842],[-115.25501,32.84234],[-115.25494,32.84274],[-115.25498,32.84299],[-115.25494,32.84343],[-115.25493,32.84377],[-115.2549,32.84402],[-115.25489,32.84432],[-115.25491,32.84457],[-115.25502,32.84488],[-115.25503,32.8452],[-115.25501,32.84529],[-115.25504,32.84555],[-115.25504,32.84581],[-115.255,32.84621],[-115.25496,32.84665],[-115.25493,32.84714],[-115.25493,32.84715],[-115.25502,32.84798],[-115.25501,32.84808],[-115.25494,32.84889],[-115.25493,32.84977],[-115.25499,32.8502],[-115.25498,32.85055],[-115.25503,32.85078],[-115.25503,32.8508],[-115.25521,32.85147],[-115.25523,32.85165],[-115.25519,32.85252],[-115.25511,32.85284],[-115.25516,32.85353],[-115.2552,32.85418],[-115.2552,32.85419],[-115.2552,32.85423],[-115.25515,32.85471],[-115.25505,32.85481],[-115.25489,32.85565],[-115.25475,32.85624],[-115.2546,32.85672],[-115.25424,32.85773],[-115.25401,32.85849],[-115.25392,32.85871],[-115.25392,32.85872],[-115.25388,32.85883],[-115.25386,32.85907],[-115.25366,32.85987],[-115.25332,32.86017],[-115.25302,32.86046],[-115.25295,32.86055],[-115.25255,32.86086],[-115.25237,32.86105],[-115.25218,32.86148],[-115.2519,32.86204],[-115.25176,32.86222],[-115.2517,32.86234],[-115.25156,32.86248],[-115.25127,32.86282],[-115.25113,32.86296],[-115.25053,32.86373],[-115.25026,32.86408],[-115.24998,32.86439],[-115.2499,32.86461],[-115.24975,32.865],[-115.24964,32.86517],[-115.2492,32.86573],[-115.24915,32.86587],[-115.24902,32.86611],[-115.24891,32.86626],[-115.2487,32.86647],[-115.24833,32.8667],[-115.24823,32.86681],[-115.24818,32.86694],[-115.24815,32.86718],[-115.24809,32.86731],[-115.24793,32.86762],[-115.24783,32.8679],[-115.24742,32.86875],[-115.24727,32.86904],[-115.24724,32.86935],[-115.24718,32.86965],[-115.24712,32.86992],[-115.24685,32.87037],[-115.24648,32.8708],[-115.24618,32.87119],[-115.24609,32.87152],[-115.24606,32.87173],[-115.2459,32.87207],[-115.24587,32.87229],[-115.24583,32.87263],[-115.24564,32.87344],[-115.24562,32.87354],[-115.24564,32.87361],[-115.24559,32.8739],[-115.24553,32.87414],[-115.2455,32.87431],[-115.2455,32.87431],[-115.24561,32.87455],[-115.2457,32.8748],[-115.24564,32.87519],[-115.24562,32.87545],[-115.24579,32.87579],[-115.24594,32.87625],[-115.24606,32.87664],[-115.24623,32.87699],[-115.24652,32.87743],[-115.24679,32.87786],[-115.2469,32.87835],[-115.24717,32.87873],[-115.24753,32.87924],[-115.2476,32.87933],[-115.24775,32.8795],[-115.24785,32.87972],[-115.24808,32.88023],[-115.24819,32.8805],[-115.24839,32.88082],[-115.24873,32.88139],[-115.24901,32.88167],[-115.24909,32.88187],[-115.24918,32.88214],[-115.24932,32.88243],[-115.24947,32.88264],[-115.24958,32.88285],[-115.24972,32.88306],[-115.24986,32.88317],[-115.24999,32.88321],[-115.25022,32.88333],[-115.25035,32.88335],[-115.25054,32.88336],[-115.25084,32.8833],[-115.25093,32.88335],[-115.25097,32.8834],[-115.25102,32.88376],[-115.25129,32.88394],[-115.25162,32.88407],[-115.2517,32.88417],[-115.25202,32.88432],[-115.25243,32.88449],[-115.25283,32.88473],[-115.25309,32.88501],[-115.25345,32.88534]]}}]}