{"type":"FeatureCollection","features":[{"type":"Feature","properties":{"name":"Scotts Creek Road","road_class":"unclassified","surface":"unpaved","source":"Caltrans All Roads + OpenStreetMap explicit surface","source_detail":"osm way 10262386; Caltrans All Roads public-network geometry match","source_tile":"162/391","public_network_source":"Caltrans All Roads (ARNOLD/HPMS)","surface_source":"OpenStreetMap explicit surface tag","caltrans_match_coverage":0.978,"verified_length_m":22228},"geometry":{"type":"LineString","coordinates":[[-122.94998,39.0464],[-122.95008,39.04643],[-122.95019,39.04649],[-122.95037,39.04656],[-122.95059,39.04658],[-122.95071,39.04657],[-122.95084,39.04654],[-122.95125,39.04639],[-122.95155,39.04631],[-122.95271,39.04613],[-122.9534,39.04602],[-122.95419,39.04588],[-122.95433,39.04588],[-122.95447,39.04589],[-122.95522,39.04604],[-122.95537,39.04609],[-122.95577,39.04627],[-122.95622,39.04641],[-122.9571,39.04679],[-122.95741,39.04687],[-122.95775,39.04693],[-122.95833,39.04702],[-122.95861,39.04704],[-122.9589,39.04696],[-122.95916,39.04684],[-122.95939,39.0467],[-122.95956,39.04655],[-122.95986,39.04606],[-122.95993,39.04584],[-122.96,39.04546],[-122.96007,39.04513],[-122.96016,39.04491],[-122.96023,39.0448],[-122.96031,39.0447],[-122.96049,39.04451],[-122.9607,39.04438],[-122.96107,39.04418],[-122.96164,39.04396],[-122.96193,39.04391],[-122.96283,39.04389],[-122.96292,39.04389],[-122.96325,39.04393],[-122.96347,39.04398],[-122.96443,39.04428],[-122.96508,39.04443],[-122.9652,39.04444],[-122.96529,39.04443],[-122.96538,39.0444],[-122.96545,39.04434],[-122.96556,39.0442],[-122.96565,39.04401],[-122.96584,39.04374],[-122.96619,39.04321],[-122.96624,39.0429],[-122.96619,39.04258],[-122.96621,39.04236],[-122.96637,39.0418],[-122.96642,39.04169],[-122.96656,39.04147],[-122.96666,39.04137],[-122.96703,39.04091],[-122.96708,39.04083],[-122.96716,39.04057],[-122.96721,39.04048],[-122.96735,39.0403],[-122.96744,39.04023],[-122.96756,39.04016],[-122.96769,39.04011],[-122.9681,39.04],[-122.96825,39.04001],[-122.96866,39.03988],[-122.96907,39.03971],[-122.9695,39.03956],[-122.96958,39.03953],[-122.96979,39.0395],[-122.96998,39.03952],[-122.97004,39.03957],[-122.97008,39.03962],[-122.9701,39.0397],[-122.9701,39.03995],[-122.97013,39.04002],[-122.97019,39.04008],[-122.97035,39.04019],[-122.97045,39.04023],[-122.97079,39.0402],[-122.97094,39.04022],[-122.97104,39.0403],[-122.97116,39.04047],[-122.97123,39.04053],[-122.97143,39.04064],[-122.97229,39.04093],[-122.97267,39.04104],[-122.97289,39.04109],[-122.9731,39.04106],[-122.9734,39.04095],[-122.97374,39.04092],[-122.97383,39.04094],[-122.97391,39.04098],[-122.97397,39.04103],[-122.97404,39.04115],[-122.97408,39.04119],[-122.97417,39.04123],[-122.9744,39.04121],[-122.97452,39.04122],[-122.9749,39.04133],[-122.97508,39.04135],[-122.97543,39.04133],[-122.9756,39.04131],[-122.97578,39.04125],[-122.97595,39.04117],[-122.97612,39.04104],[-122.97688,39.04066],[-122.97732,39.0404],[-122.97739,39.0404],[-122.97773,39.04046],[-122.97803,39.04053],[-122.9784,39.04058],[-122.97877,39.04062],[-122.97906,39.04062],[-122.9792,39.0406],[-122.97931,39.04053],[-122.97937,39.04047],[-122.9794,39.0404],[-122.97939,39.04024],[-122.97943,39.04018],[-122.97952,39.04015],[-122.97963,39.04015],[-122.97995,39.04021],[-122.98011,39.04027],[-122.98024,39.04035],[-122.98039,39.04039],[-122.98063,39.04033],[-122.98095,39.04016],[-122.98103,39.04013],[-122.98112,39.04013],[-122.9812,39.04014],[-122.98127,39.04017],[-122.98153,39.04042],[-122.9821,39.04089],[-122.98228,39.04103],[-122.98251,39.04116],[-122.98294,39.0414],[-122.98307,39.04163],[-122.98328,39.04192],[-122.98343,39.0421],[-122.9836,39.0422],[-122.98377,39.0423],[-122.98392,39.04239],[-122.98405,39.04252],[-122.98423,39.04264],[-122.98429,39.04275],[-122.98428,39.04292],[-122.98421,39.04316],[-122.98425,39.04323],[-122.98437,39.04326],[-122.98453,39.04328],[-122.98464,39.04333],[-122.98466,39.0434],[-122.98463,39.04347],[-122.98458,39.04354],[-122.9845,39.0436],[-122.98442,39.04371],[-122.98436,39.04383],[-122.98434,39.04391],[-122.98435,39.04448],[-122.9844,39.04472],[-122.98449,39.04488],[-122.98457,39.04495],[-122.98472,39.04503],[-122.98486,39.04507],[-122.98493,39.04504],[-122.98495,39.04501],[-122.98489,39.04486],[-122.98491,39.04472],[-122.98504,39.04449],[-122.98514,39.04428],[-122.9852,39.04423],[-122.98524,39.04423],[-122.98527,39.04425],[-122.98528,39.04429],[-122.98523,39.04441],[-122.98524,39.04449],[-122.98529,39.04461],[-122.98534,39.04468],[-122.98545,39.04475],[-122.98561,39.04481],[-122.986,39.04489],[-122.98619,39.04495],[-122.987,39.04538],[-122.98721,39.04552],[-122.98769,39.04609],[-122.9878,39.04626],[-122.98797,39.04647],[-122.98804,39.04658],[-122.98812,39.04678],[-122.98812,39.04692],[-122.9881,39.04706],[-122.9881,39.0472],[-122.98814,39.04733],[-122.98823,39.04745],[-122.98835,39.04756],[-122.98848,39.04763],[-122.98856,39.04766],[-122.98909,39.04776],[-122.98918,39.04776],[-122.98933,39.04772],[-122.98955,39.04747],[-122.98966,39.0474],[-122.9901,39.04719],[-122.99044,39.04698],[-122.99051,39.04696],[-122.99058,39.04697],[-122.99071,39.04704],[-122.99094,39.04725],[-122.99158,39.04777],[-122.99171,39.04783],[-122.99195,39.04788],[-122.992,39.04792],[-122.99202,39.04796],[-122.99199,39.04812],[-122.992,39.04818],[-122.99205,39.04821],[-122.9921,39.04821],[-122.99218,39.04816],[-122.99238,39.04777],[-122.99247,39.04766],[-122.99267,39.04752],[-122.99275,39.04749],[-122.99292,39.04748],[-122.99307,39.04751],[-122.99321,39.04755],[-122.99346,39.04773],[-122.99357,39.04778],[-122.99405,39.04783],[-122.99438,39.0479],[-122.99456,39.04797],[-122.99471,39.04807],[-122.99488,39.04814],[-122.99507,39.04817],[-122.99547,39.04817],[-122.99553,39.04819],[-122.99571,39.04839],[-122.99584,39.04848],[-122.99596,39.04853],[-122.99608,39.04855],[-122.9962,39.04852],[-122.99624,39.04848],[-122.99629,39.04837],[-122.99628,39.04819],[-122.99619,39.04794],[-122.99617,39.0478],[-122.9962,39.04766],[-122.99627,39.04749],[-122.99632,39.04725],[-122.99642,39.04706],[-122.99655,39.04689],[-122.99686,39.04664],[-122.99696,39.04636],[-122.99701,39.0463],[-122.99707,39.04626],[-122.99712,39.04625],[-122.9972,39.04627],[-122.99731,39.04647],[-122.99743,39.04658],[-122.99751,39.04663],[-122.9977,39.04669],[-122.9978,39.04669],[-122.9979,39.04669],[-122.99809,39.04663],[-122.99825,39.04655],[-122.99853,39.04636],[-122.99868,39.0463],[-122.99885,39.04628],[-122.9992,39.04631],[-122.99939,39.04627],[-122.99957,39.04626],[-122.99968,39.04629],[-122.99976,39.04633],[-122.99999,39.04649],[-123.00008,39.04654],[-123.00029,39.04658],[-123.00058,39.04655],[-123.00077,39.04657],[-123.00102,39.04669],[-123.00129,39.04676],[-123.00139,39.04677],[-123.00158,39.04675],[-123.00213,39.04663],[-123.00227,39.04665],[-123.00242,39.04674],[-123.00248,39.04676],[-123.00269,39.04678],[-123.00292,39.04682],[-123.00298,39.04682],[-123.00305,39.04676],[-123.00307,39.04672],[-123.00302,39.04656],[-123.00299,39.0465],[-123.00297,39.0462],[-123.00301,39.04604],[-123.00313,39.04581],[-123.00325,39.04568],[-123.00348,39.04552],[-123.00363,39.04539],[-123.00378,39.04517],[-123.00384,39.04512],[-123.00389,39.04507],[-123.00399,39.04505],[-123.00404,39.04509],[-123.00405,39.04517],[-123.00398,39.04549],[-123.004,39.04563],[-123.0041,39.04584],[-123.00432,39.04607],[-123.00436,39.04617],[-123.00448,39.04631],[-123.00458,39.04634],[-123.00483,39.04635],[-123.00542,39.0463],[-123.00569,39.04625],[-123.00587,39.04625],[-123.00611,39.04627],[-123.00678,39.04644],[-123.00744,39.04669],[-123.00814,39.04692],[-123.00838,39.04698],[-123.00862,39.04698],[-123.00873,39.04696],[-123.00882,39.04691],[-123.0089,39.04685],[-123.00902,39.04671],[-123.00914,39.04646],[-123.00921,39.04618],[-123.00932,39.046],[-123.0094,39.04593],[-123.0095,39.0459],[-123.0096,39.04587],[-123.00971,39.04586],[-123.00983,39.04587],[-123.00995,39.04591],[-123.01015,39.04601],[-123.01023,39.04608],[-123.01041,39.0463],[-123.01053,39.04642],[-123.0107,39.04651],[-123.01084,39.04654],[-123.01091,39.04657],[-123.01135,39.04664],[-123.01205,39.04666],[-123.01256,39.04671],[-123.01267,39.04674],[-123.01276,39.04678],[-123.01282,39.04684],[-123.01302,39.04713],[-123.01309,39.0472],[-123.01317,39.04724],[-123.01326,39.04726],[-123.01336,39.04727],[-123.01392,39.04724],[-123.01403,39.04726],[-123.01413,39.04731],[-123.01422,39.04737],[-123.01438,39.04753],[-123.0147,39.04791],[-123.01487,39.04818],[-123.01492,39.04821],[-123.01504,39.04823],[-123.01518,39.04819],[-123.01546,39.04805],[-123.01561,39.04802],[-123.01569,39.04804],[-123.01575,39.04808],[-123.01593,39.04825],[-123.0162,39.04839],[-123.01628,39.04846],[-123.01634,39.04854],[-123.01644,39.04879],[-123.01649,39.04886],[-123.01655,39.04891],[-123.01668,39.04896],[-123.01685,39.04895],[-123.01702,39.04888],[-123.01715,39.04878],[-123.01719,39.04872],[-123.01722,39.0486],[-123.01726,39.04823],[-123.01717,39.04788],[-123.01717,39.04782],[-123.01718,39.04776],[-123.01724,39.04771],[-123.01732,39.04768],[-123.01751,39.0477],[-123.01786,39.04778],[-123.01828,39.04793],[-123.01845,39.04792],[-123.01903,39.04771],[-123.01918,39.04754],[-123.01925,39.04749],[-123.01965,39.04731],[-123.01976,39.04728],[-123.01999,39.04729],[-123.0205,39.0474],[-123.02096,39.04745],[-123.0217,39.04742],[-123.02186,39.04747],[-123.02192,39.04751],[-123.02216,39.04765],[-123.02223,39.04771],[-123.02233,39.04784],[-123.02244,39.04805],[-123.02251,39.04826],[-123.02251,39.04841],[-123.02245,39.04863],[-123.02245,39.04879],[-123.02265,39.04917],[-123.02281,39.0494],[-123.02293,39.04963],[-123.02303,39.04975],[-123.02334,39.0499],[-123.0236,39.05009],[-123.02369,39.05011],[-123.02373,39.05011],[-123.02379,39.05009],[-123.02383,39.05005],[-123.02398,39.04971],[-123.0241,39.04959],[-123.02419,39.04956],[-123.02464,39.04945],[-123.0249,39.04937],[-123.02516,39.04927],[-123.02543,39.04915],[-123.02573,39.04904],[-123.02595,39.04899],[-123.0263,39.04894],[-123.02641,39.04891],[-123.02678,39.0487],[-123.02699,39.04862],[-123.0271,39.0486],[-123.02745,39.04859],[-123.02756,39.04857],[-123.02806,39.04838],[-123.02849,39.04826],[-123.02865,39.04816],[-123.02883,39.04794],[-123.02894,39.04787],[-123.02903,39.04784],[-123.02937,39.0478],[-123.02993,39.04778],[-123.03006,39.04776],[-123.03031,39.04769],[-123.03042,39.04765],[-123.03121,39.04715],[-123.03138,39.04709],[-123.03147,39.04707],[-123.03166,39.04707],[-123.03265,39.04723],[-123.03287,39.04725],[-123.03326,39.04723],[-123.03358,39.04718],[-123.0338,39.04712],[-123.03397,39.04702],[-123.03421,39.04683],[-123.03428,39.04679],[-123.03467,39.04676],[-123.03533,39.04675],[-123.03561,39.04678],[-123.0362,39.04687],[-123.0367,39.04687],[-123.03764,39.04685],[-123.03795,39.04689],[-123.03816,39.04689],[-123.03833,39.04693],[-123.0384,39.04698],[-123.03846,39.04704],[-123.03861,39.04727],[-123.03875,39.04738],[-123.0389,39.04743],[-123.03916,39.04746],[-123.03924,39.04749],[-123.03931,39.04755],[-123.03958,39.04786],[-123.03974,39.04799],[-123.03983,39.04802],[-123.0399,39.04802],[-123.04032,39.04793],[-123.04053,39.04794],[-123.04063,39.04797],[-123.04073,39.04802],[-123.04107,39.04828],[-123.04126,39.0484],[-123.04148,39.04848],[-123.04169,39.04852],[-123.042,39.04856],[-123.04262,39.04866],[-123.04332,39.04873],[-123.04344,39.04874],[-123.04357,39.04873],[-123.04403,39.04878],[-123.04461,39.04882],[-123.04481,39.04882],[-123.04504,39.04881],[-123.04541,39.04868],[-123.04551,39.04867],[-123.0456,39.04868],[-123.04586,39.0488],[-123.04597,39.04882],[-123.0462,39.04881],[-123.04641,39.04884],[-123.04661,39.04885],[-123.04669,39.04888],[-123.04676,39.04892],[-123.04689,39.0491],[-123.04695,39.04915],[-123.04703,39.04921],[-123.04712,39.04924],[-123.04721,39.04926],[-123.04752,39.04923],[-123.04779,39.04915],[-123.04789,39.04913],[-123.04812,39.04916],[-123.04818,39.04918],[-123.04821,39.0492],[-123.04823,39.04924],[-123.04822,39.04927],[-123.04802,39.04956],[-123.04802,39.04967],[-123.04821,39.04979],[-123.04847,39.0499],[-123.04865,39.05018],[-123.04888,39.05034],[-123.04891,39.0504],[-123.0489,39.05045],[-123.04886,39.0505],[-123.04864,39.05062],[-123.04821,39.05079],[-123.04813,39.05081],[-123.04785,39.05082],[-123.04767,39.05084],[-123.04714,39.051],[-123.04704,39.05105],[-123.047,39.05109],[-123.04697,39.05113],[-123.04697,39.05123],[-123.04703,39.05133],[-123.04719,39.05146],[-123.04724,39.0516],[-123.04725,39.05178],[-123.0473,39.05203],[-123.04726,39.05227],[-123.04729,39.0526],[-123.04728,39.05266],[-123.04724,39.05273],[-123.04719,39.05276],[-123.04713,39.05278],[-123.04706,39.05278],[-123.047,39.05275],[-123.04682,39.05261],[-123.04664,39.05251],[-123.04643,39.05244],[-123.04612,39.05239],[-123.04591,39.05242],[-123.04575,39.05249],[-123.04568,39.05254],[-123.04558,39.05267],[-123.04553,39.05281],[-123.04564,39.0532],[-123.0457,39.05335],[-123.04609,39.05382],[-123.04623,39.05393],[-123.04675,39.0542],[-123.04692,39.05426],[-123.04718,39.05428],[-123.04731,39.05434],[-123.04735,39.05438],[-123.04746,39.05458],[-123.0476,39.05478],[-123.04773,39.05504],[-123.04796,39.05541],[-123.04805,39.05547],[-123.04815,39.0555],[-123.04829,39.0555],[-123.0484,39.05547],[-123.04847,39.05545],[-123.04871,39.05532],[-123.04878,39.05525],[-123.04882,39.05523],[-123.04888,39.0552],[-123.04902,39.0552],[-123.04916,39.05529],[-123.0494,39.05542],[-123.04955,39.05544],[-123.0497,39.05544],[-123.05048,39.05554],[-123.051,39.05573],[-123.05114,39.05574],[-123.05145,39.05569],[-123.05163,39.0557],[-123.05182,39.05573],[-123.05198,39.05583],[-123.05211,39.05606],[-123.05224,39.05619],[-123.05244,39.05629],[-123.05281,39.05653],[-123.05314,39.05696],[-123.05326,39.05708],[-123.0534,39.05731],[-123.0536,39.0575],[-123.05368,39.05755],[-123.05398,39.05759],[-123.05414,39.05765],[-123.0542,39.05771],[-123.05424,39.05791],[-123.05436,39.05809],[-123.05444,39.05828],[-123.05453,39.05842],[-123.05473,39.05861],[-123.055,39.05881],[-123.05518,39.05891],[-123.05555,39.05896],[-123.05585,39.05904],[-123.05601,39.05914],[-123.05624,39.05935],[-123.05651,39.05955],[-123.0569,39.05978],[-123.05794,39.06008],[-123.05828,39.06011],[-123.0587,39.06013],[-123.05887,39.06012],[-123.05899,39.06006],[-123.05903,39.06001],[-123.0591,39.05982],[-123.05918,39.05954],[-123.05932,39.05923],[-123.0598,39.05855],[-123.05996,39.0584],[-123.06005,39.05835],[-123.06026,39.05826],[-123.06048,39.05819],[-123.06061,39.05818],[-123.06073,39.05819],[-123.06085,39.05822],[-123.06107,39.05829],[-123.06192,39.05864],[-123.06214,39.05874],[-123.06234,39.05884],[-123.06257,39.05903],[-123.06272,39.05918],[-123.06282,39.05922],[-123.06289,39.05921],[-123.06295,39.05916],[-123.06294,39.05908],[-123.06262,39.0586],[-123.06239,39.05838],[-123.06223,39.05828],[-123.06212,39.05815],[-123.0621,39.05807],[-123.06216,39.05801],[-123.06221,39.05801],[-123.06242,39.05806],[-123.06324,39.0581],[-123.06348,39.05816],[-123.06358,39.05817],[-123.06376,39.05814],[-123.06392,39.05817],[-123.06408,39.05822],[-123.06419,39.05828],[-123.0645,39.05864],[-123.06495,39.05883],[-123.06504,39.05906],[-123.06512,39.05916],[-123.06555,39.05953],[-123.06578,39.05974],[-123.06587,39.05985],[-123.06605,39.06013],[-123.06617,39.06024],[-123.06627,39.06028],[-123.06636,39.06029],[-123.0667,39.06027],[-123.06678,39.06027],[-123.06688,39.06031],[-123.06697,39.06038],[-123.06722,39.06072],[-123.0673,39.06078],[-123.06748,39.06085],[-123.0676,39.06088],[-123.06779,39.06088],[-123.06785,39.06086],[-123.06837,39.06062],[-123.06856,39.06056],[-123.06865,39.06055],[-123.06896,39.06056],[-123.06914,39.06061],[-123.06923,39.06066],[-123.06933,39.06077],[-123.06937,39.06084],[-123.06939,39.06098],[-123.06939,39.06117],[-123.06927,39.06149],[-123.06926,39.06156],[-123.06927,39.06171],[-123.06932,39.06183],[-123.0694,39.06194],[-123.06965,39.06214],[-123.06994,39.06233],[-123.07009,39.06241],[-123.07016,39.06243],[-123.07027,39.06244],[-123.07094,39.06232],[-123.07103,39.06231],[-123.07111,39.06233],[-123.07125,39.06239],[-123.07147,39.06254],[-123.07158,39.06257],[-123.07304,39.06256],[-123.0732,39.06257],[-123.07328,39.06259],[-123.07339,39.06265],[-123.07343,39.06269],[-123.07348,39.06282],[-123.07345,39.06294],[-123.07316,39.06346],[-123.07317,39.06356],[-123.07322,39.06363],[-123.0734,39.06373],[-123.07415,39.06395],[-123.07442,39.064],[-123.07526,39.06405],[-123.07541,39.06408],[-123.07554,39.06413],[-123.07563,39.0642],[-123.07569,39.06427],[-123.07571,39.06434],[-123.07567,39.06478],[-123.07573,39.06491],[-123.07584,39.06501],[-123.07592,39.06503],[-123.07611,39.06504],[-123.07705,39.06492],[-123.07771,39.06486],[-123.07791,39.06489],[-123.078,39.06492],[-123.07806,39.06497],[-123.07815,39.06507],[-123.07822,39.06551],[-123.07826,39.06578],[-123.07832,39.0662],[-123.07841,39.06647],[-123.07847,39.06655],[-123.07861,39.0667],[-123.07905,39.06709],[-123.07938,39.06742],[-123.07972,39.06781],[-123.07979,39.06794],[-123.0798,39.06823],[-123.07985,39.06834],[-123.07991,39.06844],[-123.08012,39.06863],[-123.08046,39.06886],[-123.08056,39.06891],[-123.08069,39.06907],[-123.08073,39.06924],[-123.08065,39.0694],[-123.08059,39.06955],[-123.0805,39.0697],[-123.08049,39.06977],[-123.0805,39.06984],[-123.08062,39.07002],[-123.08122,39.07073],[-123.08144,39.07095],[-123.08165,39.07111],[-123.08196,39.0713],[-123.08205,39.07142],[-123.08217,39.07171],[-123.08228,39.07184],[-123.08252,39.07199],[-123.08281,39.07209],[-123.08321,39.0722],[-123.08342,39.07226],[-123.08363,39.07234],[-123.08383,39.07244],[-123.08441,39.07288],[-123.08462,39.07303],[-123.08478,39.07311],[-123.08496,39.07317],[-123.08544,39.07327],[-123.08549,39.07335],[-123.08551,39.07365],[-123.08555,39.07388],[-123.08562,39.07404],[-123.08582,39.07437],[-123.08597,39.07447],[-123.08605,39.07449],[-123.08614,39.0745],[-123.08639,39.07448],[-123.08669,39.07449],[-123.08677,39.07451],[-123.08682,39.07455],[-123.08685,39.07459],[-123.08686,39.07467],[-123.08682,39.07492],[-123.08683,39.07505],[-123.08692,39.07542],[-123.08688,39.07553],[-123.08674,39.07572],[-123.08672,39.07586],[-123.08678,39.0761],[-123.08688,39.07626],[-123.0871,39.07648],[-123.08715,39.07655],[-123.08718,39.07662],[-123.08719,39.07669],[-123.08713,39.07699],[-123.08716,39.07724],[-123.08726,39.07748],[-123.08731,39.07755],[-123.08754,39.07773],[-123.08777,39.07784],[-123.08796,39.07783],[-123.0883,39.07781],[-123.08845,39.07785],[-123.08868,39.07796],[-123.0888,39.07804],[-123.08884,39.0781],[-123.08886,39.07817],[-123.08885,39.07823],[-123.08869,39.07852],[-123.08867,39.07868],[-123.08873,39.07893],[-123.08884,39.0792],[-123.08895,39.07939],[-123.08913,39.07956],[-123.08918,39.07968],[-123.08918,39.07975],[-123.08909,39.08012],[-123.0891,39.08032],[-123.0892,39.08052],[-123.0892,39.08059],[-123.08917,39.08076],[-123.08919,39.08083],[-123.08938,39.08108],[-123.0894,39.08114],[-123.0894,39.08121],[-123.08935,39.08134],[-123.08934,39.08142],[-123.08938,39.08156],[-123.08947,39.08169],[-123.08954,39.08173],[-123.08996,39.08186],[-123.09002,39.08191],[-123.09007,39.08196],[-123.09009,39.08203],[-123.0901,39.08211],[-123.09004,39.08232],[-123.09009,39.08243],[-123.09037,39.08276],[-123.09055,39.08307],[-123.09061,39.08313],[-123.09086,39.0833],[-123.09089,39.08334],[-123.09093,39.08356],[-123.09096,39.08362],[-123.09127,39.08388],[-123.09141,39.08397],[-123.09149,39.084],[-123.09157,39.08402],[-123.09172,39.08403],[-123.09201,39.08397],[-123.09209,39.08397],[-123.09223,39.08403],[-123.09241,39.08425],[-123.09248,39.08438],[-123.09249,39.08453],[-123.09245,39.08476],[-123.09249,39.0849],[-123.09258,39.08499],[-123.09272,39.08506],[-123.09295,39.08508],[-123.09352,39.08504],[-123.09371,39.08504],[-123.09385,39.08507],[-123.09396,39.08514],[-123.09401,39.08523],[-123.094,39.08563],[-123.09404,39.08586],[-123.09413,39.08608],[-123.09422,39.08623],[-123.09442,39.08646],[-123.09469,39.08664],[-123.0948,39.08678],[-123.09486,39.08698],[-123.09495,39.08707],[-123.09509,39.08717],[-123.09523,39.08741],[-123.09533,39.08753],[-123.09557,39.08762],[-123.09577,39.08778],[-123.09586,39.08794],[-123.09588,39.08809],[-123.09593,39.08823],[-123.0963,39.08862],[-123.09631,39.08885],[-123.09617,39.08895],[-123.0959,39.08902],[-123.09568,39.08902],[-123.09548,39.08899],[-123.09538,39.08904],[-123.0953,39.08913],[-123.09522,39.08919],[-123.09511,39.08921],[-123.09501,39.08921],[-123.09465,39.08902],[-123.09451,39.08897],[-123.09432,39.08895],[-123.09419,39.08895],[-123.09406,39.08896],[-123.09398,39.08903],[-123.09391,39.08911],[-123.09387,39.08922],[-123.09386,39.08936],[-123.09385,39.08953],[-123.09394,39.08967],[-123.09405,39.08978],[-123.09411,39.0899],[-123.09412,39.09013],[-123.09408,39.09045],[-123.09399,39.09063],[-123.09384,39.0908],[-123.09357,39.09106],[-123.09352,39.09115],[-123.09355,39.09126],[-123.0936,39.09131],[-123.09368,39.09136],[-123.0938,39.0914],[-123.09395,39.09141],[-123.09409,39.09139],[-123.09437,39.0913],[-123.0945,39.09132],[-123.09461,39.09138],[-123.09482,39.09155],[-123.09497,39.09158],[-123.09526,39.09154],[-123.09535,39.09155],[-123.09546,39.09158],[-123.09561,39.09174],[-123.09565,39.09188],[-123.09564,39.09197],[-123.09549,39.0922],[-123.0954,39.09227],[-123.09473,39.09254],[-123.09466,39.09259],[-123.09463,39.09264],[-123.09461,39.09274],[-123.09463,39.0928],[-123.09487,39.09311],[-123.09489,39.09319],[-123.09487,39.09326],[-123.09481,39.09332],[-123.09458,39.09346],[-123.09454,39.09351],[-123.0944,39.09428],[-123.09435,39.09435],[-123.09428,39.09439],[-123.09422,39.09441],[-123.0941,39.09439],[-123.09399,39.09435],[-123.09384,39.09423],[-123.0937,39.09416],[-123.0936,39.09418],[-123.09347,39.09425],[-123.09329,39.09438],[-123.09319,39.09449],[-123.09304,39.09453],[-123.09291,39.09455],[-123.0924,39.09452],[-123.09211,39.09454],[-123.09201,39.0946],[-123.09197,39.09466],[-123.09201,39.09477],[-123.09198,39.09491],[-123.09192,39.09507],[-123.09176,39.09518],[-123.09159,39.09523],[-123.09156,39.09527],[-123.09149,39.09537],[-123.09139,39.09572],[-123.09133,39.09582],[-123.09119,39.09595],[-123.09096,39.09613],[-123.09094,39.09616],[-123.09101,39.0965],[-123.091,39.0966],[-123.09096,39.09675],[-123.09055,39.09742],[-123.09043,39.09756],[-123.09031,39.09765],[-123.09015,39.09774],[-123.08984,39.09783],[-123.08956,39.09794],[-123.08938,39.09792],[-123.08919,39.09782],[-123.08901,39.09781],[-123.08844,39.09788],[-123.08797,39.09795],[-123.08745,39.09815],[-123.08723,39.0982],[-123.08707,39.09822],[-123.08688,39.09821],[-123.08682,39.09819],[-123.08661,39.09809],[-123.08589,39.09776],[-123.08563,39.09761],[-123.0853,39.09731],[-123.08514,39.09723],[-123.08494,39.09717],[-123.08485,39.09717],[-123.08462,39.09725],[-123.08445,39.09733],[-123.08429,39.09745],[-123.08416,39.0976]]}},{"type":"Feature","properties":{"name":"(unnamed public road)","road_class":"track","surface":"dirt","source":"Caltrans All Roads + OpenStreetMap explicit surface","source_detail":"osm way 654322804; Caltrans All Roads public-network geometry match","source_tile":"162/391","public_network_source":"Caltrans All Roads (ARNOLD/HPMS)","surface_source":"OpenStreetMap explicit surface tag","caltrans_match_coverage":1.0,"verified_length_m":815},"geometry":{"type":"LineString","coordinates":[[-123.04129,39.01192],[-123.04138,39.012],[-123.04145,39.01205],[-123.04149,39.01214],[-123.0415,39.01226],[-123.0415,39.0124],[-123.04154,39.01246],[-123.04158,39.0125],[-123.04163,39.01251],[-123.04171,39.01249],[-123.0418,39.01248],[-123.0419,39.01249],[-123.04199,39.01251],[-123.04206,39.01256],[-123.04221,39.01271],[-123.04227,39.01275],[-123.0424,39.01278],[-123.04255,39.01281],[-123.04271,39.01283],[-123.04292,39.01287],[-123.04306,39.0129],[-123.04324,39.01291],[-123.04339,39.01292],[-123.0435,39.01297],[-123.04369,39.01305],[-123.04396,39.01315],[-123.04412,39.0132],[-123.0442,39.01326],[-123.04428,39.01336],[-123.04443,39.01355],[-123.04452,39.01364],[-123.04466,39.01375],[-123.04476,39.01381],[-123.04486,39.01384],[-123.04493,39.01382],[-123.045,39.01381],[-123.04505,39.01381],[-123.04513,39.01384],[-123.04521,39.0139],[-123.04528,39.01399],[-123.04533,39.01409],[-123.04535,39.01416],[-123.04536,39.01422],[-123.04537,39.0144],[-123.0454,39.0145],[-123.04544,39.01457],[-123.04549,39.01461],[-123.04556,39.01462],[-123.04568,39.01462],[-123.04588,39.01466],[-123.04599,39.01467],[-123.04607,39.01467],[-123.04618,39.01462],[-123.04628,39.01456],[-123.04638,39.0145],[-123.04643,39.01448],[-123.04648,39.01449],[-123.04657,39.01453],[-123.04669,39.01461],[-123.04682,39.01473],[-123.047,39.01489],[-123.04715,39.01503],[-123.04723,39.01514],[-123.04735,39.01531],[-123.04738,39.01534],[-123.0474,39.01536],[-123.04744,39.01537],[-123.04748,39.01539],[-123.04756,39.0154],[-123.04764,39.01541],[-123.04771,39.01544],[-123.04777,39.01548],[-123.04791,39.01556],[-123.04804,39.01566]]}},{"type":"Feature","properties":{"name":"(unnamed public road)","road_class":"track","surface":"unpaved","source":"Caltrans All Roads + OpenStreetMap explicit surface","source_detail":"osm way 10256471; Caltrans All Roads public-network geometry match","source_tile":"162/391","public_network_source":"Caltrans All Roads (ARNOLD/HPMS)","surface_source":"OpenStreetMap explicit surface tag","caltrans_match_coverage":1.0,"verified_length_m":3197},"geometry":{"type":"LineString","coordinates":[[-122.7703,38.97239],[-122.77071,38.97224],[-122.77144,38.97201],[-122.77216,38.9718],[-122.77273,38.97163],[-122.77294,38.97155],[-122.77311,38.97147],[-122.77323,38.97133],[-122.77356,38.97111],[-122.77386,38.97084],[-122.77415,38.9706],[-122.77429,38.97047],[-122.77442,38.97035],[-122.7745,38.97028],[-122.77457,38.97028],[-122.77464,38.97036],[-122.77464,38.9705],[-122.77472,38.97076],[-122.77477,38.97089],[-122.77479,38.97093],[-122.77491,38.97104],[-122.77503,38.97113],[-122.77518,38.97123],[-122.7753,38.97128],[-122.77558,38.9715],[-122.77569,38.97159],[-122.77579,38.97174],[-122.77598,38.97189],[-122.77609,38.9721],[-122.77623,38.97229],[-122.7764,38.97243],[-122.77648,38.97257],[-122.77661,38.97271],[-122.7768,38.97302],[-122.77692,38.97322],[-122.77716,38.9735],[-122.77742,38.97381],[-122.77761,38.97409],[-122.77773,38.97429],[-122.7778,38.97445],[-122.77781,38.9746],[-122.7778,38.97497],[-122.77775,38.97511],[-122.77767,38.97523],[-122.77751,38.97537],[-122.77736,38.97548],[-122.7772,38.97564],[-122.77706,38.97577],[-122.77697,38.97589],[-122.77687,38.9761],[-122.7767,38.97628],[-122.77651,38.97649],[-122.77642,38.97665],[-122.77632,38.97678],[-122.77621,38.97694],[-122.77611,38.97716],[-122.77605,38.97735],[-122.77603,38.97756],[-122.77602,38.97772],[-122.77592,38.97815],[-122.7759,38.9784],[-122.7761,38.97943],[-122.77619,38.97978],[-122.77628,38.98003],[-122.77631,38.98008],[-122.77651,38.98032],[-122.77666,38.98043],[-122.77669,38.98045],[-122.77675,38.98048],[-122.77687,38.98052],[-122.77699,38.98053],[-122.77707,38.9805],[-122.77716,38.98044],[-122.77723,38.98033],[-122.77724,38.9802],[-122.77723,38.98006],[-122.77722,38.97993],[-122.77714,38.9798],[-122.77706,38.97967],[-122.77699,38.97955],[-122.77695,38.97942],[-122.77695,38.97921],[-122.77698,38.97892],[-122.77707,38.97859],[-122.77716,38.97821],[-122.77723,38.97786],[-122.77732,38.97768],[-122.77741,38.97758],[-122.77757,38.97744],[-122.77771,38.97734],[-122.77792,38.97725],[-122.77815,38.97714],[-122.77838,38.97699],[-122.77862,38.97682],[-122.77889,38.97663],[-122.7792,38.97643],[-122.77955,38.97625],[-122.77988,38.97612],[-122.78056,38.97588],[-122.78086,38.97581],[-122.7811,38.97574],[-122.78132,38.97564],[-122.78156,38.9755],[-122.78207,38.97515],[-122.78231,38.97504],[-122.7825,38.97501],[-122.78266,38.97501],[-122.78278,38.975],[-122.78308,38.97508],[-122.7833,38.97516],[-122.78347,38.97516],[-122.78364,38.9751],[-122.7838,38.97503],[-122.78395,38.97499],[-122.78413,38.975],[-122.78437,38.97504],[-122.78463,38.97508],[-122.78577,38.97534],[-122.78594,38.97539],[-122.7862,38.97553],[-122.78644,38.97564],[-122.78669,38.97571],[-122.78697,38.97575],[-122.78724,38.97573],[-122.7875,38.9757],[-122.78781,38.97562],[-122.78849,38.97544],[-122.78869,38.97534]]}},{"type":"Feature","properties":{"name":"Benmore Creek Spur","road_class":"track","surface":"unpaved","motor_vehicle":"yes","source":"Caltrans All Roads + OpenStreetMap explicit surface","source_detail":"osm way 10262779; Caltrans All Roads public-network geometry match","source_tile":"162/391","public_network_source":"Caltrans All Roads (ARNOLD/HPMS)","surface_source":"OpenStreetMap explicit surface tag","caltrans_match_coverage":1.0,"verified_length_m":3148},"geometry":{"type":"LineString","coordinates":[[-122.9994,39.01542],[-122.99934,39.01542],[-122.9989,39.01545],[-122.99862,39.01539],[-122.99835,39.01527],[-122.99808,39.01521],[-122.99793,39.01516],[-122.99759,39.01511],[-122.99741,39.01503],[-122.9973,39.01501],[-122.99722,39.01501],[-122.99713,39.01498],[-122.99699,39.01498],[-122.99674,39.01492],[-122.99659,39.01492],[-122.99645,39.01487],[-122.9961,39.01482],[-122.99567,39.01485],[-122.99557,39.01483],[-122.99558,39.0148],[-122.99545,39.01472],[-122.99533,39.0147],[-122.99529,39.01472],[-122.99523,39.01473],[-122.99512,39.01474],[-122.99496,39.01477],[-122.99487,39.01477],[-122.99485,39.01479],[-122.99449,39.01483],[-122.99442,39.01481],[-122.99434,39.01483],[-122.99431,39.01482],[-122.9942,39.01483],[-122.99415,39.01482],[-122.99402,39.01483],[-122.99335,39.01477],[-122.99322,39.01475],[-122.99281,39.01471],[-122.99246,39.01465],[-122.99239,39.01465],[-122.99201,39.01454],[-122.99184,39.0145],[-122.9909,39.01443],[-122.99081,39.01444],[-122.99044,39.01453],[-122.99011,39.01467],[-122.99,39.01469],[-122.98981,39.0147],[-122.98946,39.01485],[-122.98935,39.01488],[-122.98884,39.01477],[-122.98857,39.01474],[-122.98839,39.01476],[-122.98807,39.01484],[-122.98747,39.01485],[-122.98733,39.01483],[-122.98706,39.01476],[-122.987,39.01476],[-122.98683,39.01472],[-122.98663,39.01456],[-122.98651,39.01443],[-122.98616,39.01389],[-122.98583,39.01384],[-122.98567,39.0138],[-122.98559,39.01375],[-122.98553,39.01367],[-122.9855,39.01358],[-122.98549,39.01326],[-122.98548,39.01323],[-122.98535,39.01311],[-122.98527,39.01299],[-122.98511,39.01282],[-122.98509,39.01272],[-122.98514,39.01251],[-122.98517,39.01218],[-122.98516,39.01208],[-122.98507,39.01186],[-122.985,39.0118],[-122.98496,39.01179],[-122.98442,39.01176],[-122.98428,39.01177],[-122.98389,39.01177],[-122.98378,39.01177],[-122.98363,39.01172],[-122.98356,39.01165],[-122.9835,39.01154],[-122.98326,39.01103],[-122.98298,39.01075],[-122.98287,39.0106],[-122.98271,39.01049],[-122.98246,39.0104],[-122.98239,39.01034],[-122.9822,39.01023],[-122.98203,39.01017],[-122.9819,39.01009],[-122.98168,39.01001],[-122.98158,39.00999],[-122.98156,39.00997],[-122.98147,39.00977],[-122.98147,39.00951],[-122.98141,39.00938],[-122.98133,39.00929],[-122.98106,39.00912],[-122.98096,39.00894],[-122.98091,39.0087],[-122.98079,39.00861],[-122.98076,39.00855],[-122.98059,39.00846],[-122.98054,39.00844],[-122.98049,39.00844],[-122.98005,39.00857],[-122.97969,39.0086],[-122.97955,39.0086],[-122.97946,39.00847],[-122.97947,39.00839],[-122.97944,39.00832],[-122.97936,39.0082],[-122.97935,39.00812],[-122.97938,39.00799],[-122.97938,39.00792],[-122.97923,39.00775],[-122.97918,39.00772],[-122.97903,39.00771],[-122.97877,39.00779],[-122.97867,39.00778],[-122.97857,39.00762],[-122.97856,39.0075],[-122.97871,39.00697],[-122.97884,39.00665],[-122.97889,39.00647],[-122.97888,39.00642],[-122.97885,39.00635],[-122.97881,39.00632],[-122.97869,39.00628],[-122.97828,39.00629],[-122.97818,39.00628],[-122.97755,39.00633],[-122.97732,39.00639],[-122.9771,39.00642],[-122.97703,39.00644],[-122.97649,39.00652],[-122.97636,39.00655],[-122.97621,39.00656],[-122.97576,39.00662],[-122.97559,39.00662],[-122.97537,39.00669],[-122.97491,39.0068],[-122.9748,39.00686],[-122.9746,39.00702],[-122.9745,39.00706],[-122.97441,39.00712],[-122.97414,39.00724],[-122.97388,39.00726],[-122.9736,39.00726],[-122.97344,39.00731],[-122.97315,39.00733],[-122.97311,39.00735],[-122.973,39.00736],[-122.97296,39.00734],[-122.97282,39.00734],[-122.97267,39.00732],[-122.97262,39.00741],[-122.97262,39.00746],[-122.97264,39.00749],[-122.9727,39.00755],[-122.97285,39.0076],[-122.97294,39.00765]]}},{"type":"Feature","properties":{"name":"Trail 17 - Spruce Canyon (Blue/Blue/Black/NR)","road_class":"track","surface":"unpaved","source":"Caltrans All Roads + OpenStreetMap explicit surface","source_detail":"osm way 10268678; Caltrans All Roads public-network geometry match","source_tile":"162/391","public_network_source":"Caltrans All Roads (ARNOLD/HPMS)","surface_source":"OpenStreetMap explicit surface tag","caltrans_match_coverage":1.0,"verified_length_m":8640},"geometry":{"type":"LineString","coordinates":[[-123.00448,39.04631],[-123.00448,39.04638],[-123.00449,39.04642],[-123.00456,39.04657],[-123.00472,39.04675],[-123.0044,39.04715],[-123.00413,39.04739],[-123.00393,39.0476],[-123.00354,39.0481],[-123.0034,39.04836],[-123.00339,39.04843],[-123.00338,39.04891],[-123.00334,39.04917],[-123.00335,39.04946],[-123.00341,39.04959],[-123.00351,39.0497],[-123.00363,39.04979],[-123.00372,39.04991],[-123.00376,39.05008],[-123.00373,39.05024],[-123.00351,39.05046],[-123.00335,39.05065],[-123.00332,39.05077],[-123.00333,39.05091],[-123.00324,39.05113],[-123.00325,39.05131],[-123.00331,39.05143],[-123.00352,39.05163],[-123.0036,39.05179],[-123.00364,39.05198],[-123.00363,39.05243],[-123.00365,39.05249],[-123.0038,39.05269],[-123.00396,39.05296],[-123.00409,39.05308],[-123.0048,39.05345],[-123.00513,39.05355],[-123.00541,39.05361],[-123.00547,39.05365],[-123.00553,39.05378],[-123.00567,39.05388],[-123.00582,39.05393],[-123.00588,39.05396],[-123.00597,39.05398],[-123.00616,39.05404],[-123.00641,39.05409],[-123.0065,39.05407],[-123.00662,39.05409],[-123.00682,39.05419],[-123.00736,39.05436],[-123.00749,39.05439],[-123.00769,39.0544],[-123.00799,39.05438],[-123.00813,39.0544],[-123.0082,39.05447],[-123.00822,39.05455],[-123.00826,39.0551],[-123.0083,39.05544],[-123.00836,39.05564],[-123.00839,39.05593],[-123.0084,39.05619],[-123.00835,39.05666],[-123.00858,39.05702],[-123.00862,39.05718],[-123.00874,39.05742],[-123.00924,39.05826],[-123.00954,39.05882],[-123.00979,39.05938],[-123.0098,39.05947],[-123.00986,39.05957],[-123.00996,39.05989],[-123.01006,39.06002],[-123.01021,39.06012],[-123.01031,39.06022],[-123.01048,39.06035],[-123.01061,39.06051],[-123.0107,39.06065],[-123.01091,39.06112],[-123.0111,39.06146],[-123.0111,39.06149],[-123.011,39.06153],[-123.01095,39.06152],[-123.01074,39.06138],[-123.01059,39.06132],[-123.01042,39.06132],[-123.01035,39.06134],[-123.01021,39.06143],[-123.01019,39.06148],[-123.01022,39.06158],[-123.0103,39.06167],[-123.01041,39.06189],[-123.01042,39.06192],[-123.01038,39.06199],[-123.01034,39.062],[-123.01022,39.06195],[-123.00996,39.06181],[-123.0099,39.06181],[-123.00979,39.06187],[-123.00969,39.06197],[-123.00953,39.06201],[-123.00949,39.06209],[-123.00958,39.06225],[-123.00963,39.0624],[-123.00973,39.06254],[-123.00985,39.0626],[-123.01033,39.06278],[-123.01062,39.06286],[-123.01088,39.06297],[-123.01105,39.06314],[-123.01107,39.06326],[-123.01113,39.06339],[-123.0111,39.06342],[-123.01104,39.06343],[-123.01098,39.06341],[-123.01073,39.06322],[-123.01029,39.06307],[-123.01015,39.06305],[-123.00997,39.06304],[-123.00965,39.06312],[-123.00951,39.06313],[-123.00943,39.0631],[-123.00919,39.06294],[-123.00915,39.06293],[-123.00912,39.06296],[-123.00913,39.06299],[-123.00932,39.06316],[-123.00951,39.06329],[-123.00966,39.06331],[-123.00996,39.06323],[-123.01002,39.06323],[-123.01009,39.06324],[-123.01024,39.06332],[-123.01028,39.06335],[-123.01029,39.06338],[-123.01023,39.06343],[-123.0101,39.06343],[-123.01007,39.06346],[-123.01,39.0637],[-123.00995,39.06376],[-123.00969,39.06391],[-123.00949,39.06399],[-123.0092,39.06405],[-123.0087,39.06402],[-123.00847,39.06394],[-123.00806,39.06387],[-123.0076,39.06372],[-123.00742,39.06369],[-123.00707,39.06367],[-123.00682,39.06376],[-123.00671,39.06385],[-123.00666,39.06387],[-123.00649,39.06389],[-123.00621,39.06399],[-123.006,39.06399],[-123.00593,39.06401],[-123.00575,39.0641],[-123.00551,39.06417],[-123.00533,39.06431],[-123.00518,39.06432],[-123.00479,39.06429],[-123.00471,39.0643],[-123.00464,39.06434],[-123.0046,39.0644],[-123.00456,39.06454],[-123.00462,39.06468],[-123.00485,39.0649],[-123.00494,39.06503],[-123.00496,39.0651],[-123.00494,39.06517],[-123.00499,39.06536],[-123.005,39.06553],[-123.00503,39.06559],[-123.00509,39.06564],[-123.00516,39.06566],[-123.00523,39.06565],[-123.00529,39.06561],[-123.00544,39.06541],[-123.0055,39.06531],[-123.00554,39.06521],[-123.00564,39.06483],[-123.00567,39.06479],[-123.00581,39.06474],[-123.00599,39.06471],[-123.00643,39.06476],[-123.00651,39.06481],[-123.00658,39.06509],[-123.00663,39.06515],[-123.00673,39.06518],[-123.00687,39.06518],[-123.00701,39.06514],[-123.00708,39.06514],[-123.0072,39.06518],[-123.00726,39.06517],[-123.00738,39.06507],[-123.00743,39.06505],[-123.00749,39.06505],[-123.00761,39.06513],[-123.00789,39.06527],[-123.00792,39.06531],[-123.00788,39.06534],[-123.00774,39.0654],[-123.00768,39.06545],[-123.00761,39.06556],[-123.00759,39.06561],[-123.00762,39.06567],[-123.00767,39.06571],[-123.00774,39.06571],[-123.00813,39.06567],[-123.00847,39.0657],[-123.00899,39.06588],[-123.00907,39.0659],[-123.00922,39.06589],[-123.00929,39.0659],[-123.00941,39.06594],[-123.00962,39.06604],[-123.0098,39.06607],[-123.01015,39.06617],[-123.01043,39.06621],[-123.01073,39.06632],[-123.01088,39.06643],[-123.01114,39.06653],[-123.01126,39.06661],[-123.01149,39.06687],[-123.01169,39.06698],[-123.01178,39.06708],[-123.01187,39.06721],[-123.01191,39.06735],[-123.01199,39.06742],[-123.01225,39.0675],[-123.01266,39.06782],[-123.0128,39.06787],[-123.01327,39.06801],[-123.01345,39.06818],[-123.01354,39.06825],[-123.0136,39.06827],[-123.01392,39.06827],[-123.01403,39.0683],[-123.01425,39.06848],[-123.01433,39.06851],[-123.01444,39.0685],[-123.01491,39.06831],[-123.01519,39.06828],[-123.01529,39.06833],[-123.01554,39.06852],[-123.01562,39.06863],[-123.01563,39.06871],[-123.0155,39.06893],[-123.0155,39.06918],[-123.01554,39.06936],[-123.01552,39.06943],[-123.01543,39.06952],[-123.0154,39.06958],[-123.01541,39.06967],[-123.0155,39.06981],[-123.01569,39.07],[-123.01583,39.07006],[-123.01616,39.07013],[-123.01633,39.0702],[-123.01645,39.07028],[-123.01655,39.07041],[-123.01671,39.07084],[-123.01685,39.07099],[-123.01698,39.07103],[-123.01739,39.07106],[-123.01746,39.07108],[-123.01756,39.07135],[-123.01764,39.07145],[-123.01778,39.07156],[-123.01797,39.0718],[-123.01814,39.07198],[-123.01847,39.07223],[-123.01852,39.07241],[-123.01852,39.07254],[-123.01857,39.0727],[-123.01854,39.07277],[-123.01847,39.07283],[-123.0184,39.07292],[-123.01839,39.07304],[-123.01847,39.07319],[-123.01859,39.07337],[-123.01886,39.07368],[-123.01898,39.07374],[-123.01909,39.07378],[-123.0193,39.07381],[-123.01948,39.07394],[-123.01964,39.07401],[-123.01969,39.07406],[-123.01962,39.07425],[-123.01962,39.07438],[-123.01968,39.07454],[-123.01979,39.0747],[-123.01984,39.07477],[-123.01992,39.07482],[-123.0202,39.07493],[-123.02066,39.07507],[-123.02073,39.0751],[-123.02079,39.07516],[-123.02087,39.07528],[-123.02091,39.07531],[-123.02132,39.07528],[-123.02161,39.07533],[-123.02182,39.07534],[-123.02203,39.07541],[-123.02233,39.07556],[-123.02241,39.07559],[-123.0228,39.07565],[-123.02298,39.07564],[-123.02332,39.07558],[-123.02371,39.07548],[-123.02413,39.07543],[-123.02433,39.07542],[-123.02447,39.07539],[-123.02526,39.07503],[-123.02526,39.07498],[-123.02522,39.07493],[-123.02501,39.07472],[-123.02495,39.07461],[-123.02492,39.07437],[-123.02493,39.07427],[-123.02502,39.07404],[-123.02502,39.07397],[-123.02495,39.07383],[-123.02475,39.07356],[-123.02472,39.07349],[-123.02473,39.07343],[-123.02482,39.07332],[-123.02484,39.07322],[-123.02495,39.0731],[-123.02509,39.07301],[-123.02529,39.07296],[-123.02567,39.07291],[-123.02603,39.07273],[-123.02633,39.07269],[-123.02644,39.07262],[-123.02689,39.07225],[-123.02698,39.07213],[-123.02704,39.07195],[-123.02717,39.07172],[-123.02724,39.07149],[-123.02724,39.07142],[-123.02722,39.07137],[-123.02711,39.07125],[-123.02678,39.07114],[-123.02653,39.07111],[-123.02643,39.07108],[-123.02634,39.07102],[-123.02622,39.07096],[-123.0262,39.07093],[-123.02578,39.07064],[-123.02554,39.07053],[-123.0255,39.07047],[-123.02536,39.07037],[-123.02503,39.0703],[-123.02487,39.07024],[-123.02478,39.07009],[-123.02472,39.06987],[-123.02443,39.0694],[-123.02423,39.06919],[-123.02414,39.06914],[-123.02389,39.06902],[-123.02358,39.06875],[-123.02323,39.06837],[-123.02309,39.06813],[-123.02309,39.06806],[-123.02312,39.06803],[-123.0232,39.06801],[-123.0233,39.06801],[-123.0234,39.06804],[-123.02373,39.0682],[-123.0239,39.06827],[-123.02398,39.06825],[-123.0243,39.06811],[-123.02438,39.06809],[-123.02446,39.06809],[-123.02495,39.0682],[-123.02536,39.06824],[-123.02546,39.06824],[-123.02556,39.06821],[-123.02564,39.06816],[-123.02591,39.06794],[-123.02598,39.06787],[-123.02617,39.06763],[-123.02625,39.06748],[-123.02637,39.06738],[-123.0266,39.06688],[-123.02665,39.06682],[-123.02672,39.06679],[-123.02701,39.06652],[-123.02728,39.06605],[-123.02736,39.06598],[-123.02762,39.06563],[-123.02764,39.06543],[-123.02762,39.06535],[-123.02767,39.06525],[-123.02789,39.06498],[-123.02795,39.06487],[-123.02804,39.06447],[-123.02815,39.06438],[-123.02822,39.0643],[-123.0283,39.06424],[-123.02835,39.06414],[-123.02835,39.064],[-123.02827,39.06387],[-123.02806,39.06364],[-123.0277,39.06338],[-123.0276,39.06328],[-123.02745,39.06314],[-123.02742,39.06309],[-123.02718,39.06294],[-123.02713,39.06282],[-123.02713,39.06276],[-123.02715,39.06271],[-123.02736,39.06258],[-123.02766,39.06252],[-123.02786,39.06247],[-123.02808,39.06238],[-123.02816,39.0623],[-123.02828,39.06209],[-123.02843,39.06201],[-123.029,39.06162],[-123.0291,39.06139],[-123.0292,39.0611],[-123.02923,39.06104],[-123.02931,39.06097],[-123.02933,39.06097],[-123.02943,39.06099],[-123.02951,39.06103],[-123.02977,39.06119],[-123.02982,39.06125],[-123.03014,39.06142],[-123.03021,39.06145],[-123.03029,39.06145],[-123.03033,39.06143]]}},{"type":"Feature","properties":{"name":"Trail 23 - Benmore Loop (Blue/Blue/RED/NR)","road_class":"track","surface":"unpaved","source":"Caltrans All Roads + OpenStreetMap explicit surface","source_detail":"osm way 10273110; Caltrans All Roads public-network geometry match","source_tile":"162/391","public_network_source":"Caltrans All Roads (ARNOLD/HPMS)","surface_source":"OpenStreetMap explicit surface tag","caltrans_match_coverage":1.0,"verified_length_m":1919},"geometry":{"type":"LineString","coordinates":[[-123.03829,39.04274],[-123.03824,39.04272],[-123.03815,39.0426],[-123.03806,39.04254],[-123.03779,39.04237],[-123.03772,39.04231],[-123.03769,39.04212],[-123.0376,39.04189],[-123.03754,39.04181],[-123.03722,39.04161],[-123.03711,39.04155],[-123.03695,39.04152],[-123.03687,39.04152],[-123.03656,39.04161],[-123.03599,39.04159],[-123.03567,39.04137],[-123.03566,39.04134],[-123.03556,39.04125],[-123.03547,39.04113],[-123.03511,39.04051],[-123.03513,39.04047],[-123.03539,39.04033],[-123.03564,39.04007],[-123.03567,39.03988],[-123.03566,39.03982],[-123.03556,39.03959],[-123.03545,39.03946],[-123.03541,39.03936],[-123.03535,39.03915],[-123.03513,39.0386],[-123.03495,39.03843],[-123.03473,39.03816],[-123.03464,39.03795],[-123.03461,39.03791],[-123.0345,39.03783],[-123.03443,39.03765],[-123.0343,39.03755],[-123.0343,39.03747],[-123.03424,39.03737],[-123.03419,39.03732],[-123.03405,39.03722],[-123.03385,39.03717],[-123.03365,39.0371],[-123.03346,39.03706],[-123.03323,39.03696],[-123.03307,39.03694],[-123.03296,39.03695],[-123.0329,39.03696],[-123.03279,39.03696],[-123.03254,39.0369],[-123.03249,39.03686],[-123.03245,39.0368],[-123.03222,39.03666],[-123.03214,39.03655],[-123.03198,39.03621],[-123.0319,39.03594],[-123.03178,39.03583],[-123.03169,39.03578],[-123.03156,39.03574],[-123.03128,39.03569],[-123.03067,39.03569],[-123.03025,39.03551],[-123.03013,39.03547],[-123.03002,39.03539],[-123.03,39.03534],[-123.03002,39.03521],[-123.03,39.03481],[-123.02997,39.03475],[-123.02992,39.03471],[-123.0296,39.03457],[-123.02916,39.0343],[-123.02908,39.0342],[-123.02905,39.03409],[-123.02908,39.03395],[-123.02902,39.03383],[-123.02887,39.03376],[-123.02876,39.03364],[-123.02855,39.03354],[-123.02846,39.03348],[-123.02842,39.03343],[-123.02829,39.03337],[-123.0281,39.03333],[-123.02769,39.03329],[-123.02761,39.03325],[-123.02746,39.03321],[-123.02704,39.0332],[-123.0268,39.03315],[-123.02664,39.03309],[-123.02661,39.03307],[-123.02664,39.03297],[-123.02661,39.03293],[-123.02646,39.03283],[-123.02643,39.03278],[-123.0262,39.03267],[-123.02617,39.03258],[-123.02611,39.03254],[-123.02601,39.03251],[-123.0258,39.03247],[-123.02549,39.03232],[-123.02539,39.03223],[-123.02515,39.03213],[-123.02508,39.03207],[-123.0251,39.03203]]}},{"type":"Feature","properties":{"name":"Konocti Road","road_class":"track","surface":"compacted","tracktype":"grade2","source":"Caltrans All Roads + OpenStreetMap explicit surface","source_detail":"osm way 181221363; Caltrans All Roads public-network geometry match","source_tile":"162/391","public_network_source":"Caltrans All Roads (ARNOLD/HPMS)","surface_source":"OpenStreetMap explicit surface tag","caltrans_match_coverage":1.0,"verified_length_m":5330},"geometry":{"type":"LineString","coordinates":[[-122.81523,38.97466],[-122.81497,38.97468],[-122.81485,38.97467],[-122.81472,38.97468],[-122.81459,38.97467],[-122.81445,38.97466],[-122.81431,38.97464],[-122.81418,38.97462],[-122.81405,38.9746],[-122.81393,38.97457],[-122.8138,38.97453],[-122.81369,38.97448],[-122.81348,38.97436],[-122.81311,38.97406],[-122.81282,38.97383],[-122.81271,38.97376],[-122.81261,38.97368],[-122.81253,38.97361],[-122.81246,38.97353],[-122.81235,38.97339],[-122.8123,38.97335],[-122.81226,38.97331],[-122.81221,38.97331],[-122.81215,38.97333],[-122.8121,38.97335],[-122.81208,38.97339],[-122.81207,38.97345],[-122.81209,38.9735],[-122.81216,38.97363],[-122.81235,38.97397],[-122.81242,38.97412],[-122.81256,38.97445],[-122.81258,38.97455],[-122.81263,38.97463],[-122.8127,38.97481],[-122.81279,38.97498],[-122.81306,38.97545],[-122.81311,38.97554],[-122.81314,38.97564],[-122.81316,38.97574],[-122.81316,38.9758],[-122.81316,38.97583],[-122.81313,38.97593],[-122.81302,38.97622],[-122.81299,38.97631],[-122.81293,38.9766],[-122.81291,38.97669],[-122.81291,38.9768],[-122.81291,38.9769],[-122.81292,38.9772],[-122.81294,38.97728],[-122.81297,38.97737],[-122.81301,38.97744],[-122.81307,38.97752],[-122.8132,38.97767],[-122.8133,38.97772],[-122.81349,38.97786],[-122.81358,38.97791],[-122.81367,38.97796],[-122.81388,38.97804],[-122.81438,38.97818],[-122.8145,38.97822],[-122.81461,38.97826],[-122.81469,38.97831],[-122.81475,38.97837],[-122.81479,38.97843],[-122.81481,38.97851],[-122.8148,38.97857],[-122.81477,38.9786],[-122.81471,38.97864],[-122.81464,38.97866],[-122.81456,38.97866],[-122.81409,38.9786],[-122.81396,38.97858],[-122.81373,38.97854],[-122.8135,38.97848],[-122.81338,38.97846],[-122.81327,38.97842],[-122.81314,38.97841],[-122.81302,38.97839],[-122.8129,38.97836],[-122.81266,38.97827],[-122.81246,38.97819],[-122.81236,38.97816],[-122.81226,38.97814],[-122.81216,38.97812],[-122.81205,38.97811],[-122.81194,38.97808],[-122.81173,38.97807],[-122.81149,38.97807],[-122.81125,38.97807],[-122.8108,38.97809],[-122.81036,38.97812],[-122.81026,38.97814],[-122.81017,38.97816],[-122.81008,38.97819],[-122.80992,38.97827],[-122.80985,38.97835],[-122.80973,38.97853],[-122.80961,38.97873],[-122.80954,38.97883],[-122.80947,38.97892],[-122.80939,38.979],[-122.80911,38.97922],[-122.80872,38.97955],[-122.80862,38.97962],[-122.80852,38.97968],[-122.80841,38.97974],[-122.80819,38.97982],[-122.80807,38.97987],[-122.80796,38.9799],[-122.80786,38.97992],[-122.80776,38.97993],[-122.80766,38.97993],[-122.80757,38.97991],[-122.80748,38.97989],[-122.80739,38.97985],[-122.80731,38.9798],[-122.80723,38.97975],[-122.80717,38.97968],[-122.80711,38.97963],[-122.80703,38.97958],[-122.80695,38.97952],[-122.80686,38.97948],[-122.80678,38.97944],[-122.80658,38.97941],[-122.80649,38.97939],[-122.80637,38.97939],[-122.80626,38.97937],[-122.80615,38.97935],[-122.80603,38.97933],[-122.80592,38.97929],[-122.80581,38.97929],[-122.80546,38.97924],[-122.80534,38.97922],[-122.80522,38.97919],[-122.80512,38.97915],[-122.80501,38.97912],[-122.8049,38.9791],[-122.80478,38.97909],[-122.80467,38.97908],[-122.80445,38.97911],[-122.80425,38.97916],[-122.80417,38.97919],[-122.80412,38.97924],[-122.80409,38.97926],[-122.80402,38.97931],[-122.80387,38.97944],[-122.80381,38.97952],[-122.80375,38.97959],[-122.80368,38.97965],[-122.8036,38.9797],[-122.80339,38.97977],[-122.80329,38.97977],[-122.80306,38.97978],[-122.8027,38.97977],[-122.80209,38.97973],[-122.80148,38.97967],[-122.801,38.97962],[-122.80089,38.97961],[-122.80056,38.97954],[-122.80036,38.97949],[-122.80019,38.97942],[-122.80011,38.97939],[-122.79988,38.97928],[-122.79967,38.97917],[-122.79953,38.97909],[-122.79926,38.97888],[-122.79909,38.97873],[-122.79898,38.97858],[-122.79892,38.97845],[-122.79879,38.97826],[-122.79864,38.97812],[-122.79846,38.97795],[-122.79819,38.97765],[-122.7981,38.97752],[-122.79809,38.97746],[-122.79807,38.97743],[-122.79806,38.97739],[-122.79804,38.97735],[-122.79801,38.97724],[-122.79798,38.97715],[-122.79788,38.97698],[-122.79773,38.97673],[-122.79771,38.9767],[-122.79768,38.97666],[-122.79766,38.97659],[-122.79762,38.97651],[-122.79758,38.97645],[-122.79754,38.97639],[-122.79747,38.97619],[-122.79746,38.97611],[-122.79744,38.97604],[-122.79743,38.9759],[-122.79744,38.97584],[-122.79746,38.97577],[-122.79753,38.97565],[-122.7976,38.97561],[-122.79766,38.97554],[-122.79773,38.97548],[-122.79781,38.97542],[-122.79788,38.97537],[-122.79804,38.97525],[-122.7983,38.97509],[-122.79856,38.97491],[-122.79864,38.97485],[-122.79871,38.9748],[-122.79879,38.97475],[-122.79885,38.97472],[-122.79891,38.97468],[-122.79897,38.97465],[-122.79914,38.97445],[-122.79921,38.97439],[-122.79927,38.97433],[-122.79937,38.97421],[-122.7994,38.97415],[-122.79943,38.97409],[-122.79945,38.97397],[-122.79947,38.97363],[-122.79946,38.97349],[-122.79944,38.97335],[-122.79943,38.9733],[-122.79938,38.97302],[-122.79934,38.97289],[-122.79914,38.97245],[-122.79907,38.97227],[-122.79896,38.97211],[-122.79889,38.97203],[-122.79882,38.97194],[-122.79868,38.97178],[-122.79844,38.97155],[-122.79835,38.97148],[-122.79819,38.97133],[-122.79813,38.97125],[-122.79789,38.97107],[-122.79782,38.97101],[-122.79767,38.97089],[-122.79752,38.97076],[-122.797,38.97034],[-122.79692,38.97029],[-122.79677,38.97017],[-122.79669,38.9701],[-122.79663,38.97003],[-122.79642,38.96982],[-122.79619,38.96962],[-122.79611,38.96956],[-122.79594,38.96945],[-122.7952,38.96904],[-122.79512,38.96898],[-122.79503,38.96892],[-122.79495,38.96886],[-122.7948,38.96872],[-122.79473,38.96865],[-122.79466,38.96856],[-122.79461,38.96847],[-122.79458,38.96838],[-122.79447,38.968],[-122.79446,38.96791],[-122.79445,38.96772],[-122.79446,38.96763],[-122.79453,38.96697],[-122.79455,38.96689],[-122.79457,38.96681],[-122.79477,38.96629],[-122.79484,38.96602],[-122.79487,38.96583],[-122.79488,38.96574],[-122.79487,38.96565],[-122.79483,38.96539],[-122.79481,38.96531],[-122.79478,38.96523],[-122.79475,38.96516],[-122.79471,38.96511],[-122.79466,38.96508],[-122.79459,38.96505],[-122.79434,38.96502],[-122.79425,38.96501],[-122.79386,38.96491],[-122.79365,38.96487],[-122.79335,38.96484],[-122.79325,38.96484],[-122.79315,38.96484],[-122.79306,38.96484],[-122.79297,38.96486],[-122.79289,38.96489],[-122.79283,38.96493],[-122.79278,38.96498],[-122.79276,38.96502],[-122.79276,38.96507],[-122.79278,38.96512],[-122.79283,38.96522],[-122.79301,38.96549],[-122.79319,38.9657],[-122.79326,38.96582],[-122.79327,38.96587],[-122.79326,38.96593],[-122.79305,38.96636],[-122.79265,38.96701],[-122.79251,38.9672],[-122.79239,38.96733],[-122.79234,38.9674],[-122.79225,38.96754],[-122.79222,38.96761],[-122.7922,38.96769],[-122.79218,38.96777],[-122.79217,38.96793],[-122.79218,38.9681],[-122.79218,38.96818],[-122.79215,38.96826],[-122.79197,38.9686],[-122.79192,38.96866],[-122.79187,38.96872],[-122.79165,38.96894],[-122.79163,38.96896],[-122.79161,38.969],[-122.79159,38.96905],[-122.79158,38.96911],[-122.79159,38.96917],[-122.79161,38.96923],[-122.79164,38.96928],[-122.79168,38.96934],[-122.79173,38.9694],[-122.79183,38.9695],[-122.79204,38.96965],[-122.79221,38.96981],[-122.79229,38.96989],[-122.79233,38.96993],[-122.79256,38.97016],[-122.79292,38.97048],[-122.79297,38.97052],[-122.79318,38.97065],[-122.79328,38.97074],[-122.79334,38.97081],[-122.79336,38.97085],[-122.79338,38.9709],[-122.7934,38.97095],[-122.7934,38.97104],[-122.7934,38.97109],[-122.7934,38.97113],[-122.79338,38.97117],[-122.79335,38.9712],[-122.79332,38.97123],[-122.79325,38.97127]]}},{"type":"Feature","properties":{"name":"Trail 23 - Benmore Loop (Blue/Blue/Black/NR)","road_class":"track","surface":"unpaved","source":"Caltrans All Roads + OpenStreetMap explicit surface","source_detail":"osm way 400659269; Caltrans All Roads public-network geometry match","source_tile":"162/391","public_network_source":"Caltrans All Roads (ARNOLD/HPMS)","surface_source":"OpenStreetMap explicit surface tag","caltrans_match_coverage":1.0,"verified_length_m":1246},"geometry":{"type":"LineString","coordinates":[[-123.01084,39.04654],[-123.01089,39.04649],[-123.01105,39.04636],[-123.01109,39.04627],[-123.01119,39.04618],[-123.01133,39.04605],[-123.01149,39.04595],[-123.01159,39.04592],[-123.01198,39.04585],[-123.01245,39.04571],[-123.01247,39.04567],[-123.01247,39.04562],[-123.01242,39.04557],[-123.01228,39.04548],[-123.01225,39.04544],[-123.01225,39.04541],[-123.01227,39.04537],[-123.01232,39.04535],[-123.01237,39.04536],[-123.01249,39.04544],[-123.01279,39.04562],[-123.01285,39.04568],[-123.01296,39.04603],[-123.01302,39.04609],[-123.01324,39.04614],[-123.01358,39.04617],[-123.01407,39.04629],[-123.01449,39.04662],[-123.01468,39.04681],[-123.01489,39.04699],[-123.01514,39.04715],[-123.01529,39.04721],[-123.01564,39.04722],[-123.01593,39.0472],[-123.01627,39.04701],[-123.0164,39.04698],[-123.01652,39.04698],[-123.01665,39.04699],[-123.01724,39.04708],[-123.01739,39.04711],[-123.01783,39.04728],[-123.01809,39.04735],[-123.01819,39.04735],[-123.01842,39.04732],[-123.0189,39.04717],[-123.01897,39.04713],[-123.01901,39.04709],[-123.01907,39.04697],[-123.01912,39.04655],[-123.01921,39.04644],[-123.01925,39.04641],[-123.01935,39.0464],[-123.01945,39.04641],[-123.01951,39.04643],[-123.01963,39.04653],[-123.01976,39.04663],[-123.01987,39.04673],[-123.01994,39.04679],[-123.02001,39.04683],[-123.0201,39.04688],[-123.02021,39.04691],[-123.02036,39.04696],[-123.02053,39.04698],[-123.02068,39.04703],[-123.02073,39.04705],[-123.02077,39.04708],[-123.02086,39.04715],[-123.02091,39.04716],[-123.02105,39.04718],[-123.02121,39.04721],[-123.02128,39.04722],[-123.02135,39.04725],[-123.02148,39.0473],[-123.02161,39.04737],[-123.0217,39.04742]]}},{"type":"Feature","properties":{"name":"Trail 23 - Benmore Loop (Blue/Blue/Black/NR)","road_class":"track","surface":"unpaved","source":"Caltrans All Roads + OpenStreetMap explicit surface","source_detail":"osm way 400692941; Caltrans All Roads public-network geometry match","source_tile":"162/391","public_network_source":"Caltrans All Roads (ARNOLD/HPMS)","surface_source":"OpenStreetMap explicit surface tag","caltrans_match_coverage":1.0,"verified_length_m":6616},"geometry":{"type":"LineString","coordinates":[[-123.02524,39.03189],[-123.02528,39.03186],[-123.02534,39.03183],[-123.0256,39.03176],[-123.02585,39.03174],[-123.02599,39.03173],[-123.02617,39.03174],[-123.02635,39.0318],[-123.02647,39.03181],[-123.02666,39.03174],[-123.02687,39.03164],[-123.02708,39.03138],[-123.02711,39.03124],[-123.02706,39.03105],[-123.02701,39.03092],[-123.02697,39.03072],[-123.02696,39.03053],[-123.02694,39.03027],[-123.02692,39.03019],[-123.02698,39.02986],[-123.0271,39.02965],[-123.02718,39.02943],[-123.02716,39.02906],[-123.02717,39.02895],[-123.02714,39.02874],[-123.02735,39.02845],[-123.02737,39.02837],[-123.02747,39.02822],[-123.02783,39.02791],[-123.02787,39.0278],[-123.02789,39.02764],[-123.02793,39.02745],[-123.02799,39.02731],[-123.02791,39.02717],[-123.02776,39.0271],[-123.02756,39.02701],[-123.0273,39.02685],[-123.027,39.02673],[-123.02678,39.02671],[-123.02658,39.02672],[-123.02619,39.02671],[-123.02608,39.02665],[-123.0254,39.02645],[-123.02527,39.02639],[-123.02514,39.02637],[-123.02496,39.02634],[-123.02477,39.02627],[-123.02454,39.02615],[-123.02442,39.02615],[-123.02428,39.02598],[-123.02426,39.02582],[-123.02436,39.02565],[-123.02439,39.02547],[-123.02447,39.02532],[-123.02443,39.02528],[-123.02428,39.02524],[-123.02414,39.02522],[-123.02395,39.02521],[-123.02377,39.0252],[-123.0236,39.02526],[-123.0235,39.02528],[-123.02328,39.02529],[-123.02316,39.02526],[-123.02306,39.02525],[-123.02296,39.02529],[-123.02274,39.02535],[-123.02262,39.02538],[-123.0225,39.02542],[-123.02235,39.02546],[-123.02216,39.02544],[-123.02207,39.02542],[-123.02195,39.02538],[-123.02177,39.02544],[-123.02168,39.02545],[-123.0216,39.02545],[-123.02151,39.02545],[-123.0214,39.02543],[-123.02135,39.02537],[-123.02128,39.02531],[-123.02116,39.02524],[-123.02103,39.02515],[-123.02093,39.02507],[-123.02089,39.02499],[-123.02082,39.02467],[-123.02072,39.02457],[-123.02067,39.0244],[-123.02055,39.0241],[-123.02051,39.02407],[-123.02029,39.02414],[-123.02007,39.02422],[-123.01964,39.02421],[-123.01948,39.02423],[-123.01939,39.02425],[-123.01917,39.02438],[-123.01908,39.02442],[-123.01857,39.02456],[-123.01837,39.02457],[-123.01778,39.02447],[-123.01765,39.0244],[-123.01753,39.02438],[-123.01713,39.02436],[-123.01694,39.02433],[-123.0163,39.02441],[-123.0157,39.0246],[-123.01548,39.02468],[-123.01514,39.02487],[-123.01495,39.02507],[-123.01478,39.02516],[-123.01439,39.02525],[-123.01403,39.02528],[-123.01345,39.02538],[-123.01315,39.02545],[-123.01294,39.02547],[-123.01279,39.02544],[-123.01272,39.02539],[-123.01263,39.02529],[-123.01251,39.02521],[-123.01238,39.02515],[-123.0123,39.02497],[-123.01225,39.02493],[-123.01217,39.02491],[-123.012,39.02494],[-123.0119,39.02491],[-123.01179,39.0248],[-123.01171,39.02479],[-123.01159,39.02474],[-123.01117,39.0245],[-123.01109,39.02439],[-123.01066,39.02466],[-123.0106,39.02469],[-123.01041,39.02473],[-123.01023,39.02478],[-123.01009,39.02478],[-123.00994,39.02481],[-123.00983,39.02479],[-123.00967,39.02487],[-123.00941,39.02494],[-123.00918,39.02494],[-123.0091,39.02496],[-123.00877,39.02511],[-123.00871,39.02528],[-123.00861,39.02536],[-123.00831,39.02552],[-123.00791,39.02567],[-123.00784,39.0257],[-123.00776,39.02578],[-123.00767,39.02584],[-123.0076,39.02598],[-123.00762,39.02608],[-123.00759,39.02622],[-123.00756,39.02626],[-123.0076,39.02628],[-123.00769,39.02629],[-123.00778,39.02632],[-123.00786,39.0264],[-123.00789,39.02648],[-123.00794,39.0265],[-123.00811,39.02662],[-123.0082,39.02672],[-123.00829,39.02681],[-123.00832,39.02686],[-123.00831,39.02691],[-123.00825,39.02694],[-123.00771,39.02692],[-123.00735,39.02701],[-123.00714,39.02699],[-123.00698,39.027],[-123.00682,39.02695],[-123.00674,39.02696],[-123.00671,39.02699],[-123.00677,39.02723],[-123.00678,39.02735],[-123.0068,39.02748],[-123.00688,39.02759],[-123.00707,39.02769],[-123.00716,39.02777],[-123.00745,39.02816],[-123.00745,39.02826],[-123.00735,39.0286],[-123.00736,39.02889],[-123.00736,39.02892],[-123.00743,39.02901],[-123.00748,39.02905],[-123.0077,39.02911],[-123.0078,39.02911],[-123.00821,39.02899],[-123.00829,39.02899],[-123.00847,39.02904],[-123.00878,39.02906],[-123.00925,39.02913],[-123.00929,39.02909],[-123.00927,39.02898],[-123.00929,39.02895],[-123.00945,39.02883],[-123.00963,39.02877],[-123.0097,39.02876],[-123.00987,39.02877],[-123.01008,39.02885],[-123.01029,39.02885],[-123.01035,39.0289],[-123.01037,39.02896],[-123.01035,39.02905],[-123.01019,39.02926],[-123.0101,39.02941],[-123.01002,39.02963],[-123.01003,39.0297],[-123.01015,39.02981],[-123.01029,39.02998],[-123.01034,39.03013],[-123.01035,39.03054],[-123.01038,39.0306],[-123.01059,39.03088],[-123.01062,39.03091],[-123.01071,39.03094],[-123.01086,39.03094],[-123.0112,39.03082],[-123.01144,39.03066],[-123.01154,39.03061],[-123.01169,39.03056],[-123.0117,39.03056],[-123.01196,39.03041],[-123.01212,39.03038],[-123.01222,39.03041],[-123.01236,39.03053],[-123.01255,39.03089],[-123.01259,39.03097],[-123.01262,39.03119],[-123.01265,39.03126],[-123.0129,39.03151],[-123.01298,39.03158],[-123.01305,39.0316],[-123.0131,39.03166],[-123.01311,39.03173],[-123.0131,39.03179],[-123.013,39.03186],[-123.01293,39.03187],[-123.01263,39.03186],[-123.01245,39.0319],[-123.01227,39.03197],[-123.01175,39.03224],[-123.01153,39.0324],[-123.01118,39.03274],[-123.01103,39.03293],[-123.01099,39.03296],[-123.01051,39.03311],[-123.01031,39.03315],[-123.0103,39.03319],[-123.01027,39.03336],[-123.01024,39.0334],[-123.01009,39.03348],[-123.01002,39.03357],[-123.01002,39.03363],[-123.01005,39.03367],[-123.01061,39.03372],[-123.01079,39.03369],[-123.0109,39.03362],[-123.01108,39.03355],[-123.01137,39.03351],[-123.01165,39.03351],[-123.01176,39.03354],[-123.01184,39.03358],[-123.0119,39.03364],[-123.01207,39.03397],[-123.01214,39.03406],[-123.01236,39.03418],[-123.01253,39.0343],[-123.01254,39.03441],[-123.01251,39.03448],[-123.01247,39.03457],[-123.01245,39.03466],[-123.01252,39.03489],[-123.01259,39.035],[-123.01287,39.03516],[-123.01297,39.03534],[-123.013,39.0357],[-123.01305,39.03605],[-123.01311,39.03622],[-123.01322,39.03641],[-123.01329,39.03648],[-123.01356,39.03668],[-123.01408,39.03699],[-123.01417,39.03701],[-123.01436,39.03715],[-123.01445,39.03733],[-123.01449,39.03736],[-123.01457,39.03739],[-123.0148,39.03742],[-123.01486,39.03747],[-123.01492,39.03773],[-123.01506,39.03792],[-123.01512,39.03812],[-123.01514,39.03824],[-123.01517,39.03832],[-123.01521,39.03835],[-123.01556,39.03852],[-123.01628,39.0386],[-123.01638,39.03866],[-123.01653,39.03884],[-123.01661,39.03893],[-123.01672,39.03902],[-123.01706,39.03913],[-123.01721,39.03921],[-123.01733,39.0393],[-123.01749,39.03948],[-123.01756,39.03953],[-123.01773,39.03959],[-123.01781,39.03965],[-123.01801,39.03988],[-123.01803,39.03998],[-123.01792,39.04017],[-123.01793,39.04049],[-123.018,39.04065],[-123.0181,39.04079],[-123.01822,39.04085],[-123.01848,39.04084],[-123.01857,39.04085],[-123.01865,39.04089],[-123.01881,39.04102],[-123.01979,39.04158],[-123.0199,39.04186],[-123.01993,39.04201],[-123.01989,39.04216],[-123.0198,39.04243],[-123.0198,39.04248],[-123.01983,39.04252],[-123.01989,39.04256],[-123.02018,39.04268],[-123.02025,39.04277],[-123.02024,39.04285],[-123.02017,39.04303],[-123.02016,39.04315],[-123.02017,39.04324],[-123.01997,39.04363],[-123.01979,39.0439],[-123.01962,39.04427],[-123.01952,39.04436],[-123.01937,39.04442],[-123.01926,39.0445],[-123.01918,39.04459],[-123.01919,39.04464],[-123.0192,39.04471],[-123.01926,39.0449],[-123.01924,39.04496],[-123.01919,39.04502],[-123.01902,39.0451],[-123.01899,39.04514],[-123.01894,39.04528],[-123.01893,39.04541],[-123.01896,39.04555],[-123.01902,39.04573],[-123.01922,39.04609],[-123.01924,39.04624],[-123.0192,39.04637],[-123.01921,39.04644]]}},{"type":"Feature","properties":{"name":"Adobe Creek Road","road_class":"track","surface":"unpaved","tracktype":"grade3","source":"Caltrans All Roads + OpenStreetMap explicit surface","source_detail":"osm way 455410500; Caltrans All Roads public-network geometry match","source_tile":"162/391","public_network_source":"Caltrans All Roads (ARNOLD/HPMS)","surface_source":"OpenStreetMap explicit surface tag","caltrans_match_coverage":1.0,"verified_length_m":6920},"geometry":{"type":"LineString","coordinates":[[-122.97051,38.94428],[-122.97077,38.94412],[-122.97088,38.9441],[-122.97099,38.94412],[-122.97116,38.94418],[-122.97148,38.9443],[-122.97201,38.94445],[-122.9722,38.94453],[-122.97253,38.94458],[-122.97286,38.9447],[-122.97308,38.94478],[-122.97322,38.94484],[-122.97333,38.94492],[-122.97332,38.94501],[-122.97325,38.94513],[-122.9732,38.94518],[-122.97317,38.94553],[-122.97315,38.94568],[-122.97303,38.946],[-122.97302,38.94614],[-122.97302,38.94624],[-122.97302,38.94629],[-122.97302,38.94636],[-122.97304,38.94641],[-122.97306,38.94646],[-122.97312,38.94653],[-122.97326,38.94662],[-122.97365,38.94659],[-122.9741,38.94663],[-122.97429,38.94668],[-122.97445,38.94672],[-122.9746,38.94673],[-122.97472,38.94673],[-122.97495,38.94666],[-122.97531,38.94652],[-122.97566,38.94653],[-122.97601,38.9465],[-122.97655,38.94651],[-122.97681,38.94669],[-122.97691,38.9468],[-122.97697,38.94695],[-122.97704,38.94703],[-122.97757,38.94718],[-122.97769,38.94726],[-122.97776,38.94733],[-122.97781,38.94743],[-122.97789,38.94765],[-122.97794,38.94771],[-122.97853,38.9481],[-122.97858,38.94813],[-122.97862,38.94814],[-122.97874,38.94814],[-122.97896,38.94812],[-122.97907,38.94813],[-122.97914,38.94816],[-122.9792,38.94822],[-122.97923,38.94829],[-122.97923,38.94837],[-122.9792,38.94852],[-122.97916,38.94859],[-122.97909,38.94867],[-122.9789,38.94883],[-122.97885,38.9489],[-122.97884,38.94895],[-122.97887,38.94902],[-122.97892,38.94905],[-122.97899,38.94907],[-122.97939,38.94906],[-122.9798,38.94912],[-122.98001,38.94916],[-122.98009,38.9492],[-122.98017,38.94927],[-122.9802,38.94932],[-122.98022,38.9494],[-122.98021,38.94945],[-122.98015,38.94954],[-122.97977,38.94991],[-122.97974,38.94996],[-122.97975,38.95001],[-122.97977,38.95004],[-122.97984,38.95007],[-122.98018,38.95011],[-122.98039,38.95023],[-122.98048,38.95026],[-122.98061,38.95028],[-122.98094,38.95029],[-122.98105,38.95031],[-122.98113,38.95036],[-122.98121,38.95043],[-122.98145,38.95075],[-122.98152,38.95081],[-122.98159,38.95083],[-122.98168,38.95084],[-122.98179,38.95083],[-122.98195,38.95076],[-122.98208,38.95068],[-122.98228,38.95054],[-122.98234,38.95052],[-122.98242,38.9505],[-122.98246,38.9505],[-122.98255,38.95054],[-122.98268,38.95065],[-122.98274,38.95073],[-122.98277,38.95077],[-122.98277,38.95086],[-122.98274,38.95093],[-122.98266,38.95101],[-122.98253,38.9511],[-122.98244,38.95119],[-122.98232,38.95139],[-122.98228,38.95144],[-122.98222,38.95148],[-122.98206,38.95156],[-122.98197,38.95159],[-122.98185,38.95161],[-122.98164,38.95161],[-122.98146,38.95157],[-122.98117,38.95148],[-122.98107,38.95147],[-122.981,38.95148],[-122.98095,38.95152],[-122.98094,38.95157],[-122.98095,38.95164],[-122.98122,38.95211],[-122.98123,38.95217],[-122.98122,38.9522],[-122.98112,38.95227],[-122.98089,38.95239],[-122.98083,38.95243],[-122.98081,38.95246],[-122.98081,38.95249],[-122.98082,38.95253],[-122.98087,38.95258],[-122.98099,38.95263],[-122.98156,38.9528],[-122.9817,38.95282],[-122.98181,38.95282],[-122.98208,38.95278],[-122.98221,38.95277],[-122.98233,38.95279],[-122.98237,38.95281],[-122.98243,38.95288],[-122.98255,38.95308],[-122.98262,38.95324],[-122.98267,38.95341],[-122.98274,38.95375],[-122.98274,38.95398],[-122.9827,38.9545],[-122.98264,38.95474],[-122.98244,38.95522],[-122.98238,38.95529],[-122.9823,38.95535],[-122.9821,38.95544],[-122.98199,38.95551],[-122.98189,38.95561],[-122.98154,38.95605],[-122.98148,38.95608],[-122.98138,38.95612],[-122.98133,38.95617],[-122.98131,38.95623],[-122.98131,38.95649],[-122.98127,38.95666],[-122.98118,38.95685],[-122.98111,38.95695],[-122.98104,38.95701],[-122.98093,38.95705],[-122.98081,38.95707],[-122.98064,38.95708],[-122.98051,38.95707],[-122.9803,38.95703],[-122.98024,38.95704],[-122.98021,38.95708],[-122.98017,38.95751],[-122.98015,38.9576],[-122.98012,38.95766],[-122.98009,38.9577],[-122.98001,38.95777],[-122.97988,38.95782],[-122.97976,38.95784],[-122.97893,38.9579],[-122.9788,38.95793],[-122.97877,38.95798],[-122.97876,38.95801],[-122.97879,38.95808],[-122.97889,38.95823],[-122.97904,38.95839],[-122.9792,38.95854],[-122.97932,38.95869],[-122.97944,38.95891],[-122.97946,38.95897],[-122.97947,38.95907],[-122.97944,38.95912],[-122.9793,38.95924],[-122.97914,38.95945],[-122.97898,38.95962],[-122.97894,38.95969],[-122.97896,38.95983],[-122.97902,38.96005],[-122.97907,38.96019],[-122.97908,38.96023],[-122.97907,38.96026],[-122.97902,38.96031],[-122.97878,38.96039],[-122.97832,38.96052],[-122.9782,38.96052],[-122.9776,38.96048],[-122.97747,38.96046],[-122.97737,38.96047],[-122.97732,38.96051],[-122.9771,38.96084],[-122.97678,38.96137],[-122.97676,38.96143],[-122.97679,38.96147],[-122.97694,38.96155],[-122.9771,38.96167],[-122.9772,38.96176],[-122.97726,38.9619],[-122.97722,38.96222],[-122.97725,38.96241],[-122.97725,38.96259],[-122.97724,38.96264],[-122.97719,38.96269],[-122.97705,38.96277],[-122.97697,38.96285],[-122.97678,38.96313],[-122.97673,38.96316],[-122.97649,38.96323],[-122.97636,38.96329],[-122.97627,38.96335],[-122.97625,38.96341],[-122.97627,38.96346],[-122.97636,38.96354],[-122.97649,38.96374],[-122.97657,38.96382],[-122.97668,38.96389],[-122.97678,38.964],[-122.97693,38.96414],[-122.97704,38.9642],[-122.9771,38.96426],[-122.97715,38.96433],[-122.97719,38.96443],[-122.97721,38.96452],[-122.97728,38.96458],[-122.97736,38.96462],[-122.97744,38.96465],[-122.97757,38.96464],[-122.97766,38.96465],[-122.97778,38.9647],[-122.97787,38.96478],[-122.97797,38.96491],[-122.97803,38.96502],[-122.97807,38.9652],[-122.97808,38.96534],[-122.97813,38.96542],[-122.97826,38.96552],[-122.97881,38.96589],[-122.97911,38.96604],[-122.97915,38.96607],[-122.97917,38.9661],[-122.97919,38.96614],[-122.97917,38.96624],[-122.979,38.96655],[-122.97883,38.96679],[-122.97862,38.96704],[-122.97858,38.96713],[-122.97856,38.96724],[-122.97856,38.9674],[-122.97857,38.96751],[-122.97862,38.96762],[-122.97875,38.96782],[-122.97909,38.96818],[-122.9793,38.96836],[-122.97932,38.9684],[-122.97933,38.9685],[-122.97932,38.96855],[-122.97928,38.96864],[-122.97924,38.96868],[-122.97898,38.96884],[-122.97885,38.96896],[-122.97877,38.96905],[-122.97876,38.9691],[-122.97876,38.96914],[-122.97884,38.96929],[-122.97885,38.96933],[-122.97884,38.96936],[-122.97883,38.96939],[-122.97877,38.96943],[-122.97866,38.96945],[-122.97834,38.96949],[-122.97811,38.96956],[-122.97802,38.96955],[-122.97786,38.9695],[-122.97777,38.9695],[-122.97765,38.96952],[-122.97753,38.96956],[-122.97746,38.96959],[-122.9774,38.96967],[-122.97737,38.9698],[-122.97738,38.96998],[-122.97742,38.97019],[-122.97743,38.97044],[-122.97747,38.97057],[-122.97752,38.97067],[-122.97761,38.97071],[-122.97785,38.97077],[-122.97787,38.97078],[-122.9779,38.9708],[-122.97794,38.97095],[-122.97799,38.97104],[-122.97801,38.97121],[-122.97804,38.97132],[-122.97795,38.9717],[-122.97792,38.97189],[-122.97789,38.97196],[-122.97774,38.97209],[-122.97771,38.97214],[-122.9777,38.97222],[-122.97772,38.97232],[-122.97778,38.97248],[-122.97791,38.97266],[-122.97801,38.97278],[-122.97814,38.97291],[-122.97816,38.97296],[-122.97815,38.97303],[-122.97802,38.97316],[-122.978,38.97331],[-122.97796,38.97337],[-122.97782,38.97349],[-122.97768,38.97357],[-122.97739,38.97371],[-122.97712,38.97378],[-122.97689,38.97386],[-122.97671,38.97389],[-122.97655,38.97397],[-122.97644,38.97406],[-122.97635,38.97421],[-122.97626,38.97435],[-122.97629,38.97443],[-122.97631,38.97454],[-122.97638,38.97465],[-122.97659,38.97481],[-122.97677,38.9749],[-122.97691,38.97506],[-122.97692,38.97513],[-122.97686,38.97519],[-122.97672,38.97525],[-122.97654,38.97534],[-122.9764,38.97539],[-122.97626,38.97543],[-122.97598,38.97548],[-122.97581,38.97554],[-122.97572,38.97563],[-122.97567,38.97575],[-122.97565,38.97588],[-122.97568,38.97597],[-122.97575,38.97604],[-122.97583,38.97611],[-122.97586,38.97619],[-122.9758,38.97627],[-122.97564,38.97634],[-122.97513,38.97664],[-122.97503,38.97675],[-122.97495,38.97688],[-122.97495,38.97703],[-122.97507,38.97752],[-122.97503,38.97761],[-122.97496,38.97766],[-122.97487,38.97765],[-122.97456,38.97762],[-122.97441,38.97762],[-122.97425,38.97764],[-122.97406,38.97768],[-122.97395,38.97767],[-122.97382,38.97765],[-122.97369,38.97761],[-122.97342,38.97767],[-122.97323,38.97776],[-122.97306,38.97785],[-122.97294,38.97794],[-122.97289,38.97805],[-122.97283,38.97815],[-122.97274,38.97823],[-122.97265,38.97829],[-122.97253,38.97835],[-122.9724,38.97835],[-122.97221,38.97841],[-122.97212,38.97848],[-122.97191,38.97854],[-122.97181,38.97859],[-122.97169,38.9787],[-122.97168,38.97881],[-122.97161,38.97891],[-122.9715,38.97903],[-122.97129,38.97912],[-122.97102,38.97924],[-122.9708,38.97928],[-122.9706,38.97927],[-122.9704,38.97918],[-122.96994,38.97895],[-122.96977,38.97889],[-122.96965,38.97892],[-122.96958,38.97896],[-122.96953,38.97903],[-122.96952,38.9791],[-122.96953,38.97917],[-122.96956,38.9792],[-122.96964,38.97921],[-122.96989,38.97926],[-122.97003,38.9793],[-122.97022,38.97942],[-122.97051,38.97965],[-122.97062,38.97972],[-122.97079,38.9798],[-122.97089,38.97985],[-122.97098,38.98],[-122.97106,38.98025],[-122.97113,38.9803],[-122.97137,38.98033],[-122.97145,38.98036],[-122.97148,38.98044],[-122.97155,38.98072],[-122.97161,38.98085],[-122.97173,38.98095],[-122.97188,38.98106],[-122.97219,38.98125],[-122.9723,38.98133],[-122.97236,38.98139],[-122.97239,38.98147]]}},{"type":"Feature","properties":{"name":"(unnamed public road)","road_class":"track","surface":"dirt","source":"Caltrans All Roads + OpenStreetMap explicit surface","source_detail":"osm way 654308314; Caltrans All Roads public-network geometry match","source_tile":"162/391","public_network_source":"Caltrans All Roads (ARNOLD/HPMS)","surface_source":"OpenStreetMap explicit surface tag","caltrans_match_coverage":0.892,"verified_length_m":2270},"geometry":{"type":"LineString","coordinates":[[-123.03383,39.02184],[-123.03373,39.02184],[-123.03364,39.02183],[-123.03348,39.02182],[-123.0332,39.0218],[-123.03313,39.02179],[-123.03309,39.02178],[-123.03306,39.02176],[-123.03303,39.02174],[-123.03301,39.02171],[-123.033,39.02163],[-123.03301,39.02155],[-123.03299,39.02142],[-123.03297,39.02134],[-123.03294,39.02126],[-123.03289,39.02119],[-123.03287,39.02115],[-123.03283,39.02112],[-123.03279,39.02109],[-123.03274,39.02107],[-123.03265,39.02103],[-123.03244,39.02094],[-123.03239,39.02093],[-123.03232,39.02092],[-123.03229,39.02092],[-123.03225,39.02092],[-123.03217,39.02093],[-123.03203,39.02095],[-123.03191,39.02095],[-123.03168,39.02098],[-123.03161,39.02099],[-123.03154,39.02098],[-123.03149,39.02097],[-123.03144,39.02094],[-123.0313,39.02086],[-123.03116,39.02075],[-123.03102,39.02066],[-123.03088,39.02054],[-123.03069,39.02036],[-123.03066,39.02033],[-123.03052,39.02018],[-123.03038,39.01996],[-123.03025,39.01972],[-123.03005,39.01943],[-123.02999,39.01933],[-123.02992,39.01929],[-123.02984,39.01925],[-123.02959,39.01914],[-123.02952,39.0191],[-123.02947,39.01906],[-123.02941,39.01898],[-123.02938,39.0189],[-123.0293,39.0188],[-123.02916,39.01869],[-123.02903,39.01857],[-123.02875,39.01833],[-123.02848,39.01809],[-123.02841,39.01805],[-123.02834,39.01801],[-123.02825,39.01797],[-123.0282,39.01795],[-123.02816,39.01793],[-123.02814,39.01789],[-123.02811,39.01785],[-123.02807,39.01779],[-123.02802,39.01774],[-123.02793,39.01767],[-123.02788,39.01763],[-123.02782,39.01759],[-123.02771,39.01753],[-123.02764,39.01749],[-123.0276,39.01744],[-123.0276,39.01739],[-123.02763,39.01733],[-123.02768,39.01722],[-123.02769,39.01717],[-123.02769,39.01711],[-123.02766,39.01704],[-123.02761,39.01699],[-123.02754,39.01693],[-123.0274,39.01685],[-123.02714,39.0167],[-123.0269,39.01651],[-123.02673,39.01641],[-123.02659,39.01634],[-123.02641,39.01633],[-123.02631,39.01636],[-123.0262,39.01644],[-123.02608,39.01646],[-123.02595,39.01646],[-123.02575,39.01638],[-123.02549,39.0163],[-123.02527,39.01619],[-123.02516,39.01606],[-123.02497,39.01588],[-123.0245,39.01553],[-123.02411,39.01532],[-123.02397,39.01528],[-123.02382,39.01526],[-123.02358,39.01521],[-123.02334,39.01512],[-123.02306,39.015],[-123.02261,39.0148],[-123.02243,39.01471],[-123.02204,39.01453],[-123.02177,39.01439],[-123.02146,39.01428],[-123.02119,39.01419],[-123.01999,39.01376],[-123.01953,39.01355],[-123.01914,39.01336],[-123.01889,39.01317],[-123.01867,39.01304],[-123.01848,39.01299],[-123.01834,39.01294],[-123.0183,39.01285],[-123.01829,39.01274],[-123.01823,39.01261],[-123.01812,39.01247],[-123.01798,39.01239],[-123.01774,39.01229],[-123.01747,39.01221],[-123.01715,39.01219],[-123.01706,39.01217],[-123.01692,39.01208],[-123.01687,39.01202],[-123.01687,39.01198],[-123.01702,39.01183],[-123.01859,39.01018],[-123.01864,39.01006],[-123.01864,39.00994],[-123.0186,39.00983],[-123.01858,39.00979]]}},{"type":"Feature","properties":{"name":"(unnamed public road)","road_class":"track","surface":"dirt","source":"Caltrans All Roads + OpenStreetMap explicit surface","source_detail":"osm way 654312381; Caltrans All Roads public-network geometry match","source_tile":"162/391","public_network_source":"Caltrans All Roads (ARNOLD/HPMS)","surface_source":"OpenStreetMap explicit surface tag","caltrans_match_coverage":1.0,"verified_length_m":1549},"geometry":{"type":"LineString","coordinates":[[-123.03383,39.02184],[-123.03381,39.02187],[-123.03381,39.02191],[-123.03383,39.02194],[-123.03388,39.02197],[-123.03393,39.02198],[-123.0341,39.02197],[-123.03417,39.02198],[-123.03426,39.022],[-123.03436,39.02204],[-123.03453,39.02211],[-123.03465,39.02217],[-123.0347,39.02218],[-123.03475,39.02218],[-123.03481,39.02216],[-123.03489,39.02212],[-123.03494,39.0221],[-123.03499,39.02211],[-123.03504,39.02212],[-123.03509,39.02216],[-123.03514,39.02222],[-123.03521,39.02232],[-123.03528,39.02241],[-123.03534,39.02244],[-123.03542,39.02247],[-123.0355,39.02249],[-123.03556,39.02252],[-123.0356,39.02255],[-123.03563,39.02259],[-123.03564,39.02261],[-123.03563,39.02266],[-123.0356,39.02271],[-123.03556,39.02273],[-123.0355,39.02275],[-123.03535,39.02277],[-123.03519,39.02277],[-123.03504,39.02276],[-123.03496,39.02275],[-123.03486,39.02275],[-123.03469,39.02279],[-123.03463,39.02279],[-123.03457,39.02278],[-123.03451,39.02276],[-123.03443,39.02273],[-123.03439,39.02272],[-123.03433,39.02271],[-123.03422,39.02271],[-123.03415,39.02271],[-123.03406,39.02274],[-123.03398,39.02278],[-123.03388,39.02283],[-123.03383,39.02287],[-123.0338,39.0229],[-123.03378,39.02297],[-123.03373,39.02309],[-123.0337,39.0231],[-123.03364,39.02312],[-123.03352,39.02312],[-123.03341,39.02313],[-123.03312,39.02316],[-123.03306,39.02316],[-123.03282,39.02314],[-123.03263,39.02314],[-123.03249,39.02314],[-123.03229,39.02313],[-123.0322,39.02313],[-123.0321,39.02311],[-123.03193,39.02308],[-123.03182,39.02306],[-123.03175,39.02304],[-123.03166,39.02299],[-123.03149,39.02291],[-123.03144,39.02288],[-123.03135,39.02283],[-123.03126,39.0228],[-123.03113,39.02276],[-123.03103,39.02273],[-123.03092,39.02271],[-123.03063,39.02268],[-123.03052,39.02266],[-123.03041,39.02264],[-123.03019,39.0226],[-123.03017,39.02259],[-123.02998,39.02255],[-123.02992,39.02254],[-123.02983,39.02254],[-123.02975,39.02255],[-123.02963,39.02255],[-123.02956,39.02253],[-123.02944,39.02252],[-123.02935,39.02251],[-123.02926,39.02248],[-123.02916,39.02245],[-123.02902,39.0224],[-123.02891,39.02242],[-123.02873,39.02247],[-123.02847,39.02254],[-123.0283,39.02257],[-123.02817,39.02258],[-123.02806,39.02258],[-123.028,39.02257],[-123.0279,39.02254],[-123.02779,39.02252],[-123.02772,39.02249],[-123.02764,39.02247],[-123.02753,39.02238],[-123.02746,39.02234],[-123.02739,39.02228],[-123.02729,39.0222],[-123.02719,39.02215],[-123.02708,39.02208],[-123.02697,39.02203],[-123.02688,39.02201],[-123.02681,39.02198],[-123.02676,39.02197],[-123.02671,39.02197],[-123.02664,39.02198],[-123.02658,39.022],[-123.02652,39.02204],[-123.02646,39.0221],[-123.02637,39.02222],[-123.0263,39.02226],[-123.02621,39.02229],[-123.02615,39.02229],[-123.02602,39.02229],[-123.02597,39.0223],[-123.02587,39.02233],[-123.02578,39.02236],[-123.02571,39.02239],[-123.02561,39.02241],[-123.02554,39.0224],[-123.02546,39.02238],[-123.02541,39.02238],[-123.02535,39.02238],[-123.02528,39.0224],[-123.02519,39.02243],[-123.02511,39.02245],[-123.02504,39.02246],[-123.02494,39.02246],[-123.02488,39.02245],[-123.02484,39.02243],[-123.02477,39.0224],[-123.02472,39.02237],[-123.02466,39.02232],[-123.02459,39.02228],[-123.02449,39.02224],[-123.02444,39.02222],[-123.0244,39.02222],[-123.02432,39.02225],[-123.02418,39.02233],[-123.02405,39.02242],[-123.02387,39.0225],[-123.02379,39.02257],[-123.02376,39.0226],[-123.02371,39.02262],[-123.02366,39.02264],[-123.02362,39.02263],[-123.02357,39.0226],[-123.02354,39.02258],[-123.02345,39.02253],[-123.02337,39.02249],[-123.02329,39.02248],[-123.02323,39.02247],[-123.02316,39.02247],[-123.02284,39.0225],[-123.02273,39.0225],[-123.02262,39.02251],[-123.0225,39.02252],[-123.02242,39.02254],[-123.02236,39.02258],[-123.02227,39.02264],[-123.02213,39.02272],[-123.02206,39.02276],[-123.022,39.02279],[-123.02195,39.02281],[-123.02191,39.02281],[-123.02187,39.02281],[-123.02184,39.0228],[-123.02181,39.02279],[-123.02174,39.02276],[-123.02169,39.02273]]}},{"type":"Feature","properties":{"name":"(unnamed public road)","road_class":"track","surface":"unpaved","source":"Caltrans All Roads + OpenStreetMap explicit surface","source_detail":"osm way 1328265717; Caltrans All Roads public-network geometry match","source_tile":"162/391","public_network_source":"Caltrans All Roads (ARNOLD/HPMS)","surface_source":"OpenStreetMap explicit surface tag","caltrans_match_coverage":1.0,"verified_length_m":609},"geometry":{"type":"LineString","coordinates":[[-122.76519,38.97527],[-122.76562,38.97531],[-122.76603,38.97543],[-122.76662,38.97547],[-122.76704,38.9754],[-122.76726,38.97528],[-122.7675,38.97514],[-122.76786,38.97484],[-122.76813,38.97453],[-122.76843,38.97429],[-122.76858,38.97418],[-122.76888,38.97389],[-122.76909,38.97357],[-122.76953,38.97286],[-122.76986,38.97257],[-122.7703,38.97239]]}}]}