{"type":"FeatureCollection","features":[{"type":"Feature","properties":{"name":"(unnamed public road)","road_class":"track","source":"OpenStreetMap","source_detail":"osm way 10249759","source_tile":"159/381","surface_inferred":true},"geometry":{"type":"LineString","coordinates":[[-124.09735,41.73185],[-124.09727,41.73176],[-124.09721,41.73168],[-124.09697,41.73129],[-124.0967,41.73077],[-124.09647,41.73047],[-124.09639,41.73033],[-124.09636,41.73024],[-124.09635,41.73006],[-124.09637,41.7296],[-124.09637,41.72932],[-124.09633,41.72916],[-124.09626,41.729],[-124.0962,41.72893],[-124.09615,41.7289],[-124.09609,41.72888],[-124.09601,41.72887],[-124.09592,41.72887],[-124.09567,41.72891],[-124.09542,41.72899],[-124.09535,41.72899],[-124.09522,41.72898],[-124.09516,41.72897],[-124.09474,41.72875],[-124.09461,41.72869],[-124.09437,41.7286],[-124.09431,41.72857],[-124.09419,41.72847],[-124.09409,41.72834],[-124.09395,41.72823],[-124.09389,41.72806],[-124.09386,41.72793],[-124.09385,41.72716],[-124.09386,41.72703],[-124.09394,41.7266],[-124.09402,41.7264],[-124.09408,41.7263],[-124.09427,41.72605],[-124.09445,41.72586],[-124.09454,41.7258],[-124.09481,41.72566],[-124.09504,41.72558],[-124.09537,41.72541],[-124.09575,41.72522],[-124.09622,41.72502],[-124.09626,41.72498],[-124.09627,41.72495],[-124.09627,41.72492],[-124.09626,41.72489],[-124.09623,41.72486],[-124.09619,41.72484],[-124.09612,41.72483],[-124.09588,41.72483],[-124.09559,41.7249],[-124.09546,41.72492],[-124.09525,41.72493],[-124.09481,41.72491],[-124.09427,41.72487],[-124.09419,41.72483],[-124.09412,41.7248],[-124.09409,41.72475],[-124.09408,41.72467],[-124.09414,41.72433],[-124.09423,41.72413],[-124.09436,41.72395],[-124.09454,41.72376],[-124.09458,41.72369],[-124.09459,41.72364],[-124.09459,41.72359],[-124.09458,41.72354],[-124.09452,41.72349],[-124.09448,41.72347],[-124.09437,41.72348],[-124.09423,41.72351],[-124.09404,41.72358],[-124.0939,41.72362],[-124.09351,41.72366],[-124.09343,41.72368],[-124.09334,41.72373],[-124.0931,41.72386],[-124.09291,41.72395],[-124.09269,41.72407],[-124.09246,41.72427],[-124.09233,41.72434],[-124.09228,41.72435],[-124.09217,41.72436],[-124.09205,41.72433],[-124.0918,41.72426],[-124.09169,41.72424],[-124.0916,41.72424],[-124.0915,41.72426],[-124.09143,41.7243],[-124.09137,41.72435],[-124.09126,41.72445],[-124.09118,41.72451],[-124.09108,41.72454],[-124.09094,41.72453],[-124.09027,41.7244],[-124.09006,41.72438],[-124.08995,41.72435],[-124.08973,41.72428],[-124.08966,41.72424],[-124.08952,41.72413],[-124.08943,41.724],[-124.08937,41.72378],[-124.08931,41.72366],[-124.08922,41.72356],[-124.089,41.72339],[-124.08892,41.72331],[-124.08885,41.72322],[-124.08882,41.72316],[-124.08881,41.72311],[-124.08882,41.72305],[-124.08885,41.72297],[-124.0889,41.72289],[-124.08895,41.72283],[-124.08903,41.7227],[-124.08907,41.72247],[-124.08905,41.72238],[-124.08903,41.72234],[-124.08896,41.72225],[-124.08888,41.72219],[-124.08876,41.72212],[-124.08849,41.72201],[-124.08844,41.72193],[-124.08843,41.72186],[-124.08847,41.72182],[-124.08853,41.72181],[-124.0886,41.72181],[-124.08871,41.72183],[-124.08904,41.72194],[-124.08928,41.722],[-124.08972,41.72206],[-124.08982,41.72208],[-124.09009,41.72217],[-124.09027,41.72219],[-124.09039,41.7222],[-124.09092,41.7222],[-124.09123,41.72217],[-124.0913,41.72215],[-124.09144,41.72208],[-124.09153,41.72202],[-124.0916,41.72196],[-124.0917,41.72183],[-124.09172,41.72177],[-124.09173,41.72164],[-124.09169,41.72148],[-124.09168,41.72133],[-124.09171,41.72116],[-124.09176,41.72095],[-124.09176,41.72085],[-124.09181,41.72048],[-124.09184,41.72011],[-124.09183,41.72004],[-124.09176,41.71991],[-124.09163,41.71974],[-124.09155,41.71956],[-124.09152,41.71942],[-124.09152,41.71918],[-124.09147,41.71905],[-124.09141,41.71892],[-124.09129,41.71862],[-124.0913,41.71853],[-124.09132,41.71848],[-124.09137,41.71845],[-124.09172,41.71829],[-124.09176,41.71825],[-124.09178,41.71817],[-124.09177,41.71806],[-124.09172,41.71789],[-124.09168,41.71754],[-124.09174,41.71743],[-124.09177,41.7174],[-124.09181,41.71737],[-124.09187,41.71736],[-124.09193,41.71736],[-124.09201,41.71739],[-124.09207,41.7174],[-124.09223,41.71747],[-124.09232,41.7175],[-124.09265,41.71753],[-124.09286,41.71754],[-124.09317,41.71754],[-124.09336,41.71753],[-124.09343,41.71753],[-124.0935,41.71755],[-124.09355,41.71759],[-124.09363,41.71772],[-124.09365,41.71778],[-124.09368,41.71796],[-124.09368,41.71807],[-124.09372,41.71834],[-124.09376,41.71844],[-124.09381,41.71852],[-124.094,41.71873],[-124.09407,41.71878],[-124.09419,41.71883],[-124.09444,41.71887],[-124.0945,41.71889],[-124.0946,41.71896],[-124.09464,41.71901],[-124.09473,41.71926],[-124.09479,41.71931],[-124.09485,41.71935],[-124.09497,41.71939],[-124.09532,41.71941],[-124.09568,41.71941],[-124.09593,41.7194],[-124.09621,41.71936],[-124.09654,41.71929],[-124.09672,41.71928],[-124.09679,41.71928],[-124.0969,41.71932],[-124.09695,41.71934],[-124.09707,41.71948],[-124.09714,41.71953],[-124.09721,41.71955],[-124.09747,41.71959],[-124.09768,41.7196],[-124.09784,41.71963],[-124.09795,41.71966],[-124.09806,41.7197],[-124.09852,41.71997],[-124.09873,41.72011],[-124.09907,41.72039],[-124.09913,41.72043],[-124.0992,41.72046],[-124.09927,41.72047],[-124.09935,41.72046],[-124.09945,41.72044],[-124.09953,41.72041],[-124.0996,41.72035],[-124.09972,41.72023],[-124.09982,41.72013],[-124.09988,41.72011],[-124.09995,41.72011],[-124.10008,41.72013],[-124.1004,41.72022],[-124.10068,41.72028],[-124.10099,41.72028],[-124.1013,41.72026],[-124.10152,41.72024],[-124.10165,41.72025],[-124.10197,41.72038],[-124.10208,41.7204],[-124.10216,41.72039],[-124.10222,41.72035],[-124.10225,41.72029],[-124.10224,41.72022],[-124.1022,41.72017],[-124.10199,41.71996],[-124.10189,41.7199],[-124.1018,41.71984],[-124.10171,41.7198],[-124.1016,41.71974],[-124.10152,41.71966],[-124.10144,41.71956],[-124.10134,41.71932],[-124.10128,41.71916],[-124.10129,41.71908],[-124.10134,41.71902],[-124.10141,41.71898],[-124.1015,41.71897],[-124.10157,41.71898],[-124.10173,41.71904],[-124.102,41.71922],[-124.10218,41.71932],[-124.1024,41.71942],[-124.10269,41.71956],[-124.10298,41.71966]]}},{"type":"Feature","properties":{"name":"(unnamed public road)","road_class":"track","source":"OpenStreetMap","source_detail":"osm way 10249953","source_tile":"159/381","surface_inferred":true},"geometry":{"type":"LineString","coordinates":[[-124.09444,41.64514],[-124.09461,41.6452],[-124.09476,41.64518],[-124.09493,41.64514],[-124.09508,41.64508],[-124.09533,41.64496],[-124.09587,41.64478],[-124.09691,41.64438],[-124.09719,41.64425],[-124.09732,41.64416],[-124.09748,41.64404],[-124.09762,41.64397],[-124.09779,41.64389],[-124.09804,41.64379],[-124.09819,41.64375],[-124.09829,41.64373],[-124.09853,41.64372],[-124.09874,41.64369],[-124.09896,41.6436],[-124.09906,41.64352],[-124.09922,41.64344],[-124.09934,41.6434],[-124.09966,41.6433],[-124.09981,41.64322],[-124.09995,41.64308],[-124.09999,41.64301],[-124.1,41.64291],[-124.1,41.6428],[-124.10001,41.64271],[-124.10003,41.64265],[-124.10006,41.6426],[-124.10011,41.64255],[-124.10023,41.6425],[-124.1005,41.64238],[-124.10072,41.64219],[-124.10084,41.64212],[-124.10102,41.64208],[-124.1012,41.64205],[-124.10136,41.64204],[-124.1015,41.64206],[-124.10164,41.64215],[-124.10168,41.64226],[-124.10173,41.64236],[-124.10176,41.64244],[-124.10178,41.64254],[-124.10179,41.64268],[-124.10171,41.6428],[-124.1016,41.6429],[-124.10112,41.64318],[-124.10107,41.64322],[-124.10096,41.64339],[-124.1009,41.64356],[-124.10092,41.64371],[-124.10099,41.64386],[-124.10134,41.64437],[-124.10148,41.64462],[-124.10154,41.64475],[-124.10166,41.64534],[-124.10166,41.64543],[-124.10163,41.64547],[-124.10151,41.64557],[-124.10146,41.64562],[-124.10139,41.64568],[-124.10127,41.64581],[-124.10108,41.64609],[-124.10098,41.64627],[-124.10094,41.64647],[-124.10093,41.64683],[-124.10088,41.64694],[-124.10085,41.64703],[-124.10076,41.64712],[-124.10064,41.64721],[-124.10047,41.64729],[-124.1003,41.64734],[-124.10019,41.64738],[-124.10007,41.64743],[-124.09997,41.64747],[-124.0999,41.64754],[-124.09987,41.64767],[-124.09989,41.6478],[-124.09985,41.64811],[-124.09983,41.64827],[-124.09979,41.64834],[-124.0997,41.64841],[-124.09957,41.64851],[-124.09924,41.6487],[-124.09916,41.64876],[-124.0991,41.64882],[-124.09892,41.64909],[-124.09886,41.64915],[-124.09878,41.6492],[-124.09861,41.64927],[-124.09846,41.6493],[-124.09809,41.64936],[-124.09778,41.64943],[-124.09771,41.64946],[-124.09767,41.64949],[-124.09762,41.64956],[-124.09754,41.64964]]}},{"type":"Feature","properties":{"name":"(unnamed public road)","road_class":"track","source":"OpenStreetMap","source_detail":"osm way 10250061","source_tile":"159/381","surface_inferred":true},"geometry":{"type":"LineString","coordinates":[[-124.10752,41.70939],[-124.10729,41.70931],[-124.10711,41.70928],[-124.10683,41.70923],[-124.10581,41.70911],[-124.10567,41.7091],[-124.10554,41.70912],[-124.10544,41.70912],[-124.10538,41.70911],[-124.1053,41.70908],[-124.10511,41.70897],[-124.10469,41.70878],[-124.10455,41.70868],[-124.10448,41.70862],[-124.10437,41.70842],[-124.10432,41.70838],[-124.10402,41.70819],[-124.10395,41.70812],[-124.10356,41.70775],[-124.1035,41.70768],[-124.10348,41.70764],[-124.10347,41.70761],[-124.10343,41.70748],[-124.10334,41.70738],[-124.10306,41.70718],[-124.10299,41.7071],[-124.10294,41.70701],[-124.1029,41.70691],[-124.10289,41.7068],[-124.10293,41.70667],[-124.10303,41.70627],[-124.10314,41.70605],[-124.10323,41.70587],[-124.10331,41.70568],[-124.1034,41.70545],[-124.10342,41.7052],[-124.10339,41.70497],[-124.10335,41.70483],[-124.10325,41.70464],[-124.10303,41.70435],[-124.10273,41.70414],[-124.10254,41.704],[-124.10244,41.7039],[-124.10226,41.70374],[-124.10203,41.70366],[-124.10188,41.70361],[-124.10174,41.70358],[-124.10154,41.70351],[-124.10132,41.70344],[-124.10108,41.7034],[-124.10088,41.70331],[-124.10049,41.70321],[-124.10024,41.70316],[-124.10004,41.70313],[-124.09983,41.7031],[-124.09946,41.70292]]}},{"type":"Feature","properties":{"name":"(unnamed public road)","road_class":"track","source":"OpenStreetMap","source_detail":"osm way 10250133","source_tile":"158/381","surface_inferred":true},"geometry":{"type":"LineString","coordinates":[[-124.11426,41.72571],[-124.11405,41.72562],[-124.11381,41.72546],[-124.11349,41.72514],[-124.11335,41.72502],[-124.1132,41.72496],[-124.11308,41.72496],[-124.11302,41.72501],[-124.11299,41.72512],[-124.11307,41.72546],[-124.11309,41.72564],[-124.11307,41.72589],[-124.11307,41.72627],[-124.11313,41.72677],[-124.11311,41.727],[-124.11303,41.7271],[-124.11286,41.72728],[-124.11259,41.72752],[-124.11245,41.72767],[-124.11234,41.72783],[-124.11225,41.72801],[-124.11219,41.72819],[-124.11215,41.72841],[-124.11213,41.7287],[-124.11215,41.72883],[-124.11219,41.72895],[-124.11222,41.72899],[-124.11231,41.72906],[-124.11247,41.72915],[-124.11251,41.72919],[-124.11253,41.72928],[-124.11251,41.72932],[-124.11247,41.72934],[-124.11236,41.72935],[-124.11225,41.72933],[-124.11217,41.72928],[-124.11206,41.72923],[-124.11194,41.72921],[-124.11182,41.7292],[-124.11145,41.72922],[-124.11108,41.72921],[-124.11097,41.72918],[-124.11089,41.72912],[-124.11082,41.72905],[-124.11072,41.72887],[-124.11066,41.72872],[-124.1106,41.72839],[-124.11047,41.7279],[-124.1104,41.72774],[-124.11032,41.72759],[-124.11011,41.72739],[-124.1099,41.72711],[-124.10983,41.72706],[-124.10974,41.72702],[-124.10963,41.727],[-124.10949,41.727],[-124.10941,41.72703],[-124.10934,41.72707],[-124.1093,41.72714],[-124.10924,41.72801],[-124.10926,41.72817],[-124.10934,41.72831],[-124.10949,41.72855],[-124.10947,41.72862],[-124.10948,41.72873]]}},{"type":"Feature","properties":{"name":"(unnamed public road)","road_class":"track","source":"OpenStreetMap","source_detail":"osm way 10250177","source_tile":"159/381","surface_inferred":true},"geometry":{"type":"LineString","coordinates":[[-124.09892,41.65977],[-124.09904,41.65939],[-124.09914,41.65893],[-124.09914,41.65885],[-124.09912,41.65875],[-124.0991,41.65857],[-124.09911,41.6585],[-124.09919,41.6584],[-124.09925,41.65836],[-124.09948,41.65825],[-124.09962,41.65816],[-124.09992,41.65794],[-124.10015,41.65772],[-124.10024,41.65764],[-124.10039,41.65753],[-124.10046,41.65742],[-124.10055,41.65722],[-124.10067,41.65706],[-124.10084,41.65691],[-124.10094,41.65681],[-124.10099,41.65673],[-124.10102,41.65666],[-124.10103,41.6566],[-124.101,41.65636],[-124.10101,41.65631],[-124.10107,41.65618],[-124.10134,41.65582],[-124.10137,41.65575],[-124.10139,41.65567],[-124.10138,41.65561],[-124.10133,41.65551],[-124.10129,41.65547],[-124.10094,41.6553],[-124.1001,41.65491],[-124.09989,41.65483],[-124.09969,41.65479],[-124.099,41.65461],[-124.09882,41.65458],[-124.09847,41.65463],[-124.09831,41.65461],[-124.09815,41.65456],[-124.09804,41.6545],[-124.09788,41.65436],[-124.09753,41.65407],[-124.09734,41.65394],[-124.0973,41.6539],[-124.09727,41.65384],[-124.09726,41.65378],[-124.09726,41.6537],[-124.09728,41.65364],[-124.09732,41.65357],[-124.09759,41.65325],[-124.09788,41.65303],[-124.09793,41.65296],[-124.09798,41.65285],[-124.09806,41.65254],[-124.0981,41.65248],[-124.09818,41.65244],[-124.09826,41.65242],[-124.09867,41.65243],[-124.0988,41.65242],[-124.09911,41.65236],[-124.09933,41.65229],[-124.09941,41.65225],[-124.09947,41.65221],[-124.09951,41.65215],[-124.09968,41.65184],[-124.09983,41.6516],[-124.09999,41.65144],[-124.10017,41.65129],[-124.1003,41.65113],[-124.10058,41.65073],[-124.10086,41.65038],[-124.10098,41.65029],[-124.10111,41.6502],[-124.10134,41.65011],[-124.10147,41.65008],[-124.10165,41.65006],[-124.10179,41.65005],[-124.10221,41.65009],[-124.1023,41.65008],[-124.10236,41.65007],[-124.10242,41.65004],[-124.10245,41.65],[-124.10246,41.64997],[-124.10246,41.64992],[-124.10244,41.64987],[-124.10239,41.64981],[-124.10231,41.64974],[-124.10214,41.64962],[-124.10194,41.64949],[-124.10183,41.64944],[-124.10174,41.64942],[-124.10139,41.6494],[-124.10117,41.64937],[-124.10108,41.64933],[-124.101,41.64928],[-124.10092,41.64919],[-124.10085,41.64911],[-124.10079,41.64905],[-124.10071,41.64902],[-124.1006,41.649],[-124.10048,41.64899],[-124.10035,41.64901],[-124.10024,41.64903],[-124.09995,41.64915],[-124.09936,41.64934],[-124.0989,41.64951],[-124.0988,41.64953],[-124.09861,41.64956],[-124.09808,41.64955],[-124.09778,41.64959],[-124.09754,41.64964],[-124.09727,41.64983],[-124.09708,41.64999],[-124.09689,41.65015],[-124.09682,41.6502],[-124.09675,41.65023],[-124.09664,41.65026],[-124.09651,41.65028],[-124.09636,41.6503],[-124.09587,41.6503],[-124.09567,41.65028],[-124.09543,41.65028],[-124.09516,41.65034],[-124.09499,41.6504],[-124.09466,41.65055],[-124.09435,41.6507],[-124.094,41.65089],[-124.09382,41.651],[-124.09363,41.65118],[-124.09351,41.65135],[-124.09343,41.65147],[-124.09332,41.65162],[-124.09326,41.6517],[-124.09324,41.65177]]}},{"type":"Feature","properties":{"name":"(unnamed public road)","road_class":"track","source":"OpenStreetMap","source_detail":"osm way 10250191","source_tile":"158/381","surface_inferred":true},"geometry":{"type":"LineString","coordinates":[[-124.10772,41.71044],[-124.10755,41.71037],[-124.1075,41.71036],[-124.10734,41.71016],[-124.1073,41.70996],[-124.1073,41.70993],[-124.1073,41.70971],[-124.10732,41.70952],[-124.1074,41.70941],[-124.10752,41.70939],[-124.10771,41.70947],[-124.10779,41.70952],[-124.10786,41.70958],[-124.10824,41.70994],[-124.10852,41.71023],[-124.10921,41.7109],[-124.10948,41.71125],[-124.10983,41.71177],[-124.10996,41.71202],[-124.11013,41.7124],[-124.11016,41.71248],[-124.11016,41.71258],[-124.11015,41.71268],[-124.11013,41.71275],[-124.11008,41.71284],[-124.10986,41.71303],[-124.10977,41.7131],[-124.10961,41.71319],[-124.10952,41.7133],[-124.10947,41.7134],[-124.1094,41.71357],[-124.10925,41.71399],[-124.10916,41.71422],[-124.10912,41.71444],[-124.10906,41.71483],[-124.10906,41.71539],[-124.10923,41.7165],[-124.10923,41.71659],[-124.10938,41.71748],[-124.10941,41.71771],[-124.10947,41.71799],[-124.1095,41.71806],[-124.10961,41.7182],[-124.10989,41.71849],[-124.10996,41.71859],[-124.11001,41.7187],[-124.11006,41.71889],[-124.11025,41.71912],[-124.11029,41.7192],[-124.1103,41.71927],[-124.1103,41.71944],[-124.11028,41.71956],[-124.11023,41.71974],[-124.1101,41.72044],[-124.1101,41.7206],[-124.11014,41.72104],[-124.11012,41.72118],[-124.11007,41.72139],[-124.11006,41.72146],[-124.11006,41.72161],[-124.11012,41.72212],[-124.11012,41.72241],[-124.11016,41.72263],[-124.11035,41.72316],[-124.11038,41.72331],[-124.11038,41.72335],[-124.11042,41.72373],[-124.11041,41.72385],[-124.11033,41.72414],[-124.11028,41.72445],[-124.11021,41.72462],[-124.10998,41.72503],[-124.10977,41.72533],[-124.10971,41.72544],[-124.10969,41.72551],[-124.10967,41.72561],[-124.10967,41.72573],[-124.10968,41.72587],[-124.10968,41.72603],[-124.10967,41.72613],[-124.10964,41.72622],[-124.10954,41.7264],[-124.10946,41.7265],[-124.10939,41.72664],[-124.10934,41.72682],[-124.1093,41.72714]]}},{"type":"Feature","properties":{"name":"(unnamed public road)","road_class":"track","source":"OpenStreetMap","source_detail":"osm way 10250279","source_tile":"158/381","surface_inferred":true},"geometry":{"type":"LineString","coordinates":[[-124.15285,41.73104],[-124.15239,41.73114],[-124.15203,41.73123],[-124.15121,41.73144]]}},{"type":"Feature","properties":{"name":"(unnamed public road)","road_class":"track","source":"OpenStreetMap","source_detail":"osm way 10250948","source_tile":"158/381","surface_inferred":true},"geometry":{"type":"LineString","coordinates":[[-124.11307,41.72627],[-124.11286,41.72607],[-124.11279,41.72597],[-124.11262,41.72562],[-124.11255,41.72552],[-124.11244,41.72543],[-124.11236,41.72534],[-124.1123,41.72517],[-124.11222,41.72507],[-124.11203,41.72498],[-124.11195,41.72492],[-124.11191,41.72485],[-124.11192,41.72472],[-124.11198,41.72461],[-124.11211,41.72448],[-124.11219,41.72443],[-124.11241,41.72436],[-124.11285,41.72426],[-124.11302,41.72426],[-124.11319,41.72432],[-124.11342,41.72444],[-124.1137,41.72457],[-124.11391,41.72465],[-124.11417,41.72468],[-124.11438,41.72464],[-124.11457,41.72456],[-124.11477,41.72441],[-124.11493,41.72411]]}},{"type":"Feature","properties":{"name":"(unnamed public road)","road_class":"track","source":"OpenStreetMap","source_detail":"osm way 10251394","source_tile":"159/381","surface_inferred":true},"geometry":{"type":"LineString","coordinates":[[-124.08925,41.61874],[-124.08928,41.61914],[-124.0893,41.61925],[-124.08934,41.61934],[-124.08943,41.61946],[-124.08953,41.61955],[-124.09004,41.61991],[-124.09049,41.62028],[-124.09056,41.62036],[-124.09065,41.62053],[-124.09066,41.62061],[-124.09066,41.62073],[-124.09061,41.62129],[-124.09062,41.62136],[-124.09065,41.62142],[-124.0907,41.62149],[-124.09078,41.62154],[-124.09133,41.62181],[-124.09154,41.62193],[-124.09168,41.62205],[-124.09173,41.62213],[-124.09185,41.62237],[-124.09195,41.62268],[-124.09201,41.62288],[-124.09211,41.62312],[-124.09219,41.62341],[-124.09228,41.62377],[-124.09231,41.62398],[-124.09234,41.62408],[-124.09238,41.62415],[-124.09243,41.6242],[-124.09253,41.62426],[-124.09264,41.62426],[-124.09286,41.62425],[-124.09301,41.62429],[-124.09324,41.62441],[-124.09361,41.6246],[-124.09386,41.62462],[-124.0941,41.62466],[-124.09429,41.62474],[-124.09443,41.62482],[-124.09465,41.62495],[-124.09481,41.62514],[-124.09499,41.62535],[-124.09508,41.62547],[-124.09535,41.62594],[-124.09539,41.626],[-124.0955,41.62611],[-124.09562,41.62633],[-124.09573,41.62643],[-124.0959,41.62652],[-124.09599,41.62658],[-124.09611,41.62669],[-124.09627,41.62684],[-124.09657,41.62715],[-124.09666,41.6274],[-124.09677,41.62758],[-124.09686,41.62765],[-124.09709,41.62777],[-124.09724,41.62783],[-124.09738,41.62787],[-124.09758,41.62793],[-124.09784,41.62799],[-124.09818,41.62803],[-124.09864,41.62812],[-124.09899,41.62813],[-124.09926,41.6282],[-124.09959,41.62837],[-124.09994,41.62848],[-124.10005,41.62853],[-124.10023,41.62862],[-124.10037,41.62862],[-124.10056,41.62858],[-124.10075,41.6285],[-124.101,41.62845],[-124.10142,41.62852],[-124.10176,41.62861],[-124.1021,41.6288],[-124.10228,41.62894],[-124.1023,41.62902],[-124.10225,41.62916],[-124.10215,41.6293],[-124.10206,41.62943],[-124.10198,41.62955],[-124.10194,41.62966],[-124.10191,41.62982],[-124.10192,41.62992],[-124.10199,41.63002],[-124.1021,41.63012],[-124.10223,41.63015],[-124.10241,41.63019],[-124.10254,41.63018],[-124.10269,41.63016],[-124.10289,41.6301],[-124.10312,41.62999],[-124.10336,41.62992],[-124.10345,41.62991],[-124.10353,41.62993],[-124.10359,41.62998],[-124.10367,41.63011],[-124.10369,41.6302],[-124.10369,41.6303],[-124.1037,41.6304],[-124.10366,41.63053],[-124.10359,41.63076],[-124.1035,41.63093],[-124.10345,41.6312],[-124.10339,41.63166],[-124.10331,41.63187],[-124.10332,41.63214],[-124.1034,41.63234],[-124.10341,41.63261],[-124.10331,41.63279],[-124.10318,41.6331],[-124.10313,41.63326],[-124.10303,41.63348],[-124.10288,41.63361],[-124.10257,41.63379],[-124.10249,41.63385],[-124.10242,41.63395],[-124.10242,41.63411],[-124.10252,41.63426],[-124.10264,41.63434],[-124.10276,41.63442],[-124.10291,41.63454],[-124.10312,41.63472],[-124.10331,41.63494],[-124.10345,41.63511],[-124.10356,41.63524],[-124.10362,41.63532],[-124.10369,41.63537],[-124.10388,41.63534],[-124.10402,41.63529],[-124.10423,41.63521],[-124.10444,41.63513],[-124.1046,41.63501],[-124.10484,41.63482],[-124.10495,41.63462]]}},{"type":"Feature","properties":{"name":"(unnamed public road)","road_class":"track","source":"OpenStreetMap","source_detail":"osm way 10251442","source_tile":"158/381","surface_inferred":true},"geometry":{"type":"LineString","coordinates":[[-124.10932,41.72965],[-124.10906,41.72972],[-124.10885,41.72984]]}},{"type":"Feature","properties":{"name":"(unnamed public road)","road_class":"track","source":"OpenStreetMap","source_detail":"osm way 10251472","source_tile":"158/381","surface_inferred":true},"geometry":{"type":"LineString","coordinates":[[-124.10452,41.72972],[-124.10436,41.72977]]}},{"type":"Feature","properties":{"name":"(unnamed public road)","road_class":"track","source":"OpenStreetMap","source_detail":"osm way 10251692","source_tile":"158/381","surface_inferred":true},"geometry":{"type":"LineString","coordinates":[[-124.11381,41.68244],[-124.11435,41.68222],[-124.115,41.6821],[-124.11562,41.68211],[-124.11582,41.68205],[-124.11611,41.68198],[-124.11648,41.6821],[-124.11703,41.68256],[-124.11746,41.68247],[-124.1177,41.68211],[-124.11804,41.68193],[-124.12115,41.68172],[-124.12155,41.68124],[-124.12192,41.68038],[-124.12213,41.6793],[-124.12262,41.67884],[-124.12308,41.67871],[-124.12347,41.67878],[-124.12366,41.6789],[-124.12366,41.67933],[-124.12344,41.67982],[-124.12347,41.6803],[-124.12363,41.68037],[-124.12363,41.68127],[-124.12381,41.68174],[-124.12375,41.68208],[-124.12318,41.6825],[-124.12297,41.68321],[-124.12272,41.6834],[-124.1215,41.68391],[-124.12138,41.68412],[-124.12141,41.68447],[-124.12174,41.6844],[-124.12202,41.68422],[-124.12272,41.68427],[-124.123,41.6842],[-124.12364,41.68382],[-124.12403,41.68387],[-124.12458,41.68408],[-124.12529,41.68408],[-124.12559,41.68415],[-124.12559,41.68434],[-124.12526,41.68445],[-124.12401,41.6846],[-124.12346,41.68504],[-124.12361,41.68527],[-124.12468,41.68526],[-124.12541,41.6854],[-124.12621,41.68535],[-124.12655,41.68533],[-124.12666,41.68532],[-124.12669,41.68529]]}},{"type":"Feature","properties":{"name":"Dakota Avenue","road_class":"track","source":"OpenStreetMap","source_detail":"osm way 10253153","source_tile":"158/381","surface_inferred":true},"geometry":{"type":"LineString","coordinates":[[-124.17845,41.75362],[-124.17843,41.75408],[-124.17842,41.75456],[-124.17841,41.75544],[-124.17839,41.75631],[-124.1784,41.75651]]}},{"type":"Feature","properties":{"name":"(unnamed public road)","road_class":"track","source":"OpenStreetMap","source_detail":"osm way 10253474","source_tile":"158/381","surface_inferred":true},"geometry":{"type":"LineString","coordinates":[[-124.14382,41.76876],[-124.1443,41.7689],[-124.14437,41.76873],[-124.1444,41.76848],[-124.14438,41.76819],[-124.14421,41.76791],[-124.14409,41.76779],[-124.14402,41.76768],[-124.14406,41.76754],[-124.14413,41.76737],[-124.14416,41.76722],[-124.14406,41.76698],[-124.14388,41.76685],[-124.14374,41.76682],[-124.14357,41.76683],[-124.14328,41.7669],[-124.14303,41.76704],[-124.14281,41.76729],[-124.14273,41.76763],[-124.14265,41.76805],[-124.14281,41.76827],[-124.14316,41.7685],[-124.14382,41.76876]]}},{"type":"Feature","properties":{"name":"(unnamed public road)","road_class":"track","source":"OpenStreetMap","source_detail":"osm way 10253475","source_tile":"158/381","surface_inferred":true},"geometry":{"type":"LineString","coordinates":[[-124.14661,41.76885],[-124.14594,41.76884],[-124.14556,41.76883],[-124.14529,41.76888],[-124.14502,41.76898],[-124.14484,41.76904],[-124.14458,41.76902],[-124.1443,41.7689]]}},{"type":"Feature","properties":{"name":"Union Street","road_class":"track","source":"OpenStreetMap","source_detail":"osm way 10253594","source_tile":"158/381","surface_inferred":true},"geometry":{"type":"LineString","coordinates":[[-124.17101,41.75795],[-124.171,41.75784],[-124.17095,41.7578],[-124.17081,41.75778],[-124.17064,41.75777],[-124.17047,41.75778],[-124.17033,41.7578],[-124.17021,41.75783],[-124.17001,41.75786],[-124.16972,41.75791],[-124.16919,41.75798],[-124.16845,41.7581],[-124.16794,41.75819],[-124.16778,41.75819],[-124.16768,41.75817]]}},{"type":"Feature","properties":{"name":"Union Street","road_class":"track","source":"OpenStreetMap","source_detail":"osm way 10253598","source_tile":"158/381","surface_inferred":true},"geometry":{"type":"LineString","coordinates":[[-124.16794,41.75819],[-124.16805,41.75806],[-124.16832,41.75799],[-124.16859,41.75796],[-124.16912,41.75784],[-124.16979,41.75772],[-124.171,41.75753],[-124.174,41.75703],[-124.17449,41.75695],[-124.1746,41.7569],[-124.17466,41.75681],[-124.17469,41.75672],[-124.17467,41.75662],[-124.17471,41.75637],[-124.17469,41.75622]]}},{"type":"Feature","properties":{"name":"Congress Street","road_class":"track","source":"OpenStreetMap","source_detail":"osm way 10253631","source_tile":"158/381","surface_inferred":true},"geometry":{"type":"LineString","coordinates":[[-124.17941,41.75542],[-124.17926,41.75545],[-124.17913,41.75552],[-124.179,41.75554],[-124.17883,41.75549],[-124.17862,41.75547],[-124.17841,41.75544],[-124.17826,41.75545],[-124.17804,41.75549],[-124.1773,41.75556],[-124.17693,41.75559],[-124.17623,41.75559]]}},{"type":"Feature","properties":{"name":"National Boulevard","road_class":"track","source":"OpenStreetMap","source_detail":"osm way 10254140","source_tile":"158/381","surface_inferred":true},"geometry":{"type":"LineString","coordinates":[[-124.17471,41.75567],[-124.17539,41.75564]]}},{"type":"Feature","properties":{"name":"(unnamed public road)","road_class":"track","surface":"gravel","tracktype":"grade2","access":"yes","source":"OpenStreetMap","source_detail":"osm way 37317050","source_tile":"158/381"},"geometry":{"type":"LineString","coordinates":[[-124.14778,41.75669],[-124.14721,41.75693],[-124.14661,41.75717],[-124.14623,41.75718],[-124.14576,41.75718]]}},{"type":"Feature","properties":{"name":"(unnamed public road)","road_class":"track","source":"OpenStreetMap","source_detail":"osm way 220388700","source_tile":"158/381","surface_inferred":true},"geometry":{"type":"LineString","coordinates":[[-124.15168,41.73221],[-124.15186,41.73208],[-124.1522,41.73184],[-124.15244,41.73163],[-124.15259,41.73151],[-124.15272,41.73144],[-124.15292,41.73141],[-124.15309,41.73142],[-124.15323,41.7314],[-124.15332,41.73136],[-124.1534,41.73127],[-124.15344,41.73118],[-124.15348,41.73108],[-124.15355,41.731],[-124.15365,41.73096],[-124.15392,41.73085],[-124.15413,41.73079],[-124.15444,41.73074],[-124.1548,41.73066],[-124.15519,41.73056]]}},{"type":"Feature","properties":{"name":"Howland Hill Road","road_class":"unclassified","surface":"gravel","source":"OpenStreetMap","source_detail":"osm way 427546038","source_tile":"158/381"},"geometry":{"type":"LineString","coordinates":[[-124.11177,41.7667],[-124.11188,41.76655],[-124.11207,41.76642],[-124.11226,41.76633],[-124.11241,41.76628],[-124.11263,41.76631],[-124.11291,41.7663],[-124.1131,41.76626],[-124.11355,41.76635],[-124.11386,41.76639],[-124.11414,41.76642],[-124.11438,41.76642],[-124.11471,41.76641],[-124.11501,41.76645],[-124.11528,41.76647],[-124.11541,41.76645],[-124.11562,41.76639],[-124.11598,41.76631],[-124.1163,41.7663],[-124.11679,41.76641],[-124.11695,41.76643],[-124.11717,41.76642],[-124.11779,41.76632],[-124.11806,41.76633],[-124.11818,41.76632],[-124.11849,41.76621],[-124.11955,41.76594],[-124.12005,41.76581],[-124.12029,41.76571],[-124.12051,41.76567],[-124.12089,41.76565],[-124.12121,41.76558],[-124.12175,41.76539],[-124.12225,41.76524],[-124.12249,41.76522],[-124.1227,41.7652],[-124.1235,41.76495],[-124.12377,41.76482],[-124.12393,41.76477],[-124.12454,41.76475],[-124.12487,41.76469],[-124.12535,41.76455],[-124.12559,41.76452],[-124.126,41.76454],[-124.12647,41.76463],[-124.12678,41.76467],[-124.12739,41.76468],[-124.12768,41.76471],[-124.12808,41.76483],[-124.1283,41.76484],[-124.12867,41.76482],[-124.12888,41.76482],[-124.12899,41.76487],[-124.12907,41.76493],[-124.12921,41.76527],[-124.12928,41.76549],[-124.12937,41.76553],[-124.12946,41.76556],[-124.12956,41.76552],[-124.12966,41.76538],[-124.12969,41.76515],[-124.12986,41.76493],[-124.13005,41.76472],[-124.1301,41.76461],[-124.13009,41.76435],[-124.13014,41.76418],[-124.13022,41.76407],[-124.13042,41.76395],[-124.13071,41.76378],[-124.13099,41.76372],[-124.13166,41.76354],[-124.13191,41.7635],[-124.13225,41.76342],[-124.13249,41.76336],[-124.13287,41.76323],[-124.13305,41.76319],[-124.13326,41.7632],[-124.13342,41.76322],[-124.1336,41.76324],[-124.13385,41.76317],[-124.13409,41.76316],[-124.13421,41.76312],[-124.13464,41.76285],[-124.13481,41.76276],[-124.13497,41.76275],[-124.13553,41.76278],[-124.1357,41.76274],[-124.1359,41.76264],[-124.13602,41.76254],[-124.13611,41.76238],[-124.13617,41.76229],[-124.13631,41.7622],[-124.13668,41.76206],[-124.13701,41.762],[-124.13728,41.762],[-124.13771,41.7621],[-124.1378,41.7621],[-124.13787,41.76207],[-124.13802,41.76194],[-124.13819,41.76184],[-124.13854,41.76168],[-124.13892,41.7615],[-124.13915,41.76137],[-124.1393,41.76134],[-124.13944,41.76131],[-124.13961,41.76126],[-124.13979,41.76115],[-124.14005,41.761],[-124.14017,41.76093],[-124.14033,41.76086],[-124.14071,41.76076],[-124.14112,41.7606],[-124.14153,41.76042],[-124.14163,41.7604],[-124.14173,41.76038],[-124.14184,41.76037],[-124.14201,41.76037]]}},{"type":"Feature","properties":{"name":"(unnamed public road)","road_class":"track","source":"OpenStreetMap","source_detail":"osm way 454720652","source_tile":"158/381","surface_inferred":true},"geometry":{"type":"LineString","coordinates":[[-124.10932,41.72965],[-124.1094,41.72965],[-124.10947,41.72967],[-124.10953,41.72971],[-124.10954,41.72973],[-124.10956,41.72976],[-124.10957,41.72982],[-124.10955,41.72987],[-124.1095,41.72991],[-124.10944,41.72994],[-124.10944,41.72999]]}},{"type":"Feature","properties":{"name":"(unnamed public road)","road_class":"track","source":"OpenStreetMap","source_detail":"osm way 458369156","source_tile":"158/381","surface_inferred":true},"geometry":{"type":"LineString","coordinates":[[-124.10455,41.72983],[-124.10452,41.7298],[-124.10451,41.72978],[-124.10451,41.72975],[-124.10452,41.72972],[-124.10462,41.72968],[-124.10482,41.7296],[-124.10501,41.72949],[-124.10515,41.72938],[-124.10554,41.72879],[-124.1058,41.72846],[-124.10601,41.72819],[-124.10613,41.72806],[-124.10621,41.72799],[-124.10639,41.72787],[-124.10643,41.72783],[-124.10648,41.72773],[-124.10648,41.72762],[-124.10643,41.7275],[-124.10635,41.72742],[-124.10625,41.72733],[-124.10603,41.72711],[-124.1059,41.72693],[-124.10585,41.72679],[-124.10584,41.72674],[-124.10585,41.72669],[-124.10588,41.72661],[-124.10602,41.7264],[-124.10627,41.72611]]}},{"type":"Feature","properties":{"name":"(unnamed public road)","road_class":"track","source":"OpenStreetMap","source_detail":"osm way 621356120","source_tile":"158/381","surface_inferred":true},"geometry":{"type":"LineString","coordinates":[[-124.10658,41.61565],[-124.10643,41.6157],[-124.1062,41.61573],[-124.10617,41.61576],[-124.10614,41.6158],[-124.10613,41.61588],[-124.10613,41.61595],[-124.10579,41.61584],[-124.10555,41.61566],[-124.1054,41.6156],[-124.10522,41.61552]]}},{"type":"Feature","properties":{"name":"(unnamed public road)","road_class":"track","surface":"sand","tracktype":"grade5","source":"OpenStreetMap","source_detail":"osm way 963642269","source_tile":"158/381"},"geometry":{"type":"LineString","coordinates":[[-124.1755,41.74553],[-124.17555,41.74544],[-124.17568,41.74512],[-124.17572,41.74497]]}},{"type":"Feature","properties":{"name":"(unnamed public road)","road_class":"track","tracktype":"grade3","source":"OpenStreetMap","source_detail":"osm way 963712947","source_tile":"158/381","surface_inferred":true},"geometry":{"type":"LineString","coordinates":[[-124.18636,41.74947],[-124.18653,41.74952],[-124.18684,41.74967],[-124.18699,41.74975],[-124.18764,41.75],[-124.18792,41.75011],[-124.18802,41.75024],[-124.18807,41.75048],[-124.18806,41.75057],[-124.18795,41.75093],[-124.18785,41.75109],[-124.1878,41.75113],[-124.18769,41.75114],[-124.18746,41.75111],[-124.18729,41.75109],[-124.18686,41.75105],[-124.18671,41.75102]]}},{"type":"Feature","properties":{"name":"(unnamed public road)","road_class":"track","surface":"unpaved","source":"OpenStreetMap","source_detail":"osm way 974697436","source_tile":"158/381"},"geometry":{"type":"LineString","coordinates":[[-124.18831,41.75175],[-124.18832,41.75172],[-124.18836,41.75162],[-124.18845,41.75131],[-124.18844,41.75123],[-124.18835,41.75119],[-124.18816,41.75117],[-124.18809,41.7512],[-124.18802,41.75135],[-124.18796,41.75157],[-124.18796,41.75168],[-124.18797,41.75173]]}},{"type":"Feature","properties":{"name":"Michigan Avenue","road_class":"track","source":"OpenStreetMap","source_detail":"osm way 1117877976","source_tile":"158/381","surface_inferred":true},"geometry":{"type":"LineString","coordinates":[[-124.17471,41.75555],[-124.17471,41.75567],[-124.17468,41.75583],[-124.17469,41.75622]]}},{"type":"Feature","properties":{"name":"Nickel Avenue","road_class":"track","source":"OpenStreetMap","source_detail":"osm way 1203818607","source_tile":"158/381","surface_inferred":true},"geometry":{"type":"LineString","coordinates":[[-124.14751,41.74776],[-124.14807,41.74771]]}},{"type":"Feature","properties":{"name":"Howland Hill Road","road_class":"unclassified","surface":"gravel","source":"OpenStreetMap","source_detail":"osm way 1386019638","source_tile":"159/381"},"geometry":{"type":"LineString","coordinates":[[-124.10016,41.77404],[-124.10018,41.77399],[-124.10018,41.77394],[-124.10015,41.77386],[-124.10006,41.77374],[-124.0999,41.77358],[-124.09985,41.77348],[-124.0999,41.77329],[-124.09989,41.7732],[-124.09985,41.77313],[-124.09945,41.77278],[-124.09934,41.77263],[-124.09928,41.77255],[-124.09925,41.77247],[-124.0992,41.77232],[-124.09916,41.7721],[-124.09921,41.77189],[-124.09928,41.77172],[-124.09939,41.77157],[-124.09957,41.77124],[-124.09969,41.77108],[-124.09978,41.77091],[-124.09994,41.77074],[-124.10006,41.77046],[-124.10015,41.77037],[-124.10028,41.77028],[-124.10055,41.77022],[-124.10085,41.7702],[-124.10115,41.77023],[-124.10146,41.77023],[-124.10165,41.7702],[-124.1019,41.77019],[-124.1022,41.7702],[-124.10271,41.77018],[-124.10288,41.77012],[-124.10306,41.77013],[-124.10335,41.77017],[-124.10363,41.77025],[-124.10385,41.77036],[-124.10416,41.77048],[-124.10435,41.7705],[-124.10458,41.7705],[-124.10479,41.77046],[-124.10508,41.77038],[-124.10548,41.77027],[-124.10586,41.77019],[-124.10617,41.77006],[-124.10655,41.7699],[-124.10685,41.76981],[-124.10713,41.76971],[-124.10743,41.7696],[-124.10782,41.76941],[-124.10807,41.7693],[-124.10849,41.76924],[-124.10869,41.7692],[-124.10895,41.76909],[-124.10933,41.76893],[-124.11006,41.76867],[-124.11015,41.76862],[-124.11034,41.76849],[-124.11054,41.76837],[-124.11074,41.76825],[-124.11092,41.76814],[-124.11102,41.76802],[-124.11107,41.7678],[-124.11122,41.76739],[-124.11133,41.76709],[-124.11145,41.76691],[-124.11166,41.76684],[-124.11177,41.7667]]}},{"type":"Feature","properties":{"name":"(unnamed public road)","road_class":"track","source":"OpenStreetMap","source_detail":"osm way 1511186678","source_tile":"159/381","surface_inferred":true},"geometry":{"type":"LineString","coordinates":[[-124.0981,41.65248],[-124.09846,41.65256],[-124.09878,41.6527],[-124.09904,41.65278],[-124.09924,41.65282],[-124.09957,41.6529],[-124.09974,41.65292],[-124.09987,41.65288],[-124.10007,41.65275],[-124.10029,41.65264],[-124.1005,41.6526],[-124.10074,41.65261],[-124.101,41.65257],[-124.10142,41.65252],[-124.10154,41.65247],[-124.10163,41.65225],[-124.10182,41.65213],[-124.10225,41.65198],[-124.10232,41.65192],[-124.10236,41.65183],[-124.10244,41.65185],[-124.10275,41.65205],[-124.103,41.65213],[-124.10311,41.65217],[-124.10316,41.65223],[-124.10312,41.65233],[-124.10301,41.65237],[-124.10287,41.65235],[-124.10268,41.65226],[-124.10256,41.65228],[-124.1025,41.65234],[-124.10244,41.65246],[-124.10237,41.65272],[-124.1021,41.65301],[-124.10196,41.65316],[-124.10188,41.65325],[-124.10162,41.65327],[-124.10118,41.65333],[-124.10097,41.6533],[-124.10081,41.65329],[-124.10071,41.65342],[-124.10061,41.65368],[-124.10045,41.65376],[-124.10017,41.65372],[-124.09989,41.65372],[-124.09978,41.65378],[-124.0998,41.65385],[-124.1,41.65392],[-124.10017,41.654],[-124.1004,41.65413],[-124.10061,41.65417],[-124.10082,41.65415],[-124.10098,41.65406],[-124.10122,41.65392],[-124.10142,41.65386],[-124.1016,41.65391],[-124.10183,41.65405],[-124.10237,41.65431],[-124.10251,41.65449],[-124.10266,41.65461],[-124.10309,41.65491],[-124.10317,41.65507],[-124.10316,41.65526],[-124.10304,41.65546],[-124.1028,41.6555],[-124.10257,41.65556],[-124.1024,41.65564],[-124.10229,41.65574],[-124.10237,41.65592],[-124.10262,41.65609],[-124.10278,41.6563],[-124.10288,41.65642],[-124.10322,41.6566],[-124.10365,41.6568],[-124.10376,41.65692],[-124.10379,41.65706],[-124.10378,41.65737],[-124.10374,41.6575],[-124.10357,41.65756],[-124.10346,41.65754],[-124.10332,41.65741],[-124.1031,41.65716],[-124.10295,41.65709],[-124.10283,41.65712],[-124.10263,41.6572],[-124.10198,41.6574],[-124.10168,41.6574],[-124.10155,41.65754],[-124.10119,41.65805],[-124.10093,41.65832],[-124.10054,41.65856]]}},{"type":"Feature","properties":{"name":"(unnamed public road)","road_class":"track","source":"OpenStreetMap","source_detail":"osm way 1511186713","source_tile":"158/381","surface_inferred":true},"geometry":{"type":"LineString","coordinates":[[-124.10197,41.63424],[-124.10234,41.63428],[-124.10253,41.63431],[-124.10264,41.63434]]}},{"type":"Feature","properties":{"name":"(unnamed public road)","road_class":"track","source":"OpenStreetMap","source_detail":"osm way 1511186714","source_tile":"159/381","surface_inferred":true},"geometry":{"type":"LineString","coordinates":[[-124.10242,41.63395],[-124.10228,41.63408],[-124.10213,41.63418],[-124.10197,41.63424],[-124.10182,41.63426],[-124.10146,41.63428],[-124.10118,41.63433],[-124.10093,41.6344],[-124.10059,41.6345],[-124.1002,41.63466],[-124.09988,41.63474],[-124.09971,41.63474],[-124.09952,41.6347],[-124.09927,41.63455],[-124.0987,41.63414],[-124.09839,41.634],[-124.09816,41.63394],[-124.09784,41.6339],[-124.09728,41.63386],[-124.09682,41.6338],[-124.09658,41.63371],[-124.09632,41.63354],[-124.09612,41.63347],[-124.0958,41.6334],[-124.09551,41.63331],[-124.09521,41.63319],[-124.09501,41.63317],[-124.09448,41.63316],[-124.0942,41.63312],[-124.09382,41.63304],[-124.09358,41.63301],[-124.09329,41.633],[-124.09291,41.63301],[-124.09251,41.63306],[-124.09235,41.63311],[-124.09223,41.63317],[-124.09213,41.63328],[-124.092,41.6335],[-124.09191,41.63356],[-124.0918,41.63356],[-124.09169,41.63353],[-124.0915,41.63341],[-124.09144,41.63332],[-124.09132,41.63314],[-124.0911,41.63289],[-124.09094,41.63259],[-124.09075,41.63242],[-124.0905,41.63232],[-124.09,41.6321],[-124.08966,41.63188],[-124.08958,41.63175],[-124.08946,41.63151],[-124.08928,41.63117],[-124.08903,41.63079],[-124.08891,41.63067],[-124.08884,41.6305],[-124.08886,41.63038],[-124.08895,41.63002],[-124.08896,41.62972],[-124.08893,41.62939],[-124.08882,41.6292],[-124.08847,41.6289],[-124.08825,41.6286],[-124.0882,41.62841],[-124.08815,41.62811],[-124.08799,41.62788],[-124.0877,41.62765],[-124.08743,41.6275],[-124.0873,41.62744]]}},{"type":"Feature","properties":{"name":"(unnamed public road)","road_class":"track","source":"OpenStreetMap","source_detail":"osm way 1511186716","source_tile":"159/381","surface_inferred":true},"geometry":{"type":"LineString","coordinates":[[-124.10369,41.63537],[-124.10383,41.6362],[-124.1039,41.6367],[-124.10405,41.63706],[-124.10435,41.63745],[-124.10457,41.63765],[-124.10467,41.63775],[-124.10462,41.63787],[-124.10451,41.63794],[-124.10421,41.63801],[-124.10403,41.6381],[-124.10389,41.63818],[-124.10381,41.63823],[-124.10373,41.63828],[-124.10359,41.63831],[-124.1034,41.63827],[-124.10323,41.63824],[-124.10295,41.63817],[-124.10271,41.63809],[-124.10237,41.63805],[-124.10207,41.638],[-124.10132,41.63783],[-124.10119,41.63774],[-124.10111,41.63756],[-124.10104,41.63742],[-124.10099,41.63725],[-124.10093,41.6372],[-124.1008,41.63715],[-124.10065,41.63715],[-124.10052,41.63718],[-124.10038,41.63727],[-124.10021,41.63738],[-124.10005,41.63742],[-124.09987,41.63735],[-124.0997,41.63728],[-124.09956,41.63727],[-124.0994,41.63728],[-124.09935,41.63736],[-124.09935,41.63747],[-124.09947,41.63764],[-124.09965,41.6379],[-124.09971,41.63808],[-124.09974,41.63824],[-124.09973,41.63839],[-124.09969,41.6386],[-124.09965,41.63888],[-124.09961,41.63907],[-124.09952,41.63928],[-124.09947,41.63944],[-124.09946,41.63963],[-124.09962,41.63991],[-124.09966,41.64004],[-124.09965,41.6401],[-124.09958,41.64023],[-124.09951,41.64029],[-124.09944,41.64037],[-124.09944,41.64047],[-124.0995,41.64055],[-124.09963,41.64062],[-124.09984,41.64073],[-124.10013,41.64084],[-124.10043,41.64096],[-124.10064,41.64111],[-124.10097,41.64126],[-124.10118,41.64136],[-124.10127,41.64146],[-124.10136,41.64158],[-124.10147,41.6418],[-124.1015,41.64206]]}}]}