{"type":"FeatureCollection","features":[{"type":"Feature","properties":{"name":"(unnamed public road)","road_class":"track","source":"OpenStreetMap","source_detail":"osm way 10251703","source_tile":"159/383","surface_inferred":true},"geometry":{"type":"LineString","coordinates":[[-124.09461,41.08974],[-124.0957,41.08984],[-124.09652,41.09009],[-124.09688,41.09],[-124.09718,41.08967],[-124.09821,41.08901],[-124.09903,41.08883],[-124.09951,41.0886],[-124.10166,41.0881],[-124.10244,41.08761],[-124.10305,41.08759],[-124.10377,41.08819],[-124.10371,41.08901],[-124.1045,41.08958],[-124.10454,41.08969],[-124.1048,41.09047],[-124.10471,41.09077],[-124.10444,41.09111],[-124.10441,41.09198],[-124.1042,41.09267],[-124.10344,41.09336],[-124.10344,41.09356],[-124.10387,41.09395],[-124.10402,41.09441],[-124.10423,41.09471],[-124.10486,41.09521],[-124.10487,41.09551],[-124.1025,41.09551],[-124.10241,41.0956],[-124.10241,41.09583],[-124.10253,41.09599],[-124.1025,41.09626],[-124.10172,41.09674],[-124.1009,41.09757],[-124.10048,41.09802],[-124.10035,41.09832],[-124.10036,41.09892],[-124.10054,41.09956],[-124.10048,41.09983],[-124.09966,41.10024],[-124.0992,41.10088],[-124.09763,41.10153],[-124.09706,41.10182],[-124.09663,41.10233],[-124.09663,41.10262],[-124.09678,41.10276],[-124.09678,41.10308],[-124.09618,41.10365],[-124.09618,41.10395],[-124.09672,41.10441],[-124.09684,41.10507],[-124.09699,41.10528],[-124.09696,41.10555],[-124.09684,41.10564],[-124.09581,41.1059],[-124.09539,41.10624],[-124.09488,41.10704],[-124.09472,41.10745],[-124.09457,41.10759],[-124.09421,41.1077],[-124.09424,41.10789],[-124.09475,41.10823],[-124.09475,41.10862],[-124.09454,41.10876],[-124.0943,41.10876],[-124.09397,41.10841],[-124.09333,41.10846],[-124.09173,41.10901],[-124.09124,41.1091],[-124.08997,41.10855],[-124.08967,41.10858],[-124.08967,41.10915],[-124.08858,41.10947],[-124.08776,41.11013],[-124.0871,41.1102],[-124.08682,41.11008],[-124.08671,41.1097],[-124.08667,41.10958],[-124.0867,41.1095],[-124.08691,41.10908],[-124.0867,41.10908]]}},{"type":"Feature","properties":{"name":"(unnamed public road)","road_class":"track","source":"OpenStreetMap","source_detail":"osm way 10253142","source_tile":"158/383","surface_inferred":true},"geometry":{"type":"LineString","coordinates":[[-124.12946,41.14173],[-124.12934,41.14102],[-124.1291,41.14063],[-124.12906,41.14022],[-124.12897,41.1401],[-124.12891,41.13914],[-124.12876,41.1383],[-124.12889,41.13731]]}},{"type":"Feature","properties":{"name":"(unnamed public road)","road_class":"track","source":"OpenStreetMap","source_detail":"osm way 10255959","source_tile":"158/383","surface_inferred":true},"geometry":{"type":"LineString","coordinates":[[-124.13392,41.12842],[-124.13373,41.12881],[-124.13376,41.12908],[-124.13458,41.12979],[-124.13458,41.13032]]}},{"type":"Feature","properties":{"name":"(unnamed public road)","road_class":"track","surface":"ground","source":"OpenStreetMap","source_detail":"osm way 10256876","source_tile":"158/383"},"geometry":{"type":"LineString","coordinates":[[-124.13151,41.14782],[-124.1316,41.14692],[-124.13118,41.14578],[-124.13112,41.145],[-124.13082,41.14454],[-124.13082,41.14404],[-124.13045,41.14328],[-124.1303,41.14267],[-124.12961,41.14175],[-124.12946,41.14173]]}},{"type":"Feature","properties":{"name":"(unnamed public road)","road_class":"track","source":"OpenStreetMap","source_detail":"osm way 10257800","source_tile":"158/383","surface_inferred":true},"geometry":{"type":"LineString","coordinates":[[-124.13854,41.12917],[-124.13724,41.12945],[-124.1367,41.12926],[-124.13649,41.12904],[-124.13588,41.12867],[-124.13476,41.1286],[-124.13392,41.12842],[-124.13325,41.12814],[-124.1324,41.12821],[-124.13174,41.12844]]}},{"type":"Feature","properties":{"name":"(unnamed public road)","road_class":"track","source":"OpenStreetMap","source_detail":"osm way 10257802","source_tile":"158/383","surface_inferred":true},"geometry":{"type":"LineString","coordinates":[[-124.13049,41.12655],[-124.13125,41.127],[-124.13159,41.12837],[-124.13174,41.12844]]}},{"type":"Feature","properties":{"name":"(unnamed public road)","road_class":"track","source":"OpenStreetMap","source_detail":"osm way 10263465","source_tile":"158/383","surface_inferred":true},"geometry":{"type":"LineString","coordinates":[[-124.12269,41.1367],[-124.12275,41.1372],[-124.12299,41.13756],[-124.12302,41.13894],[-124.1232,41.13917],[-124.12366,41.13932],[-124.1244,41.13941]]}},{"type":"Feature","properties":{"name":"(unnamed public road)","road_class":"track","source":"OpenStreetMap","source_detail":"osm way 10263860","source_tile":"158/383","surface_inferred":true},"geometry":{"type":"LineString","coordinates":[[-124.14704,41.09793],[-124.14692,41.09823],[-124.14676,41.09931],[-124.14688,41.09965],[-124.14685,41.10022],[-124.14631,41.1007],[-124.14579,41.10095],[-124.14558,41.1013],[-124.14588,41.10182],[-124.14585,41.10283],[-124.14521,41.10361],[-124.14506,41.10407],[-124.14482,41.10425],[-124.14468,41.10452],[-124.14461,41.10518],[-124.1454,41.10592],[-124.14573,41.1066],[-124.14616,41.10688],[-124.14661,41.10692],[-124.14749,41.10683],[-124.14794,41.10644],[-124.14788,41.1056],[-124.14779,41.10555],[-124.14776,41.10539],[-124.14794,41.10489]]}},{"type":"Feature","properties":{"name":"(unnamed public road)","road_class":"track","source":"OpenStreetMap","source_detail":"osm way 10263936","source_tile":"158/383","surface_inferred":true},"geometry":{"type":"LineString","coordinates":[[-124.12816,41.13603],[-124.12855,41.13699],[-124.12889,41.13731]]}},{"type":"Feature","properties":{"name":"(unnamed public road)","road_class":"track","source":"OpenStreetMap","source_detail":"osm way 10263938","source_tile":"158/383","surface_inferred":true},"geometry":{"type":"LineString","coordinates":[[-124.132,41.13972],[-124.13218,41.13983],[-124.13254,41.14029],[-124.1327,41.14063],[-124.13294,41.14068],[-124.13339,41.14093],[-124.13391,41.14093]]}},{"type":"Feature","properties":{"name":"Alder Lane","road_class":"track","source":"OpenStreetMap","source_detail":"osm way 10277818","source_tile":"158/383","surface_inferred":true},"geometry":{"type":"LineString","coordinates":[[-124.14261,41.08062],[-124.1426,41.08068],[-124.14253,41.08076],[-124.14245,41.08081],[-124.14234,41.08083],[-124.14226,41.08082],[-124.14191,41.0807],[-124.1418,41.08068],[-124.14142,41.08072],[-124.14083,41.0808],[-124.14053,41.08082],[-124.13994,41.08079],[-124.13981,41.08077],[-124.13958,41.08069],[-124.1395,41.08067],[-124.13936,41.08066],[-124.139,41.08073],[-124.1385,41.08089],[-124.13824,41.08093],[-124.13781,41.08095],[-124.13766,41.08094],[-124.1376,41.08093],[-124.13746,41.08083],[-124.1373,41.08069],[-124.13715,41.08061],[-124.1368,41.08051],[-124.1366,41.08047],[-124.13623,41.08044]]}},{"type":"Feature","properties":{"name":"(unnamed public road)","road_class":"track","source":"OpenStreetMap","source_detail":"osm way 296599626","source_tile":"158/383","surface_inferred":true},"geometry":{"type":"LineString","coordinates":[[-124.12889,41.13731],[-124.13013,41.13784],[-124.131,41.13839],[-124.13197,41.13951],[-124.132,41.13972]]}},{"type":"Feature","properties":{"name":"(unnamed public road)","road_class":"track","source":"OpenStreetMap","source_detail":"osm way 296599627","source_tile":"158/383","surface_inferred":true},"geometry":{"type":"LineString","coordinates":[[-124.12925,41.13631],[-124.12907,41.13596],[-124.12868,41.13592],[-124.12816,41.13603],[-124.12688,41.13576],[-124.12617,41.1359],[-124.12572,41.13591],[-124.12542,41.13577]]}},{"type":"Feature","properties":{"name":"(unnamed public road)","road_class":"track","source":"OpenStreetMap","source_detail":"osm way 296599628","source_tile":"158/383","surface_inferred":true},"geometry":{"type":"LineString","coordinates":[[-124.13969,41.13185],[-124.14069,41.13192],[-124.14139,41.1318],[-124.14196,41.1316],[-124.14248,41.1316],[-124.14323,41.13139]]}},{"type":"Feature","properties":{"name":"(unnamed public road)","road_class":"track","source":"OpenStreetMap","source_detail":"osm way 296599629","source_tile":"158/383","surface_inferred":true},"geometry":{"type":"LineString","coordinates":[[-124.13391,41.14093],[-124.13415,41.14182],[-124.13484,41.14306],[-124.13527,41.14356],[-124.13606,41.14399]]}},{"type":"Feature","properties":{"name":"(unnamed public road)","road_class":"track","source":"OpenStreetMap","source_detail":"osm way 359629054","source_tile":"158/383","surface_inferred":true},"geometry":{"type":"LineString","coordinates":[[-124.14255,41.08916],[-124.14298,41.08948],[-124.14316,41.08977],[-124.14344,41.09035]]}},{"type":"Feature","properties":{"name":"Big Lagoon Access","road_class":"track","source":"OpenStreetMap","source_detail":"osm way 413148751","source_tile":"158/383","surface_inferred":true},"geometry":{"type":"LineString","coordinates":[[-124.105,41.17742],[-124.10466,41.17682],[-124.10401,41.17693]]}},{"type":"Feature","properties":{"name":"(unnamed public road)","road_class":"unclassified","surface":"gravel","motor_vehicle":"permissive","access":"permissive","source":"OpenStreetMap","source_detail":"osm way 413159874","source_tile":"158/383"},"geometry":{"type":"LineString","coordinates":[[-124.13049,41.16278],[-124.13022,41.16284],[-124.13,41.16294],[-124.12996,41.16296],[-124.1298,41.16306],[-124.12957,41.16326],[-124.12942,41.16348],[-124.12935,41.1637],[-124.12935,41.16392],[-124.12951,41.16443],[-124.12952,41.16459],[-124.12949,41.16479],[-124.12938,41.16504],[-124.12925,41.16523],[-124.12905,41.16542],[-124.12883,41.16559],[-124.12836,41.16584],[-124.12798,41.16595],[-124.12756,41.16602],[-124.1271,41.16606],[-124.12672,41.16606]]}},{"type":"Feature","properties":{"name":"Little River Drive","road_class":"track","source":"OpenStreetMap","source_detail":"osm way 554953094","source_tile":"158/383","surface_inferred":true},"geometry":{"type":"LineString","coordinates":[[-124.109,41.01085],[-124.1089,41.01095]]}},{"type":"Feature","properties":{"name":"(unnamed public road)","road_class":"track","source":"OpenStreetMap","source_detail":"osm way 859884133","source_tile":"158/384","surface_inferred":true},"geometry":{"type":"LineString","coordinates":[[-124.11106,40.98041],[-124.11117,40.98037],[-124.11241,40.97991],[-124.11373,40.97934],[-124.11406,40.97918],[-124.11412,40.97915],[-124.11416,40.97917]]}},{"type":"Feature","properties":{"name":"(unnamed public road)","road_class":"track","source":"OpenStreetMap","source_detail":"osm way 1184766991","source_tile":"158/383","surface_inferred":true},"geometry":{"type":"LineString","coordinates":[[-124.10644,41.19956],[-124.10658,41.19946],[-124.10666,41.19931],[-124.1067,41.19909],[-124.10655,41.19893],[-124.10645,41.19878],[-124.10645,41.19875],[-124.10641,41.19858],[-124.10644,41.19842],[-124.10659,41.19825],[-124.1068,41.19798],[-124.10696,41.1977],[-124.10713,41.19746],[-124.10738,41.19736],[-124.10765,41.19728],[-124.10777,41.19719],[-124.10766,41.19694],[-124.10754,41.19656],[-124.10729,41.1962],[-124.10711,41.19595],[-124.10716,41.19555],[-124.10632,41.19511],[-124.10603,41.19503],[-124.10593,41.19482],[-124.10591,41.19452],[-124.10551,41.19445],[-124.10516,41.19392],[-124.10531,41.19339],[-124.10498,41.19302],[-124.10459,41.19234],[-124.10452,41.19201],[-124.1049,41.19171],[-124.10513,41.19139],[-124.10576,41.19139],[-124.10585,41.19127],[-124.10577,41.19069],[-124.10575,41.19015],[-124.10532,41.18959],[-124.10486,41.18896],[-124.10503,41.18837],[-124.1054,41.18778],[-124.10559,41.18731]]}},{"type":"Feature","properties":{"name":"(unnamed public road)","road_class":"track","source":"OpenStreetMap","source_detail":"osm way 1229840382","source_tile":"158/383","surface_inferred":true},"geometry":{"type":"LineString","coordinates":[[-124.12347,41.0699],[-124.12353,41.06968],[-124.12377,41.06943],[-124.12405,41.0691],[-124.12462,41.06872],[-124.12508,41.06816],[-124.12542,41.06829],[-124.12578,41.06838],[-124.12591,41.06856],[-124.12595,41.06861],[-124.12618,41.06886],[-124.12658,41.06902],[-124.12701,41.06911],[-124.12732,41.06931],[-124.12758,41.06953],[-124.12783,41.06961],[-124.12819,41.06962],[-124.1285,41.06945],[-124.12888,41.06919],[-124.12929,41.06907],[-124.12968,41.06901],[-124.13016,41.06907],[-124.13049,41.06908],[-124.13073,41.06896],[-124.1312,41.06871],[-124.13164,41.06863],[-124.13187,41.06865],[-124.13184,41.06882],[-124.13169,41.06903],[-124.13144,41.06915],[-124.13099,41.0695],[-124.1308,41.06961],[-124.1306,41.06975],[-124.13032,41.0698],[-124.13023,41.06974]]}},{"type":"Feature","properties":{"name":"(unnamed public road)","road_class":"track","source":"OpenStreetMap","source_detail":"osm way 1229840383","source_tile":"158/383","surface_inferred":true},"geometry":{"type":"LineString","coordinates":[[-124.13187,41.06865],[-124.13193,41.0685],[-124.13186,41.06816],[-124.13174,41.06782],[-124.13165,41.06763],[-124.13148,41.06721],[-124.13124,41.06691],[-124.13106,41.06665]]}},{"type":"Feature","properties":{"name":"(unnamed public road)","road_class":"track","source":"OpenStreetMap","source_detail":"osm way 1229840384","source_tile":"158/383","surface_inferred":true},"geometry":{"type":"LineString","coordinates":[[-124.12822,41.06487],[-124.12802,41.06505],[-124.12793,41.06519],[-124.1278,41.06541],[-124.12764,41.06552],[-124.12748,41.06562],[-124.1273,41.06582],[-124.12689,41.06595],[-124.12659,41.06628],[-124.1266,41.06657],[-124.12632,41.06701],[-124.12595,41.06728],[-124.12575,41.06754],[-124.12508,41.06816]]}},{"type":"Feature","properties":{"name":"(unnamed public road)","road_class":"track","source":"OpenStreetMap","source_detail":"osm way 1229840385","source_tile":"158/383","surface_inferred":true},"geometry":{"type":"LineString","coordinates":[[-124.12591,41.06856],[-124.12597,41.06828],[-124.12599,41.06787],[-124.12587,41.06764],[-124.12575,41.06754],[-124.1256,41.06727],[-124.12535,41.06711],[-124.12519,41.06692],[-124.12492,41.06633],[-124.12454,41.06595]]}},{"type":"Feature","properties":{"name":"(unnamed public road)","road_class":"track","source":"OpenStreetMap","source_detail":"osm way 1229840386","source_tile":"158/383","surface_inferred":true},"geometry":{"type":"LineString","coordinates":[[-124.12597,41.06828],[-124.12578,41.06838]]}},{"type":"Feature","properties":{"name":"(unnamed public road)","road_class":"track","source":"OpenStreetMap","source_detail":"osm way 1231787238","source_tile":"158/383","surface_inferred":true},"geometry":{"type":"LineString","coordinates":[[-124.14032,41.09424],[-124.14049,41.09425],[-124.14083,41.09438],[-124.14111,41.09444],[-124.14149,41.09447],[-124.14193,41.09452],[-124.1423,41.09451],[-124.14252,41.09443],[-124.14269,41.09427],[-124.14288,41.09407],[-124.14304,41.09397],[-124.14325,41.09384],[-124.14344,41.09374],[-124.14359,41.0937],[-124.14376,41.09399]]}},{"type":"Feature","properties":{"name":"(unnamed public road)","road_class":"track","source":"OpenStreetMap","source_detail":"osm way 1231787239","source_tile":"158/383","surface_inferred":true},"geometry":{"type":"LineString","coordinates":[[-124.13974,41.09339],[-124.13988,41.09331],[-124.14032,41.09321],[-124.14069,41.09321],[-124.14097,41.09316],[-124.14123,41.09296],[-124.14156,41.09276],[-124.14206,41.09256],[-124.14321,41.09215]]}},{"type":"Feature","properties":{"name":"(unnamed public road)","road_class":"track","source":"OpenStreetMap","source_detail":"osm way 1231787240","source_tile":"158/383","surface_inferred":true},"geometry":{"type":"LineString","coordinates":[[-124.14032,41.09321],[-124.14047,41.09306],[-124.14055,41.09292],[-124.14047,41.09268],[-124.14035,41.0926]]}},{"type":"Feature","properties":{"name":"(unnamed public road)","road_class":"track","source":"OpenStreetMap","source_detail":"osm way 1231787241","source_tile":"158/383","surface_inferred":true},"geometry":{"type":"LineString","coordinates":[[-124.14,41.09017],[-124.13984,41.09019],[-124.13949,41.09018],[-124.13936,41.09009],[-124.13892,41.08947],[-124.13784,41.08872],[-124.13778,41.08856],[-124.13666,41.08854],[-124.13623,41.08863],[-124.13577,41.08885],[-124.1355,41.08907],[-124.13596,41.08998],[-124.1366,41.0908]]}},{"type":"Feature","properties":{"name":"(unnamed public road)","road_class":"track","tracktype":"grade5","source":"OpenStreetMap","source_detail":"osm way 1350735569","source_tile":"158/383","surface_inferred":true},"geometry":{"type":"LineString","coordinates":[[-124.1039,41.17303],[-124.10387,41.17336],[-124.10365,41.17372],[-124.10319,41.17399],[-124.10265,41.17428],[-124.1024,41.17442]]}}]}