{"type":"FeatureCollection","features":[{"type":"Feature","properties":{"name":"(unnamed public road)","road_class":"track","source":"OpenStreetMap","source_detail":"osm way 7920671","source_tile":"171/381","surface_inferred":true},"geometry":{"type":"LineString","coordinates":[[-119.88287,41.75035],[-119.88339,41.75066],[-119.88333,41.75079],[-119.88282,41.75107],[-119.88251,41.75123],[-119.88182,41.75172],[-119.88164,41.75179],[-119.88134,41.75185],[-119.88128,41.75187],[-119.88127,41.75192],[-119.88129,41.75195],[-119.88132,41.75197],[-119.8815,41.75201],[-119.88163,41.75203],[-119.88199,41.75211],[-119.88233,41.75214],[-119.88241,41.75216],[-119.88249,41.75223],[-119.8825,41.75233],[-119.88237,41.75269],[-119.88236,41.75276],[-119.88237,41.75285],[-119.88244,41.75312],[-119.88244,41.75319],[-119.88242,41.75329],[-119.88228,41.75357],[-119.88228,41.75362],[-119.88243,41.75391],[-119.88272,41.75433],[-119.88308,41.7546],[-119.88345,41.75471],[-119.88461,41.7547],[-119.88479,41.75468],[-119.88499,41.75462],[-119.88507,41.75456],[-119.88522,41.75435],[-119.88532,41.75411],[-119.88555,41.75369],[-119.88561,41.75353],[-119.88569,41.75328],[-119.88575,41.7528],[-119.88581,41.75253],[-119.88584,41.75247],[-119.88592,41.75241],[-119.88632,41.75227],[-119.88658,41.75202],[-119.88687,41.75181],[-119.88699,41.75163],[-119.8871,41.75149],[-119.88721,41.75143],[-119.88737,41.7514],[-119.8877,41.75138],[-119.88808,41.75143],[-119.88879,41.75158],[-119.88922,41.75169],[-119.88942,41.75179],[-119.88974,41.75205],[-119.88993,41.75223],[-119.89012,41.75237],[-119.89027,41.75245],[-119.89034,41.75247],[-119.89072,41.75246],[-119.89121,41.75258],[-119.89139,41.75264],[-119.89152,41.75269],[-119.89167,41.75279],[-119.89177,41.75284],[-119.89191,41.75287],[-119.8921,41.75289],[-119.89223,41.75294],[-119.8925,41.75311],[-119.89286,41.75322],[-119.89342,41.75325],[-119.89406,41.75297],[-119.89437,41.75279],[-119.89455,41.75264],[-119.89468,41.75244],[-119.89477,41.75223],[-119.89489,41.75176],[-119.89491,41.7516],[-119.89493,41.75127],[-119.89415,41.74749],[-119.89395,41.74682],[-119.89385,41.74637],[-119.89359,41.74448],[-119.89353,41.74384],[-119.89347,41.74305],[-119.89349,41.74274],[-119.89356,41.74246],[-119.89377,41.742],[-119.89397,41.74148],[-119.89443,41.74014],[-119.89453,41.73994],[-119.89466,41.73975],[-119.89474,41.73961],[-119.89478,41.73951],[-119.89477,41.73935],[-119.89464,41.73879],[-119.89466,41.73853],[-119.89474,41.7383],[-119.89502,41.73788],[-119.89521,41.73766],[-119.89562,41.7373],[-119.89614,41.73714],[-119.897,41.73704],[-119.89747,41.73697],[-119.89785,41.73687],[-119.89807,41.73679],[-119.89842,41.73673],[-119.8987,41.73679],[-119.89876,41.7368],[-119.89895,41.73685],[-119.89915,41.73697],[-119.90001,41.73699],[-119.90027,41.73696],[-119.90048,41.73689],[-119.90104,41.73663],[-119.9017,41.73628],[-119.90216,41.73607],[-119.9026,41.73591],[-119.90332,41.73569],[-119.90356,41.73561],[-119.9038,41.73549],[-119.90444,41.73516],[-119.90515,41.73457],[-119.90604,41.73441],[-119.90678,41.73444],[-119.90791,41.7347],[-119.9084,41.73476],[-119.90852,41.73478],[-119.90875,41.73479],[-119.90946,41.73474],[-119.90994,41.73474],[-119.91022,41.73478],[-119.91062,41.73489],[-119.9114,41.73518],[-119.91215,41.73557],[-119.91348,41.73624],[-119.91383,41.73643],[-119.91405,41.73659],[-119.91438,41.7368],[-119.91463,41.73698],[-119.91495,41.73727],[-119.91568,41.73798],[-119.91583,41.73811],[-119.91592,41.73814],[-119.91628,41.73815],[-119.91714,41.7381],[-119.9174,41.73811],[-119.91774,41.73818],[-119.91867,41.73855],[-119.91942,41.73877],[-119.9204,41.73872],[-119.9209,41.73873],[-119.92111,41.73877],[-119.92166,41.73891],[-119.92224,41.73904],[-119.92278,41.73912],[-119.92315,41.73916],[-119.92338,41.73914],[-119.92406,41.73897],[-119.92445,41.73892],[-119.92461,41.73892],[-119.92518,41.73895],[-119.92543,41.73895],[-119.92576,41.73893],[-119.92676,41.73895],[-119.92729,41.73893],[-119.92884,41.73869],[-119.92944,41.73852],[-119.9296,41.73848],[-119.93034,41.73816],[-119.93051,41.73805],[-119.93061,41.73795],[-119.93075,41.73777],[-119.93102,41.7376],[-119.93104,41.73757],[-119.93113,41.73754],[-119.93145,41.73751],[-119.93197,41.73736],[-119.93201,41.73732],[-119.93221,41.73724],[-119.93236,41.73722],[-119.93248,41.73724],[-119.93306,41.73722],[-119.93346,41.73734],[-119.93429,41.73745],[-119.93462,41.73752],[-119.93477,41.73754],[-119.93495,41.73753],[-119.93531,41.73746],[-119.93558,41.73743],[-119.9357,41.73743],[-119.93612,41.73758],[-119.9372,41.73788],[-119.93758,41.73796],[-119.93797,41.73814],[-119.93891,41.73829],[-119.93909,41.7383],[-119.93925,41.73825],[-119.94018,41.73773],[-119.94042,41.7376],[-119.94068,41.7375],[-119.94117,41.73734],[-119.94186,41.73722],[-119.9424,41.73719],[-119.94253,41.73715],[-119.94271,41.73705],[-119.94288,41.73699],[-119.94307,41.73698],[-119.94406,41.73685],[-119.94553,41.7366],[-119.94627,41.7358],[-119.94648,41.73547],[-119.94661,41.73515],[-119.94684,41.73481],[-119.94706,41.73456],[-119.94732,41.73424],[-119.94781,41.7337],[-119.9483,41.73291],[-119.94845,41.73245],[-119.94845,41.7324],[-119.94849,41.73233],[-119.94856,41.73183],[-119.9487,41.73122],[-119.9487,41.73063],[-119.94873,41.73039],[-119.94883,41.73],[-119.94886,41.72972],[-119.94888,41.72913],[-119.94886,41.72906],[-119.94885,41.72871],[-119.94855,41.7283],[-119.94821,41.72764],[-119.94817,41.72705],[-119.94836,41.7263],[-119.94845,41.72587],[-119.94832,41.72551],[-119.94782,41.72498],[-119.94682,41.72412],[-119.94463,41.72266],[-119.94452,41.72242],[-119.94422,41.72225],[-119.94383,41.72162],[-119.94375,41.721],[-119.94375,41.72061],[-119.94405,41.72056],[-119.94458,41.72048],[-119.94531,41.72063],[-119.94602,41.72089],[-119.94652,41.72076],[-119.94742,41.72026],[-119.94761,41.71981],[-119.94761,41.71938],[-119.94765,41.71917],[-119.94815,41.71867],[-119.94894,41.7176],[-119.94952,41.71707],[-119.9498,41.71669],[-119.95029,41.71619],[-119.95042,41.71554],[-119.95038,41.71473],[-119.95021,41.71373],[-119.9504,41.71276],[-119.95083,41.7122],[-119.95113,41.71225],[-119.95154,41.7127],[-119.95163,41.71284],[-119.95169,41.71298],[-119.95173,41.71318],[-119.95184,41.7134],[-119.95196,41.71396],[-119.95211,41.7145],[-119.95225,41.71472],[-119.95237,41.71502],[-119.95253,41.71533],[-119.9526,41.71543],[-119.95288,41.71595],[-119.95299,41.71609],[-119.95315,41.71622],[-119.95325,41.71628],[-119.95352,41.71639],[-119.95378,41.71641],[-119.95405,41.71641],[-119.95453,41.71643],[-119.95474,41.71641],[-119.95506,41.71636],[-119.95522,41.71632],[-119.95541,41.71624],[-119.95581,41.71617],[-119.95618,41.71609],[-119.95639,41.71603],[-119.95669,41.71593],[-119.95676,41.71589],[-119.95696,41.71573],[-119.95706,41.71557],[-119.95711,41.71547],[-119.95718,41.71525],[-119.95727,41.71357],[-119.95734,41.71342],[-119.95758,41.71303],[-119.95769,41.71281],[-119.95786,41.71215],[-119.95802,41.71171],[-119.95817,41.71117],[-119.95826,41.71097],[-119.95836,41.71084],[-119.95855,41.71064],[-119.95923,41.71007],[-119.95971,41.70952],[-119.95989,41.70942],[-119.96007,41.70938],[-119.96023,41.70941],[-119.96051,41.70955],[-119.96067,41.70961],[-119.9608,41.70962],[-119.96095,41.70959],[-119.96113,41.70953],[-119.96138,41.70942],[-119.96265,41.70881],[-119.9628,41.70876],[-119.96296,41.70875],[-119.96339,41.70875],[-119.96382,41.70878],[-119.96399,41.70882],[-119.96414,41.70888],[-119.96442,41.70903],[-119.96458,41.7091],[-119.96479,41.70914],[-119.96493,41.70914],[-119.96508,41.70911],[-119.96551,41.70897],[-119.96571,41.70887],[-119.96608,41.70866],[-119.96644,41.7085],[-119.96657,41.70843],[-119.96687,41.70819],[-119.96735,41.70787],[-119.96758,41.70769],[-119.96773,41.70763],[-119.96802,41.70754],[-119.96876,41.70714],[-119.96889,41.70703],[-119.96894,41.70695],[-119.96944,41.70605],[-119.96953,41.70595],[-119.96988,41.70573],[-119.97024,41.70552],[-119.97074,41.7053],[-119.97111,41.70505],[-119.97233,41.70406],[-119.97277,41.70365],[-119.97288,41.70351],[-119.97292,41.70341],[-119.97301,41.70305],[-119.9731,41.70281],[-119.97335,41.70247],[-119.97345,41.70227],[-119.97361,41.70167],[-119.97374,41.70105],[-119.97385,41.70067],[-119.97386,41.70048],[-119.97397,41.70027],[-119.97403,41.69992],[-119.97413,41.69969],[-119.9742,41.69967],[-119.97426,41.69972],[-119.97429,41.69986],[-119.97436,41.69991],[-119.97445,41.69992],[-119.97462,41.69988],[-119.9747,41.69994],[-119.97477,41.69999],[-119.97485,41.7],[-119.97494,41.7],[-119.97501,41.7],[-119.97505,41.69998],[-119.9751,41.69994],[-119.97515,41.69985],[-119.97519,41.69975],[-119.9753,41.6997],[-119.97565,41.69971],[-119.97581,41.69965],[-119.9762,41.69938],[-119.97665,41.6991],[-119.97746,41.69876],[-119.97803,41.69844],[-119.97824,41.69837],[-119.97857,41.69829],[-119.97886,41.69819],[-119.97934,41.69804],[-119.98004,41.69779],[-119.98076,41.69756],[-119.98116,41.69739],[-119.98124,41.69733],[-119.98128,41.69727],[-119.98131,41.6972],[-119.98139,41.69682],[-119.98167,41.69623],[-119.98176,41.69584],[-119.98178,41.69535],[-119.98161,41.69479],[-119.9816,41.69465],[-119.98162,41.69452],[-119.98169,41.69438],[-119.98186,41.69416],[-119.98234,41.69329],[-119.98266,41.69263],[-119.98292,41.69186],[-119.98312,41.69156],[-119.98332,41.69139],[-119.98338,41.69103],[-119.98344,41.69092],[-119.9835,41.69085],[-119.9838,41.69064],[-119.9843,41.69039],[-119.98443,41.69028],[-119.98445,41.69023],[-119.98449,41.69007],[-119.98454,41.68997],[-119.98478,41.6897],[-119.98517,41.68907],[-119.98562,41.68854],[-119.98572,41.68836],[-119.98585,41.68806],[-119.98654,41.68735],[-119.9868,41.68696],[-119.98706,41.68666],[-119.98728,41.68627],[-119.98742,41.68579],[-119.98756,41.68516],[-119.9876,41.68385],[-119.98749,41.6834],[-119.98746,41.68292],[-119.98749,41.68283],[-119.98775,41.68241],[-119.98782,41.68228],[-119.98783,41.68221],[-119.9879,41.68207],[-119.98819,41.68179],[-119.98848,41.68143],[-119.98859,41.68135],[-119.98885,41.68123],[-119.98896,41.68116],[-119.98904,41.68106],[-119.98927,41.68066],[-119.98934,41.6806],[-119.9896,41.68046],[-119.98974,41.68037],[-119.98986,41.68025],[-119.98998,41.68011],[-119.99008,41.67995],[-119.99027,41.67971],[-119.99037,41.67951],[-119.99044,41.67933],[-119.99058,41.67907],[-119.9909,41.67863],[-119.99107,41.67835],[-119.99123,41.67813],[-119.99132,41.67805],[-119.99148,41.67793],[-119.99175,41.67775],[-119.99183,41.67767],[-119.99252,41.67691],[-119.99266,41.67678],[-119.9929,41.67664],[-119.99316,41.67645],[-119.99404,41.67594],[-119.99427,41.67588],[-119.99455,41.67587],[-119.99504,41.67597],[-119.99683,41.67612],[-119.99733,41.67615],[-119.99802,41.67598],[-119.99875,41.67594],[-119.99884,41.67596],[-119.99892,41.67596],[-119.99917,41.67593],[-119.9993,41.67593],[-119.99937,41.67594],[-119.99952,41.67599],[-119.99963,41.67601],[-119.9999,41.67599],[-120.00021,41.67603],[-120.00113,41.67604],[-120.00129,41.67601],[-120.00144,41.67595],[-120.00169,41.67579],[-120.00179,41.67566],[-120.00185,41.67562],[-120.00203,41.67557],[-120.00211,41.67553],[-120.00218,41.67546],[-120.0022,41.67542],[-120.00236,41.67524],[-120.00243,41.6752],[-120.00296,41.67508],[-120.0031,41.67503],[-120.00323,41.67497],[-120.00342,41.67486],[-120.00374,41.67466],[-120.00395,41.67453],[-120.00403,41.67447],[-120.00414,41.67442],[-120.00427,41.67438],[-120.00443,41.67437],[-120.00454,41.67438],[-120.00479,41.67442],[-120.00488,41.67441],[-120.00507,41.67435],[-120.00516,41.67434],[-120.00564,41.67432],[-120.00578,41.67433],[-120.00591,41.67437],[-120.00612,41.67448],[-120.0062,41.67452],[-120.00629,41.67454],[-120.00637,41.67454],[-120.00683,41.67449],[-120.00696,41.6745],[-120.00708,41.67452],[-120.00725,41.67459],[-120.00745,41.67469],[-120.00759,41.67477],[-120.00767,41.67481],[-120.00778,41.67486],[-120.0079,41.6749],[-120.00802,41.67493],[-120.00817,41.67495],[-120.00827,41.67499],[-120.00841,41.67505],[-120.00852,41.67514],[-120.00876,41.67539],[-120.00886,41.67546],[-120.00898,41.6755],[-120.00909,41.67551],[-120.00925,41.67556],[-120.00934,41.67564],[-120.00951,41.67583],[-120.00983,41.67612],[-120.00999,41.67623],[-120.0104,41.67645],[-120.01051,41.67653],[-120.01071,41.67672],[-120.01078,41.67677],[-120.01089,41.67679],[-120.0113,41.67685],[-120.01151,41.67686],[-120.01162,41.67685],[-120.01172,41.67683],[-120.01184,41.6768],[-120.01214,41.67666],[-120.01236,41.67653],[-120.01261,41.67643],[-120.01275,41.67634],[-120.01335,41.67592],[-120.01347,41.67581],[-120.01366,41.6757],[-120.014,41.67552],[-120.01542,41.67465],[-120.01585,41.6743],[-120.01606,41.67412],[-120.01635,41.67381],[-120.01657,41.67351],[-120.01673,41.67332],[-120.01713,41.67294],[-120.01785,41.67216],[-120.01795,41.67202],[-120.01803,41.67183],[-120.01805,41.67174],[-120.01808,41.67122],[-120.01807,41.6711],[-120.01806,41.67086],[-120.01807,41.67077],[-120.0181,41.67063],[-120.01813,41.67034],[-120.01815,41.67025],[-120.01824,41.67006],[-120.0183,41.67],[-120.0184,41.66984],[-120.01843,41.66978],[-120.01849,41.66954],[-120.0185,41.66941],[-120.01854,41.66923],[-120.0186,41.66913],[-120.01864,41.66908],[-120.0187,41.66903],[-120.01877,41.66886],[-120.019,41.6685],[-120.01901,41.66809],[-120.01893,41.66787],[-120.01879,41.66769],[-120.01793,41.6668],[-120.01783,41.66663],[-120.01778,41.66644],[-120.01777,41.66624],[-120.01773,41.66585],[-120.01773,41.66562],[-120.01778,41.66532],[-120.01784,41.66459],[-120.01793,41.664],[-120.01812,41.66123],[-120.01814,41.66024],[-120.01812,41.65972],[-120.01805,41.6592],[-120.01798,41.65847],[-120.01786,41.6579],[-120.01762,41.65771]]}},{"type":"Feature","properties":{"name":"Dugway Road","road_class":"unclassified","surface":"dirt","source":"OpenStreetMap","source_detail":"osm way 1021337251","source_tile":"171/381"},"geometry":{"type":"LineString","coordinates":[[-119.89673,41.59066],[-119.89482,41.5911],[-119.89469,41.59111],[-119.89456,41.59112],[-119.89443,41.59113],[-119.89431,41.59112],[-119.8942,41.59111],[-119.89409,41.5911],[-119.89398,41.59108],[-119.89251,41.59067],[-119.89242,41.59065],[-119.89232,41.59064],[-119.89223,41.59064],[-119.89213,41.59064],[-119.89204,41.59065],[-119.89195,41.59067],[-119.89186,41.5907],[-119.89178,41.59073],[-119.89114,41.59102],[-119.8905,41.59131],[-119.88985,41.59158],[-119.88939,41.59178],[-119.88893,41.59196],[-119.88876,41.59202],[-119.88858,41.59208],[-119.88844,41.59211],[-119.8883,41.59214],[-119.88816,41.59216],[-119.88588,41.59254],[-119.88571,41.59256],[-119.88554,41.59257],[-119.88537,41.59259],[-119.88517,41.59259],[-119.88497,41.59259],[-119.88476,41.59259],[-119.88231,41.59251],[-119.88217,41.5925],[-119.88203,41.59251],[-119.8819,41.59252],[-119.88177,41.59254],[-119.88164,41.59256],[-119.88152,41.59259],[-119.8814,41.59262],[-119.88128,41.59266],[-119.88113,41.59272],[-119.88098,41.59278],[-119.8809,41.59281],[-119.88083,41.59285],[-119.88071,41.59291],[-119.8806,41.59298],[-119.8805,41.59305],[-119.88045,41.59309],[-119.8804,41.59314],[-119.88036,41.59318],[-119.88033,41.59324],[-119.8803,41.5933],[-119.88028,41.59336],[-119.88028,41.59343],[-119.88028,41.59349],[-119.8803,41.59356],[-119.88066,41.59459],[-119.88069,41.59468],[-119.8807,41.59476],[-119.88071,41.59485],[-119.88071,41.59495],[-119.88069,41.59504],[-119.88066,41.59514],[-119.88063,41.59521],[-119.88059,41.59528],[-119.88054,41.59534],[-119.88047,41.59541],[-119.8804,41.59547],[-119.88032,41.59552],[-119.88011,41.59566],[-119.8799,41.5958],[-119.8797,41.59595],[-119.87953,41.59608],[-119.87936,41.59621],[-119.87928,41.59628],[-119.8792,41.59635],[-119.87908,41.59647],[-119.87896,41.59658],[-119.87886,41.5967],[-119.87879,41.59678],[-119.87872,41.59686],[-119.87864,41.59693],[-119.87854,41.59701],[-119.87844,41.59709],[-119.87833,41.59716],[-119.87726,41.59781],[-119.87718,41.59785],[-119.8771,41.59788],[-119.87702,41.59791],[-119.87693,41.59793],[-119.87685,41.59795],[-119.87676,41.59796],[-119.87639,41.59803],[-119.87629,41.59806],[-119.87619,41.59809],[-119.8761,41.59813],[-119.876,41.59818],[-119.87595,41.5982],[-119.87591,41.59823],[-119.87586,41.59827],[-119.87581,41.59832],[-119.87578,41.59837],[-119.87566,41.59857],[-119.87562,41.59862],[-119.87557,41.59868],[-119.87553,41.59871],[-119.87548,41.59875],[-119.87544,41.59878],[-119.87524,41.5989],[-119.8752,41.59894],[-119.87517,41.59898],[-119.87515,41.59903],[-119.87514,41.59908],[-119.87514,41.59912],[-119.87515,41.59916],[-119.87517,41.59921],[-119.87519,41.59925],[-119.87556,41.59963],[-119.87559,41.59966],[-119.8756,41.59969],[-119.8756,41.59972],[-119.8756,41.59976],[-119.87558,41.59979],[-119.87556,41.59982],[-119.87552,41.59984],[-119.87548,41.59986],[-119.87544,41.59987],[-119.87539,41.59987],[-119.87534,41.59987],[-119.87502,41.59983],[-119.87494,41.59983],[-119.87486,41.59984],[-119.87479,41.59986],[-119.87472,41.59988],[-119.87465,41.59991],[-119.8746,41.59994],[-119.87454,41.59998],[-119.87446,41.60005],[-119.87438,41.60013],[-119.87431,41.60021],[-119.87428,41.60026],[-119.87424,41.60031],[-119.87419,41.60035],[-119.87415,41.60038],[-119.87409,41.60041],[-119.87404,41.60043],[-119.87398,41.60045],[-119.87389,41.60047],[-119.8738,41.6005],[-119.87372,41.60054],[-119.87365,41.60058],[-119.87357,41.60064],[-119.8735,41.60069],[-119.87344,41.60075],[-119.87339,41.60082],[-119.87335,41.60089],[-119.87333,41.60096],[-119.87331,41.60103],[-119.87329,41.60109],[-119.87329,41.60116],[-119.87329,41.60123],[-119.87329,41.60137],[-119.87331,41.60152],[-119.87333,41.60166],[-119.87335,41.60176],[-119.87337,41.60187],[-119.87338,41.60197],[-119.87339,41.60209],[-119.87338,41.60221],[-119.87337,41.60234],[-119.87334,41.60249],[-119.87333,41.60265],[-119.87333,41.6028],[-119.87333,41.60295],[-119.87334,41.60313],[-119.87333,41.6033],[-119.87333,41.60344],[-119.87332,41.60358],[-119.8733,41.60371],[-119.87327,41.60385],[-119.87324,41.60399],[-119.8732,41.60412],[-119.87316,41.60425],[-119.87313,41.60438],[-119.87312,41.60451],[-119.87311,41.60463],[-119.87311,41.60475],[-119.87313,41.60487],[-119.87319,41.60533],[-119.87319,41.60541],[-119.87318,41.60548],[-119.87316,41.60555],[-119.87313,41.60563],[-119.8731,41.6057],[-119.87305,41.60577],[-119.87268,41.60629],[-119.8725,41.60653],[-119.87248,41.6066],[-119.87246,41.60667],[-119.87244,41.60675],[-119.87244,41.60682],[-119.87243,41.60689],[-119.87244,41.60696],[-119.87244,41.60707],[-119.87242,41.60718],[-119.8724,41.60729],[-119.87237,41.60738],[-119.87234,41.60747],[-119.87229,41.60756],[-119.87224,41.60765],[-119.87186,41.60818],[-119.87181,41.60822],[-119.87175,41.60826],[-119.8717,41.60829],[-119.87163,41.60832],[-119.87157,41.60833],[-119.87151,41.60835],[-119.87145,41.60836],[-119.87138,41.60836],[-119.8693,41.60838],[-119.86921,41.60839],[-119.86912,41.60841],[-119.86903,41.60844],[-119.86895,41.60847],[-119.86887,41.60852],[-119.86881,41.60856],[-119.86875,41.60862],[-119.8687,41.60867],[-119.86866,41.60874],[-119.86864,41.6088],[-119.86862,41.60887],[-119.86861,41.60894],[-119.86862,41.6091]]}},{"type":"Feature","properties":{"name":"(unnamed public road)","road_class":"track","source":"OpenStreetMap","source_detail":"osm way 1221889600","source_tile":"171/381","surface_inferred":true},"geometry":{"type":"LineString","coordinates":[[-119.91173,41.62224],[-119.91122,41.62176],[-119.91101,41.62149],[-119.91069,41.62129],[-119.91025,41.62104],[-119.90995,41.62068],[-119.90975,41.62046],[-119.90944,41.62026],[-119.90902,41.61994],[-119.90897,41.61988],[-119.90875,41.6197],[-119.90865,41.61959],[-119.90852,41.61949],[-119.90847,41.61948],[-119.90834,41.61949],[-119.90793,41.61962],[-119.90772,41.61966],[-119.90725,41.61958],[-119.90687,41.61962],[-119.906,41.61961],[-119.90569,41.61963],[-119.90512,41.61962],[-119.90502,41.61958],[-119.90434,41.61917],[-119.90402,41.61902],[-119.90366,41.61869],[-119.90366,41.61846],[-119.90373,41.61827],[-119.90378,41.6181],[-119.9037,41.61802],[-119.90353,41.61796],[-119.90344,41.61787],[-119.90351,41.61756],[-119.90346,41.6166],[-119.90346,41.61632],[-119.90349,41.61623],[-119.90365,41.61607],[-119.90369,41.61599],[-119.90372,41.61582],[-119.90373,41.61556],[-119.90371,41.61551],[-119.90367,41.61547],[-119.90329,41.6152],[-119.90317,41.61463],[-119.90276,41.61456],[-119.90237,41.61447],[-119.90193,41.61447],[-119.90143,41.61452],[-119.90126,41.61459],[-119.90104,41.61464],[-119.90074,41.61478],[-119.90049,41.61501],[-119.90004,41.61532],[-119.89973,41.61572],[-119.89962,41.61593],[-119.89953,41.6164],[-119.89938,41.61672],[-119.89928,41.61682],[-119.89922,41.6169],[-119.89899,41.61697],[-119.89859,41.61695],[-119.89766,41.61706],[-119.89733,41.61713],[-119.89583,41.61731],[-119.89568,41.61728],[-119.89549,41.61723],[-119.89471,41.61686],[-119.8937,41.61642],[-119.89318,41.61614],[-119.89282,41.61589],[-119.8924,41.61578],[-119.89202,41.6158],[-119.89161,41.61589],[-119.89154,41.61592],[-119.8914,41.61604],[-119.891,41.6163],[-119.89081,41.61637],[-119.88974,41.61655],[-119.88897,41.61668],[-119.88857,41.61687],[-119.88818,41.61732],[-119.88791,41.61755],[-119.88777,41.61763],[-119.88752,41.61767],[-119.88674,41.61767],[-119.88618,41.61769],[-119.88533,41.61784],[-119.88467,41.618],[-119.8841,41.61814],[-119.88319,41.61826],[-119.88263,41.61834],[-119.88231,41.61848],[-119.88195,41.6191],[-119.88167,41.61962],[-119.88169,41.6205],[-119.88171,41.62099],[-119.88145,41.62169]]}},{"type":"Feature","properties":{"name":"(unnamed public road)","road_class":"track","source":"OpenStreetMap","source_detail":"osm way 1221891092","source_tile":"171/381","surface_inferred":true},"geometry":{"type":"LineString","coordinates":[[-119.87293,41.75273],[-119.87336,41.75288],[-119.87346,41.75297],[-119.87347,41.75312],[-119.87343,41.75342],[-119.8734,41.75375],[-119.87351,41.75381],[-119.8737,41.75384],[-119.87396,41.75382],[-119.87423,41.75365],[-119.87551,41.75233],[-119.87568,41.75217],[-119.8761,41.75172],[-119.8771,41.75075],[-119.87744,41.75052],[-119.87768,41.75044],[-119.87867,41.75008],[-119.87927,41.74995],[-119.87958,41.7499],[-119.88044,41.74993],[-119.88143,41.75006],[-119.88193,41.75015],[-119.88238,41.75027],[-119.88262,41.75031],[-119.88287,41.75035]]}},{"type":"Feature","properties":{"name":"(unnamed public road)","road_class":"track","source":"OpenStreetMap","source_detail":"osm way 1222075326","source_tile":"171/381","surface_inferred":true},"geometry":{"type":"LineString","coordinates":[[-119.88291,41.61393],[-119.88282,41.61434],[-119.88273,41.61455],[-119.88274,41.61543],[-119.88279,41.61572],[-119.88286,41.61579],[-119.8835,41.61644],[-119.88391,41.61684],[-119.88458,41.61779],[-119.88467,41.618]]}},{"type":"Feature","properties":{"name":"(unnamed public road)","road_class":"track","source":"OpenStreetMap","source_detail":"osm way 1517262088","source_tile":"171/381","surface_inferred":true},"geometry":{"type":"LineString","coordinates":[[-119.85623,41.5568],[-119.85947,41.55642],[-119.86108,41.55622],[-119.86135,41.55624],[-119.86176,41.55642],[-119.8636,41.55727],[-119.86404,41.5574],[-119.86437,41.55743],[-119.8654,41.55737],[-119.86577,41.5573],[-119.86678,41.557],[-119.86903,41.55649],[-119.8707,41.55627],[-119.87092,41.55633],[-119.87121,41.55654],[-119.87151,41.5566],[-119.87317,41.55659],[-119.87362,41.55657],[-119.87381,41.55665],[-119.87434,41.55693],[-119.87466,41.55702],[-119.87532,41.55706],[-119.87561,41.55709],[-119.87691,41.55761],[-119.87728,41.55769],[-119.87761,41.55784],[-119.87832,41.55824],[-119.87905,41.5587],[-119.8795,41.55899],[-119.88001,41.55938],[-119.88029,41.55969],[-119.88065,41.55994],[-119.881,41.56028],[-119.88125,41.56036],[-119.88162,41.56041],[-119.88193,41.56048],[-119.88225,41.56046],[-119.88243,41.56053],[-119.88249,41.5607],[-119.88239,41.5609],[-119.88224,41.56119],[-119.88223,41.56146],[-119.88233,41.56177],[-119.88253,41.56196],[-119.88279,41.56215],[-119.88322,41.5623],[-119.88367,41.56252],[-119.88427,41.56296],[-119.88466,41.56324],[-119.88531,41.56365],[-119.88555,41.56383],[-119.88571,41.56409],[-119.8858,41.56436],[-119.88592,41.56486],[-119.88599,41.56514],[-119.8863,41.56594],[-119.88669,41.56665],[-119.88692,41.56704],[-119.88728,41.56745],[-119.88772,41.56811],[-119.88792,41.56847],[-119.88819,41.56909],[-119.88837,41.56926],[-119.88878,41.56953],[-119.88894,41.56976],[-119.8891,41.56997],[-119.88943,41.57019],[-119.88976,41.57037],[-119.89002,41.57057],[-119.89008,41.57062],[-119.89036,41.57077],[-119.89069,41.57084],[-119.89089,41.57085],[-119.89118,41.57081],[-119.89146,41.57074],[-119.89176,41.57062],[-119.89196,41.57048],[-119.89211,41.57028],[-119.89215,41.57014],[-119.89209,41.56993],[-119.89206,41.56971],[-119.89206,41.56955],[-119.89219,41.5692],[-119.89223,41.56887],[-119.89229,41.56857],[-119.89245,41.56826],[-119.89262,41.56793],[-119.89267,41.56774],[-119.89267,41.56753],[-119.89263,41.56734],[-119.89262,41.56713],[-119.89268,41.56701],[-119.89284,41.56692],[-119.89328,41.56691],[-119.8941,41.56679],[-119.89462,41.5667],[-119.89516,41.5667],[-119.89646,41.56661],[-119.8973,41.5663],[-119.89753,41.56618],[-119.89776,41.56603],[-119.89874,41.56565],[-119.89943,41.5655],[-119.89994,41.56539],[-119.90084,41.56523],[-119.9018,41.56514],[-119.90234,41.56496],[-119.90321,41.56483],[-119.90374,41.56477],[-119.90436,41.56479],[-119.90467,41.56482],[-119.90509,41.56493],[-119.90569,41.56512],[-119.90625,41.56544],[-119.9065,41.56559],[-119.90656,41.56564],[-119.90688,41.56592],[-119.90725,41.56628],[-119.90753,41.56665],[-119.90765,41.56678],[-119.90766,41.56693],[-119.90756,41.56702],[-119.90741,41.56706],[-119.90719,41.56706],[-119.90695,41.567],[-119.90664,41.5669],[-119.90619,41.56673],[-119.90592,41.56665],[-119.90577,41.56665],[-119.90569,41.56669],[-119.9056,41.56673],[-119.90539,41.56692],[-119.90517,41.56715],[-119.90506,41.56743],[-119.9051,41.5677],[-119.90529,41.56789],[-119.9055,41.56796],[-119.90565,41.56799],[-119.9062,41.56799],[-119.90636,41.56795],[-119.90645,41.56786],[-119.90644,41.56779],[-119.90635,41.56772],[-119.90615,41.56768],[-119.90595,41.56769],[-119.9058,41.56775],[-119.90568,41.56784],[-119.9055,41.56796]]}},{"type":"Feature","properties":{"name":"(unnamed public road)","road_class":"track","source":"OpenStreetMap","source_detail":"osm way 1517262097","source_tile":"171/381","surface_inferred":true},"geometry":{"type":"LineString","coordinates":[[-119.87728,41.55769],[-119.87827,41.55768],[-119.88014,41.55758],[-119.88074,41.55774],[-119.88132,41.55775],[-119.88156,41.55785],[-119.88184,41.55782],[-119.88211,41.55765],[-119.88304,41.55754],[-119.884,41.55709],[-119.88466,41.55667],[-119.88478,41.55649],[-119.88501,41.55576],[-119.8851,41.55542],[-119.88505,41.55511],[-119.88511,41.55484],[-119.88509,41.55417],[-119.88503,41.55384],[-119.88506,41.55344],[-119.88503,41.55301],[-119.88509,41.55268],[-119.88516,41.55252],[-119.88523,41.55219],[-119.88525,41.55177],[-119.88543,41.55143],[-119.88569,41.55094],[-119.88593,41.55032],[-119.88606,41.55],[-119.88614,41.54974],[-119.88633,41.54964]]}},{"type":"Feature","properties":{"name":"(unnamed public road)","road_class":"track","source":"OpenStreetMap","source_detail":"osm way 1517262103","source_tile":"171/381","surface_inferred":true},"geometry":{"type":"LineString","coordinates":[[-119.85974,41.53616],[-119.85988,41.53624],[-119.86006,41.53627],[-119.86047,41.53633],[-119.86132,41.53647],[-119.86164,41.53654],[-119.86195,41.53671],[-119.86249,41.53678],[-119.86305,41.53699],[-119.86353,41.53704],[-119.86441,41.5373],[-119.86563,41.53741],[-119.86654,41.53755],[-119.86787,41.53795],[-119.86878,41.53832],[-119.86967,41.53848],[-119.87107,41.53872],[-119.87137,41.5388],[-119.87182,41.53909],[-119.87218,41.53919],[-119.87257,41.53925],[-119.87359,41.53956],[-119.87438,41.53986],[-119.8754,41.54021],[-119.87584,41.54034],[-119.87601,41.54032],[-119.87642,41.54024],[-119.87668,41.54025],[-119.87701,41.54042],[-119.87739,41.54074],[-119.87792,41.5412],[-119.87824,41.54157],[-119.87851,41.54178],[-119.87858,41.54209],[-119.87871,41.54241],[-119.87898,41.54268],[-119.87945,41.543],[-119.8797,41.54306],[-119.88009,41.54335],[-119.88075,41.54386],[-119.88095,41.54393],[-119.88112,41.54416],[-119.88125,41.54448],[-119.88156,41.54468],[-119.88181,41.54479],[-119.88203,41.54504],[-119.88218,41.54527],[-119.88242,41.54541],[-119.88275,41.54556],[-119.88297,41.54587],[-119.88344,41.54634],[-119.88386,41.54676],[-119.88408,41.54696],[-119.88421,41.54715],[-119.88427,41.54736],[-119.8845,41.54757],[-119.88487,41.5479],[-119.88528,41.54829],[-119.88566,41.54862],[-119.8858,41.54882],[-119.88588,41.54913],[-119.88591,41.54944],[-119.88598,41.54959],[-119.88603,41.54964],[-119.88633,41.54964]]}},{"type":"Feature","properties":{"name":"(unnamed public road)","road_class":"track","source":"OpenStreetMap","source_detail":"osm way 1517369943","source_tile":"171/381","surface_inferred":true},"geometry":{"type":"LineString","coordinates":[[-119.92569,41.50328],[-119.9255,41.50338],[-119.9253,41.50355],[-119.92508,41.50373],[-119.92486,41.50384],[-119.92471,41.50395],[-119.92461,41.50415],[-119.92459,41.50431],[-119.92438,41.5049],[-119.92424,41.50512],[-119.92406,41.50554],[-119.92397,41.50587],[-119.92367,41.50646],[-119.92364,41.5066],[-119.92367,41.50677],[-119.92365,41.507],[-119.92353,41.50742],[-119.92336,41.50771],[-119.92315,41.50803],[-119.92309,41.5081],[-119.92284,41.50844],[-119.92282,41.5086],[-119.92278,41.50892],[-119.92278,41.50931],[-119.92279,41.50954],[-119.9227,41.5099],[-119.92266,41.51022],[-119.92261,41.51059],[-119.92258,41.51079],[-119.92264,41.51095],[-119.92268,41.51109],[-119.92277,41.51129],[-119.92292,41.51153],[-119.92303,41.51165],[-119.92312,41.51177],[-119.92323,41.51228],[-119.92331,41.5125],[-119.92331,41.51264],[-119.92336,41.51291],[-119.9234,41.51309],[-119.92334,41.51327],[-119.92339,41.51344],[-119.92339,41.51368],[-119.92328,41.51399],[-119.92315,41.51442],[-119.92282,41.51492],[-119.92251,41.51545],[-119.92225,41.51591],[-119.92213,41.51615],[-119.92196,41.51647],[-119.922,41.51666],[-119.92197,41.51679],[-119.92152,41.51731],[-119.92132,41.5177],[-119.92123,41.51775],[-119.92115,41.51792],[-119.92092,41.5183],[-119.92065,41.51877],[-119.92027,41.51929],[-119.92001,41.5196],[-119.91956,41.51997],[-119.91947,41.52013],[-119.91921,41.52042],[-119.91887,41.52094],[-119.91858,41.52139],[-119.9182,41.5218],[-119.91752,41.52257],[-119.91715,41.52301],[-119.91707,41.52319],[-119.91708,41.52352],[-119.91705,41.52366],[-119.91697,41.52402],[-119.9167,41.52451],[-119.91636,41.52514],[-119.91626,41.5253],[-119.91589,41.5258],[-119.91554,41.52621],[-119.91531,41.52644],[-119.91524,41.52656],[-119.91508,41.52674],[-119.91491,41.52685],[-119.91462,41.52713],[-119.91435,41.5274],[-119.914,41.52769],[-119.91391,41.52783],[-119.91352,41.52834],[-119.91339,41.52841],[-119.91321,41.5288],[-119.91313,41.52904],[-119.91292,41.52936],[-119.91271,41.52984],[-119.91262,41.53016],[-119.91237,41.53064],[-119.91222,41.531],[-119.91205,41.5313],[-119.91172,41.53173],[-119.91163,41.53183],[-119.9114,41.53205],[-119.91112,41.53228],[-119.91089,41.53242],[-119.91064,41.5325],[-119.9104,41.53261],[-119.91007,41.5327],[-119.90975,41.53275],[-119.90927,41.53275],[-119.90906,41.53276],[-119.90886,41.53273],[-119.90878,41.53274],[-119.90859,41.53279],[-119.90841,41.5328],[-119.90776,41.53277],[-119.9075,41.53275],[-119.90711,41.53277],[-119.90688,41.53277],[-119.90672,41.53273],[-119.90654,41.53263],[-119.90626,41.53256],[-119.90617,41.53252],[-119.90601,41.5325],[-119.90553,41.53239],[-119.90543,41.53238],[-119.90529,41.53241],[-119.90503,41.53247],[-119.90489,41.53246],[-119.90456,41.5324],[-119.90431,41.53236],[-119.90415,41.53228],[-119.90379,41.53206],[-119.90361,41.53199],[-119.90324,41.5319],[-119.90301,41.53182],[-119.90287,41.53171],[-119.90279,41.53157],[-119.90273,41.53145],[-119.90261,41.53132],[-119.90254,41.53119],[-119.90249,41.53104],[-119.90238,41.53091],[-119.90225,41.53084],[-119.90207,41.53075],[-119.9019,41.53061],[-119.90173,41.53051],[-119.90122,41.53029],[-119.90104,41.53019],[-119.9008,41.52996],[-119.9007,41.52987],[-119.90065,41.52975],[-119.90058,41.52966],[-119.90041,41.52958],[-119.9003,41.52949],[-119.9002,41.52938],[-119.90016,41.52927],[-119.90004,41.52917],[-119.89989,41.52907],[-119.89978,41.52893],[-119.89957,41.52868],[-119.89951,41.52847],[-119.89942,41.52827],[-119.89934,41.52815],[-119.89923,41.52804],[-119.89913,41.52794],[-119.89904,41.52776],[-119.8989,41.52761],[-119.89876,41.52747],[-119.89862,41.52737],[-119.89842,41.5273],[-119.8982,41.52721],[-119.8979,41.52712],[-119.8978,41.52704],[-119.89761,41.52694],[-119.89745,41.52673],[-119.89726,41.52639],[-119.89718,41.52623],[-119.89714,41.52609],[-119.89701,41.52597],[-119.89696,41.52587],[-119.89687,41.52573],[-119.8967,41.52565],[-119.89653,41.5256],[-119.89638,41.52544],[-119.89617,41.52501],[-119.8961,41.52482],[-119.8961,41.52457],[-119.89608,41.52414],[-119.8961,41.52402],[-119.8962,41.52382],[-119.89627,41.52341],[-119.89629,41.52329],[-119.89632,41.52315],[-119.89628,41.5229],[-119.89628,41.52281],[-119.89624,41.52276],[-119.89619,41.5227],[-119.89609,41.52258],[-119.89576,41.5224],[-119.89562,41.52231],[-119.89556,41.52221],[-119.89541,41.52188],[-119.89536,41.52158],[-119.89537,41.52119],[-119.89534,41.52091],[-119.89526,41.52076],[-119.89517,41.52043],[-119.8951,41.52025],[-119.89503,41.52006],[-119.8949,41.51984],[-119.89482,41.51969],[-119.89475,41.51952],[-119.89472,41.51934],[-119.89464,41.51918],[-119.89449,41.51898],[-119.89437,41.51882],[-119.89418,41.5186],[-119.89405,41.51843],[-119.89396,41.51823],[-119.8939,41.51799],[-119.89382,41.51771],[-119.89381,41.51746],[-119.89386,41.51712],[-119.89389,41.51688],[-119.89398,41.51652],[-119.89401,41.51631],[-119.89402,41.51611],[-119.89401,41.51579],[-119.89401,41.51552],[-119.89397,41.51542],[-119.89385,41.51534],[-119.8937,41.51532],[-119.89346,41.51533],[-119.89317,41.51526],[-119.89251,41.51502],[-119.89217,41.51481],[-119.89201,41.51471],[-119.89185,41.51475],[-119.89159,41.51481],[-119.89138,41.51478],[-119.89115,41.5147],[-119.89099,41.51461],[-119.89086,41.51453],[-119.89066,41.51449],[-119.8904,41.51446],[-119.89017,41.51447],[-119.88998,41.51444],[-119.88985,41.51439],[-119.88977,41.51436],[-119.88948,41.51422],[-119.88915,41.51408],[-119.88896,41.51396],[-119.88879,41.51381],[-119.88863,41.51368],[-119.88845,41.51357],[-119.88826,41.51347],[-119.88809,41.51341],[-119.88799,41.51335],[-119.88775,41.51322],[-119.88752,41.51314],[-119.88733,41.51309],[-119.8872,41.5131],[-119.88706,41.51313],[-119.88693,41.51312],[-119.88672,41.5131],[-119.88651,41.51311],[-119.88612,41.5132],[-119.88582,41.51328],[-119.88552,41.51335],[-119.88531,41.51341],[-119.8851,41.51347],[-119.88493,41.5135],[-119.88459,41.51355],[-119.8843,41.51358],[-119.88418,41.51361],[-119.88376,41.51375],[-119.88348,41.51381],[-119.88322,41.51388],[-119.88306,41.5139],[-119.88274,41.51389],[-119.88216,41.51389],[-119.88177,41.5139],[-119.8812,41.51387],[-119.88095,41.51385],[-119.88011,41.51389],[-119.87988,41.51389],[-119.87951,41.51392],[-119.87925,41.51388],[-119.87896,41.51391],[-119.87869,41.51388],[-119.87842,41.51379],[-119.87803,41.51364],[-119.87779,41.51348],[-119.87767,41.51344]]}},{"type":"Feature","properties":{"name":"(unnamed public road)","road_class":"track","source":"OpenStreetMap","source_detail":"osm way 1517369947","source_tile":"171/382","surface_inferred":true},"geometry":{"type":"LineString","coordinates":[[-119.8872,41.5131],[-119.88732,41.51304],[-119.88742,41.5129],[-119.88752,41.51283],[-119.8876,41.5128],[-119.88781,41.51283],[-119.88796,41.51284],[-119.88809,41.51284],[-119.88826,41.51289],[-119.88836,41.51293],[-119.88848,41.51295],[-119.88863,41.51293],[-119.88882,41.51289],[-119.88905,41.51287],[-119.88928,41.51266],[-119.88949,41.51242],[-119.88965,41.51232],[-119.88975,41.51224],[-119.88986,41.5121],[-119.89004,41.51195],[-119.89015,41.51184],[-119.89029,41.51163],[-119.89042,41.51139],[-119.89047,41.51128],[-119.89049,41.51108],[-119.89051,41.51093],[-119.89058,41.5108],[-119.89077,41.5106],[-119.89099,41.51013],[-119.8912,41.51002],[-119.89173,41.50974],[-119.89188,41.50966],[-119.89212,41.50959],[-119.89229,41.50949],[-119.89229,41.50939],[-119.89222,41.50928],[-119.89222,41.50921],[-119.89228,41.50915],[-119.89245,41.50912],[-119.89271,41.50907],[-119.89315,41.50892],[-119.89357,41.50885],[-119.89416,41.50866],[-119.89436,41.50857],[-119.89452,41.50854],[-119.89468,41.50848],[-119.89491,41.50832],[-119.89497,41.50818],[-119.89505,41.50809],[-119.89524,41.50797],[-119.89538,41.50795],[-119.89544,41.50792],[-119.8958,41.50792],[-119.89594,41.50786],[-119.89624,41.50772],[-119.89634,41.50745],[-119.89643,41.50727],[-119.89639,41.50709],[-119.89624,41.50683],[-119.89608,41.50663],[-119.89592,41.50652],[-119.89579,41.50646],[-119.89548,41.50638],[-119.89509,41.50633],[-119.89501,41.50633],[-119.89458,41.50622],[-119.89434,41.50619],[-119.89394,41.50619],[-119.8936,41.50616],[-119.89317,41.50612],[-119.89297,41.50611],[-119.89257,41.50602],[-119.89225,41.50592],[-119.89182,41.50583],[-119.89131,41.50572],[-119.89091,41.50563],[-119.89073,41.5056],[-119.8901,41.50558],[-119.88973,41.50561],[-119.88935,41.50563],[-119.88926,41.50565],[-119.88911,41.50576],[-119.88904,41.50579],[-119.88892,41.50577],[-119.88873,41.50573],[-119.88844,41.50572],[-119.88809,41.50569],[-119.88789,41.50569],[-119.88774,41.50571],[-119.88763,41.50575],[-119.88748,41.50583],[-119.88697,41.50609],[-119.88669,41.5062],[-119.88645,41.50633],[-119.88618,41.50646],[-119.88596,41.50654],[-119.88583,41.50659],[-119.88565,41.50661],[-119.88534,41.50662],[-119.88518,41.50665],[-119.88495,41.50672],[-119.88453,41.50687],[-119.88417,41.50696],[-119.8839,41.50704],[-119.88372,41.50707],[-119.88349,41.50704],[-119.88304,41.50695],[-119.88265,41.50691],[-119.88248,41.5069],[-119.88216,41.50691],[-119.88187,41.5069],[-119.88117,41.5068],[-119.88109,41.50678],[-119.88098,41.50669],[-119.88064,41.50642],[-119.88048,41.50622],[-119.88024,41.50583],[-119.88003,41.50548],[-119.87991,41.50518],[-119.87982,41.50485],[-119.87971,41.5044],[-119.87969,41.50429],[-119.8797,41.5042],[-119.87976,41.5041],[-119.88004,41.50374],[-119.88021,41.50351],[-119.88022,41.50347],[-119.88057,41.50311],[-119.88082,41.50284],[-119.88113,41.50258],[-119.88115,41.50252],[-119.88112,41.50245],[-119.88097,41.50217],[-119.88083,41.50183],[-119.88078,41.5017],[-119.88078,41.50154],[-119.8807,41.50117],[-119.88064,41.50097],[-119.88059,41.50088],[-119.8805,41.50072],[-119.88046,41.50067],[-119.88045,41.50058],[-119.88042,41.50048],[-119.88032,41.50042],[-119.88014,41.50037],[-119.87995,41.50037],[-119.87965,41.50041],[-119.87931,41.50035],[-119.87917,41.50037],[-119.87906,41.50036],[-119.87889,41.50038],[-119.87871,41.50044],[-119.87849,41.50051],[-119.87826,41.50052],[-119.87812,41.50051],[-119.87784,41.50049],[-119.87747,41.50055],[-119.87715,41.50064],[-119.8769,41.50065],[-119.87674,41.50067],[-119.87663,41.50075],[-119.87648,41.50092],[-119.87633,41.50112],[-119.87615,41.50125],[-119.87588,41.50135],[-119.87551,41.50137],[-119.87524,41.50134],[-119.875,41.50124],[-119.87475,41.5012],[-119.87457,41.50121],[-119.87436,41.50129],[-119.87412,41.50147],[-119.87378,41.50171],[-119.8733,41.5019],[-119.87322,41.50195],[-119.8731,41.50197],[-119.87252,41.50196],[-119.8722,41.50195],[-119.87206,41.50193],[-119.87197,41.50185],[-119.87185,41.50169],[-119.87158,41.50135],[-119.87148,41.50124],[-119.87145,41.50115],[-119.87136,41.50108],[-119.87124,41.50098],[-119.87113,41.50085],[-119.87098,41.50071],[-119.87087,41.50055],[-119.8706,41.50016],[-119.87011,41.49945],[-119.86998,41.49929],[-119.86988,41.49911],[-119.86974,41.49881],[-119.8697,41.49868],[-119.8697,41.49855],[-119.86978,41.49833],[-119.86977,41.49823],[-119.86962,41.49801],[-119.86946,41.49787],[-119.86909,41.49773],[-119.86859,41.4975],[-119.86814,41.49721],[-119.86808,41.49715],[-119.86799,41.49715],[-119.86787,41.49718],[-119.86775,41.49717],[-119.86758,41.49709],[-119.86742,41.49695],[-119.86732,41.4968],[-119.86727,41.49662]]}},{"type":"Feature","properties":{"name":"Mosquito Road","road_class":"unclassified","surface":"unpaved","source":"OpenStreetMap","source_detail":"osm way 1021337272","source_tile":"171/381"},"geometry":{"type":"LineString","coordinates":[[-119.86912,41.63308],[-119.86911,41.63351],[-119.8691,41.63371],[-119.86906,41.63494],[-119.86896,41.63665],[-119.8689,41.63759],[-119.86885,41.63853],[-119.86879,41.64001],[-119.86873,41.64148],[-119.8687,41.64256],[-119.86867,41.64364],[-119.86864,41.64549],[-119.86861,41.64733],[-119.86859,41.65018],[-119.86857,41.65304],[-119.86856,41.65538],[-119.86855,41.66604],[-119.86866,41.67995],[-119.86868,41.68354],[-119.86853,41.69816],[-119.86847,41.70784],[-119.86843,41.71519],[-119.86844,41.72205],[-119.86844,41.73032],[-119.86842,41.74175],[-119.86836,41.75082],[-119.86835,41.75194],[-119.86834,41.75201],[-119.86833,41.75208],[-119.86831,41.75214],[-119.86827,41.75221],[-119.86823,41.75227],[-119.86819,41.75233],[-119.86813,41.75238],[-119.86807,41.75243],[-119.868,41.75248],[-119.8679,41.75253],[-119.86779,41.75258],[-119.86767,41.75262],[-119.86756,41.75265],[-119.86744,41.75268],[-119.86732,41.7527],[-119.86716,41.75272],[-119.86698,41.75273],[-119.8668,41.75274],[-119.86131,41.75268],[-119.86064,41.75267],[-119.86053,41.75267],[-119.86043,41.75268],[-119.86033,41.7527],[-119.86023,41.75272],[-119.86013,41.75275],[-119.86003,41.75279],[-119.85993,41.75283],[-119.85984,41.75288],[-119.85906,41.75337],[-119.85897,41.75346],[-119.85888,41.75355],[-119.8588,41.75364],[-119.85873,41.75374],[-119.85867,41.75384],[-119.85861,41.75396],[-119.85857,41.75408],[-119.85854,41.75419],[-119.85853,41.75432],[-119.85852,41.75444],[-119.85798,41.76923],[-119.85797,41.76935],[-119.85794,41.76946],[-119.85791,41.76955],[-119.8579,41.76958],[-119.85785,41.76969],[-119.85778,41.7698],[-119.85771,41.7699],[-119.85763,41.77001],[-119.85754,41.7701],[-119.85744,41.77019],[-119.85733,41.77028],[-119.8572,41.77036],[-119.85707,41.77044],[-119.85694,41.77051],[-119.85679,41.77057],[-119.85664,41.77062],[-119.85649,41.77066],[-119.85633,41.7707],[-119.85617,41.77072],[-119.85601,41.77074],[-119.83098,41.77062],[-119.83022,41.77061],[-119.83009,41.77062],[-119.82997,41.77064],[-119.82985,41.77067],[-119.82973,41.77071],[-119.82962,41.77076],[-119.82952,41.77081],[-119.82942,41.77087],[-119.82934,41.77094],[-119.82926,41.77102],[-119.82919,41.7711],[-119.82913,41.77118],[-119.82908,41.77127],[-119.82905,41.77136],[-119.82902,41.77145],[-119.82901,41.77155],[-119.82901,41.77164],[-119.8291,41.77425],[-119.82914,41.77626],[-119.82914,41.77639],[-119.82913,41.77652],[-119.82911,41.77665],[-119.82908,41.77678],[-119.82904,41.77691],[-119.82899,41.77704],[-119.82892,41.77717],[-119.82885,41.7773],[-119.82876,41.77742],[-119.82866,41.77754],[-119.82737,41.77897],[-119.82723,41.77914],[-119.8271,41.77932],[-119.82698,41.7795],[-119.82684,41.77972],[-119.82671,41.77994],[-119.82658,41.78017],[-119.82464,41.78381],[-119.82456,41.78396],[-119.82449,41.78412],[-119.82442,41.78428],[-119.82437,41.78445],[-119.82432,41.78462],[-119.82428,41.78479],[-119.82425,41.78496],[-119.82422,41.78514],[-119.82421,41.78531],[-119.82418,41.7919],[-119.82419,41.79194],[-119.82423,41.79202],[-119.82427,41.79205],[-119.82432,41.79209],[-119.82437,41.79211],[-119.82443,41.79213],[-119.82661,41.79259],[-119.82668,41.79261],[-119.82674,41.79264],[-119.8268,41.79267],[-119.82685,41.79271],[-119.82688,41.79275],[-119.82691,41.79279],[-119.82693,41.79283],[-119.82694,41.79287],[-119.82705,41.79329],[-119.82709,41.7934],[-119.82713,41.79352],[-119.82718,41.79365],[-119.82723,41.79377],[-119.82902,41.79819],[-119.82907,41.79831],[-119.8291,41.79843],[-119.82912,41.79856],[-119.82914,41.79869],[-119.82914,41.79882],[-119.82914,41.79896],[-119.82911,41.79921],[-119.8291,41.79946],[-119.82909,41.79974],[-119.82909,41.79998],[-119.82909,41.80025],[-119.82915,41.80316],[-119.82915,41.80322],[-119.82914,41.80327],[-119.82912,41.80333],[-119.8291,41.80339],[-119.82907,41.80344],[-119.82902,41.80349],[-119.82897,41.80354],[-119.82892,41.80358],[-119.82886,41.80362],[-119.82433,41.80676],[-119.82427,41.80683],[-119.82421,41.80689],[-119.82416,41.80697],[-119.82412,41.80705],[-119.82408,41.80713],[-119.82406,41.80721],[-119.82405,41.80729],[-119.82402,41.80767],[-119.82399,41.80804],[-119.82394,41.80841],[-119.82389,41.80878],[-119.82384,41.80892],[-119.82378,41.80905],[-119.82371,41.80918],[-119.82365,41.80928],[-119.82358,41.80938],[-119.82351,41.80947],[-119.82343,41.80956],[-119.82188,41.81118],[-119.8218,41.81129],[-119.82173,41.81141],[-119.82167,41.81153],[-119.82162,41.81164],[-119.82159,41.81176],[-119.82156,41.81187],[-119.82154,41.81199],[-119.82081,41.81626],[-119.82073,41.81666],[-119.82066,41.81706],[-119.82059,41.81751],[-119.82052,41.81796],[-119.82042,41.81853],[-119.82031,41.8191],[-119.8202,41.81967],[-119.81965,41.82225],[-119.81958,41.8226],[-119.81946,41.82313],[-119.81934,41.82365],[-119.8192,41.82434],[-119.81907,41.82503],[-119.81872,41.82685],[-119.8184,41.8284],[-119.81804,41.83019],[-119.81661,41.83731],[-119.81543,41.84248],[-119.81543,41.84252],[-119.81543,41.84256],[-119.81545,41.84259],[-119.81547,41.84264],[-119.81551,41.84267]]}},{"type":"Feature","properties":{"name":"(unnamed public road)","road_class":"track","source":"OpenStreetMap","source_detail":"osm way 1221891099","source_tile":"171/381","surface_inferred":true},"geometry":{"type":"LineString","coordinates":[[-119.8576,41.77672],[-119.8576,41.77639],[-119.85745,41.77581],[-119.85732,41.77536],[-119.85731,41.77503],[-119.85728,41.77418],[-119.85729,41.77351],[-119.85736,41.77303],[-119.85755,41.77251],[-119.85784,41.77203],[-119.85795,41.77131],[-119.85802,41.77093],[-119.85802,41.77074],[-119.85801,41.76997],[-119.85791,41.76955]]}},{"type":"Feature","properties":{"name":"(unnamed public road)","road_class":"track","surface":"unpaved","source":"OpenStreetMap","source_detail":"osm way 1221891108","source_tile":"171/381"},"geometry":{"type":"LineString","coordinates":[[-119.75442,41.79563],[-119.75441,41.79555],[-119.75436,41.79529],[-119.75422,41.7948],[-119.75423,41.79463],[-119.75435,41.79418],[-119.75435,41.7939],[-119.75438,41.79368],[-119.75444,41.79345],[-119.7545,41.79335],[-119.75465,41.79308],[-119.75468,41.79285],[-119.75465,41.79265],[-119.75451,41.79228],[-119.75432,41.79194],[-119.75429,41.79186],[-119.75427,41.79158],[-119.75427,41.79129],[-119.75421,41.7906],[-119.75422,41.79037],[-119.75429,41.79013],[-119.75439,41.78992],[-119.75443,41.7897],[-119.7544,41.78937],[-119.75436,41.78919],[-119.75418,41.78876],[-119.75415,41.78858],[-119.75414,41.78825],[-119.7543,41.7874],[-119.75436,41.78679],[-119.75441,41.78648],[-119.75441,41.78627],[-119.75437,41.78606],[-119.75431,41.7859],[-119.75393,41.78547],[-119.7539,41.78539],[-119.75372,41.78521],[-119.75338,41.78477],[-119.75333,41.7846],[-119.75316,41.78444],[-119.75292,41.78422],[-119.75242,41.78368],[-119.75217,41.78342],[-119.75192,41.78322],[-119.75179,41.78315],[-119.75098,41.78259],[-119.75064,41.78237],[-119.75038,41.78213],[-119.74978,41.78149],[-119.74958,41.78122],[-119.74921,41.78084],[-119.7489,41.78043],[-119.74854,41.78],[-119.74798,41.77944],[-119.74752,41.77901],[-119.7474,41.77883],[-119.74725,41.77856],[-119.7471,41.77836],[-119.74695,41.77823],[-119.74649,41.77788],[-119.74598,41.77761],[-119.74558,41.77732],[-119.74542,41.77721],[-119.74485,41.77673],[-119.74471,41.77658],[-119.74445,41.77623],[-119.74402,41.7758],[-119.744,41.77576],[-119.74351,41.77528],[-119.74289,41.7745],[-119.74248,41.77388],[-119.74249,41.77359],[-119.74267,41.77321],[-119.74295,41.7727],[-119.74319,41.77234],[-119.74339,41.7721],[-119.74392,41.77131],[-119.74442,41.77024],[-119.74449,41.76994],[-119.7446,41.76968],[-119.74485,41.76924],[-119.74548,41.76829],[-119.74579,41.76779],[-119.74586,41.76753],[-119.7459,41.76714],[-119.74592,41.76701],[-119.74599,41.76679],[-119.74612,41.76651],[-119.74636,41.76612],[-119.74666,41.76573],[-119.74676,41.76553],[-119.74694,41.76503],[-119.74743,41.76394],[-119.74758,41.76324],[-119.74771,41.76278],[-119.74774,41.76237],[-119.74778,41.76224],[-119.74813,41.76149],[-119.74838,41.76102],[-119.74854,41.7606],[-119.74865,41.76012],[-119.74865,41.75992],[-119.74879,41.75946],[-119.74908,41.75889],[-119.74925,41.75835],[-119.74947,41.75788],[-119.74962,41.75736],[-119.7497,41.75713],[-119.75003,41.75644],[-119.75022,41.75592],[-119.75097,41.75434],[-119.75101,41.75427],[-119.75113,41.75413],[-119.75119,41.75404],[-119.75123,41.75393],[-119.75136,41.75363],[-119.75151,41.75321],[-119.75159,41.75296],[-119.75177,41.75255],[-119.75184,41.75236],[-119.75188,41.75229],[-119.75189,41.75222],[-119.75201,41.75169],[-119.75207,41.75151],[-119.75228,41.75095],[-119.75249,41.75025],[-119.75273,41.74957],[-119.75276,41.74946],[-119.75279,41.74933],[-119.75283,41.74924],[-119.75306,41.74876],[-119.7531,41.74866],[-119.75314,41.74855],[-119.75319,41.74844],[-119.75326,41.74832],[-119.75348,41.74806],[-119.75355,41.74796],[-119.75361,41.74787],[-119.75369,41.74771],[-119.75378,41.74754],[-119.75387,41.74736],[-119.754,41.74714],[-119.75418,41.74687],[-119.75429,41.74671],[-119.75434,41.74662],[-119.75439,41.74651],[-119.7544,41.74643],[-119.7544,41.74632],[-119.75443,41.74625],[-119.75458,41.74595],[-119.75466,41.74577],[-119.75471,41.7456],[-119.75473,41.74546],[-119.75479,41.74533],[-119.75486,41.74521],[-119.75502,41.74505],[-119.75514,41.74492],[-119.7552,41.74481],[-119.75524,41.74469],[-119.75527,41.74454],[-119.75532,41.74432],[-119.75533,41.74405],[-119.75534,41.74385],[-119.75537,41.7437],[-119.75541,41.7436],[-119.75551,41.74345],[-119.75562,41.74331],[-119.7557,41.7432],[-119.75578,41.74312],[-119.75589,41.74304],[-119.75608,41.74292],[-119.75615,41.74285],[-119.75628,41.74272],[-119.75636,41.74259],[-119.75641,41.7425],[-119.75661,41.74222],[-119.75686,41.74187],[-119.75703,41.74158],[-119.75723,41.74131],[-119.75739,41.74112],[-119.75773,41.74078],[-119.75802,41.74046],[-119.75818,41.7403],[-119.75831,41.7402],[-119.75844,41.74009],[-119.75852,41.73997],[-119.75865,41.73978],[-119.75876,41.73958],[-119.75891,41.73937],[-119.75906,41.73922],[-119.75923,41.73907],[-119.75937,41.73892],[-119.75951,41.73873],[-119.75971,41.7384],[-119.75982,41.73824],[-119.75996,41.73806],[-119.76005,41.73794],[-119.76014,41.73779],[-119.76025,41.73756],[-119.76038,41.73737],[-119.7605,41.73719],[-119.76065,41.73697],[-119.76072,41.73681],[-119.76076,41.73666],[-119.76082,41.73643],[-119.76088,41.73616],[-119.76089,41.7361],[-119.76093,41.736],[-119.76107,41.73571],[-119.76113,41.73551],[-119.76118,41.73526],[-119.7612,41.7351],[-119.7612,41.73496],[-119.76118,41.73476],[-119.76116,41.73463],[-119.76118,41.73452],[-119.76124,41.7344],[-119.76131,41.7343],[-119.76149,41.73415],[-119.76189,41.73382],[-119.76196,41.73375],[-119.76203,41.73365],[-119.7622,41.73345],[-119.76237,41.73327],[-119.76248,41.7331],[-119.76258,41.73295],[-119.76265,41.73281],[-119.76271,41.73264],[-119.76275,41.73251],[-119.7628,41.73231],[-119.76289,41.73195],[-119.76295,41.73162],[-119.763,41.73134],[-119.76301,41.73101],[-119.76304,41.73086],[-119.76307,41.7307],[-119.76318,41.73032],[-119.76332,41.7297],[-119.76341,41.72929],[-119.76366,41.72835],[-119.76372,41.72812],[-119.76377,41.72798],[-119.76386,41.72783],[-119.76402,41.7276],[-119.7641,41.72748],[-119.76414,41.7274],[-119.76416,41.72733],[-119.76419,41.72714],[-119.76425,41.727],[-119.76435,41.7268],[-119.76442,41.72662],[-119.76449,41.72634],[-119.76459,41.726],[-119.76465,41.72579],[-119.76468,41.7256],[-119.76472,41.72538],[-119.76475,41.72495],[-119.76477,41.72486],[-119.76482,41.72469],[-119.76486,41.72437],[-119.76489,41.72418],[-119.76489,41.72398],[-119.76491,41.72363],[-119.76495,41.72319],[-119.76494,41.72241],[-119.76494,41.72226],[-119.76494,41.72222]]}},{"type":"Feature","properties":{"name":"(unnamed public road)","road_class":"track","source":"OpenStreetMap","source_detail":"osm way 14378360","source_tile":"171/382","surface_inferred":true},"geometry":{"type":"LineString","coordinates":[[-119.56563,41.45635],[-119.5663,41.45747],[-119.56672,41.45751],[-119.56697,41.45754],[-119.56816,41.45747],[-119.56986,41.45831],[-119.57001,41.4585],[-119.57028,41.45998],[-119.5705,41.46026],[-119.57059,41.46055],[-119.57084,41.46094],[-119.5715,41.46197],[-119.57165,41.46359],[-119.57208,41.46414],[-119.57211,41.46435],[-119.57293,41.46524],[-119.57384,41.4657],[-119.57497,41.46668],[-119.57524,41.46712],[-119.57585,41.46769],[-119.57631,41.46794],[-119.57974,41.46917],[-119.5819,41.47004],[-119.58369,41.47025],[-119.58438,41.4709],[-119.58473,41.47123],[-119.58617,41.47116],[-119.58664,41.47114],[-119.58683,41.47121],[-119.58798,41.47169],[-119.58871,41.47207],[-119.5892,41.47216],[-119.58928,41.47221],[-119.58978,41.47244],[-119.59035,41.47287],[-119.59336,41.47422],[-119.59397,41.47459],[-119.59482,41.47541],[-119.59485,41.47564],[-119.59494,41.47571],[-119.59516,41.47671],[-119.5954,41.47873],[-119.59528,41.47891],[-119.59522,41.48035],[-119.59534,41.48074],[-119.59571,41.4812],[-119.59626,41.48168],[-119.59626,41.48177],[-119.59729,41.48289],[-119.59757,41.48328],[-119.59769,41.48371],[-119.59778,41.48376],[-119.59781,41.48401],[-119.59817,41.48494],[-119.59817,41.48497],[-119.59851,41.48563],[-119.60018,41.4875],[-119.60088,41.4881],[-119.60146,41.48835],[-119.60266,41.48871],[-119.60347,41.48894],[-119.60399,41.48924],[-119.6052,41.49045],[-119.60609,41.49201],[-119.60636,41.49258],[-119.60688,41.4932],[-119.60855,41.49432],[-119.61031,41.49502],[-119.6105,41.49527],[-119.61056,41.49569],[-119.61056,41.49579],[-119.61056,41.49589],[-119.61038,41.49614],[-119.61047,41.49685],[-119.61126,41.49802],[-119.61199,41.49864],[-119.61217,41.4999],[-119.61208,41.50123],[-119.61187,41.50162],[-119.61159,41.50199],[-119.61135,41.50302],[-119.60986,41.50494],[-119.60977,41.50519],[-119.60983,41.50585],[-119.61001,41.50615],[-119.60995,41.50661],[-119.60971,41.50718],[-119.60977,41.50766],[-119.61038,41.50851],[-119.61065,41.50917],[-119.61075,41.50921],[-119.6109,41.5113],[-119.61084,41.5121],[-119.61102,41.51326],[-119.61081,41.51461],[-119.61063,41.51523],[-119.61063,41.51608],[-119.61075,41.51662],[-119.61127,41.51749],[-119.6113,41.51772],[-119.61191,41.51845],[-119.612,41.51882],[-119.61231,41.51937],[-119.61249,41.51948],[-119.61249,41.51957],[-119.6131,41.52005],[-119.61407,41.52058],[-119.61748,41.52321],[-119.61998,41.52485],[-119.62104,41.52581],[-119.6219,41.52663],[-119.62264,41.52777],[-119.62281,41.52803],[-119.624,41.5291],[-119.62494,41.52979],[-119.62604,41.53129],[-119.62641,41.53169],[-119.62735,41.53242],[-119.62862,41.53295],[-119.63017,41.53345],[-119.63093,41.53361],[-119.63133,41.53389],[-119.63288,41.53462],[-119.63489,41.53617],[-119.6358,41.53768],[-119.63653,41.53846],[-119.63709,41.53897],[-119.63759,41.53942],[-119.63787,41.53977],[-119.63796,41.54009],[-119.63765,41.54091],[-119.63744,41.5413],[-119.63707,41.54155],[-119.63537,41.54205],[-119.63516,41.54221],[-119.63506,41.54338],[-119.63534,41.54395],[-119.63592,41.54441],[-119.63625,41.54489],[-119.63646,41.54548],[-119.63637,41.5464],[-119.63555,41.54818],[-119.63527,41.54857],[-119.63497,41.54935],[-119.63436,41.5506],[-119.63296,41.55291],[-119.63238,41.55355],[-119.63217,41.55394],[-119.63141,41.55437],[-119.63049,41.55456],[-119.6297,41.55481],[-119.62958,41.55478]]}},{"type":"Feature","properties":{"name":"(unnamed public road)","road_class":"track","source":"OpenStreetMap","source_detail":"osm way 197858130","source_tile":"171/381","surface_inferred":true},"geometry":{"type":"LineString","coordinates":[[-119.79654,41.67271],[-119.80692,41.68673],[-119.80775,41.68785],[-119.80919,41.68979],[-119.80932,41.69021],[-119.80976,41.6913],[-119.81185,41.69611],[-119.81221,41.69739],[-119.813,41.69891],[-119.81384,41.70111],[-119.81538,41.70447],[-119.81726,41.70874],[-119.82112,41.71766],[-119.82237,41.72064],[-119.82295,41.7225],[-119.82373,41.72497],[-119.82932,41.7379],[-119.82936,41.73798],[-119.83198,41.74405],[-119.8322,41.74455]]}},{"type":"Feature","properties":{"name":"(unnamed public road)","road_class":"track","source":"OpenStreetMap","source_detail":"osm way 356360577","source_tile":"172/382","surface_inferred":true},"geometry":{"type":"LineString","coordinates":[[-119.52866,41.50441],[-119.52824,41.50446],[-119.52796,41.50447],[-119.52772,41.50451],[-119.52758,41.50458],[-119.52744,41.50465],[-119.52719,41.50489],[-119.52717,41.50509],[-119.52714,41.5053],[-119.52722,41.50556],[-119.52724,41.50573],[-119.52735,41.50616],[-119.52748,41.50645],[-119.52746,41.50685],[-119.5274,41.50707],[-119.52714,41.50732],[-119.52696,41.50744],[-119.52677,41.50765],[-119.52666,41.50779],[-119.52647,41.50786],[-119.52628,41.50791],[-119.52606,41.50802],[-119.52572,41.50827],[-119.52541,41.50855],[-119.52492,41.5092],[-119.52478,41.5094],[-119.52471,41.50952],[-119.5247,41.50957],[-119.52471,41.50962],[-119.52479,41.5097],[-119.52488,41.5098],[-119.52512,41.51009],[-119.52557,41.51049],[-119.52607,41.51091],[-119.52649,41.51126],[-119.52712,41.51175],[-119.52736,41.51194],[-119.52764,41.51214],[-119.52793,41.51241],[-119.52803,41.51253],[-119.52816,41.51261],[-119.5284,41.51269],[-119.5285,41.51273],[-119.52858,41.5128],[-119.52861,41.51289],[-119.52866,41.51295],[-119.52881,41.51302],[-119.52897,41.5131],[-119.52919,41.51318],[-119.52932,41.51325],[-119.52963,41.51351],[-119.53004,41.51387],[-119.53075,41.51445],[-119.5309,41.51454],[-119.53121,41.51487],[-119.532,41.51533],[-119.53219,41.51542],[-119.53246,41.51576],[-119.534,41.51811],[-119.53454,41.51867],[-119.53491,41.51922],[-119.53531,41.52037],[-119.53599,41.52146],[-119.53691,41.52263],[-119.53719,41.52317],[-119.53793,41.52383],[-119.53893,41.52456],[-119.53928,41.52503],[-119.54025,41.52617],[-119.54056,41.52651],[-119.54131,41.52714],[-119.54178,41.52772],[-119.54199,41.52827],[-119.5419,41.52919],[-119.54155,41.52993],[-119.54114,41.53106],[-119.53946,41.53226],[-119.53744,41.53389],[-119.53682,41.53449],[-119.53649,41.53648],[-119.53595,41.53987]]}},{"type":"Feature","properties":{"name":"(unnamed public road)","road_class":"track","source":"OpenStreetMap","source_detail":"osm way 722827169","source_tile":"172/382","surface_inferred":true},"geometry":{"type":"LineString","coordinates":[[-119.53595,41.53987],[-119.53579,41.53968],[-119.53537,41.53958],[-119.53451,41.54003],[-119.53346,41.5408],[-119.53252,41.54155],[-119.53156,41.54206],[-119.53069,41.54244],[-119.52986,41.54272],[-119.52946,41.54288],[-119.52919,41.54301],[-119.52894,41.54305],[-119.52866,41.54305],[-119.52835,41.54308],[-119.52811,41.54311],[-119.5279,41.54306],[-119.5276,41.5431],[-119.52601,41.5434],[-119.5257,41.54341],[-119.52545,41.54335],[-119.52507,41.54323],[-119.52256,41.54249],[-119.52083,41.54204],[-119.52057,41.54199],[-119.52027,41.54196],[-119.51861,41.54195],[-119.51833,41.54191],[-119.51703,41.54155],[-119.51588,41.54119],[-119.51393,41.54073],[-119.51174,41.53988],[-119.50903,41.53929],[-119.50869,41.53918],[-119.5085,41.53907],[-119.508,41.53851],[-119.50776,41.53836],[-119.5073,41.53826],[-119.50663,41.53819],[-119.50619,41.53808],[-119.50474,41.53762],[-119.50448,41.53749],[-119.50346,41.53676],[-119.50307,41.53638],[-119.50274,41.53612],[-119.50205,41.53563],[-119.50183,41.53543],[-119.50172,41.53525],[-119.50136,41.53444],[-119.50109,41.53413],[-119.50025,41.5334],[-119.49994,41.53321],[-119.49913,41.53277],[-119.49883,41.53261],[-119.49837,41.53222],[-119.49817,41.53205],[-119.49782,41.53191],[-119.49749,41.5317],[-119.49699,41.5313],[-119.49657,41.53084],[-119.49602,41.52961],[-119.49571,41.52922],[-119.49428,41.52835],[-119.49315,41.52741],[-119.49285,41.52684],[-119.49251,41.52295],[-119.49234,41.52196],[-119.49227,41.52151],[-119.49208,41.52014],[-119.4922,41.51909],[-119.49208,41.51852],[-119.49184,41.51801],[-119.49156,41.51763],[-119.48971,41.516],[-119.4894,41.5155],[-119.48897,41.5139],[-119.48855,41.51289],[-119.48846,41.5128],[-119.48788,41.51219],[-119.4876,41.51164],[-119.48757,41.51143],[-119.48724,41.51095],[-119.48709,41.51029],[-119.48658,41.50909],[-119.48639,41.50873],[-119.48605,41.5084],[-119.48404,41.50709],[-119.48371,41.50679],[-119.48371,41.5064],[-119.48398,41.50491],[-119.48383,41.50455],[-119.4835,41.50425],[-119.48307,41.50386],[-119.48215,41.50332],[-119.48154,41.50281],[-119.48075,41.50149],[-119.48017,41.50087],[-119.47953,41.50026],[-119.47914,41.4999],[-119.47928,41.49818],[-119.47935,41.49697],[-119.47963,41.49631],[-119.48014,41.49601],[-119.48063,41.49592],[-119.48163,41.49546],[-119.48246,41.49496],[-119.48282,41.49457],[-119.48371,41.49397],[-119.48434,41.49386],[-119.48522,41.49343],[-119.48626,41.49263],[-119.48665,41.49217],[-119.48701,41.49192],[-119.48741,41.49165],[-119.48785,41.49146],[-119.48824,41.49132],[-119.48843,41.49105],[-119.48877,41.49077],[-119.48916,41.49065],[-119.49089,41.49047],[-119.4911,41.49045],[-119.49126,41.4904],[-119.49149,41.4903],[-119.49164,41.49015],[-119.49177,41.48993],[-119.49187,41.48982],[-119.49255,41.48924],[-119.49325,41.48864],[-119.49351,41.48844],[-119.4935,41.48822],[-119.4929,41.48756],[-119.49259,41.48753],[-119.49226,41.48738],[-119.49161,41.48695],[-119.49104,41.48687],[-119.4888,41.48605],[-119.47617,41.48137],[-119.47595,41.48129],[-119.47557,41.48109],[-119.47527,41.48083],[-119.4735,41.4788],[-119.47293,41.47841],[-119.47049,41.4772],[-119.46812,41.47583],[-119.46731,41.47527],[-119.46553,41.47404],[-119.46499,41.47382],[-119.46417,41.47372],[-119.46368,41.47356],[-119.4621,41.47347],[-119.46,41.47306],[-119.45912,41.47279],[-119.45808,41.47288],[-119.45757,41.47313],[-119.45693,41.47375],[-119.4565,41.474],[-119.45584,41.47409],[-119.45483,41.47391],[-119.45292,41.47308],[-119.45103,41.47256],[-119.4503,41.472],[-119.44978,41.47138],[-119.4478,41.46979],[-119.4475,41.46951]]}},{"type":"Feature","properties":{"name":"Jeep Trail","road_class":"track","tracktype":"grade5","source":"OpenStreetMap","source_detail":"osm way 798981005","source_tile":"171/381","surface_inferred":true},"geometry":{"type":"LineString","coordinates":[[-119.88033,41.59324],[-119.88029,41.59323],[-119.88019,41.59318],[-119.88015,41.59312],[-119.88004,41.59289],[-119.87991,41.59265],[-119.87984,41.59243],[-119.87974,41.59225],[-119.87968,41.59224],[-119.87956,41.59223],[-119.87949,41.59221],[-119.87899,41.59182],[-119.87888,41.59172],[-119.87867,41.59142],[-119.87857,41.59132],[-119.87838,41.59124],[-119.87815,41.59122],[-119.87781,41.59126],[-119.87732,41.59134],[-119.87684,41.59134],[-119.87664,41.59132],[-119.87638,41.59125],[-119.87608,41.59106],[-119.87598,41.59101],[-119.87588,41.59099],[-119.87566,41.59098],[-119.87552,41.59095],[-119.87532,41.59082],[-119.87473,41.59036],[-119.87393,41.58959],[-119.87366,41.58925],[-119.87351,41.5891],[-119.87343,41.58905],[-119.87333,41.58901],[-119.87294,41.58897],[-119.87243,41.58874],[-119.87236,41.58869],[-119.87233,41.58864],[-119.87232,41.58858],[-119.87242,41.58806],[-119.87245,41.58773],[-119.87238,41.58718],[-119.8725,41.58673],[-119.87249,41.58655],[-119.87245,41.58644],[-119.87211,41.58572],[-119.87196,41.58551],[-119.87189,41.58538],[-119.87184,41.58508],[-119.87179,41.58496],[-119.87153,41.58457],[-119.87138,41.58429],[-119.87132,41.58408],[-119.87129,41.58391],[-119.87128,41.58301],[-119.87126,41.58287],[-119.871,41.58228],[-119.87093,41.58215],[-119.87084,41.58213],[-119.87081,41.58214],[-119.87077,41.58217],[-119.87071,41.58226],[-119.87059,41.58254],[-119.87054,41.58259],[-119.8705,41.5826],[-119.87037,41.5826],[-119.87029,41.58262],[-119.87004,41.58276],[-119.86979,41.58285],[-119.8697,41.58286],[-119.86905,41.58286],[-119.86871,41.58278],[-119.86847,41.58277],[-119.86823,41.58274],[-119.86791,41.58265],[-119.86779,41.58266],[-119.86742,41.58277],[-119.86699,41.58296],[-119.86682,41.58306],[-119.86633,41.58368],[-119.86626,41.58373],[-119.86617,41.58379],[-119.86611,41.58384],[-119.86607,41.5839],[-119.86601,41.58394],[-119.86563,41.58405],[-119.86527,41.58416],[-119.86508,41.58423],[-119.86496,41.58428],[-119.86484,41.58437],[-119.86468,41.58443],[-119.86442,41.58458]]}},{"type":"Feature","properties":{"name":"(unnamed public road)","road_class":"unclassified","surface":"unpaved","source":"OpenStreetMap","source_detail":"osm way 1021337263","source_tile":"171/381"},"geometry":{"type":"LineString","coordinates":[[-119.8691,41.63371],[-119.86909,41.63368],[-119.86907,41.63364],[-119.86904,41.63361],[-119.86901,41.63358],[-119.86897,41.63355],[-119.86892,41.63354],[-119.86887,41.63352],[-119.86882,41.63352],[-119.86856,41.63352]]}},{"type":"Feature","properties":{"name":"(unnamed public road)","road_class":"unclassified","surface":"unpaved","source":"OpenStreetMap","source_detail":"osm way 1021337273","source_tile":"171/381"},"geometry":{"type":"LineString","coordinates":[[-119.86826,41.60872],[-119.86834,41.60873],[-119.86842,41.60874],[-119.8685,41.60873],[-119.86857,41.60872],[-119.86864,41.6087],[-119.8687,41.60867]]}},{"type":"Feature","properties":{"name":"(unnamed public road)","road_class":"track","source":"OpenStreetMap","source_detail":"osm way 1221891100","source_tile":"171/381","surface_inferred":true},"geometry":{"type":"LineString","coordinates":[[-119.85649,41.77066],[-119.85673,41.77073],[-119.85718,41.77076],[-119.85802,41.77074]]}},{"type":"Feature","properties":{"name":"(unnamed public road)","road_class":"track","source":"OpenStreetMap","source_detail":"osm way 1221891101","source_tile":"171/381","surface_inferred":true},"geometry":{"type":"LineString","coordinates":[[-119.83098,41.77062],[-119.83187,41.76854],[-119.83215,41.76756],[-119.83225,41.76709],[-119.83268,41.76564],[-119.833,41.7643],[-119.83307,41.76335],[-119.8331,41.76331],[-119.8331,41.76312],[-119.83302,41.76247],[-119.833,41.7621],[-119.83294,41.76178]]}},{"type":"Feature","properties":{"name":"(unnamed public road)","road_class":"track","source":"OpenStreetMap","source_detail":"osm way 1221891102","source_tile":"171/381","surface_inferred":true},"geometry":{"type":"LineString","coordinates":[[-119.74865,41.76012],[-119.74871,41.76012],[-119.75098,41.75979],[-119.75706,41.75894],[-119.75888,41.75868],[-119.7655,41.75773],[-119.76584,41.75767],[-119.76617,41.75755],[-119.76639,41.75753],[-119.76659,41.75756],[-119.76674,41.75762],[-119.76806,41.7585],[-119.76867,41.75886],[-119.76885,41.75895],[-119.76901,41.75901],[-119.76913,41.75903],[-119.76925,41.75902],[-119.7694,41.75898],[-119.76949,41.75891],[-119.76982,41.75857],[-119.77029,41.75812],[-119.77071,41.75756],[-119.77103,41.75729],[-119.77118,41.75721],[-119.77144,41.75711],[-119.77176,41.75701],[-119.77207,41.75696],[-119.77237,41.75696],[-119.77275,41.75698],[-119.77292,41.75701],[-119.77321,41.7571],[-119.77404,41.75743],[-119.77445,41.75755],[-119.77501,41.75769],[-119.77569,41.75778],[-119.7762,41.75778],[-119.77642,41.7578],[-119.77667,41.75785],[-119.77694,41.75794],[-119.77728,41.7581],[-119.77739,41.75818],[-119.77747,41.75827],[-119.77756,41.75845],[-119.77783,41.75916],[-119.77792,41.75926],[-119.778,41.75928],[-119.77814,41.75926],[-119.77857,41.75909],[-119.77911,41.75891],[-119.77968,41.75878],[-119.77994,41.7587],[-119.78022,41.75864],[-119.78115,41.75846],[-119.7816,41.75835],[-119.78211,41.75827],[-119.78255,41.75804],[-119.78273,41.75798],[-119.7831,41.7581],[-119.78345,41.75815],[-119.78384,41.75814],[-119.78448,41.75808],[-119.78469,41.75808],[-119.78545,41.75814],[-119.78571,41.75818],[-119.78629,41.75831],[-119.78703,41.75835],[-119.78723,41.75838],[-119.78788,41.75855],[-119.78916,41.75881],[-119.7894,41.75885],[-119.78989,41.75888],[-119.79005,41.75891],[-119.7912,41.75926],[-119.79155,41.75938],[-119.79195,41.75945],[-119.79251,41.75961],[-119.79284,41.75967],[-119.79493,41.75969],[-119.79963,41.75967],[-119.80018,41.75969],[-119.80142,41.7597],[-119.8036,41.75969],[-119.80397,41.75971],[-119.80741,41.75971],[-119.80983,41.75973],[-119.81086,41.75971],[-119.8111,41.75973],[-119.81269,41.75973],[-119.81427,41.75975],[-119.82121,41.75975],[-119.82261,41.75972],[-119.82356,41.75973],[-119.82418,41.75971],[-119.82425,41.75973],[-119.82435,41.75984],[-119.82478,41.76011],[-119.82573,41.76081],[-119.82683,41.76167],[-119.82715,41.7619],[-119.82739,41.76211],[-119.82837,41.76287],[-119.82858,41.76303],[-119.82878,41.7632],[-119.82892,41.76329],[-119.8291,41.76333],[-119.83281,41.76333],[-119.83307,41.76335]]}},{"type":"Feature","properties":{"name":"(unnamed public road)","road_class":"track","source":"OpenStreetMap","source_detail":"osm way 1221891103","source_tile":"171/381","surface_inferred":true},"geometry":{"type":"LineString","coordinates":[[-119.82428,41.76666],[-119.82422,41.76645],[-119.82419,41.76569],[-119.82421,41.76426],[-119.82418,41.76283],[-119.82423,41.76018],[-119.82435,41.75984]]}},{"type":"Feature","properties":{"name":"(unnamed public road)","road_class":"track","source":"OpenStreetMap","source_detail":"osm way 1221891104","source_tile":"171/381","surface_inferred":true},"geometry":{"type":"LineString","coordinates":[[-119.82428,41.76666],[-119.82415,41.76672],[-119.82409,41.76671],[-119.82381,41.76659],[-119.82343,41.76635],[-119.82327,41.76608],[-119.82284,41.76573],[-119.82212,41.76526],[-119.82086,41.76456],[-119.82,41.7639]]}},{"type":"Feature","properties":{"name":"(unnamed public road)","road_class":"track","source":"OpenStreetMap","source_detail":"osm way 1221891105","source_tile":"171/381","surface_inferred":true},"geometry":{"type":"LineString","coordinates":[[-119.82428,41.76666],[-119.82461,41.76669],[-119.82848,41.76669],[-119.82901,41.76667],[-119.82903,41.76669],[-119.82907,41.76677],[-119.82907,41.76773],[-119.82903,41.76903],[-119.82905,41.77054],[-119.82926,41.77059],[-119.83009,41.77062]]}},{"type":"Feature","properties":{"name":"(unnamed public road)","road_class":"track","source":"OpenStreetMap","source_detail":"osm way 1221891106","source_tile":"171/381","surface_inferred":true},"geometry":{"type":"LineString","coordinates":[[-119.76288,41.76764],[-119.76272,41.76697],[-119.76239,41.76613],[-119.76209,41.76553],[-119.76163,41.76487],[-119.76152,41.76468],[-119.76145,41.76447],[-119.76137,41.76414],[-119.76112,41.76282],[-119.76097,41.76227],[-119.76077,41.76181],[-119.76,41.76028],[-119.75965,41.75942],[-119.7593,41.7592],[-119.75913,41.75904],[-119.75888,41.75868]]}},{"type":"Feature","properties":{"name":"(unnamed public road)","road_class":"track","surface":"unpaved","source":"OpenStreetMap","source_detail":"osm way 1284378695","source_tile":"171/381"},"geometry":{"type":"LineString","coordinates":[[-119.76845,41.70851],[-119.76855,41.70875],[-119.76868,41.70903],[-119.76874,41.70916],[-119.76874,41.70923],[-119.76872,41.70932],[-119.76864,41.70952],[-119.7684,41.71029],[-119.76835,41.71052],[-119.76825,41.71074],[-119.76814,41.71095],[-119.76801,41.71127],[-119.76789,41.71151],[-119.76777,41.71173],[-119.76767,41.71189],[-119.76763,41.71201],[-119.76759,41.71233],[-119.76762,41.71258],[-119.76762,41.71287],[-119.76758,41.71305],[-119.76752,41.71329],[-119.76741,41.71372],[-119.76726,41.71401],[-119.7671,41.71427],[-119.76694,41.71448],[-119.76684,41.71461],[-119.76672,41.71491],[-119.76659,41.71514],[-119.7663,41.7155],[-119.76596,41.71602],[-119.7659,41.71619],[-119.7659,41.71631],[-119.76595,41.71646],[-119.76605,41.71662],[-119.76618,41.717],[-119.76622,41.71719],[-119.76622,41.71733],[-119.76616,41.71751],[-119.76602,41.71793],[-119.76589,41.71824],[-119.76569,41.71851],[-119.76553,41.71868],[-119.7654,41.71876],[-119.76531,41.71885],[-119.76514,41.71902],[-119.76507,41.71915],[-119.76503,41.71928],[-119.76504,41.71947],[-119.7651,41.72017],[-119.76509,41.72034],[-119.76506,41.7205],[-119.76497,41.72084],[-119.76492,41.72112],[-119.7649,41.72139],[-119.76495,41.72172],[-119.76494,41.72222],[-119.76501,41.7223],[-119.76508,41.72235],[-119.76525,41.7224],[-119.76542,41.72245],[-119.76595,41.72258],[-119.76638,41.72263],[-119.76656,41.72267],[-119.76672,41.72272],[-119.76708,41.72282],[-119.7675,41.72289],[-119.76775,41.7229],[-119.76793,41.72294],[-119.76855,41.72312],[-119.76881,41.72321],[-119.76947,41.72351],[-119.77001,41.72376],[-119.77047,41.72405],[-119.77097,41.72436],[-119.77123,41.72447],[-119.77144,41.72458],[-119.77161,41.72474],[-119.7719,41.72494],[-119.77205,41.72504],[-119.77243,41.72521],[-119.77269,41.72535],[-119.77296,41.72556],[-119.77338,41.72581],[-119.77375,41.726],[-119.77465,41.72643],[-119.77543,41.72688],[-119.77623,41.72731],[-119.7776,41.72805],[-119.77797,41.72825],[-119.77854,41.72859],[-119.77936,41.72916],[-119.77958,41.72929],[-119.77987,41.72962],[-119.77999,41.72969],[-119.7802,41.72986],[-119.78055,41.73013],[-119.78087,41.73038],[-119.78097,41.7305],[-119.78099,41.73059],[-119.78098,41.73072],[-119.781,41.73083],[-119.78107,41.73089],[-119.78121,41.73093],[-119.78161,41.73094],[-119.78196,41.73094],[-119.78217,41.73089],[-119.78234,41.7308],[-119.78239,41.73076],[-119.78258,41.73069]]}},{"type":"Feature","properties":{"name":"(unnamed public road)","road_class":"track","source":"OpenStreetMap","source_detail":"osm way 1517262081","source_tile":"171/381","surface_inferred":true},"geometry":{"type":"LineString","coordinates":[[-119.87823,41.58423],[-119.87801,41.58448],[-119.87787,41.58504],[-119.87785,41.58523],[-119.87772,41.58535],[-119.8777,41.58545],[-119.87785,41.58559],[-119.87785,41.58576],[-119.87789,41.58586],[-119.87783,41.586],[-119.87765,41.58624],[-119.87763,41.58652],[-119.87754,41.58666],[-119.87751,41.5869],[-119.87753,41.58739],[-119.87749,41.5877],[-119.87757,41.58815],[-119.87757,41.58846],[-119.87766,41.58873],[-119.87784,41.58892],[-119.87815,41.58912],[-119.87855,41.58949],[-119.87886,41.58972],[-119.87922,41.58996],[-119.87925,41.59001],[-119.87929,41.59022],[-119.87925,41.5905],[-119.87936,41.59098],[-119.87945,41.59109],[-119.87944,41.59115],[-119.8795,41.5916],[-119.87959,41.59193],[-119.87966,41.59213],[-119.87974,41.59225]]}},{"type":"Feature","properties":{"name":"(unnamed public road)","road_class":"track","source":"OpenStreetMap","source_detail":"osm way 1517262082","source_tile":"171/381","surface_inferred":true},"geometry":{"type":"LineString","coordinates":[[-119.85471,41.56931],[-119.85457,41.56901],[-119.85448,41.56878],[-119.85444,41.56866],[-119.85435,41.56857],[-119.85224,41.56852],[-119.8521,41.5685],[-119.852,41.56839],[-119.85188,41.56809],[-119.85177,41.56764],[-119.85174,41.56746],[-119.85173,41.56726],[-119.85183,41.56702],[-119.85194,41.56681],[-119.85196,41.56669],[-119.85192,41.56619],[-119.85186,41.56585],[-119.85177,41.56573],[-119.85162,41.56563],[-119.85143,41.56557],[-119.85127,41.56547],[-119.85043,41.56463],[-119.85022,41.56433],[-119.84995,41.56411],[-119.84974,41.56385]]}},{"type":"Feature","properties":{"name":"(unnamed public road)","road_class":"track","source":"OpenStreetMap","source_detail":"osm way 1517262083","source_tile":"171/381","surface_inferred":true},"geometry":{"type":"LineString","coordinates":[[-119.85636,41.56862],[-119.85688,41.56863],[-119.85698,41.56861],[-119.85712,41.56861],[-119.85724,41.56864],[-119.86257,41.56865],[-119.86275,41.56866],[-119.86286,41.5687],[-119.86539,41.57121],[-119.8656,41.5714],[-119.86603,41.5718],[-119.86644,41.57209],[-119.86666,41.57215]]}},{"type":"Feature","properties":{"name":"(unnamed public road)","road_class":"track","source":"OpenStreetMap","source_detail":"osm way 1517262084","source_tile":"171/381","surface_inferred":true},"geometry":{"type":"LineString","coordinates":[[-119.84958,41.57111],[-119.84956,41.57085],[-119.84957,41.57066],[-119.84952,41.57042],[-119.84949,41.57028],[-119.8495,41.56909],[-119.84951,41.56886],[-119.8496,41.56862],[-119.84959,41.5683],[-119.84965,41.56433],[-119.84969,41.56401],[-119.84974,41.56385],[-119.84978,41.56373]]}},{"type":"Feature","properties":{"name":"(unnamed public road)","road_class":"track","source":"OpenStreetMap","source_detail":"osm way 1517262085","source_tile":"171/381","surface_inferred":true},"geometry":{"type":"LineString","coordinates":[[-119.8496,41.56862],[-119.84906,41.56861],[-119.83266,41.56852]]}},{"type":"Feature","properties":{"name":"(unnamed public road)","road_class":"track","source":"OpenStreetMap","source_detail":"osm way 1517262086","source_tile":"171/381","surface_inferred":true},"geometry":{"type":"LineString","coordinates":[[-119.84974,41.56385],[-119.84789,41.56401],[-119.84497,41.56421],[-119.84362,41.56439],[-119.84171,41.56505],[-119.83957,41.56573],[-119.83881,41.56587],[-119.83715,41.56655],[-119.83532,41.56689],[-119.83454,41.56695],[-119.83378,41.56693],[-119.83272,41.56722],[-119.83122,41.56753],[-119.83029,41.56757],[-119.82947,41.56758]]}},{"type":"Feature","properties":{"name":"(unnamed public road)","road_class":"track","source":"OpenStreetMap","source_detail":"osm way 1517262087","source_tile":"171/381","surface_inferred":true},"geometry":{"type":"LineString","coordinates":[[-119.83279,41.57005],[-119.83402,41.56997],[-119.83486,41.56985],[-119.83576,41.56982],[-119.83647,41.56992],[-119.83748,41.56991],[-119.83808,41.56982],[-119.83912,41.56987],[-119.84049,41.56972],[-119.84098,41.56961],[-119.84184,41.56949],[-119.84316,41.56918],[-119.8446,41.5692],[-119.84594,41.5691],[-119.84697,41.56891],[-119.84813,41.56893],[-119.84876,41.56896],[-119.84906,41.56861]]}},{"type":"Feature","properties":{"name":"(unnamed public road)","road_class":"track","source":"OpenStreetMap","source_detail":"osm way 1517262099","source_tile":"171/381","surface_inferred":true},"geometry":{"type":"LineString","coordinates":[[-119.8505,41.53811],[-119.85088,41.53787],[-119.851,41.53784],[-119.85136,41.53802],[-119.85177,41.53839],[-119.85201,41.53847],[-119.85226,41.5385],[-119.85247,41.53863],[-119.85261,41.53882],[-119.85274,41.53888],[-119.85297,41.53889],[-119.85386,41.53889],[-119.85422,41.53882],[-119.85468,41.53863],[-119.85528,41.53831],[-119.85594,41.53808],[-119.85686,41.53773],[-119.85734,41.53759],[-119.85806,41.53737],[-119.85851,41.53714],[-119.8589,41.53694],[-119.85924,41.53676],[-119.8596,41.53649],[-119.85971,41.53643],[-119.85982,41.53637],[-119.86006,41.53627]]}},{"type":"Feature","properties":{"name":"(unnamed public road)","road_class":"track","source":"OpenStreetMap","source_detail":"osm way 1517262100","source_tile":"171/381","surface_inferred":true},"geometry":{"type":"LineString","coordinates":[[-119.85734,41.53759],[-119.85712,41.53876],[-119.85704,41.53911],[-119.857,41.53949]]}},{"type":"Feature","properties":{"name":"(unnamed public road)","road_class":"track","source":"OpenStreetMap","source_detail":"osm way 1517262101","source_tile":"171/381","surface_inferred":true},"geometry":{"type":"LineString","coordinates":[[-119.85758,41.53269],[-119.85519,41.5325],[-119.8551,41.53255],[-119.85314,41.53664],[-119.85311,41.53674],[-119.85313,41.53686],[-119.85326,41.53723],[-119.85325,41.53741],[-119.8531,41.53753],[-119.85233,41.53794],[-119.85202,41.53798],[-119.85136,41.53802]]}},{"type":"Feature","properties":{"name":"(unnamed public road)","road_class":"track","source":"OpenStreetMap","source_detail":"osm way 1517262102","source_tile":"171/381","surface_inferred":true},"geometry":{"type":"LineString","coordinates":[[-119.85758,41.53269],[-119.85754,41.53281],[-119.8576,41.53307],[-119.85783,41.53336],[-119.85816,41.53356],[-119.85858,41.53373],[-119.85904,41.53407],[-119.85913,41.53427],[-119.8592,41.53445],[-119.85934,41.53458],[-119.85958,41.53486],[-119.85956,41.53496],[-119.85954,41.53509],[-119.85959,41.53518],[-119.85959,41.53545],[-119.85968,41.53594],[-119.85974,41.53616],[-119.85974,41.53628],[-119.85971,41.53643]]}},{"type":"Feature","properties":{"name":"(unnamed public road)","road_class":"track","source":"OpenStreetMap","source_detail":"osm way 1517262106","source_tile":"171/381","surface_inferred":true},"geometry":{"type":"LineString","coordinates":[[-119.85758,41.53269],[-119.85773,41.53262],[-119.85812,41.53192],[-119.85816,41.53173],[-119.85865,41.53139],[-119.85883,41.53094],[-119.85901,41.5302],[-119.85947,41.52936],[-119.8596,41.5287],[-119.85962,41.52806],[-119.86003,41.52752],[-119.86088,41.52699],[-119.86221,41.52646],[-119.86461,41.52621],[-119.86625,41.52575],[-119.8674,41.52499],[-119.86782,41.52403],[-119.86828,41.52314],[-119.86854,41.52281],[-119.86851,41.52243],[-119.86808,41.52156],[-119.86779,41.52126],[-119.86752,41.52066],[-119.86644,41.51958],[-119.86655,41.51888],[-119.86694,41.51828],[-119.86756,41.51786],[-119.86804,41.51768],[-119.86875,41.51772],[-119.86916,41.51795],[-119.86972,41.51804],[-119.87013,41.51791],[-119.87051,41.51714],[-119.87102,41.51672],[-119.87167,41.51659],[-119.87219,41.5167],[-119.87277,41.51659],[-119.87404,41.51612],[-119.87519,41.51538],[-119.8772,41.51362],[-119.87747,41.51344],[-119.87767,41.51344]]}},{"type":"Feature","properties":{"name":"(unnamed public road)","road_class":"track","source":"OpenStreetMap","source_detail":"osm way 1517369945","source_tile":"171/382","surface_inferred":true},"geometry":{"type":"LineString","coordinates":[[-119.87767,41.51344],[-119.8775,41.51332],[-119.87749,41.51322],[-119.87744,41.51314],[-119.87728,41.51308],[-119.87716,41.51301],[-119.87707,41.51288],[-119.87701,41.51272],[-119.87692,41.51256],[-119.87681,41.51245],[-119.87666,41.51243],[-119.87639,41.51241],[-119.8762,41.51231],[-119.87595,41.51213],[-119.87571,41.51199],[-119.87549,41.51189],[-119.87535,41.51179],[-119.87536,41.51169],[-119.87526,41.51167],[-119.8751,41.51163],[-119.87494,41.51151],[-119.87479,41.51142],[-119.87453,41.51129],[-119.87425,41.51125],[-119.87402,41.51112],[-119.8739,41.51102],[-119.87376,41.51083],[-119.87362,41.51073],[-119.87335,41.51065],[-119.87311,41.51045],[-119.87275,41.51024],[-119.87246,41.51013],[-119.87222,41.51005],[-119.87204,41.51001],[-119.87186,41.50995],[-119.87147,41.50989],[-119.8712,41.50984],[-119.87085,41.50971],[-119.8707,41.5097],[-119.87041,41.50958],[-119.87013,41.50946],[-119.86979,41.50946],[-119.86948,41.50951],[-119.86929,41.50955],[-119.86907,41.50951],[-119.86884,41.50954],[-119.86843,41.50954],[-119.8679,41.50947],[-119.86776,41.50947],[-119.8676,41.50941],[-119.86737,41.50941],[-119.86707,41.50932],[-119.86686,41.50928],[-119.86676,41.50921],[-119.86674,41.50913],[-119.86659,41.50883],[-119.86632,41.50865],[-119.86618,41.50858],[-119.86596,41.50856],[-119.86576,41.50853],[-119.86566,41.50854],[-119.86552,41.50846],[-119.86538,41.50843],[-119.86525,41.50849],[-119.86504,41.50854],[-119.86489,41.50861],[-119.86468,41.50865],[-119.86439,41.50866],[-119.86399,41.50874],[-119.86362,41.50891],[-119.86319,41.50912],[-119.86267,41.50937],[-119.86255,41.50946],[-119.86239,41.50963],[-119.86226,41.50985],[-119.8622,41.50994],[-119.86202,41.51008],[-119.86193,41.5102],[-119.86148,41.5105],[-119.86115,41.51071],[-119.86095,41.51081],[-119.86059,41.51096],[-119.86036,41.51114],[-119.86013,41.51123],[-119.85989,41.51127],[-119.85961,41.51127],[-119.85913,41.51135],[-119.85868,41.51146],[-119.85833,41.5116],[-119.8577,41.51188],[-119.8572,41.51209],[-119.85686,41.51226],[-119.85673,41.5123],[-119.85653,41.51234],[-119.85624,41.51238],[-119.85601,41.51245],[-119.85565,41.51256],[-119.85532,41.51262],[-119.85513,41.5127],[-119.85481,41.51278],[-119.85451,41.51291],[-119.85424,41.51299],[-119.85387,41.51307],[-119.85357,41.51314],[-119.85329,41.51317],[-119.85298,41.51316],[-119.85273,41.51318],[-119.85251,41.51325],[-119.85237,41.51329],[-119.8522,41.51328],[-119.85203,41.5133],[-119.85196,41.51335]]}},{"type":"Feature","properties":{"name":"(unnamed public road)","road_class":"track","source":"OpenStreetMap","source_detail":"osm way 1517369946","source_tile":"171/382","surface_inferred":true},"geometry":{"type":"LineString","coordinates":[[-119.84804,41.51402],[-119.84823,41.51395],[-119.84843,41.514],[-119.84865,41.51402],[-119.8489,41.51401],[-119.84913,41.51393],[-119.84929,41.51389],[-119.84939,41.51388],[-119.84953,41.51392],[-119.84969,41.51397],[-119.84981,41.51397],[-119.85051,41.51393],[-119.85066,41.51393],[-119.8508,41.51396],[-119.85098,41.51401],[-119.8512,41.51402],[-119.85165,41.514],[-119.85186,41.51396],[-119.85195,41.51391],[-119.85198,41.51384],[-119.85198,41.51375],[-119.85196,41.51335],[-119.85191,41.51322],[-119.85184,41.51311],[-119.85175,41.51298],[-119.8517,41.51278],[-119.85158,41.51195],[-119.85144,41.51105],[-119.85142,41.51079],[-119.85131,41.51025],[-119.85124,41.50979],[-119.85112,41.50922],[-119.85103,41.50885],[-119.85097,41.50864],[-119.85094,41.50849],[-119.85077,41.50775],[-119.85069,41.5074],[-119.85049,41.50674],[-119.85039,41.50631],[-119.85034,41.5061],[-119.85033,41.5059],[-119.85039,41.50574],[-119.8505,41.50554],[-119.85144,41.50466]]}},{"type":"Feature","properties":{"name":"(unnamed public road)","road_class":"track","source":"OpenStreetMap","source_detail":"osm way 1517446003","source_tile":"171/381","surface_inferred":true},"geometry":{"type":"LineString","coordinates":[[-119.87093,41.58215],[-119.87073,41.58188],[-119.87052,41.58159],[-119.87041,41.58152],[-119.87041,41.58133],[-119.87036,41.58117],[-119.8702,41.58097],[-119.86998,41.58086],[-119.86973,41.58078],[-119.86952,41.58064],[-119.86931,41.58051],[-119.86916,41.58049],[-119.86891,41.58054],[-119.86864,41.58061],[-119.86835,41.5806],[-119.86803,41.58052],[-119.86726,41.58005]]}},{"type":"Feature","properties":{"name":"(unnamed public road)","road_class":"track","source":"OpenStreetMap","source_detail":"osm way 1517446004","source_tile":"171/381","surface_inferred":true},"geometry":{"type":"LineString","coordinates":[[-119.86181,41.58236],[-119.86176,41.58228],[-119.86171,41.58216],[-119.86169,41.58198],[-119.8616,41.58167],[-119.86148,41.58138],[-119.86147,41.58125],[-119.86154,41.58106],[-119.86158,41.58087],[-119.86167,41.58078],[-119.86187,41.58072],[-119.86208,41.58071],[-119.86226,41.58073],[-119.86244,41.58071],[-119.86262,41.58058],[-119.86284,41.58046],[-119.86298,41.58039]]}},{"type":"Feature","properties":{"name":"(unnamed public road)","road_class":"track","source":"OpenStreetMap","source_detail":"osm way 1517446005","source_tile":"171/381","surface_inferred":true},"geometry":{"type":"LineString","coordinates":[[-119.85999,41.59803],[-119.85987,41.59809],[-119.85964,41.59811],[-119.8593,41.59807],[-119.85874,41.59809],[-119.85842,41.59807],[-119.85475,41.60039],[-119.85397,41.60092],[-119.85353,41.60122],[-119.85336,41.60145],[-119.85327,41.60168],[-119.85311,41.60335],[-119.85279,41.60715],[-119.85228,41.61185],[-119.852,41.61487],[-119.85177,41.61626],[-119.85177,41.61765],[-119.85163,41.62009],[-119.85127,41.62411],[-119.85083,41.62918],[-119.85058,41.63216],[-119.8505,41.63258],[-119.85023,41.63304],[-119.84985,41.63371]]}},{"type":"Feature","properties":{"name":"(unnamed public road)","road_class":"track","source":"OpenStreetMap","source_detail":"osm way 1517446006","source_tile":"171/381","surface_inferred":true},"geometry":{"type":"LineString","coordinates":[[-119.85336,41.60145],[-119.85306,41.60168],[-119.85175,41.60211],[-119.84987,41.60239],[-119.84853,41.60258],[-119.84755,41.60294],[-119.84691,41.60301],[-119.84604,41.60316],[-119.8451,41.60315]]}},{"type":"Feature","properties":{"name":"(unnamed public road)","road_class":"track","source":"OpenStreetMap","source_detail":"osm way 1517446007","source_tile":"171/381","surface_inferred":true},"geometry":{"type":"LineString","coordinates":[[-119.86563,41.58405],[-119.86579,41.58413],[-119.86599,41.58436],[-119.86609,41.5846],[-119.86611,41.58476],[-119.86623,41.58488],[-119.86625,41.58501],[-119.86639,41.58514],[-119.86655,41.58521],[-119.86675,41.58523],[-119.86686,41.58528],[-119.86705,41.58544],[-119.8672,41.58548],[-119.86738,41.58546],[-119.86752,41.58554],[-119.86763,41.58554],[-119.86783,41.58557],[-119.86786,41.58569],[-119.86804,41.58574],[-119.86823,41.58571],[-119.86833,41.58565],[-119.86848,41.58566],[-119.86854,41.58561],[-119.86866,41.5856],[-119.86887,41.58563],[-119.86905,41.58566],[-119.86929,41.58562],[-119.86963,41.58557],[-119.86985,41.58556],[-119.86993,41.58558]]}},{"type":"Feature","properties":{"name":"(unnamed public road)","road_class":"track","source":"OpenStreetMap","source_detail":"osm way 1517446008","source_tile":"171/381","surface_inferred":true},"geometry":{"type":"LineString","coordinates":[[-119.86625,41.58501],[-119.86609,41.58516],[-119.8659,41.58519],[-119.86563,41.58528],[-119.86547,41.58531],[-119.86517,41.58555],[-119.8647,41.58597],[-119.86471,41.58654],[-119.86466,41.58671],[-119.8647,41.58694],[-119.86474,41.5874],[-119.86485,41.58758],[-119.86551,41.58814],[-119.86556,41.58829],[-119.86571,41.58852],[-119.86625,41.58905],[-119.86642,41.5893],[-119.86678,41.5895],[-119.86712,41.58962],[-119.86717,41.58975],[-119.86713,41.58991],[-119.86703,41.59008],[-119.86692,41.59018],[-119.86681,41.59019],[-119.86665,41.59014],[-119.86647,41.59003],[-119.86631,41.58988],[-119.86618,41.58983],[-119.86601,41.58983],[-119.86509,41.5899],[-119.86395,41.58993]]}},{"type":"Feature","properties":{"name":"(unnamed public road)","road_class":"track","source":"OpenStreetMap","source_detail":"osm way 1517446009","source_tile":"171/381","surface_inferred":true},"geometry":{"type":"LineString","coordinates":[[-119.86172,41.58948],[-119.8618,41.58985],[-119.86395,41.58993],[-119.86351,41.58869],[-119.86166,41.58874],[-119.86172,41.58948]]}},{"type":"Feature","properties":{"name":"(unnamed public road)","road_class":"track","source":"OpenStreetMap","source_detail":"osm way 1517446010","source_tile":"171/381","surface_inferred":true},"geometry":{"type":"LineString","coordinates":[[-119.8647,41.58694],[-119.86393,41.58686],[-119.86222,41.58686],[-119.86178,41.58619]]}},{"type":"Feature","properties":{"name":"(unnamed public road)","road_class":"track","source":"OpenStreetMap","source_detail":"osm way 1517446011","source_tile":"171/381","surface_inferred":true},"geometry":{"type":"LineString","coordinates":[[-119.86395,41.58993],[-119.86462,41.59174],[-119.865,41.59267]]}},{"type":"Feature","properties":{"name":"(unnamed public road)","road_class":"track","source":"OpenStreetMap","source_detail":"osm way 1517446012","source_tile":"171/381","surface_inferred":true},"geometry":{"type":"LineString","coordinates":[[-119.86462,41.59174],[-119.86374,41.59187],[-119.86375,41.59288],[-119.86375,41.59365],[-119.86384,41.59374],[-119.86409,41.59383],[-119.8646,41.59385],[-119.86537,41.59384],[-119.86545,41.59378],[-119.86546,41.5937],[-119.8654,41.5936]]}},{"type":"Feature","properties":{"name":"(unnamed public road)","road_class":"track","source":"OpenStreetMap","source_detail":"osm way 1517446013","source_tile":"171/381","surface_inferred":true},"geometry":{"type":"LineString","coordinates":[[-119.86614,41.59346],[-119.86574,41.5935],[-119.86559,41.59358],[-119.8654,41.5936],[-119.86528,41.59355],[-119.86523,41.59344],[-119.86522,41.59337],[-119.86518,41.59331],[-119.86513,41.59322],[-119.86507,41.59301],[-119.86503,41.59285],[-119.86499,41.59273],[-119.865,41.59267],[-119.86508,41.5926]]}},{"type":"Feature","properties":{"name":"(unnamed public road)","road_class":"track","source":"OpenStreetMap","source_detail":"osm way 1517446014","source_tile":"171/381","surface_inferred":true},"geometry":{"type":"LineString","coordinates":[[-119.86503,41.59285],[-119.86495,41.59278],[-119.86478,41.59278],[-119.86375,41.59288]]}},{"type":"Feature","properties":{"name":"(unnamed public road)","road_class":"track","source":"OpenStreetMap","source_detail":"osm way 1517446016","source_tile":"171/381","surface_inferred":true},"geometry":{"type":"LineString","coordinates":[[-119.86689,41.59663],[-119.86689,41.59649],[-119.86684,41.59638],[-119.86683,41.59626],[-119.86683,41.59588],[-119.86676,41.59507],[-119.86674,41.59475],[-119.86672,41.59444],[-119.86671,41.59429],[-119.86668,41.59421],[-119.86662,41.59416],[-119.86653,41.59415],[-119.86639,41.59417],[-119.86627,41.59417],[-119.86604,41.59414],[-119.86573,41.59412],[-119.86525,41.59414],[-119.86509,41.59414],[-119.8649,41.59409],[-119.86472,41.59403],[-119.86449,41.59401],[-119.86428,41.59398],[-119.86382,41.59398],[-119.86371,41.59394],[-119.86365,41.59388],[-119.86357,41.5938],[-119.86353,41.59377],[-119.86338,41.59374],[-119.86305,41.59374],[-119.86261,41.59374],[-119.86252,41.59373],[-119.86244,41.59368],[-119.86238,41.5936],[-119.86233,41.5935],[-119.8623,41.59339],[-119.86211,41.59309],[-119.86195,41.59285],[-119.86185,41.59276],[-119.86167,41.59263],[-119.86149,41.59252],[-119.86133,41.59248],[-119.86112,41.59249],[-119.86091,41.59249],[-119.86074,41.59247],[-119.86063,41.59242],[-119.8606,41.59235],[-119.8606,41.59224],[-119.86066,41.59213],[-119.86067,41.59205],[-119.86061,41.59197],[-119.86038,41.59185],[-119.86023,41.59174],[-119.86008,41.59158],[-119.85996,41.59142],[-119.85984,41.59121],[-119.85979,41.59107],[-119.85971,41.59082],[-119.85965,41.59053],[-119.85957,41.59019],[-119.85954,41.58999],[-119.85954,41.58981],[-119.85957,41.58959],[-119.85961,41.58946],[-119.85963,41.58939],[-119.8596,41.58931],[-119.85936,41.58913],[-119.85893,41.58881],[-119.85887,41.58872],[-119.85886,41.58862]]}},{"type":"Feature","properties":{"name":"(unnamed public road)","road_class":"track","source":"OpenStreetMap","source_detail":"osm way 1517446017","source_tile":"171/381","surface_inferred":true},"geometry":{"type":"LineString","coordinates":[[-119.85957,41.58959],[-119.85973,41.58985],[-119.86003,41.59038],[-119.86012,41.59051],[-119.86022,41.59055],[-119.86034,41.59052],[-119.86041,41.59044],[-119.86041,41.59034],[-119.86035,41.59024],[-119.86018,41.59012],[-119.85973,41.58985]]}},{"type":"Feature","properties":{"name":"(unnamed public road)","road_class":"track","source":"OpenStreetMap","source_detail":"osm way 1517446018","source_tile":"171/381","surface_inferred":true},"geometry":{"type":"LineString","coordinates":[[-119.85917,41.59208],[-119.85951,41.59208],[-119.8598,41.59207],[-119.85994,41.59205],[-119.86012,41.59203],[-119.86031,41.59207],[-119.86054,41.59215],[-119.8606,41.59224]]}},{"type":"Feature","properties":{"name":"(unnamed public road)","road_class":"track","source":"OpenStreetMap","source_detail":"osm way 1517446019","source_tile":"171/381","surface_inferred":true},"geometry":{"type":"LineString","coordinates":[[-119.85994,41.59205],[-119.86008,41.59193],[-119.86011,41.59187],[-119.86005,41.59176],[-119.85993,41.59167]]}},{"type":"Feature","properties":{"name":"(unnamed public road)","road_class":"track","source":"OpenStreetMap","source_detail":"osm way 1517446020","source_tile":"171/381","surface_inferred":true},"geometry":{"type":"LineString","coordinates":[[-119.86696,41.59709],[-119.86703,41.59726],[-119.86723,41.59742],[-119.86779,41.59808],[-119.86844,41.59872],[-119.86901,41.59935],[-119.86916,41.59949],[-119.86941,41.59986],[-119.86988,41.60041],[-119.87029,41.60095],[-119.87053,41.60119]]}},{"type":"Feature","properties":{"name":"(unnamed public road)","road_class":"track","source":"OpenStreetMap","source_detail":"osm way 1517446021","source_tile":"171/381","surface_inferred":true},"geometry":{"type":"LineString","coordinates":[[-119.87268,41.60629],[-119.87234,41.60608],[-119.87212,41.60592],[-119.87194,41.6057],[-119.87186,41.60554],[-119.87157,41.60554],[-119.87117,41.60547],[-119.86994,41.60516],[-119.86906,41.60494],[-119.86856,41.60487],[-119.86836,41.60487],[-119.86811,41.60491],[-119.86596,41.6049],[-119.86461,41.60489],[-119.86416,41.60488],[-119.8635,41.60489]]}},{"type":"Feature","properties":{"name":"(unnamed public road)","road_class":"track","source":"OpenStreetMap","source_detail":"osm way 1517446022","source_tile":"171/381","surface_inferred":true},"geometry":{"type":"LineString","coordinates":[[-119.87212,41.60592],[-119.87213,41.6058],[-119.87219,41.60568],[-119.8722,41.6056],[-119.8721,41.60554],[-119.87195,41.60553],[-119.87186,41.60554]]}},{"type":"Feature","properties":{"name":"(unnamed public road)","road_class":"track","source":"OpenStreetMap","source_detail":"osm way 1517446023","source_tile":"171/381","surface_inferred":true},"geometry":{"type":"LineString","coordinates":[[-119.87579,41.60813],[-119.87552,41.60804],[-119.87533,41.60803],[-119.87486,41.60785],[-119.87466,41.60778],[-119.8745,41.60766],[-119.87433,41.60744],[-119.87404,41.60733],[-119.87396,41.60724],[-119.87362,41.60711],[-119.87341,41.60697],[-119.87326,41.6066],[-119.87319,41.60638],[-119.87276,41.60636],[-119.87268,41.60629]]}}]}