{"type":"FeatureCollection","features":[{"type":"Feature","properties":{"name":"Fish Springs Road","road_class":"unclassified","surface":"dirt","source":"OpenStreetMap","source_detail":"osm way 14393543","source_tile":"171/387"},"geometry":{"type":"LineString","coordinates":[[-119.80757,40.1992],[-119.81008,40.19599],[-119.81271,40.19287],[-119.81299,40.19246],[-119.81322,40.19199],[-119.81326,40.19177],[-119.8133,40.19158],[-119.81325,40.19121],[-119.81224,40.18839],[-119.8122,40.1882],[-119.8122,40.18796],[-119.81278,40.18613],[-119.81293,40.18562],[-119.81332,40.1844],[-119.81455,40.1805],[-119.8147,40.17994],[-119.81495,40.17584],[-119.81497,40.17554],[-119.81515,40.17193],[-119.81523,40.17047],[-119.81548,40.16539],[-119.81564,40.16236],[-119.81564,40.16224],[-119.81566,40.1613],[-119.81568,40.16065],[-119.81463,40.15298],[-119.81452,40.15216],[-119.81457,40.15158],[-119.81542,40.14638],[-119.81556,40.14547],[-119.81598,40.14244],[-119.81697,40.13739],[-119.8171,40.13708],[-119.8173,40.13682],[-119.81789,40.1363],[-119.82187,40.13351],[-119.82474,40.13148],[-119.82521,40.13121],[-119.8253,40.13116],[-119.8255,40.13108],[-119.8259,40.13094],[-119.82718,40.13056],[-119.83161,40.12928],[-119.8365,40.12775],[-119.84026,40.12649],[-119.84186,40.12597],[-119.84414,40.12522],[-119.8452,40.12487],[-119.84664,40.12431],[-119.84682,40.12421],[-119.84794,40.1235],[-119.84864,40.12305],[-119.8506,40.12172],[-119.85271,40.12039],[-119.85335,40.11995],[-119.85438,40.11921],[-119.85467,40.11906],[-119.85501,40.11895],[-119.85813,40.11826],[-119.8586,40.11814],[-119.85914,40.11802],[-119.85934,40.11798],[-119.8619,40.11794],[-119.86662,40.11794],[-119.86732,40.11791],[-119.86765,40.11786],[-119.86812,40.11771],[-119.86847,40.11749],[-119.86878,40.11716],[-119.86913,40.11671],[-119.86935,40.11637],[-119.86979,40.11516],[-119.87079,40.1118],[-119.87104,40.11136],[-119.87147,40.11075],[-119.87173,40.11044],[-119.87277,40.10935],[-119.87423,40.10803],[-119.87509,40.10725],[-119.87675,40.10563],[-119.87714,40.10528],[-119.87735,40.10502],[-119.87749,40.1048],[-119.87753,40.10453],[-119.87764,40.10337],[-119.87766,40.10317],[-119.87775,40.10212],[-119.87783,40.10134],[-119.87817,40.09795],[-119.87824,40.09727],[-119.87831,40.09709],[-119.8784,40.09694],[-119.8785,40.09683],[-119.87863,40.09673],[-119.87881,40.09666],[-119.87974,40.09649],[-119.88352,40.09586],[-119.8846,40.09568],[-119.88656,40.09533],[-119.88666,40.09531],[-119.88757,40.09516],[-119.88766,40.09514],[-119.88882,40.09509],[-119.8918,40.09494],[-119.89434,40.09472],[-119.8948,40.09467],[-119.89487,40.09466],[-119.89971,40.09353],[-119.90152,40.09313],[-119.90242,40.09293],[-119.90249,40.09291],[-119.90291,40.09282],[-119.9056,40.09222],[-119.90635,40.09207],[-119.90726,40.09188],[-119.91181,40.09094],[-119.91349,40.09066],[-119.91558,40.09042],[-119.91627,40.09041],[-119.91634,40.09042],[-119.9169,40.09045],[-119.91699,40.09046],[-119.91772,40.09057],[-119.9227,40.09127],[-119.92483,40.09158],[-119.92731,40.09193],[-119.93493,40.093],[-119.9351,40.09309],[-119.93663,40.09439],[-119.93919,40.09668],[-119.9413,40.09855],[-119.94156,40.09866],[-119.942,40.09878],[-119.94217,40.09881],[-119.94234,40.09882],[-119.94249,40.09883],[-119.94279,40.09883],[-119.94316,40.0988],[-119.9437,40.09874],[-119.94854,40.09813],[-119.95514,40.09729],[-119.95882,40.09685],[-119.96018,40.09668],[-119.96251,40.09637],[-119.96778,40.09568],[-119.96854,40.09553],[-119.96914,40.09538],[-119.97816,40.09315],[-119.97915,40.0929],[-119.98081,40.09245],[-119.98638,40.09104],[-119.98704,40.0909],[-119.98716,40.09087],[-119.98791,40.09068],[-119.98858,40.09055],[-119.98924,40.09052],[-119.9905,40.09057],[-119.9915,40.0907],[-119.99663,40.09172],[-119.997,40.09177],[-119.99729,40.09181]]}}]}