{"type":"FeatureCollection","features":[{"type":"Feature","properties":{"name":"(unnamed public road)","road_class":"track","source":"OpenStreetMap","source_detail":"osm way 14373198","source_tile":"171/388","surface_inferred":true},"geometry":{"type":"LineString","coordinates":[[-119.90905,39.817],[-119.90868,39.81715],[-119.90827,39.81715],[-119.90774,39.81737],[-119.90744,39.81738],[-119.90709,39.81722],[-119.90682,39.817],[-119.90612,39.81703],[-119.9043,39.81736],[-119.90357,39.81741],[-119.89455,39.81793],[-119.89336,39.81829],[-119.89233,39.81905],[-119.89172,39.81979],[-119.88931,39.82153],[-119.88871,39.82202],[-119.88681,39.82263],[-119.88435,39.82308],[-119.88232,39.82315],[-119.87919,39.82355],[-119.87778,39.82394],[-119.87693,39.82404],[-119.87603,39.82409],[-119.87448,39.82494]]}}]}