{"type":"FeatureCollection","features":[{"type":"Feature","properties":{"name":"(unnamed public road)","road_class":"track","source":"OpenStreetMap","source_detail":"osm way 10391307","source_tile":"171/402","surface_inferred":true},"geometry":{"type":"LineString","coordinates":[[-119.93681,36.00686],[-119.93631,36.0062],[-119.9346,36.00416],[-119.93324,36.00255],[-119.9321,36.00105],[-119.93166,36.00051],[-119.93151,36.0003],[-119.93143,36.00017],[-119.93136,36.00004],[-119.93106,35.99945],[-119.93048,35.99837],[-119.92986,35.99721],[-119.92958,35.99665],[-119.92947,35.99645],[-119.92943,35.99636],[-119.92785,35.99288],[-119.92574,35.98892],[-119.92466,35.98681],[-119.92383,35.9852],[-119.92357,35.98481],[-119.92321,35.98436],[-119.92135,35.98196],[-119.9205,35.9809],[-119.91971,35.97989],[-119.91848,35.97834],[-119.91837,35.9782],[-119.91765,35.97725],[-119.91655,35.97583],[-119.91541,35.97439],[-119.91473,35.9735],[-119.91353,35.97202],[-119.91332,35.97174],[-119.91312,35.97155],[-119.91244,35.97097],[-119.91232,35.97089],[-119.911,35.96984],[-119.90944,35.96864],[-119.90776,35.96731],[-119.90596,35.96593],[-119.90537,35.96553],[-119.90447,35.96495],[-119.90386,35.96454],[-119.90351,35.96431],[-119.90287,35.96381],[-119.90004,35.9617],[-119.89838,35.96046],[-119.89723,35.95959],[-119.89659,35.95912],[-119.89579,35.95852],[-119.89558,35.95839],[-119.89534,35.95826],[-119.88757,35.95455],[-119.88736,35.95447],[-119.88714,35.95439],[-119.88367,35.95324],[-119.87975,35.95197],[-119.87933,35.95186],[-119.87913,35.95176]]}},{"type":"Feature","properties":{"name":"(unnamed public road)","road_class":"track","source":"OpenStreetMap","source_detail":"osm way 10392573","source_tile":"171/402","surface_inferred":true},"geometry":{"type":"LineString","coordinates":[[-119.89677,35.9344],[-119.89677,35.94154],[-119.89673,35.9468],[-119.89676,35.94738],[-119.89678,35.94759],[-119.89678,35.94782],[-119.89675,35.94801],[-119.89671,35.94833],[-119.89671,35.94853],[-119.89671,35.94987],[-119.89662,35.95023],[-119.89657,35.95048],[-119.89657,35.95068],[-119.89657,35.95089],[-119.89653,35.95772],[-119.8965,35.95792],[-119.89645,35.95802],[-119.89638,35.95808],[-119.8963,35.95811],[-119.8962,35.95813],[-119.89611,35.95812],[-119.89597,35.95807],[-119.89445,35.95739],[-119.88765,35.9541],[-119.88745,35.95401],[-119.88713,35.95389],[-119.88681,35.9538],[-119.88359,35.95278],[-119.88114,35.95197],[-119.8791,35.95123]]}},{"type":"Feature","properties":{"name":"(unnamed public road)","road_class":"track","source":"OpenStreetMap","source_detail":"osm way 10393538","source_tile":"171/402","surface_inferred":true},"geometry":{"type":"LineString","coordinates":[[-119.88845,35.78885],[-119.88832,35.78891],[-119.88819,35.78895],[-119.88775,35.78906],[-119.88756,35.78908],[-119.88518,35.78909],[-119.88475,35.7891],[-119.88209,35.78908],[-119.87972,35.78913],[-119.87874,35.78915],[-119.87813,35.78914],[-119.87777,35.78918],[-119.87757,35.7892],[-119.8768,35.78921],[-119.87647,35.7892],[-119.87594,35.78908],[-119.87571,35.78905],[-119.87545,35.78903],[-119.87429,35.78904],[-119.87354,35.78903],[-119.87282,35.78904],[-119.87209,35.78913],[-119.8709,35.78913],[-119.87067,35.78908],[-119.87059,35.7891],[-119.87051,35.78917]]}},{"type":"Feature","properties":{"name":"(unnamed public road)","road_class":"track","source":"OpenStreetMap","source_detail":"osm way 10389830","source_tile":"171/402","surface_inferred":true},"geometry":{"type":"LineString","coordinates":[[-119.5538,36.02168],[-119.55378,36.02376],[-119.55379,36.02712],[-119.5538,36.03033],[-119.55382,36.03141],[-119.55382,36.03283],[-119.55383,36.03416],[-119.55383,36.03498],[-119.55388,36.03674],[-119.55387,36.0368],[-119.55385,36.03685],[-119.55379,36.03692],[-119.55375,36.03694],[-119.55356,36.03703],[-119.54887,36.03914],[-119.54787,36.03958],[-119.54775,36.03962],[-119.54767,36.03964],[-119.5476,36.03966],[-119.54709,36.0397],[-119.54516,36.03979],[-119.54502,36.0398],[-119.54493,36.03979],[-119.54481,36.03977],[-119.54455,36.03971],[-119.54386,36.03954],[-119.54184,36.0391],[-119.54162,36.03908],[-119.54123,36.03906],[-119.54104,36.03905],[-119.54097,36.03903],[-119.54085,36.03897],[-119.54079,36.03892],[-119.53942,36.03767],[-119.53932,36.03755],[-119.53929,36.03746],[-119.53923,36.03725],[-119.53916,36.03696],[-119.53908,36.03664],[-119.53905,36.03658],[-119.53902,36.03656],[-119.539,36.03655],[-119.53897,36.03655],[-119.53893,36.03656],[-119.53878,36.03659]]}},{"type":"Feature","properties":{"name":"(unnamed public road)","road_class":"track","source":"OpenStreetMap","source_detail":"osm way 10390122","source_tile":"171/402","surface_inferred":true},"geometry":{"type":"LineString","coordinates":[[-119.69587,36.04966],[-119.69587,36.0494],[-119.6959,36.04909],[-119.69592,36.0489],[-119.69597,36.04865],[-119.69603,36.04832],[-119.69605,36.04806],[-119.69631,36.03578],[-119.69629,36.03177],[-119.69625,36.02125],[-119.69617,36.00684],[-119.69617,36.00671],[-119.69617,36.00664],[-119.69619,36.00489],[-119.69621,35.99996],[-119.69622,35.99943],[-119.69621,35.99321],[-119.69624,35.99225],[-119.69631,35.98484],[-119.6962,35.97789],[-119.6962,35.97777],[-119.6962,35.97772],[-119.6962,35.97648],[-119.69619,35.97453],[-119.69622,35.97425],[-119.69628,35.97406],[-119.69642,35.97384],[-119.69657,35.97373],[-119.69671,35.97364],[-119.69689,35.97357],[-119.69708,35.97353],[-119.69722,35.9735],[-119.69817,35.97344],[-119.70265,35.97341],[-119.70377,35.97339],[-119.70399,35.97337],[-119.70417,35.97334],[-119.70433,35.9733],[-119.70446,35.97325],[-119.70458,35.9732],[-119.70468,35.97315],[-119.70478,35.97308],[-119.70487,35.973],[-119.70495,35.97292],[-119.70502,35.97283],[-119.70508,35.97274],[-119.70513,35.97264],[-119.70516,35.97254],[-119.70518,35.97243],[-119.70518,35.97233],[-119.70519,35.97059],[-119.70518,35.96563],[-119.70516,35.96307],[-119.7052,35.96286],[-119.70527,35.96262],[-119.70538,35.96239],[-119.7056,35.96218],[-119.70741,35.96082],[-119.70764,35.96065],[-119.70786,35.96044],[-119.70798,35.9603],[-119.70806,35.96019],[-119.70812,35.96009],[-119.70821,35.95987],[-119.70823,35.9597],[-119.70822,35.95165],[-119.7082,35.95036],[-119.70817,35.94946],[-119.70817,35.94934],[-119.70817,35.94914],[-119.70812,35.94903],[-119.70807,35.94891],[-119.70797,35.94868],[-119.70801,35.94313],[-119.70803,35.9416],[-119.70806,35.93865],[-119.70807,35.93603],[-119.70807,35.9359],[-119.70815,35.9358]]}},{"type":"Feature","properties":{"name":"(unnamed public road)","road_class":"track","source":"OpenStreetMap","source_detail":"osm way 10391590","source_tile":"171/402","surface_inferred":true},"geometry":{"type":"LineString","coordinates":[[-119.53651,35.96348],[-119.53652,35.96332],[-119.53671,35.96334],[-119.54203,35.96337],[-119.54557,35.96339],[-119.5489,35.96342],[-119.55041,35.96343],[-119.55303,35.96346],[-119.55551,35.96338],[-119.55559,35.96339],[-119.55689,35.96339],[-119.55991,35.96336],[-119.56574,35.96334],[-119.57067,35.96333],[-119.57133,35.96333],[-119.57195,35.96331],[-119.57209,35.96331],[-119.57237,35.96331],[-119.57298,35.96331],[-119.57319,35.9633],[-119.5733,35.96326],[-119.57346,35.9632],[-119.57356,35.96317],[-119.57366,35.96316],[-119.57541,35.96314],[-119.5778,35.96313],[-119.58117,35.96314],[-119.58461,35.96314],[-119.58648,35.96312],[-119.58945,35.96313],[-119.58957,35.96313],[-119.58972,35.96313],[-119.59101,35.96316],[-119.5915,35.96316],[-119.59164,35.96314],[-119.5951,35.96173],[-119.59552,35.96155],[-119.59566,35.96148],[-119.59586,35.96144],[-119.59634,35.96142],[-119.59912,35.96139],[-119.60088,35.96139],[-119.60247,35.96137],[-119.60422,35.96139],[-119.60434,35.96138],[-119.60443,35.96135],[-119.6046,35.9613],[-119.6049,35.96119],[-119.60868,35.95963],[-119.60881,35.95959],[-119.60889,35.95958],[-119.60905,35.95956],[-119.60975,35.95956],[-119.61756,35.95961],[-119.61776,35.95958],[-119.6179,35.9595],[-119.6218,35.95619],[-119.62188,35.95612],[-119.62197,35.95605],[-119.62202,35.95597],[-119.62204,35.95589],[-119.62206,35.95544],[-119.62204,35.95428],[-119.62206,35.95416],[-119.6221,35.95411],[-119.62217,35.95408],[-119.62224,35.95406],[-119.62233,35.95406],[-119.6225,35.95407],[-119.62596,35.95403],[-119.62666,35.95408],[-119.62687,35.95406],[-119.62714,35.95398],[-119.62884,35.95327],[-119.63166,35.95212],[-119.6339,35.95115],[-119.63699,35.94988],[-119.63989,35.9487],[-119.64029,35.94846],[-119.64187,35.94754],[-119.64402,35.94623],[-119.64487,35.94568],[-119.64506,35.94554],[-119.6451,35.94552],[-119.64515,35.94551],[-119.64522,35.9455],[-119.6453,35.94552],[-119.64534,35.94554],[-119.64539,35.94558],[-119.64542,35.94562],[-119.64544,35.94565],[-119.64543,35.94599],[-119.64543,35.94671],[-119.64544,35.9485],[-119.64543,35.95617],[-119.64546,35.96238],[-119.64544,35.96252],[-119.64539,35.9626],[-119.64532,35.96266],[-119.64521,35.9627],[-119.64504,35.96272],[-119.64305,35.96269],[-119.64294,35.9627],[-119.64284,35.96273],[-119.64274,35.96277],[-119.64268,35.96284],[-119.64263,35.96292],[-119.64261,35.96298],[-119.64259,35.96304],[-119.64257,35.9631],[-119.64256,35.96316],[-119.64255,35.96322],[-119.64256,35.96333],[-119.64262,35.96502],[-119.64264,35.96604],[-119.64262,35.9682],[-119.64262,35.97016],[-119.64262,35.97471],[-119.64262,35.9778],[-119.64266,35.98275],[-119.64263,35.98747],[-119.64268,35.99142],[-119.64268,35.99158],[-119.64267,35.99218],[-119.64268,35.99268],[-119.64272,35.99958],[-119.64271,35.99962],[-119.64271,35.99967],[-119.64272,36.00694],[-119.64272,36.00701],[-119.64274,36.02144],[-119.64275,36.02242],[-119.64268,36.03279],[-119.64267,36.03799],[-119.64244,36.04186],[-119.64262,36.04243],[-119.64281,36.04275]]}},{"type":"Feature","properties":{"name":"(unnamed public road)","road_class":"track","source":"OpenStreetMap","source_detail":"osm way 10391896","source_tile":"171/402","surface_inferred":true},"geometry":{"type":"LineString","coordinates":[[-119.84289,36.00639],[-119.84289,36.00669],[-119.84291,36.01316],[-119.84287,36.02067],[-119.84283,36.02847],[-119.84282,36.03054],[-119.84275,36.0352]]}},{"type":"Feature","properties":{"name":"(unnamed public road)","road_class":"track","source":"OpenStreetMap","source_detail":"osm way 10392099","source_tile":"171/402","surface_inferred":true},"geometry":{"type":"LineString","coordinates":[[-119.75442,35.94917],[-119.75446,35.94935],[-119.75447,35.95119],[-119.75446,35.95169],[-119.75449,35.95273],[-119.75445,35.95381],[-119.75445,35.95868],[-119.75443,35.96003],[-119.75445,35.96172],[-119.75443,35.96254],[-119.75444,35.96268],[-119.75445,35.96272],[-119.75443,35.96285],[-119.75435,35.96301],[-119.75429,35.96312],[-119.75406,35.9635],[-119.75397,35.96368],[-119.75396,35.96378],[-119.75395,35.96392],[-119.75381,35.97448],[-119.75378,35.97574],[-119.75369,35.97757],[-119.75375,35.98012],[-119.75356,35.99228],[-119.75353,35.9939],[-119.75321,36.00633],[-119.75321,36.00647],[-119.75322,36.00665],[-119.75328,36.00793],[-119.7533,36.00879],[-119.7533,36.01254],[-119.75329,36.01673],[-119.75329,36.01885],[-119.75331,36.02019],[-119.7533,36.02102],[-119.75333,36.02317],[-119.75332,36.0239],[-119.75335,36.02896],[-119.75337,36.03177],[-119.7534,36.0346],[-119.75339,36.03569],[-119.75341,36.03889],[-119.75342,36.04352],[-119.75344,36.04467],[-119.75344,36.04664],[-119.75345,36.04817],[-119.75348,36.04968],[-119.75347,36.04987],[-119.75346,36.04994],[-119.7534,36.05002],[-119.75334,36.05007],[-119.75317,36.05017],[-119.75311,36.05019],[-119.75304,36.05021],[-119.75295,36.05022],[-119.75276,36.05024],[-119.75256,36.05023],[-119.73301,36.05025],[-119.715,36.05022],[-119.70453,36.05013],[-119.7044,36.05013],[-119.69929,36.0501],[-119.69845,36.05009],[-119.69746,36.05008],[-119.69704,36.05003],[-119.69676,36.04998],[-119.69669,36.04997],[-119.69653,36.04993],[-119.69629,36.04986],[-119.69615,36.04981],[-119.69587,36.04966],[-119.69578,36.0497],[-119.69564,36.04972],[-119.69546,36.04972],[-119.68119,36.04982],[-119.67913,36.04986],[-119.65342,36.04993],[-119.646,36.04992],[-119.64595,36.04997],[-119.64591,36.05001],[-119.64594,36.05023],[-119.64592,36.05043],[-119.64589,36.05116]]}},{"type":"Feature","properties":{"name":"(unnamed public road)","road_class":"track","source":"OpenStreetMap","source_detail":"osm way 10394454","source_tile":"171/402","surface_inferred":true},"geometry":{"type":"LineString","coordinates":[[-119.715,36.00659],[-119.71485,36.01969],[-119.71485,36.02104],[-119.71483,36.02118],[-119.71483,36.02125],[-119.71481,36.02773],[-119.71481,36.02859],[-119.71479,36.03397],[-119.71482,36.03567],[-119.71484,36.03579],[-119.71485,36.03582],[-119.71487,36.03584],[-119.71489,36.03585],[-119.71499,36.03586],[-119.71502,36.03587],[-119.71504,36.03588],[-119.71505,36.03591],[-119.71505,36.03595],[-119.71528,36.04951],[-119.71527,36.04955],[-119.71525,36.04958],[-119.71523,36.04961],[-119.71514,36.04964],[-119.71508,36.04968],[-119.71504,36.04973],[-119.71502,36.04977],[-119.71499,36.04984],[-119.715,36.05022]]}},{"type":"Feature","properties":{"name":"(unnamed public road)","road_class":"track","source":"OpenStreetMap","source_detail":"osm way 10394831","source_tile":"171/402","surface_inferred":true},"geometry":{"type":"LineString","coordinates":[[-119.82474,36.00646],[-119.82481,36.00678],[-119.82484,36.00697],[-119.82486,36.00716],[-119.82487,36.00734],[-119.82494,36.01837],[-119.82495,36.02109],[-119.82498,36.02311],[-119.82501,36.02992],[-119.8251,36.03543],[-119.8251,36.03556],[-119.82511,36.03576],[-119.82514,36.03953],[-119.82493,36.04638],[-119.82491,36.04809],[-119.82494,36.04856],[-119.82498,36.04874],[-119.82507,36.0491],[-119.82515,36.04934],[-119.8252,36.04944],[-119.82525,36.04952],[-119.82531,36.0496],[-119.82543,36.04969],[-119.82557,36.04979],[-119.82567,36.04989],[-119.82571,36.04994],[-119.8258,36.05011],[-119.82581,36.05013],[-119.82583,36.05019],[-119.82584,36.05026]]}},{"type":"Feature","properties":{"name":"(unnamed public road)","road_class":"track","source":"OpenStreetMap","source_detail":"osm way 10396352","source_tile":"171/402","surface_inferred":true},"geometry":{"type":"LineString","coordinates":[[-119.86019,35.97762],[-119.85824,35.97761],[-119.85129,35.97763],[-119.8431,35.97768],[-119.83538,35.97772],[-119.83323,35.9777],[-119.82717,35.97772],[-119.8268,35.97771],[-119.82654,35.9777],[-119.82645,35.97769],[-119.82616,35.97753],[-119.82592,35.97753],[-119.82579,35.97754],[-119.82572,35.97754],[-119.82565,35.97756],[-119.82558,35.97759],[-119.82533,35.97772],[-119.82524,35.97777],[-119.82513,35.97781],[-119.82504,35.97782],[-119.82428,35.97785],[-119.82388,35.97785],[-119.8214,35.97782],[-119.80743,35.97781],[-119.8009,35.97781],[-119.79032,35.97782],[-119.78979,35.97784],[-119.78968,35.97784],[-119.78945,35.97785],[-119.78929,35.97785],[-119.78919,35.97784],[-119.78913,35.97782],[-119.78908,35.9778],[-119.78906,35.97776],[-119.78905,35.97772],[-119.78906,35.97766],[-119.78907,35.97761],[-119.78915,35.97744],[-119.78922,35.9773],[-119.78925,35.97724],[-119.78927,35.97717],[-119.78928,35.9771],[-119.78929,35.97664],[-119.78932,35.97598],[-119.78948,35.97076],[-119.78952,35.96902],[-119.78955,35.96833],[-119.78957,35.96762],[-119.7896,35.9669],[-119.78963,35.96547],[-119.78967,35.96374],[-119.78969,35.96333],[-119.78969,35.96326],[-119.78969,35.96322],[-119.78964,35.96317],[-119.78956,35.96314],[-119.78937,35.96313],[-119.78898,35.96314],[-119.77178,35.96317],[-119.77029,35.96319],[-119.76362,35.96314],[-119.75598,35.96305],[-119.75517,35.96307],[-119.75483,35.96309],[-119.75464,35.9634],[-119.75451,35.96362],[-119.75446,35.96377],[-119.75443,35.96388],[-119.75424,35.9759],[-119.75423,35.97684],[-119.75421,35.97741],[-119.75418,35.98128],[-119.75398,35.99246],[-119.75385,35.9997],[-119.75374,36.00525],[-119.75371,36.00591],[-119.75371,36.00606],[-119.7537,36.00613],[-119.75369,36.00621],[-119.75364,36.00636],[-119.75361,36.00647],[-119.7536,36.00661],[-119.7536,36.00668],[-119.75362,36.0068],[-119.75365,36.0069],[-119.75369,36.00703],[-119.75373,36.00714],[-119.7538,36.00727],[-119.75383,36.00733],[-119.75385,36.00745],[-119.75386,36.00803],[-119.75385,36.01394],[-119.75384,36.01703],[-119.75388,36.02096],[-119.75389,36.02104],[-119.75397,36.02733],[-119.75399,36.03551],[-119.75399,36.03561],[-119.75405,36.04992],[-119.75404,36.05001],[-119.75403,36.05015],[-119.754,36.05028],[-119.75396,36.05057],[-119.75392,36.05074],[-119.75383,36.05102],[-119.75376,36.05108],[-119.75361,36.05128],[-119.75353,36.05141],[-119.75347,36.05159],[-119.75345,36.0521],[-119.7534,36.05244],[-119.7534,36.05563],[-119.75342,36.05882],[-119.75344,36.05948],[-119.75342,36.06141],[-119.75342,36.06301],[-119.75345,36.06518],[-119.75342,36.07263],[-119.75341,36.07557],[-119.75344,36.0773],[-119.7534,36.07971],[-119.75335,36.09243],[-119.75337,36.09403],[-119.75334,36.09429]]}},{"type":"Feature","properties":{"name":"22 Nd Avenue","road_class":"track","source":"OpenStreetMap","source_detail":"osm way 10398073","source_tile":"171/402","surface_inferred":true},"geometry":{"type":"LineString","coordinates":[[-119.86043,36.00661],[-119.8604,36.01151],[-119.86039,36.01462],[-119.86036,36.01791],[-119.86032,36.0198],[-119.8603,36.02184],[-119.86026,36.02511],[-119.86026,36.02891],[-119.86021,36.03298],[-119.86021,36.03473],[-119.86025,36.03826],[-119.86033,36.03943],[-119.86028,36.04463],[-119.86026,36.04809],[-119.86028,36.04967],[-119.86028,36.04978],[-119.86025,36.04991],[-119.86022,36.05005],[-119.86021,36.05018],[-119.8602,36.05048],[-119.86022,36.06205],[-119.86024,36.06477],[-119.86023,36.07933],[-119.86026,36.07978],[-119.86037,36.09029],[-119.86039,36.09355],[-119.86037,36.09422],[-119.86039,36.09669],[-119.86039,36.09787],[-119.86044,36.10594],[-119.86046,36.10863]]}},{"type":"Feature","properties":{"name":"7th Avenue","road_class":"track","source":"OpenStreetMap","source_detail":"osm way 10398291","source_tile":"171/402","surface_inferred":true},"geometry":{"type":"LineString","coordinates":[[-119.58977,36.02151],[-119.58978,36.03133],[-119.58977,36.033],[-119.58977,36.03566],[-119.58978,36.03571],[-119.58981,36.03578],[-119.58987,36.03583],[-119.58991,36.03586],[-119.59009,36.03598]]}},{"type":"Feature","properties":{"name":"23rd Avenue","road_class":"unclassified","surface":"unpaved","source":"OpenStreetMap","source_detail":"osm way 453071612","source_tile":"171/402"},"geometry":{"type":"LineString","coordinates":[[-119.87897,35.97243],[-119.87895,35.97292],[-119.87877,35.97785],[-119.87881,35.97975],[-119.87876,35.98241],[-119.87867,35.99565],[-119.87864,35.99756],[-119.8786,36.00564],[-119.87859,36.00648],[-119.87858,36.0067],[-119.87859,36.00824],[-119.87854,36.01484],[-119.87846,36.01756],[-119.87839,36.02553],[-119.87828,36.03571],[-119.87828,36.03751],[-119.87819,36.04828],[-119.87819,36.04907],[-119.8782,36.04938],[-119.87822,36.04961],[-119.87824,36.04979],[-119.87825,36.04998],[-119.87825,36.05057],[-119.87827,36.05767],[-119.87831,36.06525],[-119.87823,36.07922],[-119.87825,36.0795],[-119.87828,36.08159],[-119.87847,36.09222],[-119.87847,36.10035],[-119.87839,36.10894],[-119.87838,36.11195],[-119.87846,36.11684],[-119.87848,36.11939],[-119.87848,36.1209],[-119.8785,36.12191]]}},{"type":"Feature","properties":{"name":"(unnamed public road)","road_class":"track","source":"OpenStreetMap","source_detail":"osm way 10389863","source_tile":"171/402","surface_inferred":true},"geometry":{"type":"LineString","coordinates":[[-119.55518,35.85888],[-119.55519,35.86068],[-119.55521,35.86162],[-119.55519,35.86193],[-119.55516,35.86245],[-119.55515,35.86252],[-119.55511,35.86257],[-119.55504,35.86259],[-119.55499,35.86259],[-119.55261,35.86259],[-119.55024,35.86262]]}},{"type":"Feature","properties":{"name":"(unnamed public road)","road_class":"track","source":"OpenStreetMap","source_detail":"osm way 10389885","source_tile":"171/402","surface_inferred":true},"geometry":{"type":"LineString","coordinates":[[-119.53775,35.85506],[-119.53836,35.8551],[-119.53928,35.85507],[-119.54045,35.85506],[-119.54065,35.85505],[-119.54072,35.85506],[-119.54078,35.85513],[-119.54078,35.85527],[-119.54075,35.85542],[-119.5407,35.85571],[-119.54058,35.859],[-119.54058,35.85999],[-119.54056,35.86206],[-119.54054,35.8625],[-119.54051,35.86257],[-119.54046,35.86264]]}},{"type":"Feature","properties":{"name":"(unnamed public road)","road_class":"track","source":"OpenStreetMap","source_detail":"osm way 10390061","source_tile":"171/402","surface_inferred":true},"geometry":{"type":"LineString","coordinates":[[-119.57336,35.79709],[-119.56921,35.79712],[-119.56688,35.79709],[-119.56457,35.79711],[-119.56235,35.79712],[-119.55994,35.79712],[-119.55763,35.79713],[-119.55639,35.79713],[-119.55558,35.79712],[-119.55102,35.79716],[-119.54885,35.79715],[-119.53776,35.79716]]}},{"type":"Feature","properties":{"name":"(unnamed public road)","road_class":"track","source":"OpenStreetMap","source_detail":"osm way 10390128","source_tile":"171/402","surface_inferred":true},"geometry":{"type":"LineString","coordinates":[[-119.69617,36.00664],[-119.69572,36.00664],[-119.69502,36.00665],[-119.67888,36.00676],[-119.66117,36.00682],[-119.66093,36.00682],[-119.64319,36.00688]]}},{"type":"Feature","properties":{"name":"(unnamed public road)","road_class":"track","source":"OpenStreetMap","source_detail":"osm way 10390409","source_tile":"171/402","surface_inferred":true},"geometry":{"type":"LineString","coordinates":[[-119.58972,35.96313],[-119.58979,35.96327],[-119.58979,35.96346],[-119.58971,35.96366],[-119.5897,35.96429],[-119.58971,35.96585],[-119.58971,35.9665],[-119.58974,35.96894],[-119.58976,35.97162],[-119.58979,35.97429],[-119.5898,35.97649],[-119.58981,35.97681],[-119.58984,35.97745],[-119.58986,35.97774],[-119.58984,35.97781],[-119.58982,35.97805],[-119.58982,35.97813],[-119.58984,35.98461],[-119.58985,35.98767],[-119.58986,35.9907],[-119.58988,35.99141],[-119.58995,35.99246],[-119.59,35.99263],[-119.58993,35.99295],[-119.58992,35.99419],[-119.58992,35.99688],[-119.58993,35.99891],[-119.58992,36.00076],[-119.58993,36.00328],[-119.58992,36.00621],[-119.58993,36.00655],[-119.58998,36.00704],[-119.58993,36.00736],[-119.58994,36.01872],[-119.59002,36.0215]]}},{"type":"Feature","properties":{"name":"(unnamed public road)","road_class":"track","source":"OpenStreetMap","source_detail":"osm way 10390536","source_tile":"171/402","surface_inferred":true},"geometry":{"type":"LineString","coordinates":[[-119.71238,35.93748],[-119.71221,35.93807],[-119.71216,35.94907],[-119.71216,35.94923]]}},{"type":"Feature","properties":{"name":"(unnamed public road)","road_class":"track","source":"OpenStreetMap","source_detail":"osm way 10390586","source_tile":"171/402","surface_inferred":true},"geometry":{"type":"LineString","coordinates":[[-119.64597,35.94917],[-119.64612,35.94917],[-119.64625,35.94916],[-119.64678,35.94916],[-119.64865,35.94915],[-119.66261,35.94913],[-119.66428,35.94914],[-119.66502,35.94912],[-119.66927,35.94908],[-119.67498,35.94906],[-119.67718,35.94907],[-119.6806,35.94906],[-119.68207,35.94904],[-119.68727,35.94907],[-119.69004,35.94904],[-119.70022,35.94908],[-119.70621,35.94911],[-119.70737,35.94911],[-119.70779,35.94914],[-119.70817,35.94914],[-119.70854,35.94917],[-119.70979,35.9492],[-119.71216,35.94923],[-119.7123,35.94923],[-119.72032,35.94928],[-119.7226,35.94928],[-119.72331,35.94928],[-119.72341,35.94928],[-119.72698,35.94929],[-119.72707,35.94929],[-119.72794,35.94928],[-119.72999,35.9493],[-119.73175,35.9493],[-119.73373,35.94932],[-119.73562,35.94931],[-119.74222,35.94931],[-119.74376,35.94931],[-119.74558,35.94929],[-119.7459,35.94929],[-119.74635,35.94928],[-119.74717,35.94922],[-119.74873,35.94914],[-119.74993,35.94907],[-119.75083,35.94906],[-119.75203,35.94908],[-119.75343,35.9491],[-119.75394,35.94912],[-119.7541,35.94913],[-119.75442,35.94917]]}},{"type":"Feature","properties":{"name":"(unnamed public road)","road_class":"track","source":"OpenStreetMap","source_detail":"osm way 10390613","source_tile":"171/402","surface_inferred":true},"geometry":{"type":"LineString","coordinates":[[-119.70885,35.93388],[-119.70886,35.93313],[-119.70882,35.92686],[-119.70884,35.9264],[-119.70886,35.92481],[-119.70883,35.9214],[-119.70884,35.91979],[-119.70883,35.91964],[-119.70881,35.91461],[-119.70882,35.91266],[-119.70882,35.9125],[-119.70881,35.90926],[-119.70883,35.90675],[-119.70881,35.90542],[-119.70873,35.90297],[-119.70871,35.90155],[-119.70872,35.89973],[-119.70871,35.89799],[-119.70871,35.89763],[-119.70874,35.89572],[-119.7087,35.89087],[-119.7087,35.88547],[-119.70869,35.88481],[-119.70868,35.88379],[-119.70868,35.88365],[-119.70885,35.87897],[-119.70884,35.87854]]}},{"type":"Feature","properties":{"name":"(unnamed public road)","road_class":"track","source":"OpenStreetMap","source_detail":"osm way 10390773","source_tile":"171/402","surface_inferred":true},"geometry":{"type":"LineString","coordinates":[[-119.54608,35.81906],[-119.53783,35.81909]]}},{"type":"Feature","properties":{"name":"(unnamed public road)","road_class":"track","source":"OpenStreetMap","source_detail":"osm way 10391216","source_tile":"171/402","surface_inferred":true},"geometry":{"type":"LineString","coordinates":[[-119.82524,36.00639],[-119.82474,36.00646],[-119.82457,36.00648],[-119.82429,36.00653],[-119.8242,36.00654],[-119.82337,36.00653],[-119.82203,36.00656],[-119.81863,36.00656],[-119.81571,36.00656],[-119.81352,36.00657],[-119.81199,36.00657],[-119.80709,36.00657],[-119.78967,36.00658],[-119.77975,36.00657],[-119.77053,36.00654],[-119.76584,36.00656],[-119.76361,36.00656],[-119.75952,36.00655],[-119.75574,36.00653],[-119.75461,36.00653],[-119.75423,36.00651],[-119.75396,36.00648],[-119.75383,36.00644],[-119.75364,36.00636],[-119.75342,36.00634],[-119.75321,36.00633]]}},{"type":"Feature","properties":{"name":"(unnamed public road)","road_class":"track","source":"OpenStreetMap","source_detail":"osm way 10391335","source_tile":"171/402","surface_inferred":true},"geometry":{"type":"LineString","coordinates":[[-119.67214,35.93396],[-119.67213,35.93413],[-119.67215,35.93421],[-119.67217,35.93424],[-119.6722,35.93424],[-119.67313,35.93424],[-119.67513,35.93422],[-119.67781,35.93421],[-119.68214,35.93423],[-119.68235,35.93423],[-119.68359,35.93422],[-119.68933,35.93426],[-119.6936,35.93427],[-119.70023,35.93432],[-119.70257,35.93433],[-119.70319,35.93434],[-119.70334,35.93435],[-119.70351,35.93435],[-119.70373,35.93439],[-119.70574,35.93501],[-119.70784,35.9357],[-119.70815,35.9358],[-119.70836,35.93587],[-119.70918,35.93617],[-119.71238,35.93748],[-119.71297,35.93771],[-119.71508,35.93865],[-119.71551,35.93883],[-119.71599,35.93895],[-119.71718,35.93917],[-119.72168,35.94004],[-119.72439,35.94058],[-119.72621,35.94096],[-119.72802,35.94131],[-119.72811,35.94132],[-119.7282,35.94132],[-119.7283,35.9413],[-119.73058,35.94069],[-119.73219,35.94024],[-119.73497,35.9395],[-119.73515,35.93949],[-119.73525,35.93949],[-119.73535,35.93951],[-119.73544,35.93956],[-119.73553,35.93966],[-119.73559,35.93981],[-119.7356,35.93998],[-119.73559,35.94063],[-119.73558,35.9412],[-119.7356,35.94196],[-119.73559,35.94403],[-119.7356,35.94675],[-119.73562,35.94881],[-119.73561,35.94908],[-119.73562,35.94931]]}},{"type":"Feature","properties":{"name":"(unnamed public road)","road_class":"track","source":"OpenStreetMap","source_detail":"osm way 10391490","source_tile":"171/402","surface_inferred":true},"geometry":{"type":"LineString","coordinates":[[-119.69496,35.99233],[-119.6949,35.99218],[-119.69215,35.99218],[-119.6872,35.9922],[-119.68393,35.99223],[-119.67898,35.9922],[-119.6612,35.99229]]}},{"type":"Feature","properties":{"name":"(unnamed public road)","road_class":"track","source":"OpenStreetMap","source_detail":"osm way 10391810","source_tile":"171/402","surface_inferred":true},"geometry":{"type":"LineString","coordinates":[[-119.572,35.99257],[-119.57218,35.99257],[-119.57229,35.99262],[-119.57287,35.9926],[-119.57427,35.99261],[-119.57743,35.9926],[-119.58487,35.9926],[-119.58616,35.99261],[-119.58807,35.99261],[-119.58964,35.99262],[-119.58975,35.99252],[-119.58979,35.99249],[-119.58995,35.99246],[-119.59009,35.99246],[-119.59147,35.99243],[-119.59207,35.99244],[-119.59387,35.99242],[-119.59549,35.9924],[-119.59625,35.99241],[-119.59875,35.99242],[-119.60417,35.99239],[-119.60646,35.99238],[-119.60727,35.99239],[-119.60739,35.99237],[-119.60746,35.99235],[-119.60752,35.99231],[-119.60763,35.99226],[-119.60768,35.99224],[-119.60774,35.99223],[-119.60782,35.99223],[-119.60884,35.99224],[-119.61326,35.99223],[-119.61657,35.99222],[-119.61808,35.99223],[-119.62072,35.99223],[-119.62286,35.99223],[-119.62564,35.99222],[-119.62596,35.99221],[-119.63435,35.99222],[-119.64128,35.9922],[-119.64139,35.9922],[-119.64267,35.99218]]}},{"type":"Feature","properties":{"name":"(unnamed public road)","road_class":"track","source":"OpenStreetMap","source_detail":"osm way 10392048","source_tile":"171/402","surface_inferred":true},"geometry":{"type":"LineString","coordinates":[[-119.70889,35.93583],[-119.71152,35.93691],[-119.71436,35.93811],[-119.71525,35.93851],[-119.71557,35.93862],[-119.71587,35.9387],[-119.71736,35.93897],[-119.7216,35.9398],[-119.72444,35.94039],[-119.72616,35.94074],[-119.72759,35.94104],[-119.728,35.94112],[-119.72816,35.94112],[-119.72823,35.94111],[-119.7284,35.94108],[-119.72921,35.94084],[-119.73217,35.94005],[-119.73499,35.9393],[-119.7351,35.93926],[-119.7352,35.93924],[-119.73529,35.93924],[-119.73537,35.93925],[-119.73551,35.93929],[-119.73561,35.93934],[-119.73571,35.93943],[-119.73579,35.93953],[-119.73582,35.93965],[-119.73582,35.94058],[-119.7358,35.94121],[-119.73579,35.94405],[-119.73583,35.94667],[-119.73589,35.94879],[-119.73596,35.94888],[-119.73603,35.94893],[-119.73611,35.94895],[-119.73644,35.94898],[-119.73885,35.94897],[-119.74157,35.94897],[-119.7448,35.94898],[-119.74643,35.94895],[-119.74662,35.94893],[-119.74685,35.94888],[-119.74715,35.94886],[-119.74905,35.94882],[-119.74923,35.9488],[-119.74953,35.94873],[-119.74976,35.94869],[-119.75,35.94866],[-119.75041,35.94865],[-119.75238,35.94873],[-119.75285,35.94874],[-119.7534,35.94873],[-119.75343,35.94873],[-119.75354,35.94871],[-119.75374,35.94863]]}},{"type":"Feature","properties":{"name":"(unnamed public road)","road_class":"track","source":"OpenStreetMap","source_detail":"osm way 10393168","source_tile":"171/402","surface_inferred":true},"geometry":{"type":"LineString","coordinates":[[-119.75322,36.00665],[-119.75312,36.00662],[-119.75304,36.00659],[-119.7529,36.00658],[-119.75276,36.00657],[-119.7526,36.00658],[-119.74981,36.00658],[-119.74589,36.00656],[-119.74363,36.00657],[-119.73822,36.00657],[-119.73273,36.0066],[-119.72485,36.00658],[-119.71771,36.00657],[-119.715,36.00659],[-119.69761,36.00681],[-119.69745,36.00682],[-119.69617,36.00684]]}},{"type":"Feature","properties":{"name":"(unnamed public road)","road_class":"track","source":"OpenStreetMap","source_detail":"osm way 10393201","source_tile":"171/402","surface_inferred":true},"geometry":{"type":"LineString","coordinates":[[-119.53654,35.97806],[-119.53654,35.97824],[-119.53651,35.98014],[-119.53654,35.98214],[-119.53647,35.98406],[-119.53648,35.98549],[-119.53648,35.98915],[-119.53649,35.99209],[-119.53663,35.99236],[-119.53662,35.9926]]}},{"type":"Feature","properties":{"name":"(unnamed public road)","road_class":"track","source":"OpenStreetMap","source_detail":"osm way 10393204","source_tile":"171/402","surface_inferred":true},"geometry":{"type":"LineString","coordinates":[[-119.84835,35.89067],[-119.84829,35.89781]]}},{"type":"Feature","properties":{"name":"(unnamed public road)","road_class":"track","source":"OpenStreetMap","source_detail":"osm way 10393252","source_tile":"171/402","surface_inferred":true},"geometry":{"type":"LineString","coordinates":[[-119.68207,35.94904],[-119.68218,35.94884],[-119.68219,35.94875],[-119.68219,35.94869],[-119.68221,35.94252],[-119.68223,35.93991],[-119.68227,35.93445]]}},{"type":"Feature","properties":{"name":"(unnamed public road)","road_class":"track","source":"OpenStreetMap","source_detail":"osm way 10393413","source_tile":"171/402","surface_inferred":true},"geometry":{"type":"LineString","coordinates":[[-119.55024,35.86262],[-119.54844,35.86264],[-119.54811,35.86264],[-119.54781,35.86264],[-119.5458,35.86263],[-119.54453,35.86262],[-119.54136,35.86265],[-119.54076,35.86265],[-119.54061,35.86266],[-119.54046,35.86264]]}},{"type":"Feature","properties":{"name":"(unnamed public road)","road_class":"track","source":"OpenStreetMap","source_detail":"osm way 10393471","source_tile":"171/402","surface_inferred":true},"geometry":{"type":"LineString","coordinates":[[-119.64625,35.94916],[-119.64625,35.94932],[-119.64625,35.94942],[-119.64625,35.94951],[-119.64625,35.95],[-119.64624,35.95061],[-119.64625,35.95115],[-119.64625,35.95191],[-119.64627,35.95426],[-119.64629,35.95591],[-119.64628,35.95608],[-119.64629,35.95615],[-119.64632,35.95619],[-119.64636,35.9562],[-119.67895,35.95606],[-119.70774,35.95596]]}},{"type":"Feature","properties":{"name":"(unnamed public road)","road_class":"track","source":"OpenStreetMap","source_detail":"osm way 10393616","source_tile":"171/402","surface_inferred":true},"geometry":{"type":"LineString","coordinates":[[-119.61176,35.80449],[-119.6258,35.80452],[-119.63679,35.80452],[-119.64156,35.80452],[-119.65552,35.80473],[-119.65607,35.80474],[-119.66425,35.80487],[-119.6654,35.80478],[-119.68013,35.80492],[-119.68902,35.8049],[-119.69352,35.8049],[-119.70055,35.8048],[-119.70698,35.80474],[-119.71282,35.80479],[-119.71503,35.80474],[-119.7177,35.8047]]}},{"type":"Feature","properties":{"name":"(unnamed public road)","road_class":"track","source":"OpenStreetMap","source_detail":"osm way 10393681","source_tile":"171/402","surface_inferred":true},"geometry":{"type":"LineString","coordinates":[[-119.61848,35.78984],[-119.61847,35.79188],[-119.61849,35.79225],[-119.61849,35.79238],[-119.61849,35.79245],[-119.61847,35.79258],[-119.61844,35.79268],[-119.61841,35.7928],[-119.61837,35.79289],[-119.61831,35.79303],[-119.61825,35.79317],[-119.6182,35.79326],[-119.61809,35.79342],[-119.61728,35.79463],[-119.61615,35.79623],[-119.61394,35.79951],[-119.61297,35.80089],[-119.61191,35.8025],[-119.61093,35.80392],[-119.61078,35.80412]]}},{"type":"Feature","properties":{"name":"(unnamed public road)","road_class":"track","source":"OpenStreetMap","source_detail":"osm way 10393685","source_tile":"171/402","surface_inferred":true},"geometry":{"type":"LineString","coordinates":[[-119.61876,35.78982],[-119.61875,35.79178],[-119.61879,35.79254],[-119.61877,35.79271],[-119.61873,35.79282],[-119.61868,35.79295],[-119.61811,35.79387],[-119.61223,35.80252],[-119.61125,35.804]]}},{"type":"Feature","properties":{"name":"(unnamed public road)","road_class":"track","source":"OpenStreetMap","source_detail":"osm way 10394165","source_tile":"171/402","surface_inferred":true},"geometry":{"type":"LineString","coordinates":[[-119.58945,35.96313],[-119.58944,35.96527],[-119.58945,35.96636],[-119.58946,35.96893],[-119.58947,35.97147],[-119.58949,35.97293],[-119.58948,35.97425],[-119.5895,35.97651],[-119.58949,35.97675],[-119.58949,35.97783],[-119.58951,35.97841],[-119.58954,35.98048],[-119.58957,35.98458],[-119.58961,35.99112],[-119.58961,35.99231],[-119.58961,35.99255],[-119.58964,35.99262],[-119.58967,35.99267],[-119.58971,35.99287],[-119.58972,35.99292],[-119.58973,35.99322],[-119.58973,35.99715],[-119.58974,35.99969],[-119.58974,35.99982],[-119.58974,36.00041],[-119.58974,36.00151],[-119.58974,36.00614],[-119.58974,36.00703],[-119.58975,36.00736],[-119.58978,36.00764],[-119.58978,36.0103],[-119.58979,36.01087],[-119.58976,36.01413],[-119.58979,36.01586],[-119.58979,36.0199],[-119.58976,36.02113],[-119.58977,36.02151]]}},{"type":"Feature","properties":{"name":"(unnamed public road)","road_class":"track","source":"OpenStreetMap","source_detail":"osm way 10394200","source_tile":"171/402","surface_inferred":true},"geometry":{"type":"LineString","coordinates":[[-119.54058,35.859],[-119.54035,35.85901],[-119.53812,35.85899],[-119.53785,35.85898]]}},{"type":"Feature","properties":{"name":"(unnamed public road)","road_class":"track","source":"OpenStreetMap","source_detail":"osm way 10394421","source_tile":"171/402","surface_inferred":true},"geometry":{"type":"LineString","coordinates":[[-119.77188,35.9341],[-119.7719,35.93401],[-119.77193,35.93195],[-119.77195,35.93013],[-119.77193,35.92845],[-119.772,35.92243],[-119.77203,35.91981],[-119.77206,35.91715],[-119.77206,35.91525],[-119.77205,35.91448],[-119.77213,35.91089],[-119.77218,35.90529],[-119.77221,35.90494],[-119.77223,35.90464],[-119.77231,35.90276],[-119.77231,35.90075],[-119.77237,35.89622],[-119.77237,35.891],[-119.77237,35.89093],[-119.77237,35.89082],[-119.77242,35.89075],[-119.7725,35.89071],[-119.77256,35.89069],[-119.77275,35.89068],[-119.78736,35.89068],[-119.78989,35.8907],[-119.79751,35.89068],[-119.82567,35.89061],[-119.82605,35.89061],[-119.82656,35.8906],[-119.8279,35.89061],[-119.8291,35.8906],[-119.84009,35.89063],[-119.84362,35.89065],[-119.84835,35.89067],[-119.85294,35.89068],[-119.85503,35.8907],[-119.85865,35.89071],[-119.86147,35.89071],[-119.86165,35.89068],[-119.86189,35.89066],[-119.86272,35.89066],[-119.86571,35.89068],[-119.86597,35.89067],[-119.86603,35.89067],[-119.8661,35.89068],[-119.86617,35.8907],[-119.86624,35.89079],[-119.86633,35.89095],[-119.86635,35.89101],[-119.86641,35.89112],[-119.86651,35.89123],[-119.86695,35.89171],[-119.86713,35.89193],[-119.86741,35.89222],[-119.86809,35.89295],[-119.86858,35.89346],[-119.8689,35.89379],[-119.86939,35.89433],[-119.86968,35.89462],[-119.87031,35.89528],[-119.87098,35.89597],[-119.87166,35.89666],[-119.87245,35.89751],[-119.87301,35.89812],[-119.87356,35.89867],[-119.87432,35.89948],[-119.87464,35.89981],[-119.87511,35.90033],[-119.87578,35.90102],[-119.87609,35.90134],[-119.87624,35.90151],[-119.87636,35.90167],[-119.87873,35.90491],[-119.87886,35.90514],[-119.87888,35.90532],[-119.87891,35.90551],[-119.87892,35.90926],[-119.87891,35.91237],[-119.87892,35.91252],[-119.87906,35.91273],[-119.87917,35.91293],[-119.87918,35.91307],[-119.87915,35.9178],[-119.87913,35.91991],[-119.8791,35.92023],[-119.87908,35.92127],[-119.87892,35.93035],[-119.8788,35.93424]]}},{"type":"Feature","properties":{"name":"(unnamed public road)","road_class":"track","source":"OpenStreetMap","source_detail":"osm way 10394554","source_tile":"171/402","surface_inferred":true},"geometry":{"type":"LineString","coordinates":[[-119.64272,36.00694],[-119.62625,36.00697],[-119.62559,36.00697],[-119.61658,36.00699],[-119.60786,36.007],[-119.60782,36.007]]}},{"type":"Feature","properties":{"name":"(unnamed public road)","road_class":"track","source":"OpenStreetMap","source_detail":"osm way 10394785","source_tile":"171/402","surface_inferred":true},"geometry":{"type":"LineString","coordinates":[[-119.53781,35.84622],[-119.54094,35.84625],[-119.54163,35.84625],[-119.54181,35.84629],[-119.54263,35.84654],[-119.54423,35.84718],[-119.54635,35.84792]]}},{"type":"Feature","properties":{"name":"(unnamed public road)","road_class":"track","source":"OpenStreetMap","source_detail":"osm way 10395085","source_tile":"171/402","surface_inferred":true},"geometry":{"type":"LineString","coordinates":[[-119.62211,35.81557],[-119.6219,35.81535],[-119.62096,35.81431],[-119.61901,35.81223],[-119.61506,35.80806],[-119.61439,35.8073],[-119.6119,35.80463],[-119.61176,35.80449],[-119.61125,35.804],[-119.61115,35.80403],[-119.61106,35.80403],[-119.61094,35.80407],[-119.61078,35.80412],[-119.61041,35.80417],[-119.60445,35.80421],[-119.60161,35.80423],[-119.60024,35.80423],[-119.5954,35.80423],[-119.5932,35.80424],[-119.59125,35.80425],[-119.58868,35.80428],[-119.58636,35.80428],[-119.58413,35.8043],[-119.5822,35.80431],[-119.58172,35.8043],[-119.57931,35.80433],[-119.57466,35.80434],[-119.57345,35.80436],[-119.5729,35.80436],[-119.5726,35.80435],[-119.57049,35.80437],[-119.56883,35.80435],[-119.56735,35.80438],[-119.56414,35.8044],[-119.56245,35.80439],[-119.56082,35.8044],[-119.55906,35.80441],[-119.55567,35.80441],[-119.55287,35.80439],[-119.55115,35.8044],[-119.5495,35.80442],[-119.54634,35.80443],[-119.54493,35.80443],[-119.5433,35.80445],[-119.5416,35.80445],[-119.53987,35.80444],[-119.5383,35.80443],[-119.53779,35.80444]]}},{"type":"Feature","properties":{"name":"(unnamed public road)","road_class":"track","source":"OpenStreetMap","source_detail":"osm way 10395089","source_tile":"171/402","surface_inferred":true},"geometry":{"type":"LineString","coordinates":[[-119.55569,35.81161],[-119.55569,35.81041],[-119.55564,35.80597],[-119.55567,35.80441],[-119.55566,35.80431],[-119.55562,35.80209],[-119.55561,35.79993],[-119.55558,35.7977],[-119.55558,35.79712],[-119.55557,35.79576],[-119.55555,35.79353],[-119.55551,35.79014]]}},{"type":"Feature","properties":{"name":"(unnamed public road)","road_class":"track","source":"OpenStreetMap","source_detail":"osm way 10395123","source_tile":"171/402","surface_inferred":true},"geometry":{"type":"LineString","coordinates":[[-119.82569,35.94086],[-119.82598,35.94092],[-119.82613,35.94096],[-119.83313,35.94288],[-119.83564,35.94358],[-119.83812,35.94426],[-119.84319,35.94558],[-119.84325,35.9456],[-119.84327,35.94562]]}},{"type":"Feature","properties":{"name":"(unnamed public road)","road_class":"track","source":"OpenStreetMap","source_detail":"osm way 10395581","source_tile":"171/402","surface_inferred":true},"geometry":{"type":"LineString","coordinates":[[-119.86147,35.89071],[-119.86144,35.89612],[-119.86145,35.89726],[-119.86141,35.90298],[-119.86137,35.90517],[-119.86133,35.90671],[-119.8613,35.90968],[-119.86127,35.91114],[-119.86124,35.91306],[-119.86122,35.91469],[-119.86124,35.91796],[-119.86121,35.91968],[-119.86117,35.9236],[-119.86118,35.92484],[-119.86114,35.92708],[-119.86114,35.92813],[-119.86113,35.9296],[-119.86113,35.9305],[-119.86111,35.93133],[-119.86109,35.9319],[-119.86111,35.93237],[-119.86114,35.93337],[-119.86113,35.93413]]}},{"type":"Feature","properties":{"name":"(unnamed public road)","road_class":"track","source":"OpenStreetMap","source_detail":"osm way 10395926","source_tile":"171/402","surface_inferred":true},"geometry":{"type":"LineString","coordinates":[[-119.80743,35.97781],[-119.80721,35.99114],[-119.8072,35.99169],[-119.8072,35.99198],[-119.80718,35.99682],[-119.80716,35.9999],[-119.80714,36.00121],[-119.8071,36.00478],[-119.80709,36.00657]]}},{"type":"Feature","properties":{"name":"(unnamed public road)","road_class":"track","source":"OpenStreetMap","source_detail":"osm way 10395928","source_tile":"171/402","surface_inferred":true},"geometry":{"type":"LineString","coordinates":[[-119.75421,35.97741],[-119.75675,35.97741],[-119.77075,35.97752],[-119.77475,35.97755],[-119.7807,35.97756],[-119.78754,35.97758],[-119.78827,35.97758],[-119.78862,35.97758],[-119.78888,35.9776],[-119.78907,35.97761]]}},{"type":"Feature","properties":{"name":"(unnamed public road)","road_class":"track","source":"OpenStreetMap","source_detail":"osm way 10396030","source_tile":"171/402","surface_inferred":true},"geometry":{"type":"LineString","coordinates":[[-119.75388,36.02096],[-119.75517,36.02096],[-119.77036,36.02097],[-119.78927,36.02095],[-119.79009,36.02095],[-119.79717,36.02094],[-119.82449,36.02085],[-119.82453,36.02108],[-119.82495,36.02109]]}},{"type":"Feature","properties":{"name":"(unnamed public road)","road_class":"track","source":"OpenStreetMap","source_detail":"osm way 10396357","source_tile":"171/402","surface_inferred":true},"geometry":{"type":"LineString","coordinates":[[-119.58207,35.7898],[-119.58212,35.79046],[-119.58214,35.7952],[-119.58205,35.79694],[-119.58208,35.79713],[-119.58216,35.79752],[-119.58218,35.79864],[-119.58221,35.80209],[-119.5822,35.80431]]}},{"type":"Feature","properties":{"name":"20 1/2 Avenue","road_class":"track","source":"OpenStreetMap","source_detail":"osm way 10396473","source_tile":"171/402","surface_inferred":true},"geometry":{"type":"LineString","coordinates":[[-119.82569,35.94086],[-119.8256,35.94327],[-119.82563,35.94667],[-119.82555,35.94825],[-119.82552,35.9486],[-119.82542,35.95723],[-119.82545,35.96303],[-119.82546,35.96348],[-119.82545,35.96687],[-119.82546,35.96848],[-119.82542,35.97024],[-119.82547,35.9734],[-119.82545,35.97491],[-119.82535,35.97692],[-119.82528,35.97735],[-119.82525,35.97745],[-119.82504,35.97782],[-119.82496,35.97794],[-119.82491,35.97802],[-119.82483,35.97822],[-119.82481,35.97832],[-119.82478,35.97841],[-119.82475,35.97863],[-119.82465,35.98719],[-119.82463,35.99566],[-119.82461,35.99741],[-119.82457,35.99988],[-119.82457,36.0006],[-119.82455,36.00413],[-119.82456,36.00529],[-119.82463,36.006],[-119.82465,36.00617],[-119.82474,36.00646]]}},{"type":"Feature","properties":{"name":"Dairy Avenue","road_class":"track","source":"OpenStreetMap","source_detail":"osm way 10396885","source_tile":"171/402","surface_inferred":true},"geometry":{"type":"LineString","coordinates":[[-119.57319,35.78986],[-119.57318,35.79011],[-119.57327,35.79034],[-119.57329,35.79302],[-119.57324,35.79322],[-119.57338,35.79346]]}},{"type":"Feature","properties":{"name":"Road 16","road_class":"track","source":"OpenStreetMap","source_detail":"osm way 10397460","source_tile":"171/402","surface_inferred":true},"geometry":{"type":"LineString","coordinates":[[-119.53785,35.85898],[-119.53782,35.86208],[-119.5378,35.86241],[-119.53777,35.86251]]}},{"type":"Feature","properties":{"name":"Racine Avenue","road_class":"track","source":"OpenStreetMap","source_detail":"osm way 10397675","source_tile":"171/402","surface_inferred":true},"geometry":{"type":"LineString","coordinates":[[-119.82524,36.00639],[-119.82555,36.00638],[-119.82606,36.00639],[-119.82628,36.00641],[-119.8266,36.00643],[-119.82678,36.00645],[-119.84289,36.00639],[-119.84384,36.00641],[-119.85149,36.00637],[-119.85721,36.00633],[-119.85942,36.00632],[-119.86005,36.00631]]}},{"type":"Feature","properties":{"name":"Compton Street","road_class":"track","source":"OpenStreetMap","source_detail":"osm way 10398313","source_tile":"171/402","surface_inferred":true},"geometry":{"type":"LineString","coordinates":[[-119.55025,35.85506],[-119.54592,35.85503],[-119.54583,35.85503],[-119.54139,35.85503],[-119.54072,35.85506]]}},{"type":"Feature","properties":{"name":"22nd Avenue","road_class":"track","source":"OpenStreetMap","source_detail":"osm way 10398806","source_tile":"171/402","surface_inferred":true},"geometry":{"type":"LineString","coordinates":[[-119.861,35.96367],[-119.86097,35.96409],[-119.86093,35.96508],[-119.86095,35.96631],[-119.86095,35.96886],[-119.86092,35.97054],[-119.86088,35.97195],[-119.86084,35.97344],[-119.8608,35.97667],[-119.86074,35.97771],[-119.86074,35.97958],[-119.86066,35.98673],[-119.86064,35.99077],[-119.86065,35.99202],[-119.86059,35.99392],[-119.86057,35.99508],[-119.86048,35.99999],[-119.86043,36.00523],[-119.86042,36.00638],[-119.86043,36.00661]]}},{"type":"Feature","properties":{"name":"Avenue 28","road_class":"track","source":"OpenStreetMap","source_detail":"osm way 10399621","source_tile":"171/402","surface_inferred":true},"geometry":{"type":"LineString","coordinates":[[-119.54218,35.84069],[-119.54185,35.84069],[-119.54138,35.8406],[-119.5411,35.84061],[-119.53989,35.84063],[-119.53777,35.84065]]}},{"type":"Feature","properties":{"name":"Country Line Avenue","road_class":"track","source":"OpenStreetMap","source_detail":"osm way 10399765","source_tile":"171/402","surface_inferred":true},"geometry":{"type":"LineString","coordinates":[[-119.5795,35.7898],[-119.57637,35.78982],[-119.57319,35.78986],[-119.56568,35.78985],[-119.55809,35.78982],[-119.55243,35.78985],[-119.54536,35.78985],[-119.54349,35.78986],[-119.5378,35.78985]]}},{"type":"Feature","properties":{"name":"Salem Avenue","road_class":"track","source":"OpenStreetMap","source_detail":"osm way 10400261","source_tile":"171/402","surface_inferred":true},"geometry":{"type":"LineString","coordinates":[[-119.53619,35.9926],[-119.53662,35.9926],[-119.5385,35.9926],[-119.54607,35.99256],[-119.55088,35.99254],[-119.55363,35.99256],[-119.55389,35.99256],[-119.5544,35.99254],[-119.55601,35.99252],[-119.55734,35.99252],[-119.5589,35.99251],[-119.56144,35.99251],[-119.5643,35.99252],[-119.56557,35.99253],[-119.56799,35.99252],[-119.56847,35.99251],[-119.57166,35.99247],[-119.572,35.99257]]}},{"type":"Feature","properties":{"name":"21st Avenue","road_class":"track","source":"OpenStreetMap","source_detail":"osm way 10401059","source_tile":"171/402","surface_inferred":true},"geometry":{"type":"LineString","coordinates":[[-119.84327,35.94562],[-119.84329,35.94564],[-119.84328,35.94585],[-119.84321,35.94842],[-119.84316,35.96329],[-119.84313,35.97045],[-119.8431,35.97768]]}},{"type":"Feature","properties":{"name":"21st Avenue","road_class":"track","source":"OpenStreetMap","source_detail":"osm way 10401061","source_tile":"171/402","surface_inferred":true},"geometry":{"type":"LineString","coordinates":[[-119.84303,35.98498],[-119.84297,35.99181],[-119.84296,35.99193],[-119.84294,35.99208],[-119.84292,35.99217],[-119.84289,36.00639]]}},{"type":"Feature","properties":{"name":"21st Avenue","road_class":"track","source":"OpenStreetMap","source_detail":"osm way 10401069","source_tile":"171/402","surface_inferred":true},"geometry":{"type":"LineString","coordinates":[[-119.86113,35.93413],[-119.86113,35.93428],[-119.86119,35.93557],[-119.86119,35.93638],[-119.86115,35.93787],[-119.86119,35.93914],[-119.86115,35.94203],[-119.86115,35.94259],[-119.86113,35.94481],[-119.86113,35.94552],[-119.8611,35.94943],[-119.86112,35.94999],[-119.86111,35.95141],[-119.8611,35.95277],[-119.86106,35.95437],[-119.86102,35.95593],[-119.86095,35.96054],[-119.86092,35.96269],[-119.86094,35.96297],[-119.86102,35.96319],[-119.86103,35.96328],[-119.86104,35.96336],[-119.86102,35.9635],[-119.861,35.96367]]}},{"type":"Feature","properties":{"name":"County Line Road","road_class":"track","source":"OpenStreetMap","source_detail":"osm way 10401315","source_tile":"171/402","surface_inferred":true},"geometry":{"type":"LineString","coordinates":[[-119.5795,35.7898],[-119.58207,35.7898],[-119.59002,35.78976],[-119.59131,35.78978],[-119.59282,35.78977],[-119.59437,35.78978],[-119.59657,35.78977],[-119.59897,35.78975],[-119.60449,35.78974],[-119.60842,35.78978],[-119.61214,35.78975],[-119.61561,35.78972],[-119.61767,35.78971],[-119.61786,35.78972],[-119.61795,35.78972],[-119.61802,35.78974],[-119.6181,35.78979],[-119.61822,35.78983],[-119.61831,35.78983],[-119.61848,35.78984]]}},{"type":"Feature","properties":{"name":"Cecil Avenue","road_class":"track","source":"OpenStreetMap","source_detail":"osm way 10414655","source_tile":"172/402","surface_inferred":true},"geometry":{"type":"LineString","coordinates":[[-119.54358,35.77532],[-119.52639,35.77535],[-119.50866,35.77535],[-119.49057,35.77537],[-119.47233,35.77539]]}},{"type":"Feature","properties":{"name":"Corcoran Road","road_class":"track","source":"OpenStreetMap","source_detail":"osm way 10424320","source_tile":"171/402","surface_inferred":true},"geometry":{"type":"LineString","coordinates":[[-119.5795,35.7898],[-119.57944,35.78696],[-119.57933,35.78644]]}},{"type":"Feature","properties":{"name":"Road 16","road_class":"track","source":"OpenStreetMap","source_detail":"osm way 10647948","source_tile":"171/402","surface_inferred":true},"geometry":{"type":"LineString","coordinates":[[-119.53783,35.81909],[-119.53782,35.81816],[-119.53785,35.816],[-119.53786,35.81558],[-119.53791,35.81187],[-119.53779,35.80444],[-119.53777,35.80391],[-119.53778,35.80362],[-119.53776,35.79716],[-119.53776,35.79706],[-119.5378,35.78985]]}},{"type":"Feature","properties":{"name":"Road 16","road_class":"track","source":"OpenStreetMap","source_detail":"osm way 10647949","source_tile":"171/402","surface_inferred":true},"geometry":{"type":"LineString","coordinates":[[-119.53775,35.85506],[-119.5378,35.85139],[-119.53781,35.84622],[-119.53782,35.84459],[-119.53782,35.84453],[-119.53777,35.84065]]}},{"type":"Feature","properties":{"name":"(unnamed public road)","road_class":"track","source":"OpenStreetMap","source_detail":"osm way 10648040","source_tile":"172/402","surface_inferred":true},"geometry":{"type":"LineString","coordinates":[[-119.53792,35.8769],[-119.53703,35.8769],[-119.52922,35.87685],[-119.52766,35.87684],[-119.52167,35.87684]]}},{"type":"Feature","properties":{"name":"(unnamed public road)","road_class":"track","source":"OpenStreetMap","source_detail":"osm way 10672829","source_tile":"172/402","surface_inferred":true},"geometry":{"type":"LineString","coordinates":[[-119.5378,35.85139],[-119.53754,35.85138],[-119.51901,35.85124],[-119.51374,35.85124]]}},{"type":"Feature","properties":{"name":"(unnamed public road)","road_class":"track","source":"OpenStreetMap","source_detail":"osm way 10672831","source_tile":"171/402","surface_inferred":true},"geometry":{"type":"LineString","coordinates":[[-119.53288,35.8405],[-119.5329,35.84215]]}},{"type":"Feature","properties":{"name":"Avenue 104","road_class":"track","source":"OpenStreetMap","source_detail":"osm way 10675843","source_tile":"172/402","surface_inferred":true},"geometry":{"type":"LineString","coordinates":[[-119.53617,35.97806],[-119.52857,35.9781],[-119.528,35.97812],[-119.52779,35.97812],[-119.51882,35.97815]]}},{"type":"Feature","properties":{"name":"Avenue 28","road_class":"track","source":"OpenStreetMap","source_detail":"osm way 10681858","source_tile":"172/402","surface_inferred":true},"geometry":{"type":"LineString","coordinates":[[-119.53777,35.84065],[-119.53288,35.8405],[-119.52342,35.84059],[-119.51871,35.84057],[-119.51836,35.84057],[-119.51816,35.84057],[-119.51366,35.84051],[-119.50502,35.84059]]}},{"type":"Feature","properties":{"name":"4th Avenue","road_class":"track","source":"OpenStreetMap","source_detail":"osm way 10682315","source_tile":"171/402","surface_inferred":true},"geometry":{"type":"LineString","coordinates":[[-119.53777,35.84065],[-119.53778,35.83816],[-119.53781,35.82408],[-119.53783,35.81909]]}},{"type":"Feature","properties":{"name":"(unnamed public road)","road_class":"track","source":"OpenStreetMap","source_detail":"osm way 183185424","source_tile":"171/403","surface_inferred":true},"geometry":{"type":"LineString","coordinates":[[-119.68902,35.8049],[-119.68926,35.79017],[-119.68903,35.78398],[-119.68915,35.77592],[-119.68916,35.77569],[-119.68932,35.77104],[-119.68995,35.761],[-119.68979,35.74901],[-119.68991,35.74677],[-119.68992,35.74657],[-119.68992,35.74615],[-119.68989,35.73251],[-119.68989,35.73223]]}},{"type":"Feature","properties":{"name":"Redding Avenue","road_class":"track","source":"OpenStreetMap","source_detail":"osm way 453071620","source_tile":"171/402","surface_inferred":true},"geometry":{"type":"LineString","coordinates":[[-119.69625,36.02125],[-119.69748,36.02122],[-119.69758,36.02122],[-119.70283,36.02114],[-119.70516,36.02111],[-119.70928,36.0211],[-119.71485,36.02104],[-119.73287,36.02103]]}},{"type":"Feature","properties":{"name":"(unnamed public road)","road_class":"track","source":"OpenStreetMap","source_detail":"osm way 597126733","source_tile":"172/402","surface_inferred":true},"geometry":{"type":"LineString","coordinates":[[-119.48246,35.81864],[-119.48449,35.81865],[-119.48487,35.81866],[-119.48507,35.81869],[-119.48522,35.81877],[-119.48539,35.81886],[-119.48556,35.81891],[-119.48573,35.81894],[-119.48863,35.81893],[-119.48992,35.81894],[-119.49042,35.81893],[-119.49094,35.81894],[-119.49137,35.81894],[-119.49283,35.81895],[-119.49325,35.81894],[-119.49722,35.81896],[-119.49743,35.81893],[-119.49752,35.81894],[-119.49846,35.81895],[-119.49871,35.81893],[-119.49899,35.81896],[-119.49927,35.81896],[-119.49961,35.81894],[-119.49984,35.81896],[-119.50012,35.81893],[-119.51701,35.81897],[-119.51725,35.81893],[-119.51785,35.8189],[-119.5317,35.81903],[-119.53292,35.81908],[-119.53532,35.81903],[-119.53783,35.81909]]}},{"type":"Feature","properties":{"name":"(unnamed public road)","road_class":"track","source":"OpenStreetMap","source_detail":"osm way 597126739","source_tile":"172/402","surface_inferred":true},"geometry":{"type":"LineString","coordinates":[[-119.53782,35.84453],[-119.53497,35.84445],[-119.53229,35.8444],[-119.52466,35.84432],[-119.52443,35.84427],[-119.52357,35.84428],[-119.51825,35.8443]]}},{"type":"Feature","properties":{"name":"4th Avenue","road_class":"track","surface":"unpaved","source":"OpenStreetMap","source_detail":"osm way 597126743","source_tile":"171/402"},"geometry":{"type":"LineString","coordinates":[[-119.53793,35.86259],[-119.53792,35.86271],[-119.53792,35.86292],[-119.53788,35.86473],[-119.53787,35.86653],[-119.53783,35.86825],[-119.53781,35.86976],[-119.53785,35.87126],[-119.53785,35.87327],[-119.53789,35.8751],[-119.53789,35.87662],[-119.53792,35.8769],[-119.53792,35.87735],[-119.53787,35.8791],[-119.5379,35.87943],[-119.53791,35.8796],[-119.53788,35.87972],[-119.53781,35.87981],[-119.53777,35.87989],[-119.53777,35.88001]]}},{"type":"Feature","properties":{"name":"(unnamed public road)","road_class":"track","source":"OpenStreetMap","source_detail":"osm way 649498211","source_tile":"171/402","surface_inferred":true},"geometry":{"type":"LineString","coordinates":[[-119.57637,35.78982],[-119.57601,35.78968],[-119.57318,35.78969],[-119.57055,35.78969],[-119.56165,35.7897],[-119.55243,35.78971]]}},{"type":"Feature","properties":{"name":"4th Avenue","road_class":"track","surface":"unpaved","source":"OpenStreetMap","source_detail":"osm way 719908542","source_tile":"171/402"},"geometry":{"type":"LineString","coordinates":[[-119.53791,35.88052],[-119.53794,35.8807],[-119.53793,35.88755],[-119.53791,35.8878],[-119.53769,35.88789]]}},{"type":"Feature","properties":{"name":"(unnamed public road)","road_class":"track","surface":"unpaved","source":"OpenStreetMap","source_detail":"osm way 719916238","source_tile":"172/402"},"geometry":{"type":"LineString","coordinates":[[-119.53633,35.88054],[-119.5357,35.88054],[-119.52302,35.88053]]}},{"type":"Feature","properties":{"name":"(unnamed public road)","road_class":"track","source":"OpenStreetMap","source_detail":"osm way 796716184","source_tile":"171/402","surface_inferred":true},"geometry":{"type":"LineString","coordinates":[[-119.69813,35.99945],[-119.69821,35.99224]]}},{"type":"Feature","properties":{"name":"(unnamed public road)","road_class":"track","source":"OpenStreetMap","source_detail":"osm way 796721536","source_tile":"171/402","surface_inferred":true},"geometry":{"type":"LineString","coordinates":[[-119.58974,35.99982],[-119.58781,35.9998],[-119.58581,35.9998],[-119.58482,35.9998],[-119.58333,35.9998],[-119.58171,35.99979],[-119.58031,35.9998],[-119.579,35.99979],[-119.57783,35.9998],[-119.57642,35.99979],[-119.57491,35.99979],[-119.57255,35.99978],[-119.57196,35.9998]]}},{"type":"Feature","properties":{"name":"(unnamed public road)","road_class":"track","source":"OpenStreetMap","source_detail":"osm way 796721537","source_tile":"171/402","surface_inferred":true},"geometry":{"type":"LineString","coordinates":[[-119.57196,35.99968],[-119.57268,35.99967],[-119.5741,35.99968],[-119.57518,35.99968],[-119.57608,35.99968],[-119.57713,35.99967],[-119.57855,35.99968],[-119.57966,35.99967],[-119.5811,35.99967],[-119.58255,35.99968],[-119.58392,35.99968],[-119.5855,35.99968],[-119.58701,35.99968],[-119.58804,35.99967],[-119.58911,35.99967],[-119.58974,35.99969]]}},{"type":"Feature","properties":{"name":"(unnamed public road)","road_class":"track","source":"OpenStreetMap","source_detail":"osm way 796724815","source_tile":"171/402","surface_inferred":true},"geometry":{"type":"LineString","coordinates":[[-119.78979,35.97784],[-119.78978,35.98012],[-119.78977,35.98235],[-119.78065,35.98236],[-119.78068,35.98012],[-119.7807,35.97756]]}},{"type":"Feature","properties":{"name":"(unnamed public road)","road_class":"track","source":"OpenStreetMap","source_detail":"osm way 796724816","source_tile":"171/402","surface_inferred":true},"geometry":{"type":"LineString","coordinates":[[-119.78978,35.98012],[-119.78068,35.98012]]}},{"type":"Feature","properties":{"name":"(unnamed public road)","road_class":"track","source":"OpenStreetMap","source_detail":"osm way 797347884","source_tile":"171/402","surface_inferred":true},"geometry":{"type":"LineString","coordinates":[[-119.54517,36.00722],[-119.54507,36.00746],[-119.54506,36.01443],[-119.54511,36.01461],[-119.54508,36.02145],[-119.54513,36.02169]]}},{"type":"Feature","properties":{"name":"(unnamed public road)","road_class":"track","source":"OpenStreetMap","source_detail":"osm way 797350356","source_tile":"171/402","surface_inferred":true},"geometry":{"type":"LineString","coordinates":[[-119.55396,35.9489],[-119.5539,35.94886],[-119.55387,35.94879],[-119.55386,35.94871],[-119.55394,35.94836],[-119.55396,35.94822],[-119.55397,35.94789],[-119.55397,35.94782],[-119.55395,35.94772],[-119.55392,35.94764],[-119.55385,35.94754],[-119.55377,35.94744],[-119.55373,35.94737],[-119.55369,35.94727],[-119.55366,35.94714],[-119.55362,35.94706],[-119.55354,35.94701],[-119.55343,35.94696],[-119.55325,35.94691],[-119.55313,35.94689],[-119.55294,35.94689],[-119.55258,35.94691]]}},{"type":"Feature","properties":{"name":"(unnamed public road)","road_class":"track","source":"OpenStreetMap","source_detail":"osm way 798230738","source_tile":"171/402","surface_inferred":true},"geometry":{"type":"LineString","coordinates":[[-119.54517,36.00722],[-119.54523,36.00745],[-119.54521,36.00794],[-119.5452,36.00918],[-119.5452,36.01157],[-119.5452,36.01425],[-119.54528,36.01435],[-119.5453,36.01442],[-119.54527,36.0146],[-119.54525,36.01496],[-119.54525,36.02131],[-119.54525,36.02145],[-119.54513,36.02169]]}},{"type":"Feature","properties":{"name":"(unnamed public road)","road_class":"track","source":"OpenStreetMap","source_detail":"osm way 803753666","source_tile":"171/402","surface_inferred":true},"geometry":{"type":"LineString","coordinates":[[-119.79855,35.88334],[-119.79862,35.88453],[-119.7987,35.88576],[-119.79871,35.88596],[-119.79868,35.88613],[-119.7986,35.88641],[-119.79857,35.88675],[-119.79851,35.88709],[-119.79843,35.88745],[-119.79824,35.88813],[-119.79805,35.88872],[-119.79761,35.89016],[-119.79754,35.89037],[-119.79751,35.8905],[-119.79751,35.89068]]}},{"type":"Feature","properties":{"name":"(unnamed public road)","road_class":"track","source":"OpenStreetMap","source_detail":"osm way 804184726","source_tile":"171/402","surface_inferred":true},"geometry":{"type":"LineString","coordinates":[[-119.60897,35.92724],[-119.60197,35.92726],[-119.59123,35.92731],[-119.57359,35.92742]]}},{"type":"Feature","properties":{"name":"(unnamed public road)","road_class":"track","source":"OpenStreetMap","source_detail":"osm way 806262794","source_tile":"171/402","surface_inferred":true},"geometry":{"type":"LineString","coordinates":[[-119.64475,35.93444],[-119.64425,35.93443],[-119.6334,35.93447],[-119.62383,35.93452],[-119.60919,35.93459]]}},{"type":"Feature","properties":{"name":"(unnamed public road)","road_class":"track","source":"OpenStreetMap","source_detail":"osm way 806294876","source_tile":"171/402","surface_inferred":true},"geometry":{"type":"LineString","coordinates":[[-119.84313,35.97045],[-119.84772,35.97044],[-119.86052,35.97045],[-119.86046,35.96319],[-119.84316,35.96329]]}},{"type":"Feature","properties":{"name":"(unnamed public road)","road_class":"track","source":"OpenStreetMap","source_detail":"osm way 807099261","source_tile":"171/402","surface_inferred":true},"geometry":{"type":"LineString","coordinates":[[-119.73286,36.02853],[-119.72128,36.02856],[-119.71481,36.02859]]}},{"type":"Feature","properties":{"name":"(unnamed public road)","road_class":"track","source":"OpenStreetMap","source_detail":"osm way 807526467","source_tile":"171/402","surface_inferred":true},"geometry":{"type":"LineString","coordinates":[[-119.82563,35.91225],[-119.83283,35.91224],[-119.83826,35.91224],[-119.84349,35.91231]]}},{"type":"Feature","properties":{"name":"(unnamed public road)","road_class":"track","source":"OpenStreetMap","source_detail":"osm way 809010681","source_tile":"171/402","surface_inferred":true},"geometry":{"type":"LineString","coordinates":[[-119.82569,35.88771],[-119.84352,35.88767]]}},{"type":"Feature","properties":{"name":"(unnamed public road)","road_class":"track","source":"OpenStreetMap","source_detail":"osm way 809044860","source_tile":"171/402","surface_inferred":true},"geometry":{"type":"LineString","coordinates":[[-119.86168,35.88575],[-119.86149,35.88598],[-119.86147,35.88608],[-119.86147,35.89071]]}},{"type":"Feature","properties":{"name":"(unnamed public road)","road_class":"track","source":"OpenStreetMap","source_detail":"osm way 809068823","source_tile":"171/402","surface_inferred":true},"geometry":{"type":"LineString","coordinates":[[-119.80718,35.99682],[-119.82378,35.99683]]}},{"type":"Feature","properties":{"name":"(unnamed public road)","road_class":"track","source":"OpenStreetMap","source_detail":"osm way 981495818","source_tile":"171/402","surface_inferred":true},"geometry":{"type":"LineString","coordinates":[[-119.78927,36.02095],[-119.78934,36.01389],[-119.78349,36.0139],[-119.77385,36.0139],[-119.76702,36.01392],[-119.76305,36.0139],[-119.75636,36.01393],[-119.75447,36.01394],[-119.75385,36.01394]]}},{"type":"Feature","properties":{"name":"(unnamed public road)","road_class":"track","source":"OpenStreetMap","source_detail":"osm way 981496667","source_tile":"171/402","surface_inferred":true},"geometry":{"type":"LineString","coordinates":[[-119.8072,35.99198],[-119.798,35.99201],[-119.78973,35.99201],[-119.78692,35.99204],[-119.78051,35.99206],[-119.77241,35.99208],[-119.77194,35.99207],[-119.77184,35.99202],[-119.77169,35.99202],[-119.7716,35.9921],[-119.77145,35.9922],[-119.77131,35.99224],[-119.76382,35.99227],[-119.75433,35.99227],[-119.75419,35.99239],[-119.75412,35.99243],[-119.75398,35.99246]]}},{"type":"Feature","properties":{"name":"(unnamed public road)","road_class":"track","source":"OpenStreetMap","source_detail":"osm way 992498197","source_tile":"171/402","surface_inferred":true},"geometry":{"type":"LineString","coordinates":[[-119.64274,36.02144],[-119.64251,36.02138],[-119.64236,36.02135],[-119.64229,36.0213],[-119.64222,36.02127],[-119.64199,36.02123],[-119.64115,36.02124],[-119.63713,36.02126],[-119.6319,36.02127],[-119.62788,36.02127],[-119.62575,36.02128],[-119.62482,36.02128],[-119.62127,36.02128],[-119.61735,36.02129],[-119.61698,36.02129],[-119.61684,36.02126],[-119.61673,36.02122],[-119.61666,36.0212],[-119.61657,36.02121]]}},{"type":"Feature","properties":{"name":"(unnamed public road)","road_class":"track","source":"OpenStreetMap","source_detail":"osm way 992657254","source_tile":"171/402","surface_inferred":true},"geometry":{"type":"LineString","coordinates":[[-119.81408,35.78968],[-119.81406,35.78567],[-119.81402,35.78219],[-119.81399,35.77789],[-119.81397,35.77494]]}},{"type":"Feature","properties":{"name":"(unnamed public road)","road_class":"track","source":"OpenStreetMap","source_detail":"osm way 992657754","source_tile":"171/402","surface_inferred":true},"geometry":{"type":"LineString","coordinates":[[-119.87946,35.86893],[-119.87711,35.86893],[-119.872,35.86894],[-119.87065,35.86895]]}},{"type":"Feature","properties":{"name":"(unnamed public road)","road_class":"track","source":"OpenStreetMap","source_detail":"osm way 1001302333","source_tile":"171/402","surface_inferred":true},"geometry":{"type":"LineString","coordinates":[[-119.70472,35.96306],[-119.6789,35.96312],[-119.6468,35.9632],[-119.64613,35.96316]]}},{"type":"Feature","properties":{"name":"(unnamed public road)","road_class":"track","source":"OpenStreetMap","source_detail":"osm way 1001304539","source_tile":"171/402","surface_inferred":true},"geometry":{"type":"LineString","coordinates":[[-119.60893,35.97059],[-119.60904,35.97778],[-119.60825,35.97778],[-119.60804,35.97777],[-119.60797,35.97781],[-119.60798,35.97796]]}},{"type":"Feature","properties":{"name":"(unnamed public road)","road_class":"track","source":"OpenStreetMap","source_detail":"osm way 1193820855","source_tile":"171/402","surface_inferred":true},"geometry":{"type":"LineString","coordinates":[[-119.87,35.78973],[-119.86949,35.78997]]}},{"type":"Feature","properties":{"name":"(unnamed public road)","road_class":"track","source":"OpenStreetMap","source_detail":"osm way 1193820856","source_tile":"171/402","surface_inferred":true},"geometry":{"type":"LineString","coordinates":[[-119.86949,35.78997],[-119.86891,35.79029]]}},{"type":"Feature","properties":{"name":"Racine Avenue","road_class":"track","source":"OpenStreetMap","source_detail":"osm way 1285790316","source_tile":"171/402","surface_inferred":true},"geometry":{"type":"LineString","coordinates":[[-119.60782,36.007],[-119.60738,36.00701],[-119.60704,36.00702],[-119.60617,36.00703],[-119.60371,36.00702],[-119.60088,36.00703],[-119.59708,36.00704],[-119.59315,36.00704],[-119.59187,36.00705],[-119.58998,36.00704],[-119.58974,36.00703],[-119.58714,36.007],[-119.58356,36.007],[-119.57415,36.00696],[-119.57272,36.00698],[-119.57207,36.00706]]}},{"type":"Feature","properties":{"name":"(unnamed public road)","road_class":"track","source":"OpenStreetMap","source_detail":"osm way 1285790414","source_tile":"171/402","surface_inferred":true},"geometry":{"type":"LineString","coordinates":[[-119.66111,35.99244],[-119.66105,35.99496],[-119.66107,35.9966],[-119.66093,36.00682]]}},{"type":"Feature","properties":{"name":"(unnamed public road)","road_class":"track","source":"OpenStreetMap","source_detail":"osm way 1410340977","source_tile":"171/402","surface_inferred":true},"geometry":{"type":"LineString","coordinates":[[-119.80755,35.96301],[-119.81488,35.96305],[-119.81852,35.96306],[-119.82201,35.96304],[-119.82499,35.96304],[-119.82545,35.96303]]}},{"type":"Feature","properties":{"name":"20 1/2 Avenue","road_class":"track","source":"OpenStreetMap","source_detail":"osm way 1410346853","source_tile":"171/402","surface_inferred":true},"geometry":{"type":"LineString","coordinates":[[-119.82568,35.94065],[-119.82568,35.94077]]}},{"type":"Feature","properties":{"name":"(unnamed public road)","road_class":"track","surface":"ground","tracktype":"grade5","source":"OpenStreetMap","source_detail":"osm way 1412090781","source_tile":"171/402"},"geometry":{"type":"LineString","coordinates":[[-119.78976,35.93409],[-119.78977,35.93399],[-119.78968,35.93388],[-119.78964,35.93368],[-119.78964,35.93308],[-119.78965,35.93188],[-119.78965,35.93079],[-119.78965,35.92945],[-119.78965,35.92804],[-119.78965,35.92692],[-119.78966,35.92588],[-119.78966,35.92494],[-119.78967,35.92405],[-119.78966,35.92309],[-119.78962,35.92193],[-119.78962,35.92043],[-119.78959,35.91932],[-119.78963,35.91817],[-119.78963,35.91627],[-119.78959,35.91592],[-119.78948,35.91563],[-119.78962,35.91524],[-119.78965,35.91454],[-119.78965,35.91252],[-119.78966,35.91045],[-119.78968,35.9085],[-119.78971,35.90634],[-119.78975,35.90414],[-119.78981,35.89934]]}},{"type":"Feature","properties":{"name":"(unnamed public road)","road_class":"track","source":"OpenStreetMap","source_detail":"osm way 1412577918","source_tile":"171/402","surface_inferred":true},"geometry":{"type":"LineString","coordinates":[[-119.70807,35.87776],[-119.70807,35.87801],[-119.70829,35.87811],[-119.70845,35.87831],[-119.70852,35.91978],[-119.70856,35.92685]]}},{"type":"Feature","properties":{"name":"(unnamed public road)","road_class":"track","source":"OpenStreetMap","source_detail":"osm way 1497111863","source_tile":"171/402","surface_inferred":true},"geometry":{"type":"LineString","coordinates":[[-119.8167,35.90904],[-119.8167,35.90923]]}},{"type":"Feature","properties":{"name":"(unnamed public road)","road_class":"track","source":"OpenStreetMap","source_detail":"osm way 1497125673","source_tile":"171/402","surface_inferred":true},"geometry":{"type":"LineString","coordinates":[[-119.80783,35.9051],[-119.80785,35.91949]]}}]}