{"type":"FeatureCollection","features":[{"type":"Feature","properties":{"name":"(unnamed public road)","road_class":"track","surface":"unpaved","source":"OpenStreetMap","source_detail":"osm way 548498207","source_tile":"171/411"},"geometry":{"type":"LineString","coordinates":[[-119.56078,33.27045],[-119.5609,33.27052],[-119.56095,33.27054],[-119.56102,33.27057],[-119.5612,33.27063],[-119.56132,33.27065],[-119.56149,33.27069],[-119.56156,33.2707],[-119.56164,33.27071],[-119.56168,33.27073]]}},{"type":"Feature","properties":{"name":"(unnamed public road)","road_class":"track","surface":"unpaved","source":"OpenStreetMap","source_detail":"osm way 548498208","source_tile":"171/411"},"geometry":{"type":"LineString","coordinates":[[-119.56095,33.27054],[-119.56101,33.27054],[-119.56106,33.27053],[-119.56119,33.27049]]}}]}