{"type":"FeatureCollection","features":[{"type":"Feature","properties":{"name":"(unnamed public road)","road_class":"track","source":"OpenStreetMap","source_detail":"osm way 5141702","source_tile":"170/380","surface_inferred":true},"geometry":{"type":"LineString","coordinates":[[-120.07586,42.02203],[-120.07576,42.02228],[-120.07562,42.02254],[-120.07555,42.02272],[-120.07539,42.023],[-120.07525,42.02322],[-120.07511,42.02349],[-120.07491,42.02376],[-120.07476,42.02394],[-120.07448,42.02413],[-120.07434,42.02427],[-120.07409,42.02445],[-120.07392,42.0246],[-120.07376,42.02472],[-120.07355,42.02483],[-120.07328,42.02501],[-120.07319,42.0252],[-120.07316,42.02543],[-120.0732,42.02565],[-120.07339,42.026],[-120.07354,42.02645],[-120.07361,42.02691],[-120.07364,42.02729],[-120.07361,42.02765],[-120.07355,42.02801],[-120.07344,42.02823],[-120.07288,42.02971],[-120.07241,42.03063],[-120.07227,42.0309],[-120.07206,42.03193],[-120.07221,42.03276],[-120.07199,42.03378],[-120.07135,42.03509],[-120.07138,42.03591],[-120.07202,42.03708],[-120.07295,42.03845],[-120.07307,42.03895],[-120.0731,42.03996],[-120.07351,42.0408],[-120.07408,42.04149],[-120.07427,42.04215],[-120.07421,42.04414]]}},{"type":"Feature","properties":{"name":"(unnamed public road)","road_class":"track","source":"OpenStreetMap","source_detail":"osm way 5147457","source_tile":"170/380","surface_inferred":true},"geometry":{"type":"LineString","coordinates":[[-119.97867,42.03299],[-119.97766,42.03138],[-119.9777,42.031],[-119.97748,42.03022],[-119.97671,42.02871],[-119.97617,42.02825],[-119.97554,42.02744],[-119.97573,42.02662],[-119.97456,42.02388],[-119.97382,42.0222],[-119.97284,42.02011],[-119.9726,42.0197],[-119.97211,42.01908],[-119.97075,42.01807],[-119.97029,42.01772],[-119.97012,42.01714],[-119.97021,42.01629],[-119.9706,42.01551],[-119.97069,42.01528],[-119.97089,42.01477],[-119.97105,42.01398],[-119.97193,42.01229],[-119.97201,42.01177],[-119.97313,42.00994],[-119.97359,42.00947],[-119.97383,42.00923],[-119.97399,42.00868],[-119.97451,42.00831],[-119.97515,42.00818],[-119.97534,42.00806],[-119.97555,42.00792],[-119.97592,42.00724],[-119.9765,42.00683],[-119.97699,42.00669],[-119.97791,42.00662],[-119.97831,42.00666],[-119.97877,42.0066],[-119.97969,42.00598],[-119.98048,42.00612],[-119.98112,42.00607],[-119.98174,42.00602],[-119.98251,42.00584],[-119.98425,42.00637],[-119.9852,42.00632],[-119.98566,42.00648],[-119.98628,42.00698],[-119.98735,42.00753],[-119.98763,42.00774],[-119.98891,42.00824],[-119.99179,42.00844],[-119.99428,42.00906],[-119.9952,42.00968],[-119.99609,42.01011],[-119.99802,42.01061],[-119.99829,42.01091],[-119.99827,42.01109],[-119.99756,42.01148],[-119.99762,42.01169],[-119.99854,42.01226],[-119.99966,42.01257],[-119.99964,42.01314],[-119.99986,42.01344],[-120.00047,42.01368],[-120.00097,42.01372],[-120.00325,42.01411],[-120.00396,42.01397],[-120.00423,42.01401],[-120.00439,42.01416],[-120.00457,42.01442]]}},{"type":"Feature","properties":{"name":"(unnamed public road)","road_class":"track","source":"OpenStreetMap","source_detail":"osm way 28932808","source_tile":"170/380","surface_inferred":true},"geometry":{"type":"LineString","coordinates":[[-120.00914,42.03272],[-120.00947,42.03286],[-120.01051,42.03295],[-120.01082,42.03306],[-120.01116,42.03332],[-120.01133,42.03364],[-120.01134,42.03402],[-120.01147,42.03437],[-120.01115,42.03522]]}},{"type":"Feature","properties":{"name":"Mosquito Road","road_class":"track","surface":"ground","source":"OpenStreetMap","source_detail":"osm way 1075638410","source_tile":"170/380"},"geometry":{"type":"LineString","coordinates":[[-120.16345,42.05082],[-120.16349,42.05048],[-120.16349,42.05031],[-120.16352,42.05007],[-120.16349,42.04998],[-120.16343,42.04991],[-120.16339,42.04976],[-120.16341,42.04964],[-120.1635,42.04947],[-120.16366,42.04919],[-120.16373,42.04906],[-120.16374,42.04897],[-120.16367,42.04853],[-120.16349,42.04827],[-120.16343,42.04799],[-120.16334,42.04778],[-120.16331,42.0476],[-120.16322,42.0475],[-120.163,42.04738],[-120.16261,42.04706],[-120.16247,42.047],[-120.16234,42.04697],[-120.16218,42.04698],[-120.16178,42.04704],[-120.16148,42.04706],[-120.16076,42.04709],[-120.16058,42.04709],[-120.16035,42.04706],[-120.15966,42.04692],[-120.15926,42.04675],[-120.159,42.04667],[-120.15866,42.04664],[-120.15856,42.0466],[-120.15827,42.04633],[-120.15809,42.04619],[-120.15792,42.04612],[-120.15774,42.04606],[-120.1575,42.04601],[-120.15716,42.04597],[-120.15682,42.04587],[-120.15672,42.04578],[-120.15651,42.04554],[-120.15634,42.04536],[-120.15612,42.04508],[-120.156,42.04472],[-120.15589,42.04433],[-120.15582,42.04402],[-120.15578,42.04358],[-120.15571,42.04343],[-120.1556,42.04323],[-120.15556,42.04308],[-120.15559,42.04269],[-120.15558,42.04252],[-120.1554,42.04193],[-120.15531,42.04169],[-120.15481,42.04074],[-120.15482,42.04028],[-120.15492,42.03981],[-120.15501,42.03961],[-120.15522,42.03933],[-120.15529,42.0391],[-120.1553,42.03892],[-120.15525,42.03868],[-120.15511,42.03855],[-120.15456,42.03833],[-120.15435,42.03824],[-120.15426,42.03816],[-120.15417,42.03803],[-120.15407,42.03785],[-120.154,42.03767],[-120.15384,42.03738],[-120.15362,42.03698],[-120.15357,42.03685],[-120.15357,42.03667],[-120.15368,42.03645],[-120.15384,42.0363],[-120.154,42.03602],[-120.1541,42.03581],[-120.15424,42.03565],[-120.15437,42.03555],[-120.15465,42.03532],[-120.15488,42.03509],[-120.15505,42.03494],[-120.15532,42.03476],[-120.15586,42.0345],[-120.15623,42.03432],[-120.15643,42.03419],[-120.15647,42.03415],[-120.15657,42.03407],[-120.15663,42.03401],[-120.15671,42.03395],[-120.15686,42.03389],[-120.157,42.03385],[-120.15727,42.03381],[-120.15752,42.03377],[-120.15768,42.03379],[-120.15793,42.0338],[-120.15816,42.03378],[-120.15838,42.03373],[-120.15867,42.03366],[-120.15884,42.03362],[-120.15992,42.03323],[-120.16017,42.03312],[-120.16036,42.03298],[-120.1605,42.03286],[-120.16065,42.03267],[-120.16075,42.03251],[-120.16087,42.03214],[-120.16088,42.03193],[-120.16084,42.03177],[-120.16069,42.03146],[-120.16067,42.03107],[-120.16058,42.03092],[-120.16031,42.03068],[-120.16041,42.03021],[-120.16044,42.02997],[-120.1606,42.02982],[-120.16072,42.0298],[-120.16088,42.02988],[-120.16099,42.03001],[-120.16093,42.0302],[-120.16089,42.0304],[-120.16091,42.03061],[-120.16098,42.03085],[-120.16132,42.03129],[-120.16135,42.03141],[-120.16147,42.03153],[-120.16169,42.03169],[-120.16189,42.03182],[-120.16218,42.03204],[-120.16252,42.03223],[-120.16278,42.03236],[-120.16308,42.03236],[-120.16329,42.03234],[-120.16374,42.03228]]}},{"type":"Feature","properties":{"name":"Bald Hills Road","road_class":"track","surface":"ground","source":"OpenStreetMap","source_detail":"osm way 1075638478","source_tile":"170/380"},"geometry":{"type":"LineString","coordinates":[[-120.14036,42.05543],[-120.14027,42.05528],[-120.1401,42.05512],[-120.13991,42.05493],[-120.13973,42.0548],[-120.13957,42.05468],[-120.13941,42.05444],[-120.13924,42.05414],[-120.13894,42.05363],[-120.13883,42.05344],[-120.13854,42.05264],[-120.13854,42.05258],[-120.13856,42.05248],[-120.13864,42.05207],[-120.13879,42.0517],[-120.13894,42.05143],[-120.13899,42.05134],[-120.13904,42.05123],[-120.1392,42.05113],[-120.13935,42.05108],[-120.13977,42.05104],[-120.14,42.05104],[-120.1402,42.05101],[-120.14066,42.05094],[-120.14102,42.05092],[-120.14128,42.05092],[-120.14143,42.0509],[-120.14153,42.05085],[-120.14168,42.0508],[-120.14168,42.05079],[-120.14201,42.05074],[-120.14242,42.0507],[-120.14286,42.05059],[-120.14314,42.05046],[-120.14348,42.05032],[-120.14377,42.05014],[-120.14413,42.04994],[-120.14435,42.04989],[-120.14468,42.04988],[-120.14502,42.04996],[-120.14529,42.05004],[-120.14549,42.0501],[-120.14573,42.05016],[-120.14605,42.05018],[-120.14632,42.05016],[-120.1465,42.05012],[-120.14662,42.05004],[-120.14673,42.05],[-120.1469,42.0499],[-120.147,42.04981],[-120.14702,42.04974],[-120.147,42.04965],[-120.1468,42.04937],[-120.14667,42.04927],[-120.14654,42.04913],[-120.14635,42.04896],[-120.146,42.04872],[-120.1457,42.04845],[-120.14544,42.04823],[-120.14524,42.04809],[-120.14514,42.04798],[-120.14503,42.0479],[-120.14482,42.04775],[-120.14469,42.04767],[-120.14463,42.04762],[-120.14461,42.04759],[-120.14459,42.04755],[-120.1446,42.04747],[-120.14463,42.04728],[-120.14466,42.04712],[-120.14469,42.04698],[-120.14471,42.04679],[-120.14475,42.0465],[-120.14476,42.04629],[-120.14475,42.04616],[-120.14464,42.04568],[-120.14461,42.04549],[-120.14458,42.0452],[-120.14455,42.04484],[-120.14453,42.04465],[-120.14447,42.04443],[-120.14431,42.04387],[-120.14426,42.04364],[-120.14421,42.04349],[-120.14413,42.0433],[-120.14411,42.04323],[-120.14409,42.04307],[-120.14406,42.04279],[-120.14405,42.04261],[-120.14404,42.04226],[-120.14401,42.04191],[-120.14399,42.04163],[-120.14395,42.04143],[-120.1439,42.04117],[-120.14388,42.04105],[-120.14383,42.04085],[-120.14379,42.04075],[-120.14373,42.0406],[-120.1436,42.04041],[-120.14351,42.04025],[-120.14339,42.04009],[-120.14331,42.03995],[-120.14317,42.03974],[-120.14307,42.03955],[-120.14296,42.03938],[-120.14288,42.03922],[-120.14266,42.03886],[-120.14253,42.03864],[-120.14244,42.03851],[-120.14241,42.03843],[-120.14238,42.03834],[-120.14232,42.03822],[-120.14227,42.03813],[-120.14213,42.03783],[-120.14209,42.03774],[-120.14205,42.03758],[-120.14201,42.03747],[-120.14191,42.03719],[-120.14175,42.03669],[-120.14166,42.03635],[-120.14163,42.03627],[-120.14158,42.03617],[-120.14154,42.03603],[-120.14148,42.03585],[-120.14145,42.03576],[-120.14142,42.03563],[-120.14138,42.03551],[-120.14134,42.0354],[-120.14112,42.03501],[-120.14095,42.03471],[-120.14082,42.03451],[-120.14076,42.0344],[-120.14056,42.03413],[-120.14043,42.03395],[-120.14021,42.03369],[-120.14006,42.0335],[-120.13966,42.03302],[-120.13943,42.03275],[-120.13916,42.03244],[-120.1389,42.03213],[-120.13867,42.03187],[-120.13854,42.03174],[-120.13844,42.03163],[-120.13834,42.0315],[-120.13816,42.03133],[-120.13801,42.0312],[-120.13765,42.03094],[-120.13735,42.03072],[-120.13694,42.03043],[-120.1366,42.03019],[-120.13646,42.03008],[-120.13633,42.02998],[-120.13597,42.02968],[-120.13573,42.02945],[-120.13556,42.02931],[-120.13551,42.02923],[-120.13542,42.02909],[-120.13441,42.02775],[-120.13396,42.02721],[-120.13365,42.02677],[-120.1329,42.02581],[-120.13261,42.02496],[-120.13232,42.0239],[-120.13216,42.02369],[-120.13201,42.02335],[-120.13171,42.02188]]}},{"type":"Feature","properties":{"name":"FR 3915-024","road_class":"track","surface":"gravel","tracktype":"grade2","source":"OpenStreetMap","source_detail":"osm way 1075638564","source_tile":"170/380"},"geometry":{"type":"LineString","coordinates":[[-120.15819,42.06193],[-120.15803,42.06183],[-120.15792,42.06175],[-120.15777,42.06164],[-120.15756,42.06153],[-120.15727,42.06139],[-120.15693,42.06126],[-120.15665,42.06121],[-120.15622,42.06108],[-120.15557,42.06081],[-120.15518,42.06061],[-120.15498,42.06047],[-120.15473,42.06023],[-120.15455,42.06004],[-120.15442,42.05993],[-120.15424,42.0598],[-120.15398,42.05965],[-120.15387,42.05958],[-120.15382,42.05952],[-120.15373,42.05941],[-120.15365,42.05925],[-120.15359,42.05905],[-120.15356,42.05886],[-120.15356,42.05871],[-120.15362,42.05855],[-120.15368,42.05847],[-120.15384,42.05836],[-120.15407,42.05825],[-120.15418,42.05816],[-120.15428,42.05802],[-120.15439,42.05778],[-120.15442,42.05763],[-120.15438,42.05748],[-120.15427,42.05737],[-120.15416,42.05725],[-120.15409,42.05714],[-120.15407,42.057],[-120.15412,42.05686],[-120.15436,42.05657],[-120.15465,42.05628],[-120.15476,42.05614],[-120.15493,42.05595],[-120.15513,42.05571],[-120.15518,42.0556],[-120.15519,42.05548],[-120.15515,42.05534],[-120.15505,42.05507],[-120.15503,42.05497],[-120.15504,42.0549],[-120.15511,42.05461],[-120.15521,42.0543],[-120.15527,42.0542],[-120.15537,42.0541],[-120.15553,42.05404],[-120.15613,42.05392],[-120.15668,42.05384],[-120.1571,42.05382],[-120.15739,42.05384],[-120.15783,42.05395],[-120.1583,42.05405],[-120.15848,42.05407],[-120.15864,42.05406],[-120.15895,42.05395],[-120.15953,42.05369],[-120.15997,42.05348],[-120.16024,42.05338],[-120.16039,42.05335],[-120.16053,42.05336],[-120.16112,42.05346],[-120.1614,42.05348],[-120.1617,42.05348],[-120.16192,42.05345],[-120.16208,42.05336],[-120.16215,42.05327],[-120.16215,42.05312],[-120.16201,42.05289],[-120.16187,42.05263],[-120.16182,42.05237],[-120.16172,42.05208],[-120.16148,42.05164],[-120.16136,42.05145],[-120.16109,42.05125],[-120.1606,42.05098],[-120.1599,42.05054],[-120.15976,42.05043],[-120.15973,42.0503],[-120.15977,42.05023],[-120.15987,42.05017],[-120.15999,42.05016],[-120.1601,42.05017],[-120.16035,42.05028],[-120.16089,42.05058],[-120.16116,42.05068],[-120.16156,42.05075],[-120.16216,42.05086],[-120.16277,42.05096],[-120.16307,42.05096],[-120.16321,42.05093],[-120.16345,42.05082],[-120.16362,42.05071],[-120.16402,42.05043],[-120.1643,42.05024],[-120.16445,42.05017],[-120.16466,42.05011],[-120.16486,42.05005],[-120.16499,42.04998],[-120.16507,42.04989],[-120.16518,42.04972],[-120.16533,42.04952],[-120.16543,42.04944],[-120.16588,42.04923],[-120.16614,42.04908],[-120.16637,42.04886],[-120.16649,42.0487],[-120.16659,42.04836],[-120.16673,42.0476],[-120.16677,42.04742],[-120.16675,42.04726],[-120.16671,42.04714],[-120.16659,42.04702],[-120.1665,42.04695],[-120.16627,42.04681],[-120.16594,42.04658],[-120.16568,42.04645],[-120.16503,42.04621],[-120.16411,42.04591],[-120.16366,42.04571],[-120.16348,42.04558],[-120.1634,42.04548],[-120.16336,42.04534],[-120.16339,42.04521],[-120.16346,42.04505],[-120.16357,42.04487],[-120.16366,42.04468],[-120.16382,42.04444],[-120.16399,42.04428],[-120.16435,42.04397],[-120.16455,42.04388],[-120.16477,42.04381],[-120.16497,42.04375],[-120.16514,42.04368],[-120.16524,42.04358],[-120.16534,42.04342],[-120.1654,42.04325],[-120.16541,42.04319],[-120.16546,42.04304],[-120.16555,42.04291],[-120.16575,42.04277],[-120.16602,42.04259],[-120.1662,42.04241],[-120.16642,42.04215],[-120.16653,42.04189],[-120.16657,42.04175],[-120.16663,42.04151],[-120.16668,42.04129],[-120.16672,42.04112],[-120.16673,42.04098],[-120.16667,42.0408],[-120.16658,42.04052],[-120.16649,42.03969],[-120.16644,42.03904],[-120.16631,42.03849],[-120.16604,42.03758],[-120.16601,42.03736],[-120.16606,42.03715],[-120.16615,42.03693],[-120.16621,42.03669],[-120.16627,42.03636],[-120.16638,42.03575],[-120.1665,42.03494],[-120.16648,42.03472],[-120.16642,42.03445],[-120.16639,42.03419],[-120.16639,42.03375],[-120.16644,42.03315],[-120.1665,42.03274],[-120.16657,42.03244],[-120.16671,42.03215],[-120.16679,42.03199],[-120.16717,42.03147],[-120.16744,42.03117],[-120.16762,42.03096],[-120.1677,42.03077],[-120.16773,42.03065],[-120.16775,42.03041],[-120.16777,42.03024],[-120.16784,42.0301],[-120.16796,42.03001],[-120.1681,42.02991],[-120.16826,42.02986],[-120.16852,42.02977],[-120.16886,42.02965],[-120.16901,42.02958],[-120.16917,42.02944],[-120.16927,42.02928],[-120.16942,42.02915],[-120.16964,42.029],[-120.16984,42.02889],[-120.17013,42.02876],[-120.1709,42.02841],[-120.17187,42.028],[-120.17217,42.02789],[-120.17262,42.0277],[-120.17351,42.02723],[-120.17372,42.02716],[-120.17397,42.02707],[-120.17465,42.02687],[-120.17473,42.0268],[-120.17475,42.02673],[-120.1747,42.02667],[-120.17459,42.0266],[-120.17438,42.02656],[-120.17406,42.02652],[-120.17381,42.0265],[-120.17359,42.02641],[-120.17324,42.02619]]}},{"type":"Feature","properties":{"name":"Forest Road 3915-241","road_class":"track","surface":"unpaved","source":"OpenStreetMap","source_detail":"osm way 1075638567","source_tile":"170/380"},"geometry":{"type":"LineString","coordinates":[[-120.09475,42.04033],[-120.0946,42.03975],[-120.09459,42.03922],[-120.0946,42.03899],[-120.09465,42.03883],[-120.09478,42.03864],[-120.09484,42.03842],[-120.09479,42.03824],[-120.09474,42.03815],[-120.09472,42.03795],[-120.09463,42.03771],[-120.09456,42.03762],[-120.09433,42.03748],[-120.09389,42.03731],[-120.09336,42.03713],[-120.09309,42.03701],[-120.09279,42.03682],[-120.09265,42.03666],[-120.0926,42.03644],[-120.09254,42.03607],[-120.09278,42.03544],[-120.09294,42.03513],[-120.09308,42.03492],[-120.09332,42.0346],[-120.0934,42.03449],[-120.09344,42.03436],[-120.09341,42.03421],[-120.09331,42.0341],[-120.09324,42.03394],[-120.09313,42.0338],[-120.09296,42.03364],[-120.09282,42.03352],[-120.09234,42.03325],[-120.09213,42.03319],[-120.09186,42.0331],[-120.09174,42.03292],[-120.09159,42.03267],[-120.09148,42.03245],[-120.09181,42.03163],[-120.09189,42.03027],[-120.09173,42.02915],[-120.09164,42.02886],[-120.09135,42.02823],[-120.09127,42.02807],[-120.09123,42.02796],[-120.09129,42.02763],[-120.09138,42.0271],[-120.09142,42.02694],[-120.09166,42.02646],[-120.09172,42.02638],[-120.09171,42.02628],[-120.09153,42.02618],[-120.09138,42.02605],[-120.09128,42.0258],[-120.09115,42.02569],[-120.09106,42.02559],[-120.09096,42.02555],[-120.09062,42.02555],[-120.09032,42.02548],[-120.09009,42.0254],[-120.0899,42.02535],[-120.08965,42.02533],[-120.08947,42.02524],[-120.08932,42.02519],[-120.08923,42.02507]]}},{"type":"Feature","properties":{"name":"South Warner Road","road_class":"unclassified","surface":"gravel","source":"OpenStreetMap","source_detail":"osm way 1075638586","source_tile":"170/380"},"geometry":{"type":"LineString","coordinates":[[-120.12074,42.05089],[-120.12057,42.05095],[-120.12035,42.05101],[-120.12012,42.05103],[-120.11987,42.05103],[-120.11967,42.051],[-120.11951,42.05096],[-120.11927,42.05088],[-120.11905,42.05076],[-120.11889,42.05063],[-120.11877,42.05049],[-120.11868,42.05028],[-120.11863,42.05005],[-120.11861,42.04947],[-120.11863,42.0492],[-120.11868,42.04891],[-120.11894,42.04779],[-120.11897,42.04721],[-120.11893,42.04681],[-120.11884,42.04652],[-120.11863,42.04616],[-120.11846,42.04588],[-120.11843,42.04573],[-120.11854,42.04539],[-120.11875,42.04507],[-120.11929,42.0444],[-120.11951,42.04414],[-120.11964,42.04394],[-120.1197,42.04373],[-120.1197,42.04352],[-120.11972,42.04309],[-120.11978,42.04295],[-120.11989,42.04279],[-120.12021,42.04254],[-120.1204,42.04242],[-120.12094,42.04201],[-120.12134,42.04165],[-120.12165,42.04134],[-120.12216,42.04085],[-120.12253,42.04042],[-120.12264,42.04027],[-120.12275,42.04002],[-120.12282,42.03985],[-120.12288,42.03956],[-120.12283,42.03905],[-120.12293,42.03834],[-120.12288,42.03795],[-120.12279,42.03757],[-120.12272,42.03708],[-120.12273,42.03645],[-120.12277,42.0362],[-120.1231,42.03543],[-120.12414,42.03377],[-120.12429,42.03359],[-120.12448,42.03346],[-120.12464,42.03341],[-120.12526,42.03327],[-120.12558,42.0331],[-120.12613,42.03274],[-120.12712,42.032],[-120.12807,42.0313],[-120.12862,42.03086],[-120.12906,42.03032],[-120.12941,42.02981],[-120.12959,42.02951],[-120.12976,42.02912],[-120.13004,42.02828],[-120.13018,42.0279],[-120.1303,42.02748],[-120.13039,42.0271],[-120.13049,42.02659],[-120.13051,42.02607],[-120.1305,42.02538],[-120.13053,42.02486],[-120.13052,42.02466],[-120.13046,42.02442],[-120.13041,42.02415],[-120.13044,42.02395],[-120.13053,42.02358],[-120.13059,42.0234],[-120.13079,42.02302],[-120.13091,42.02275],[-120.13104,42.0223],[-120.1311,42.02192],[-120.13116,42.0215],[-120.13119,42.02103],[-120.1312,42.02055],[-120.13122,42.02024],[-120.13126,42.01995],[-120.13132,42.01976],[-120.13156,42.01933],[-120.13172,42.01904],[-120.13186,42.01885],[-120.13202,42.01867],[-120.13229,42.01842],[-120.13239,42.01831],[-120.13245,42.0182],[-120.13252,42.018],[-120.1328,42.01748],[-120.13326,42.01674],[-120.13369,42.01619],[-120.13404,42.01581],[-120.13419,42.01566],[-120.13439,42.01551],[-120.13452,42.01543],[-120.13465,42.01538],[-120.13484,42.01534],[-120.13543,42.01527],[-120.13579,42.01524],[-120.13604,42.01524],[-120.1363,42.01527],[-120.13664,42.01533],[-120.13682,42.0154],[-120.1371,42.01553],[-120.13746,42.01571],[-120.13776,42.0158],[-120.13793,42.01581],[-120.1381,42.01581],[-120.13834,42.01577],[-120.13851,42.01572],[-120.13871,42.01559],[-120.13887,42.01545],[-120.13911,42.01519],[-120.1392,42.01506],[-120.13924,42.0149],[-120.13927,42.01451],[-120.13927,42.0143],[-120.13921,42.01378],[-120.13916,42.01315],[-120.13913,42.01302],[-120.13908,42.01279],[-120.13906,42.01268],[-120.13906,42.01256],[-120.13908,42.01242],[-120.13912,42.01227],[-120.13919,42.01213],[-120.1393,42.01197],[-120.13948,42.01181],[-120.13961,42.0117],[-120.13979,42.0116],[-120.13998,42.01152],[-120.14019,42.01145],[-120.1405,42.01137],[-120.1411,42.01123],[-120.14141,42.01115],[-120.14188,42.01107],[-120.14238,42.01102],[-120.14271,42.01101],[-120.14289,42.01102],[-120.14328,42.01108],[-120.14366,42.01119],[-120.14387,42.01122],[-120.14409,42.01123],[-120.14431,42.01121],[-120.14449,42.01117],[-120.14486,42.01105],[-120.14516,42.01092],[-120.14559,42.01068],[-120.14591,42.0104],[-120.14627,42.00997],[-120.14678,42.00932],[-120.14716,42.00888],[-120.14746,42.00854],[-120.1477,42.00827],[-120.14784,42.00815],[-120.14814,42.00794],[-120.14835,42.00781],[-120.14858,42.00764],[-120.14879,42.00746],[-120.14912,42.00713],[-120.14954,42.00668],[-120.14964,42.00656],[-120.14981,42.00633],[-120.15002,42.00597],[-120.15017,42.00567],[-120.15052,42.00501],[-120.15066,42.00476],[-120.15083,42.0044],[-120.15102,42.00398],[-120.15113,42.00373],[-120.15133,42.00325],[-120.15145,42.00301],[-120.15153,42.00281],[-120.15158,42.0027],[-120.1517,42.00243],[-120.15182,42.00217],[-120.15202,42.00174],[-120.15213,42.0015],[-120.15221,42.00133],[-120.15227,42.00123],[-120.15236,42.0011],[-120.15263,42.00087],[-120.15298,42.00062],[-120.15333,42.00027],[-120.15341,42.00006],[-120.15346,41.99986],[-120.15342,41.99964],[-120.15337,41.99945],[-120.15321,41.99901],[-120.15304,41.99838],[-120.15299,41.99818],[-120.15297,41.99789],[-120.15302,41.99763],[-120.15306,41.99747],[-120.15314,41.99728],[-120.15325,41.99708],[-120.15334,41.99694],[-120.15346,41.99677],[-120.15367,41.99652],[-120.15386,41.99635],[-120.15398,41.99624],[-120.15421,41.99611],[-120.15447,41.99599],[-120.1551,41.99575],[-120.15555,41.9956],[-120.15594,41.9955],[-120.15646,41.99537],[-120.15686,41.99527],[-120.15721,41.99516],[-120.15763,41.99502],[-120.15799,41.9949],[-120.15843,41.99475],[-120.15865,41.99469],[-120.15885,41.99464],[-120.15903,41.99463],[-120.15921,41.99463],[-120.15938,41.99461]]}},{"type":"Feature","properties":{"name":"Loop Road","road_class":"track","surface":"ground","tracktype":"grade4","source":"OpenStreetMap","source_detail":"osm way 1075638611","source_tile":"170/380"},"geometry":{"type":"LineString","coordinates":[[-120.1204,42.04242],[-120.12037,42.04209],[-120.12042,42.04173],[-120.1205,42.04133],[-120.12051,42.041],[-120.12056,42.0406],[-120.12067,42.04032],[-120.12069,42.04001],[-120.12045,42.03972],[-120.12031,42.03946],[-120.12028,42.03918],[-120.12035,42.03903],[-120.12029,42.03872],[-120.12034,42.03856],[-120.12017,42.0384],[-120.11978,42.03826],[-120.11959,42.03816],[-120.11941,42.03798],[-120.11929,42.03791],[-120.11913,42.03781],[-120.1189,42.03763],[-120.1187,42.03752],[-120.11853,42.03757],[-120.11833,42.03764],[-120.11812,42.03774],[-120.11793,42.03781],[-120.11772,42.0379],[-120.11755,42.03795],[-120.11737,42.03795],[-120.11726,42.03791],[-120.11711,42.03788],[-120.11692,42.03779],[-120.1167,42.03776],[-120.11645,42.03775],[-120.11606,42.03778],[-120.11574,42.03774],[-120.1154,42.03769],[-120.11502,42.03765],[-120.1147,42.03752],[-120.11444,42.0374],[-120.11401,42.03718],[-120.11363,42.03697],[-120.11335,42.03683],[-120.11311,42.03677],[-120.11286,42.03667],[-120.11254,42.03649],[-120.11237,42.03638],[-120.11225,42.03625],[-120.11206,42.03612],[-120.11187,42.036],[-120.11171,42.0359],[-120.11136,42.03574],[-120.11119,42.03562],[-120.11094,42.03547],[-120.11084,42.03536],[-120.11076,42.03526],[-120.11069,42.03505],[-120.11063,42.03488],[-120.11053,42.03474],[-120.1104,42.03457],[-120.11024,42.0345],[-120.1101,42.03434],[-120.11,42.03417],[-120.11005,42.03397],[-120.11001,42.03384],[-120.10986,42.03365],[-120.10972,42.03321],[-120.10962,42.03294],[-120.10949,42.03282],[-120.1094,42.03272],[-120.10935,42.03257],[-120.10935,42.0324],[-120.10939,42.03225],[-120.10944,42.03213],[-120.10944,42.03199],[-120.10938,42.03189],[-120.10929,42.03182],[-120.10916,42.03174],[-120.10899,42.03173],[-120.1087,42.0319],[-120.10846,42.03205],[-120.10816,42.03215],[-120.10778,42.03229],[-120.10738,42.03234],[-120.10708,42.03236],[-120.10675,42.0324],[-120.1065,42.03244],[-120.10628,42.03247],[-120.10607,42.03247],[-120.10592,42.03245],[-120.10571,42.03247],[-120.10554,42.03248],[-120.10541,42.03246],[-120.1052,42.03246],[-120.10501,42.03243],[-120.1046,42.03234],[-120.10444,42.0323],[-120.10426,42.03221],[-120.10406,42.03213],[-120.10386,42.03203],[-120.10376,42.03199],[-120.10366,42.03194],[-120.10354,42.0319],[-120.10338,42.03188],[-120.10322,42.0318],[-120.10296,42.03171],[-120.10263,42.03166],[-120.1023,42.03158],[-120.10213,42.0315],[-120.10193,42.03141],[-120.10178,42.03137],[-120.10151,42.03126],[-120.10137,42.03122],[-120.10119,42.03108],[-120.10113,42.03097],[-120.10107,42.03074],[-120.10093,42.03055],[-120.10087,42.03039],[-120.10072,42.03025],[-120.1006,42.03022],[-120.10026,42.03021],[-120.09972,42.03038],[-120.09949,42.0305],[-120.09894,42.03062],[-120.09849,42.03073],[-120.0983,42.03079],[-120.09796,42.03098],[-120.09781,42.0311],[-120.09771,42.03131],[-120.09768,42.03159],[-120.09774,42.03186],[-120.09777,42.03227],[-120.09777,42.03241],[-120.09774,42.0325],[-120.09757,42.03256],[-120.09735,42.03271],[-120.09722,42.03294],[-120.09701,42.03327],[-120.09693,42.03371],[-120.09699,42.03399],[-120.09713,42.03424],[-120.09742,42.03471],[-120.09751,42.03482],[-120.09764,42.03496],[-120.09776,42.03517],[-120.098,42.03562],[-120.09795,42.03589],[-120.09803,42.0363],[-120.09813,42.03666],[-120.0981,42.03702],[-120.09811,42.03728],[-120.09812,42.03754],[-120.09798,42.03773],[-120.09765,42.03795],[-120.09686,42.03869],[-120.09667,42.03886],[-120.09634,42.03908],[-120.09613,42.03917],[-120.09597,42.03924],[-120.09557,42.03945],[-120.09475,42.04033],[-120.09435,42.04064],[-120.09414,42.04098],[-120.09408,42.04118],[-120.0941,42.04161],[-120.0941,42.04186],[-120.09413,42.04199]]}},{"type":"Feature","properties":{"name":"Middle Fork Spur Trail","road_class":"track","surface":"ground","source":"OpenStreetMap","source_detail":"osm way 1075638619","source_tile":"170/380"},"geometry":{"type":"LineString","coordinates":[[-120.20052,42.0378],[-120.20063,42.03776],[-120.20104,42.03774],[-120.2012,42.03768],[-120.20149,42.03746],[-120.20182,42.03735],[-120.20232,42.03729],[-120.20279,42.03711],[-120.20294,42.03698],[-120.20307,42.0368],[-120.20311,42.03663],[-120.20309,42.03655],[-120.20298,42.03648],[-120.20263,42.03637],[-120.20244,42.03627],[-120.20209,42.03595],[-120.20194,42.03578],[-120.20182,42.03571],[-120.20167,42.03566],[-120.20148,42.03565],[-120.20123,42.03573],[-120.20104,42.03573],[-120.20086,42.03567],[-120.20022,42.03542],[-120.19995,42.03537],[-120.19972,42.03537],[-120.19964,42.03535],[-120.19958,42.03529],[-120.19958,42.03521],[-120.19987,42.03496],[-120.20002,42.03475],[-120.20075,42.03419],[-120.20095,42.03412],[-120.20189,42.034],[-120.20223,42.03394],[-120.20261,42.03376],[-120.20293,42.0336],[-120.20321,42.03339],[-120.20341,42.03321],[-120.20347,42.03308],[-120.20352,42.03287],[-120.20349,42.03275],[-120.20337,42.03266],[-120.20318,42.03261],[-120.20283,42.0325],[-120.2026,42.03233],[-120.20244,42.03211],[-120.20233,42.03186],[-120.2023,42.03171],[-120.20233,42.03156],[-120.20249,42.03147],[-120.2031,42.0314],[-120.20357,42.03124],[-120.20401,42.03115],[-120.20438,42.03109],[-120.20456,42.03099],[-120.20469,42.0309],[-120.20481,42.0307]]}},{"type":"Feature","properties":{"name":"FR 4015-117","road_class":"track","surface":"ground","source":"OpenStreetMap","source_detail":"osm way 1412308127","source_tile":"170/380"},"geometry":{"type":"LineString","coordinates":[[-120.2078,42.03346],[-120.20801,42.03351],[-120.20816,42.03352],[-120.20823,42.0335],[-120.20828,42.03343],[-120.20831,42.03328],[-120.20827,42.03314],[-120.20831,42.03306],[-120.2084,42.03299],[-120.20855,42.03296],[-120.20885,42.03295],[-120.20901,42.03292],[-120.20915,42.03285],[-120.20921,42.03279],[-120.20921,42.03269],[-120.20921,42.03258],[-120.20921,42.03225],[-120.20916,42.032],[-120.20933,42.03096],[-120.20954,42.03055],[-120.2098,42.03029],[-120.20985,42.03003],[-120.20992,42.02993],[-120.20989,42.02981],[-120.20996,42.02963],[-120.21008,42.02956],[-120.21055,42.02931],[-120.21059,42.02925],[-120.21062,42.02908],[-120.21081,42.029],[-120.21102,42.02897],[-120.21113,42.02885],[-120.21124,42.02866],[-120.21151,42.02851],[-120.21208,42.02846],[-120.21251,42.02847],[-120.21301,42.02854],[-120.21354,42.02892],[-120.21365,42.02906],[-120.21368,42.02913],[-120.21374,42.02917],[-120.21384,42.02917],[-120.21422,42.02892],[-120.21437,42.02888],[-120.21456,42.02892],[-120.21481,42.02913],[-120.21489,42.02922],[-120.21496,42.02935],[-120.2151,42.02945],[-120.21518,42.02945],[-120.2154,42.02933],[-120.21553,42.02931],[-120.21569,42.02934],[-120.21577,42.02933],[-120.21585,42.02929],[-120.21599,42.02931],[-120.21618,42.02938],[-120.2163,42.02938],[-120.21658,42.02932],[-120.21678,42.02922],[-120.21695,42.02911],[-120.21729,42.02898],[-120.21772,42.0289],[-120.21798,42.02892],[-120.21828,42.02901],[-120.21843,42.02909],[-120.21857,42.02912],[-120.21878,42.02926],[-120.21915,42.02939],[-120.2197,42.02961],[-120.21982,42.02962]]}},{"type":"Feature","properties":{"name":"Middle Fork Spur Trail","road_class":"track","surface":"ground","source":"OpenStreetMap","source_detail":"osm way 1412308129","source_tile":"170/380"},"geometry":{"type":"LineString","coordinates":[[-120.2078,42.03346],[-120.20665,42.03249],[-120.20518,42.03164],[-120.20492,42.03132],[-120.20492,42.0312],[-120.20513,42.03083],[-120.20513,42.03074],[-120.20508,42.03068],[-120.20497,42.03067],[-120.20481,42.0307]]}}]}