{"type":"FeatureCollection","features":[{"type":"Feature","properties":{"name":"(unnamed public road)","road_class":"track","source":"OpenStreetMap","source_detail":"osm way 7907615","source_tile":"170/386","surface_inferred":true},"geometry":{"type":"LineString","coordinates":[[-120.21517,40.4589],[-120.21491,40.45898],[-120.21425,40.45915],[-120.21333,40.45942],[-120.21249,40.4597],[-120.21167,40.45999],[-120.21096,40.46026],[-120.21083,40.4603],[-120.21061,40.46039],[-120.21054,40.4604],[-120.21037,40.4604],[-120.20971,40.46038],[-120.20882,40.46039],[-120.20792,40.46039],[-120.20701,40.4604],[-120.20521,40.46041],[-120.20436,40.46039],[-120.20375,40.4604],[-120.2036,40.4604],[-120.20298,40.46043],[-120.20278,40.46043],[-120.20268,40.46042],[-120.20261,40.4604],[-120.20255,40.46037],[-120.20245,40.46031],[-120.20235,40.46023],[-120.20141,40.45932],[-120.20124,40.45912],[-120.20118,40.45907],[-120.20111,40.45905],[-120.20102,40.45903],[-120.20089,40.45902],[-120.20083,40.45902],[-120.20076,40.459],[-120.20069,40.45898],[-120.20062,40.45894],[-120.20042,40.45882],[-120.20027,40.45871],[-120.19961,40.45826],[-120.199,40.45779],[-120.19856,40.45752],[-120.19849,40.45745],[-120.19845,40.45741],[-120.19773,40.45666],[-120.19703,40.45604],[-120.19632,40.45546],[-120.19545,40.45485],[-120.19478,40.4544],[-120.19457,40.45429],[-120.19445,40.45423],[-120.19425,40.45415],[-120.19414,40.4541],[-120.19404,40.45405],[-120.19394,40.45399],[-120.19241,40.45289],[-120.19218,40.45273],[-120.19211,40.45266],[-120.192,40.45252],[-120.19192,40.45245],[-120.1918,40.45238],[-120.19127,40.45204],[-120.19043,40.45141],[-120.18963,40.45079],[-120.18882,40.45021],[-120.18801,40.44964],[-120.18637,40.44844],[-120.18564,40.44786],[-120.1856,40.44783],[-120.18499,40.44741],[-120.18439,40.44698],[-120.18387,40.44661],[-120.18325,40.44619],[-120.18214,40.44543],[-120.1818,40.44523],[-120.18124,40.44491],[-120.18089,40.44468],[-120.18023,40.4443],[-120.17993,40.44412],[-120.17981,40.44404],[-120.17954,40.44389],[-120.17939,40.44381],[-120.17924,40.44375],[-120.17909,40.44371],[-120.17893,40.44366],[-120.17875,40.44361],[-120.17819,40.44342],[-120.17795,40.44333],[-120.17751,40.4431],[-120.17732,40.44299],[-120.17695,40.44275],[-120.17617,40.44221],[-120.17592,40.44202],[-120.17573,40.44186],[-120.17525,40.44149],[-120.1749,40.4412],[-120.17481,40.44112],[-120.17474,40.44104],[-120.17456,40.44082],[-120.17434,40.44057],[-120.17421,40.44045],[-120.17397,40.44025],[-120.17383,40.44016],[-120.17369,40.44008],[-120.17341,40.43995],[-120.17303,40.43973],[-120.17265,40.43954],[-120.17237,40.43942],[-120.17209,40.43929],[-120.17201,40.43923],[-120.17192,40.43916],[-120.17169,40.43887],[-120.17164,40.4388],[-120.17151,40.43872],[-120.1714,40.43868],[-120.1713,40.43865],[-120.17116,40.43861],[-120.17102,40.43855],[-120.17073,40.43842],[-120.17063,40.43835],[-120.1705,40.43826],[-120.17039,40.43816],[-120.1703,40.43805],[-120.17021,40.43796],[-120.17011,40.43789],[-120.16999,40.43784],[-120.16983,40.43779],[-120.16976,40.43778],[-120.16966,40.43775],[-120.16958,40.43774],[-120.16933,40.43766],[-120.16905,40.43755],[-120.16874,40.43742],[-120.16802,40.43705],[-120.16783,40.43693],[-120.1677,40.43684],[-120.16761,40.43674],[-120.16738,40.4365],[-120.1673,40.43642],[-120.16724,40.43635],[-120.16721,40.43629],[-120.16718,40.43623],[-120.16716,40.43615],[-120.16716,40.43611],[-120.16715,40.43602],[-120.16712,40.43595],[-120.16708,40.4359],[-120.16699,40.4358],[-120.16685,40.43565],[-120.16676,40.43558],[-120.16664,40.4355],[-120.16653,40.43543],[-120.1663,40.4352],[-120.16593,40.43476],[-120.16581,40.4346],[-120.16571,40.43442],[-120.16567,40.43431],[-120.1656,40.43419],[-120.1655,40.43408],[-120.16527,40.43388],[-120.16505,40.43367],[-120.16487,40.43351],[-120.16456,40.43327],[-120.16445,40.43312],[-120.16437,40.43295],[-120.16409,40.4325],[-120.16383,40.43224],[-120.16369,40.43207],[-120.16367,40.43203],[-120.16367,40.43199],[-120.16367,40.43192],[-120.16366,40.43178],[-120.16367,40.43167],[-120.16365,40.43157],[-120.16365,40.43147],[-120.16363,40.43137],[-120.16352,40.43118],[-120.16348,40.43112],[-120.16337,40.431],[-120.16321,40.43085],[-120.16305,40.43068],[-120.16293,40.43053],[-120.16285,40.43039],[-120.16283,40.43033],[-120.16281,40.43023],[-120.16281,40.43014],[-120.16283,40.43005],[-120.16286,40.42998],[-120.16294,40.42986],[-120.16307,40.42969],[-120.16312,40.42962],[-120.16317,40.42952],[-120.1632,40.42943],[-120.16322,40.42931],[-120.16321,40.42919],[-120.16317,40.42907],[-120.16306,40.42882],[-120.16303,40.42871],[-120.16302,40.42862],[-120.16301,40.42851],[-120.16299,40.42839],[-120.16293,40.42816],[-120.16278,40.42778],[-120.16267,40.42757],[-120.16262,40.42746],[-120.16254,40.42732],[-120.16242,40.42716],[-120.16228,40.42702],[-120.16214,40.42691],[-120.16202,40.42682],[-120.16191,40.42677],[-120.16168,40.42669],[-120.16159,40.42664],[-120.16149,40.42654],[-120.16142,40.42641],[-120.16139,40.42635],[-120.16135,40.42612],[-120.1613,40.42601],[-120.16123,40.4259],[-120.16115,40.42579],[-120.16084,40.42536],[-120.16075,40.42521],[-120.16068,40.42511],[-120.16064,40.4249],[-120.16062,40.42471],[-120.16069,40.4245],[-120.16079,40.42437],[-120.16087,40.42426],[-120.16097,40.42414],[-120.16107,40.42395],[-120.1613,40.4235],[-120.16143,40.42317],[-120.16157,40.42285],[-120.16167,40.42257],[-120.16169,40.42245],[-120.1617,40.42241],[-120.16169,40.42226],[-120.16168,40.42216],[-120.16164,40.42204],[-120.16159,40.42189],[-120.16148,40.4215],[-120.16135,40.42113],[-120.16133,40.42106],[-120.16133,40.42096],[-120.16134,40.42086],[-120.16137,40.42072],[-120.16151,40.42024],[-120.16155,40.42011],[-120.16164,40.41991],[-120.16167,40.4198],[-120.16168,40.4197],[-120.16166,40.41936],[-120.16167,40.41913],[-120.16173,40.41872],[-120.16175,40.41862],[-120.16181,40.41841],[-120.16182,40.41833],[-120.16182,40.41825],[-120.16176,40.41797],[-120.16173,40.41776],[-120.1617,40.41749],[-120.16169,40.41734],[-120.16166,40.41721],[-120.16163,40.41712],[-120.16158,40.41703],[-120.16154,40.41697],[-120.16146,40.41688],[-120.16139,40.41678],[-120.16136,40.41665],[-120.16135,40.41656],[-120.16136,40.41649],[-120.16139,40.41637],[-120.16143,40.4163],[-120.16148,40.41625],[-120.16156,40.41619],[-120.16161,40.41614],[-120.16166,40.41605],[-120.16173,40.41584],[-120.16189,40.41531],[-120.16197,40.41504],[-120.16201,40.41495],[-120.16235,40.4145],[-120.16265,40.41413],[-120.16286,40.41391],[-120.1629,40.41386],[-120.163,40.41375],[-120.16308,40.41363],[-120.16315,40.41352],[-120.16318,40.41341],[-120.16323,40.41311],[-120.16326,40.41299],[-120.16333,40.41287],[-120.16363,40.41246],[-120.16419,40.41177],[-120.16438,40.41151],[-120.16448,40.41141],[-120.16493,40.4111],[-120.16556,40.41064],[-120.16601,40.41029],[-120.1663,40.41008],[-120.16642,40.41],[-120.16657,40.40987],[-120.1667,40.40971],[-120.16683,40.40955],[-120.16693,40.4094],[-120.16725,40.40888],[-120.16731,40.40879],[-120.16738,40.40865],[-120.16755,40.4082],[-120.16764,40.40797],[-120.16775,40.4078],[-120.16806,40.40721],[-120.16813,40.4071],[-120.16831,40.40686],[-120.16844,40.40671],[-120.1686,40.40655],[-120.16894,40.40621],[-120.16905,40.40608],[-120.16915,40.40595],[-120.16959,40.40551],[-120.16968,40.4054],[-120.16977,40.4053],[-120.16985,40.40518],[-120.16993,40.40509],[-120.17013,40.40493],[-120.17033,40.40482],[-120.17055,40.40471],[-120.17061,40.40468],[-120.17068,40.40461],[-120.17074,40.40452],[-120.17082,40.40438],[-120.17097,40.40403],[-120.171,40.40389],[-120.17103,40.40378],[-120.17104,40.40364],[-120.17103,40.4035],[-120.17092,40.40309],[-120.17086,40.40292],[-120.17076,40.4027],[-120.17068,40.40251],[-120.17063,40.40241],[-120.17039,40.40212],[-120.17023,40.40196],[-120.1702,40.40194],[-120.17014,40.40185],[-120.17009,40.40176],[-120.17006,40.40167],[-120.17005,40.40159],[-120.17005,40.40138],[-120.17008,40.40129],[-120.17009,40.40107],[-120.17007,40.40096],[-120.16991,40.40025],[-120.16979,40.39988],[-120.16968,40.39965],[-120.16954,40.39908],[-120.16948,40.39885],[-120.16943,40.39858],[-120.1694,40.39851],[-120.16926,40.39834],[-120.1692,40.39827],[-120.16906,40.39815],[-120.16901,40.39809],[-120.16878,40.39763],[-120.16876,40.39755],[-120.16872,40.39747],[-120.16865,40.39724],[-120.16863,40.39715],[-120.16863,40.39705],[-120.16864,40.39687],[-120.16867,40.39664],[-120.16876,40.3963],[-120.16879,40.39619],[-120.16888,40.39599],[-120.16895,40.39587],[-120.16916,40.39564],[-120.16956,40.39511],[-120.16969,40.39495],[-120.16975,40.3949],[-120.16983,40.39485],[-120.17007,40.39473],[-120.17018,40.39466],[-120.17029,40.39458],[-120.17055,40.39435],[-120.17072,40.39413],[-120.17081,40.39401],[-120.17092,40.39378],[-120.17114,40.39317],[-120.17119,40.39304],[-120.17124,40.3929],[-120.17127,40.39259],[-120.17144,40.39201],[-120.17146,40.39189],[-120.17148,40.39176],[-120.17148,40.39165],[-120.17147,40.39146],[-120.17141,40.39103],[-120.17139,40.39091],[-120.17136,40.3908],[-120.17126,40.39056],[-120.17107,40.39023],[-120.1709,40.38979],[-120.17087,40.38965],[-120.17084,40.38939],[-120.17084,40.38928],[-120.17083,40.3892],[-120.17077,40.38902],[-120.17072,40.3889],[-120.17064,40.38875],[-120.1706,40.38864],[-120.17058,40.38855],[-120.17057,40.38846],[-120.17059,40.38836],[-120.17063,40.38827],[-120.17068,40.38821],[-120.17077,40.38815],[-120.17087,40.3881],[-120.171,40.38806],[-120.17137,40.38793],[-120.17155,40.38786],[-120.17185,40.38771],[-120.17196,40.38763],[-120.17206,40.38751],[-120.17212,40.3874],[-120.17217,40.38732],[-120.17223,40.38724],[-120.17234,40.38712],[-120.17245,40.38701],[-120.17278,40.38681],[-120.17287,40.38674],[-120.17315,40.38658],[-120.17343,40.38645],[-120.17355,40.38641],[-120.17381,40.38634],[-120.17393,40.38629],[-120.17404,40.38623],[-120.17514,40.3856],[-120.17587,40.38525],[-120.17602,40.38518],[-120.17651,40.38495],[-120.17682,40.38483],[-120.1774,40.38465],[-120.17845,40.38429],[-120.17879,40.38419],[-120.17911,40.38409],[-120.17926,40.38404],[-120.17941,40.38401],[-120.17966,40.38399],[-120.17996,40.38399],[-120.18007,40.38398],[-120.18019,40.38395],[-120.18028,40.38393],[-120.18041,40.38387],[-120.18049,40.38381],[-120.18059,40.38372],[-120.18074,40.38355],[-120.18093,40.38331],[-120.1811,40.38309],[-120.18117,40.38292],[-120.18145,40.38222],[-120.1816,40.38191],[-120.18176,40.38158],[-120.18183,40.38142],[-120.18189,40.38133],[-120.182,40.38122],[-120.18252,40.38072],[-120.18272,40.38055],[-120.18296,40.38033],[-120.1831,40.38022],[-120.18367,40.37985],[-120.18393,40.37969],[-120.18436,40.37949],[-120.18464,40.37938],[-120.1853,40.37913],[-120.1855,40.37904],[-120.18628,40.37862],[-120.18671,40.37841],[-120.18721,40.37817],[-120.18768,40.37799],[-120.18778,40.37793],[-120.18788,40.37789],[-120.18797,40.37787],[-120.18805,40.37788],[-120.18818,40.37792],[-120.18842,40.37804],[-120.18857,40.37812],[-120.18907,40.3784],[-120.18942,40.37862],[-120.18956,40.37872],[-120.18971,40.37884],[-120.18985,40.37896],[-120.19001,40.37912],[-120.1901,40.37924],[-120.19038,40.37966],[-120.19042,40.37971],[-120.19046,40.37974],[-120.19052,40.37977],[-120.19056,40.37978],[-120.19063,40.37978],[-120.19067,40.37977],[-120.19071,40.37975],[-120.19075,40.37974],[-120.19081,40.37968],[-120.19089,40.3796],[-120.19107,40.37935],[-120.19128,40.37897],[-120.19161,40.37824],[-120.19181,40.37789],[-120.19188,40.37779],[-120.19199,40.3777],[-120.1922,40.37756],[-120.19275,40.37711],[-120.19308,40.37681],[-120.19357,40.3763],[-120.19401,40.37573],[-120.19419,40.37555],[-120.1943,40.37542],[-120.19461,40.37483],[-120.19476,40.37446],[-120.19482,40.37419],[-120.19497,40.37354],[-120.19499,40.3734],[-120.19502,40.37329],[-120.19507,40.37317],[-120.19528,40.3727],[-120.1954,40.37248],[-120.19555,40.37222],[-120.19563,40.37211],[-120.19591,40.37182],[-120.19625,40.37152],[-120.1963,40.37145],[-120.19633,40.37139],[-120.19639,40.37122],[-120.19641,40.37109],[-120.19642,40.37101],[-120.19645,40.37091],[-120.19655,40.37071]]}}]}