{"type":"FeatureCollection","features":[{"type":"Feature","properties":{"name":"16002: LONG VALLEY LOOP ROAD","source":"Bureau of Land Management","source_detail":"BLM GTLF OBJECTID 158496","source_id":"{79A7C0B7-5D1C-4FCB-A7C3-3921AE039575}","road_class":"transportation_system_-_primitive_road","surface":"natural_improved","vehicle_class":"4wd_low","allowed_mode":"unk","access_restriction":"unknown","seasonal_restriction":"not_listed","route_plan_id":"1274","gis_miles":4.52367785},"geometry":{"type":"LineString","coordinates":[[-118.12359,35.89153],[-118.12368,35.89158],[-118.12377,35.8916],[-118.12387,35.89164],[-118.12396,35.89166],[-118.12409,35.89165],[-118.12417,35.89164],[-118.12427,35.89161],[-118.12434,35.89157],[-118.12446,35.89151],[-118.12459,35.89143],[-118.12465,35.89133],[-118.12465,35.8912],[-118.12464,35.89111],[-118.12463,35.89103],[-118.12463,35.89096],[-118.12463,35.89089],[-118.12469,35.89082],[-118.12476,35.89075],[-118.12491,35.89065],[-118.12512,35.89051],[-118.12529,35.89039],[-118.12535,35.89034],[-118.1254,35.8903],[-118.12545,35.89024],[-118.12546,35.89013],[-118.12537,35.88999],[-118.12522,35.88984],[-118.12494,35.88965],[-118.12471,35.88948],[-118.12448,35.88928],[-118.12433,35.88912],[-118.12424,35.88893],[-118.12418,35.88877],[-118.12413,35.88856],[-118.1241,35.88846],[-118.12404,35.88832],[-118.12397,35.88821],[-118.12389,35.8881],[-118.12383,35.88804],[-118.12375,35.88796],[-118.12367,35.88789],[-118.12355,35.88783],[-118.12339,35.88776],[-118.12323,35.88771],[-118.12311,35.88767],[-118.123,35.88764],[-118.12289,35.8876],[-118.12273,35.88753],[-118.12259,35.88744],[-118.12243,35.88736],[-118.12231,35.88729],[-118.12204,35.88721],[-118.12185,35.88716],[-118.12168,35.88699],[-118.12159,35.88687],[-118.12143,35.88671],[-118.12131,35.88667],[-118.1212,35.88666],[-118.12111,35.88667],[-118.12099,35.88664],[-118.12089,35.88662],[-118.12085,35.8866],[-118.1208,35.88658],[-118.12076,35.88649],[-118.12074,35.8864],[-118.12078,35.88631],[-118.12087,35.88617],[-118.12098,35.88601],[-118.12109,35.88585],[-118.12121,35.88567],[-118.12142,35.88538],[-118.12148,35.88529],[-118.12152,35.88522],[-118.12156,35.88514],[-118.12162,35.88501],[-118.12164,35.88487],[-118.12164,35.88471],[-118.12161,35.88456],[-118.12154,35.88439],[-118.12149,35.88426],[-118.12133,35.88412],[-118.12123,35.88404],[-118.12101,35.88394],[-118.12086,35.88391],[-118.12072,35.8839],[-118.12056,35.8839],[-118.12038,35.8839],[-118.12026,35.8839],[-118.12019,35.88385],[-118.1201,35.88378],[-118.12006,35.88369],[-118.12005,35.88361],[-118.12011,35.8835],[-118.12055,35.88327],[-118.12095,35.8831],[-118.12124,35.88298],[-118.12163,35.88268],[-118.12172,35.88249],[-118.12178,35.88206],[-118.12181,35.88191],[-118.12186,35.88168],[-118.12192,35.88136],[-118.12195,35.88114],[-118.12193,35.88094],[-118.12191,35.88078],[-118.12188,35.88063],[-118.12181,35.88041],[-118.12177,35.8802],[-118.12176,35.88005],[-118.12176,35.87989],[-118.12177,35.87974],[-118.12184,35.87965],[-118.12195,35.87955],[-118.12216,35.87939],[-118.12229,35.87931],[-118.12241,35.87921],[-118.12252,35.8791],[-118.12259,35.87893],[-118.12261,35.8788],[-118.12257,35.87867],[-118.12255,35.8785],[-118.12254,35.87839],[-118.12253,35.87828],[-118.12246,35.87818],[-118.1223,35.87799],[-118.12218,35.87786],[-118.12211,35.8778],[-118.122,35.87769],[-118.12196,35.87758],[-118.12194,35.87744],[-118.12195,35.8772],[-118.12192,35.87703],[-118.12175,35.87655],[-118.12178,35.87623],[-118.12186,35.87599],[-118.12195,35.87577],[-118.12206,35.87568],[-118.12226,35.87558],[-118.12252,35.87554],[-118.12289,35.87549],[-118.12313,35.87543],[-118.12342,35.87529],[-118.12371,35.87515],[-118.12408,35.87493],[-118.12444,35.87477],[-118.12472,35.87462],[-118.12498,35.87449],[-118.12549,35.87425],[-118.12617,35.87392],[-118.1265,35.87376],[-118.12682,35.87358],[-118.12708,35.87338],[-118.12721,35.87321],[-118.12733,35.87298],[-118.12754,35.87249],[-118.12765,35.87218],[-118.12783,35.87183],[-118.12797,35.8714],[-118.12809,35.87121],[-118.12822,35.87099],[-118.12838,35.87073],[-118.12847,35.87057],[-118.12858,35.87042],[-118.12866,35.87028],[-118.12895,35.86983],[-118.12921,35.8694],[-118.12927,35.8693],[-118.12936,35.86916],[-118.12952,35.86889],[-118.1297,35.8686],[-118.12983,35.8684],[-118.12994,35.86818],[-118.12999,35.86803],[-118.13005,35.86789],[-118.13017,35.86733],[-118.13026,35.86702],[-118.1303,35.86678],[-118.13035,35.86662],[-118.13041,35.86651],[-118.13049,35.86638],[-118.13057,35.86627],[-118.13063,35.86618],[-118.13076,35.86603],[-118.13116,35.86559],[-118.13153,35.8651],[-118.13165,35.86496],[-118.13174,35.86485],[-118.13189,35.86469],[-118.13203,35.86454],[-118.13215,35.86444],[-118.13229,35.8643],[-118.13242,35.86417],[-118.13251,35.864],[-118.13258,35.86387],[-118.1326,35.86379],[-118.13264,35.86368],[-118.13268,35.86355],[-118.13269,35.86344],[-118.13268,35.86332],[-118.13266,35.8632],[-118.13268,35.86308],[-118.1327,35.8629],[-118.13276,35.86214],[-118.13278,35.86198],[-118.13278,35.86185],[-118.13285,35.8615],[-118.13296,35.86096],[-118.13306,35.86003],[-118.13309,35.85982],[-118.13315,35.85967],[-118.13327,35.85945],[-118.13352,35.85891],[-118.13392,35.85813],[-118.134,35.85796],[-118.13415,35.85762],[-118.1343,35.85731],[-118.13446,35.85697],[-118.13471,35.85652],[-118.13509,35.85575],[-118.1353,35.8554],[-118.13545,35.8552],[-118.13585,35.85462],[-118.13596,35.85441],[-118.13605,35.85425],[-118.1361,35.85409],[-118.13617,35.85394],[-118.13628,35.8537],[-118.13637,35.8535],[-118.13648,35.85329],[-118.13657,35.85312],[-118.13663,35.85303],[-118.13668,35.85292],[-118.13672,35.85286],[-118.13676,35.85275],[-118.1368,35.85266],[-118.13684,35.85253],[-118.13688,35.85239],[-118.1369,35.85229],[-118.1369,35.85207],[-118.1369,35.85177],[-118.13691,35.85165],[-118.13691,35.85156],[-118.13693,35.85109],[-118.13695,35.85094],[-118.13696,35.85081],[-118.13696,35.85072],[-118.13696,35.85065],[-118.13698,35.85055],[-118.13699,35.85041],[-118.13701,35.85031],[-118.13715,35.85002],[-118.13728,35.84972],[-118.13734,35.84962],[-118.1374,35.8495],[-118.13749,35.84932],[-118.13758,35.84915],[-118.13768,35.84895],[-118.13785,35.8486],[-118.13795,35.84838],[-118.13805,35.84821],[-118.13835,35.84762],[-118.13847,35.84742],[-118.13854,35.84729],[-118.13862,35.84707],[-118.13866,35.84689],[-118.13868,35.84672],[-118.13868,35.84671],[-118.13867,35.84669],[-118.13866,35.84667],[-118.13864,35.84663],[-118.13858,35.84636],[-118.13857,35.8462],[-118.13855,35.84609],[-118.13851,35.84586],[-118.1385,35.84573],[-118.13848,35.84568],[-118.13849,35.84555],[-118.13844,35.84543],[-118.13845,35.84536],[-118.13843,35.84525],[-118.13842,35.84511],[-118.13839,35.84505],[-118.13837,35.84496],[-118.13835,35.84486],[-118.13833,35.8447],[-118.13831,35.84458],[-118.13821,35.84405],[-118.13819,35.8439],[-118.13817,35.84383],[-118.13814,35.84375],[-118.13805,35.84359],[-118.13784,35.84336],[-118.1376,35.84312],[-118.13751,35.84302],[-118.13726,35.84278],[-118.13695,35.84248],[-118.1365,35.84224],[-118.13611,35.84208],[-118.13584,35.84198],[-118.13562,35.84184],[-118.1355,35.84179],[-118.1352,35.84173],[-118.13497,35.84169],[-118.13471,35.84168],[-118.13445,35.84164],[-118.13415,35.8416],[-118.13391,35.84157],[-118.13363,35.8416],[-118.1334,35.84158],[-118.13325,35.84156],[-118.133,35.84158],[-118.13279,35.84159],[-118.13265,35.8416],[-118.13252,35.84162],[-118.13239,35.84163],[-118.1321,35.84167],[-118.13191,35.84169],[-118.13162,35.84172],[-118.13147,35.84173],[-118.13129,35.84178],[-118.13109,35.84173],[-118.13088,35.84167],[-118.1307,35.84164],[-118.13058,35.8416],[-118.13047,35.84155],[-118.13036,35.84151],[-118.13028,35.84146],[-118.13021,35.84142],[-118.13011,35.84135],[-118.13001,35.84126],[-118.12994,35.84119],[-118.12989,35.84113],[-118.12985,35.84105],[-118.12978,35.84097]]}},{"type":"Feature","properties":{"name":"16002: LONG VALLEY LOOP ROAD","source":"Bureau of Land Management","source_detail":"BLM GTLF OBJECTID 160060","source_id":"{EEC10B08-CA4A-40E3-9767-FDDC724CCCE8}","road_class":"transportation_system_-_primitive_road","surface":"natural_improved","vehicle_class":"4wd_low","allowed_mode":"unk","access_restriction":"unknown","seasonal_restriction":"not_listed","route_plan_id":"1274","gis_miles":1.8237809},"geometry":{"type":"LineString","coordinates":[[-118.12978,35.84097],[-118.12979,35.84088],[-118.12982,35.84082],[-118.12985,35.84079],[-118.12989,35.84076],[-118.12993,35.84074],[-118.12999,35.84072],[-118.13005,35.8407],[-118.13013,35.84069],[-118.13023,35.8407],[-118.13034,35.84073],[-118.13045,35.84077],[-118.13062,35.84085],[-118.1307,35.84088],[-118.13082,35.84087],[-118.13096,35.84085],[-118.13107,35.84078],[-118.13114,35.84071],[-118.13122,35.84063],[-118.13129,35.84055],[-118.13135,35.84048],[-118.13139,35.8404],[-118.13142,35.84034],[-118.13145,35.8403],[-118.1315,35.84026],[-118.13155,35.84022],[-118.13163,35.84016],[-118.1317,35.84014],[-118.13177,35.84009],[-118.13189,35.84005],[-118.13201,35.84],[-118.13213,35.83991],[-118.13222,35.8398],[-118.1323,35.83973],[-118.13237,35.83967],[-118.13246,35.83959],[-118.13253,35.83952],[-118.13258,35.83945],[-118.13262,35.83938],[-118.13262,35.83929],[-118.1326,35.83923],[-118.13257,35.83916],[-118.13254,35.83909],[-118.13251,35.839],[-118.13249,35.83891],[-118.13252,35.83882],[-118.13256,35.83875],[-118.13263,35.83866],[-118.13266,35.8386],[-118.13272,35.83853],[-118.13277,35.83844],[-118.13279,35.83837],[-118.1328,35.83826],[-118.13278,35.83815],[-118.13274,35.83809],[-118.1327,35.83803],[-118.13265,35.83797],[-118.13258,35.83791],[-118.1325,35.83786],[-118.13239,35.8378],[-118.13229,35.83775],[-118.1322,35.83772],[-118.13207,35.83767],[-118.13198,35.83756],[-118.13194,35.83746],[-118.13193,35.83739],[-118.13191,35.83732],[-118.13189,35.83727],[-118.13186,35.83721],[-118.13182,35.83716],[-118.13175,35.8371],[-118.13169,35.83704],[-118.13164,35.83698],[-118.13157,35.83695],[-118.13152,35.83691],[-118.13144,35.83686],[-118.13137,35.83682],[-118.13132,35.83678],[-118.13127,35.83676],[-118.1312,35.83673],[-118.13112,35.83669],[-118.13103,35.83664],[-118.13096,35.8366],[-118.1309,35.83656],[-118.13082,35.8365],[-118.13076,35.83646],[-118.13068,35.83641],[-118.1306,35.83636],[-118.13052,35.83634],[-118.1304,35.83637],[-118.13027,35.8364],[-118.13014,35.83643],[-118.13002,35.83646],[-118.12985,35.83648],[-118.12974,35.83646],[-118.12962,35.83641],[-118.12957,35.83637],[-118.12953,35.83634],[-118.12942,35.83629],[-118.12935,35.83623],[-118.12926,35.83615],[-118.12919,35.8361],[-118.1291,35.83603],[-118.12894,35.8359],[-118.12884,35.83578],[-118.12875,35.83568],[-118.1287,35.83561],[-118.12865,35.83556],[-118.1286,35.8355],[-118.12854,35.83543],[-118.12846,35.83534],[-118.12839,35.83525],[-118.12835,35.83519],[-118.12828,35.83511],[-118.12819,35.83501],[-118.12809,35.83492],[-118.12803,35.83486],[-118.12798,35.83482],[-118.12789,35.83473],[-118.12778,35.83468],[-118.12764,35.83463],[-118.12751,35.83458],[-118.12738,35.83454],[-118.12727,35.83452],[-118.12711,35.83452],[-118.12698,35.83452],[-118.12684,35.83453],[-118.12674,35.83452],[-118.12664,35.83451],[-118.12653,35.83451],[-118.12642,35.83453],[-118.1263,35.83454],[-118.1262,35.83456],[-118.12612,35.83459],[-118.12599,35.83465],[-118.12585,35.83467],[-118.12578,35.83469],[-118.12568,35.83467],[-118.1256,35.83463],[-118.12547,35.83459],[-118.12537,35.83455],[-118.12528,35.83452],[-118.12519,35.8345],[-118.12513,35.83447],[-118.12504,35.83444],[-118.12494,35.83441],[-118.12485,35.83436],[-118.1248,35.83433],[-118.12473,35.83425],[-118.12467,35.8342],[-118.12458,35.83414],[-118.1245,35.83411],[-118.12443,35.83404],[-118.12437,35.83395],[-118.12434,35.83389],[-118.12437,35.83384],[-118.12439,35.83377],[-118.12443,35.83371],[-118.1245,35.83368],[-118.12461,35.83359],[-118.12466,35.83352],[-118.12471,35.83344],[-118.12473,35.83338],[-118.12472,35.83331],[-118.12471,35.83324],[-118.12467,35.83316],[-118.12464,35.83311],[-118.12458,35.83299],[-118.12452,35.83289],[-118.12448,35.83282],[-118.12444,35.83276],[-118.12439,35.83267],[-118.12435,35.83259],[-118.12429,35.83249],[-118.12423,35.83242],[-118.12415,35.83236],[-118.12407,35.83231],[-118.12402,35.83224],[-118.12394,35.83218],[-118.12387,35.83208],[-118.12381,35.83199],[-118.12373,35.83186],[-118.12366,35.83177],[-118.12365,35.83166],[-118.12366,35.83153],[-118.12368,35.83141],[-118.12367,35.8313],[-118.12365,35.83119],[-118.12366,35.83112],[-118.12366,35.83099],[-118.1237,35.83083],[-118.12372,35.83065],[-118.12374,35.83054],[-118.12375,35.8304],[-118.12374,35.83014],[-118.12366,35.82991],[-118.12361,35.82967],[-118.12356,35.82955],[-118.12353,35.8295],[-118.12348,35.82944],[-118.1234,35.8294],[-118.12337,35.82934],[-118.12332,35.82927],[-118.12327,35.8292],[-118.12326,35.82911],[-118.12325,35.82905],[-118.12322,35.82899],[-118.12318,35.82896],[-118.12313,35.82893],[-118.12306,35.82892],[-118.12299,35.82895],[-118.12289,35.82897],[-118.12281,35.829],[-118.12271,35.82902],[-118.12261,35.82903],[-118.1225,35.82904],[-118.1224,35.82906],[-118.12229,35.82907],[-118.12217,35.82908],[-118.12211,35.82909],[-118.12202,35.8291],[-118.12191,35.82911],[-118.12178,35.8291],[-118.12164,35.8291],[-118.12154,35.82907],[-118.12145,35.82905],[-118.12133,35.82903],[-118.12123,35.82901],[-118.12114,35.82899],[-118.12106,35.82901],[-118.12096,35.82903],[-118.12086,35.82905],[-118.12076,35.82909],[-118.12067,35.82912],[-118.12058,35.82916],[-118.12051,35.8292],[-118.1204,35.82921],[-118.12032,35.82922],[-118.12024,35.82921],[-118.12014,35.82918],[-118.12009,35.82914],[-118.12,35.82909],[-118.1199,35.82903],[-118.11979,35.82897],[-118.11967,35.82891],[-118.11957,35.82881],[-118.1195,35.82874],[-118.11934,35.82862],[-118.11928,35.82859],[-118.11924,35.82858],[-118.11915,35.82856],[-118.11906,35.82855],[-118.11894,35.82855],[-118.11887,35.82857],[-118.11884,35.82863],[-118.11883,35.82869],[-118.11881,35.82876],[-118.11878,35.82884],[-118.11877,35.8289],[-118.11876,35.82896],[-118.11875,35.82902],[-118.11873,35.8291],[-118.1187,35.82918],[-118.11867,35.82924],[-118.11864,35.82932],[-118.11857,35.82951],[-118.1185,35.82979],[-118.11851,35.82995],[-118.1185,35.82999],[-118.1185,35.83005],[-118.1185,35.8301],[-118.1185,35.83017],[-118.1185,35.83021],[-118.11851,35.83029],[-118.11853,35.83036],[-118.11857,35.83041],[-118.11859,35.83048],[-118.11862,35.83055],[-118.11867,35.83062],[-118.11869,35.83068],[-118.11872,35.83075],[-118.11873,35.83079],[-118.11872,35.83083],[-118.11872,35.83087],[-118.1187,35.8309],[-118.11869,35.83098],[-118.11866,35.83106],[-118.11862,35.83117],[-118.11861,35.83128],[-118.11859,35.83137],[-118.11858,35.83145],[-118.11858,35.83152],[-118.11858,35.8316],[-118.11856,35.83168],[-118.11855,35.83174],[-118.1185,35.8318],[-118.11842,35.83187],[-118.11833,35.83191],[-118.11824,35.83194],[-118.11818,35.83197],[-118.11808,35.83199],[-118.11804,35.832]]}}]}