{"type":"FeatureCollection","features":[{"type":"Feature","properties":{"name":"East Avenue T 8","road_class":"track","surface":"unpaved","source":"Caltrans All Roads + OpenStreetMap explicit surface","source_detail":"osm way 13320445; Caltrans All Roads public-network geometry match","source_tile":"177/407","public_network_source":"Caltrans All Roads (ARNOLD/HPMS)","surface_source":"OpenStreetMap explicit surface tag","caltrans_match_coverage":1.0,"verified_length_m":1207},"geometry":{"type":"LineString","coordinates":[[-117.78282,34.53493],[-117.78172,34.53499],[-117.77953,34.53506],[-117.77936,34.53506],[-117.77845,34.53505],[-117.77779,34.53491],[-117.77673,34.53492],[-117.77411,34.53494],[-117.77236,34.535],[-117.77079,34.535],[-117.76968,34.53501]]}},{"type":"Feature","properties":{"name":"130th Street East","road_class":"track","surface":"unpaved","source":"Caltrans All Roads + OpenStreetMap explicit surface","source_detail":"osm way 1489993595; Caltrans All Roads public-network geometry match","source_tile":"176/407","public_network_source":"Caltrans All Roads (ARNOLD/HPMS)","surface_source":"OpenStreetMap explicit surface tag","caltrans_match_coverage":1.0,"verified_length_m":1616},"geometry":{"type":"LineString","coordinates":[[-117.89857,34.60195],[-117.89858,34.59928],[-117.89859,34.59801],[-117.89855,34.59658],[-117.89853,34.5954],[-117.89857,34.59362],[-117.89856,34.59357],[-117.89849,34.58733]]}},{"type":"Feature","properties":{"name":"Bear Creek Road","road_class":"track","surface":"unpaved","source":"Caltrans All Roads + OpenStreetMap explicit surface","source_detail":"osm way 13323594; Caltrans All Roads public-network geometry match","source_tile":"176/407","public_network_source":"Caltrans All Roads (ARNOLD/HPMS)","surface_source":"OpenStreetMap explicit surface tag","caltrans_match_coverage":0.86,"verified_length_m":1237},"geometry":{"type":"LineString","coordinates":[[-118.08187,34.53746],[-118.08154,34.53748],[-118.08121,34.53745],[-118.08087,34.5374],[-118.08041,34.53735],[-118.0797,34.53726],[-118.07906,34.53712],[-118.07849,34.537],[-118.07809,34.53692],[-118.07741,34.53677],[-118.07696,34.53674],[-118.07653,34.53666],[-118.07599,34.53643],[-118.07528,34.53593],[-118.07465,34.53544],[-118.07413,34.5351],[-118.07354,34.53474],[-118.07326,34.53461],[-118.07306,34.53452],[-118.07275,34.53443],[-118.07203,34.53433],[-118.07177,34.53439],[-118.07171,34.53448],[-118.07172,34.53458],[-118.07185,34.53464],[-118.07211,34.53467],[-118.07227,34.53467],[-118.07237,34.53472],[-118.07263,34.53512],[-118.0726,34.5353],[-118.07254,34.53539],[-118.0724,34.53552],[-118.07216,34.53571]]}},{"type":"Feature","properties":{"name":"Stokeley Road","road_class":"track","surface":"unpaved","source":"Caltrans All Roads + OpenStreetMap explicit surface","source_detail":"osm way 13353840; Caltrans All Roads public-network geometry match","source_tile":"176/407","public_network_source":"Caltrans All Roads (ARNOLD/HPMS)","surface_source":"OpenStreetMap explicit surface tag","caltrans_match_coverage":1.0,"verified_length_m":2107},"geometry":{"type":"LineString","coordinates":[[-118.02766,34.5317],[-118.02702,34.53173],[-118.02644,34.53176],[-118.02586,34.53176],[-118.02552,34.53171],[-118.02484,34.53146],[-118.02422,34.53119],[-118.024,34.53109],[-118.02362,34.53086],[-118.02336,34.53066],[-118.02273,34.53015],[-118.02226,34.52976],[-118.02193,34.52954],[-118.02139,34.52925],[-118.02065,34.52892],[-118.0199,34.52858],[-118.01883,34.5281],[-118.01739,34.52742],[-118.01639,34.52691],[-118.0157,34.52661],[-118.01492,34.52623],[-118.01443,34.52603],[-118.01417,34.52588],[-118.01392,34.5257],[-118.01341,34.52535],[-118.01295,34.52509],[-118.01248,34.52476],[-118.01221,34.52461],[-118.01188,34.52443],[-118.0115,34.52424],[-118.01115,34.52406],[-118.01066,34.5237],[-118.01004,34.5232],[-118.00956,34.52284],[-118.00916,34.52258],[-118.0089,34.52246],[-118.00874,34.52252],[-118.00832,34.52277]]}},{"type":"Feature","properties":{"name":"87th Street East","road_class":"unclassified","surface":"unpaved","source":"Caltrans All Roads + OpenStreetMap explicit surface","source_detail":"osm way 13356649; Caltrans All Roads public-network geometry match","source_tile":"176/407","public_network_source":"Caltrans All Roads (ARNOLD/HPMS)","surface_source":"OpenStreetMap explicit surface tag","caltrans_match_coverage":1.0,"verified_length_m":745},"geometry":{"type":"LineString","coordinates":[[-117.97491,34.55769],[-117.97476,34.55588],[-117.97478,34.55397],[-117.9748,34.55198],[-117.97482,34.55141],[-117.97483,34.55115],[-117.97472,34.55098]]}},{"type":"Feature","properties":{"name":"East Avenue W 14","road_class":"track","surface":"unpaved","source":"Caltrans All Roads + OpenStreetMap explicit surface","source_detail":"osm way 13367426; Caltrans All Roads public-network geometry match","source_tile":"176/407","public_network_source":"Caltrans All Roads (ARNOLD/HPMS)","surface_source":"OpenStreetMap explicit surface tag","caltrans_match_coverage":1.0,"verified_length_m":644},"geometry":{"type":"LineString","coordinates":[[-117.91345,34.48619],[-117.91275,34.48649],[-117.91252,34.48654],[-117.91165,34.48657],[-117.91103,34.48654],[-117.90987,34.48654],[-117.90979,34.48654],[-117.90653,34.48654]]}},{"type":"Feature","properties":{"name":"East Avenue V 14","road_class":"track","surface":"unpaved","source":"Caltrans All Roads + OpenStreetMap explicit surface","source_detail":"osm way 13371748; Caltrans All Roads public-network geometry match","source_tile":"176/407","public_network_source":"Caltrans All Roads (ARNOLD/HPMS)","surface_source":"OpenStreetMap explicit surface tag","caltrans_match_coverage":0.955,"verified_length_m":717},"geometry":{"type":"LineString","coordinates":[[-117.83539,34.50061],[-117.84251,34.50057],[-117.84321,34.50057]]}},{"type":"Feature","properties":{"name":"Alimony Road","road_class":"track","surface":"unpaved","tracktype":"grade2","source":"Caltrans All Roads + OpenStreetMap explicit surface","source_detail":"osm way 13459804; Caltrans All Roads public-network geometry match","source_tile":"176/407","public_network_source":"Caltrans All Roads (ARNOLD/HPMS)","surface_source":"OpenStreetMap explicit surface tag","caltrans_match_coverage":1.0,"verified_length_m":7254},"geometry":{"type":"LineString","coordinates":[[-117.97208,34.41602],[-117.97216,34.41651],[-117.97197,34.41683],[-117.97186,34.41695],[-117.9718,34.41707],[-117.97178,34.41729],[-117.97169,34.41734],[-117.97147,34.41739],[-117.97141,34.41743],[-117.97138,34.41749],[-117.97141,34.41768],[-117.97142,34.41789],[-117.97148,34.41813],[-117.97161,34.41823],[-117.97164,34.41828],[-117.97166,34.41844],[-117.97168,34.41857],[-117.97171,34.41865],[-117.97176,34.41877],[-117.97175,34.41885],[-117.97178,34.41894],[-117.9718,34.41901],[-117.97179,34.41908],[-117.97172,34.41916],[-117.97169,34.41922],[-117.9717,34.4193],[-117.9718,34.41943],[-117.97185,34.41951],[-117.97188,34.41956],[-117.97188,34.41962],[-117.97186,34.41968],[-117.97172,34.41977],[-117.97164,34.41984],[-117.97163,34.41997],[-117.97161,34.4201],[-117.97154,34.42023],[-117.97141,34.42034],[-117.9714,34.42041],[-117.97144,34.42047],[-117.97155,34.4205],[-117.97165,34.42047],[-117.97175,34.42042],[-117.97189,34.42035],[-117.97198,34.42027],[-117.97208,34.42026],[-117.97218,34.42031],[-117.97221,34.42039],[-117.9722,34.42049],[-117.97214,34.42059],[-117.97205,34.42065],[-117.97192,34.4207],[-117.97179,34.42077],[-117.9717,34.42085],[-117.97158,34.42101],[-117.97145,34.42111],[-117.97112,34.4214],[-117.97101,34.42151],[-117.97097,34.42158],[-117.97101,34.42164],[-117.97107,34.42167],[-117.97121,34.42165],[-117.97139,34.4216],[-117.97151,34.42161],[-117.97165,34.42167],[-117.97175,34.42176],[-117.97179,34.42181],[-117.97181,34.42188],[-117.97179,34.42198],[-117.97179,34.42208],[-117.97184,34.42217],[-117.97192,34.42226],[-117.97203,34.42231],[-117.97209,34.42242],[-117.9722,34.42252],[-117.97228,34.42258],[-117.9724,34.42261],[-117.9725,34.42267],[-117.97253,34.42275],[-117.97252,34.42289],[-117.97248,34.42299],[-117.97243,34.42307],[-117.97241,34.42316],[-117.97245,34.42327],[-117.97255,34.42339],[-117.97258,34.42352],[-117.97258,34.42358],[-117.97254,34.42364],[-117.97248,34.42364],[-117.97234,34.42365],[-117.97221,34.42366],[-117.97211,34.42368],[-117.97201,34.4237],[-117.9719,34.42367],[-117.97184,34.42364],[-117.9718,34.42363],[-117.97174,34.42364],[-117.97167,34.42369],[-117.97156,34.42391],[-117.97149,34.42404],[-117.97144,34.4241],[-117.97103,34.4242],[-117.97078,34.42425],[-117.97071,34.4243],[-117.97069,34.42437],[-117.97074,34.42443],[-117.97087,34.42448],[-117.97113,34.42455],[-117.97128,34.42469],[-117.97132,34.42487],[-117.97135,34.42502],[-117.97135,34.42519],[-117.97138,34.4253],[-117.97152,34.42535],[-117.97159,34.42553],[-117.97153,34.42569],[-117.97149,34.42581],[-117.97144,34.426],[-117.9715,34.42616],[-117.97143,34.42625],[-117.97135,34.42631],[-117.97133,34.42639],[-117.97136,34.42646],[-117.97148,34.42653],[-117.97148,34.42662],[-117.97136,34.4267],[-117.97124,34.42678],[-117.97121,34.42684],[-117.97118,34.42697],[-117.97125,34.42703],[-117.97134,34.42708],[-117.97135,34.42718],[-117.97133,34.42738],[-117.97122,34.42761],[-117.97113,34.42805],[-117.97112,34.42816],[-117.97103,34.42842],[-117.97103,34.4286],[-117.97111,34.42882],[-117.97105,34.42901],[-117.97096,34.42916],[-117.97103,34.4294],[-117.97109,34.42966],[-117.97108,34.42982],[-117.97101,34.43],[-117.97101,34.43016],[-117.9711,34.43023],[-117.97115,34.43034],[-117.97132,34.43041],[-117.97153,34.43035],[-117.97163,34.43026],[-117.97178,34.42993],[-117.97211,34.42932],[-117.97218,34.42911],[-117.97226,34.42908],[-117.97239,34.429],[-117.97251,34.42892],[-117.97265,34.4288],[-117.97274,34.42869],[-117.97293,34.42868],[-117.9731,34.42862],[-117.97324,34.42843],[-117.97325,34.42831],[-117.97336,34.42819],[-117.97342,34.42812],[-117.97352,34.42791],[-117.9736,34.42792],[-117.97371,34.42797],[-117.97383,34.4281],[-117.97396,34.42823],[-117.97424,34.42835],[-117.97455,34.42843],[-117.97464,34.42853],[-117.97462,34.42884],[-117.97463,34.42906],[-117.97472,34.42924],[-117.97481,34.42937],[-117.97483,34.42959],[-117.97486,34.42979],[-117.97498,34.42983],[-117.97519,34.42983],[-117.97544,34.42988],[-117.97574,34.42993],[-117.97584,34.43007],[-117.9758,34.43028],[-117.97581,34.4305],[-117.97619,34.43075],[-117.9763,34.43107],[-117.97627,34.43113],[-117.97613,34.43119],[-117.97569,34.43108],[-117.97545,34.43107],[-117.97523,34.43129],[-117.97505,34.43132],[-117.97486,34.43132],[-117.97469,34.43143],[-117.97479,34.43163],[-117.97499,34.43182],[-117.97433,34.43222],[-117.97433,34.43231],[-117.97438,34.43239],[-117.97489,34.43257],[-117.97528,34.43281],[-117.97528,34.43299],[-117.97523,34.43313],[-117.97509,34.43327],[-117.9748,34.43355],[-117.97456,34.43382],[-117.97459,34.43396],[-117.97465,34.43407],[-117.97486,34.43423],[-117.97488,34.43433],[-117.97485,34.43436],[-117.97482,34.43452],[-117.97472,34.43466],[-117.97462,34.43482],[-117.97464,34.43494],[-117.97477,34.43502],[-117.97518,34.43512],[-117.97553,34.43519],[-117.97579,34.43534],[-117.97579,34.43542],[-117.97569,34.43556],[-117.97553,34.43563],[-117.97534,34.43567],[-117.97521,34.43575],[-117.9751,34.43593],[-117.97512,34.43612],[-117.97505,34.43623],[-117.97493,34.43628],[-117.97473,34.43628],[-117.97438,34.43627],[-117.97409,34.43615],[-117.97379,34.43609],[-117.97344,34.43604],[-117.97315,34.43612],[-117.97317,34.43628],[-117.97331,34.43649],[-117.97336,34.43671],[-117.97336,34.43702],[-117.97363,34.43723],[-117.97389,34.43735],[-117.97397,34.43748],[-117.97395,34.43787],[-117.97382,34.43801],[-117.97363,34.43796],[-117.97321,34.43787],[-117.97318,34.43811],[-117.97301,34.43844],[-117.97297,34.43868],[-117.97317,34.43881],[-117.97323,34.43898],[-117.97329,34.43915],[-117.97313,34.43945],[-117.97294,34.43958],[-117.9727,34.43971],[-117.97265,34.43959],[-117.97257,34.43929],[-117.97243,34.43911],[-117.97243,34.43899],[-117.97243,34.43891],[-117.97237,34.43875],[-117.97227,34.43875],[-117.97198,34.43883],[-117.97179,34.43878],[-117.97169,34.43868],[-117.97169,34.43852],[-117.97155,34.43844],[-117.9715,34.43838],[-117.97139,34.43828],[-117.9712,34.43826],[-117.97106,34.43827],[-117.97098,34.43835],[-117.971,34.4385],[-117.97099,34.43868],[-117.97087,34.43877],[-117.97066,34.43883],[-117.97053,34.43888],[-117.97047,34.43894],[-117.97034,34.43902],[-117.97022,34.43902],[-117.97006,34.43886],[-117.96968,34.43876],[-117.96955,34.4386],[-117.96924,34.43851],[-117.96919,34.43834],[-117.96928,34.43808],[-117.96939,34.43792],[-117.9694,34.43783],[-117.96935,34.43779],[-117.96923,34.4378],[-117.96916,34.43785],[-117.96904,34.43792],[-117.96883,34.438],[-117.96853,34.43814],[-117.96829,34.43832],[-117.9683,34.43846],[-117.96822,34.43855],[-117.96791,34.43852],[-117.96773,34.43863],[-117.9675,34.43869],[-117.9673,34.43861],[-117.96714,34.43855],[-117.96703,34.43865],[-117.96684,34.43897],[-117.96672,34.43896],[-117.96661,34.43861],[-117.96645,34.43845],[-117.96625,34.43837],[-117.9657,34.4388],[-117.96554,34.43917],[-117.96547,34.43937],[-117.96547,34.43957],[-117.96552,34.43986],[-117.96567,34.44002],[-117.96568,34.44014],[-117.96547,34.44037],[-117.96551,34.4407],[-117.96537,34.44091],[-117.9653,34.44125],[-117.9652,34.44129],[-117.96511,34.44116],[-117.965,34.44109],[-117.96488,34.44118],[-117.96478,34.44154],[-117.96437,34.44191],[-117.96417,34.44197],[-117.96396,34.4419],[-117.96388,34.44173],[-117.9638,34.44166],[-117.96368,34.4417],[-117.96363,34.44188],[-117.96374,34.44249],[-117.96375,34.44276],[-117.96363,34.44306],[-117.96365,34.44317],[-117.96367,34.44325],[-117.96354,34.44348],[-117.96361,34.44413],[-117.96364,34.44431],[-117.96358,34.44441],[-117.96339,34.44456],[-117.96327,34.44503],[-117.96317,34.44545],[-117.96291,34.44577],[-117.96286,34.44615],[-117.96275,34.44629],[-117.96254,34.44668],[-117.96247,34.44706],[-117.96236,34.44727],[-117.96212,34.44739],[-117.96187,34.44755],[-117.96174,34.4477],[-117.96166,34.44798],[-117.96162,34.44827],[-117.96145,34.44871],[-117.96124,34.44891],[-117.9609,34.4494],[-117.96086,34.44959],[-117.96094,34.44987],[-117.96086,34.45]]}},{"type":"Feature","properties":{"name":"Roundtop Road","road_class":"track","surface":"unpaved","tracktype":"grade3","source":"Caltrans All Roads + OpenStreetMap explicit surface","source_detail":"osm way 31172386; Caltrans All Roads public-network geometry match","source_tile":"176/407","public_network_source":"Caltrans All Roads (ARNOLD/HPMS)","surface_source":"OpenStreetMap explicit surface tag","caltrans_match_coverage":1.0,"verified_length_m":4272},"geometry":{"type":"LineString","coordinates":[[-118.06028,34.38367],[-118.06049,34.38305],[-118.0607,34.38289],[-118.06127,34.38307],[-118.06157,34.3831],[-118.06186,34.38301],[-118.06209,34.38265],[-118.0621,34.38246],[-118.06226,34.3823],[-118.06258,34.38228],[-118.06263,34.38222],[-118.06277,34.38189],[-118.06274,34.38161],[-118.06289,34.38145],[-118.06316,34.38145],[-118.06331,34.38152],[-118.06356,34.38152],[-118.0637,34.38145],[-118.0639,34.38123],[-118.06393,34.3812],[-118.06408,34.38089],[-118.06415,34.38044],[-118.06427,34.38027],[-118.06513,34.37966],[-118.0653,34.37943],[-118.0655,34.37891],[-118.06555,34.37885],[-118.06583,34.3788],[-118.06654,34.37774],[-118.06679,34.37757],[-118.06743,34.37737],[-118.06782,34.37704],[-118.06793,34.37682],[-118.06787,34.37649],[-118.06793,34.37612],[-118.06795,34.37522],[-118.06798,34.37501],[-118.06813,34.37485],[-118.06819,34.37458],[-118.0681,34.37415],[-118.0683,34.37327],[-118.06843,34.37297],[-118.06847,34.37267],[-118.06838,34.37234],[-118.068,34.37199],[-118.0679,34.37164],[-118.06792,34.3713],[-118.06802,34.37088],[-118.06825,34.37039],[-118.06806,34.36987],[-118.06805,34.36926],[-118.06766,34.36862],[-118.06758,34.36816],[-118.06739,34.36802],[-118.06722,34.36798],[-118.06716,34.36778],[-118.06728,34.36763],[-118.06754,34.36732],[-118.06744,34.3672],[-118.06672,34.36699],[-118.06659,34.36701],[-118.06615,34.3671],[-118.06595,34.3669],[-118.06589,34.36664],[-118.066,34.36634],[-118.06602,34.3658],[-118.06585,34.36534],[-118.06583,34.36509],[-118.06579,34.36471],[-118.06595,34.3643],[-118.06598,34.36395],[-118.0658,34.36369],[-118.06561,34.36352],[-118.06542,34.36317],[-118.06524,34.36201],[-118.06531,34.36128],[-118.0656,34.36074],[-118.06562,34.36038],[-118.06595,34.35971],[-118.06638,34.35906],[-118.06639,34.3588],[-118.06605,34.3581],[-118.06549,34.35774],[-118.06533,34.35731],[-118.06543,34.35703],[-118.06647,34.35605],[-118.06674,34.35525],[-118.06718,34.35472],[-118.06732,34.35429],[-118.06759,34.3539],[-118.06769,34.35343],[-118.06802,34.35315],[-118.06812,34.35289],[-118.06816,34.35254],[-118.06813,34.35243],[-118.06793,34.35253],[-118.0678,34.35267]]}},{"type":"Feature","properties":{"name":"Pacifico Mountain Road","road_class":"track","surface":"unpaved","tracktype":"grade3","source":"Caltrans All Roads + OpenStreetMap explicit surface","source_detail":"osm way 31177094; Caltrans All Roads public-network geometry match","source_tile":"176/407","public_network_source":"Caltrans All Roads (ARNOLD/HPMS)","surface_source":"OpenStreetMap explicit surface tag","caltrans_match_coverage":1.0,"verified_length_m":6958},"geometry":{"type":"LineString","coordinates":[[-118.04371,34.37703],[-118.04393,34.3774],[-118.04394,34.37747],[-118.04412,34.37801],[-118.04416,34.37831],[-118.04394,34.37879],[-118.04397,34.37888],[-118.04453,34.3791],[-118.04513,34.37958],[-118.04543,34.3797],[-118.04589,34.37975],[-118.04636,34.37994],[-118.0467,34.38048],[-118.04678,34.38056],[-118.04703,34.38064],[-118.04714,34.38076],[-118.04733,34.38128],[-118.04749,34.38146],[-118.04769,34.38148],[-118.04786,34.38128],[-118.04799,34.38101],[-118.04816,34.38082],[-118.04828,34.38073],[-118.04849,34.38068],[-118.04868,34.38091],[-118.04894,34.38101],[-118.04957,34.38096],[-118.04981,34.38103],[-118.05005,34.38133],[-118.05062,34.38145],[-118.05103,34.38172],[-118.05148,34.38188],[-118.05171,34.38192],[-118.05246,34.38178],[-118.05319,34.38187],[-118.05353,34.38182],[-118.05413,34.38208],[-118.05441,34.38199],[-118.05473,34.38167],[-118.05501,34.38176],[-118.05528,34.38217],[-118.05554,34.38236],[-118.05586,34.38239],[-118.05623,34.38257],[-118.05724,34.38297],[-118.05757,34.38321],[-118.05799,34.38315],[-118.05874,34.38327],[-118.05931,34.38338],[-118.0597,34.38356],[-118.06018,34.38365],[-118.06028,34.38367],[-118.06056,34.38373],[-118.06094,34.38367],[-118.06132,34.38341],[-118.06162,34.38335],[-118.06191,34.38343],[-118.06257,34.38338],[-118.06345,34.38353],[-118.06399,34.38394],[-118.06413,34.38397],[-118.06494,34.38392],[-118.06536,34.38368],[-118.06557,34.38364],[-118.06673,34.38372],[-118.06687,34.38368],[-118.06716,34.38347],[-118.06777,34.38346],[-118.06805,34.38331],[-118.06836,34.38296],[-118.0687,34.38273],[-118.06921,34.38286],[-118.06954,34.38282],[-118.06981,34.38266],[-118.06991,34.38254],[-118.06997,34.38221],[-118.07003,34.38213],[-118.07015,34.38218],[-118.07016,34.38228],[-118.07,34.38281],[-118.06983,34.38294],[-118.06945,34.38313],[-118.0689,34.38319],[-118.06865,34.38369],[-118.0683,34.38403],[-118.06779,34.38417],[-118.06763,34.38435],[-118.06749,34.38481],[-118.06765,34.38485],[-118.06777,34.38449],[-118.06788,34.38437],[-118.06885,34.38432],[-118.06898,34.38422],[-118.06929,34.38382],[-118.06968,34.38391],[-118.06995,34.3838],[-118.07009,34.38367],[-118.07025,34.38365],[-118.07068,34.38371],[-118.0708,34.38363],[-118.07087,34.38336],[-118.07111,34.38293],[-118.07132,34.38286],[-118.07175,34.383],[-118.07203,34.38319],[-118.07235,34.38327],[-118.07254,34.38319],[-118.07266,34.383],[-118.0728,34.38291],[-118.07295,34.38294],[-118.07318,34.38306],[-118.07355,34.38316],[-118.07371,34.38332],[-118.07383,34.38366],[-118.0739,34.38374],[-118.07413,34.38382],[-118.07471,34.38375],[-118.0761,34.38378],[-118.07668,34.38369],[-118.07678,34.38362],[-118.07687,34.38333],[-118.0774,34.38297],[-118.07778,34.38278],[-118.07851,34.38241],[-118.07927,34.38236],[-118.07957,34.38229],[-118.0799,34.38234],[-118.08024,34.38256],[-118.08027,34.38273],[-118.08019,34.38287],[-118.07989,34.38297],[-118.0794,34.38304],[-118.07912,34.38316],[-118.07808,34.38348],[-118.07803,34.38349],[-118.07786,34.38359],[-118.07773,34.38402],[-118.07758,34.38427],[-118.07712,34.38493],[-118.07687,34.38513],[-118.07602,34.38546],[-118.07563,34.38545],[-118.07534,34.38553],[-118.07507,34.38572],[-118.07469,34.38588],[-118.07402,34.38595],[-118.07388,34.38605],[-118.07393,34.38619],[-118.07439,34.38616],[-118.07517,34.38622],[-118.07552,34.38636],[-118.07583,34.38639],[-118.07608,34.38653],[-118.07619,34.38667],[-118.07647,34.38677],[-118.07693,34.38672],[-118.07703,34.38671],[-118.07734,34.38659],[-118.07765,34.38637],[-118.07837,34.38611],[-118.07904,34.38683],[-118.07975,34.38716],[-118.07981,34.38717],[-118.07991,34.38719],[-118.08003,34.38721],[-118.08031,34.38722],[-118.08055,34.38713],[-118.08078,34.38696],[-118.08099,34.38692],[-118.08118,34.38694],[-118.08149,34.38682],[-118.08158,34.38688],[-118.08152,34.38703],[-118.08136,34.3871],[-118.08116,34.38709],[-118.08103,34.38727],[-118.08092,34.38786],[-118.08065,34.38835],[-118.08022,34.38866],[-118.07994,34.38895],[-118.07966,34.38899],[-118.07947,34.38914],[-118.07947,34.38921],[-118.07966,34.38937],[-118.07975,34.38943],[-118.07985,34.38952]]}},{"type":"Feature","properties":{"name":"(unnamed public road)","road_class":"track","surface":"unpaved","tracktype":"grade5","source":"Caltrans All Roads + OpenStreetMap explicit surface","source_detail":"osm way 31458517; Caltrans All Roads public-network geometry match","source_tile":"176/407","public_network_source":"Caltrans All Roads (ARNOLD/HPMS)","surface_source":"OpenStreetMap explicit surface tag","caltrans_match_coverage":0.865,"verified_length_m":7011},"geometry":{"type":"LineString","coordinates":[[-117.81041,34.31145],[-117.81048,34.31145],[-117.81059,34.3115],[-117.81063,34.31164],[-117.81061,34.31188],[-117.81052,34.31208],[-117.81035,34.31228],[-117.81027,34.31232],[-117.81019,34.31233],[-117.81011,34.31226],[-117.81009,34.31217],[-117.8101,34.31142],[-117.8099,34.3111],[-117.8099,34.31072],[-117.80994,34.31057],[-117.8101,34.3105],[-117.81049,34.31057],[-117.81161,34.31128],[-117.81168,34.31144],[-117.81163,34.31161],[-117.81145,34.31186],[-117.81091,34.31289],[-117.81061,34.3134],[-117.81054,34.31387],[-117.81039,34.31427],[-117.80998,34.31494],[-117.80987,34.31527],[-117.80986,34.31539],[-117.81002,34.31601],[-117.81027,34.31619],[-117.81025,34.3164],[-117.8104,34.31655],[-117.81083,34.31663],[-117.81112,34.31656],[-117.81139,34.31672],[-117.81162,34.31675],[-117.81182,34.3166],[-117.81196,34.3167],[-117.81203,34.31682],[-117.81226,34.31689],[-117.81287,34.31673],[-117.81326,34.31691],[-117.81355,34.3169],[-117.81366,34.31692],[-117.8138,34.31698],[-117.81391,34.31717],[-117.81396,34.31738],[-117.81403,34.31741],[-117.81426,34.31742],[-117.81448,34.3175],[-117.81467,34.31744],[-117.8149,34.31731],[-117.81505,34.31719],[-117.81536,34.31713],[-117.81554,34.31719],[-117.81575,34.31734],[-117.8159,34.31756],[-117.81593,34.31774],[-117.81586,34.31791],[-117.8158,34.31807],[-117.81589,34.31817],[-117.8161,34.31817],[-117.81637,34.31816],[-117.8165,34.31826],[-117.81659,34.31846],[-117.81663,34.31855],[-117.81671,34.31855],[-117.81676,34.31848],[-117.81668,34.3183],[-117.81649,34.31806],[-117.81621,34.31801],[-117.81617,34.3179],[-117.81623,34.31776],[-117.81628,34.31754],[-117.81616,34.31732],[-117.81605,34.31699],[-117.81581,34.31663],[-117.81557,34.31653],[-117.81476,34.3166],[-117.81452,34.31662],[-117.81453,34.31643],[-117.81464,34.31615],[-117.81456,34.31593],[-117.81441,34.31586],[-117.81443,34.31568],[-117.81457,34.31559],[-117.81469,34.31564],[-117.81477,34.31585],[-117.81476,34.31621],[-117.81486,34.31632],[-117.81517,34.31623],[-117.81544,34.31597],[-117.81558,34.31595],[-117.81595,34.31611],[-117.81638,34.3161],[-117.81655,34.31626],[-117.81696,34.31684],[-117.81709,34.31702],[-117.8173,34.31694],[-117.81763,34.31708],[-117.81783,34.31701],[-117.81812,34.31638],[-117.81837,34.31627],[-117.81847,34.3163],[-117.81854,34.31649],[-117.81843,34.31696],[-117.81847,34.3174],[-117.81875,34.31755],[-117.81926,34.31757],[-117.81985,34.31772],[-117.82056,34.3178],[-117.82082,34.31804],[-117.82082,34.31827],[-117.82106,34.31904],[-117.82104,34.31915],[-117.82086,34.31939],[-117.82065,34.31999],[-117.82092,34.32032],[-117.821,34.32065],[-117.82084,34.32096],[-117.82082,34.32121],[-117.82071,34.32146],[-117.82042,34.32182],[-117.82034,34.3221],[-117.82014,34.32242],[-117.82006,34.32277],[-117.82013,34.32288],[-117.82028,34.32298],[-117.82112,34.32307],[-117.82134,34.32314],[-117.82173,34.3234],[-117.82191,34.32367],[-117.82157,34.32446],[-117.82118,34.32496],[-117.82069,34.32537],[-117.8204,34.32609],[-117.82017,34.32711],[-117.82044,34.32753],[-117.82044,34.32768],[-117.82021,34.32828],[-117.82034,34.32848],[-117.82128,34.329],[-117.82144,34.32946],[-117.82161,34.33072],[-117.82182,34.33123],[-117.82182,34.33145],[-117.82197,34.33204],[-117.82213,34.33242],[-117.82241,34.33292],[-117.82271,34.33325],[-117.82282,34.33352],[-117.82293,34.33358],[-117.8234,34.33343],[-117.82415,34.33349],[-117.82542,34.33377],[-117.82683,34.33415],[-117.82724,34.33442],[-117.8272,34.33474],[-117.82724,34.33481],[-117.82766,34.33492],[-117.8277,34.33503],[-117.82788,34.33518],[-117.82836,34.33522],[-117.82836,34.3355],[-117.82958,34.3359],[-117.83011,34.33602],[-117.83135,34.33629],[-117.83168,34.33643],[-117.83191,34.3366],[-117.83242,34.33671],[-117.83288,34.33669],[-117.83312,34.33658],[-117.83332,34.33643],[-117.8344,34.33526],[-117.83504,34.33479],[-117.83557,34.33459],[-117.83587,34.33429],[-117.83618,34.33413],[-117.8365,34.33402],[-117.83668,34.33409],[-117.83671,34.33426],[-117.83671,34.33446],[-117.83678,34.33455],[-117.83686,34.33455],[-117.83693,34.33446],[-117.83707,34.33437],[-117.83721,34.33429],[-117.83733,34.33426],[-117.83738,34.33425],[-117.83742,34.33423]]}},{"type":"Feature","properties":{"name":"Loomis Ranch Road","road_class":"track","surface":"unpaved","tracktype":"grade3","access":"permissive","source":"Caltrans All Roads + OpenStreetMap explicit surface","source_detail":"osm way 31486841; Caltrans All Roads public-network geometry match","source_tile":"176/407","public_network_source":"Caltrans All Roads (ARNOLD/HPMS)","surface_source":"OpenStreetMap explicit surface tag","caltrans_match_coverage":1.0,"verified_length_m":4277},"geometry":{"type":"LineString","coordinates":[[-118.0312,34.34171],[-118.03126,34.34172],[-118.03134,34.34174],[-118.03146,34.34177],[-118.03153,34.34179],[-118.03162,34.34186],[-118.03169,34.3419],[-118.03175,34.34192],[-118.03188,34.34194],[-118.03194,34.34196],[-118.032,34.34198],[-118.03214,34.34205],[-118.03218,34.34206],[-118.03223,34.34207],[-118.03227,34.34207],[-118.03231,34.34207],[-118.03234,34.34206],[-118.03236,34.34205],[-118.03239,34.34204],[-118.03242,34.34201],[-118.03244,34.34198],[-118.03245,34.34195],[-118.03246,34.34192],[-118.03246,34.34188],[-118.03246,34.34185],[-118.03245,34.3418],[-118.03244,34.34176],[-118.03245,34.34171],[-118.03246,34.34167],[-118.03248,34.34164],[-118.03251,34.34163],[-118.03254,34.34161],[-118.03257,34.34161],[-118.03261,34.34162],[-118.03264,34.34163],[-118.03275,34.34169],[-118.03286,34.34174],[-118.03299,34.3418],[-118.03312,34.34186],[-118.03316,34.34187],[-118.0332,34.34188],[-118.03324,34.34188],[-118.03329,34.34188],[-118.03332,34.34187],[-118.03336,34.34185],[-118.03338,34.34183],[-118.03341,34.34181],[-118.03343,34.34177],[-118.03345,34.34174],[-118.03347,34.34171],[-118.03347,34.34168],[-118.03347,34.34165],[-118.03347,34.34154],[-118.03347,34.3415],[-118.03347,34.34146],[-118.03348,34.34142],[-118.03349,34.34138],[-118.03351,34.34134],[-118.03354,34.3413],[-118.03358,34.34126],[-118.03363,34.34123],[-118.03367,34.3412],[-118.0338,34.34114],[-118.03383,34.34112],[-118.03386,34.3411],[-118.03389,34.34107],[-118.03391,34.34103],[-118.03393,34.34099],[-118.03403,34.34073],[-118.03404,34.3407],[-118.03404,34.34067],[-118.03404,34.34064],[-118.03402,34.34062],[-118.03401,34.3406],[-118.03397,34.34056],[-118.03393,34.34052],[-118.03387,34.34047],[-118.03384,34.34045],[-118.03381,34.34043],[-118.03379,34.34041],[-118.03378,34.34039],[-118.03377,34.34035],[-118.03377,34.34032],[-118.03378,34.34028],[-118.03379,34.34025],[-118.03382,34.34022],[-118.03386,34.34019],[-118.034,34.3401],[-118.03404,34.34009],[-118.03409,34.34007],[-118.03414,34.34004],[-118.0342,34.34],[-118.03424,34.33997],[-118.03428,34.33992],[-118.03432,34.33988],[-118.03436,34.33979],[-118.03438,34.33976],[-118.0344,34.33974],[-118.03443,34.33971],[-118.03446,34.3397],[-118.03449,34.33968],[-118.03452,34.33967],[-118.0346,34.33964],[-118.03467,34.33961],[-118.03473,34.33957],[-118.03479,34.33953],[-118.03491,34.33943],[-118.03498,34.33934],[-118.03506,34.33925],[-118.03527,34.33906],[-118.03532,34.33902],[-118.03537,34.33897],[-118.03542,34.33891],[-118.03545,34.33888],[-118.03547,34.33885],[-118.03549,34.3388],[-118.0355,34.33875],[-118.0355,34.33863],[-118.0355,34.3386],[-118.03548,34.33857],[-118.03546,34.33855],[-118.03543,34.33852],[-118.0354,34.33851],[-118.03537,34.3385],[-118.03533,34.33849],[-118.03529,34.33849],[-118.03526,34.3385],[-118.03523,34.33851],[-118.03501,34.33861],[-118.03498,34.33862],[-118.03495,34.33863],[-118.03491,34.33862],[-118.03488,34.33861],[-118.03486,34.33859],[-118.03484,34.33857],[-118.0348,34.33848],[-118.03479,34.33845],[-118.03477,34.33841],[-118.03474,34.33838],[-118.0347,34.33835],[-118.03457,34.33829],[-118.03454,34.33827],[-118.03451,34.33825],[-118.0345,34.33823],[-118.03449,34.3382],[-118.0345,34.33817],[-118.03452,34.33814],[-118.03455,34.33811],[-118.03458,34.33809],[-118.03462,34.33807],[-118.03475,34.33804],[-118.03483,34.338],[-118.03491,34.33796],[-118.035,34.33791],[-118.03504,34.33788],[-118.03508,34.33785],[-118.03513,34.33781],[-118.03518,34.33776],[-118.03523,34.3377],[-118.03527,34.33764],[-118.03529,34.33761],[-118.0353,34.33757],[-118.03531,34.33754],[-118.03531,34.3375],[-118.0353,34.33746],[-118.03529,34.33742],[-118.03527,34.33739],[-118.03523,34.33731],[-118.03516,34.33718],[-118.03511,34.33713],[-118.0351,34.33711],[-118.03509,34.33709],[-118.03508,34.33707],[-118.03509,34.33705],[-118.0351,34.33703],[-118.03512,34.33701],[-118.03514,34.33699],[-118.03517,34.33699],[-118.03531,34.33697],[-118.03544,34.33696],[-118.03549,34.33695],[-118.03553,34.33694],[-118.03558,34.33692],[-118.0356,34.3369],[-118.03562,34.33688],[-118.03565,34.33686],[-118.03569,34.33684],[-118.03572,34.33683],[-118.03575,34.33683],[-118.03578,34.33683],[-118.03584,34.33682],[-118.0359,34.33681],[-118.03595,34.3368],[-118.036,34.33677],[-118.03605,34.33675],[-118.03609,34.33672],[-118.03613,34.33664],[-118.03615,34.33662],[-118.03617,34.3366],[-118.0362,34.33658],[-118.03624,34.33657],[-118.03628,34.33657],[-118.03631,34.33657],[-118.03636,34.33658],[-118.0364,34.33657],[-118.03643,34.33657],[-118.03646,34.33656],[-118.03649,34.33654],[-118.03687,34.3363],[-118.0369,34.33628],[-118.03692,34.33625],[-118.03695,34.33621],[-118.03697,34.33616],[-118.0371,34.33566],[-118.0371,34.33557],[-118.03712,34.33547],[-118.03713,34.33541],[-118.03715,34.33534],[-118.03728,34.33499],[-118.03729,34.33497],[-118.03731,34.33494],[-118.03734,34.33492],[-118.03737,34.33492],[-118.0374,34.33491],[-118.03744,34.33492],[-118.03747,34.33494],[-118.03749,34.33496],[-118.0375,34.33498],[-118.03751,34.33501],[-118.0375,34.33504],[-118.03749,34.33506],[-118.03747,34.33509],[-118.03732,34.33529],[-118.0373,34.33534],[-118.03728,34.33541],[-118.03723,34.3361],[-118.03723,34.33628],[-118.03723,34.33634],[-118.03721,34.33639],[-118.0372,34.33642],[-118.03718,34.33645],[-118.03715,34.33648],[-118.037,34.33666],[-118.03698,34.3367],[-118.03695,34.33674],[-118.03692,34.33677],[-118.03688,34.3368],[-118.03684,34.33683],[-118.03679,34.33685],[-118.03675,34.33688],[-118.03671,34.33691],[-118.03668,34.33695],[-118.03666,34.33699],[-118.03663,34.33708],[-118.03662,34.33711],[-118.03662,34.33715],[-118.03663,34.33718],[-118.03665,34.3372],[-118.03667,34.33722],[-118.0367,34.33723],[-118.03673,34.33724],[-118.03682,34.33727],[-118.0371,34.33732],[-118.03717,34.33732],[-118.03725,34.33732],[-118.03734,34.33732],[-118.03737,34.33731],[-118.0374,34.33732],[-118.03743,34.33733],[-118.03745,34.33734],[-118.03747,34.33736],[-118.03748,34.33738],[-118.03759,34.33754],[-118.03761,34.33756],[-118.03762,34.33759],[-118.03762,34.33762],[-118.03762,34.33765],[-118.03762,34.33768],[-118.0376,34.33771],[-118.03757,34.3378],[-118.03756,34.33782],[-118.03756,34.33784],[-118.03757,34.33786],[-118.03758,34.33788],[-118.03759,34.3379],[-118.03761,34.33791],[-118.03776,34.33799],[-118.03778,34.33801],[-118.0378,34.33802],[-118.03781,34.33804],[-118.03781,34.33807],[-118.03781,34.33809],[-118.0378,34.33812],[-118.03768,34.3383],[-118.03767,34.33834],[-118.03765,34.33839],[-118.03765,34.33843],[-118.03765,34.33847],[-118.03764,34.33871],[-118.03765,34.33873],[-118.03766,34.33876],[-118.03768,34.33878],[-118.0377,34.33879],[-118.03773,34.3388],[-118.03776,34.33881],[-118.03779,34.33881],[-118.03782,34.3388],[-118.03791,34.33879],[-118.03801,34.33878],[-118.03832,34.33879],[-118.03837,34.33879],[-118.03841,34.3388],[-118.03845,34.33881],[-118.03848,34.33883],[-118.03851,34.33885],[-118.03854,34.33887],[-118.03862,34.33895],[-118.03862,34.33899],[-118.03863,34.33902],[-118.03864,34.33905],[-118.03867,34.33907],[-118.0387,34.3391],[-118.03873,34.33911],[-118.03882,34.33918],[-118.03884,34.3392],[-118.03885,34.33922],[-118.03886,34.33924],[-118.03887,34.33928],[-118.03886,34.33931],[-118.03885,34.33934],[-118.03877,34.33949],[-118.03874,34.33951],[-118.03871,34.33954],[-118.03867,34.33956],[-118.03862,34.33958],[-118.03854,34.33961],[-118.03851,34.33963],[-118.03849,34.33965],[-118.03847,34.33968],[-118.03847,34.33971],[-118.03848,34.33985],[-118.03848,34.33988],[-118.0385,34.33991],[-118.03852,34.33993],[-118.03854,34.33995],[-118.03856,34.33995],[-118.03859,34.33996],[-118.03862,34.33996],[-118.0388,34.34],[-118.03884,34.34002],[-118.03887,34.34004],[-118.03889,34.34007],[-118.0389,34.3401],[-118.03892,34.34014],[-118.03894,34.34018],[-118.03896,34.34021],[-118.03899,34.34024],[-118.03902,34.34026],[-118.03903,34.34028],[-118.03904,34.34031],[-118.03905,34.34034],[-118.03904,34.34037],[-118.03897,34.34049],[-118.03897,34.34052],[-118.03896,34.34055],[-118.03897,34.34057],[-118.03898,34.3406],[-118.039,34.34063],[-118.03907,34.3407],[-118.03911,34.34072],[-118.03915,34.34073],[-118.0392,34.34073],[-118.03924,34.34073],[-118.03931,34.34073],[-118.03937,34.34074],[-118.03943,34.34075],[-118.03948,34.34077],[-118.03953,34.34079],[-118.0396,34.34082],[-118.03965,34.34087],[-118.0397,34.34091],[-118.03989,34.3411],[-118.03992,34.34113],[-118.03994,34.34116],[-118.03995,34.34119],[-118.03996,34.34121],[-118.03996,34.34124],[-118.03996,34.34133],[-118.03996,34.34136],[-118.03997,34.34138],[-118.03998,34.3414],[-118.04,34.34142],[-118.04003,34.34143],[-118.04006,34.34144],[-118.04016,34.34149],[-118.04017,34.34151],[-118.04019,34.34153],[-118.0402,34.34156],[-118.0402,34.34159],[-118.0402,34.34162],[-118.04018,34.34164],[-118.04013,34.34173],[-118.03995,34.34193],[-118.03992,34.34195],[-118.03991,34.34198],[-118.0399,34.34201],[-118.03991,34.34204],[-118.03993,34.34206],[-118.03995,34.34208],[-118.04015,34.34218],[-118.04019,34.3422],[-118.04022,34.34222],[-118.04026,34.34225],[-118.04029,34.34228],[-118.04037,34.34234],[-118.04038,34.34236],[-118.0404,34.34239],[-118.04042,34.34241],[-118.04045,34.34243],[-118.04048,34.34244],[-118.04052,34.34245],[-118.04061,34.34252],[-118.04064,34.34254],[-118.04068,34.34256],[-118.04072,34.34257],[-118.04076,34.34258],[-118.0408,34.34258],[-118.04084,34.34257],[-118.04097,34.34255],[-118.04101,34.34256],[-118.04105,34.34257],[-118.04109,34.34258],[-118.04112,34.3426],[-118.04115,34.34263],[-118.04117,34.34266],[-118.04125,34.34277],[-118.04126,34.3428],[-118.04127,34.34284],[-118.04127,34.34288],[-118.04126,34.34292],[-118.04121,34.34313],[-118.04118,34.34322],[-118.04118,34.34325],[-118.04118,34.34328],[-118.04119,34.34332],[-118.04122,34.34335],[-118.04125,34.34341],[-118.04125,34.34344],[-118.04124,34.34348],[-118.04123,34.34352],[-118.0412,34.34356],[-118.04111,34.34371],[-118.0411,34.34375],[-118.04109,34.34378],[-118.04109,34.34382],[-118.0411,34.34386],[-118.0411,34.34388],[-118.04111,34.3439],[-118.04113,34.34392],[-118.04115,34.34394],[-118.04118,34.34395],[-118.0412,34.34395],[-118.04134,34.34403],[-118.04139,34.34406],[-118.04145,34.34408],[-118.04152,34.3441],[-118.0416,34.34412],[-118.04165,34.34413],[-118.04171,34.34413],[-118.04177,34.34412],[-118.04183,34.34411],[-118.04189,34.34409],[-118.04194,34.34405],[-118.04199,34.34402],[-118.04214,34.34386],[-118.04222,34.34376],[-118.0423,34.34365],[-118.04232,34.34361],[-118.04235,34.34358],[-118.04239,34.34356],[-118.04244,34.34354],[-118.04249,34.34353],[-118.04258,34.34349],[-118.04268,34.34344],[-118.0428,34.34336],[-118.04284,34.34334],[-118.04289,34.34331],[-118.04293,34.3433],[-118.04299,34.34329],[-118.04304,34.34328],[-118.04308,34.34328],[-118.04312,34.34329],[-118.04316,34.34329],[-118.0432,34.34331],[-118.04324,34.34333],[-118.04327,34.34335],[-118.04333,34.34339],[-118.04337,34.34341],[-118.04341,34.34342],[-118.04345,34.34343],[-118.0435,34.34342],[-118.04378,34.34339],[-118.04381,34.34338],[-118.04385,34.34338],[-118.04389,34.34338],[-118.04394,34.34339],[-118.04398,34.34339],[-118.04402,34.34339],[-118.04405,34.34339],[-118.04408,34.34338],[-118.04438,34.3433],[-118.04441,34.34329],[-118.04444,34.34329],[-118.04447,34.34329],[-118.04449,34.3433],[-118.04452,34.34332],[-118.04454,34.34334],[-118.04455,34.34337],[-118.04455,34.34339],[-118.04454,34.34342],[-118.04453,34.34344],[-118.04439,34.34359],[-118.04432,34.34371],[-118.04431,34.34375],[-118.04428,34.3438],[-118.04425,34.34383],[-118.04421,34.34387],[-118.04408,34.34395],[-118.04406,34.34397],[-118.04405,34.34399],[-118.04404,34.34401],[-118.04404,34.34404],[-118.04404,34.34407],[-118.04406,34.3441],[-118.04409,34.34416],[-118.04412,34.34421],[-118.04416,34.34427],[-118.04421,34.34432],[-118.04427,34.34437],[-118.04433,34.34445],[-118.04434,34.34447],[-118.04435,34.34449],[-118.04435,34.34452],[-118.04434,34.34454],[-118.04434,34.34457],[-118.04432,34.34461],[-118.04429,34.34464],[-118.04426,34.34467],[-118.04411,34.3448],[-118.04408,34.34483],[-118.04406,34.34486],[-118.04405,34.3449],[-118.04404,34.34494],[-118.04404,34.34498],[-118.04402,34.34502],[-118.044,34.34506],[-118.04397,34.3451],[-118.04392,34.34513],[-118.04388,34.34515],[-118.04383,34.34516],[-118.04377,34.34517],[-118.04372,34.34517],[-118.0435,34.34517],[-118.04344,34.34517],[-118.04338,34.34515],[-118.04331,34.34513],[-118.04328,34.34511],[-118.04324,34.3451],[-118.04321,34.34509],[-118.04317,34.34509],[-118.04313,34.3451],[-118.0431,34.34512],[-118.04308,34.34514],[-118.04306,34.34516],[-118.04305,34.34519],[-118.04305,34.34521],[-118.04309,34.34547],[-118.0431,34.3455],[-118.04312,34.34553],[-118.04314,34.34555],[-118.04317,34.34557],[-118.04321,34.34559],[-118.04325,34.3456],[-118.04331,34.34562],[-118.04336,34.34566],[-118.04341,34.3457],[-118.04345,34.34574],[-118.04348,34.34577],[-118.04352,34.34579],[-118.04356,34.3458],[-118.0436,34.34581],[-118.04365,34.34582],[-118.04369,34.34582],[-118.04381,34.3458],[-118.04385,34.3458],[-118.0439,34.3458],[-118.04394,34.34581],[-118.04399,34.34582],[-118.04402,34.34585],[-118.04405,34.34587],[-118.04406,34.3459],[-118.04408,34.34593],[-118.04408,34.34596],[-118.04408,34.346],[-118.04406,34.34609],[-118.04406,34.34611],[-118.04408,34.34613],[-118.0441,34.34614],[-118.04412,34.34615],[-118.04414,34.34615],[-118.04417,34.34615],[-118.04419,34.34614],[-118.04421,34.34613],[-118.04423,34.34611],[-118.04424,34.34609],[-118.04431,34.34588],[-118.04434,34.34585],[-118.04437,34.34583],[-118.0444,34.34581],[-118.04445,34.3458],[-118.04448,34.34579],[-118.04452,34.3458],[-118.04456,34.3458],[-118.04459,34.34581],[-118.04463,34.34583],[-118.0447,34.34589],[-118.04474,34.34591],[-118.04479,34.34593],[-118.04483,34.34594],[-118.04487,34.34594],[-118.04491,34.34594],[-118.04494,34.34593],[-118.04506,34.34591],[-118.0451,34.3459],[-118.04513,34.3459],[-118.04515,34.3459],[-118.04518,34.3459],[-118.04523,34.34591],[-118.04528,34.34591],[-118.04534,34.34591],[-118.04538,34.3459],[-118.04541,34.34588],[-118.04551,34.34584],[-118.04576,34.34578],[-118.04579,34.34578],[-118.04583,34.34578],[-118.04586,34.34578],[-118.04589,34.3458],[-118.04591,34.34581],[-118.04592,34.34584],[-118.04593,34.34586],[-118.04594,34.34591],[-118.04594,34.346],[-118.04593,34.34602],[-118.04593,34.34604],[-118.04594,34.34606],[-118.04595,34.34608],[-118.04597,34.34609],[-118.046,34.3461],[-118.04604,34.34611],[-118.04607,34.34613],[-118.0461,34.34616],[-118.04612,34.34619],[-118.04615,34.34626],[-118.04616,34.34629],[-118.04618,34.3463],[-118.0462,34.34632],[-118.04623,34.34633],[-118.04625,34.34633],[-118.04628,34.34632],[-118.0463,34.34631],[-118.04639,34.34629],[-118.04641,34.34629],[-118.04643,34.34629],[-118.04645,34.34629],[-118.04646,34.3463],[-118.04648,34.34632],[-118.04648,34.34633],[-118.04648,34.34635],[-118.04647,34.34637],[-118.04639,34.34651],[-118.04639,34.34654],[-118.04639,34.34658],[-118.04641,34.34661],[-118.04643,34.34663],[-118.04645,34.34665],[-118.04647,34.34666],[-118.04651,34.34668],[-118.04654,34.3467],[-118.04656,34.34673],[-118.04658,34.34676],[-118.04661,34.34693],[-118.04662,34.34697],[-118.04664,34.34701],[-118.04667,34.34704],[-118.0467,34.34708],[-118.04674,34.3471],[-118.04678,34.34712],[-118.04686,34.34714],[-118.04686,34.34714],[-118.04689,34.34715],[-118.04695,34.34715],[-118.04697,34.34715],[-118.047,34.34715],[-118.04702,34.34716],[-118.04704,34.34717],[-118.04706,34.34718],[-118.04715,34.34728],[-118.04733,34.34747],[-118.04737,34.34752],[-118.04741,34.34757],[-118.04744,34.34763],[-118.04747,34.34767],[-118.04748,34.34772],[-118.04753,34.34778],[-118.04757,34.34783],[-118.04764,34.34792],[-118.04771,34.34805],[-118.04775,34.34814],[-118.04777,34.34817],[-118.04779,34.34819],[-118.04783,34.34821],[-118.04786,34.34822],[-118.0479,34.34822],[-118.04794,34.34822],[-118.04798,34.34821],[-118.04801,34.34819],[-118.04808,34.34816],[-118.04813,34.34812],[-118.04817,34.34809],[-118.0482,34.34805],[-118.04823,34.34801],[-118.04832,34.34788],[-118.04837,34.34774]]}},{"type":"Feature","properties":{"name":"South Fork Road","road_class":"track","surface":"unpaved","tracktype":"grade3","source":"Caltrans All Roads + OpenStreetMap explicit surface","source_detail":"osm way 31879400; Caltrans All Roads public-network geometry match","source_tile":"176/407","public_network_source":"Caltrans All Roads (ARNOLD/HPMS)","surface_source":"OpenStreetMap explicit surface tag","caltrans_match_coverage":1.0,"verified_length_m":1953},"geometry":{"type":"LineString","coordinates":[[-117.82119,34.3963],[-117.82095,34.39635],[-117.82064,34.3964],[-117.82045,34.39634],[-117.82041,34.39624],[-117.8204,34.3961],[-117.82037,34.39603],[-117.82033,34.3959],[-117.82025,34.39563],[-117.82022,34.39552],[-117.8202,34.39544],[-117.8202,34.39518],[-117.82048,34.3951],[-117.82072,34.39515],[-117.82089,34.39519],[-117.82092,34.39529],[-117.82094,34.39536],[-117.82103,34.39566],[-117.82106,34.39579],[-117.82112,34.39601],[-117.82119,34.3963],[-117.82121,34.39637],[-117.82123,34.3965],[-117.82124,34.39665],[-117.82151,34.39717],[-117.82163,34.39742],[-117.82174,34.39764],[-117.82198,34.39778],[-117.82239,34.39798],[-117.82357,34.39823],[-117.82385,34.39841],[-117.824,34.39873],[-117.82391,34.3991],[-117.8237,34.39965],[-117.82368,34.40064],[-117.82374,34.40147],[-117.82411,34.40212],[-117.82428,34.40241],[-117.8243,34.4028],[-117.82383,34.40347],[-117.82385,34.40356],[-117.82397,34.40382],[-117.82411,34.4042],[-117.82409,34.4045],[-117.82396,34.40484],[-117.82366,34.40515],[-117.82317,34.40584],[-117.82291,34.40637],[-117.82283,34.40658],[-117.82273,34.40688],[-117.82261,34.40718],[-117.8225,34.40744],[-117.8224,34.40767],[-117.82234,34.40786],[-117.82201,34.40845]]}},{"type":"Feature","properties":{"name":"(unnamed public road)","road_class":"track","surface":"unpaved","source":"Caltrans All Roads + OpenStreetMap explicit surface","source_detail":"osm way 435207057; Caltrans All Roads public-network geometry match","source_tile":"176/407","public_network_source":"Caltrans All Roads (ARNOLD/HPMS)","surface_source":"OpenStreetMap explicit surface tag","caltrans_match_coverage":1.0,"verified_length_m":615},"geometry":{"type":"LineString","coordinates":[[-117.95752,34.44952],[-117.95748,34.44941],[-117.95734,34.4493],[-117.95724,34.44926],[-117.95717,34.44923],[-117.95699,34.44921],[-117.95683,34.44919],[-117.95674,34.44917],[-117.95649,34.44902],[-117.95644,34.44843],[-117.95624,34.44836],[-117.95598,34.44834],[-117.95594,34.44845],[-117.95599,34.44936],[-117.95594,34.44966],[-117.9558,34.44999],[-117.95577,34.45056],[-117.95559,34.45092],[-117.95546,34.45121],[-117.95561,34.45147],[-117.95568,34.45175]]}},{"type":"Feature","properties":{"name":"Alimony Road","road_class":"track","surface":"unpaved","tracktype":"grade2","motor_vehicle":"yes","source":"Caltrans All Roads + OpenStreetMap explicit surface","source_detail":"osm way 692228430; Caltrans All Roads public-network geometry match","source_tile":"176/407","public_network_source":"Caltrans All Roads (ARNOLD/HPMS)","surface_source":"OpenStreetMap explicit surface tag","caltrans_match_coverage":1.0,"verified_length_m":578},"geometry":{"type":"LineString","coordinates":[[-117.96086,34.45],[-117.96055,34.45016],[-117.96049,34.45028],[-117.96043,34.45058],[-117.96042,34.45085],[-117.96026,34.45115],[-117.96015,34.45141],[-117.96016,34.45172],[-117.96016,34.45191],[-117.96011,34.452],[-117.96001,34.45209],[-117.95987,34.45214],[-117.9595,34.45247],[-117.95919,34.45282],[-117.95892,34.45318],[-117.95864,34.45349],[-117.95805,34.45413],[-117.95791,34.45422],[-117.95777,34.45425]]}},{"type":"Feature","properties":{"name":"Forest Service Route 3N14","road_class":"track","surface":"unpaved","tracktype":"grade3","source":"Caltrans All Roads + OpenStreetMap explicit surface","source_detail":"osm way 741772416; Caltrans All Roads public-network geometry match","source_tile":"176/407","public_network_source":"Caltrans All Roads (ARNOLD/HPMS)","surface_source":"OpenStreetMap explicit surface tag","caltrans_match_coverage":1.0,"verified_length_m":3154},"geometry":{"type":"LineString","coordinates":[[-118.03151,34.34228],[-118.03165,34.34244],[-118.03179,34.34262],[-118.03186,34.34282],[-118.03186,34.34303],[-118.03177,34.34322],[-118.0316,34.34338],[-118.03139,34.34349],[-118.03125,34.34352],[-118.03114,34.34355],[-118.03105,34.3436],[-118.03099,34.34367],[-118.03096,34.34376],[-118.03093,34.34391],[-118.03088,34.34401],[-118.0308,34.34405],[-118.0307,34.34407],[-118.03061,34.34406],[-118.03051,34.34407],[-118.03044,34.34408],[-118.03038,34.34411],[-118.03033,34.34415],[-118.0303,34.3442],[-118.03028,34.34433],[-118.03026,34.34471],[-118.03024,34.34477],[-118.0302,34.34483],[-118.03014,34.34488],[-118.02989,34.34504],[-118.0296,34.34517],[-118.02944,34.34523],[-118.02933,34.34525],[-118.02925,34.34526],[-118.02918,34.34528],[-118.02911,34.34532],[-118.02906,34.34537],[-118.02895,34.34549],[-118.02887,34.34555],[-118.0288,34.3456],[-118.02867,34.34576],[-118.0286,34.34581],[-118.02853,34.34588],[-118.02851,34.34594],[-118.02846,34.34618],[-118.02842,34.3463],[-118.02837,34.3464],[-118.02836,34.3465],[-118.02844,34.34672],[-118.02845,34.34677],[-118.02847,34.34689],[-118.02851,34.34695],[-118.02859,34.34705],[-118.02862,34.3471],[-118.02864,34.34715],[-118.02878,34.34755],[-118.02882,34.34767],[-118.02883,34.34781],[-118.02882,34.34795],[-118.0286,34.34865],[-118.02858,34.34869],[-118.02855,34.34872],[-118.02851,34.34874],[-118.02846,34.34874],[-118.02842,34.34874],[-118.02837,34.34873],[-118.0282,34.34867],[-118.02805,34.34864],[-118.02798,34.3486],[-118.02755,34.34841],[-118.02622,34.34774],[-118.02618,34.34772],[-118.02614,34.34771],[-118.0261,34.34771],[-118.02606,34.34772],[-118.02603,34.34774],[-118.026,34.34777],[-118.02585,34.34801],[-118.02571,34.34819],[-118.0256,34.34838],[-118.02558,34.34848],[-118.02554,34.34864],[-118.02548,34.3488],[-118.02535,34.34894],[-118.02518,34.34904],[-118.02509,34.34907],[-118.02505,34.34908],[-118.02502,34.3491],[-118.025,34.34912],[-118.02499,34.34915],[-118.02499,34.34918],[-118.02501,34.34921],[-118.02514,34.34942],[-118.02516,34.34947],[-118.02517,34.34953],[-118.02515,34.34958],[-118.02511,34.34963],[-118.02504,34.34971],[-118.02498,34.34983],[-118.02497,34.34993],[-118.02497,34.34999],[-118.02494,34.35004],[-118.0249,34.35009],[-118.02484,34.35016],[-118.02483,34.35022],[-118.02483,34.35027],[-118.02485,34.35033],[-118.02491,34.35045],[-118.02493,34.35053],[-118.02492,34.3506],[-118.02488,34.35067],[-118.02465,34.35092],[-118.02451,34.3511],[-118.02448,34.35114],[-118.02447,34.35119],[-118.02447,34.35124],[-118.02449,34.35129],[-118.02454,34.35136],[-118.02456,34.35142],[-118.02455,34.35148],[-118.02452,34.35153],[-118.02442,34.35171],[-118.02438,34.35176],[-118.02426,34.35183],[-118.02413,34.35189],[-118.02398,34.35191],[-118.02385,34.35189],[-118.02379,34.35188],[-118.02374,34.35189],[-118.02368,34.35191],[-118.02364,34.35194],[-118.02362,34.35198],[-118.0236,34.35204],[-118.02358,34.35208],[-118.02355,34.3521],[-118.02351,34.35212],[-118.02326,34.35228],[-118.02307,34.35238],[-118.0228,34.3526],[-118.02273,34.35265],[-118.02265,34.35269],[-118.02255,34.35271],[-118.02245,34.35271],[-118.02227,34.35271],[-118.02223,34.35271],[-118.02219,34.35272],[-118.02215,34.35275],[-118.02213,34.35278],[-118.02206,34.35296],[-118.02202,34.35302],[-118.02196,34.35306],[-118.02188,34.35308],[-118.0218,34.35308],[-118.0213,34.35303],[-118.02106,34.35301],[-118.02097,34.35301],[-118.02088,34.35297],[-118.0206,34.35289],[-118.02055,34.35288],[-118.0205,34.35289],[-118.02045,34.35291],[-118.02041,34.35294],[-118.02038,34.35302],[-118.02031,34.3532],[-118.02018,34.35335],[-118.02001,34.35347],[-118.01994,34.35351],[-118.0199,34.35357],[-118.01987,34.35363],[-118.01986,34.35367],[-118.01984,34.35371],[-118.01981,34.35374],[-118.01954,34.35397],[-118.01948,34.35401],[-118.01938,34.35412],[-118.01924,34.35419],[-118.01908,34.35422],[-118.01892,34.3542],[-118.01877,34.35416],[-118.01864,34.35416],[-118.01852,34.35418],[-118.01839,34.35428],[-118.01825,34.35437],[-118.01817,34.35447],[-118.01812,34.35454],[-118.01806,34.35459],[-118.01798,34.35463],[-118.0179,34.35465],[-118.01768,34.35468],[-118.01747,34.35473],[-118.01728,34.35481],[-118.01709,34.35485],[-118.01694,34.35486],[-118.01687,34.35487],[-118.01681,34.3549],[-118.01676,34.35494],[-118.01658,34.35513],[-118.01637,34.35528],[-118.01631,34.35535],[-118.01623,34.3554],[-118.01613,34.35543],[-118.01591,34.3555],[-118.01574,34.35553],[-118.01561,34.35554],[-118.01556,34.35555],[-118.01551,34.35556],[-118.01547,34.35559],[-118.01545,34.35563],[-118.01543,34.35567],[-118.01544,34.35586],[-118.01548,34.35608],[-118.01546,34.35619],[-118.0154,34.35629],[-118.01531,34.35638],[-118.01519,34.35649],[-118.01512,34.35658],[-118.01509,34.35668],[-118.01509,34.35678],[-118.01511,34.35737],[-118.01509,34.35743],[-118.01505,34.35748],[-118.015,34.35751],[-118.01493,34.35754],[-118.01457,34.35764],[-118.0143,34.35772],[-118.01419,34.35774],[-118.01413,34.35775],[-118.01409,34.35777],[-118.01405,34.3578],[-118.01402,34.35784],[-118.01391,34.358],[-118.01384,34.35805],[-118.01378,34.35809],[-118.01373,34.35814],[-118.0137,34.3582],[-118.0137,34.35826],[-118.0137,34.35836],[-118.01367,34.35843],[-118.01363,34.3585],[-118.01344,34.35874],[-118.01331,34.35886]]}},{"type":"Feature","properties":{"name":"Forest Service Route 3N14","road_class":"track","surface":"unpaved","tracktype":"grade3","source":"Caltrans All Roads + OpenStreetMap explicit surface","source_detail":"osm way 741772430; Caltrans All Roads public-network geometry match","source_tile":"176/407","public_network_source":"Caltrans All Roads (ARNOLD/HPMS)","surface_source":"OpenStreetMap explicit surface tag","caltrans_match_coverage":1.0,"verified_length_m":1069},"geometry":{"type":"LineString","coordinates":[[-118.0311,34.34213],[-118.03103,34.34208],[-118.03101,34.34198],[-118.03103,34.3419],[-118.03108,34.34179],[-118.03114,34.34174],[-118.0312,34.34171],[-118.03122,34.34165],[-118.03124,34.34154],[-118.03122,34.34142],[-118.03119,34.34133],[-118.03116,34.34127],[-118.03112,34.34065],[-118.0311,34.3406],[-118.03107,34.34056],[-118.03102,34.34053],[-118.03096,34.34051],[-118.03076,34.34049],[-118.03068,34.34047],[-118.0306,34.34043],[-118.03054,34.34035],[-118.03054,34.34028],[-118.03052,34.34011],[-118.03047,34.33998],[-118.03026,34.33963],[-118.03025,34.3396],[-118.03017,34.3395],[-118.03013,34.33933],[-118.03009,34.33924],[-118.02982,34.33893],[-118.0297,34.33882],[-118.02967,34.33877],[-118.02951,34.3386],[-118.02943,34.33851],[-118.02929,34.3383],[-118.02914,34.33801],[-118.02909,34.33781],[-118.0291,34.33762],[-118.02916,34.33746],[-118.02917,34.33736],[-118.02916,34.33725],[-118.02904,34.337],[-118.02898,34.33675],[-118.02895,34.33668],[-118.02881,34.3364],[-118.02877,34.3363],[-118.02874,34.33619],[-118.02867,34.33591],[-118.02864,34.33582],[-118.02863,34.3358],[-118.02862,34.33578],[-118.0286,34.33576],[-118.02857,34.33576],[-118.02853,34.33573],[-118.02845,34.33568],[-118.02839,34.33561],[-118.02834,34.33551],[-118.02831,34.33546],[-118.02827,34.33542],[-118.02822,34.33539],[-118.02801,34.3353],[-118.02777,34.33521],[-118.02766,34.33515],[-118.02745,34.33504],[-118.02721,34.33492],[-118.027,34.33481],[-118.02689,34.33473],[-118.02682,34.33467],[-118.02672,34.33451],[-118.02662,34.33439],[-118.02652,34.33431],[-118.02642,34.33426],[-118.02636,34.33423]]}},{"type":"Feature","properties":{"name":"Pacifico Mountain Road","road_class":"track","surface":"unpaved","tracktype":"grade3","source":"Caltrans All Roads + OpenStreetMap explicit surface","source_detail":"osm way 742029818; Caltrans All Roads public-network geometry match","source_tile":"176/407","public_network_source":"Caltrans All Roads (ARNOLD/HPMS)","surface_source":"OpenStreetMap explicit surface tag","caltrans_match_coverage":1.0,"verified_length_m":5162},"geometry":{"type":"LineString","coordinates":[[-118.01304,34.36409],[-118.01314,34.36406],[-118.01331,34.36406],[-118.01339,34.36408],[-118.01343,34.3641],[-118.01351,34.36419],[-118.01369,34.36443],[-118.01388,34.36469],[-118.01394,34.36473],[-118.01401,34.36476],[-118.01409,34.36478],[-118.01417,34.36477],[-118.01424,34.36474],[-118.01474,34.36459],[-118.01478,34.36457],[-118.01483,34.36455],[-118.01487,34.36455],[-118.01492,34.36456],[-118.01496,34.36458],[-118.01507,34.36466],[-118.01529,34.36483],[-118.01539,34.36494],[-118.01545,34.36496],[-118.01551,34.36498],[-118.01557,34.36497],[-118.01564,34.36496],[-118.01569,34.36492],[-118.01579,34.36488],[-118.01625,34.36448],[-118.01629,34.36443],[-118.01635,34.36439],[-118.01642,34.36437],[-118.0165,34.36437],[-118.01689,34.36446],[-118.01696,34.36448],[-118.01703,34.36448],[-118.0171,34.36447],[-118.01749,34.36433],[-118.01754,34.36431],[-118.01759,34.3643],[-118.01765,34.36431],[-118.0177,34.36433],[-118.01774,34.36436],[-118.01777,34.3644],[-118.01781,34.3645],[-118.01783,34.36457],[-118.01787,34.36464],[-118.01793,34.36469],[-118.01799,34.36473],[-118.01803,34.36477],[-118.01806,34.36483],[-118.01806,34.36489],[-118.01803,34.36494],[-118.01794,34.3655],[-118.01794,34.36558],[-118.01796,34.36565],[-118.01801,34.36572],[-118.01807,34.36578],[-118.01813,34.36583],[-118.01816,34.3659],[-118.01817,34.36596],[-118.01813,34.36641],[-118.01813,34.36651],[-118.01817,34.36661],[-118.01824,34.3667],[-118.01834,34.36676],[-118.01846,34.3668],[-118.01858,34.3668],[-118.01887,34.36685],[-118.01903,34.36693],[-118.01922,34.36702],[-118.01948,34.36706],[-118.01976,34.36716],[-118.01982,34.36722],[-118.01986,34.36729],[-118.01988,34.36737],[-118.01987,34.36772],[-118.01988,34.36783],[-118.01984,34.36794],[-118.01977,34.36803],[-118.01966,34.36823],[-118.01962,34.36853],[-118.0196,34.36889],[-118.01961,34.36904],[-118.01976,34.36935],[-118.01979,34.36956],[-118.01994,34.36994],[-118.01999,34.37008],[-118.01994,34.3703],[-118.01995,34.37035],[-118.01998,34.37039],[-118.02003,34.37043],[-118.02008,34.37045],[-118.02014,34.37046],[-118.0202,34.37045],[-118.02025,34.37042],[-118.0205,34.37033],[-118.02099,34.37004],[-118.02109,34.37001],[-118.02128,34.36998],[-118.02166,34.36974],[-118.02172,34.36968],[-118.0218,34.36963],[-118.02189,34.36961],[-118.02228,34.3696],[-118.02255,34.36956],[-118.02268,34.36959],[-118.02283,34.36962],[-118.02298,34.36961],[-118.02311,34.36956],[-118.02354,34.36959],[-118.02364,34.36959],[-118.02373,34.36962],[-118.02381,34.36966],[-118.02388,34.36972],[-118.02397,34.36982],[-118.02414,34.36997],[-118.02423,34.37],[-118.02432,34.37002],[-118.02442,34.37001],[-118.02453,34.36996],[-118.02459,34.36994],[-118.02465,34.36993],[-118.02472,34.36993],[-118.02478,34.36995],[-118.02483,34.36999],[-118.02487,34.37001],[-118.02491,34.37002],[-118.02496,34.37001],[-118.025,34.37],[-118.02504,34.36998],[-118.02518,34.36992],[-118.02536,34.36979],[-118.02546,34.36964],[-118.02552,34.36955],[-118.02561,34.36948],[-118.02572,34.36945],[-118.02577,34.36944],[-118.02582,34.36941],[-118.02585,34.36938],[-118.02586,34.36933],[-118.02586,34.36929],[-118.02584,34.36911],[-118.02591,34.36882],[-118.02613,34.3683],[-118.02637,34.36791],[-118.02686,34.36743],[-118.02709,34.36714],[-118.02713,34.36707],[-118.0272,34.36701],[-118.02729,34.36697],[-118.02739,34.36695],[-118.02749,34.36697],[-118.0276,34.36696],[-118.0277,34.36692],[-118.02779,34.36687],[-118.02785,34.36679],[-118.02802,34.36654],[-118.02812,34.36643],[-118.02825,34.36635],[-118.0284,34.36629],[-118.02857,34.36627],[-118.02871,34.36626],[-118.02911,34.3662],[-118.02926,34.36617],[-118.02941,34.36617],[-118.02956,34.36621],[-118.02999,34.36636],[-118.03007,34.36639],[-118.03016,34.36641],[-118.03052,34.36644],[-118.03063,34.36646],[-118.03074,34.36649],[-118.03082,34.36655],[-118.03089,34.36665],[-118.03098,34.36672],[-118.03108,34.36676],[-118.03119,34.36679],[-118.03155,34.36683],[-118.03164,34.36685],[-118.03172,34.36689],[-118.03178,34.36695],[-118.03182,34.36702],[-118.03185,34.36724],[-118.03186,34.36735],[-118.03182,34.36746],[-118.03175,34.36755],[-118.03165,34.36763],[-118.03118,34.3679],[-118.03109,34.368],[-118.03102,34.36812],[-118.03107,34.36854],[-118.03111,34.36861],[-118.0312,34.36878],[-118.03124,34.36886],[-118.03125,34.36894],[-118.03116,34.36921],[-118.03119,34.36931],[-118.03126,34.36941],[-118.03133,34.36962],[-118.0314,34.36974],[-118.03137,34.37045],[-118.03139,34.37049],[-118.03142,34.37053],[-118.03147,34.37055],[-118.03171,34.37066],[-118.03176,34.37071],[-118.03179,34.37077],[-118.0318,34.37083],[-118.03166,34.37109],[-118.03165,34.37113],[-118.03166,34.37116],[-118.03168,34.37119],[-118.03171,34.37122],[-118.03175,34.37123],[-118.03186,34.37131],[-118.03193,34.37136],[-118.03203,34.37159],[-118.03205,34.37162],[-118.03208,34.37164],[-118.03212,34.37166],[-118.03216,34.37166],[-118.03224,34.37169],[-118.0323,34.37172],[-118.03235,34.37178],[-118.03258,34.37205],[-118.03273,34.37216],[-118.03291,34.37225],[-118.03346,34.37241],[-118.03354,34.37245],[-118.0336,34.37251],[-118.03364,34.37258],[-118.03365,34.37265],[-118.03366,34.37273],[-118.0337,34.3728],[-118.03376,34.37286],[-118.03384,34.3729],[-118.03416,34.37347],[-118.03419,34.37352],[-118.0342,34.37357],[-118.0342,34.37362],[-118.03415,34.37389],[-118.03415,34.37396],[-118.03418,34.37402],[-118.03423,34.37408],[-118.0343,34.37415],[-118.03438,34.37428],[-118.03443,34.37441],[-118.03448,34.37463],[-118.03455,34.37475],[-118.03468,34.37499],[-118.03482,34.37526],[-118.03496,34.37574],[-118.03505,34.3759],[-118.03517,34.37604],[-118.0355,34.37632],[-118.03555,34.37637],[-118.03558,34.37642],[-118.03558,34.37648],[-118.03557,34.37655],[-118.03549,34.37678],[-118.03546,34.3769],[-118.03547,34.37693],[-118.03548,34.37697],[-118.0355,34.37699],[-118.03554,34.37701],[-118.03558,34.37702],[-118.0357,34.37704],[-118.0359,34.37706],[-118.0361,34.37704],[-118.03615,34.37704],[-118.0362,34.37704],[-118.03624,34.37706],[-118.03628,34.37709],[-118.0363,34.37713],[-118.0363,34.37722],[-118.0363,34.37725],[-118.03631,34.37728],[-118.03632,34.37731],[-118.03649,34.3776],[-118.03655,34.37775],[-118.03658,34.37779],[-118.03661,34.37781],[-118.03665,34.37783],[-118.0367,34.37784],[-118.03674,34.37784],[-118.03685,34.37785],[-118.03693,34.37785],[-118.03702,34.37788],[-118.03708,34.37793],[-118.03713,34.378],[-118.03723,34.37808],[-118.03758,34.37822],[-118.0379,34.37831],[-118.03799,34.37833],[-118.03808,34.37832],[-118.03816,34.37829],[-118.03823,34.37825],[-118.03828,34.37818],[-118.03832,34.37804],[-118.03832,34.37791],[-118.03836,34.37782],[-118.03855,34.37737],[-118.03864,34.37712],[-118.03867,34.37679],[-118.03871,34.37671],[-118.03878,34.37665],[-118.03886,34.37661],[-118.03896,34.3766],[-118.03906,34.37661],[-118.03915,34.37664],[-118.03922,34.37669],[-118.03943,34.37685],[-118.03952,34.37691],[-118.03964,34.37695],[-118.03984,34.37702],[-118.03992,34.37706],[-118.03998,34.37711],[-118.04013,34.37728],[-118.04018,34.37733],[-118.04035,34.3774],[-118.04051,34.37748],[-118.04075,34.37753],[-118.04082,34.37754],[-118.04088,34.37753],[-118.04094,34.3775],[-118.04099,34.37747],[-118.04103,34.37739],[-118.04121,34.3771],[-118.04137,34.37699],[-118.0415,34.37692],[-118.04165,34.37689],[-118.04179,34.37689],[-118.0419,34.37689],[-118.042,34.37686],[-118.04209,34.37681],[-118.04214,34.37676],[-118.0424,34.37652],[-118.04261,34.37635],[-118.04267,34.37632],[-118.04274,34.3763],[-118.04282,34.37629],[-118.04289,34.37631],[-118.04295,34.37634],[-118.043,34.37639],[-118.04307,34.37648],[-118.04322,34.37662],[-118.04335,34.37676],[-118.04356,34.3769],[-118.04367,34.37698],[-118.04371,34.37703]]}},{"type":"Feature","properties":{"name":"120th Street East","road_class":"track","surface":"unpaved","source":"Caltrans All Roads + OpenStreetMap explicit surface","source_detail":"osm way 851396954; Caltrans All Roads public-network geometry match","source_tile":"176/407","public_network_source":"Caltrans All Roads (ARNOLD/HPMS)","surface_source":"OpenStreetMap explicit surface tag","caltrans_match_coverage":1.0,"verified_length_m":1602},"geometry":{"type":"LineString","coordinates":[[-117.91642,34.57244],[-117.91641,34.57172],[-117.91636,34.57064],[-117.91637,34.56882],[-117.91629,34.56526],[-117.91628,34.55795]]}},{"type":"Feature","properties":{"name":"180th Street East","road_class":"track","surface":"unpaved","source":"Caltrans All Roads + OpenStreetMap explicit surface","source_detail":"osm way 923794832; Caltrans All Roads public-network geometry match","source_tile":"176/407","public_network_source":"Caltrans All Roads (ARNOLD/HPMS)","surface_source":"OpenStreetMap explicit surface tag","caltrans_match_coverage":1.0,"verified_length_m":719},"geometry":{"type":"LineString","coordinates":[[-117.80934,34.54234],[-117.80934,34.54447],[-117.80931,34.54491],[-117.8093,34.54519],[-117.80938,34.54546],[-117.80945,34.54566],[-117.8094,34.54579],[-117.80938,34.54592],[-117.80952,34.54654],[-117.80956,34.54683],[-117.8095,34.54751],[-117.80936,34.54771],[-117.80927,34.54804],[-117.80919,34.54864],[-117.80905,34.54868]]}},{"type":"Feature","properties":{"name":"130th Street East","road_class":"track","surface":"unpaved","source":"Caltrans All Roads + OpenStreetMap explicit surface","source_detail":"osm way 1489993599; Caltrans All Roads public-network geometry match","source_tile":"176/407","public_network_source":"Caltrans All Roads (ARNOLD/HPMS)","surface_source":"OpenStreetMap explicit surface tag","caltrans_match_coverage":1.0,"verified_length_m":808},"geometry":{"type":"LineString","coordinates":[[-117.89863,34.57998],[-117.89856,34.57267]]}},{"type":"Feature","properties":{"name":"Big Rock Creek Road","road_class":"track","surface":"unpaved","tracktype":"grade2","source":"Caltrans All Roads + OpenStreetMap explicit surface","source_detail":"osm way 13364218; Caltrans All Roads public-network geometry match","source_tile":"177/407","public_network_source":"Caltrans All Roads (ARNOLD/HPMS)","surface_source":"OpenStreetMap explicit surface tag","caltrans_match_coverage":1.0,"verified_length_m":3290},"geometry":{"type":"LineString","coordinates":[[-117.75212,34.37366],[-117.75225,34.3737],[-117.75231,34.3739],[-117.75235,34.37406],[-117.75266,34.37432],[-117.75298,34.37447],[-117.75307,34.37461],[-117.75316,34.37469],[-117.75337,34.37476],[-117.75373,34.37495],[-117.75402,34.37518],[-117.75423,34.37541],[-117.75427,34.3755],[-117.75424,34.37563],[-117.75421,34.3757],[-117.75425,34.37578],[-117.75445,34.3759],[-117.75478,34.37591],[-117.75497,34.37596],[-117.75524,34.37616],[-117.75549,34.37629],[-117.75558,34.37631],[-117.75571,34.37629],[-117.75585,34.37631],[-117.7561,34.37642],[-117.75637,34.37646],[-117.75648,34.37656],[-117.75654,34.37667],[-117.75661,34.37693],[-117.75663,34.37717],[-117.75661,34.37726],[-117.75665,34.37733],[-117.75675,34.37735],[-117.75688,34.3773],[-117.75717,34.37711],[-117.75743,34.37689],[-117.75759,34.37685],[-117.75773,34.37684],[-117.758,34.37688],[-117.75812,34.37689],[-117.7583,34.37692],[-117.75849,34.37699],[-117.75881,34.37713],[-117.75896,34.37727],[-117.75921,34.37728],[-117.75949,34.37735],[-117.75962,34.37748],[-117.75975,34.37753],[-117.75993,34.37756],[-117.76013,34.37766],[-117.76025,34.37776],[-117.76052,34.37781],[-117.76117,34.37798],[-117.76159,34.37806],[-117.76191,34.37814],[-117.76223,34.3782],[-117.76251,34.3782],[-117.76277,34.37816],[-117.76289,34.37819],[-117.7632,34.37843],[-117.76345,34.37866],[-117.76357,34.37877],[-117.76361,34.3788],[-117.76363,34.37881],[-117.76367,34.37881],[-117.76374,34.37881],[-117.76379,34.37882],[-117.76383,34.37884],[-117.76394,34.3789],[-117.7641,34.37897],[-117.76435,34.37918],[-117.76441,34.37927],[-117.76465,34.37949],[-117.76482,34.37964],[-117.76514,34.37996],[-117.76527,34.38004],[-117.76562,34.38013],[-117.76575,34.3802],[-117.76599,34.38048],[-117.76607,34.38052],[-117.76614,34.38054],[-117.76649,34.38058],[-117.76665,34.38062],[-117.76679,34.38067],[-117.76689,34.38071],[-117.76698,34.38076],[-117.76708,34.38088],[-117.76713,34.38098],[-117.76717,34.38103],[-117.76765,34.38134],[-117.7678,34.38146],[-117.76793,34.3816],[-117.76798,34.38164],[-117.76812,34.38171],[-117.76824,34.38176],[-117.76832,34.38184],[-117.76852,34.38204],[-117.76857,34.3821],[-117.76862,34.38211],[-117.76868,34.38212],[-117.76873,34.38213],[-117.76898,34.38212],[-117.76915,34.38211],[-117.76958,34.38218],[-117.77022,34.3823],[-117.77037,34.38231],[-117.77078,34.3823],[-117.77106,34.3823],[-117.77114,34.38231],[-117.77124,34.38231],[-117.77145,34.38235],[-117.77164,34.38239],[-117.77176,34.38244],[-117.77191,34.38252],[-117.77202,34.38262],[-117.77213,34.38274],[-117.77216,34.3828],[-117.77217,34.38285],[-117.77216,34.3829],[-117.77214,34.38294],[-117.77209,34.38299],[-117.77203,34.38303],[-117.77196,34.38312],[-117.77195,34.38316],[-117.77195,34.3832],[-117.7721,34.38356],[-117.77219,34.38389],[-117.77225,34.38427],[-117.77226,34.38437],[-117.77227,34.38449],[-117.77227,34.38455],[-117.77228,34.38459],[-117.77231,34.38464],[-117.77237,34.38469],[-117.77243,34.38475],[-117.77249,34.38478],[-117.77256,34.38482],[-117.77264,34.38485],[-117.77271,34.38488],[-117.77277,34.3849],[-117.77282,34.38494],[-117.77284,34.38496],[-117.77285,34.38499],[-117.77286,34.38507],[-117.77286,34.3851],[-117.77288,34.38513],[-117.77303,34.38527],[-117.7732,34.38545],[-117.77328,34.38553],[-117.77331,34.38557],[-117.77332,34.3856],[-117.77333,34.38563],[-117.77334,34.38566],[-117.77333,34.38577],[-117.77332,34.38587],[-117.77332,34.3859],[-117.77333,34.38593],[-117.77336,34.38596],[-117.77349,34.38608],[-117.77357,34.38618],[-117.77376,34.38646],[-117.77417,34.38694],[-117.77493,34.38799],[-117.77503,34.38817],[-117.77535,34.38851],[-117.77556,34.38872],[-117.77564,34.38877],[-117.77577,34.38881],[-117.77591,34.38884],[-117.77612,34.38903],[-117.77622,34.3891],[-117.77644,34.38923],[-117.77647,34.38932],[-117.77645,34.3894],[-117.77639,34.38949],[-117.77627,34.38953],[-117.77602,34.38953],[-117.77578,34.38954]]}}]}