{"type":"FeatureCollection","features":[{"type":"Feature","properties":{"name":"Coxey Truck Trail","road_class":"track","surface":"compacted","tracktype":"grade3","source":"Caltrans All Roads + OpenStreetMap explicit surface","source_detail":"osm way 7380571; Caltrans All Roads public-network geometry match","source_tile":"179/407","public_network_source":"Caltrans All Roads (ARNOLD/HPMS)","surface_source":"OpenStreetMap explicit surface tag","caltrans_match_coverage":1.0,"verified_length_m":6556},"geometry":{"type":"LineString","coordinates":[[-117.06413,34.34321],[-117.06409,34.34341],[-117.06416,34.34363],[-117.06443,34.34386],[-117.06474,34.34412],[-117.06517,34.34442],[-117.06567,34.34461],[-117.06577,34.3447],[-117.06581,34.3449],[-117.06587,34.34507],[-117.06599,34.34518],[-117.06664,34.34541],[-117.0668,34.3455],[-117.06705,34.34581],[-117.06728,34.34598],[-117.06773,34.34624],[-117.06783,34.34652],[-117.06793,34.34668],[-117.06812,34.34678],[-117.06835,34.34678],[-117.06867,34.34668],[-117.069,34.34663],[-117.06946,34.34672],[-117.06962,34.3467],[-117.07,34.34656],[-117.07028,34.34645],[-117.07053,34.34641],[-117.07066,34.34646],[-117.07089,34.34663],[-117.07102,34.34665],[-117.07124,34.34654],[-117.07135,34.34655],[-117.07151,34.34661],[-117.07164,34.34663],[-117.07198,34.34652],[-117.07242,34.34618],[-117.07278,34.34607],[-117.07295,34.34609],[-117.0732,34.34635],[-117.07341,34.34647],[-117.07357,34.34648],[-117.07372,34.34638],[-117.07392,34.34618],[-117.07399,34.34615],[-117.07418,34.34605],[-117.07457,34.34605],[-117.07481,34.34617],[-117.07487,34.34645],[-117.07498,34.34661],[-117.07518,34.34674],[-117.07538,34.34675],[-117.07577,34.3466],[-117.07593,34.34661],[-117.07636,34.34674],[-117.07695,34.34682],[-117.07731,34.34687],[-117.07759,34.34697],[-117.07772,34.34697],[-117.07799,34.34686],[-117.07827,34.34683],[-117.07849,34.34675],[-117.07853,34.34673],[-117.07877,34.3466],[-117.07908,34.34654],[-117.07964,34.34654],[-117.08008,34.34639],[-117.08036,34.34633],[-117.08086,34.34616],[-117.081,34.34606],[-117.08135,34.34587],[-117.08168,34.34578],[-117.08293,34.34576],[-117.08316,34.34578],[-117.08331,34.34587],[-117.08353,34.34614],[-117.08373,34.34631],[-117.08409,34.34654],[-117.08433,34.34665],[-117.08487,34.34677],[-117.0854,34.34711],[-117.08554,34.34727],[-117.08563,34.34749],[-117.0856,34.34775],[-117.08549,34.34804],[-117.0855,34.34815],[-117.08568,34.34822],[-117.08582,34.34819],[-117.08612,34.34797],[-117.08635,34.34785],[-117.08659,34.34784],[-117.08686,34.34794],[-117.08723,34.34805],[-117.08758,34.34807],[-117.08778,34.34813],[-117.08799,34.34831],[-117.08814,34.34839],[-117.08863,34.34848],[-117.08878,34.34855],[-117.08896,34.34865],[-117.08929,34.3487],[-117.08949,34.34872],[-117.08966,34.3488],[-117.08975,34.3489],[-117.08987,34.349],[-117.09036,34.34924],[-117.09041,34.34939],[-117.0905,34.34952],[-117.09078,34.34976],[-117.0909,34.34996],[-117.09109,34.35012],[-117.09123,34.35026],[-117.09145,34.35046],[-117.09152,34.35066],[-117.09165,34.35085],[-117.09182,34.35091],[-117.09241,34.35092],[-117.09266,34.35095],[-117.09277,34.35105],[-117.09301,34.3514],[-117.09323,34.35149],[-117.0938,34.35147],[-117.09406,34.35151],[-117.09432,34.35162],[-117.09458,34.35179],[-117.09489,34.35207],[-117.09488,34.35228],[-117.0949,34.35269],[-117.09502,34.35304],[-117.09509,34.35324],[-117.09515,34.35374],[-117.09524,34.35401],[-117.09543,34.35421],[-117.09563,34.35447],[-117.09604,34.35488],[-117.09606,34.35491],[-117.09617,34.35503],[-117.09627,34.35542],[-117.09639,34.356],[-117.09638,34.35615],[-117.09629,34.3564],[-117.09624,34.35655],[-117.09625,34.35681],[-117.09623,34.35698],[-117.09594,34.35742],[-117.09564,34.35786],[-117.09524,34.35843],[-117.09509,34.35859],[-117.09479,34.35879],[-117.09468,34.359],[-117.09467,34.35934],[-117.09463,34.35955],[-117.09467,34.35986],[-117.09468,34.35992],[-117.09458,34.3603],[-117.09449,34.36054],[-117.09436,34.36076],[-117.09411,34.36103],[-117.09386,34.36125],[-117.09381,34.36135],[-117.0938,34.36141],[-117.09384,34.36195],[-117.09378,34.36204],[-117.09365,34.36212],[-117.09344,34.36211],[-117.09318,34.36201],[-117.09293,34.36191],[-117.09282,34.36183],[-117.09275,34.36184],[-117.09273,34.36188],[-117.09274,34.36202],[-117.09278,34.36217],[-117.09288,34.36236],[-117.0929,34.36247],[-117.09304,34.36259],[-117.09313,34.36268],[-117.09316,34.36286],[-117.09316,34.36303],[-117.09305,34.36327],[-117.09292,34.36344],[-117.09287,34.36354],[-117.09289,34.36374],[-117.09286,34.36386],[-117.09274,34.36396],[-117.09266,34.36402],[-117.0926,34.36412],[-117.09263,34.36428],[-117.09269,34.3646],[-117.09272,34.36466],[-117.09283,34.3647],[-117.09295,34.36467],[-117.093,34.36459],[-117.09302,34.3644],[-117.0931,34.3643],[-117.09323,34.3643],[-117.09337,34.36436],[-117.09356,34.36439],[-117.09366,34.36435],[-117.0937,34.36424],[-117.09372,34.36409],[-117.09376,34.36402],[-117.09383,34.36398],[-117.09397,34.36401],[-117.09409,34.36412],[-117.09432,34.36423],[-117.09444,34.36428],[-117.0945,34.36434],[-117.09462,34.36446],[-117.0947,34.36458],[-117.09475,34.36474],[-117.09488,34.36491],[-117.09512,34.36524],[-117.09535,34.36557],[-117.09549,34.36574],[-117.09567,34.3659],[-117.09588,34.36603],[-117.09614,34.36615],[-117.09652,34.36645],[-117.09666,34.36651],[-117.09699,34.36657],[-117.09718,34.36665],[-117.09737,34.36674],[-117.09773,34.3667],[-117.09791,34.36664],[-117.09812,34.3666],[-117.09836,34.36651],[-117.09851,34.36639],[-117.09873,34.3661],[-117.09898,34.36575],[-117.09921,34.36561],[-117.09951,34.36542],[-117.09984,34.36526],[-117.10028,34.36512],[-117.10071,34.36494],[-117.10095,34.36489],[-117.10128,34.36487],[-117.10161,34.36482],[-117.10189,34.36468],[-117.10218,34.3646],[-117.10233,34.36457],[-117.10273,34.36458],[-117.10303,34.36455],[-117.10331,34.36451],[-117.10333,34.36451],[-117.10345,34.36451],[-117.10363,34.36452],[-117.10384,34.36454],[-117.10395,34.36455],[-117.10402,34.36457],[-117.10403,34.36457]]}},{"type":"Feature","properties":{"name":"Carbine Flat OHV Road","road_class":"track","surface":"dirt","tracktype":"grade3","source":"Caltrans All Roads + OpenStreetMap explicit surface","source_detail":"osm way 7029482; Caltrans All Roads public-network geometry match","source_tile":"178/407","public_network_source":"Caltrans All Roads (ARNOLD/HPMS)","surface_source":"OpenStreetMap explicit surface tag","caltrans_match_coverage":1.0,"verified_length_m":1476},"geometry":{"type":"LineString","coordinates":[[-117.10543,34.35226],[-117.10517,34.35243],[-117.10489,34.35257],[-117.10483,34.35258],[-117.10441,34.3527],[-117.10425,34.35268],[-117.1041,34.35263],[-117.10379,34.35243],[-117.1035,34.35231],[-117.10328,34.35213],[-117.10323,34.35196],[-117.10312,34.35189],[-117.10289,34.35187],[-117.10267,34.35178],[-117.10249,34.3516],[-117.10222,34.3514],[-117.10215,34.35123],[-117.10198,34.35113],[-117.10169,34.35117],[-117.10156,34.35114],[-117.10119,34.35101],[-117.10103,34.3509],[-117.1009,34.35077],[-117.10086,34.35062],[-117.10075,34.35052],[-117.10064,34.35052],[-117.10054,34.35058],[-117.10036,34.35064],[-117.10016,34.35063],[-117.09996,34.35058],[-117.09977,34.3505],[-117.09964,34.35038],[-117.09959,34.35034],[-117.0995,34.35031],[-117.09942,34.35035],[-117.09938,34.35043],[-117.09941,34.35061],[-117.09937,34.3507],[-117.09923,34.35082],[-117.09898,34.3509],[-117.09871,34.35083],[-117.09845,34.35083],[-117.09814,34.3508],[-117.09805,34.35085],[-117.09804,34.35095],[-117.09821,34.35104],[-117.09842,34.35111],[-117.09855,34.35116],[-117.09862,34.35122],[-117.09852,34.35142],[-117.09865,34.35163],[-117.09859,34.35173],[-117.09848,34.35173],[-117.09835,34.35169],[-117.09824,34.35172],[-117.09814,34.35172],[-117.09807,34.35164],[-117.09808,34.35154],[-117.09808,34.35146],[-117.09803,34.3514],[-117.09796,34.35133],[-117.09784,34.3513],[-117.09766,34.35133],[-117.09736,34.35144],[-117.09726,34.35152],[-117.09713,34.35157],[-117.09701,34.35157],[-117.09665,34.35174],[-117.09653,34.35186],[-117.09642,34.35191],[-117.09625,34.3519],[-117.096,34.35189],[-117.09577,34.35202],[-117.09568,34.35211],[-117.09564,34.35225],[-117.09577,34.3524],[-117.09577,34.35253],[-117.09566,34.35276],[-117.09543,34.35293],[-117.09512,34.35294],[-117.09502,34.35304]]}},{"type":"Feature","properties":{"name":"Carbine Flat Spur A (OHV)","road_class":"track","surface":"dirt","tracktype":"grade3","source":"Caltrans All Roads + OpenStreetMap explicit surface","source_detail":"osm way 7248900; Caltrans All Roads public-network geometry match","source_tile":"178/407","public_network_source":"Caltrans All Roads (ARNOLD/HPMS)","surface_source":"OpenStreetMap explicit surface tag","caltrans_match_coverage":1.0,"verified_length_m":2325},"geometry":{"type":"LineString","coordinates":[[-117.12587,34.35294],[-117.12581,34.35284],[-117.12572,34.35275],[-117.12552,34.35263],[-117.12539,34.35255],[-117.12529,34.35256],[-117.12523,34.35262],[-117.12514,34.35265],[-117.12496,34.35254],[-117.12479,34.35249],[-117.12467,34.35235],[-117.12453,34.35226],[-117.12375,34.3522],[-117.12351,34.35227],[-117.12341,34.35227],[-117.1233,34.35223],[-117.12319,34.35223],[-117.12306,34.35227],[-117.12279,34.35224],[-117.12252,34.35202],[-117.12238,34.35189],[-117.12226,34.35173],[-117.12214,34.35173],[-117.1219,34.35178],[-117.12175,34.35177],[-117.12146,34.35168],[-117.12111,34.35152],[-117.12066,34.3513],[-117.12046,34.35128],[-117.12036,34.35118],[-117.12037,34.35081],[-117.12007,34.35051],[-117.11992,34.35049],[-117.11974,34.35054],[-117.11962,34.35056],[-117.11919,34.35031],[-117.11849,34.35013],[-117.11773,34.34996],[-117.11741,34.35],[-117.11712,34.34989],[-117.11669,34.35004],[-117.11657,34.35014],[-117.11668,34.35044],[-117.11673,34.35076],[-117.11656,34.35109],[-117.11649,34.35134],[-117.11612,34.35159],[-117.1153,34.35167],[-117.11478,34.3517],[-117.11435,34.35161],[-117.11404,34.35171],[-117.11327,34.35204],[-117.11279,34.35237],[-117.1122,34.35271],[-117.11187,34.35271],[-117.11171,34.35279],[-117.11154,34.35291],[-117.11137,34.35289],[-117.11106,34.35283],[-117.11076,34.35287],[-117.11051,34.35284],[-117.1104,34.35278],[-117.11031,34.35277],[-117.11021,34.35282],[-117.11,34.35286],[-117.10986,34.35295],[-117.10979,34.35296],[-117.10968,34.35292],[-117.10946,34.35283],[-117.1091,34.3528],[-117.10885,34.35276],[-117.10875,34.35278],[-117.10861,34.35281],[-117.10826,34.35278],[-117.10815,34.35279],[-117.108,34.35283],[-117.10787,34.3529],[-117.10776,34.35294],[-117.10764,34.35296],[-117.10747,34.35297],[-117.10735,34.35293],[-117.1072,34.3529],[-117.10704,34.3529],[-117.10688,34.35289],[-117.10673,34.35291],[-117.10663,34.35294],[-117.10653,34.35295],[-117.1061,34.35295],[-117.10555,34.35295],[-117.10545,34.35292],[-117.10535,34.35286],[-117.1053,34.35281],[-117.10525,34.35274],[-117.10523,34.35272],[-117.10518,34.3527],[-117.10506,34.35266],[-117.10496,34.35262],[-117.10487,34.35259],[-117.10483,34.35258]]}},{"type":"Feature","properties":{"name":"Coxey Truck Trail","road_class":"track","surface":"compacted","tracktype":"grade3","source":"Caltrans All Roads + OpenStreetMap explicit surface","source_detail":"osm way 7271715; Caltrans All Roads public-network geometry match","source_tile":"178/407","public_network_source":"Caltrans All Roads (ARNOLD/HPMS)","surface_source":"OpenStreetMap explicit surface tag","caltrans_match_coverage":1.0,"verified_length_m":3241},"geometry":{"type":"LineString","coordinates":[[-117.10877,34.37487],[-117.1092,34.37484],[-117.10951,34.37471],[-117.10969,34.37469],[-117.10977,34.37476],[-117.10978,34.37488],[-117.1096,34.37517],[-117.10927,34.37546],[-117.10924,34.37573],[-117.10926,34.37588],[-117.10942,34.37593],[-117.10967,34.37594],[-117.11004,34.37586],[-117.11014,34.37592],[-117.11018,34.376],[-117.11007,34.37616],[-117.10999,34.3764],[-117.11,34.37658],[-117.11008,34.37666],[-117.11048,34.37682],[-117.11059,34.37694],[-117.11073,34.37731],[-117.11081,34.37738],[-117.11087,34.37741],[-117.11135,34.37727],[-117.11152,34.37729],[-117.11167,34.37742],[-117.11194,34.37744],[-117.11211,34.37752],[-117.11235,34.3778],[-117.11278,34.37811],[-117.11288,34.37831],[-117.1128,34.37873],[-117.11286,34.3793],[-117.11304,34.37977],[-117.11318,34.38004],[-117.11323,34.38031],[-117.1134,34.3804],[-117.11387,34.38045],[-117.11446,34.38071],[-117.1147,34.38085],[-117.11506,34.38134],[-117.11524,34.38173],[-117.11552,34.38233],[-117.11567,34.38252],[-117.11587,34.38319],[-117.1157,34.38363],[-117.11583,34.38386],[-117.11607,34.38401],[-117.11703,34.38416],[-117.11724,34.3843],[-117.11771,34.3845],[-117.11809,34.38476],[-117.11845,34.38503],[-117.11867,34.38531],[-117.11894,34.38586],[-117.1191,34.38627],[-117.11927,34.38648],[-117.11979,34.38673],[-117.1201,34.38683],[-117.12037,34.38704],[-117.12073,34.38746],[-117.1211,34.38769],[-117.12119,34.38779],[-117.12113,34.38812],[-117.12155,34.38887],[-117.12173,34.38938],[-117.12196,34.38964],[-117.12235,34.39005],[-117.12239,34.39021],[-117.1223,34.3904],[-117.12231,34.39084],[-117.12241,34.39116],[-117.1224,34.39132],[-117.12221,34.39187],[-117.12232,34.39287],[-117.12238,34.39303],[-117.12249,34.3931],[-117.12267,34.39316],[-117.1229,34.39323],[-117.12308,34.3933],[-117.12351,34.39348],[-117.12366,34.39354],[-117.12383,34.39367],[-117.12393,34.39382],[-117.12404,34.39406],[-117.12427,34.39435],[-117.12459,34.39487],[-117.12506,34.39539],[-117.12548,34.39566]]}},{"type":"Feature","properties":{"name":"Bowen Ranch Road -JF4325","road_class":"track","surface":"compacted","source":"Caltrans All Roads + OpenStreetMap explicit surface","source_detail":"osm way 7370292; Caltrans All Roads public-network geometry match","source_tile":"178/407","public_network_source":"Caltrans All Roads (ARNOLD/HPMS)","surface_source":"OpenStreetMap explicit surface tag","caltrans_match_coverage":1.0,"verified_length_m":9238},"geometry":{"type":"LineString","coordinates":[[-117.16364,34.3646],[-117.16343,34.36455],[-117.16278,34.36451],[-117.16239,34.36449],[-117.16176,34.3645],[-117.16009,34.36461],[-117.15855,34.36462],[-117.15666,34.36523],[-117.15592,34.36525],[-117.15572,34.36523],[-117.15463,34.36598],[-117.15396,34.36614],[-117.1533,34.36662],[-117.15323,34.36678],[-117.15322,34.36711],[-117.15311,34.36731],[-117.15273,34.3675],[-117.15259,34.36759],[-117.1525,34.36777],[-117.15248,34.368],[-117.15239,34.3682],[-117.15217,34.36853],[-117.15214,34.36894],[-117.15201,34.36964],[-117.15204,34.37002],[-117.15209,34.37033],[-117.15213,34.37047],[-117.15217,34.37079],[-117.15221,34.37105],[-117.15221,34.37108],[-117.15224,34.37137],[-117.15218,34.37184],[-117.15211,34.37225],[-117.15215,34.37266],[-117.15225,34.37305],[-117.15232,34.37336],[-117.15222,34.37352],[-117.15202,34.37368],[-117.15177,34.37395],[-117.15152,34.37415],[-117.1513,34.37425],[-117.15076,34.37424],[-117.15041,34.37425],[-117.15007,34.37433],[-117.14981,34.37442],[-117.14967,34.37456],[-117.14953,34.37475],[-117.14922,34.37504],[-117.14897,34.37537],[-117.14885,34.37556],[-117.14875,34.37582],[-117.14864,34.37623],[-117.14854,34.37663],[-117.14839,34.3771],[-117.14822,34.37735],[-117.14798,34.37764],[-117.14776,34.3778],[-117.14748,34.37794],[-117.14721,34.37802],[-117.14692,34.37817],[-117.14663,34.37844],[-117.14648,34.37868],[-117.14638,34.37892],[-117.14627,34.37918],[-117.14617,34.37941],[-117.14621,34.37965],[-117.14629,34.37981],[-117.14647,34.37999],[-117.14662,34.38017],[-117.14668,34.38038],[-117.14666,34.38057],[-117.14652,34.3809],[-117.14641,34.38113],[-117.14626,34.38127],[-117.14604,34.38135],[-117.14575,34.38141],[-117.14554,34.38148],[-117.1453,34.38159],[-117.14481,34.38189],[-117.14458,34.38197],[-117.1442,34.38204],[-117.14378,34.38203],[-117.14342,34.38204],[-117.14298,34.38217],[-117.14261,34.38223],[-117.142,34.38229],[-117.14178,34.38235],[-117.14166,34.38249],[-117.14141,34.38272],[-117.14113,34.38297],[-117.14079,34.38326],[-117.14041,34.38354],[-117.13986,34.38392],[-117.13923,34.38469],[-117.13899,34.38489],[-117.13775,34.38577],[-117.13766,34.38595],[-117.13766,34.38624],[-117.13754,34.38658],[-117.13733,34.38696],[-117.137,34.38741],[-117.13601,34.38828],[-117.13554,34.38861],[-117.13523,34.38871],[-117.13419,34.38869],[-117.13387,34.3885],[-117.13355,34.38808],[-117.13309,34.38782],[-117.13271,34.38784],[-117.13232,34.38791],[-117.13213,34.38798],[-117.13172,34.38813],[-117.13122,34.38827],[-117.13092,34.38839],[-117.13062,34.38855],[-117.1305,34.38867],[-117.13035,34.38877],[-117.12978,34.38886],[-117.12935,34.38883],[-117.12905,34.38889],[-117.12894,34.3892],[-117.1289,34.38947],[-117.12878,34.38977],[-117.12857,34.38996],[-117.12696,34.39105],[-117.12652,34.3914],[-117.12636,34.39159],[-117.12601,34.39208],[-117.12576,34.39246],[-117.12531,34.3935],[-117.12527,34.39398],[-117.12528,34.39461],[-117.12535,34.39513],[-117.12548,34.39566],[-117.12557,34.39628],[-117.12551,34.39681],[-117.12554,34.39722],[-117.12564,34.39749],[-117.12587,34.39764],[-117.12633,34.39778],[-117.12705,34.39842],[-117.12743,34.3987],[-117.12752,34.39892],[-117.1273,34.39939],[-117.12729,34.39961],[-117.12733,34.39978],[-117.12733,34.40047],[-117.12713,34.40101],[-117.12662,34.40176],[-117.12625,34.40221],[-117.12599,34.40246],[-117.12561,34.40268],[-117.12543,34.40291],[-117.12538,34.40312],[-117.12538,34.4034],[-117.1255,34.40397],[-117.12554,34.40441],[-117.1256,34.40503],[-117.12554,34.40546],[-117.12547,34.40588],[-117.1254,34.40634],[-117.12543,34.40692],[-117.12555,34.40724],[-117.12592,34.40757],[-117.12616,34.40765],[-117.12702,34.40795],[-117.12782,34.40828],[-117.12836,34.40878],[-117.12883,34.40935],[-117.12906,34.40971],[-117.12932,34.41007],[-117.12953,34.41026],[-117.12979,34.4104],[-117.12997,34.41052],[-117.13039,34.41089],[-117.13063,34.41126],[-117.13075,34.41155],[-117.13091,34.41199],[-117.13096,34.41245],[-117.13118,34.41314],[-117.13148,34.41361],[-117.13208,34.41399],[-117.13268,34.41429],[-117.13311,34.41454],[-117.13312,34.41474],[-117.13305,34.41481],[-117.13294,34.41488],[-117.1326,34.41495],[-117.13228,34.41509],[-117.13201,34.4153],[-117.13178,34.41554],[-117.1316,34.41584],[-117.13149,34.41633],[-117.13152,34.41677],[-117.13152,34.42119]]}},{"type":"Feature","properties":{"name":"Muscatel Street","road_class":"track","surface":"unpaved","source":"Caltrans All Roads + OpenStreetMap explicit surface","source_detail":"osm way 256017506; Caltrans All Roads public-network geometry match","source_tile":"178/407","public_network_source":"Caltrans All Roads (ARNOLD/HPMS)","surface_source":"OpenStreetMap explicit surface tag","caltrans_match_coverage":1.0,"verified_length_m":688},"geometry":{"type":"LineString","coordinates":[[-117.38376,34.41222],[-117.38382,34.41222],[-117.38483,34.41211],[-117.3855,34.41212],[-117.38596,34.41212],[-117.38796,34.41213],[-117.39124,34.41215]]}},{"type":"Feature","properties":{"name":"Del Oro Road","road_class":"track","surface":"unpaved","source":"Caltrans All Roads + OpenStreetMap explicit surface","source_detail":"osm way 277944635; Caltrans All Roads public-network geometry match","source_tile":"178/407","public_network_source":"Caltrans All Roads (ARNOLD/HPMS)","surface_source":"OpenStreetMap explicit surface tag","caltrans_match_coverage":1.0,"verified_length_m":2544},"geometry":{"type":"LineString","coordinates":[[-117.14859,34.45741],[-117.14642,34.45742],[-117.14535,34.45743],[-117.14099,34.45747],[-117.13894,34.45748],[-117.13757,34.45749],[-117.13458,34.45756],[-117.1333,34.45757],[-117.13184,34.45754],[-117.13138,34.45757],[-117.13089,34.45759],[-117.13015,34.45758],[-117.1297,34.45758],[-117.12665,34.45745],[-117.12595,34.45747],[-117.12543,34.45747],[-117.12264,34.45742],[-117.12088,34.45741]]}},{"type":"Feature","properties":{"name":"Farmington Street","road_class":"track","surface":"unpaved","source":"Caltrans All Roads + OpenStreetMap explicit surface","source_detail":"osm way 295278804; Caltrans All Roads public-network geometry match","source_tile":"178/407","public_network_source":"Caltrans All Roads (ARNOLD/HPMS)","surface_source":"OpenStreetMap explicit surface tag","caltrans_match_coverage":1.0,"verified_length_m":1435},"geometry":{"type":"LineString","coordinates":[[-117.40475,34.37592],[-117.40543,34.37596],[-117.40681,34.37597],[-117.40763,34.37598],[-117.40847,34.37599],[-117.40972,34.37601],[-117.41183,34.37605],[-117.41203,34.37605],[-117.41369,34.37606],[-117.41551,34.37607],[-117.41574,34.37607],[-117.41594,34.37607],[-117.4161,34.37607],[-117.41652,34.37607],[-117.41683,34.37607],[-117.42037,34.37602]]}},{"type":"Feature","properties":{"name":"Roundup Way","road_class":"track","surface":"dirt","tracktype":"grade3","source":"Caltrans All Roads + OpenStreetMap explicit surface","source_detail":"osm way 295445774; Caltrans All Roads public-network geometry match","source_tile":"178/407","public_network_source":"Caltrans All Roads (ARNOLD/HPMS)","surface_source":"OpenStreetMap explicit surface tag","caltrans_match_coverage":1.0,"verified_length_m":1357},"geometry":{"type":"LineString","coordinates":[[-117.14629,34.42105],[-117.1449,34.42105],[-117.14414,34.42105],[-117.14258,34.42106],[-117.14187,34.42106],[-117.1415,34.42106],[-117.14043,34.42107],[-117.13895,34.42108],[-117.13794,34.42109],[-117.13744,34.42112],[-117.13562,34.42115],[-117.13361,34.42116],[-117.13322,34.42117],[-117.13293,34.42117],[-117.13152,34.42119]]}},{"type":"Feature","properties":{"name":"Bowen Ranch Road","road_class":"track","surface":"compacted","source":"Caltrans All Roads + OpenStreetMap explicit surface","source_detail":"osm way 482682696; Caltrans All Roads public-network geometry match","source_tile":"178/407","public_network_source":"Caltrans All Roads (ARNOLD/HPMS)","surface_source":"OpenStreetMap explicit surface tag","caltrans_match_coverage":1.0,"verified_length_m":796},"geometry":{"type":"LineString","coordinates":[[-117.13152,34.42119],[-117.13151,34.4267],[-117.13151,34.42839]]}},{"type":"Feature","properties":{"name":"Oak Springs Road","road_class":"track","surface":"unpaved","source":"Caltrans All Roads + OpenStreetMap explicit surface","source_detail":"osm way 514039631; Caltrans All Roads public-network geometry match","source_tile":"178/407","public_network_source":"Caltrans All Roads (ARNOLD/HPMS)","surface_source":"OpenStreetMap explicit surface tag","caltrans_match_coverage":1.0,"verified_length_m":748},"geometry":{"type":"LineString","coordinates":[[-117.11278,34.36356],[-117.11265,34.36359],[-117.11259,34.3636],[-117.11238,34.36382],[-117.11227,34.36395],[-117.11217,34.364],[-117.11205,34.36403],[-117.11144,34.36406],[-117.11107,34.36407],[-117.11087,34.36411],[-117.11074,34.36412],[-117.11054,34.36409],[-117.11039,34.3641],[-117.11019,34.36413],[-117.11004,34.36415],[-117.1099,34.36414],[-117.10965,34.36407],[-117.10952,34.36403],[-117.10938,34.36391],[-117.10929,34.36379],[-117.10915,34.36352],[-117.10909,34.36337],[-117.10901,34.36329],[-117.10884,34.36318],[-117.10875,34.36305],[-117.10867,34.36295],[-117.10856,34.36288],[-117.10841,34.36284],[-117.10827,34.36281],[-117.10815,34.3628],[-117.10801,34.3628],[-117.10767,34.36279],[-117.10721,34.36263],[-117.10699,34.36263],[-117.10681,34.36268],[-117.10664,34.36281],[-117.10648,34.36298],[-117.10631,34.36312],[-117.10605,34.3633]]}},{"type":"Feature","properties":{"name":"Coxey Truck Trail","road_class":"track","surface":"compacted","tracktype":"grade3","source":"Caltrans All Roads + OpenStreetMap explicit surface","source_detail":"osm way 514039635; Caltrans All Roads public-network geometry match","source_tile":"178/407","public_network_source":"Caltrans All Roads (ARNOLD/HPMS)","surface_source":"OpenStreetMap explicit surface tag","caltrans_match_coverage":1.0,"verified_length_m":1833},"geometry":{"type":"LineString","coordinates":[[-117.10403,34.36457],[-117.10405,34.36458],[-117.10408,34.36459],[-117.10418,34.36461],[-117.10428,34.36462],[-117.10443,34.3646],[-117.10464,34.36461],[-117.1049,34.36467],[-117.10502,34.36476],[-117.10523,34.36502],[-117.10536,34.36505],[-117.10558,34.3651],[-117.10566,34.36515],[-117.10569,34.36523],[-117.10543,34.36534],[-117.10529,34.36551],[-117.10523,34.36567],[-117.10534,34.36614],[-117.10542,34.36631],[-117.10534,34.36678],[-117.10544,34.36708],[-117.10537,34.36755],[-117.10547,34.36808],[-117.10565,34.36825],[-117.10573,34.36836],[-117.10573,34.36877],[-117.10579,34.36898],[-117.10611,34.36925],[-117.10646,34.36958],[-117.10672,34.36969],[-117.10709,34.36975],[-117.1074,34.36976],[-117.10768,34.36979],[-117.10792,34.36991],[-117.10828,34.37019],[-117.1085,34.37044],[-117.10856,34.37058],[-117.1086,34.3709],[-117.10867,34.37108],[-117.10869,34.37118],[-117.1087,34.37128],[-117.10869,34.37148],[-117.10858,34.37196],[-117.10867,34.37246],[-117.10858,34.37279],[-117.10863,34.37307],[-117.10852,34.37314],[-117.10811,34.37304],[-117.1077,34.373],[-117.10752,34.37303],[-117.10743,34.37335],[-117.10728,34.37351],[-117.10706,34.37361],[-117.10688,34.37359],[-117.1066,34.37336],[-117.10635,34.37339],[-117.10614,34.37354],[-117.10617,34.37369],[-117.10688,34.37421],[-117.10722,34.37448],[-117.10742,34.37458],[-117.1078,34.37464],[-117.10805,34.37484],[-117.10834,34.37491],[-117.10853,34.37493],[-117.10877,34.37487]]}},{"type":"Feature","properties":{"name":"Bowen Ranch road / JF4325","road_class":"track","surface":"dirt","source":"Caltrans All Roads + OpenStreetMap explicit surface","source_detail":"osm way 713364618; Caltrans All Roads public-network geometry match","source_tile":"178/407","public_network_source":"Caltrans All Roads (ARNOLD/HPMS)","surface_source":"OpenStreetMap explicit surface tag","caltrans_match_coverage":1.0,"verified_length_m":1093},"geometry":{"type":"LineString","coordinates":[[-117.16364,34.3646],[-117.16375,34.36465],[-117.16405,34.3648],[-117.1643,34.36493],[-117.16456,34.36513],[-117.16477,34.36537],[-117.16495,34.36555],[-117.16513,34.36569],[-117.16554,34.36596],[-117.16585,34.3662],[-117.1659,34.36624],[-117.16609,34.3664],[-117.16626,34.36659],[-117.16641,34.36675],[-117.16665,34.36692],[-117.16692,34.36708],[-117.16714,34.36715],[-117.16733,34.36719],[-117.16748,34.36721],[-117.16759,34.36726],[-117.16768,34.36731],[-117.16779,34.36741],[-117.16791,34.36754],[-117.16803,34.36763],[-117.1682,34.36775],[-117.16832,34.36783],[-117.16847,34.36792],[-117.16868,34.36798],[-117.16904,34.36807],[-117.16922,34.36813],[-117.16964,34.36832],[-117.16994,34.36849],[-117.17018,34.36863],[-117.1705,34.36875],[-117.17085,34.3689],[-117.1712,34.36914],[-117.17151,34.36933],[-117.17164,34.36945],[-117.17167,34.36948],[-117.17178,34.36965],[-117.17184,34.36977],[-117.17187,34.36989],[-117.17199,34.37005],[-117.17215,34.37027],[-117.17226,34.37038],[-117.17237,34.3705],[-117.17243,34.37061],[-117.17246,34.37077]]}},{"type":"Feature","properties":{"name":"Quinnault Road","road_class":"track","surface":"unpaved","source":"Caltrans All Roads + OpenStreetMap explicit surface","source_detail":"osm way 831544158; Caltrans All Roads public-network geometry match","source_tile":"178/407","public_network_source":"Caltrans All Roads (ARNOLD/HPMS)","surface_source":"OpenStreetMap explicit surface tag","caltrans_match_coverage":1.0,"verified_length_m":1599},"geometry":{"type":"LineString","coordinates":[[-117.18151,34.45713],[-117.18144,34.46079],[-117.1814,34.46441],[-117.18135,34.46688],[-117.18132,34.46725],[-117.1813,34.46955],[-117.18131,34.47055],[-117.18137,34.4709],[-117.18144,34.4714],[-117.18148,34.47158]]}},{"type":"Feature","properties":{"name":"Cielito Drive","road_class":"track","surface":"unpaved","source":"Caltrans All Roads + OpenStreetMap explicit surface","source_detail":"osm way 917248675; Caltrans All Roads public-network geometry match","source_tile":"178/407","public_network_source":"Caltrans All Roads (ARNOLD/HPMS)","surface_source":"OpenStreetMap explicit surface tag","caltrans_match_coverage":1.0,"verified_length_m":814},"geometry":{"type":"LineString","coordinates":[[-117.15518,34.4637],[-117.15714,34.46367],[-117.15869,34.46364],[-117.15963,34.46363],[-117.16072,34.46362],[-117.16377,34.46357],[-117.16405,34.46357]]}},{"type":"Feature","properties":{"name":"Colony Road","road_class":"track","surface":"unpaved","source":"Caltrans All Roads + OpenStreetMap explicit surface","source_detail":"osm way 917373735; Caltrans All Roads public-network geometry match","source_tile":"178/407","public_network_source":"Caltrans All Roads (ARNOLD/HPMS)","surface_source":"OpenStreetMap explicit surface tag","caltrans_match_coverage":1.0,"verified_length_m":551},"geometry":{"type":"LineString","coordinates":[[-117.17269,34.46624],[-117.17213,34.46624],[-117.17129,34.46624],[-117.17051,34.46625],[-117.16977,34.46626],[-117.16885,34.46625],[-117.1681,34.46625],[-117.1671,34.46625],[-117.16669,34.46625]]}},{"type":"Feature","properties":{"name":"(unnamed public road)","road_class":"track","surface":"dirt","source":"Caltrans All Roads + OpenStreetMap explicit surface","source_detail":"osm way 1111067664; Caltrans All Roads public-network geometry match","source_tile":"178/407","public_network_source":"Caltrans All Roads (ARNOLD/HPMS)","surface_source":"OpenStreetMap explicit surface tag","caltrans_match_coverage":1.0,"verified_length_m":1486},"geometry":{"type":"LineString","coordinates":[[-117.3627,34.44867],[-117.35544,34.44869],[-117.35384,34.4487],[-117.35165,34.44864],[-117.35123,34.44859],[-117.34652,34.44861]]}},{"type":"Feature","properties":{"name":"(unnamed public road)","road_class":"track","surface":"ground","source":"Caltrans All Roads + OpenStreetMap explicit surface","source_detail":"osm way 1422836477; Caltrans All Roads public-network geometry match","source_tile":"178/407","public_network_source":"Caltrans All Roads (ARNOLD/HPMS)","surface_source":"OpenStreetMap explicit surface tag","caltrans_match_coverage":1.0,"verified_length_m":772},"geometry":{"type":"LineString","coordinates":[[-117.23405,34.47125],[-117.23407,34.4717],[-117.23405,34.47254],[-117.23406,34.4741],[-117.23406,34.47508],[-117.23406,34.47552],[-117.23406,34.47823]]}}]}