{"type":"FeatureCollection","features":[{"type":"Feature","properties":{"name":"Cabletina Circle","road_class":"track","surface":"unpaved","source":"Caltrans All Roads + OpenStreetMap explicit surface","source_detail":"osm way 7138936; Caltrans All Roads public-network geometry match","source_tile":"178/409","public_network_source":"Caltrans All Roads (ARNOLD/HPMS)","surface_source":"OpenStreetMap explicit surface tag","caltrans_match_coverage":1.0,"verified_length_m":813},"geometry":{"type":"LineString","coordinates":[[-117.34301,33.83623],[-117.34306,33.83695],[-117.34289,33.83778],[-117.34282,33.83895],[-117.3428,33.83916],[-117.34276,33.83932],[-117.34271,33.83945],[-117.34272,33.8396],[-117.34279,33.83977],[-117.34282,33.84003],[-117.34278,33.84028],[-117.34273,33.84053],[-117.34264,33.84077],[-117.34259,33.84093],[-117.34259,33.8411],[-117.34264,33.84128],[-117.34273,33.84146],[-117.34284,33.84162],[-117.34287,33.84177],[-117.34289,33.84226],[-117.34294,33.84238],[-117.34294,33.84259],[-117.34293,33.84271],[-117.34291,33.84288],[-117.34287,33.84306],[-117.3427,33.84327],[-117.34257,33.84338]]}},{"type":"Feature","properties":{"name":"Virginia Street","road_class":"track","surface":"unpaved","source":"Caltrans All Roads + OpenStreetMap explicit surface","source_detail":"osm way 7188523; Caltrans All Roads public-network geometry match","source_tile":"178/409","public_network_source":"Caltrans All Roads (ARNOLD/HPMS)","surface_source":"OpenStreetMap explicit surface tag","caltrans_match_coverage":1.0,"verified_length_m":1029},"geometry":{"type":"LineString","coordinates":[[-117.12136,33.92873],[-117.12128,33.92835],[-117.12125,33.9263],[-117.12129,33.92582],[-117.12118,33.91943]]}},{"type":"Feature","properties":{"name":"Ida Leona Road","road_class":"track","surface":"unpaved","source":"Caltrans All Roads + OpenStreetMap explicit surface","source_detail":"osm way 7249407; Caltrans All Roads public-network geometry match","source_tile":"178/409","public_network_source":"Caltrans All Roads (ARNOLD/HPMS)","surface_source":"OpenStreetMap explicit surface tag","caltrans_match_coverage":1.0,"verified_length_m":818},"geometry":{"type":"LineString","coordinates":[[-117.37135,33.80001],[-117.36875,33.79998],[-117.36696,33.79997],[-117.36532,33.80001],[-117.36502,33.80008],[-117.36447,33.80042],[-117.36377,33.80004],[-117.36279,33.79999]]}},{"type":"Feature","properties":{"name":"Palomar Road","road_class":"unclassified","surface":"unpaved","motor_vehicle":"yes","source":"Caltrans All Roads + OpenStreetMap explicit surface","source_detail":"osm way 7278870; Caltrans All Roads public-network geometry match","source_tile":"178/409","public_network_source":"Caltrans All Roads (ARNOLD/HPMS)","surface_source":"OpenStreetMap explicit surface tag","caltrans_match_coverage":1.0,"verified_length_m":676},"geometry":{"type":"LineString","coordinates":[[-117.16287,33.73217],[-117.16288,33.73317],[-117.16289,33.73398],[-117.16289,33.73446],[-117.1629,33.73579],[-117.16297,33.73776],[-117.16286,33.73805],[-117.16275,33.73825]]}},{"type":"Feature","properties":{"name":"Smiley Boulevard","road_class":"unclassified","surface":"unpaved","source":"Caltrans All Roads + OpenStreetMap explicit surface","source_detail":"osm way 14007004; Caltrans All Roads public-network geometry match","source_tile":"178/409","public_network_source":"Caltrans All Roads (ARNOLD/HPMS)","surface_source":"OpenStreetMap explicit surface tag","caltrans_match_coverage":1.0,"verified_length_m":1725},"geometry":{"type":"LineString","coordinates":[[-117.18724,33.97539],[-117.18715,33.97591],[-117.18696,33.97635],[-117.18678,33.9767],[-117.18665,33.97688],[-117.18645,33.97716],[-117.1859,33.97769],[-117.18516,33.97817],[-117.18486,33.97843],[-117.18454,33.97887],[-117.18439,33.97912],[-117.18417,33.97969],[-117.18427,33.98015],[-117.18472,33.98102],[-117.18481,33.98173],[-117.18504,33.98282],[-117.18516,33.98317],[-117.18545,33.98347],[-117.18588,33.98375],[-117.18646,33.98409],[-117.18745,33.98467],[-117.18759,33.98477],[-117.18819,33.98525],[-117.1885,33.98554],[-117.18891,33.98582],[-117.18998,33.98626],[-117.19094,33.98664],[-117.19137,33.98689],[-117.19179,33.98711]]}},{"type":"Feature","properties":{"name":"Cedar Street","road_class":"track","surface":"unpaved","motor_vehicle":"yes","source":"Caltrans All Roads + OpenStreetMap explicit surface","source_detail":"osm way 46983136; Caltrans All Roads public-network geometry match","source_tile":"178/409","public_network_source":"Caltrans All Roads (ARNOLD/HPMS)","surface_source":"OpenStreetMap explicit surface tag","caltrans_match_coverage":1.0,"verified_length_m":540},"geometry":{"type":"LineString","coordinates":[[-117.33591,33.84856],[-117.33589,33.84836],[-117.33593,33.84793],[-117.33593,33.84762],[-117.33592,33.84761],[-117.3359,33.84756],[-117.33585,33.84747],[-117.33582,33.84731],[-117.33592,33.84688],[-117.33591,33.8463],[-117.3359,33.84586],[-117.3359,33.84555],[-117.33589,33.84505],[-117.33588,33.8437]]}},{"type":"Feature","properties":{"name":"(unnamed public road)","road_class":"track","surface":"unpaved","source":"Caltrans All Roads + OpenStreetMap explicit surface","source_detail":"osm way 68876224; Caltrans All Roads public-network geometry match","source_tile":"178/409","public_network_source":"Caltrans All Roads (ARNOLD/HPMS)","surface_source":"OpenStreetMap explicit surface tag","caltrans_match_coverage":1.0,"verified_length_m":1265},"geometry":{"type":"LineString","coordinates":[[-117.39097,33.74109],[-117.39097,33.74093],[-117.39093,33.74078],[-117.39086,33.74069],[-117.39085,33.74057],[-117.391,33.7402],[-117.39109,33.74008],[-117.39117,33.73996],[-117.39119,33.73982],[-117.39126,33.73976],[-117.39138,33.7397],[-117.39145,33.73962],[-117.39143,33.7395],[-117.39144,33.73939],[-117.39157,33.73924],[-117.39166,33.73911],[-117.39166,33.73898],[-117.39162,33.73889],[-117.39147,33.73875],[-117.39151,33.73868],[-117.3916,33.73861],[-117.39173,33.73862],[-117.39191,33.73868],[-117.39206,33.73867],[-117.3922,33.73861],[-117.39226,33.7385],[-117.39223,33.73841],[-117.39212,33.73833],[-117.39204,33.73824],[-117.39201,33.73813],[-117.39206,33.73806],[-117.39216,33.73802],[-117.39229,33.73796],[-117.39238,33.73786],[-117.39252,33.73774],[-117.3928,33.73747],[-117.39301,33.73735],[-117.39317,33.73724],[-117.39326,33.73708],[-117.39333,33.7369],[-117.39337,33.73643],[-117.39343,33.73633],[-117.39352,33.73631],[-117.3937,33.73632],[-117.39381,33.73632],[-117.3939,33.73627],[-117.39396,33.7362],[-117.39401,33.73614],[-117.39402,33.73606],[-117.39402,33.73589],[-117.39406,33.73582],[-117.39413,33.73573],[-117.39417,33.73568],[-117.3942,33.73559],[-117.39427,33.73551],[-117.39434,33.73542],[-117.3944,33.73537],[-117.39445,33.73529],[-117.39448,33.73522],[-117.39454,33.73513],[-117.39457,33.73505],[-117.39458,33.73499],[-117.39456,33.73494],[-117.39452,33.73488],[-117.39439,33.73478],[-117.3943,33.73471],[-117.39425,33.73463],[-117.39421,33.73453],[-117.39425,33.73439],[-117.39429,33.73435],[-117.39431,33.73428],[-117.39428,33.7342],[-117.39423,33.73411],[-117.39417,33.73393],[-117.39415,33.73386],[-117.39409,33.7338],[-117.3939,33.73369],[-117.39377,33.73351],[-117.39373,33.7334],[-117.39371,33.7333],[-117.39372,33.73318],[-117.39372,33.73307],[-117.3938,33.73278],[-117.39384,33.73264],[-117.39387,33.7325],[-117.39391,33.73215],[-117.39391,33.73205],[-117.39386,33.73189]]}},{"type":"Feature","properties":{"name":"Deerview Drive","road_class":"unclassified","surface":"unpaved","source":"Caltrans All Roads + OpenStreetMap explicit surface","source_detail":"osm way 117144114; Caltrans All Roads public-network geometry match","source_tile":"178/409","public_network_source":"Caltrans All Roads (ARNOLD/HPMS)","surface_source":"OpenStreetMap explicit surface tag","caltrans_match_coverage":1.0,"verified_length_m":1564},"geometry":{"type":"LineString","coordinates":[[-117.18439,33.97912],[-117.18417,33.97902],[-117.18395,33.97899],[-117.18376,33.97903],[-117.18364,33.97911],[-117.18354,33.97923],[-117.18326,33.97982],[-117.18316,33.97997],[-117.18299,33.98011],[-117.18283,33.9802],[-117.18261,33.98023],[-117.18237,33.98021],[-117.18213,33.98017],[-117.18187,33.98002],[-117.18112,33.97951],[-117.18107,33.97937],[-117.18103,33.97921],[-117.18111,33.97894],[-117.18106,33.97877],[-117.18091,33.97859],[-117.1807,33.97854],[-117.18028,33.97836],[-117.18011,33.97817],[-117.17998,33.97795],[-117.17987,33.97736],[-117.17989,33.97683],[-117.17996,33.97639],[-117.18001,33.97626],[-117.18013,33.97612],[-117.18029,33.97603],[-117.18052,33.97595],[-117.18082,33.97591],[-117.18105,33.97593],[-117.18127,33.97599],[-117.1814,33.97611],[-117.18151,33.97625],[-117.18156,33.97646],[-117.1816,33.9766],[-117.18175,33.97671],[-117.18194,33.97676],[-117.18212,33.97675],[-117.18248,33.97665],[-117.18268,33.97668],[-117.18288,33.97675],[-117.18318,33.97703],[-117.18334,33.9771],[-117.18352,33.97712],[-117.18379,33.977],[-117.18482,33.97631],[-117.18513,33.97626],[-117.18536,33.97633],[-117.18561,33.97647],[-117.18627,33.9767],[-117.18665,33.97688]]}},{"type":"Feature","properties":{"name":"Eucalyptus Avenue","road_class":"track","surface":"unpaved","motor_vehicle":"yes","access":"yes","source":"Caltrans All Roads + OpenStreetMap explicit surface","source_detail":"osm way 123559444; Caltrans All Roads public-network geometry match","source_tile":"178/409","public_network_source":"Caltrans All Roads (ARNOLD/HPMS)","surface_source":"OpenStreetMap explicit surface tag","caltrans_match_coverage":1.0,"verified_length_m":1375},"geometry":{"type":"LineString","coordinates":[[-117.13931,33.93298],[-117.1389,33.93297],[-117.13854,33.93297],[-117.13393,33.93292],[-117.12795,33.93284],[-117.12442,33.93281]]}},{"type":"Feature","properties":{"name":"Reche Canyon Road","road_class":"unclassified","surface":"gravel","source":"Caltrans All Roads + OpenStreetMap explicit surface","source_detail":"osm way 606065895; Caltrans All Roads public-network geometry match","source_tile":"178/409","public_network_source":"Caltrans All Roads (ARNOLD/HPMS)","surface_source":"OpenStreetMap explicit surface tag","caltrans_match_coverage":1.0,"verified_length_m":4490},"geometry":{"type":"LineString","coordinates":[[-117.21587,33.98232],[-117.21515,33.98233],[-117.21465,33.98211],[-117.21382,33.98154],[-117.21349,33.98149],[-117.21337,33.98153],[-117.21316,33.9816],[-117.21294,33.98148],[-117.21258,33.98102],[-117.21173,33.98053],[-117.21117,33.98012],[-117.21099,33.97988],[-117.21102,33.9793],[-117.21059,33.9782],[-117.21021,33.97715],[-117.20995,33.9768],[-117.2095,33.97656],[-117.20867,33.97635],[-117.20817,33.97623],[-117.20765,33.97601],[-117.2069,33.9756],[-117.20599,33.97498],[-117.20475,33.97408],[-117.2044,33.97379],[-117.20429,33.97351],[-117.20423,33.97255],[-117.20403,33.97162],[-117.20388,33.97127],[-117.2036,33.97105],[-117.20202,33.97016],[-117.20155,33.96981],[-117.20108,33.96965],[-117.20051,33.96969],[-117.19927,33.97002],[-117.19896,33.96991],[-117.19867,33.96952],[-117.1983,33.96942],[-117.19747,33.96942],[-117.19635,33.96912],[-117.19567,33.96862],[-117.19421,33.96749],[-117.19332,33.96723],[-117.19294,33.96685],[-117.19246,33.96641],[-117.19238,33.96601],[-117.19246,33.96571],[-117.19236,33.96524],[-117.19195,33.9648],[-117.1915,33.96459],[-117.19121,33.96433],[-117.19026,33.96326],[-117.18885,33.96268],[-117.18828,33.96234],[-117.18719,33.96163],[-117.18703,33.96153],[-117.18664,33.96112],[-117.1847,33.95927],[-117.18309,33.95775],[-117.18249,33.95752]]}},{"type":"Feature","properties":{"name":"West County Line Road","road_class":"track","surface":"dirt","source":"Caltrans All Roads + OpenStreetMap explicit surface","source_detail":"osm way 1442918853; Caltrans All Roads public-network geometry match","source_tile":"178/409","public_network_source":"Caltrans All Roads (ARNOLD/HPMS)","surface_source":"OpenStreetMap explicit surface tag","caltrans_match_coverage":1.0,"verified_length_m":1407},"geometry":{"type":"LineString","coordinates":[[-117.09062,33.99956],[-117.09049,33.99973],[-117.09044,33.99983],[-117.09031,33.99998],[-117.09019,34.00009],[-117.09,34.00019],[-117.08975,34.00023],[-117.08957,34.00019],[-117.08912,34.00015],[-117.08895,34.00011],[-117.08884,34.00006],[-117.08867,33.99997],[-117.0885,33.99986],[-117.08792,33.99952],[-117.08776,33.99945],[-117.08753,33.99942],[-117.08727,33.99941],[-117.08684,33.9994],[-117.08644,33.99938],[-117.08628,33.99938],[-117.08599,33.99929],[-117.08534,33.99905],[-117.08505,33.99894],[-117.08488,33.99891],[-117.08472,33.99894],[-117.08453,33.99906],[-117.0844,33.99917],[-117.08423,33.99942],[-117.0841,33.9997],[-117.08366,34.00027],[-117.08333,34.00051],[-117.08309,34.00059],[-117.08259,34.0007],[-117.08239,34.00073],[-117.08217,34.00075],[-117.08186,34.00074],[-117.08157,34.00068],[-117.08129,34.00066],[-117.0811,34.00064],[-117.0809,34.00065],[-117.08069,34.00066],[-117.08049,34.0007],[-117.08024,34.00079],[-117.08015,34.00082],[-117.08,34.00092],[-117.07982,34.00109],[-117.07974,34.00121],[-117.0795,34.00156],[-117.07942,34.00164],[-117.07927,34.00174],[-117.0792,34.00176],[-117.07905,34.00178],[-117.07892,34.00178],[-117.07865,34.00176],[-117.07847,34.00174],[-117.07777,34.00167]]}},{"type":"Feature","properties":{"name":"Holly Drive","road_class":"unclassified","surface":"unpaved","source":"Caltrans All Roads + OpenStreetMap explicit surface","source_detail":"osm way 1448337666; Caltrans All Roads public-network geometry match","source_tile":"178/409","public_network_source":"Caltrans All Roads (ARNOLD/HPMS)","surface_source":"OpenStreetMap explicit surface tag","caltrans_match_coverage":1.0,"verified_length_m":762},"geometry":{"type":"LineString","coordinates":[[-117.2,33.98163],[-117.19985,33.98054],[-117.1998,33.9799],[-117.19975,33.97945],[-117.19975,33.97912],[-117.19979,33.97893],[-117.19983,33.97871],[-117.19987,33.97854],[-117.19995,33.97841],[-117.20007,33.97834],[-117.20021,33.97835],[-117.20037,33.97844],[-117.20052,33.97872],[-117.20064,33.97887],[-117.20076,33.97892],[-117.20095,33.97895],[-117.20109,33.97892],[-117.20125,33.97887],[-117.20142,33.97886],[-117.20164,33.97884],[-117.20177,33.97881],[-117.20198,33.97871],[-117.20208,33.97862],[-117.20222,33.97838],[-117.20221,33.97826],[-117.20214,33.97804],[-117.20207,33.9779],[-117.20206,33.97774],[-117.20207,33.97764],[-117.2021,33.97755],[-117.20213,33.97746],[-117.20224,33.97724]]}}]}