{"type":"FeatureCollection","features":[{"type":"Feature","properties":{"name":"Tenaja Truck Trail","road_class":"unclassified","surface":"unpaved","source":"Caltrans All Roads + OpenStreetMap explicit surface","source_detail":"osm way 7301908; Caltrans All Roads public-network geometry match","source_tile":"178/410","public_network_source":"Caltrans All Roads (ARNOLD/HPMS)","surface_source":"OpenStreetMap explicit surface tag","caltrans_match_coverage":0.959,"verified_length_m":3689},"geometry":{"type":"LineString","coordinates":[[-117.42567,33.61623],[-117.42562,33.61615],[-117.42573,33.61597],[-117.42575,33.61573],[-117.42572,33.61567],[-117.42569,33.61554],[-117.42566,33.61537],[-117.42553,33.61514],[-117.42542,33.61506],[-117.42494,33.61474],[-117.42462,33.61457],[-117.42428,33.61447],[-117.42411,33.61444],[-117.42407,33.61443],[-117.42377,33.61445],[-117.42374,33.61445],[-117.42352,33.61449],[-117.42333,33.61452],[-117.4233,33.61453],[-117.42319,33.61457],[-117.42305,33.6147],[-117.42279,33.61493],[-117.42243,33.6152],[-117.42221,33.61537],[-117.42205,33.61548],[-117.42196,33.61553],[-117.42187,33.61554],[-117.42159,33.61554],[-117.42139,33.61553],[-117.42123,33.61554],[-117.42109,33.61556],[-117.42089,33.61559],[-117.42064,33.61564],[-117.4198,33.61579],[-117.41946,33.61587],[-117.41915,33.61594],[-117.41842,33.61596],[-117.41821,33.6156],[-117.41803,33.61535],[-117.41798,33.6153],[-117.41796,33.6153],[-117.4179,33.61528],[-117.41781,33.61528],[-117.41775,33.61534],[-117.41764,33.61546],[-117.41753,33.61556],[-117.41739,33.61561],[-117.41728,33.61557],[-117.41718,33.61539],[-117.41714,33.61475],[-117.41698,33.61447],[-117.41687,33.61428],[-117.41683,33.61421],[-117.41681,33.61417],[-117.41669,33.61395],[-117.41669,33.61372],[-117.41682,33.61344],[-117.41696,33.61329],[-117.41696,33.61313],[-117.41687,33.61293],[-117.41672,33.61275],[-117.41661,33.6125],[-117.41664,33.61233],[-117.41667,33.61211],[-117.41664,33.61152],[-117.41686,33.61142],[-117.41691,33.61122],[-117.4168,33.61102],[-117.41676,33.6109],[-117.41677,33.61078],[-117.41661,33.61043],[-117.41631,33.6103],[-117.41543,33.61036],[-117.41472,33.61064],[-117.41426,33.61091],[-117.4141,33.61096],[-117.41389,33.6109],[-117.41378,33.61065],[-117.41389,33.61037],[-117.41386,33.61006],[-117.41375,33.60993],[-117.41339,33.60991],[-117.41314,33.61008],[-117.41276,33.61059],[-117.41261,33.61065],[-117.41232,33.61058],[-117.41162,33.6106],[-117.4111,33.61043],[-117.41067,33.61047],[-117.41025,33.61056],[-117.41005,33.61054],[-117.40979,33.61027],[-117.40944,33.60964],[-117.40903,33.60926],[-117.40887,33.60907],[-117.40886,33.60883],[-117.40876,33.60863],[-117.40846,33.6084],[-117.40847,33.60786],[-117.40853,33.60765],[-117.40871,33.60691],[-117.40874,33.60645],[-117.40867,33.6059],[-117.40867,33.60572],[-117.4084,33.60532],[-117.40827,33.60518],[-117.40817,33.60509],[-117.40809,33.60507],[-117.40711,33.60478],[-117.40689,33.60465],[-117.4068,33.60434],[-117.40663,33.60408],[-117.40649,33.60397],[-117.40641,33.60391],[-117.40611,33.60385],[-117.40577,33.6038],[-117.4055,33.60371],[-117.40529,33.60369],[-117.40484,33.60372],[-117.40416,33.60378],[-117.40375,33.60382],[-117.40329,33.60408],[-117.4032,33.60411],[-117.40315,33.60412],[-117.40247,33.60423]]}},{"type":"Feature","properties":{"name":"Santa Margarita Trail","road_class":"track","surface":"dirt","tracktype":"grade2","source":"Caltrans All Roads + OpenStreetMap explicit surface","source_detail":"osm way 5991804; Caltrans All Roads public-network geometry match","source_tile":"178/411","public_network_source":"Caltrans All Roads (ARNOLD/HPMS)","surface_source":"OpenStreetMap explicit surface tag","caltrans_match_coverage":1.0,"verified_length_m":1242},"geometry":{"type":"LineString","coordinates":[[-117.323,33.43071],[-117.32287,33.43104],[-117.32265,33.43136],[-117.32226,33.43165],[-117.32161,33.43195],[-117.32148,33.43204],[-117.32096,33.4324],[-117.32085,33.43252],[-117.3207,33.4327],[-117.32063,33.43278],[-117.32047,33.4329],[-117.31997,33.43314],[-117.31969,33.43318],[-117.3194,33.43317],[-117.3187,33.43302],[-117.31808,33.43286],[-117.31792,33.43284],[-117.31718,33.4329],[-117.31705,33.43296],[-117.31692,33.43305],[-117.31686,33.43308],[-117.31582,33.43333],[-117.31555,33.43338],[-117.31523,33.43338],[-117.31497,33.43337],[-117.3141,33.43338],[-117.31377,33.4333],[-117.31319,33.43326],[-117.31302,33.43327],[-117.31292,33.4333],[-117.31266,33.43339],[-117.31222,33.43349],[-117.31116,33.43363]]}},{"type":"Feature","properties":{"name":"(unnamed public road)","road_class":"unclassified","surface":"unpaved","source":"Caltrans All Roads + OpenStreetMap explicit surface","source_detail":"osm way 7051749; Caltrans All Roads public-network geometry match","source_tile":"178/410","public_network_source":"Caltrans All Roads (ARNOLD/HPMS)","surface_source":"OpenStreetMap explicit surface tag","caltrans_match_coverage":1.0,"verified_length_m":546},"geometry":{"type":"LineString","coordinates":[[-117.40005,33.59772],[-117.40013,33.59802],[-117.40041,33.59856],[-117.40043,33.59875],[-117.4004,33.59887],[-117.40037,33.59909],[-117.40041,33.59937],[-117.40052,33.59948],[-117.40072,33.59963],[-117.40108,33.5998],[-117.40125,33.59989],[-117.40134,33.59999],[-117.40128,33.60015],[-117.40117,33.6005],[-117.40107,33.60107],[-117.4011,33.6013],[-117.40102,33.60149],[-117.40101,33.6017],[-117.40106,33.60217]]}},{"type":"Feature","properties":{"name":"Dagget Creek Path","road_class":"track","surface":"dirt","source":"Caltrans All Roads + OpenStreetMap explicit surface","source_detail":"osm way 7076951; Caltrans All Roads public-network geometry match","source_tile":"178/410","public_network_source":"Caltrans All Roads (ARNOLD/HPMS)","surface_source":"OpenStreetMap explicit surface tag","caltrans_match_coverage":1.0,"verified_length_m":849},"geometry":{"type":"LineString","coordinates":[[-117.2244,33.71703],[-117.22442,33.71724],[-117.22443,33.71745],[-117.2245,33.71775],[-117.22447,33.71798],[-117.22472,33.71814],[-117.22505,33.71826],[-117.22467,33.71925],[-117.22473,33.71969],[-117.2249,33.71997],[-117.2253,33.72026],[-117.22555,33.72053],[-117.22556,33.72072],[-117.22537,33.72099],[-117.22493,33.72179],[-117.22461,33.7224],[-117.22446,33.72307],[-117.2249,33.72361],[-117.22505,33.72375]]}},{"type":"Feature","properties":{"name":"Lesser Lane","road_class":"track","surface":"dirt","source":"Caltrans All Roads + OpenStreetMap explicit surface","source_detail":"osm way 7101506; Caltrans All Roads public-network geometry match","source_tile":"178/410","public_network_source":"Caltrans All Roads (ARNOLD/HPMS)","surface_source":"OpenStreetMap explicit surface tag","caltrans_match_coverage":0.99,"verified_length_m":1491},"geometry":{"type":"LineString","coordinates":[[-117.23416,33.72051],[-117.23388,33.72065],[-117.23369,33.72071],[-117.23304,33.72087],[-117.23261,33.72018],[-117.23174,33.71974],[-117.23102,33.71931],[-117.23091,33.71884],[-117.23138,33.71817],[-117.23181,33.71781],[-117.23176,33.7174],[-117.23188,33.71717],[-117.23175,33.71661],[-117.23088,33.71641],[-117.23041,33.71648],[-117.23005,33.71657],[-117.22969,33.71679],[-117.22873,33.71675],[-117.22871,33.71654],[-117.2287,33.71614],[-117.2285,33.71597],[-117.2277,33.71604],[-117.22655,33.71644],[-117.2258,33.71661],[-117.22529,33.71678],[-117.22467,33.71697],[-117.2244,33.71703]]}},{"type":"Feature","properties":{"name":"Leach Canyon Road","road_class":"unclassified","surface":"unpaved","source":"Caltrans All Roads + OpenStreetMap explicit surface","source_detail":"osm way 7157451; Caltrans All Roads public-network geometry match","source_tile":"178/410","public_network_source":"Caltrans All Roads (ARNOLD/HPMS)","surface_source":"OpenStreetMap explicit surface tag","caltrans_match_coverage":1.0,"verified_length_m":722},"geometry":{"type":"LineString","coordinates":[[-117.41882,33.67376],[-117.41937,33.67385],[-117.41982,33.67385],[-117.41993,33.67397],[-117.41995,33.67416],[-117.41987,33.67436],[-117.41921,33.67471],[-117.41914,33.67477],[-117.41878,33.67555],[-117.4184,33.67649],[-117.41817,33.67684],[-117.41812,33.67694],[-117.41819,33.67703],[-117.41848,33.677],[-117.41872,33.67691],[-117.41902,33.67695],[-117.41915,33.67706],[-117.4193,33.67709],[-117.41951,33.6769],[-117.41964,33.67703],[-117.41968,33.6772],[-117.41942,33.67747]]}},{"type":"Feature","properties":{"name":"Wickerd Road","road_class":"track","surface":"unpaved","source":"Caltrans All Roads + OpenStreetMap explicit surface","source_detail":"osm way 7179861; Caltrans All Roads public-network geometry match","source_tile":"178/410","public_network_source":"Caltrans All Roads (ARNOLD/HPMS)","surface_source":"OpenStreetMap explicit surface tag","caltrans_match_coverage":1.0,"verified_length_m":609},"geometry":{"type":"LineString","coordinates":[[-117.2235,33.64882],[-117.22307,33.6487],[-117.22238,33.64868],[-117.22158,33.64854],[-117.2213,33.64855],[-117.22103,33.64858],[-117.22017,33.64863],[-117.21988,33.64873],[-117.21935,33.64877],[-117.21912,33.64877],[-117.21822,33.6488],[-117.217,33.64882]]}},{"type":"Feature","properties":{"name":"Los Alamos Truck Trail","road_class":"track","surface":"dirt","tracktype":"grade3","source":"Caltrans All Roads + OpenStreetMap explicit surface","source_detail":"osm way 7276414; Caltrans All Roads public-network geometry match","source_tile":"178/410","public_network_source":"Caltrans All Roads (ARNOLD/HPMS)","surface_source":"OpenStreetMap explicit surface tag","caltrans_match_coverage":1.0,"verified_length_m":801},"geometry":{"type":"LineString","coordinates":[[-117.33317,33.58563],[-117.333,33.58567],[-117.33273,33.58562],[-117.33256,33.58564],[-117.33241,33.58587],[-117.33222,33.58586],[-117.33203,33.58591],[-117.33201,33.58615],[-117.33193,33.58627],[-117.33195,33.58644],[-117.33185,33.58671],[-117.33139,33.58684],[-117.33126,33.58703],[-117.33033,33.58758],[-117.32972,33.58807],[-117.32927,33.58821],[-117.32918,33.58884],[-117.3295,33.5891],[-117.3301,33.58921],[-117.33044,33.58918],[-117.33069,33.58935],[-117.33103,33.58945],[-117.33126,33.58957]]}},{"type":"Feature","properties":{"name":"Los Alamos Truck Trail","road_class":"track","surface":"dirt","tracktype":"grade3","source":"Caltrans All Roads + OpenStreetMap explicit surface","source_detail":"osm way 7276448; Caltrans All Roads public-network geometry match","source_tile":"178/410","public_network_source":"Caltrans All Roads (ARNOLD/HPMS)","surface_source":"OpenStreetMap explicit surface tag","caltrans_match_coverage":1.0,"verified_length_m":1526},"geometry":{"type":"LineString","coordinates":[[-117.32734,33.57646],[-117.32754,33.57678],[-117.32752,33.57701],[-117.3275,33.57747],[-117.32766,33.57766],[-117.32779,33.57776],[-117.32779,33.57785],[-117.32754,33.57798],[-117.32749,33.57834],[-117.32758,33.57853],[-117.32759,33.57867],[-117.32768,33.57882],[-117.32775,33.57912],[-117.32785,33.57924],[-117.32813,33.57928],[-117.32836,33.57939],[-117.32873,33.57935],[-117.32881,33.57944],[-117.32879,33.57963],[-117.3288,33.57984],[-117.32866,33.57993],[-117.3285,33.58015],[-117.32831,33.58024],[-117.32818,33.58038],[-117.32825,33.58057],[-117.32834,33.58077],[-117.3283,33.58101],[-117.32838,33.58126],[-117.3285,33.58156],[-117.32868,33.58176],[-117.32898,33.58194],[-117.3292,33.58191],[-117.32928,33.58184],[-117.32938,33.58183],[-117.32968,33.58219],[-117.32985,33.58221],[-117.33006,33.58214],[-117.33024,33.58224],[-117.33041,33.58225],[-117.33048,33.58246],[-117.33053,33.58259],[-117.33064,33.58268],[-117.33083,33.58303],[-117.33093,33.58307],[-117.33104,33.5831],[-117.3311,33.58332],[-117.33122,33.58343],[-117.33149,33.58362],[-117.33155,33.58362],[-117.33181,33.58361],[-117.33199,33.58364],[-117.33241,33.58357],[-117.33253,33.58362],[-117.33249,33.58379],[-117.3327,33.58388],[-117.33314,33.58387],[-117.3332,33.58408],[-117.33367,33.58451],[-117.33355,33.58481],[-117.33338,33.58503],[-117.3332,33.58521],[-117.33317,33.58563]]}},{"type":"Feature","properties":{"name":"Stage Road","road_class":"track","surface":"dirt","source":"Caltrans All Roads + OpenStreetMap explicit surface","source_detail":"osm way 7286670; Caltrans All Roads public-network geometry match","source_tile":"178/410","public_network_source":"Caltrans All Roads (ARNOLD/HPMS)","surface_source":"OpenStreetMap explicit surface tag","caltrans_match_coverage":1.0,"verified_length_m":2503},"geometry":{"type":"LineString","coordinates":[[-117.30103,33.58821],[-117.30057,33.58836],[-117.30052,33.58839],[-117.3005,33.58842],[-117.30047,33.58845],[-117.3004,33.58864],[-117.30019,33.58911],[-117.30015,33.58923],[-117.30014,33.58933],[-117.3001,33.58941],[-117.30004,33.58948],[-117.29999,33.58955],[-117.29997,33.58961],[-117.29997,33.58972],[-117.29996,33.58979],[-117.29993,33.58986],[-117.29986,33.58993],[-117.29978,33.58999],[-117.2997,33.59],[-117.29961,33.58999],[-117.29951,33.58997],[-117.29935,33.58996],[-117.29905,33.58998],[-117.29895,33.58998],[-117.29883,33.58998],[-117.29877,33.58997],[-117.29873,33.58996],[-117.29869,33.58994],[-117.29854,33.58973],[-117.2985,33.5897],[-117.29844,33.58969],[-117.29837,33.58968],[-117.29823,33.58971],[-117.2982,33.58971],[-117.29814,33.58969],[-117.29807,33.58965],[-117.29801,33.58962],[-117.29794,33.58961],[-117.29785,33.58964],[-117.29772,33.58973],[-117.29767,33.58975],[-117.29761,33.58975],[-117.29756,33.58973],[-117.29744,33.58958],[-117.29734,33.5895],[-117.29727,33.58947],[-117.29719,33.58947],[-117.29714,33.5895],[-117.29711,33.58954],[-117.29708,33.58961],[-117.29707,33.58967],[-117.29708,33.58983],[-117.29709,33.58995],[-117.29707,33.59002],[-117.29699,33.59014],[-117.29686,33.59021],[-117.29673,33.59022],[-117.29638,33.59013],[-117.29629,33.59011],[-117.29615,33.5901],[-117.29606,33.59014],[-117.29601,33.59019],[-117.29599,33.59026],[-117.29595,33.59037],[-117.29588,33.59043],[-117.29581,33.59045],[-117.29561,33.59043],[-117.29548,33.59044],[-117.29537,33.59046],[-117.29527,33.59045],[-117.29515,33.59043],[-117.29506,33.59043],[-117.29503,33.59044],[-117.29498,33.59047],[-117.2949,33.59054],[-117.29485,33.59062],[-117.29479,33.59078],[-117.29474,33.59085],[-117.29467,33.59092],[-117.29457,33.59099],[-117.29419,33.59116],[-117.29412,33.59121],[-117.29407,33.59129],[-117.29405,33.59136],[-117.29407,33.5914],[-117.29412,33.59145],[-117.29419,33.5915],[-117.29426,33.59155],[-117.2943,33.59163],[-117.29435,33.59175],[-117.29444,33.59185],[-117.29454,33.59192],[-117.29463,33.59194],[-117.29478,33.59193],[-117.29487,33.59193],[-117.29496,33.59196],[-117.29506,33.59204],[-117.2951,33.5921],[-117.29512,33.59217],[-117.29515,33.59228],[-117.29521,33.59238],[-117.29527,33.59253],[-117.2953,33.59261],[-117.29526,33.59268],[-117.2952,33.59272],[-117.29484,33.59274],[-117.29475,33.59276],[-117.2947,33.59281],[-117.29468,33.59289],[-117.29474,33.59297],[-117.29516,33.59314],[-117.29523,33.59318],[-117.29527,33.59322],[-117.29527,33.59329],[-117.29521,33.5934],[-117.29515,33.59352],[-117.29514,33.5936],[-117.29517,33.59369],[-117.29523,33.59376],[-117.2953,33.59379],[-117.29543,33.59379],[-117.29561,33.59379],[-117.29576,33.59375],[-117.29599,33.59361],[-117.29612,33.59354],[-117.29625,33.59349],[-117.29637,33.59346],[-117.29649,33.59342],[-117.29663,33.59334],[-117.29676,33.59329],[-117.2969,33.59325],[-117.29703,33.59318],[-117.2972,33.59305],[-117.29724,33.59302],[-117.29729,33.593],[-117.29734,33.593],[-117.29738,33.593],[-117.29744,33.59303],[-117.29748,33.59307],[-117.29753,33.59314],[-117.29756,33.5933],[-117.29757,33.59339],[-117.2976,33.59346],[-117.29765,33.59353],[-117.29773,33.59357],[-117.29784,33.59359],[-117.29841,33.59352],[-117.29857,33.59349],[-117.29866,33.59345],[-117.29878,33.59336],[-117.29883,33.59335],[-117.29889,33.59335],[-117.29893,33.59337],[-117.29899,33.59344],[-117.29908,33.59351],[-117.29916,33.59354],[-117.29937,33.5936],[-117.29943,33.59361],[-117.2995,33.59365],[-117.29961,33.59374],[-117.29989,33.59391],[-117.30003,33.59398],[-117.30013,33.59403],[-117.30027,33.59404],[-117.30038,33.59406],[-117.30048,33.59409],[-117.30074,33.59422],[-117.30097,33.59429],[-117.30109,33.5943],[-117.30136,33.59423],[-117.3015,33.5942],[-117.30167,33.59412],[-117.30176,33.5941],[-117.30185,33.59411],[-117.30194,33.59414],[-117.302,33.5942],[-117.302,33.59427],[-117.30195,33.59441],[-117.3019,33.59452],[-117.30185,33.59461],[-117.3018,33.59466],[-117.30168,33.5947],[-117.30158,33.59477],[-117.30156,33.59484],[-117.30157,33.59491],[-117.3016,33.59497],[-117.30169,33.59502],[-117.30181,33.59508],[-117.30184,33.59513],[-117.30185,33.59519],[-117.30185,33.59525],[-117.30173,33.59549],[-117.30167,33.59557],[-117.3016,33.5956],[-117.30154,33.59561],[-117.30143,33.5956],[-117.30136,33.59556],[-117.30123,33.59553],[-117.30115,33.59554],[-117.30102,33.59558],[-117.3008,33.59562],[-117.30066,33.59565],[-117.30055,33.59569],[-117.3005,33.59573],[-117.30046,33.59585],[-117.30045,33.59593],[-117.30048,33.59604],[-117.30053,33.59613],[-117.30055,33.59621],[-117.30054,33.59641],[-117.30052,33.5965],[-117.30048,33.59656],[-117.3004,33.5966]]}},{"type":"Feature","properties":{"name":"Craig Avenue","road_class":"track","surface":"dirt","tracktype":"grade1","source":"Caltrans All Roads + OpenStreetMap explicit surface","source_detail":"osm way 7313403; Caltrans All Roads public-network geometry match","source_tile":"178/410","public_network_source":"Caltrans All Roads (ARNOLD/HPMS)","surface_source":"OpenStreetMap explicit surface tag","caltrans_match_coverage":1.0,"verified_length_m":2407},"geometry":{"type":"LineString","coordinates":[[-117.11077,33.66343],[-117.1064,33.66343],[-117.104,33.66347],[-117.10333,33.6635],[-117.10304,33.66353],[-117.10271,33.66357],[-117.10237,33.66357],[-117.10198,33.66349],[-117.10152,33.66347],[-117.09852,33.66347],[-117.09301,33.66349],[-117.09296,33.66349],[-117.09165,33.66342],[-117.09094,33.66342],[-117.08908,33.66343],[-117.08804,33.66343],[-117.08516,33.66345],[-117.08481,33.66345]]}},{"type":"Feature","properties":{"name":"Scenic View Drive","road_class":"track","surface":"dirt","source":"Caltrans All Roads + OpenStreetMap explicit surface","source_detail":"osm way 44415881; Caltrans All Roads public-network geometry match","source_tile":"178/410","public_network_source":"Caltrans All Roads (ARNOLD/HPMS)","surface_source":"OpenStreetMap explicit surface tag","caltrans_match_coverage":0.924,"verified_length_m":1487},"geometry":{"type":"LineString","coordinates":[[-117.17994,33.61218],[-117.17993,33.61241],[-117.17988,33.61248],[-117.17934,33.6125],[-117.17899,33.61262],[-117.17877,33.61286],[-117.17857,33.61322],[-117.17843,33.61363],[-117.17825,33.61388],[-117.17796,33.61412],[-117.1777,33.61437],[-117.17747,33.61474],[-117.17738,33.61493],[-117.1772,33.61529],[-117.17694,33.61589],[-117.17674,33.61625],[-117.17655,33.61666],[-117.17644,33.61692],[-117.17635,33.61704],[-117.17613,33.61714],[-117.17593,33.61715],[-117.17572,33.61706],[-117.17558,33.61704],[-117.17538,33.61709],[-117.17529,33.61718],[-117.17517,33.6173],[-117.17505,33.61744],[-117.17505,33.61761],[-117.17511,33.61779],[-117.17511,33.61805],[-117.17502,33.61823],[-117.17456,33.61875],[-117.1737,33.61952],[-117.17328,33.62008],[-117.1732,33.62028],[-117.17306,33.62043],[-117.17295,33.62051],[-117.17274,33.62067],[-117.17241,33.62099],[-117.17202,33.6215],[-117.17175,33.62188],[-117.17158,33.62225],[-117.17158,33.6225]]}},{"type":"Feature","properties":{"name":"Wildomar Truck Trail","road_class":"track","surface":"dirt","source":"Caltrans All Roads + OpenStreetMap explicit surface","source_detail":"osm way 109138061; Caltrans All Roads public-network geometry match","source_tile":"178/410","public_network_source":"Caltrans All Roads (ARNOLD/HPMS)","surface_source":"OpenStreetMap explicit surface tag","caltrans_match_coverage":1.0,"verified_length_m":3221},"geometry":{"type":"LineString","coordinates":[[-117.32828,33.59733],[-117.32828,33.59741],[-117.32824,33.59746],[-117.32817,33.59749],[-117.32804,33.59754],[-117.32789,33.59753],[-117.3278,33.59749],[-117.32768,33.59741],[-117.32757,33.59732],[-117.32745,33.59725],[-117.32729,33.59723],[-117.32713,33.59723],[-117.32699,33.59726],[-117.3269,33.59731],[-117.32683,33.59739],[-117.32674,33.59747],[-117.32662,33.59751],[-117.32638,33.59755],[-117.32602,33.59767],[-117.32566,33.59781],[-117.32547,33.59787],[-117.32518,33.59801],[-117.32498,33.5981],[-117.32482,33.59815],[-117.32468,33.59816],[-117.32456,33.5981],[-117.32448,33.59803],[-117.32438,33.59795],[-117.32427,33.59789],[-117.3241,33.59785],[-117.32394,33.59778],[-117.32386,33.59772],[-117.32378,33.59762],[-117.32373,33.59753],[-117.32368,33.59748],[-117.32363,33.59749],[-117.32359,33.59753],[-117.32357,33.5976],[-117.32355,33.5977],[-117.32346,33.59781],[-117.32336,33.59789],[-117.32321,33.59795],[-117.32305,33.59801],[-117.323,33.59804],[-117.32296,33.5981],[-117.32285,33.59825],[-117.3228,33.59832],[-117.32272,33.59834],[-117.32263,33.59834],[-117.32253,33.59837],[-117.32238,33.59843],[-117.32224,33.59849],[-117.32213,33.59853],[-117.322,33.59852],[-117.32188,33.59852],[-117.32178,33.59852],[-117.32166,33.59857],[-117.32153,33.59862],[-117.3214,33.59862],[-117.32124,33.5986],[-117.32107,33.59855],[-117.32094,33.59852],[-117.32085,33.59848],[-117.32077,33.59842],[-117.3207,33.59838],[-117.32061,33.59835],[-117.32054,33.59837],[-117.32048,33.59842],[-117.32045,33.59852],[-117.32041,33.5986],[-117.32032,33.59864],[-117.32011,33.59872],[-117.32004,33.59872],[-117.31993,33.59867],[-117.31978,33.5986],[-117.31967,33.59852],[-117.31963,33.59845],[-117.31959,33.59838],[-117.31952,33.5983],[-117.31943,33.59824],[-117.31933,33.5982],[-117.31916,33.59818],[-117.31908,33.59822],[-117.31893,33.5983],[-117.31884,33.59833],[-117.31873,33.59834],[-117.31863,33.59838],[-117.31853,33.59845],[-117.31844,33.59856],[-117.31839,33.59871],[-117.31837,33.59884],[-117.3184,33.59905],[-117.3184,33.59919],[-117.31835,33.59933],[-117.31828,33.59946],[-117.31815,33.59964],[-117.31802,33.59977],[-117.31791,33.59986],[-117.31778,33.59994],[-117.3177,33.60001],[-117.31762,33.60008],[-117.31748,33.60022],[-117.31734,33.60033],[-117.31721,33.60038],[-117.31706,33.60039],[-117.31682,33.6004],[-117.31664,33.60043],[-117.3165,33.60046],[-117.31639,33.60045],[-117.31623,33.60041],[-117.31604,33.60036],[-117.31589,33.60033],[-117.31572,33.60028],[-117.3155,33.60021],[-117.3152,33.60012],[-117.31493,33.60003],[-117.31474,33.59993],[-117.31465,33.59985],[-117.3146,33.59977],[-117.3145,33.59953],[-117.31443,33.59941],[-117.31437,33.59927],[-117.31431,33.59911],[-117.31428,33.59899],[-117.31424,33.59887],[-117.31419,33.59877],[-117.31412,33.59873],[-117.314,33.59869],[-117.31381,33.59866],[-117.31367,33.59864],[-117.31346,33.59867],[-117.3133,33.59867],[-117.31313,33.59866],[-117.313,33.59866],[-117.31278,33.59871],[-117.31252,33.5988],[-117.31234,33.59888],[-117.31216,33.59895],[-117.31207,33.59904],[-117.31204,33.59917],[-117.31202,33.59927],[-117.31197,33.59932],[-117.31188,33.59934],[-117.31176,33.59931],[-117.31164,33.59924],[-117.31153,33.59919],[-117.31139,33.59915],[-117.31126,33.59913],[-117.31113,33.5991],[-117.31104,33.59905],[-117.31094,33.59899],[-117.31081,33.59894],[-117.31068,33.5989],[-117.31059,33.59887],[-117.31054,33.59881],[-117.31049,33.59875],[-117.31044,33.59871],[-117.31037,33.59871],[-117.31031,33.59874],[-117.31028,33.5988],[-117.31028,33.59885],[-117.31031,33.59895],[-117.31034,33.59905],[-117.31032,33.59915],[-117.31025,33.59929],[-117.31016,33.59943],[-117.31006,33.59952],[-117.30995,33.59957],[-117.30985,33.59957],[-117.30971,33.59954],[-117.30962,33.5995],[-117.30953,33.59944],[-117.30946,33.59939],[-117.30938,33.59937],[-117.30925,33.59941],[-117.30911,33.59943],[-117.30902,33.59941],[-117.30894,33.59936],[-117.30891,33.59931],[-117.30891,33.5992],[-117.3089,33.5991],[-117.30887,33.59901],[-117.30883,33.59894],[-117.30878,33.59888],[-117.30873,33.59883],[-117.30862,33.59879],[-117.30853,33.59874],[-117.3085,33.5987],[-117.30851,33.5986],[-117.30851,33.59851],[-117.30851,33.59844],[-117.30846,33.59833],[-117.30839,33.59825],[-117.3083,33.59821],[-117.30821,33.59822],[-117.30811,33.59828],[-117.30797,33.59837],[-117.30783,33.59849],[-117.30771,33.59856],[-117.30758,33.59858],[-117.30736,33.59856],[-117.3072,33.59857],[-117.30701,33.59859],[-117.30686,33.59858],[-117.30652,33.59854],[-117.30631,33.5985],[-117.30621,33.59847],[-117.30616,33.5984],[-117.30613,33.59834],[-117.30614,33.59824],[-117.30616,33.59815],[-117.30618,33.59806],[-117.30618,33.59796],[-117.30615,33.59787],[-117.30609,33.59779],[-117.30601,33.59772],[-117.30599,33.59768],[-117.30601,33.59759],[-117.30605,33.59751],[-117.30606,33.59742],[-117.30603,33.59733],[-117.30599,33.59725],[-117.30594,33.59719],[-117.30586,33.59716],[-117.30574,33.59715],[-117.3056,33.59714],[-117.30552,33.59711],[-117.30548,33.59707],[-117.30544,33.59698],[-117.30541,33.59692],[-117.30534,33.59692],[-117.30527,33.59693],[-117.30504,33.59708],[-117.30494,33.59711],[-117.30488,33.59709],[-117.30485,33.59709],[-117.30473,33.59705],[-117.30464,33.59704],[-117.30452,33.59703],[-117.30443,33.59703],[-117.30439,33.59711],[-117.30439,33.59722],[-117.30434,33.59734],[-117.30425,33.59744],[-117.30403,33.59758],[-117.30397,33.5976],[-117.30389,33.59764],[-117.30374,33.59767],[-117.30357,33.59768],[-117.30336,33.59765],[-117.30318,33.59763],[-117.3031,33.5976],[-117.30307,33.59758],[-117.30304,33.59757]]}},{"type":"Feature","properties":{"name":"Elsinore Peak Access Road","road_class":"track","surface":"unpaved","source":"Caltrans All Roads + OpenStreetMap explicit surface","source_detail":"osm way 330550121; Caltrans All Roads public-network geometry match","source_tile":"178/410","public_network_source":"Caltrans All Roads (ARNOLD/HPMS)","surface_source":"OpenStreetMap explicit surface tag","caltrans_match_coverage":1.0,"verified_length_m":802},"geometry":{"type":"LineString","coordinates":[[-117.34945,33.59928],[-117.34925,33.59936],[-117.34903,33.59944],[-117.34866,33.59952],[-117.34846,33.59955],[-117.34834,33.59955],[-117.34822,33.59951],[-117.34802,33.59942],[-117.34788,33.59935],[-117.34772,33.59932],[-117.3475,33.59931],[-117.34726,33.59931],[-117.34713,33.59932],[-117.34704,33.59936],[-117.34672,33.59955],[-117.34658,33.59961],[-117.34611,33.59973],[-117.34598,33.59978],[-117.3459,33.59983],[-117.3457,33.60005],[-117.3456,33.60016],[-117.34553,33.60021],[-117.34545,33.60023],[-117.34533,33.60024],[-117.34525,33.60022],[-117.34515,33.60017],[-117.34505,33.60011],[-117.3449,33.60005],[-117.34482,33.60004],[-117.34473,33.60004],[-117.34464,33.60006],[-117.34456,33.60009],[-117.34446,33.60013],[-117.34434,33.60019],[-117.34426,33.60025],[-117.34417,33.60033],[-117.34409,33.60043],[-117.344,33.60056],[-117.34397,33.60061],[-117.34394,33.6007],[-117.34391,33.6008],[-117.34386,33.60102],[-117.34383,33.60127],[-117.34381,33.60136],[-117.34381,33.60144],[-117.34381,33.6015],[-117.34382,33.60157],[-117.34384,33.60162],[-117.34389,33.60168],[-117.34397,33.60175],[-117.34404,33.60179],[-117.3441,33.60187],[-117.3441,33.60192],[-117.34405,33.60199],[-117.34395,33.60215],[-117.34392,33.6022],[-117.34388,33.60223],[-117.34378,33.60225],[-117.34369,33.60226]]}},{"type":"Feature","properties":{"name":"Calle Callado","road_class":"unclassified","surface":"unpaved","source":"Caltrans All Roads + OpenStreetMap explicit surface","source_detail":"osm way 639519945; Caltrans All Roads public-network geometry match","source_tile":"178/410","public_network_source":"Caltrans All Roads (ARNOLD/HPMS)","surface_source":"OpenStreetMap explicit surface tag","caltrans_match_coverage":1.0,"verified_length_m":901},"geometry":{"type":"LineString","coordinates":[[-117.35117,33.4904],[-117.35084,33.4913],[-117.3505,33.49194],[-117.35037,33.49223],[-117.35039,33.49264],[-117.3505,33.49289],[-117.35089,33.49333],[-117.35116,33.49364],[-117.35122,33.49402],[-117.3512,33.49479],[-117.35133,33.49522],[-117.35153,33.49543],[-117.35196,33.49578],[-117.35218,33.49598],[-117.35228,33.49679],[-117.35227,33.49753],[-117.35244,33.4979]]}},{"type":"Feature","properties":{"name":"Toft Drive","road_class":"unclassified","surface":"unpaved","source":"Caltrans All Roads + OpenStreetMap explicit surface","source_detail":"osm way 933660591; Caltrans All Roads public-network geometry match","source_tile":"178/410","public_network_source":"Caltrans All Roads (ARNOLD/HPMS)","surface_source":"OpenStreetMap explicit surface tag","caltrans_match_coverage":1.0,"verified_length_m":1472},"geometry":{"type":"LineString","coordinates":[[-117.40446,33.67371],[-117.40451,33.67371],[-117.40514,33.67373],[-117.40586,33.67381],[-117.40663,33.67408],[-117.40712,33.6744],[-117.40743,33.6747],[-117.40788,33.67492],[-117.40821,33.67489],[-117.40847,33.67496],[-117.40917,33.67506],[-117.40941,33.67502],[-117.40986,33.67483],[-117.41051,33.67433],[-117.41083,33.6742],[-117.41146,33.67416],[-117.4118,33.67409],[-117.41202,33.67406],[-117.41226,33.67414],[-117.41352,33.67439],[-117.41395,33.67443],[-117.41532,33.67428],[-117.41574,33.6743],[-117.41595,33.67428],[-117.41612,33.67403],[-117.41629,33.67383],[-117.41645,33.67378],[-117.41663,33.67388],[-117.41685,33.67406],[-117.41709,33.6741],[-117.41729,33.67403],[-117.41761,33.67377],[-117.41786,33.67363],[-117.41803,33.67362],[-117.41841,33.67374],[-117.41882,33.67376]]}}]}