{"type":"FeatureCollection","features":[{"type":"Feature","properties":{"name":"East 17th Street","road_class":"unclassified","surface":"unpaved","source":"Caltrans All Roads + OpenStreetMap explicit surface","source_detail":"osm way 6050298; Caltrans All Roads public-network geometry match","source_tile":"178/413","public_network_source":"Caltrans All Roads (ARNOLD/HPMS)","surface_source":"OpenStreetMap explicit surface tag","caltrans_match_coverage":1.0,"verified_length_m":571},"geometry":{"type":"LineString","coordinates":[[-117.07697,32.67564],[-117.07156,32.67712],[-117.07117,32.67723]]}}]}