{"type":"FeatureCollection","features":[{"type":"Feature","properties":{"name":"Huffmaster Road","road_class":"unclassified","surface":"gravel","source":"Caltrans All Roads + OpenStreetMap explicit surface","source_detail":"osm way 10310156; Caltrans All Roads public-network geometry match","source_tile":"164/390","public_network_source":"Caltrans All Roads (ARNOLD/HPMS)","surface_source":"OpenStreetMap explicit surface tag","caltrans_match_coverage":1.0,"verified_length_m":14212},"geometry":{"type":"LineString","coordinates":[[-122.40103,39.21096],[-122.40085,39.21099],[-122.40082,39.21101],[-122.40079,39.21104],[-122.40078,39.21108],[-122.40077,39.21113],[-122.40077,39.21118],[-122.40084,39.21146],[-122.40083,39.21153],[-122.40081,39.21159],[-122.40077,39.21166],[-122.40045,39.21205],[-122.40013,39.21241],[-122.40007,39.21249],[-122.40003,39.21256],[-122.4,39.21264],[-122.39999,39.21272],[-122.4,39.21333],[-122.4,39.21384],[-122.39999,39.21399],[-122.39996,39.2141],[-122.39992,39.21421],[-122.39984,39.21434],[-122.39977,39.21449],[-122.39972,39.21483],[-122.39968,39.21522],[-122.39955,39.2156],[-122.39952,39.21566],[-122.39949,39.21571],[-122.39945,39.21576],[-122.3994,39.2158],[-122.39934,39.21584],[-122.39928,39.21588],[-122.39897,39.21602],[-122.39874,39.21611],[-122.39867,39.21614],[-122.39861,39.21618],[-122.39845,39.2163],[-122.3983,39.21648],[-122.39795,39.2168],[-122.39764,39.21711],[-122.39756,39.21717],[-122.39746,39.21726],[-122.39738,39.21735],[-122.3973,39.21746],[-122.39725,39.21756],[-122.39705,39.21796],[-122.39663,39.21897],[-122.39659,39.21909],[-122.39647,39.21958],[-122.39629,39.22007],[-122.39624,39.22014],[-122.39618,39.22021],[-122.39611,39.22028],[-122.39603,39.22034],[-122.39594,39.22039],[-122.39587,39.22042],[-122.39537,39.22075],[-122.39529,39.22078],[-122.3952,39.22082],[-122.3951,39.22084],[-122.395,39.22086],[-122.39487,39.22087],[-122.39478,39.22089],[-122.39472,39.22091],[-122.39465,39.22093],[-122.39459,39.22096],[-122.39454,39.22099],[-122.39444,39.22107],[-122.39441,39.22111],[-122.39422,39.22136],[-122.39408,39.22152],[-122.39396,39.22163],[-122.39379,39.22175],[-122.3936,39.22191],[-122.39325,39.22232],[-122.39318,39.22238],[-122.3931,39.22243],[-122.39194,39.22285],[-122.39182,39.22288],[-122.3917,39.2229],[-122.39157,39.22292],[-122.39144,39.22292],[-122.39131,39.22291],[-122.39117,39.22289],[-122.39046,39.22274],[-122.38988,39.22261],[-122.38961,39.22257],[-122.38939,39.22256],[-122.38916,39.22257],[-122.38884,39.22261],[-122.38843,39.2227],[-122.38803,39.22287],[-122.38795,39.2229],[-122.38781,39.22295],[-122.38767,39.22299],[-122.38752,39.22302],[-122.38736,39.22304],[-122.38721,39.22304],[-122.38657,39.22301],[-122.38646,39.22301],[-122.38637,39.22303],[-122.3863,39.22304],[-122.38622,39.22307],[-122.38614,39.22312],[-122.38594,39.22324],[-122.38565,39.22342],[-122.38555,39.22348],[-122.38543,39.22353],[-122.38532,39.22357],[-122.38516,39.22361],[-122.38487,39.22367],[-122.38459,39.22374],[-122.38396,39.22393],[-122.38341,39.2241],[-122.38292,39.22423],[-122.38253,39.22431],[-122.38232,39.22434],[-122.38202,39.22435],[-122.38134,39.22437],[-122.38069,39.22438],[-122.38048,39.22437],[-122.38013,39.22434],[-122.37926,39.22421],[-122.37905,39.22416],[-122.37885,39.2241],[-122.37811,39.22379],[-122.37758,39.22353],[-122.37728,39.2234],[-122.37713,39.22336],[-122.37698,39.22332],[-122.37686,39.22331],[-122.37646,39.22328],[-122.37587,39.22324],[-122.37543,39.22319],[-122.37506,39.22314],[-122.37446,39.22304],[-122.37365,39.22288],[-122.37339,39.22284],[-122.37327,39.22281],[-122.37294,39.22271],[-122.37279,39.2227],[-122.37272,39.22269],[-122.37263,39.2227],[-122.37255,39.22273],[-122.37246,39.22277],[-122.37237,39.22283],[-122.37215,39.22302],[-122.37208,39.22308],[-122.372,39.22312],[-122.37192,39.22316],[-122.37184,39.22319],[-122.37179,39.2232],[-122.37105,39.22336],[-122.37005,39.22354],[-122.36942,39.22364],[-122.3692,39.22369],[-122.36872,39.2238],[-122.36835,39.22391],[-122.36826,39.22393],[-122.36817,39.22394],[-122.36809,39.22394],[-122.368,39.22393],[-122.36791,39.22392],[-122.36756,39.22386],[-122.36742,39.22382],[-122.36728,39.22378],[-122.36714,39.22372],[-122.3671,39.2237],[-122.36703,39.22367],[-122.36696,39.22365],[-122.36689,39.22363],[-122.36682,39.22362],[-122.36674,39.22362],[-122.36667,39.22362],[-122.3666,39.22362],[-122.36609,39.22365],[-122.36598,39.22367],[-122.36588,39.2237],[-122.36573,39.22375],[-122.36568,39.22384],[-122.36563,39.22394],[-122.36547,39.22441],[-122.36502,39.22583],[-122.36468,39.22689],[-122.36437,39.22783],[-122.36411,39.22858],[-122.36406,39.22866],[-122.36402,39.22871],[-122.36397,39.22875],[-122.36392,39.22879],[-122.36387,39.22882],[-122.36366,39.22892],[-122.3636,39.22897],[-122.36354,39.22903],[-122.36349,39.22909],[-122.36347,39.22917],[-122.36347,39.22921],[-122.36342,39.22946],[-122.36334,39.2297],[-122.36334,39.22975],[-122.36334,39.22983],[-122.36335,39.22991],[-122.36353,39.23024],[-122.36369,39.23042],[-122.36374,39.2305],[-122.36376,39.2306],[-122.36376,39.23091],[-122.36375,39.23099],[-122.36373,39.23106],[-122.36371,39.23113],[-122.36368,39.23119],[-122.36363,39.23125],[-122.36356,39.23132],[-122.36327,39.23159],[-122.36322,39.2317],[-122.36321,39.23175],[-122.3632,39.23182],[-122.3632,39.23219],[-122.36319,39.23229],[-122.36317,39.23237],[-122.36314,39.23245],[-122.3631,39.23253],[-122.36305,39.2326],[-122.36298,39.23267],[-122.36262,39.233],[-122.36216,39.23339],[-122.36187,39.23369],[-122.36168,39.23391],[-122.36153,39.23409],[-122.3614,39.23421],[-122.36125,39.23432],[-122.36081,39.23466],[-122.36035,39.23503],[-122.36025,39.23511],[-122.36021,39.23518],[-122.36019,39.23523],[-122.36017,39.23529],[-122.36017,39.23534],[-122.36018,39.23545],[-122.36017,39.23552],[-122.36015,39.23559],[-122.36011,39.23567],[-122.36002,39.23581],[-122.35975,39.23615],[-122.35976,39.23632],[-122.35981,39.23676],[-122.35982,39.23681],[-122.35981,39.23687],[-122.3598,39.23692],[-122.35978,39.23697],[-122.35975,39.23702],[-122.35971,39.23707],[-122.35958,39.23717],[-122.3593,39.23737],[-122.35907,39.23756],[-122.35901,39.23763],[-122.35898,39.2377],[-122.35896,39.23778],[-122.35896,39.23785],[-122.35898,39.23794],[-122.35924,39.23854],[-122.35935,39.23885],[-122.35938,39.239],[-122.35939,39.2391],[-122.35933,39.23967],[-122.35927,39.23994],[-122.35922,39.24006],[-122.35916,39.24017],[-122.35909,39.24028],[-122.35899,39.24039],[-122.35878,39.24061],[-122.35821,39.24121],[-122.35782,39.2416],[-122.35766,39.24177],[-122.35755,39.24192],[-122.35741,39.24213],[-122.35734,39.24229],[-122.35723,39.24262],[-122.35715,39.24294],[-122.35709,39.2432],[-122.35707,39.2435],[-122.35705,39.24386],[-122.35703,39.24407],[-122.35698,39.24435],[-122.35694,39.24451],[-122.35686,39.24474],[-122.35681,39.24487],[-122.35674,39.24509],[-122.35671,39.24521],[-122.35663,39.2457],[-122.35655,39.24626],[-122.35642,39.24691],[-122.35631,39.2474],[-122.35628,39.24755],[-122.35626,39.2477],[-122.35628,39.24806],[-122.3563,39.24814],[-122.35642,39.24844],[-122.35649,39.24865],[-122.35663,39.24929],[-122.35679,39.25013],[-122.3568,39.25024],[-122.35678,39.25035],[-122.35675,39.25049],[-122.35672,39.25058],[-122.3567,39.25066],[-122.35671,39.25073],[-122.35674,39.25078],[-122.35687,39.25091],[-122.35695,39.251],[-122.35703,39.25112],[-122.35713,39.25136],[-122.35721,39.2516],[-122.35725,39.25181],[-122.35725,39.25205],[-122.35723,39.25222],[-122.35718,39.25239],[-122.35711,39.25254],[-122.35709,39.25262],[-122.35709,39.2527],[-122.3571,39.25286],[-122.35715,39.25313],[-122.35722,39.25348],[-122.35722,39.2536],[-122.35721,39.25371],[-122.35717,39.25386],[-122.35703,39.25425],[-122.35692,39.25445],[-122.35679,39.25464],[-122.35675,39.25471],[-122.35671,39.25479],[-122.35667,39.2549],[-122.35664,39.25504],[-122.35659,39.25518],[-122.35649,39.25546],[-122.35633,39.25586],[-122.35562,39.25751],[-122.35555,39.25773],[-122.35552,39.25783],[-122.35551,39.25793],[-122.3555,39.25802],[-122.35542,39.25926],[-122.35543,39.26054],[-122.35546,39.26124],[-122.35552,39.26181],[-122.35553,39.26193],[-122.35554,39.26207],[-122.35554,39.26222],[-122.35552,39.26249],[-122.35549,39.26281],[-122.35548,39.26319],[-122.35548,39.26438],[-122.35552,39.26613],[-122.35554,39.26696],[-122.35557,39.26728],[-122.35557,39.2674],[-122.35552,39.26763],[-122.35549,39.26777],[-122.35543,39.26792],[-122.35533,39.2681],[-122.3549,39.26875],[-122.35444,39.26943],[-122.35397,39.27017],[-122.35347,39.27092],[-122.35252,39.27237],[-122.35202,39.2731],[-122.35156,39.27386],[-122.3515,39.27397],[-122.35142,39.27416],[-122.35129,39.27443],[-122.35122,39.27456],[-122.35114,39.27469],[-122.35098,39.27485],[-122.35079,39.27502],[-122.35065,39.27513],[-122.35042,39.27529],[-122.34989,39.27565],[-122.34945,39.27597],[-122.34927,39.27612],[-122.34922,39.27617],[-122.34918,39.27623],[-122.34914,39.27632],[-122.34913,39.27639],[-122.34912,39.27647],[-122.34913,39.27662],[-122.34919,39.27692],[-122.34921,39.2771],[-122.3492,39.2772],[-122.34919,39.27725],[-122.34917,39.27731],[-122.34914,39.27737],[-122.34904,39.2775],[-122.34891,39.27763],[-122.34858,39.27802],[-122.34826,39.27839],[-122.34811,39.27857],[-122.34799,39.27874],[-122.34775,39.27914],[-122.34754,39.2796],[-122.34729,39.28019],[-122.34719,39.28047],[-122.34714,39.28067],[-122.34713,39.28078],[-122.34712,39.28088],[-122.34712,39.28097],[-122.34714,39.28128],[-122.34715,39.28141],[-122.34721,39.28175],[-122.34727,39.28219],[-122.3473,39.28239],[-122.34735,39.28282],[-122.34739,39.28319],[-122.3474,39.28324],[-122.3474,39.28332],[-122.34741,39.28345],[-122.34741,39.28355],[-122.3474,39.28391],[-122.34738,39.28407],[-122.34742,39.28433],[-122.34744,39.28438],[-122.34745,39.28447],[-122.34745,39.28527],[-122.34742,39.28552],[-122.34734,39.28591],[-122.34731,39.28609],[-122.34727,39.28653],[-122.34727,39.28701],[-122.34726,39.28711],[-122.34722,39.2875],[-122.3471,39.28804],[-122.34698,39.28893],[-122.34695,39.28926],[-122.34692,39.2894],[-122.34684,39.28959],[-122.34657,39.29022],[-122.34629,39.29079],[-122.34625,39.29089],[-122.34623,39.29097],[-122.34623,39.29107],[-122.34627,39.29144],[-122.34628,39.29154],[-122.34627,39.29163],[-122.3461,39.29254],[-122.34605,39.29281],[-122.34596,39.29312],[-122.34595,39.29319],[-122.34591,39.2935],[-122.34588,39.29363],[-122.34583,39.29375],[-122.34566,39.2943],[-122.34561,39.2945],[-122.34556,39.29481],[-122.34554,39.29496],[-122.34553,39.29537],[-122.34545,39.2961],[-122.34543,39.2962],[-122.34537,39.29634],[-122.34533,39.29643],[-122.34517,39.29671],[-122.34512,39.2968],[-122.34504,39.297],[-122.34486,39.29746],[-122.34468,39.29785],[-122.34431,39.29847],[-122.34396,39.29911],[-122.3439,39.29926],[-122.34386,39.29938],[-122.34375,39.29983],[-122.34362,39.30018],[-122.34351,39.3004],[-122.34334,39.30068],[-122.34306,39.30121],[-122.34298,39.30133],[-122.34282,39.30154],[-122.34171,39.30203],[-122.34088,39.30239],[-122.34051,39.30261],[-122.34044,39.30264],[-122.34004,39.30277],[-122.33988,39.30283],[-122.33965,39.30293],[-122.33923,39.30315],[-122.3391,39.30323],[-122.33897,39.30333],[-122.33888,39.3034],[-122.33867,39.30364],[-122.33856,39.30374],[-122.33817,39.30413],[-122.33812,39.30419],[-122.33804,39.30431],[-122.338,39.30438],[-122.33799,39.30445],[-122.33798,39.30464],[-122.338,39.3057],[-122.33805,39.30681],[-122.3381,39.3079],[-122.33812,39.30873]]}},{"type":"Feature","properties":{"name":"(unnamed public road)","road_class":"track","surface":"dirt","source":"Caltrans All Roads + OpenStreetMap explicit surface","source_detail":"osm way 1008235139; Caltrans All Roads public-network geometry match","source_tile":"164/391","public_network_source":"Caltrans All Roads (ARNOLD/HPMS)","surface_source":"OpenStreetMap explicit surface tag","caltrans_match_coverage":1.0,"verified_length_m":897},"geometry":{"type":"LineString","coordinates":[[-122.13518,39.10066],[-122.1352,39.10057],[-122.13521,39.10045],[-122.13523,39.10023],[-122.13527,39.10017],[-122.13539,39.10007],[-122.13566,39.09989],[-122.13583,39.09978],[-122.13588,39.09973],[-122.13595,39.09965],[-122.13597,39.09957],[-122.13599,39.09948],[-122.13598,39.09927],[-122.13601,39.09875],[-122.13606,39.09863],[-122.13611,39.09856],[-122.13626,39.09847],[-122.13654,39.09834],[-122.13685,39.09822],[-122.13779,39.09785],[-122.13852,39.09755],[-122.13922,39.09732],[-122.13933,39.09728],[-122.13958,39.09719],[-122.13967,39.09714],[-122.13974,39.09707],[-122.13979,39.09697],[-122.13988,39.09679],[-122.13998,39.09664],[-122.14008,39.09652],[-122.14019,39.09643],[-122.14031,39.09636],[-122.14053,39.09627],[-122.14084,39.09616],[-122.14122,39.09608],[-122.14147,39.09602],[-122.14162,39.09599],[-122.14174,39.09595],[-122.14181,39.0959],[-122.14185,39.09587],[-122.14188,39.09581],[-122.1419,39.09567],[-122.14191,39.09562],[-122.14196,39.09558],[-122.14202,39.09554]]}},{"type":"Feature","properties":{"name":"Fairview Road","road_class":"unclassified","surface":"unpaved","source":"Caltrans All Roads + OpenStreetMap explicit surface","source_detail":"osm way 10312557; Caltrans All Roads public-network geometry match","source_tile":"164/390","public_network_source":"Caltrans All Roads (ARNOLD/HPMS)","surface_source":"OpenStreetMap explicit surface tag","caltrans_match_coverage":1.0,"verified_length_m":1310},"geometry":{"type":"LineString","coordinates":[[-122.27465,39.24742],[-122.26991,39.24742],[-122.26901,39.24742],[-122.26766,39.24741],[-122.2663,39.24741],[-122.26545,39.24742],[-122.26532,39.24742],[-122.26498,39.24742],[-122.26426,39.24741],[-122.25945,39.24745]]}},{"type":"Feature","properties":{"name":"Harbison Road","road_class":"unclassified","surface":"unpaved","source":"Caltrans All Roads + OpenStreetMap explicit surface","source_detail":"osm way 10312912; Caltrans All Roads public-network geometry match","source_tile":"164/390","public_network_source":"Caltrans All Roads (ARNOLD/HPMS)","surface_source":"OpenStreetMap explicit surface tag","caltrans_match_coverage":1.0,"verified_length_m":4454},"geometry":{"type":"LineString","coordinates":[[-122.03123,39.24328],[-122.03383,39.24328],[-122.03531,39.24329],[-122.03636,39.2433],[-122.03659,39.24331],[-122.04166,39.24332],[-122.04457,39.24335],[-122.04581,39.24334],[-122.04728,39.24336],[-122.04993,39.24337],[-122.05163,39.24338],[-122.05477,39.2434],[-122.05499,39.2434],[-122.05532,39.2434],[-122.05557,39.2434],[-122.06006,39.24341],[-122.06014,39.24341],[-122.06022,39.24343],[-122.06029,39.24345],[-122.06035,39.24349],[-122.06039,39.24354],[-122.06042,39.24358],[-122.06043,39.24364],[-122.06042,39.24421],[-122.06037,39.2462],[-122.06039,39.2463],[-122.06042,39.24635],[-122.06044,39.24639],[-122.06048,39.24642],[-122.06052,39.24645],[-122.06058,39.24647],[-122.06065,39.24647],[-122.06403,39.2465],[-122.06405,39.2465],[-122.06668,39.24652],[-122.06734,39.24654],[-122.06919,39.24657],[-122.06934,39.24657],[-122.0695,39.24659],[-122.06972,39.24664],[-122.06978,39.24665],[-122.06987,39.24664],[-122.07168,39.24668],[-122.07348,39.24669],[-122.0771,39.24671],[-122.07885,39.24674],[-122.07896,39.24674],[-122.07902,39.24674],[-122.07906,39.24672],[-122.07912,39.24668]]}},{"type":"Feature","properties":{"name":"Holloway Road","road_class":"unclassified","surface":"unpaved","source":"Caltrans All Roads + OpenStreetMap explicit surface","source_detail":"osm way 10313563; Caltrans All Roads public-network geometry match","source_tile":"164/390","public_network_source":"Caltrans All Roads (ARNOLD/HPMS)","surface_source":"OpenStreetMap explicit surface tag","caltrans_match_coverage":1.0,"verified_length_m":3185},"geometry":{"type":"LineString","coordinates":[[-122.06995,39.27546],[-122.06985,39.26472],[-122.06982,39.26102],[-122.06979,39.26034],[-122.06979,39.25959],[-122.06978,39.25883],[-122.06979,39.25806],[-122.06979,39.2565],[-122.06978,39.25571],[-122.06978,39.25387],[-122.06978,39.2538],[-122.06978,39.25334],[-122.06978,39.25322],[-122.06978,39.253],[-122.06978,39.25225],[-122.06979,39.25153],[-122.06977,39.24995],[-122.06976,39.24917],[-122.06976,39.24752],[-122.06978,39.24665]]}},{"type":"Feature","properties":{"name":"San Jose Road","road_class":"unclassified","surface":"unpaved","source":"Caltrans All Roads + OpenStreetMap explicit surface","source_detail":"osm way 10313579; Caltrans All Roads public-network geometry match","source_tile":"164/390","public_network_source":"Caltrans All Roads (ARNOLD/HPMS)","surface_source":"OpenStreetMap explicit surface tag","caltrans_match_coverage":1.0,"verified_length_m":3788},"geometry":{"type":"LineString","coordinates":[[-122.11567,39.18371],[-122.11565,39.18494],[-122.11565,39.18593],[-122.11564,39.18768],[-122.11564,39.18855],[-122.11565,39.18865],[-122.11568,39.18878],[-122.11571,39.18889],[-122.11602,39.18954],[-122.11607,39.18966],[-122.11609,39.18975],[-122.11611,39.18986],[-122.11613,39.19004],[-122.11611,39.19089],[-122.11612,39.19241],[-122.11612,39.1925],[-122.11613,39.19268],[-122.11614,39.19299],[-122.11613,39.19319],[-122.11612,39.19327],[-122.11614,39.19512],[-122.11613,39.196],[-122.11614,39.19687],[-122.11615,39.19772],[-122.11615,39.19864],[-122.11617,39.20041],[-122.11617,39.20132],[-122.11617,39.20225],[-122.11617,39.20314],[-122.11617,39.20325],[-122.11617,39.20345],[-122.11621,39.20747],[-122.11622,39.20803],[-122.11623,39.21131],[-122.11625,39.21388],[-122.11624,39.21553],[-122.11624,39.21719],[-122.11623,39.21734],[-122.1162,39.21748],[-122.11616,39.2176],[-122.1161,39.21781],[-122.11608,39.21791]]}},{"type":"Feature","properties":{"name":"Lyons Road","road_class":"unclassified","surface":"unpaved","source":"Caltrans All Roads + OpenStreetMap explicit surface","source_detail":"osm way 10313587; Caltrans All Roads public-network geometry match","source_tile":"164/390","public_network_source":"Caltrans All Roads (ARNOLD/HPMS)","surface_source":"OpenStreetMap explicit surface tag","caltrans_match_coverage":1.0,"verified_length_m":3216},"geometry":{"type":"LineString","coordinates":[[-122.17215,39.24721],[-122.17212,39.24726],[-122.17211,39.2473],[-122.17213,39.24988],[-122.17214,39.25047],[-122.17215,39.25293],[-122.17215,39.25454],[-122.17218,39.25638],[-122.1722,39.25773],[-122.1722,39.25821],[-122.17221,39.25894],[-122.17222,39.25966],[-122.17224,39.26186],[-122.17225,39.26256],[-122.17229,39.26549],[-122.1723,39.26651],[-122.17232,39.26884],[-122.17232,39.26912],[-122.17233,39.27088],[-122.17233,39.27263],[-122.17233,39.27267],[-122.17238,39.2763]]}},{"type":"Feature","properties":{"name":"Jameson Road","road_class":"unclassified","surface":"unpaved","source":"Caltrans All Roads + OpenStreetMap explicit surface","source_detail":"osm way 10313596; Caltrans All Roads public-network geometry match","source_tile":"164/390","public_network_source":"Caltrans All Roads (ARNOLD/HPMS)","surface_source":"OpenStreetMap explicit surface tag","caltrans_match_coverage":1.0,"verified_length_m":3261},"geometry":{"type":"LineString","coordinates":[[-122.07751,39.21762],[-122.07751,39.2178],[-122.0775,39.21804],[-122.07749,39.21842],[-122.0775,39.22],[-122.07755,39.22156],[-122.07764,39.22439],[-122.07765,39.22461],[-122.07766,39.22468],[-122.07768,39.22473],[-122.0777,39.22476],[-122.07774,39.22479],[-122.07778,39.22481],[-122.07788,39.22486],[-122.07798,39.22489],[-122.07806,39.22491],[-122.07821,39.22493],[-122.07827,39.22494],[-122.07837,39.22499],[-122.07841,39.22501],[-122.07843,39.22504],[-122.07846,39.22507],[-122.07849,39.22515],[-122.07861,39.22546],[-122.07871,39.22573],[-122.07879,39.22593],[-122.07884,39.22609],[-122.07888,39.22626],[-122.07891,39.22646],[-122.07892,39.22668],[-122.07894,39.22757],[-122.07895,39.22921],[-122.07895,39.23077],[-122.07897,39.23212],[-122.07899,39.23466],[-122.07902,39.23622],[-122.07907,39.23764],[-122.07911,39.24417],[-122.07911,39.2451],[-122.07912,39.24668]]}},{"type":"Feature","properties":{"name":"Lurline Avenue","road_class":"unclassified","surface":"unpaved","source":"Caltrans All Roads + OpenStreetMap explicit surface","source_detail":"osm way 10313670; Caltrans All Roads public-network geometry match","source_tile":"164/390","public_network_source":"Caltrans All Roads (ARNOLD/HPMS)","surface_source":"OpenStreetMap explicit surface tag","caltrans_match_coverage":1.0,"verified_length_m":3180},"geometry":{"type":"LineString","coordinates":[[-122.0515,39.21729],[-122.0522,39.21733],[-122.05354,39.21742],[-122.05455,39.21746],[-122.0551,39.21747],[-122.05576,39.21746],[-122.05655,39.21746],[-122.05748,39.21746],[-122.05856,39.21747],[-122.06018,39.21748],[-122.06081,39.21745],[-122.06092,39.21744],[-122.06112,39.21741],[-122.06123,39.2174],[-122.06143,39.21738],[-122.06161,39.21737],[-122.06192,39.21737],[-122.06211,39.21736],[-122.06242,39.21737],[-122.06272,39.21738],[-122.06296,39.2174],[-122.06342,39.21744],[-122.06361,39.21745],[-122.06401,39.21746],[-122.06467,39.21748],[-122.06573,39.21749],[-122.06713,39.21751],[-122.06999,39.21754],[-122.07143,39.21756],[-122.07405,39.21758],[-122.07536,39.2176],[-122.07751,39.21762],[-122.07846,39.21763],[-122.07882,39.21763],[-122.08389,39.21767],[-122.08747,39.21771],[-122.08772,39.21771],[-122.08797,39.2177],[-122.08819,39.21769],[-122.08835,39.21768]]}},{"type":"Feature","properties":{"name":"Fairview Road","road_class":"unclassified","surface":"unpaved","source":"Caltrans All Roads + OpenStreetMap explicit surface","source_detail":"osm way 388411967; Caltrans All Roads public-network geometry match","source_tile":"164/390","public_network_source":"Caltrans All Roads (ARNOLD/HPMS)","surface_source":"OpenStreetMap explicit surface tag","caltrans_match_coverage":1.0,"verified_length_m":616},"geometry":{"type":"LineString","coordinates":[[-122.17927,39.24717],[-122.17661,39.24718],[-122.17229,39.24716],[-122.17225,39.24716],[-122.1722,39.24717],[-122.17215,39.24721]]}},{"type":"Feature","properties":{"name":"Freshwater Road","road_class":"unclassified","surface":"gravel","source":"Caltrans All Roads + OpenStreetMap explicit surface","source_detail":"osm way 442037209; Caltrans All Roads public-network geometry match","source_tile":"164/390","public_network_source":"Caltrans All Roads (ARNOLD/HPMS)","surface_source":"OpenStreetMap explicit surface tag","caltrans_match_coverage":1.0,"verified_length_m":2087},"geometry":{"type":"LineString","coordinates":[[-122.25728,39.16748],[-122.26007,39.16746],[-122.26389,39.16743],[-122.26519,39.16741],[-122.26648,39.1674],[-122.26722,39.16738],[-122.2679,39.16737],[-122.26854,39.16736],[-122.26947,39.16736],[-122.27343,39.16733],[-122.27509,39.16731],[-122.27685,39.1673],[-122.27892,39.16726],[-122.28146,39.16725]]}},{"type":"Feature","properties":{"name":"Fairview Road","road_class":"unclassified","surface":"unpaved","source":"Caltrans All Roads + OpenStreetMap explicit surface","source_detail":"osm way 944091172; Caltrans All Roads public-network geometry match","source_tile":"164/390","public_network_source":"Caltrans All Roads (ARNOLD/HPMS)","surface_source":"OpenStreetMap explicit surface tag","caltrans_match_coverage":1.0,"verified_length_m":579},"geometry":{"type":"LineString","coordinates":[[-122.19123,39.24721],[-122.19084,39.2472],[-122.19064,39.24719],[-122.19046,39.24718],[-122.19005,39.24716],[-122.18964,39.24715],[-122.18913,39.24715],[-122.18893,39.24715],[-122.18882,39.24715],[-122.18847,39.24715],[-122.18678,39.24717],[-122.18452,39.24717]]}},{"type":"Feature","properties":{"name":"(unnamed public road)","road_class":"track","surface":"dirt","source":"Caltrans All Roads + OpenStreetMap explicit surface","source_detail":"osm way 975823848; Caltrans All Roads public-network geometry match","source_tile":"164/390","public_network_source":"Caltrans All Roads (ARNOLD/HPMS)","surface_source":"OpenStreetMap explicit surface tag","caltrans_match_coverage":0.929,"verified_length_m":1088},"geometry":{"type":"LineString","coordinates":[[-122.31165,39.2079],[-122.31186,39.20794],[-122.31202,39.208],[-122.31216,39.20808],[-122.31238,39.20824],[-122.3125,39.2083],[-122.3127,39.20834],[-122.31315,39.20841],[-122.31333,39.20847],[-122.31362,39.20859],[-122.31376,39.20863],[-122.31392,39.20866],[-122.31413,39.20867],[-122.31434,39.20867],[-122.3145,39.20868],[-122.31482,39.20867],[-122.31527,39.20862],[-122.31546,39.20859],[-122.31561,39.20858],[-122.31578,39.20858],[-122.31623,39.20861],[-122.3168,39.20866],[-122.31756,39.20872],[-122.31774,39.20875],[-122.31791,39.20881],[-122.31842,39.2091],[-122.31871,39.20925],[-122.31886,39.20936],[-122.31909,39.20956],[-122.31943,39.2099],[-122.31957,39.21005],[-122.31998,39.21057],[-122.32015,39.21078],[-122.32033,39.21102],[-122.32039,39.21109],[-122.32045,39.21113],[-122.32052,39.21115],[-122.32059,39.21117],[-122.32077,39.21121],[-122.32088,39.21128],[-122.32091,39.2113],[-122.32092,39.21131],[-122.32096,39.21135],[-122.32111,39.21159],[-122.3215,39.21216],[-122.32164,39.2124]]}},{"type":"Feature","properties":{"name":"Harlan Road","road_class":"track","surface":"dirt","tracktype":"grade2","source":"Caltrans All Roads + OpenStreetMap explicit surface","source_detail":"osm way 978812951; Caltrans All Roads public-network geometry match","source_tile":"164/390","public_network_source":"Caltrans All Roads (ARNOLD/HPMS)","surface_source":"OpenStreetMap explicit surface tag","caltrans_match_coverage":1.0,"verified_length_m":5107},"geometry":{"type":"LineString","coordinates":[[-122.31855,39.13893],[-122.31849,39.13896],[-122.31835,39.13905],[-122.31825,39.13921],[-122.31809,39.13997],[-122.31808,39.1405],[-122.31801,39.14111],[-122.3181,39.14159],[-122.3181,39.14185],[-122.31812,39.14207],[-122.31817,39.14227],[-122.31824,39.14244],[-122.31825,39.14271],[-122.31834,39.14306],[-122.31844,39.14328],[-122.31856,39.14348],[-122.31857,39.14359],[-122.31858,39.14413],[-122.3186,39.14429],[-122.31864,39.1444],[-122.31865,39.14451],[-122.31856,39.14482],[-122.31849,39.14544],[-122.31858,39.14577],[-122.31863,39.14626],[-122.31865,39.14641],[-122.31862,39.14686],[-122.31865,39.14711],[-122.31874,39.14745],[-122.31879,39.14757],[-122.3189,39.14774],[-122.31891,39.14779],[-122.31877,39.14807],[-122.31872,39.14827],[-122.31867,39.14855],[-122.31863,39.1487],[-122.3183,39.14947],[-122.31826,39.14966],[-122.31828,39.14987],[-122.31838,39.15018],[-122.31867,39.15077],[-122.31877,39.15105],[-122.31885,39.15184],[-122.31885,39.15208],[-122.31895,39.15249],[-122.31902,39.15261],[-122.3192,39.15281],[-122.31949,39.15294],[-122.31957,39.15302],[-122.31957,39.1531],[-122.31948,39.15327],[-122.31946,39.15343],[-122.31949,39.15354],[-122.31967,39.1538],[-122.31969,39.15391],[-122.31955,39.15413],[-122.31949,39.1543],[-122.31946,39.15442],[-122.31947,39.15485],[-122.31953,39.15533],[-122.31953,39.15559],[-122.31951,39.15584],[-122.31952,39.15595],[-122.31958,39.15606],[-122.31963,39.15611],[-122.31994,39.15627],[-122.31997,39.15631],[-122.31996,39.15636],[-122.31994,39.15638],[-122.31967,39.15655],[-122.3196,39.15662],[-122.31954,39.15676],[-122.31952,39.15688],[-122.31953,39.15712],[-122.31965,39.15732],[-122.31975,39.15742],[-122.31978,39.15751],[-122.31976,39.15757],[-122.31962,39.15776],[-122.31956,39.15787],[-122.31954,39.15803],[-122.31957,39.15824],[-122.31962,39.15836],[-122.31973,39.1585],[-122.31973,39.15859],[-122.31967,39.15872],[-122.3194,39.15901],[-122.31932,39.15916],[-122.31931,39.15929],[-122.31932,39.15935],[-122.31942,39.1595],[-122.31943,39.15966],[-122.31939,39.15978],[-122.3192,39.15999],[-122.31915,39.16019],[-122.31917,39.16034],[-122.31926,39.16051],[-122.31936,39.16068],[-122.31945,39.16078],[-122.31964,39.16093],[-122.31967,39.16102],[-122.31963,39.16113],[-122.31953,39.16132],[-122.3194,39.16168],[-122.31935,39.16193],[-122.31931,39.16227],[-122.31928,39.16237],[-122.3192,39.16251],[-122.31919,39.16263],[-122.3193,39.16277],[-122.31943,39.16286],[-122.31949,39.16295],[-122.31954,39.16315],[-122.31954,39.16339],[-122.31958,39.16353],[-122.31962,39.1636],[-122.31968,39.16367],[-122.32002,39.16386],[-122.32007,39.16391],[-122.32041,39.16439],[-122.32045,39.16447],[-122.32045,39.16457],[-122.32042,39.16476],[-122.32025,39.16548],[-122.32018,39.16564],[-122.32017,39.16579],[-122.32019,39.16591],[-122.32026,39.16605],[-122.32035,39.16619],[-122.32045,39.1663],[-122.32048,39.16635],[-122.32048,39.16638],[-122.32046,39.16642],[-122.32023,39.16665],[-122.32017,39.16674],[-122.3201,39.16685],[-122.31998,39.16717],[-122.32003,39.16739],[-122.32013,39.16754],[-122.32024,39.16766],[-122.32031,39.16779],[-122.32035,39.16795],[-122.32033,39.16801],[-122.32008,39.16835],[-122.31992,39.16865],[-122.31988,39.16881],[-122.31988,39.16891],[-122.31991,39.16924],[-122.32006,39.16997],[-122.32007,39.17003],[-122.3201,39.1702],[-122.3201,39.17033],[-122.31995,39.17086],[-122.31994,39.17095],[-122.32002,39.17336],[-122.32002,39.17354],[-122.31998,39.1736],[-122.31992,39.17365],[-122.31974,39.17369],[-122.31889,39.17368],[-122.31869,39.17371],[-122.31858,39.17375],[-122.31854,39.17379],[-122.31848,39.17391],[-122.3185,39.17405],[-122.31869,39.17432],[-122.31873,39.17444],[-122.31872,39.17449],[-122.31858,39.17466],[-122.31846,39.17487],[-122.31843,39.17494],[-122.31841,39.17508],[-122.31848,39.1775],[-122.31842,39.17967],[-122.31848,39.18032],[-122.31849,39.18043],[-122.31851,39.18117],[-122.31852,39.18148],[-122.31854,39.1819]]}},{"type":"Feature","properties":{"name":"(unnamed public road)","road_class":"track","surface":"dirt","source":"Caltrans All Roads + OpenStreetMap explicit surface","source_detail":"osm way 981477301; Caltrans All Roads public-network geometry match","source_tile":"164/390","public_network_source":"Caltrans All Roads (ARNOLD/HPMS)","surface_source":"OpenStreetMap explicit surface tag","caltrans_match_coverage":1.0,"verified_length_m":774},"geometry":{"type":"LineString","coordinates":[[-122.24608,39.2164],[-122.2461,39.21686],[-122.24611,39.21735],[-122.24611,39.21784],[-122.24613,39.2183],[-122.24612,39.21858],[-122.24611,39.21861],[-122.24607,39.21865],[-122.24602,39.21868],[-122.24594,39.21869],[-122.24532,39.21868],[-122.24358,39.21868],[-122.24226,39.21869],[-122.24206,39.21869],[-122.24187,39.21869],[-122.24151,39.21866],[-122.24082,39.21866],[-122.24038,39.21867],[-122.24021,39.21867],[-122.24015,39.21868],[-122.24013,39.21869],[-122.2401,39.21872],[-122.24009,39.21877]]}},{"type":"Feature","properties":{"name":"(unnamed public road)","road_class":"track","surface":"dirt","source":"Caltrans All Roads + OpenStreetMap explicit surface","source_detail":"osm way 981877628; Caltrans All Roads public-network geometry match","source_tile":"164/390","public_network_source":"Caltrans All Roads (ARNOLD/HPMS)","surface_source":"OpenStreetMap explicit surface tag","caltrans_match_coverage":0.987,"verified_length_m":991},"geometry":{"type":"LineString","coordinates":[[-122.25265,39.20808],[-122.25266,39.20823],[-122.25267,39.2083],[-122.25273,39.20873],[-122.25287,39.20982],[-122.25301,39.21093],[-122.25313,39.21186],[-122.25322,39.21264],[-122.25331,39.21326],[-122.2534,39.21402],[-122.25349,39.2147],[-122.2536,39.21563],[-122.25367,39.2162],[-122.25372,39.21648],[-122.25379,39.21672],[-122.25385,39.21692],[-122.25385,39.21699]]}},{"type":"Feature","properties":{"name":"(unnamed public road)","road_class":"track","surface":"dirt","source":"Caltrans All Roads + OpenStreetMap explicit surface","source_detail":"osm way 983423458; Caltrans All Roads public-network geometry match","source_tile":"164/390","public_network_source":"Caltrans All Roads (ARNOLD/HPMS)","surface_source":"OpenStreetMap explicit surface tag","caltrans_match_coverage":1.0,"verified_length_m":882},"geometry":{"type":"LineString","coordinates":[[-122.2558,39.11996],[-122.25572,39.11995],[-122.25431,39.11994],[-122.2514,39.11991],[-122.24977,39.11989],[-122.24584,39.11986],[-122.2458,39.11989],[-122.24577,39.11989],[-122.24576,39.12002]]}},{"type":"Feature","properties":{"name":"(unnamed public road)","road_class":"track","surface":"dirt","source":"Caltrans All Roads + OpenStreetMap explicit surface","source_detail":"osm way 983511919; Caltrans All Roads public-network geometry match","source_tile":"164/390","public_network_source":"Caltrans All Roads (ARNOLD/HPMS)","surface_source":"OpenStreetMap explicit surface tag","caltrans_match_coverage":1.0,"verified_length_m":985},"geometry":{"type":"LineString","coordinates":[[-122.25175,39.19338],[-122.25205,39.19339],[-122.2543,39.19337],[-122.25493,39.19337],[-122.25511,39.19334],[-122.25522,39.19328],[-122.25549,39.1931],[-122.25654,39.19242],[-122.25667,39.19233],[-122.25671,39.1923],[-122.25685,39.19222],[-122.257,39.19213],[-122.25732,39.19191],[-122.25767,39.19169],[-122.25891,39.1909],[-122.25934,39.19062],[-122.25967,39.19039],[-122.26007,39.19017],[-122.26026,39.19005],[-122.26045,39.18993],[-122.26086,39.18968],[-122.26125,39.18943],[-122.26126,39.18943],[-122.26134,39.18936]]}},{"type":"Feature","properties":{"name":"(unnamed public road)","road_class":"track","surface":"dirt","source":"Caltrans All Roads + OpenStreetMap explicit surface","source_detail":"osm way 985077491; Caltrans All Roads public-network geometry match","source_tile":"164/390","public_network_source":"Caltrans All Roads (ARNOLD/HPMS)","surface_source":"OpenStreetMap explicit surface tag","caltrans_match_coverage":1.0,"verified_length_m":867},"geometry":{"type":"LineString","coordinates":[[-122.28131,39.15724],[-122.28131,39.15451],[-122.28132,39.15179],[-122.2813,39.1494]]}},{"type":"Feature","properties":{"name":"(unnamed public road)","road_class":"track","surface":"dirt","source":"Caltrans All Roads + OpenStreetMap explicit surface","source_detail":"osm way 985140390; Caltrans All Roads public-network geometry match","source_tile":"164/390","public_network_source":"Caltrans All Roads (ARNOLD/HPMS)","surface_source":"OpenStreetMap explicit surface tag","caltrans_match_coverage":1.0,"verified_length_m":511},"geometry":{"type":"LineString","coordinates":[[-122.28224,39.20821],[-122.28245,39.20821],[-122.2826,39.2082],[-122.2847,39.20822],[-122.2851,39.20822],[-122.28616,39.20824],[-122.28654,39.20825],[-122.28673,39.20824],[-122.28714,39.20824],[-122.2876,39.20826],[-122.28771,39.20826],[-122.2878,39.20828],[-122.28785,39.20828],[-122.28788,39.20826],[-122.2879,39.20824],[-122.28792,39.20823],[-122.28793,39.20819],[-122.28792,39.20815],[-122.2879,39.20807]]}},{"type":"Feature","properties":{"name":"(unnamed public road)","road_class":"track","surface":"dirt","source":"Caltrans All Roads + OpenStreetMap explicit surface","source_detail":"osm way 987275333; Caltrans All Roads public-network geometry match","source_tile":"164/390","public_network_source":"Caltrans All Roads (ARNOLD/HPMS)","surface_source":"OpenStreetMap explicit surface tag","caltrans_match_coverage":0.969,"verified_length_m":2188},"geometry":{"type":"LineString","coordinates":[[-122.23102,39.11987],[-122.23101,39.11997],[-122.23114,39.12017],[-122.23122,39.12027],[-122.23125,39.12029],[-122.2313,39.12031],[-122.23138,39.12031],[-122.23144,39.12031],[-122.23154,39.1203],[-122.23161,39.12025],[-122.23162,39.1202],[-122.23162,39.12007],[-122.23166,39.12002],[-122.23174,39.11999],[-122.23188,39.12],[-122.23238,39.12],[-122.23289,39.12],[-122.23304,39.12],[-122.2334,39.12001],[-122.2337,39.12002],[-122.23446,39.12002],[-122.23468,39.12002],[-122.23493,39.12003],[-122.23638,39.12005],[-122.23791,39.12008],[-122.23866,39.12008],[-122.23947,39.1201],[-122.2406,39.12012],[-122.24207,39.12014],[-122.24308,39.12015],[-122.2435,39.12014],[-122.24397,39.12012],[-122.24416,39.12011],[-122.24449,39.12012],[-122.24538,39.12013],[-122.24644,39.12016],[-122.24769,39.12018],[-122.24799,39.12017],[-122.24884,39.12018],[-122.24983,39.12019],[-122.25068,39.12021],[-122.25145,39.12022],[-122.25178,39.12023],[-122.25186,39.12024],[-122.25194,39.12026],[-122.25201,39.12026],[-122.25213,39.12023],[-122.25226,39.12022],[-122.25302,39.12024],[-122.25364,39.12026],[-122.25413,39.12027],[-122.25426,39.12029],[-122.25447,39.12034],[-122.25463,39.12036],[-122.25512,39.12035],[-122.25546,39.12035],[-122.25555,39.12034],[-122.25564,39.12032]]}},{"type":"Feature","properties":{"name":"(unnamed public road)","road_class":"track","surface":"dirt","source":"Caltrans All Roads + OpenStreetMap explicit surface","source_detail":"osm way 987542226; Caltrans All Roads public-network geometry match","source_tile":"164/390","public_network_source":"Caltrans All Roads (ARNOLD/HPMS)","surface_source":"OpenStreetMap explicit surface tag","caltrans_match_coverage":1.0,"verified_length_m":1040},"geometry":{"type":"LineString","coordinates":[[-122.21732,39.14557],[-122.21744,39.14556],[-122.21821,39.14555],[-122.22082,39.14558],[-122.22301,39.14559],[-122.22436,39.1456],[-122.22669,39.14559],[-122.22818,39.14562],[-122.22937,39.14564]]}},{"type":"Feature","properties":{"name":"(unnamed public road)","road_class":"track","surface":"dirt","source":"Caltrans All Roads + OpenStreetMap explicit surface","source_detail":"osm way 987543176; Caltrans All Roads public-network geometry match","source_tile":"164/390","public_network_source":"Caltrans All Roads (ARNOLD/HPMS)","surface_source":"OpenStreetMap explicit surface tag","caltrans_match_coverage":1.0,"verified_length_m":1501},"geometry":{"type":"LineString","coordinates":[[-122.20768,39.1566],[-122.20776,39.15646],[-122.20779,39.15636],[-122.20779,39.15609],[-122.20778,39.15572],[-122.20778,39.15554],[-122.20777,39.15538],[-122.20778,39.15502],[-122.20778,39.15466],[-122.20776,39.15427],[-122.20776,39.15399],[-122.20776,39.15362],[-122.20777,39.15331],[-122.20777,39.15319],[-122.20775,39.15312],[-122.20772,39.15308],[-122.20768,39.15305],[-122.20761,39.15302],[-122.20742,39.15299],[-122.20734,39.15298],[-122.20668,39.15297],[-122.20537,39.15295],[-122.20405,39.15294],[-122.20257,39.15293],[-122.20197,39.15294],[-122.20089,39.15293],[-122.20015,39.15293],[-122.19979,39.15292],[-122.19915,39.15292],[-122.19913,39.15292],[-122.19864,39.15292],[-122.19842,39.15291],[-122.19821,39.1529],[-122.19723,39.15288],[-122.19638,39.15286],[-122.19558,39.15285],[-122.19504,39.15287],[-122.19491,39.15287]]}},{"type":"Feature","properties":{"name":"(unnamed public road)","road_class":"track","surface":"dirt","source":"Caltrans All Roads + OpenStreetMap explicit surface","source_detail":"osm way 987641419; Caltrans All Roads public-network geometry match","source_tile":"164/390","public_network_source":"Caltrans All Roads (ARNOLD/HPMS)","surface_source":"OpenStreetMap explicit surface tag","caltrans_match_coverage":1.0,"verified_length_m":601},"geometry":{"type":"LineString","coordinates":[[-122.27149,39.13795],[-122.27132,39.13808],[-122.27117,39.1382],[-122.27051,39.13877],[-122.26958,39.13957],[-122.26875,39.14029],[-122.26817,39.1408],[-122.26763,39.14128],[-122.26715,39.14173],[-122.26703,39.14189],[-122.26693,39.14204]]}},{"type":"Feature","properties":{"name":"(unnamed public road)","road_class":"track","surface":"dirt","source":"Caltrans All Roads + OpenStreetMap explicit surface","source_detail":"osm way 987641423; Caltrans All Roads public-network geometry match","source_tile":"164/390","public_network_source":"Caltrans All Roads (ARNOLD/HPMS)","surface_source":"OpenStreetMap explicit surface tag","caltrans_match_coverage":1.0,"verified_length_m":1011},"geometry":{"type":"LineString","coordinates":[[-122.26653,39.14182],[-122.2666,39.14175],[-122.26734,39.14112],[-122.26804,39.14052],[-122.26871,39.13994],[-122.26907,39.13962],[-122.26974,39.13903],[-122.27059,39.13828],[-122.27101,39.13792],[-122.27129,39.13768],[-122.27148,39.13751],[-122.27182,39.13722],[-122.27207,39.13701],[-122.27235,39.13678],[-122.2728,39.1364],[-122.2733,39.13596],[-122.27376,39.13555],[-122.27404,39.13532],[-122.27424,39.13515],[-122.27432,39.13507],[-122.27435,39.13502]]}},{"type":"Feature","properties":{"name":"(unnamed public road)","road_class":"track","surface":"dirt","source":"Caltrans All Roads + OpenStreetMap explicit surface","source_detail":"osm way 987649486; Caltrans All Roads public-network geometry match","source_tile":"164/390","public_network_source":"Caltrans All Roads (ARNOLD/HPMS)","surface_source":"OpenStreetMap explicit surface tag","caltrans_match_coverage":1.0,"verified_length_m":1492},"geometry":{"type":"LineString","coordinates":[[-122.2173,39.11956],[-122.21743,39.11956],[-122.21753,39.11959],[-122.2176,39.11961],[-122.21805,39.11962],[-122.21878,39.11963],[-122.21969,39.11965],[-122.22099,39.11966],[-122.22107,39.11966],[-122.22117,39.11966],[-122.22177,39.11967],[-122.22283,39.11968],[-122.22413,39.11969],[-122.22494,39.11969],[-122.22504,39.1197],[-122.22609,39.11971],[-122.22626,39.11972],[-122.22659,39.11972],[-122.22665,39.11972],[-122.22785,39.11971],[-122.22792,39.11973],[-122.22802,39.11973],[-122.22859,39.11973],[-122.22868,39.11974],[-122.22902,39.11974],[-122.22948,39.11975],[-122.22961,39.11975],[-122.23034,39.11976],[-122.2307,39.11975],[-122.23122,39.11975],[-122.23131,39.11976],[-122.23142,39.11977],[-122.23235,39.11978],[-122.23312,39.11978],[-122.23379,39.11979],[-122.23441,39.11979],[-122.23455,39.1198]]}},{"type":"Feature","properties":{"name":"(unnamed public road)","road_class":"track","surface":"dirt","source":"Caltrans All Roads + OpenStreetMap explicit surface","source_detail":"osm way 987649490; Caltrans All Roads public-network geometry match","source_tile":"164/390","public_network_source":"Caltrans All Roads (ARNOLD/HPMS)","surface_source":"OpenStreetMap explicit surface tag","caltrans_match_coverage":1.0,"verified_length_m":532},"geometry":{"type":"LineString","coordinates":[[-122.21745,39.11469],[-122.21747,39.11565],[-122.21745,39.11822],[-122.21745,39.11932],[-122.21746,39.11937],[-122.21747,39.11944],[-122.21748,39.1195]]}},{"type":"Feature","properties":{"name":"(unnamed public road)","road_class":"track","surface":"dirt","source":"Caltrans All Roads + OpenStreetMap explicit surface","source_detail":"osm way 991323509; Caltrans All Roads public-network geometry match","source_tile":"164/390","public_network_source":"Caltrans All Roads (ARNOLD/HPMS)","surface_source":"OpenStreetMap explicit surface tag","caltrans_match_coverage":0.888,"verified_length_m":889},"geometry":{"type":"LineString","coordinates":[[-122.27468,39.25027],[-122.27493,39.25024],[-122.27556,39.25014],[-122.27585,39.25008],[-122.27596,39.25001],[-122.27601,39.24996],[-122.27602,39.24974],[-122.27634,39.24979],[-122.27698,39.24992],[-122.27863,39.25027],[-122.28001,39.25056],[-122.28138,39.25084],[-122.2819,39.25095],[-122.28229,39.2511],[-122.28273,39.25131],[-122.28408,39.25194]]}},{"type":"Feature","properties":{"name":"(unnamed public road)","road_class":"track","surface":"dirt","source":"Caltrans All Roads + OpenStreetMap explicit surface","source_detail":"osm way 991323524; Caltrans All Roads public-network geometry match","source_tile":"164/390","public_network_source":"Caltrans All Roads (ARNOLD/HPMS)","surface_source":"OpenStreetMap explicit surface tag","caltrans_match_coverage":1.0,"verified_length_m":685},"geometry":{"type":"LineString","coordinates":[[-122.25752,39.26174],[-122.25783,39.26174],[-122.25914,39.26174],[-122.26116,39.26174],[-122.26196,39.26174],[-122.2634,39.26174],[-122.26452,39.26172],[-122.26537,39.26171],[-122.26547,39.26171]]}},{"type":"Feature","properties":{"name":"(unnamed public road)","road_class":"track","surface":"dirt","source":"Caltrans All Roads + OpenStreetMap explicit surface","source_detail":"osm way 1001631929; Caltrans All Roads public-network geometry match","source_tile":"164/390","public_network_source":"Caltrans All Roads (ARNOLD/HPMS)","surface_source":"OpenStreetMap explicit surface tag","caltrans_match_coverage":1.0,"verified_length_m":982},"geometry":{"type":"LineString","coordinates":[[-122.21715,39.13302],[-122.21716,39.13312],[-122.21719,39.13356],[-122.21719,39.1338],[-122.21718,39.13487],[-122.21717,39.13624],[-122.21719,39.13719],[-122.21719,39.13858],[-122.21719,39.13883],[-122.21719,39.1393],[-122.21719,39.14008],[-122.21719,39.14146],[-122.21719,39.1418],[-122.21732,39.14181]]}},{"type":"Feature","properties":{"name":"(unnamed public road)","road_class":"track","surface":"dirt","source":"Caltrans All Roads + OpenStreetMap explicit surface","source_detail":"osm way 1001631955; Caltrans All Roads public-network geometry match","source_tile":"164/390","public_network_source":"Caltrans All Roads (ARNOLD/HPMS)","surface_source":"OpenStreetMap explicit surface tag","caltrans_match_coverage":1.0,"verified_length_m":993},"geometry":{"type":"LineString","coordinates":[[-122.20499,39.13286],[-122.21461,39.13287],[-122.21649,39.13287]]}},{"type":"Feature","properties":{"name":"(unnamed public road)","road_class":"track","surface":"dirt","source":"Caltrans All Roads + OpenStreetMap explicit surface","source_detail":"osm way 1001641599; Caltrans All Roads public-network geometry match","source_tile":"164/390","public_network_source":"Caltrans All Roads (ARNOLD/HPMS)","surface_source":"OpenStreetMap explicit surface tag","caltrans_match_coverage":1.0,"verified_length_m":1122},"geometry":{"type":"LineString","coordinates":[[-122.23941,39.175],[-122.23951,39.175],[-122.24057,39.175],[-122.24103,39.17501],[-122.24143,39.175],[-122.24263,39.17501],[-122.24331,39.17503],[-122.24346,39.17504],[-122.24351,39.17505],[-122.24357,39.1751],[-122.24361,39.17516],[-122.24361,39.17522],[-122.24362,39.17583],[-122.24362,39.17637],[-122.24362,39.17725],[-122.24362,39.17803],[-122.24361,39.18162],[-122.2436,39.18179],[-122.24357,39.18189],[-122.24355,39.18197]]}},{"type":"Feature","properties":{"name":"(unnamed public road)","road_class":"track","surface":"dirt","source":"Caltrans All Roads + OpenStreetMap explicit surface","source_detail":"osm way 1004924563; Caltrans All Roads public-network geometry match","source_tile":"164/390","public_network_source":"Caltrans All Roads (ARNOLD/HPMS)","surface_source":"OpenStreetMap explicit surface tag","caltrans_match_coverage":1.0,"verified_length_m":526},"geometry":{"type":"LineString","coordinates":[[-122.24589,39.20445],[-122.24583,39.20439],[-122.2458,39.20435],[-122.24582,39.20426],[-122.24583,39.20413],[-122.24582,39.20353],[-122.24581,39.2029],[-122.24579,39.20226],[-122.24578,39.20146],[-122.24577,39.20111],[-122.24577,39.20103],[-122.24577,39.20097],[-122.24578,39.20087],[-122.24579,39.20074],[-122.24579,39.20033],[-122.24579,39.19994],[-122.24577,39.19982],[-122.24576,39.19977],[-122.24576,39.19972]]}},{"type":"Feature","properties":{"name":"(unnamed public road)","road_class":"track","surface":"dirt","source":"Caltrans All Roads + OpenStreetMap explicit surface","source_detail":"osm way 1008170036; Caltrans All Roads public-network geometry match","source_tile":"164/390","public_network_source":"Caltrans All Roads (ARNOLD/HPMS)","surface_source":"OpenStreetMap explicit surface tag","caltrans_match_coverage":1.0,"verified_length_m":810},"geometry":{"type":"LineString","coordinates":[[-122.15186,39.10103],[-122.15196,39.10105],[-122.15208,39.10107],[-122.15215,39.10111],[-122.15224,39.10113],[-122.15542,39.10114],[-122.15984,39.10115],[-122.16098,39.10114],[-122.16109,39.10114],[-122.16121,39.10114]]}},{"type":"Feature","properties":{"name":"(unnamed public road)","road_class":"track","surface":"dirt","source":"Caltrans All Roads + OpenStreetMap explicit surface","source_detail":"osm way 1009739366; Caltrans All Roads public-network geometry match","source_tile":"164/390","public_network_source":"Caltrans All Roads (ARNOLD/HPMS)","surface_source":"OpenStreetMap explicit surface tag","caltrans_match_coverage":1.0,"verified_length_m":1200},"geometry":{"type":"LineString","coordinates":[[-122.22669,39.15265],[-122.22106,39.15262],[-122.21863,39.1526],[-122.21769,39.1526],[-122.21764,39.1526],[-122.21761,39.15258],[-122.21759,39.15256],[-122.21757,39.15251],[-122.21756,39.14883]]}},{"type":"Feature","properties":{"name":"(unnamed public road)","road_class":"track","surface":"dirt","source":"Caltrans All Roads + OpenStreetMap explicit surface","source_detail":"osm way 1010844026; Caltrans All Roads public-network geometry match","source_tile":"164/390","public_network_source":"Caltrans All Roads (ARNOLD/HPMS)","surface_source":"OpenStreetMap explicit surface tag","caltrans_match_coverage":0.911,"verified_length_m":682},"geometry":{"type":"LineString","coordinates":[[-122.18173,39.11975],[-122.18246,39.11974],[-122.18392,39.11975],[-122.18496,39.11975],[-122.18502,39.11976],[-122.18504,39.11978],[-122.18506,39.11985],[-122.18507,39.12037],[-122.18507,39.12117],[-122.18507,39.12225],[-122.18508,39.12266],[-122.18505,39.12269],[-122.18496,39.12271],[-122.18422,39.1227]]}},{"type":"Feature","properties":{"name":"(unnamed public road)","road_class":"track","surface":"dirt","source":"Caltrans All Roads + OpenStreetMap explicit surface","source_detail":"osm way 1012625838; Caltrans All Roads public-network geometry match","source_tile":"164/390","public_network_source":"Caltrans All Roads (ARNOLD/HPMS)","surface_source":"OpenStreetMap explicit surface tag","caltrans_match_coverage":1.0,"verified_length_m":761},"geometry":{"type":"LineString","coordinates":[[-122.26926,39.19722],[-122.26926,39.19732],[-122.26929,39.19753],[-122.26933,39.19785],[-122.26936,39.19827],[-122.26944,39.19898],[-122.2695,39.19965],[-122.26955,39.20015],[-122.26959,39.20063],[-122.26965,39.20162],[-122.26967,39.20234],[-122.26966,39.20288],[-122.26963,39.20371],[-122.26962,39.20404],[-122.26962,39.20409]]}},{"type":"Feature","properties":{"name":"(unnamed public road)","road_class":"track","surface":"dirt","source":"Caltrans All Roads + OpenStreetMap explicit surface","source_detail":"osm way 1013404849; Caltrans All Roads public-network geometry match","source_tile":"164/390","public_network_source":"Caltrans All Roads (ARNOLD/HPMS)","surface_source":"OpenStreetMap explicit surface tag","caltrans_match_coverage":1.0,"verified_length_m":1010},"geometry":{"type":"LineString","coordinates":[[-122.25876,39.14854],[-122.2593,39.14824],[-122.2596,39.14808],[-122.26025,39.14768],[-122.2607,39.14734],[-122.26097,39.14712],[-122.26147,39.14669],[-122.26212,39.14612],[-122.26255,39.14573],[-122.26267,39.14563],[-122.26278,39.14551],[-122.26308,39.14526],[-122.26327,39.1451],[-122.26461,39.14394],[-122.26528,39.14335],[-122.26586,39.14286],[-122.26645,39.14235],[-122.26668,39.1422],[-122.26678,39.14215],[-122.26685,39.1421],[-122.26693,39.14204]]}},{"type":"Feature","properties":{"name":"Harbison Road","road_class":"unclassified","surface":"unpaved","source":"Caltrans All Roads + OpenStreetMap explicit surface","source_detail":"osm way 1017203692; Caltrans All Roads public-network geometry match","source_tile":"164/390","public_network_source":"Caltrans All Roads (ARNOLD/HPMS)","surface_source":"OpenStreetMap explicit surface tag","caltrans_match_coverage":1.0,"verified_length_m":1031},"geometry":{"type":"LineString","coordinates":[[-122.07912,39.24668],[-122.07928,39.24667],[-122.07961,39.24666],[-122.0799,39.24666],[-122.08061,39.24667],[-122.08072,39.24667],[-122.08083,39.24666],[-122.08109,39.24662],[-122.0812,39.24661],[-122.08151,39.24659],[-122.08165,39.24659],[-122.08176,39.24661],[-122.08185,39.24663],[-122.08198,39.24665],[-122.08243,39.24666],[-122.08501,39.2467],[-122.08624,39.2467],[-122.0884,39.24673],[-122.08993,39.24673],[-122.09019,39.24673],[-122.09106,39.24674]]}},{"type":"Feature","properties":{"name":"Two Mile Road","road_class":"unclassified","surface":"unpaved","source":"Caltrans All Roads + OpenStreetMap explicit surface","source_detail":"osm way 1017203697; Caltrans All Roads public-network geometry match","source_tile":"164/390","public_network_source":"Caltrans All Roads (ARNOLD/HPMS)","surface_source":"OpenStreetMap explicit surface tag","caltrans_match_coverage":1.0,"verified_length_m":6417},"geometry":{"type":"LineString","coordinates":[[-122.15317,39.21833],[-122.15322,39.22183],[-122.15323,39.22526],[-122.15326,39.22684],[-122.15327,39.22745],[-122.15328,39.22813],[-122.15329,39.23145],[-122.15331,39.23224],[-122.15333,39.23279],[-122.15335,39.23434],[-122.15337,39.23591],[-122.15341,39.23834],[-122.15341,39.23986],[-122.15342,39.24138],[-122.15342,39.2417],[-122.15342,39.24179],[-122.15343,39.24261],[-122.15342,39.24347],[-122.15342,39.2435],[-122.15343,39.24434],[-122.15345,39.2452],[-122.15346,39.24598],[-122.15346,39.2468],[-122.15345,39.24726],[-122.15347,39.2479],[-122.15347,39.24885],[-122.15351,39.251],[-122.15353,39.25187],[-122.15352,39.2527],[-122.15354,39.2545],[-122.15355,39.25548],[-122.15355,39.25627],[-122.15356,39.25677],[-122.15356,39.25756],[-122.15357,39.25835],[-122.15358,39.25909],[-122.1536,39.26061],[-122.15361,39.26138],[-122.15361,39.2619],[-122.15363,39.26255],[-122.15362,39.26305],[-122.15364,39.26383],[-122.15364,39.26536],[-122.15367,39.2668],[-122.15369,39.26912],[-122.15369,39.27035],[-122.1537,39.27094],[-122.1537,39.27179],[-122.1537,39.27252],[-122.15372,39.27547],[-122.15373,39.27638]]}},{"type":"Feature","properties":{"name":"Lurline Avenue","road_class":"unclassified","surface":"unpaved","source":"Caltrans All Roads + OpenStreetMap explicit surface","source_detail":"osm way 1151626554; Caltrans All Roads public-network geometry match","source_tile":"164/390","public_network_source":"Caltrans All Roads (ARNOLD/HPMS)","surface_source":"OpenStreetMap explicit surface tag","caltrans_match_coverage":1.0,"verified_length_m":7731},"geometry":{"type":"LineString","coordinates":[[-122.0888,39.21767],[-122.08898,39.21766],[-122.08945,39.21766],[-122.08993,39.21766],[-122.09116,39.21765],[-122.09296,39.21765],[-122.09312,39.21766],[-122.09381,39.21771],[-122.09414,39.21774],[-122.09441,39.21774],[-122.09645,39.21776],[-122.09719,39.21776],[-122.09962,39.21778],[-122.10092,39.21776],[-122.10281,39.21781],[-122.1034,39.21781],[-122.11446,39.21791],[-122.11608,39.21791],[-122.11621,39.21791],[-122.11631,39.21792],[-122.1248,39.21807],[-122.1268,39.21811],[-122.12816,39.21813],[-122.1294,39.21816],[-122.1307,39.21817],[-122.13208,39.21821],[-122.13451,39.21824],[-122.1375,39.21825],[-122.13903,39.21828],[-122.14099,39.21829],[-122.14298,39.2183],[-122.14329,39.2183],[-122.14356,39.2183],[-122.15062,39.21833],[-122.15317,39.21833],[-122.15697,39.21836],[-122.1765,39.21847],[-122.17843,39.21847]]}}]}