{"type":"FeatureCollection","features":[{"type":"Feature","properties":{"name":"Holloway-No Name Road","road_class":"track","tracktype":"grade5","source":"OpenStreetMap","source_detail":"osm way 5377113","source_tile":"175/380","surface_inferred":true},"geometry":{"type":"LineString","coordinates":[[-118.37151,42.00496],[-118.37143,42.00507],[-118.37137,42.00511],[-118.37127,42.00518],[-118.37091,42.0054],[-118.37071,42.00555],[-118.37062,42.00564],[-118.37057,42.00572],[-118.37054,42.00584],[-118.37052,42.00597],[-118.3705,42.00616],[-118.37052,42.00647],[-118.37052,42.00658],[-118.37051,42.00667],[-118.37042,42.00678],[-118.37033,42.00687],[-118.37029,42.00693],[-118.3703,42.00702],[-118.37041,42.00719],[-118.37086,42.00779],[-118.37097,42.00798],[-118.37102,42.00809],[-118.3711,42.00819],[-118.37123,42.00828],[-118.37134,42.00838],[-118.37198,42.00907],[-118.37214,42.00929],[-118.37225,42.0094],[-118.3726,42.00967],[-118.37286,42.00995],[-118.37313,42.01018],[-118.37323,42.01032],[-118.3733,42.0105],[-118.37338,42.01063],[-118.37356,42.01081],[-118.37364,42.0109],[-118.37372,42.01105],[-118.37383,42.01121],[-118.37399,42.0114],[-118.37405,42.01153],[-118.37407,42.01166],[-118.37412,42.01181],[-118.37421,42.01211],[-118.37421,42.0123],[-118.37412,42.01278],[-118.37408,42.01287],[-118.374,42.01295],[-118.37384,42.0131],[-118.37371,42.01322],[-118.37351,42.01345],[-118.37325,42.01369],[-118.37282,42.01408],[-118.37272,42.01423],[-118.37259,42.01443],[-118.37246,42.01457],[-118.3723,42.01466],[-118.37192,42.01487],[-118.37153,42.01511],[-118.37107,42.0155],[-118.37098,42.0156],[-118.37094,42.01575],[-118.37091,42.01596],[-118.37084,42.01626],[-118.3708,42.01653],[-118.3708,42.01685],[-118.3708,42.01706],[-118.37073,42.01727],[-118.37068,42.01754],[-118.37063,42.01791],[-118.37063,42.01805],[-118.37069,42.01821],[-118.37071,42.01827],[-118.37095,42.01883],[-118.37108,42.01919],[-118.37135,42.01971],[-118.37146,42.01998],[-118.37153,42.02025],[-118.37161,42.0204],[-118.37182,42.0206],[-118.37188,42.0207],[-118.37191,42.02082],[-118.37191,42.02109],[-118.37194,42.02121],[-118.372,42.02147],[-118.37198,42.02178],[-118.372,42.02195],[-118.3721,42.02223],[-118.3722,42.02263],[-118.37229,42.02278],[-118.37244,42.02297],[-118.37254,42.02313],[-118.37264,42.02344],[-118.3727,42.02356],[-118.37282,42.02366],[-118.37298,42.02377],[-118.37304,42.02385],[-118.37306,42.02394],[-118.37302,42.02424],[-118.37304,42.02455],[-118.37308,42.0249],[-118.37307,42.02502],[-118.37297,42.02517],[-118.3727,42.02567],[-118.37263,42.02583],[-118.37262,42.02593],[-118.37267,42.02613],[-118.37297,42.02683],[-118.37307,42.02715],[-118.37319,42.02765],[-118.3733,42.02812],[-118.37338,42.02837],[-118.37369,42.02898],[-118.37388,42.02939],[-118.37395,42.02951],[-118.37405,42.0297],[-118.37413,42.02979],[-118.3743,42.02995],[-118.37436,42.03005],[-118.37438,42.03027],[-118.37441,42.03037],[-118.37449,42.03049],[-118.3745,42.0306],[-118.37448,42.03073],[-118.37444,42.03086],[-118.37447,42.03098],[-118.37458,42.03125],[-118.37479,42.03186],[-118.37487,42.03223],[-118.37487,42.03245],[-118.37484,42.03262],[-118.37477,42.03274],[-118.3746,42.03293],[-118.37444,42.03304],[-118.37392,42.03329],[-118.37336,42.03364],[-118.3731,42.03374],[-118.3727,42.03386],[-118.37253,42.03396],[-118.37216,42.03422],[-118.37166,42.03463],[-118.37124,42.03497],[-118.37102,42.03511],[-118.37055,42.0353],[-118.37022,42.03549],[-118.36991,42.03566],[-118.36933,42.03595],[-118.36895,42.0361],[-118.36857,42.03621],[-118.36806,42.03635],[-118.3679,42.03642],[-118.36752,42.03663],[-118.36711,42.03685],[-118.36696,42.03691],[-118.3667,42.03695],[-118.36644,42.03699],[-118.36628,42.03704],[-118.36615,42.03711],[-118.36606,42.03723],[-118.36597,42.03742],[-118.36586,42.03776],[-118.36565,42.03807],[-118.36554,42.03816],[-118.36513,42.03828],[-118.36448,42.03842],[-118.36414,42.0385],[-118.36394,42.03856],[-118.36382,42.03865],[-118.36375,42.03873],[-118.36363,42.0388],[-118.36345,42.03889],[-118.36299,42.03893],[-118.36273,42.03896],[-118.36252,42.03904],[-118.36228,42.0391],[-118.36207,42.03913],[-118.36151,42.03923],[-118.36121,42.03931],[-118.36104,42.03937],[-118.36096,42.03942],[-118.36092,42.03948],[-118.36092,42.03956],[-118.36096,42.0397],[-118.36095,42.03976],[-118.36093,42.03981]]}},{"type":"Feature","properties":{"name":"Trout Creek Mountain Road","road_class":"track","surface":"dirt","tracktype":"grade4","source":"OpenStreetMap","source_detail":"osm way 5378852","source_tile":"175/380"},"geometry":{"type":"LineString","coordinates":[[-118.35906,42.19539],[-118.35825,42.19539],[-118.35747,42.19535],[-118.3563,42.1953],[-118.35518,42.19526],[-118.35441,42.19525],[-118.35406,42.19522],[-118.35382,42.19517],[-118.35364,42.19509],[-118.35342,42.19492],[-118.35293,42.19448],[-118.35274,42.19438],[-118.35216,42.19415],[-118.35153,42.19391],[-118.35121,42.19384],[-118.351,42.19382],[-118.35046,42.19384],[-118.3495,42.19391],[-118.34838,42.19391],[-118.34537,42.19392],[-118.34218,42.19394],[-118.34095,42.19395],[-118.34078,42.19395],[-118.34065,42.19392],[-118.34054,42.19385],[-118.34016,42.19342],[-118.3397,42.19285],[-118.33949,42.19271],[-118.33897,42.19243],[-118.33878,42.19237],[-118.33818,42.1923],[-118.33598,42.19205],[-118.33428,42.1918],[-118.33339,42.19167],[-118.33127,42.19125],[-118.32859,42.1906],[-118.32722,42.19017],[-118.3251,42.18949],[-118.32447,42.18927],[-118.32409,42.18908],[-118.32365,42.18883],[-118.32231,42.18796],[-118.32156,42.18738],[-118.32083,42.18677],[-118.32058,42.18661],[-118.32039,42.18655],[-118.31997,42.18652],[-118.31979,42.18648],[-118.31956,42.18639],[-118.31865,42.18594],[-118.31849,42.18583],[-118.31842,42.18571],[-118.31841,42.18559],[-118.31843,42.18536],[-118.31841,42.18525],[-118.31834,42.18517],[-118.31807,42.18502],[-118.31746,42.18476],[-118.3171,42.18455],[-118.31545,42.18353],[-118.31465,42.18303],[-118.31257,42.18175],[-118.31164,42.18119],[-118.3114,42.18102],[-118.31097,42.18066],[-118.31066,42.18038],[-118.31049,42.18017],[-118.31038,42.17996],[-118.31014,42.1796],[-118.30996,42.1794],[-118.30979,42.17927],[-118.30892,42.17883],[-118.30846,42.17863],[-118.30807,42.17847],[-118.30712,42.17808],[-118.30645,42.1778],[-118.306,42.17766],[-118.30553,42.1775],[-118.3052,42.17735],[-118.30439,42.17693],[-118.30429,42.17688],[-118.30411,42.17679],[-118.30381,42.17659],[-118.30354,42.17633],[-118.30301,42.17584],[-118.30268,42.17561],[-118.30194,42.1752],[-118.30143,42.17496],[-118.30071,42.17461],[-118.3004,42.17445],[-118.30007,42.17421],[-118.29981,42.17404],[-118.29939,42.17388],[-118.29891,42.17373],[-118.29852,42.1736],[-118.29818,42.17341],[-118.29771,42.17308],[-118.29754,42.17293],[-118.29727,42.17262],[-118.297,42.17241],[-118.29669,42.17222],[-118.29641,42.17209],[-118.29627,42.17196],[-118.2962,42.1718],[-118.29614,42.17169],[-118.296,42.17157],[-118.29587,42.17149],[-118.29573,42.17146],[-118.29555,42.1714],[-118.29522,42.17121],[-118.29465,42.17089],[-118.29419,42.17072],[-118.29341,42.17058],[-118.29271,42.17049],[-118.29234,42.1705],[-118.29207,42.17054],[-118.29164,42.17067],[-118.29129,42.17076],[-118.29099,42.17082],[-118.2907,42.17085],[-118.28971,42.17087],[-118.28916,42.17091],[-118.28878,42.17097],[-118.2884,42.17108],[-118.28803,42.17118],[-118.28717,42.17137],[-118.28691,42.17144],[-118.28682,42.17144],[-118.28671,42.17142],[-118.28657,42.17136],[-118.28612,42.17117],[-118.28573,42.17103],[-118.28539,42.17092],[-118.28498,42.17081],[-118.28451,42.17066],[-118.28412,42.17051],[-118.28374,42.17031],[-118.28332,42.17005],[-118.28304,42.16985],[-118.28265,42.16946],[-118.2823,42.16903],[-118.28205,42.16864],[-118.28181,42.16824],[-118.28169,42.168],[-118.28156,42.16762],[-118.2815,42.16738],[-118.28146,42.16726],[-118.28135,42.16709],[-118.28127,42.16696],[-118.28117,42.16676],[-118.28095,42.16631],[-118.28079,42.1661],[-118.28072,42.16599],[-118.2807,42.16589],[-118.28072,42.16578],[-118.28076,42.16566],[-118.28086,42.16555],[-118.28096,42.16548],[-118.28108,42.16544],[-118.2812,42.16541],[-118.28135,42.16541],[-118.28166,42.16545],[-118.28185,42.1655],[-118.28222,42.16575],[-118.28251,42.16594],[-118.28269,42.16601],[-118.28288,42.16606],[-118.28406,42.16622],[-118.28438,42.16622],[-118.28462,42.16619],[-118.28472,42.16616],[-118.28478,42.16612],[-118.2848,42.16606],[-118.28478,42.16599],[-118.28468,42.16585],[-118.28455,42.16573],[-118.28434,42.16558],[-118.2842,42.16546],[-118.28411,42.1653],[-118.28404,42.16517],[-118.28371,42.16484],[-118.28333,42.16451],[-118.28319,42.16436],[-118.28311,42.16422],[-118.28297,42.16383],[-118.28287,42.1637],[-118.28262,42.1635],[-118.28234,42.16326],[-118.28186,42.16269],[-118.28162,42.1624],[-118.28156,42.16227],[-118.28153,42.16207],[-118.28149,42.16183],[-118.28137,42.16152],[-118.28128,42.16144],[-118.28107,42.16131],[-118.28089,42.16118],[-118.28074,42.16101],[-118.2806,42.1609],[-118.28029,42.16073],[-118.28001,42.16058],[-118.27988,42.16045],[-118.27977,42.16028],[-118.27967,42.16012],[-118.27955,42.16002],[-118.27931,42.15993],[-118.27911,42.15988],[-118.2789,42.15986],[-118.27875,42.15982],[-118.27865,42.15976],[-118.27839,42.15957],[-118.2781,42.15935],[-118.27786,42.15922],[-118.27761,42.15913],[-118.27751,42.15905],[-118.27746,42.15895],[-118.27745,42.15889],[-118.27747,42.15877],[-118.27764,42.1581],[-118.27769,42.15788],[-118.27769,42.15779],[-118.27765,42.15769],[-118.2774,42.15739],[-118.277,42.15678],[-118.27677,42.15643],[-118.27669,42.15624],[-118.27649,42.15562],[-118.27619,42.15468],[-118.27609,42.15435],[-118.27597,42.15414],[-118.27584,42.15392],[-118.27575,42.15366],[-118.27568,42.15337],[-118.27563,42.153],[-118.27557,42.15241],[-118.27555,42.15211],[-118.27554,42.15176],[-118.2755,42.15153],[-118.27542,42.15123],[-118.27538,42.15103],[-118.27534,42.15074],[-118.27523,42.1504],[-118.27506,42.14992],[-118.27501,42.14968],[-118.27495,42.14934],[-118.27484,42.14895],[-118.27468,42.14857],[-118.27448,42.14813],[-118.27437,42.14773],[-118.27434,42.14757],[-118.27433,42.14725],[-118.27426,42.14682],[-118.27425,42.14655],[-118.27425,42.1462],[-118.27427,42.14595],[-118.27433,42.14575],[-118.2745,42.14548],[-118.27479,42.14515],[-118.27497,42.14496],[-118.27512,42.14474],[-118.27516,42.14462],[-118.27522,42.14442],[-118.27519,42.14409],[-118.27507,42.14364],[-118.27501,42.14332],[-118.275,42.1432],[-118.27502,42.1431],[-118.27514,42.14293],[-118.27526,42.14277],[-118.27537,42.14246],[-118.27545,42.14212],[-118.27549,42.14201],[-118.27555,42.14193],[-118.27556,42.14183],[-118.27554,42.1417],[-118.27546,42.1415],[-118.27544,42.14138],[-118.27546,42.14126],[-118.27551,42.14111],[-118.27561,42.14092],[-118.27565,42.14073],[-118.2757,42.14042],[-118.27574,42.14023],[-118.27591,42.13974],[-118.27597,42.13938],[-118.27619,42.13856],[-118.27627,42.13834],[-118.27638,42.13814],[-118.27644,42.13804],[-118.27648,42.13793],[-118.27655,42.13782],[-118.27685,42.13732],[-118.27726,42.13669],[-118.27749,42.13633],[-118.27764,42.13606],[-118.2777,42.13589],[-118.27775,42.13573],[-118.27792,42.13536],[-118.27818,42.13486],[-118.27851,42.13415],[-118.2788,42.1333],[-118.27893,42.13293],[-118.27903,42.13225],[-118.27912,42.13162],[-118.27912,42.13135],[-118.27907,42.13096],[-118.27909,42.13085],[-118.27916,42.13075],[-118.27921,42.13065],[-118.27922,42.1305],[-118.27918,42.13036],[-118.27907,42.1302],[-118.27904,42.13008],[-118.27904,42.12991],[-118.27912,42.12978],[-118.27927,42.12955],[-118.27942,42.12934],[-118.27948,42.12919],[-118.27949,42.12903],[-118.27948,42.12883],[-118.27951,42.12871],[-118.2796,42.12856],[-118.27964,42.12843],[-118.27963,42.12827],[-118.27955,42.12792],[-118.27951,42.12762],[-118.27951,42.12735],[-118.27959,42.12644],[-118.27968,42.12596],[-118.27973,42.12551],[-118.27972,42.12494],[-118.2796,42.12412],[-118.27948,42.12344],[-118.27936,42.12307],[-118.27919,42.12273],[-118.279,42.12239],[-118.27882,42.12204],[-118.27873,42.12175],[-118.27866,42.12152],[-118.27861,42.12111],[-118.27849,42.12063],[-118.27841,42.1204],[-118.27824,42.12007],[-118.27797,42.11954],[-118.27787,42.11929],[-118.27783,42.1192],[-118.27777,42.11915],[-118.27769,42.11913],[-118.27754,42.11911],[-118.2774,42.11909],[-118.27728,42.11905],[-118.2772,42.11899],[-118.27708,42.11889],[-118.27691,42.11873],[-118.27681,42.11867],[-118.27662,42.11858],[-118.27647,42.1185],[-118.27621,42.11831],[-118.27609,42.11826],[-118.27599,42.11823],[-118.27591,42.11824],[-118.27584,42.11825],[-118.27573,42.11827],[-118.27554,42.1183],[-118.27496,42.11839],[-118.27466,42.11844],[-118.27445,42.1185],[-118.27434,42.1185],[-118.27426,42.11849],[-118.27414,42.11844],[-118.27398,42.11836],[-118.27376,42.11828],[-118.27354,42.11823],[-118.27336,42.1182],[-118.27311,42.11818],[-118.27282,42.11812],[-118.27258,42.11806],[-118.27243,42.11802],[-118.27236,42.11798],[-118.27228,42.11789],[-118.27216,42.1177],[-118.27207,42.11748],[-118.272,42.11727],[-118.27199,42.11712],[-118.27202,42.117],[-118.27211,42.11679],[-118.27222,42.11656],[-118.27226,42.11644],[-118.27225,42.11636],[-118.27219,42.11626],[-118.27194,42.11596],[-118.27174,42.11571],[-118.27158,42.11545],[-118.27156,42.1154],[-118.27148,42.11521],[-118.2713,42.11471],[-118.27108,42.11422],[-118.27097,42.11393],[-118.27086,42.11349],[-118.27081,42.11328],[-118.27071,42.11308],[-118.27057,42.11274],[-118.27043,42.11226],[-118.27032,42.11173],[-118.27025,42.11129],[-118.2701,42.11083],[-118.26999,42.11043],[-118.26989,42.10995],[-118.26984,42.1095],[-118.26983,42.10906],[-118.26986,42.10804],[-118.26987,42.10748],[-118.26986,42.10734],[-118.26973,42.10695],[-118.26959,42.10633],[-118.2695,42.10594],[-118.26951,42.10564],[-118.26959,42.10476],[-118.2696,42.10421],[-118.26963,42.10367],[-118.26968,42.10321],[-118.26972,42.10289],[-118.26976,42.10271],[-118.2699,42.10233],[-118.27003,42.10192],[-118.27007,42.1017],[-118.27021,42.10143],[-118.27027,42.10129],[-118.27028,42.10116],[-118.27025,42.10096],[-118.27022,42.10077],[-118.27023,42.10057],[-118.27027,42.10032],[-118.27026,42.10015],[-118.27024,42.1],[-118.27013,42.09975],[-118.26997,42.09949],[-118.26994,42.09942],[-118.26994,42.09935],[-118.26995,42.09931],[-118.27,42.09918],[-118.27003,42.09908],[-118.27001,42.09899],[-118.26993,42.09884],[-118.26981,42.09868],[-118.26973,42.09851],[-118.26971,42.09836],[-118.26972,42.09824],[-118.26975,42.09813],[-118.26978,42.09798],[-118.26976,42.09786],[-118.26974,42.09766],[-118.26975,42.09731],[-118.2697,42.09679],[-118.26969,42.09661],[-118.26973,42.09625],[-118.26976,42.09549],[-118.26972,42.09495],[-118.26972,42.09442],[-118.26972,42.09383],[-118.26963,42.09257],[-118.26953,42.09185],[-118.2695,42.09154],[-118.26949,42.09134],[-118.26944,42.09112],[-118.26942,42.09098],[-118.26942,42.09081],[-118.26945,42.0906],[-118.26957,42.09025],[-118.26959,42.09007],[-118.26957,42.08983],[-118.26954,42.08964],[-118.26954,42.08936],[-118.26951,42.08904],[-118.26945,42.0887],[-118.26942,42.08827],[-118.2694,42.08811],[-118.26921,42.08721],[-118.26914,42.08688],[-118.26906,42.08669],[-118.26893,42.08649],[-118.26891,42.08639],[-118.26891,42.08626],[-118.26891,42.08606],[-118.26885,42.08582],[-118.26878,42.08555],[-118.26871,42.08511],[-118.26859,42.08442],[-118.26856,42.08425],[-118.26858,42.0841],[-118.26863,42.08393],[-118.26872,42.08373],[-118.269,42.08326],[-118.26915,42.08296],[-118.26933,42.08252],[-118.26939,42.08226],[-118.26946,42.08185],[-118.26948,42.08151],[-118.26949,42.08113],[-118.26944,42.08059],[-118.26943,42.08051],[-118.26933,42.0799],[-118.26926,42.07947],[-118.26909,42.07879],[-118.269,42.07853],[-118.26869,42.07792],[-118.26845,42.07753],[-118.26828,42.07726],[-118.26817,42.07712],[-118.26804,42.07702],[-118.26793,42.07696],[-118.26786,42.07691],[-118.26778,42.07682],[-118.26762,42.07665],[-118.26747,42.07654],[-118.26722,42.07634],[-118.26696,42.07611],[-118.26614,42.07521],[-118.26581,42.07483],[-118.26554,42.07448],[-118.26498,42.0737],[-118.26459,42.07306],[-118.26446,42.07288],[-118.26438,42.07278],[-118.26427,42.07269],[-118.26316,42.07193],[-118.26199,42.07111],[-118.26148,42.07079],[-118.26125,42.07066],[-118.26092,42.07049],[-118.26057,42.07024],[-118.26035,42.07008],[-118.26027,42.06999],[-118.26024,42.0699],[-118.26027,42.06977],[-118.26036,42.06956],[-118.26049,42.06932],[-118.26054,42.06919],[-118.26056,42.06914],[-118.2606,42.06901],[-118.26061,42.06879],[-118.26058,42.06847],[-118.26054,42.06834],[-118.26046,42.06822],[-118.26017,42.06791],[-118.26007,42.06777],[-118.26005,42.06772],[-118.26002,42.06762],[-118.25999,42.06746],[-118.25999,42.06717],[-118.26002,42.06694],[-118.26007,42.06676],[-118.26017,42.06655],[-118.26022,42.06638],[-118.26024,42.06614],[-118.26022,42.06553],[-118.26017,42.06509],[-118.26009,42.06481],[-118.25996,42.06435],[-118.25988,42.06413],[-118.25979,42.06399],[-118.25959,42.06382],[-118.25943,42.06365],[-118.25927,42.06347],[-118.25909,42.06331],[-118.25879,42.06305],[-118.25861,42.06283],[-118.25816,42.06209],[-118.25765,42.06118],[-118.25743,42.06071],[-118.25731,42.06045],[-118.25704,42.06011],[-118.25696,42.06003],[-118.25674,42.0599],[-118.25635,42.05969],[-118.256,42.05951],[-118.25585,42.05942],[-118.25576,42.05931],[-118.25569,42.0592],[-118.2556,42.05908],[-118.25549,42.05899],[-118.25512,42.05879],[-118.25482,42.05863],[-118.25469,42.05853],[-118.25449,42.05831],[-118.25419,42.05799],[-118.25387,42.05759],[-118.25341,42.05694],[-118.25332,42.05682],[-118.25312,42.05655],[-118.253,42.05641],[-118.2529,42.05616],[-118.25266,42.05574],[-118.2522,42.05503],[-118.25188,42.05465],[-118.25152,42.0542],[-118.25114,42.05355],[-118.25046,42.05224],[-118.25019,42.05185],[-118.24979,42.05131],[-118.24969,42.05107],[-118.24966,42.05085],[-118.2497,42.05053],[-118.24967,42.05034],[-118.24958,42.05012],[-118.24893,42.04915],[-118.24863,42.04863],[-118.24854,42.04835],[-118.24853,42.04809],[-118.24858,42.04786],[-118.24873,42.04759],[-118.24875,42.04748],[-118.24873,42.04737],[-118.24864,42.04727],[-118.24852,42.04718],[-118.2483,42.04703],[-118.24789,42.0466],[-118.24767,42.04644],[-118.24746,42.04634],[-118.24712,42.04625],[-118.24687,42.04614],[-118.24655,42.04597],[-118.24617,42.04585],[-118.24569,42.04571],[-118.24542,42.04559],[-118.24502,42.04541],[-118.24465,42.04528],[-118.2444,42.04515],[-118.24387,42.04471],[-118.2436,42.04457],[-118.24342,42.04447],[-118.24339,42.04437],[-118.24341,42.04425],[-118.24351,42.04407],[-118.24355,42.04391],[-118.24349,42.04362],[-118.24341,42.04344],[-118.24301,42.04278],[-118.24249,42.04177],[-118.24233,42.0416],[-118.24197,42.04127],[-118.24172,42.04096],[-118.24148,42.04068],[-118.24113,42.04029],[-118.24088,42.03994],[-118.24052,42.03961],[-118.24023,42.03933],[-118.24001,42.03899],[-118.23992,42.03885],[-118.23989,42.03871],[-118.23987,42.03857],[-118.23983,42.03843],[-118.23968,42.03809],[-118.2396,42.03786],[-118.23957,42.03766],[-118.23954,42.03721],[-118.23949,42.037],[-118.23945,42.03691],[-118.23928,42.03669],[-118.23915,42.03652],[-118.23889,42.03603],[-118.2387,42.03565],[-118.23859,42.03551],[-118.2384,42.03535],[-118.23832,42.03525],[-118.23817,42.03505],[-118.23805,42.0349],[-118.23796,42.03484],[-118.23779,42.03473],[-118.23766,42.03463],[-118.23743,42.03435],[-118.23712,42.03408],[-118.23696,42.034],[-118.23664,42.03387],[-118.23651,42.03379],[-118.23634,42.03368],[-118.23617,42.03351],[-118.23608,42.03337],[-118.23606,42.03324],[-118.23611,42.0331],[-118.23618,42.03295],[-118.23631,42.03275],[-118.23651,42.03226],[-118.23664,42.03187],[-118.23672,42.03157],[-118.23681,42.03139],[-118.23703,42.03108],[-118.23713,42.03093],[-118.23717,42.03081],[-118.23718,42.0307],[-118.23714,42.03053],[-118.23681,42.02973],[-118.23639,42.02883],[-118.23619,42.02832],[-118.23615,42.02811],[-118.23616,42.0279],[-118.23618,42.02774],[-118.23619,42.0277],[-118.23621,42.02767],[-118.23626,42.02758],[-118.23632,42.02752],[-118.2364,42.02746],[-118.23649,42.02742],[-118.23659,42.02739],[-118.2367,42.02738],[-118.23685,42.02736],[-118.2377,42.02733],[-118.23897,42.02729],[-118.23956,42.02728],[-118.24057,42.02723],[-118.24119,42.02719],[-118.24199,42.02718],[-118.24241,42.02717],[-118.24302,42.02715],[-118.24327,42.02717],[-118.24347,42.02718],[-118.24378,42.02716],[-118.24406,42.02713],[-118.24418,42.02713],[-118.24437,42.02714],[-118.24451,42.02713],[-118.24508,42.02707],[-118.24529,42.02703],[-118.24539,42.02698],[-118.24544,42.02695],[-118.24556,42.02688],[-118.24569,42.02677],[-118.24591,42.02661],[-118.2461,42.02647],[-118.24618,42.02641],[-118.24632,42.02623],[-118.24639,42.02615],[-118.24654,42.02602],[-118.24671,42.02586],[-118.24708,42.0254],[-118.24749,42.02501],[-118.24786,42.0247],[-118.24818,42.02443],[-118.24831,42.02435],[-118.24861,42.0242],[-118.24903,42.02396],[-118.24925,42.02381],[-118.24937,42.02371],[-118.24952,42.02355],[-118.24962,42.02344],[-118.24986,42.02322],[-118.25012,42.02292],[-118.25025,42.02279],[-118.25037,42.02273],[-118.25062,42.02263],[-118.25076,42.02256],[-118.25105,42.02234],[-118.25119,42.02223],[-118.25127,42.02209],[-118.25129,42.02155],[-118.25133,42.02143],[-118.25144,42.02136],[-118.2516,42.02131],[-118.25273,42.02107],[-118.25302,42.02103],[-118.2533,42.02103],[-118.25337,42.02102],[-118.25363,42.021],[-118.25405,42.02093],[-118.25413,42.02088],[-118.25416,42.02078],[-118.25411,42.0207],[-118.25387,42.0205],[-118.25383,42.02039],[-118.25388,42.0203],[-118.25399,42.02026],[-118.25414,42.02026],[-118.25454,42.0203],[-118.25539,42.02041],[-118.2558,42.02043],[-118.25612,42.0204],[-118.25634,42.02032],[-118.25654,42.02019],[-118.2566,42.02008],[-118.25658,42.01996],[-118.25645,42.01979],[-118.2561,42.01949],[-118.25596,42.01935],[-118.25584,42.01914],[-118.25571,42.01883],[-118.25566,42.01837],[-118.25551,42.01773],[-118.25552,42.01759],[-118.25557,42.01753],[-118.25569,42.01751],[-118.25587,42.0175],[-118.25613,42.01752],[-118.25652,42.01749],[-118.25681,42.01744],[-118.25701,42.01738],[-118.25763,42.01708],[-118.25785,42.01696],[-118.25796,42.01691],[-118.25816,42.01681],[-118.25835,42.01674],[-118.25857,42.01669],[-118.25882,42.01664],[-118.25906,42.01662],[-118.25942,42.01659],[-118.25987,42.01662],[-118.26068,42.01668],[-118.26121,42.01674],[-118.26236,42.01693],[-118.2632,42.01706],[-118.26439,42.0173],[-118.26461,42.01734],[-118.2648,42.01733],[-118.26507,42.01732],[-118.26526,42.01734],[-118.26544,42.01738],[-118.26603,42.01757],[-118.26626,42.01765],[-118.26671,42.01774],[-118.26824,42.01813],[-118.26874,42.01829],[-118.26904,42.01842],[-118.26993,42.01863],[-118.2707,42.01884],[-118.27105,42.01893],[-118.27195,42.0191],[-118.27212,42.01915],[-118.27226,42.01923],[-118.27265,42.0195],[-118.27313,42.01989],[-118.27344,42.02018],[-118.27385,42.02046],[-118.27436,42.02069],[-118.27456,42.02077],[-118.27474,42.02079],[-118.27497,42.02079],[-118.27514,42.02081],[-118.27545,42.02086],[-118.27567,42.02087],[-118.27652,42.02089],[-118.27759,42.02097],[-118.27806,42.02098],[-118.27849,42.02101],[-118.27868,42.02107],[-118.27885,42.0211],[-118.27895,42.02111],[-118.27922,42.02109],[-118.27953,42.02106],[-118.27973,42.02105],[-118.27992,42.02106],[-118.28022,42.02109],[-118.28096,42.02117],[-118.28137,42.02124],[-118.28152,42.02126],[-118.28181,42.02127],[-118.28206,42.0213],[-118.28245,42.02138],[-118.28288,42.02154],[-118.28324,42.02168],[-118.28343,42.02178],[-118.28359,42.02185],[-118.28372,42.02187],[-118.28391,42.02187],[-118.28445,42.02187],[-118.28459,42.02189],[-118.28477,42.02194],[-118.28534,42.02209],[-118.28564,42.02219],[-118.28594,42.02235],[-118.28606,42.02246],[-118.28618,42.02261],[-118.28629,42.02276],[-118.28641,42.02285],[-118.28687,42.02305],[-118.28699,42.02313],[-118.28717,42.02328],[-118.2883,42.02434],[-118.28876,42.02477],[-118.28934,42.02519],[-118.28965,42.02537],[-118.28982,42.02556],[-118.28992,42.02567],[-118.29,42.02572],[-118.29007,42.02571],[-118.29018,42.02567],[-118.29042,42.02556],[-118.29123,42.02521],[-118.29206,42.02487],[-118.29223,42.02476],[-118.29237,42.02464],[-118.29243,42.02456],[-118.29254,42.02451],[-118.29274,42.02448],[-118.29295,42.02446],[-118.29329,42.02442],[-118.29355,42.02436],[-118.29377,42.0243],[-118.29398,42.02422],[-118.29424,42.02407],[-118.29452,42.02384],[-118.29489,42.02338],[-118.29497,42.0233],[-118.29508,42.02315],[-118.29516,42.0231],[-118.2953,42.02305],[-118.29564,42.02297],[-118.2958,42.02295],[-118.296,42.02295],[-118.29613,42.02291],[-118.29624,42.02284],[-118.29634,42.02276],[-118.29639,42.02268],[-118.29642,42.02256],[-118.29646,42.02227],[-118.29651,42.02218],[-118.29659,42.0221],[-118.29681,42.02192],[-118.29693,42.0218],[-118.29706,42.0216],[-118.2972,42.02116],[-118.2973,42.02074],[-118.29731,42.02041],[-118.29734,42.02027],[-118.29741,42.02021],[-118.2975,42.02017],[-118.29759,42.02014],[-118.29781,42.02009],[-118.29818,42.01999],[-118.29852,42.0199],[-118.29874,42.01987],[-118.2991,42.01985],[-118.29928,42.01981],[-118.2995,42.01971],[-118.29966,42.01966],[-118.2998,42.01966],[-118.29998,42.01969],[-118.30012,42.01973],[-118.30066,42.01987],[-118.30099,42.01997],[-118.30129,42.02002],[-118.30151,42.02003],[-118.30162,42.02001],[-118.30177,42.01997],[-118.30192,42.01994],[-118.3023,42.0199],[-118.30257,42.01989],[-118.30286,42.0199],[-118.30371,42.01998],[-118.3041,42.01999],[-118.30436,42.01999],[-118.30451,42.01996],[-118.30463,42.01994],[-118.30476,42.01994],[-118.30498,42.01996],[-118.30525,42.01995],[-118.30545,42.01991],[-118.3057,42.01982],[-118.30584,42.01978],[-118.30605,42.01978],[-118.30619,42.01979],[-118.30628,42.01983],[-118.30635,42.01988],[-118.30644,42.01999],[-118.30652,42.0201],[-118.30663,42.02017],[-118.30673,42.02021],[-118.30688,42.02024],[-118.30706,42.02025],[-118.30733,42.02025],[-118.31171,42.02027],[-118.31285,42.02027],[-118.3133,42.02026],[-118.31346,42.02027],[-118.31352,42.02035],[-118.31355,42.02041],[-118.31355,42.02049],[-118.31352,42.02056],[-118.3135,42.02066],[-118.31349,42.0219],[-118.31342,42.02368],[-118.31334,42.02532],[-118.31327,42.02704],[-118.31321,42.02801],[-118.31321,42.02816],[-118.31327,42.02825],[-118.31335,42.02832],[-118.31355,42.02844],[-118.31368,42.02853],[-118.31377,42.02863],[-118.3139,42.02872],[-118.31401,42.02883],[-118.31406,42.02895],[-118.3141,42.02912],[-118.31416,42.0295],[-118.31413,42.02973],[-118.314,42.02997],[-118.3139,42.03012],[-118.31387,42.03026],[-118.31388,42.03042],[-118.31386,42.03056],[-118.31379,42.0307],[-118.3137,42.03088],[-118.31366,42.03102],[-118.31364,42.03131],[-118.31349,42.03182],[-118.31334,42.03227],[-118.3133,42.03244],[-118.3133,42.03256],[-118.31334,42.03271],[-118.3134,42.03307],[-118.31345,42.03324],[-118.31352,42.03336],[-118.31364,42.03343],[-118.31372,42.03346],[-118.31383,42.03346],[-118.31397,42.03343],[-118.31414,42.03341],[-118.31442,42.03342],[-118.3146,42.03343],[-118.31471,42.03347],[-118.31516,42.03383],[-118.31529,42.03394],[-118.31544,42.03401],[-118.31548,42.03405],[-118.31548,42.0341],[-118.31546,42.03416],[-118.31534,42.03427],[-118.31521,42.0344],[-118.31519,42.03447],[-118.3152,42.03452],[-118.31523,42.03456],[-118.31531,42.03462],[-118.31593,42.03485],[-118.31618,42.03494],[-118.31648,42.035],[-118.31667,42.03507],[-118.31684,42.03518],[-118.31704,42.03535],[-118.31719,42.03556],[-118.31732,42.03568],[-118.3176,42.03586],[-118.31785,42.03598],[-118.31847,42.0362],[-118.31873,42.03632],[-118.31904,42.03647],[-118.31941,42.03663],[-118.31977,42.0368],[-118.32009,42.03705],[-118.32034,42.03724],[-118.32051,42.03737],[-118.32073,42.03752],[-118.32102,42.0378],[-118.32129,42.03813],[-118.32152,42.03847],[-118.32166,42.03874],[-118.32186,42.03898],[-118.32225,42.03947],[-118.32264,42.03994],[-118.32303,42.04043],[-118.32324,42.04062],[-118.32366,42.04088],[-118.32395,42.04105],[-118.32413,42.04115],[-118.32428,42.0413],[-118.32446,42.04152],[-118.32484,42.04207],[-118.32494,42.04219],[-118.32509,42.0423],[-118.32547,42.04268],[-118.32587,42.04302],[-118.32602,42.04315],[-118.32631,42.04328],[-118.32641,42.04334],[-118.32647,42.04341],[-118.32655,42.04353],[-118.32669,42.04368],[-118.3269,42.04393],[-118.32702,42.04415],[-118.32709,42.0444],[-118.32712,42.04491],[-118.32709,42.0451],[-118.32701,42.0453],[-118.32692,42.04548],[-118.32688,42.04568],[-118.3268,42.04611],[-118.32676,42.04638],[-118.32681,42.04675],[-118.32687,42.04703],[-118.32685,42.04743],[-118.32683,42.04773],[-118.32689,42.04804],[-118.32699,42.04847],[-118.32707,42.04886],[-118.32711,42.049],[-118.32726,42.04929],[-118.3273,42.04934],[-118.32736,42.04939],[-118.32748,42.04941],[-118.32762,42.04944],[-118.32767,42.04949],[-118.32767,42.04954],[-118.32764,42.05029],[-118.32766,42.05134],[-118.32771,42.05173],[-118.32776,42.05187],[-118.32787,42.05201],[-118.32798,42.05208],[-118.32812,42.05213],[-118.32827,42.05214],[-118.32843,42.05215],[-118.32891,42.05216],[-118.32957,42.05226],[-118.32981,42.05232],[-118.32992,42.05238],[-118.33008,42.05253],[-118.33023,42.05265],[-118.33032,42.05268],[-118.33044,42.05269],[-118.33054,42.05267],[-118.33071,42.05259],[-118.33091,42.05245],[-118.33096,42.05238],[-118.33103,42.05223],[-118.33112,42.05212],[-118.33125,42.05204],[-118.33143,42.05198],[-118.3318,42.05193],[-118.33197,42.0519],[-118.33205,42.05186],[-118.33212,42.05178],[-118.33217,42.05167],[-118.33219,42.05151],[-118.33219,42.05124],[-118.33213,42.05089],[-118.33214,42.0507],[-118.33217,42.05044],[-118.33223,42.05032],[-118.33234,42.05021],[-118.33246,42.05011],[-118.33285,42.04985],[-118.33299,42.04973],[-118.33321,42.04947],[-118.33362,42.04905],[-118.3338,42.04886],[-118.33402,42.04851],[-118.33419,42.04814],[-118.33429,42.04779],[-118.3344,42.04758],[-118.33449,42.04746],[-118.33484,42.04717],[-118.33509,42.04694],[-118.33521,42.04682],[-118.33534,42.04679],[-118.33544,42.04679],[-118.33555,42.04682],[-118.33564,42.0469],[-118.3358,42.04709],[-118.33591,42.04723],[-118.33596,42.04729],[-118.33603,42.04731],[-118.33609,42.04733],[-118.33614,42.04732],[-118.33619,42.04731],[-118.33632,42.04718],[-118.33656,42.04696],[-118.33667,42.04684],[-118.33689,42.04668],[-118.33729,42.04638],[-118.33745,42.04624],[-118.33756,42.04612],[-118.3376,42.04609],[-118.33767,42.04606],[-118.33772,42.04606],[-118.33777,42.04609],[-118.33781,42.04612],[-118.33783,42.04623],[-118.33783,42.04639],[-118.33784,42.04655],[-118.33785,42.04661],[-118.33788,42.04665],[-118.33793,42.04667],[-118.33796,42.04667],[-118.33801,42.04665],[-118.33804,42.04662],[-118.33809,42.04654],[-118.33821,42.04634],[-118.33837,42.04613],[-118.33857,42.04594],[-118.33866,42.04591],[-118.33873,42.04593],[-118.33881,42.04598],[-118.33892,42.04614],[-118.33909,42.04629],[-118.33921,42.04634],[-118.33938,42.04635],[-118.33976,42.04631],[-118.33997,42.04631],[-118.34043,42.04635],[-118.34056,42.04634],[-118.34068,42.04631],[-118.34087,42.04618],[-118.34099,42.04612],[-118.34119,42.04607],[-118.34134,42.04605],[-118.34148,42.04602],[-118.3416,42.04597],[-118.34191,42.0457],[-118.34207,42.04554],[-118.34228,42.04543],[-118.34261,42.04528],[-118.34274,42.04517],[-118.34283,42.04505],[-118.34294,42.04496],[-118.34332,42.04478],[-118.34435,42.0444],[-118.34538,42.04403],[-118.34625,42.04361],[-118.34689,42.04334],[-118.34835,42.04283],[-118.34927,42.04257],[-118.34955,42.04251],[-118.34983,42.04246],[-118.35007,42.0424],[-118.35053,42.04221],[-118.35065,42.04217],[-118.35075,42.04216],[-118.35086,42.04218],[-118.35102,42.04221],[-118.35118,42.04221],[-118.35133,42.04217],[-118.35167,42.04204],[-118.35198,42.0419],[-118.35225,42.0418],[-118.3526,42.04172],[-118.35393,42.04141],[-118.35477,42.04122],[-118.35514,42.04112],[-118.35549,42.04102],[-118.35616,42.04081],[-118.35717,42.04056],[-118.35819,42.04027],[-118.35882,42.04011],[-118.36002,42.03989],[-118.36077,42.03978],[-118.36086,42.03978],[-118.36093,42.03981],[-118.36099,42.03985],[-118.36103,42.03995],[-118.36128,42.04072],[-118.36163,42.04151],[-118.3619,42.04208],[-118.36199,42.04229],[-118.36215,42.0429],[-118.36219,42.04313],[-118.36218,42.0435],[-118.3622,42.04368],[-118.36225,42.04391],[-118.36233,42.04407],[-118.36237,42.04424],[-118.36239,42.04448],[-118.36231,42.046],[-118.3623,42.04626],[-118.36233,42.04642],[-118.36237,42.04657],[-118.3625,42.04692],[-118.36257,42.04714],[-118.3626,42.04741],[-118.36262,42.04808],[-118.36265,42.04834],[-118.36262,42.04844],[-118.36253,42.04862],[-118.36244,42.04881],[-118.36231,42.04926],[-118.36229,42.04939],[-118.36225,42.04958],[-118.36225,42.04969],[-118.36228,42.04976],[-118.36235,42.04983],[-118.36245,42.04989],[-118.36264,42.04995],[-118.36276,42.05003],[-118.36283,42.05011],[-118.36295,42.05025],[-118.36305,42.05032],[-118.3633,42.05044],[-118.36349,42.05057],[-118.36368,42.05077],[-118.3638,42.05091],[-118.36393,42.05098],[-118.3641,42.05106],[-118.36431,42.05111],[-118.36458,42.05113],[-118.3648,42.05116],[-118.3653,42.05135],[-118.36582,42.05159],[-118.3662,42.05182],[-118.36655,42.05202],[-118.36706,42.05228],[-118.36734,42.05241],[-118.36754,42.05252],[-118.36799,42.05287],[-118.36826,42.05314],[-118.36876,42.05371],[-118.36929,42.05423],[-118.36979,42.05474],[-118.37029,42.05531],[-118.37105,42.05629],[-118.37118,42.05648],[-118.37124,42.05663],[-118.37132,42.05682],[-118.37162,42.0572],[-118.37177,42.05733],[-118.37188,42.05739],[-118.37199,42.05743],[-118.37217,42.05744],[-118.37232,42.05747],[-118.3724,42.0575],[-118.37252,42.05756],[-118.37267,42.05763],[-118.37289,42.05771],[-118.37317,42.05784],[-118.37347,42.05803],[-118.37402,42.05844],[-118.3743,42.05868],[-118.3745,42.05892],[-118.37462,42.05906],[-118.37484,42.05919],[-118.37504,42.05931],[-118.3751,42.05941],[-118.37512,42.05958],[-118.37516,42.05971],[-118.37522,42.05979],[-118.37539,42.05994],[-118.37548,42.06005],[-118.37553,42.06019],[-118.37555,42.06031],[-118.37548,42.06053],[-118.37539,42.06069],[-118.37531,42.06079],[-118.37507,42.06098],[-118.37477,42.06121],[-118.37471,42.06132],[-118.37467,42.06145],[-118.37458,42.0617],[-118.37451,42.06194],[-118.37439,42.06249],[-118.37433,42.06272],[-118.37432,42.06292],[-118.37434,42.06305],[-118.3744,42.06318],[-118.3744,42.06329],[-118.37435,42.06363],[-118.37437,42.06377],[-118.37442,42.06391],[-118.37452,42.06422],[-118.37473,42.06463],[-118.37507,42.06521],[-118.37536,42.06559],[-118.37562,42.0659],[-118.37629,42.06657],[-118.37696,42.06727],[-118.37759,42.0679],[-118.37791,42.06827],[-118.37828,42.0688],[-118.37856,42.06923],[-118.37867,42.06945],[-118.37878,42.06977],[-118.3789,42.06999],[-118.37909,42.07026],[-118.37933,42.07072],[-118.37946,42.07103],[-118.37948,42.07122],[-118.3795,42.07136],[-118.37958,42.07154],[-118.37967,42.07177],[-118.37972,42.07195],[-118.37977,42.0721],[-118.37987,42.07228],[-118.38048,42.07311],[-118.38079,42.07349],[-118.38093,42.07357],[-118.38113,42.07369],[-118.38128,42.07384],[-118.38152,42.07419],[-118.38179,42.07463],[-118.38188,42.07479],[-118.3821,42.07497],[-118.38225,42.07513],[-118.38234,42.0753],[-118.38242,42.07551],[-118.38255,42.07593],[-118.3826,42.07626],[-118.38277,42.07703],[-118.38282,42.07732],[-118.38289,42.07755],[-118.38295,42.07772],[-118.38295,42.07787],[-118.38294,42.07799],[-118.38296,42.07808],[-118.38303,42.07816],[-118.38311,42.07824],[-118.38313,42.07832],[-118.38314,42.07841],[-118.38309,42.0787],[-118.38305,42.07878],[-118.38291,42.07893],[-118.38282,42.07906],[-118.38277,42.07921],[-118.38274,42.07962],[-118.38274,42.07989],[-118.38279,42.08038],[-118.38286,42.08116],[-118.38289,42.08143],[-118.38288,42.08159],[-118.38283,42.08219],[-118.38277,42.08245],[-118.38273,42.08253],[-118.38266,42.08259],[-118.38249,42.0827],[-118.38241,42.08279],[-118.38234,42.08293],[-118.38228,42.083],[-118.38217,42.0831],[-118.38206,42.08325],[-118.38193,42.08341],[-118.38171,42.0836],[-118.38089,42.08416],[-118.38072,42.08432],[-118.38059,42.08447],[-118.38056,42.08458],[-118.38055,42.08471],[-118.38059,42.08495],[-118.38075,42.0857],[-118.38081,42.08604],[-118.38089,42.0863],[-118.38089,42.08644],[-118.38085,42.08674],[-118.3808,42.08718],[-118.38081,42.08732],[-118.38085,42.08745],[-118.38093,42.08768],[-118.38097,42.08785],[-118.38096,42.088],[-118.38099,42.08811],[-118.38109,42.08832],[-118.3812,42.08863],[-118.38128,42.08908],[-118.38133,42.08943],[-118.38135,42.08954],[-118.38141,42.08966],[-118.38163,42.09013],[-118.38172,42.09032],[-118.38175,42.09042],[-118.38174,42.09054],[-118.38169,42.09103],[-118.38158,42.09184],[-118.38151,42.09232],[-118.38151,42.09297],[-118.38147,42.09317],[-118.38137,42.09359],[-118.38133,42.09374],[-118.38126,42.09383],[-118.38116,42.09391],[-118.38105,42.09398],[-118.38089,42.09405],[-118.38081,42.0941],[-118.38073,42.09426],[-118.38068,42.09433],[-118.38061,42.09438],[-118.38046,42.09442],[-118.38035,42.09443],[-118.38025,42.09441],[-118.3801,42.09434],[-118.37982,42.09418],[-118.37959,42.0941],[-118.37931,42.09403],[-118.37905,42.09397],[-118.37886,42.09392],[-118.37875,42.09386],[-118.37862,42.09376],[-118.3784,42.09368],[-118.37817,42.09363],[-118.37806,42.09363],[-118.37801,42.09366],[-118.37798,42.09371],[-118.378,42.09378],[-118.37807,42.09384],[-118.37819,42.0939],[-118.37843,42.09402],[-118.37863,42.09415],[-118.37879,42.09431],[-118.37888,42.09446],[-118.37897,42.09474],[-118.37905,42.09507],[-118.37909,42.09551],[-118.37911,42.09573],[-118.37917,42.09588],[-118.37926,42.09604],[-118.37944,42.09627],[-118.37958,42.0964],[-118.37983,42.09657],[-118.38027,42.09684],[-118.38071,42.09719],[-118.38109,42.09754],[-118.38127,42.09769],[-118.3817,42.09801],[-118.38192,42.09814],[-118.38221,42.09829],[-118.38259,42.09846],[-118.3829,42.09857],[-118.38307,42.09865],[-118.38334,42.09885],[-118.38413,42.09942],[-118.38469,42.09986],[-118.38483,42.09999],[-118.38492,42.10011],[-118.3851,42.10045],[-118.3852,42.10063],[-118.38538,42.10087],[-118.38552,42.10101],[-118.38565,42.10108],[-118.38583,42.10116],[-118.38606,42.10121],[-118.38628,42.10124],[-118.38642,42.10127],[-118.38668,42.10137],[-118.38709,42.10153],[-118.38741,42.10162],[-118.38753,42.10164],[-118.38761,42.10164],[-118.38775,42.10162],[-118.38788,42.10161],[-118.38802,42.10162],[-118.38818,42.10163],[-118.38839,42.10162],[-118.38859,42.10163],[-118.38888,42.1017],[-118.38916,42.10174],[-118.38939,42.10179],[-118.38972,42.10191],[-118.39041,42.10208],[-118.39056,42.10211],[-118.3908,42.10211],[-118.39103,42.10207],[-118.3912,42.10203],[-118.39128,42.10203],[-118.39135,42.10207],[-118.39141,42.10212],[-118.39153,42.10228],[-118.39168,42.10244],[-118.39184,42.10257],[-118.39215,42.10269],[-118.39326,42.10295],[-118.39376,42.10302],[-118.39406,42.10302],[-118.39494,42.103],[-118.39535,42.10298],[-118.39608,42.10294],[-118.39724,42.10295],[-118.39791,42.103],[-118.39841,42.10294],[-118.39884,42.10287],[-118.39938,42.1029],[-118.39978,42.10301],[-118.40019,42.10329],[-118.40071,42.10362],[-118.40129,42.10385],[-118.40183,42.10395],[-118.40252,42.10399],[-118.40305,42.10405],[-118.40359,42.10415],[-118.40422,42.10417],[-118.40456,42.10419],[-118.40495,42.10415],[-118.40527,42.10417],[-118.40585,42.10433],[-118.40618,42.10439],[-118.40646,42.10437],[-118.40676,42.10426],[-118.40757,42.10387],[-118.40792,42.10377],[-118.40831,42.10373],[-118.40859,42.10372],[-118.4096,42.10367],[-118.40992,42.10369],[-118.41016,42.10369],[-118.41054,42.10363],[-118.41115,42.10365],[-118.41162,42.10373],[-118.41181,42.10373],[-118.41212,42.10369],[-118.41242,42.10361],[-118.41281,42.1034],[-118.41343,42.10313],[-118.41382,42.10301],[-118.41427,42.10293],[-118.4147,42.10293],[-118.415,42.10298],[-118.41532,42.10308],[-118.41565,42.10326],[-118.41593,42.1034],[-118.41627,42.10351],[-118.41694,42.10363],[-118.41732,42.10373],[-118.41763,42.1038],[-118.41797,42.10383],[-118.41902,42.10401],[-118.41965,42.10415],[-118.42014,42.10438],[-118.4209,42.10463],[-118.42137,42.10473],[-118.42184,42.10477],[-118.42272,42.10478],[-118.42331,42.10473],[-118.42367,42.10466],[-118.42402,42.10448],[-118.42443,42.10431],[-118.42468,42.10424],[-118.42541,42.10413],[-118.42613,42.10409],[-118.42682,42.10397],[-118.42772,42.10387],[-118.42802,42.1039],[-118.42836,42.10398],[-118.42862,42.10409],[-118.42882,42.10413],[-118.42918,42.10408],[-118.42955,42.10403],[-118.42985,42.10408],[-118.43077,42.10445],[-118.43129,42.10463],[-118.43163,42.10467],[-118.43185,42.1047],[-118.432,42.1048],[-118.43219,42.10502],[-118.43243,42.10517],[-118.43295,42.10534],[-118.43349,42.10542],[-118.43469,42.10573],[-118.4365,42.10602],[-118.43712,42.10609],[-118.43751,42.10609],[-118.43788,42.10602],[-118.43818,42.10591],[-118.43884,42.10563],[-118.43902,42.1056],[-118.43923,42.10561],[-118.43956,42.10574],[-118.43988,42.10586],[-118.44027,42.10591],[-118.44168,42.10581],[-118.44205,42.10582],[-118.44235,42.10591],[-118.44508,42.10701],[-118.44567,42.10724],[-118.44638,42.10739],[-118.44711,42.10743],[-118.44747,42.10743],[-118.4478,42.10739],[-118.44814,42.10728],[-118.44913,42.10693]]}},{"type":"Feature","properties":{"name":"(unnamed public road)","road_class":"track","tracktype":"grade5","source":"OpenStreetMap","source_detail":"osm way 303071714","source_tile":"175/380","surface_inferred":true},"geometry":{"type":"LineString","coordinates":[[-118.44244,42.00526],[-118.44223,42.00579],[-118.44203,42.00652],[-118.442,42.00695],[-118.44203,42.00757],[-118.44214,42.00813],[-118.44241,42.00913],[-118.44279,42.00981],[-118.44294,42.01024],[-118.44308,42.01144],[-118.44307,42.01248],[-118.44307,42.01308],[-118.44319,42.0138],[-118.44331,42.0142],[-118.44362,42.01494],[-118.44383,42.01549],[-118.44391,42.01584],[-118.44391,42.0162],[-118.44386,42.01657],[-118.44368,42.017],[-118.44365,42.01708],[-118.44362,42.0172],[-118.44362,42.01735],[-118.44367,42.01754],[-118.44383,42.01774],[-118.44409,42.01798],[-118.44461,42.01839],[-118.44525,42.01879],[-118.44598,42.01925],[-118.44626,42.01945],[-118.4465,42.01976],[-118.4468,42.02022],[-118.44721,42.02123],[-118.44724,42.02147],[-118.44717,42.02166],[-118.44701,42.02198],[-118.44691,42.0223],[-118.44691,42.02259],[-118.447,42.02291],[-118.44697,42.02307],[-118.44688,42.02323],[-118.44674,42.0235],[-118.44672,42.02361],[-118.44688,42.02468],[-118.44701,42.02573],[-118.44695,42.0271],[-118.44694,42.02764],[-118.44679,42.02821],[-118.44676,42.0284],[-118.44679,42.0286],[-118.44688,42.02876],[-118.44715,42.029],[-118.44789,42.02948],[-118.44801,42.02963],[-118.44808,42.02982],[-118.44808,42.03003],[-118.44802,42.03036],[-118.44778,42.03102],[-118.44753,42.03151],[-118.44745,42.03173],[-118.44741,42.03219],[-118.44739,42.03271],[-118.44746,42.03349],[-118.44744,42.03388],[-118.44727,42.03453],[-118.44706,42.035],[-118.44674,42.03549],[-118.44651,42.03571],[-118.44584,42.03621],[-118.44502,42.0366],[-118.44452,42.03679],[-118.44409,42.03689],[-118.44377,42.03699],[-118.44343,42.03716],[-118.44313,42.03729],[-118.44272,42.03745],[-118.44262,42.03752],[-118.44253,42.03766],[-118.44239,42.03795],[-118.44206,42.03834],[-118.44159,42.03881],[-118.4414,42.03902],[-118.44116,42.03945],[-118.44096,42.03979],[-118.44078,42.03995],[-118.44056,42.04017],[-118.44034,42.04043],[-118.44013,42.04068],[-118.43992,42.04086],[-118.43981,42.04103],[-118.43972,42.0411],[-118.4396,42.04115],[-118.43932,42.04116],[-118.43878,42.04118],[-118.43855,42.04122],[-118.43826,42.04137],[-118.438,42.0416],[-118.43785,42.04176],[-118.43767,42.04191],[-118.43759,42.042],[-118.43749,42.04214],[-118.43735,42.0423],[-118.43717,42.04242],[-118.43684,42.04264],[-118.43672,42.04282],[-118.43666,42.043],[-118.43667,42.04318],[-118.43673,42.04337],[-118.43692,42.04359],[-118.43695,42.0437],[-118.43694,42.0438],[-118.43698,42.04389],[-118.43722,42.04422],[-118.43737,42.04455],[-118.43755,42.04524],[-118.43772,42.04573],[-118.4377,42.04587],[-118.4376,42.04604],[-118.43735,42.04629],[-118.43723,42.04638],[-118.437,42.0465],[-118.43673,42.04665],[-118.43647,42.04679],[-118.4364,42.04685],[-118.43637,42.04694],[-118.43636,42.04708],[-118.4364,42.04718],[-118.43645,42.04728],[-118.43665,42.04756]]}},{"type":"Feature","properties":{"name":"Cottonwood Creek Road","road_class":"track","tracktype":"grade4","source":"OpenStreetMap","source_detail":"osm way 303073584","source_tile":"175/380","surface_inferred":true},"geometry":{"type":"LineString","coordinates":[[-118.41103,42.02219],[-118.41111,42.02221],[-118.41117,42.02225],[-118.41121,42.02232],[-118.41129,42.02255],[-118.41137,42.02279],[-118.4115,42.02305],[-118.41168,42.02334],[-118.412,42.0238],[-118.41213,42.02397],[-118.41224,42.02404],[-118.41241,42.02408],[-118.41253,42.0241],[-118.41266,42.0241],[-118.41293,42.02411],[-118.41322,42.02415],[-118.41364,42.02429],[-118.41384,42.02436],[-118.41428,42.02446],[-118.41457,42.02458],[-118.41477,42.02466],[-118.41487,42.02473],[-118.41497,42.02483],[-118.41511,42.02502],[-118.41527,42.02525],[-118.41541,42.02539],[-118.41555,42.0255],[-118.41576,42.02567],[-118.41598,42.02584],[-118.41615,42.02595],[-118.41645,42.02607],[-118.41702,42.02629],[-118.4177,42.02656],[-118.41806,42.02671],[-118.41853,42.02689],[-118.4187,42.02699],[-118.41895,42.02718],[-118.41911,42.02734],[-118.4193,42.02748],[-118.41954,42.02761],[-118.41983,42.02785],[-118.41996,42.02797],[-118.42003,42.02808],[-118.42019,42.02844],[-118.42033,42.02864],[-118.42041,42.0288],[-118.42049,42.0289],[-118.42063,42.02902],[-118.42076,42.0292],[-118.42089,42.02946],[-118.42103,42.02977],[-118.42113,42.03019],[-118.42122,42.03042],[-118.42155,42.03105],[-118.42169,42.03142],[-118.42183,42.03201],[-118.42191,42.0323],[-118.42198,42.03244],[-118.4221,42.03262],[-118.42233,42.03287],[-118.42275,42.03334],[-118.42315,42.0338],[-118.42341,42.03403]]}},{"type":"Feature","properties":{"name":"(unnamed public road)","road_class":"track","tracktype":"grade5","source":"OpenStreetMap","source_detail":"osm way 303101338","source_tile":"175/380","surface_inferred":true},"geometry":{"type":"LineString","coordinates":[[-118.32268,42.03454],[-118.32227,42.0341],[-118.32198,42.03358],[-118.32182,42.03312],[-118.3217,42.03295],[-118.32117,42.03265],[-118.32096,42.03243],[-118.32047,42.03186],[-118.32033,42.03159],[-118.32022,42.03119],[-118.32019,42.03087],[-118.32014,42.03074],[-118.31995,42.03054],[-118.31984,42.0303],[-118.31959,42.02956],[-118.31952,42.02945],[-118.31932,42.02929],[-118.31874,42.02898],[-118.31863,42.02884],[-118.31852,42.02864],[-118.31848,42.02843],[-118.31842,42.02805],[-118.31812,42.02751],[-118.31776,42.0271],[-118.31711,42.02657],[-118.31668,42.02613],[-118.31637,42.02573],[-118.31626,42.02558],[-118.31615,42.0255],[-118.31601,42.02542],[-118.31587,42.02522],[-118.31555,42.02478],[-118.3155,42.02459],[-118.31551,42.02427],[-118.31549,42.02398],[-118.31541,42.02322],[-118.31543,42.02299],[-118.31554,42.02263],[-118.31562,42.02208],[-118.31566,42.02178],[-118.31564,42.02141],[-118.31557,42.02123],[-118.31545,42.02114],[-118.31462,42.0207],[-118.31418,42.02048],[-118.31399,42.02034],[-118.31385,42.02027],[-118.31365,42.02025],[-118.31346,42.02027]]}},{"type":"Feature","properties":{"name":"(unnamed public road)","road_class":"track","tracktype":"grade5","source":"OpenStreetMap","source_detail":"osm way 303101835","source_tile":"175/380","surface_inferred":true},"geometry":{"type":"LineString","coordinates":[[-118.31442,42.03342],[-118.31451,42.03325],[-118.31461,42.03318],[-118.31474,42.03311],[-118.31483,42.03302],[-118.31505,42.03261],[-118.3152,42.03241],[-118.31546,42.03213],[-118.31576,42.03192],[-118.31585,42.03183],[-118.31591,42.0317],[-118.31592,42.03154],[-118.31592,42.03139],[-118.31597,42.03125],[-118.31607,42.03106],[-118.31617,42.03088],[-118.3162,42.0307],[-118.31626,42.03049],[-118.31635,42.03026],[-118.31639,42.03012],[-118.31638,42.02992],[-118.31631,42.02976],[-118.31602,42.02921]]}},{"type":"Feature","properties":{"name":"V-Road","road_class":"track","surface":"dirt","tracktype":"grade5","source":"OpenStreetMap","source_detail":"osm way 303105425","source_tile":"175/380"},"geometry":{"type":"LineString","coordinates":[[-118.26316,42.02242],[-118.26339,42.02249],[-118.26378,42.02268],[-118.26401,42.02281],[-118.26419,42.02298],[-118.2644,42.02325],[-118.26456,42.02361],[-118.26472,42.02436],[-118.2648,42.02457],[-118.26488,42.02477],[-118.2649,42.02499],[-118.265,42.02518],[-118.26506,42.02543],[-118.26508,42.02577],[-118.265,42.02619],[-118.26486,42.02655],[-118.26461,42.02712],[-118.26427,42.02775],[-118.26422,42.02793],[-118.26428,42.0281],[-118.26429,42.02823],[-118.26439,42.02848],[-118.26481,42.02913],[-118.26537,42.02986],[-118.26557,42.03],[-118.26585,42.03009],[-118.26625,42.03025],[-118.26703,42.03059],[-118.26727,42.03075],[-118.26745,42.03084],[-118.26792,42.03095],[-118.26859,42.03097],[-118.26885,42.03102],[-118.26928,42.03113],[-118.26955,42.03118],[-118.27002,42.03135],[-118.27038,42.03153],[-118.2709,42.0319],[-118.27137,42.03214],[-118.27199,42.03244],[-118.27251,42.03278],[-118.27325,42.03342],[-118.27385,42.0341],[-118.274,42.03427],[-118.27406,42.03442],[-118.27412,42.03451],[-118.2742,42.03457],[-118.27465,42.03484],[-118.2751,42.03516],[-118.27518,42.03526],[-118.27522,42.0354],[-118.27524,42.03548],[-118.27521,42.03584],[-118.2751,42.03626],[-118.27475,42.03719],[-118.27429,42.03865],[-118.27424,42.03908],[-118.27424,42.0398],[-118.2743,42.04021],[-118.27447,42.04062],[-118.27457,42.04094],[-118.27464,42.04137],[-118.2748,42.04173],[-118.27522,42.04227],[-118.27621,42.04318],[-118.27726,42.04405],[-118.27764,42.04456],[-118.27812,42.04519],[-118.27846,42.04548],[-118.27913,42.04581],[-118.27995,42.04615],[-118.28043,42.04647],[-118.28083,42.04688],[-118.28121,42.04741],[-118.28128,42.04778],[-118.28127,42.04805],[-118.28117,42.04826],[-118.28108,42.04843],[-118.28105,42.04862],[-118.28113,42.04889],[-118.28131,42.04927],[-118.28151,42.04996],[-118.28173,42.05061],[-118.28173,42.05085],[-118.28155,42.05123],[-118.28152,42.05142],[-118.28159,42.05166],[-118.28216,42.05214],[-118.28398,42.05419],[-118.28427,42.05482],[-118.28449,42.05597],[-118.28474,42.05709],[-118.28479,42.05733],[-118.2849,42.05748],[-118.28507,42.05756],[-118.28711,42.05825],[-118.28782,42.05839],[-118.2884,42.05845],[-118.2888,42.05852],[-118.28927,42.0587],[-118.2896,42.05891],[-118.28985,42.05913],[-118.29011,42.05951],[-118.29047,42.06009],[-118.29062,42.06039],[-118.2907,42.06076],[-118.29079,42.06125],[-118.29091,42.0615],[-118.29092,42.06165],[-118.29089,42.06204],[-118.29095,42.06227],[-118.29103,42.06301],[-118.29125,42.06376],[-118.2918,42.06531],[-118.29203,42.06607],[-118.29252,42.06748],[-118.29269,42.06783],[-118.29297,42.06823],[-118.29341,42.06868],[-118.2944,42.06954],[-118.2946,42.06979],[-118.29472,42.07007],[-118.29487,42.07066],[-118.29489,42.07103],[-118.2949,42.07156],[-118.29493,42.07186],[-118.29504,42.07213],[-118.2952,42.0724],[-118.2953,42.07269],[-118.29544,42.07306],[-118.29562,42.07347],[-118.29586,42.07373],[-118.2962,42.07401],[-118.2965,42.07423],[-118.29702,42.07463],[-118.29738,42.07515],[-118.29766,42.0757],[-118.2978,42.07625],[-118.29787,42.07673],[-118.29797,42.07697],[-118.29824,42.07719],[-118.29861,42.07744],[-118.29876,42.07759],[-118.29885,42.07792],[-118.29892,42.07838],[-118.2991,42.07899],[-118.29946,42.07966],[-118.29978,42.08001],[-118.30015,42.08032],[-118.30086,42.08072],[-118.30199,42.08133],[-118.30321,42.08203],[-118.30352,42.08226],[-118.30406,42.08276],[-118.30487,42.08365]]}},{"type":"Feature","properties":{"name":"Fifteen Mile Road","road_class":"track","tracktype":"grade3","source":"OpenStreetMap","source_detail":"osm way 5130217","source_tile":"176/380","surface_inferred":true},"geometry":{"type":"LineString","coordinates":[[-118.05289,42.00977],[-118.05316,42.0103],[-118.0535,42.01085],[-118.0537,42.01118],[-118.05394,42.01143],[-118.05484,42.01233],[-118.05535,42.01287],[-118.05553,42.01307],[-118.05565,42.0132],[-118.05581,42.01332],[-118.056,42.01337],[-118.05655,42.01352],[-118.05693,42.01362],[-118.05735,42.01377],[-118.05768,42.01391],[-118.05796,42.01397],[-118.05923,42.01415],[-118.06005,42.01427],[-118.06129,42.01449],[-118.06261,42.0147],[-118.06393,42.015],[-118.06443,42.01511],[-118.06475,42.01522],[-118.06497,42.01532],[-118.06527,42.01547],[-118.06695,42.01646],[-118.06762,42.01677],[-118.06855,42.01711],[-118.06945,42.01742],[-118.0706,42.01787],[-118.07166,42.01835],[-118.07255,42.01883],[-118.07381,42.01954],[-118.07655,42.02122],[-118.07738,42.02169],[-118.0779,42.02192],[-118.07837,42.02213],[-118.07918,42.02247],[-118.08238,42.024],[-118.08694,42.02618],[-118.09021,42.02776],[-118.09291,42.02904],[-118.0969,42.03096],[-118.1004,42.03265],[-118.10327,42.03403],[-118.10604,42.03538],[-118.11043,42.0375],[-118.11062,42.03758],[-118.11144,42.03793],[-118.11189,42.03807],[-118.11228,42.03818],[-118.11256,42.03823],[-118.11278,42.03824],[-118.11319,42.0382],[-118.11401,42.03808],[-118.11437,42.038],[-118.11455,42.03793],[-118.11496,42.03774],[-118.11526,42.03761],[-118.11541,42.03757],[-118.11606,42.03754],[-118.11673,42.0375],[-118.11688,42.03751],[-118.11708,42.03755],[-118.11848,42.03786],[-118.12152,42.03866],[-118.12239,42.03892],[-118.12525,42.03967],[-118.12727,42.0402],[-118.12874,42.04058],[-118.12912,42.04071],[-118.1295,42.04084],[-118.13005,42.04109],[-118.13185,42.04194],[-118.1345,42.04321],[-118.1352,42.04364],[-118.1358,42.0441],[-118.13642,42.04469],[-118.13785,42.04626],[-118.13963,42.0482],[-118.14147,42.05024],[-118.1433,42.05234],[-118.14494,42.05422],[-118.14557,42.05496],[-118.14629,42.05565],[-118.14689,42.05619],[-118.14721,42.05643],[-118.14747,42.0566],[-118.14781,42.05689],[-118.14844,42.05741],[-118.14918,42.05794],[-118.14995,42.05853],[-118.15063,42.05902],[-118.15108,42.05942],[-118.15157,42.0599],[-118.15182,42.06022],[-118.15189,42.06039],[-118.1519,42.06054],[-118.15182,42.06085],[-118.15164,42.06137],[-118.15149,42.06178],[-118.15148,42.06187],[-118.15148,42.06197],[-118.15152,42.06205],[-118.15159,42.0621],[-118.15168,42.06211],[-118.15178,42.06208],[-118.15189,42.06199],[-118.15206,42.06182],[-118.15226,42.06166],[-118.15298,42.06119],[-118.1532,42.06108],[-118.15342,42.06103],[-118.15356,42.06102],[-118.1539,42.0611],[-118.15442,42.06126],[-118.15453,42.06133],[-118.15463,42.06144],[-118.15486,42.06193],[-118.15496,42.06211],[-118.15512,42.06225],[-118.15538,42.06247],[-118.15604,42.063],[-118.15661,42.06356],[-118.15755,42.06467],[-118.15797,42.06531],[-118.15805,42.06548],[-118.15813,42.06572],[-118.15819,42.06594],[-118.15821,42.06626],[-118.15818,42.06668],[-118.15814,42.06724],[-118.15814,42.06749],[-118.1582,42.06767],[-118.15825,42.06788],[-118.15826,42.0681],[-118.15821,42.06849],[-118.15825,42.06865],[-118.15836,42.0688],[-118.15899,42.06944],[-118.15907,42.06958],[-118.15909,42.06967],[-118.15906,42.06982],[-118.15891,42.07003],[-118.15856,42.07046],[-118.15839,42.0706],[-118.15814,42.07075],[-118.15785,42.0709],[-118.15771,42.07101],[-118.15758,42.07119],[-118.15756,42.07138],[-118.15759,42.07166],[-118.15791,42.07329],[-118.15792,42.07354],[-118.15789,42.07374],[-118.15782,42.0739],[-118.15774,42.07402],[-118.15756,42.07417],[-118.15719,42.07445],[-118.15643,42.07509],[-118.15595,42.07557],[-118.15579,42.07577],[-118.1553,42.07643],[-118.15492,42.07694],[-118.15444,42.07753]]}}]}