{"type":"FeatureCollection","features":[{"type":"Feature","properties":{"name":"Panorama Trail","road_class":"track","surface":"dirt","tracktype":"grade4","source":"OpenStreetMap","source_detail":"osm way 13364319","source_tile":"175/409"},"geometry":{"type":"LineString","coordinates":[[-118.35842,33.74545],[-118.35862,33.74536],[-118.35868,33.74531],[-118.3587,33.74525],[-118.35869,33.7452],[-118.35865,33.74511]]}},{"type":"Feature","properties":{"name":"(unnamed public road)","road_class":"track","source":"OpenStreetMap","source_detail":"osm way 45097912","source_tile":"175/409","surface_inferred":true},"geometry":{"type":"LineString","coordinates":[[-118.36218,33.74156],[-118.36232,33.74147],[-118.36255,33.74127],[-118.36273,33.74115],[-118.36288,33.74102],[-118.36301,33.74091],[-118.36309,33.74088],[-118.3636,33.74085],[-118.36391,33.74084],[-118.36406,33.74086],[-118.36417,33.74092],[-118.36429,33.74095],[-118.3644,33.74096],[-118.36449,33.74098],[-118.36472,33.74113]]}},{"type":"Feature","properties":{"name":"(unnamed public road)","road_class":"track","source":"OpenStreetMap","source_detail":"osm way 45097915","source_tile":"175/409","surface_inferred":true},"geometry":{"type":"LineString","coordinates":[[-118.3622,33.74022],[-118.36226,33.7404],[-118.36232,33.74056],[-118.36232,33.74067],[-118.36229,33.74083],[-118.36217,33.74136],[-118.36212,33.74149],[-118.36177,33.7418],[-118.36134,33.7421],[-118.3612,33.74217],[-118.36112,33.74215],[-118.36094,33.74207],[-118.3608,33.74205],[-118.36054,33.74202],[-118.36018,33.74199],[-118.35982,33.74197],[-118.35971,33.742]]}},{"type":"Feature","properties":{"name":"Vanderlip Trail","road_class":"track","surface":"unpaved","tracktype":"grade2","access":"permissive","source":"OpenStreetMap","source_detail":"osm way 45097919","source_tile":"175/409"},"geometry":{"type":"LineString","coordinates":[[-118.36554,33.74766],[-118.36544,33.74763],[-118.36523,33.7475],[-118.36514,33.7474],[-118.36502,33.74731],[-118.36485,33.74719],[-118.36462,33.74702],[-118.36446,33.74693],[-118.36425,33.74689],[-118.36379,33.74694],[-118.36365,33.74696]]}},{"type":"Feature","properties":{"name":"(unnamed public road)","road_class":"track","source":"OpenStreetMap","source_detail":"osm way 45097922","source_tile":"175/409","surface_inferred":true},"geometry":{"type":"LineString","coordinates":[[-118.36232,33.74056],[-118.36209,33.74054],[-118.36157,33.74053],[-118.36097,33.74047],[-118.36077,33.74047],[-118.36058,33.74054],[-118.36047,33.74065],[-118.36045,33.74075],[-118.36045,33.74098],[-118.36031,33.74116],[-118.36017,33.74135],[-118.36009,33.74142],[-118.36004,33.74154],[-118.36002,33.74164],[-118.35988,33.7418],[-118.35982,33.74197]]}},{"type":"Feature","properties":{"name":"(unnamed public road)","road_class":"track","surface":"dirt","source":"OpenStreetMap","source_detail":"osm way 55673170","source_tile":"175/409"},"geometry":{"type":"LineString","coordinates":[[-118.36683,33.74017],[-118.3668,33.74014],[-118.36677,33.74013],[-118.36641,33.74009],[-118.36612,33.74006],[-118.36595,33.74001],[-118.36577,33.73992],[-118.3655,33.73979],[-118.36536,33.73967],[-118.36519,33.73955],[-118.36489,33.73937],[-118.36477,33.73927],[-118.3647,33.73917],[-118.3647,33.73907],[-118.36476,33.73896],[-118.36507,33.73873],[-118.36529,33.73858],[-118.36545,33.73856],[-118.36577,33.73853],[-118.36609,33.73851],[-118.36622,33.73854],[-118.36659,33.73868],[-118.36681,33.73875],[-118.36703,33.73879],[-118.36724,33.73879],[-118.36736,33.73874],[-118.36745,33.73867],[-118.36758,33.73857],[-118.36773,33.73852],[-118.36787,33.73852]]}},{"type":"Feature","properties":{"name":"(unnamed public road)","road_class":"track","source":"OpenStreetMap","source_detail":"osm way 55678438","source_tile":"175/409","surface_inferred":true},"geometry":{"type":"LineString","coordinates":[[-118.35959,33.74292],[-118.35997,33.74284],[-118.36024,33.74275],[-118.36058,33.74259],[-118.36086,33.74238],[-118.36102,33.74228],[-118.3612,33.74217]]}},{"type":"Feature","properties":{"name":"(unnamed public road)","road_class":"track","tracktype":"grade3","source":"OpenStreetMap","source_detail":"osm way 63639950","source_tile":"175/409","surface_inferred":true},"geometry":{"type":"LineString","coordinates":[[-118.3936,33.73935],[-118.39366,33.73927],[-118.39369,33.73925],[-118.39328,33.73892],[-118.39316,33.73883],[-118.39309,33.73882],[-118.39306,33.73892],[-118.39303,33.73916],[-118.39293,33.73928],[-118.39278,33.73944],[-118.39257,33.73968],[-118.39233,33.73981],[-118.39218,33.73985],[-118.39181,33.7399],[-118.39139,33.73993],[-118.39102,33.73999],[-118.3907,33.74003],[-118.39036,33.73999],[-118.39002,33.73995],[-118.38994,33.73997],[-118.38984,33.74004],[-118.38982,33.7401],[-118.3898,33.74025],[-118.38978,33.74063],[-118.38975,33.74083],[-118.38972,33.74096],[-118.3897,33.74104]]}},{"type":"Feature","properties":{"name":"(unnamed public road)","road_class":"track","tracktype":"grade4","source":"OpenStreetMap","source_detail":"osm way 125114033","source_tile":"175/409","surface_inferred":true},"geometry":{"type":"LineString","coordinates":[[-118.40641,33.79756],[-118.40657,33.79761],[-118.40666,33.79763],[-118.40676,33.79753],[-118.40698,33.79737],[-118.40721,33.79712],[-118.40723,33.79692],[-118.40718,33.79679],[-118.40712,33.79666],[-118.4071,33.79664],[-118.40711,33.79659],[-118.40711,33.79656],[-118.4071,33.79646],[-118.40706,33.79619],[-118.40706,33.79589],[-118.4071,33.79575],[-118.40712,33.79554],[-118.40714,33.79551],[-118.40722,33.79528],[-118.40725,33.79522],[-118.40739,33.7951],[-118.4074,33.79493],[-118.40742,33.79489],[-118.40747,33.79477],[-118.40747,33.79471],[-118.40742,33.79466],[-118.40728,33.79454],[-118.40721,33.79448],[-118.40711,33.79438],[-118.40701,33.79427],[-118.40695,33.79416],[-118.40691,33.79412],[-118.40689,33.79407],[-118.4069,33.79397],[-118.4069,33.79393],[-118.40687,33.79389],[-118.40683,33.7938],[-118.40681,33.79374]]}},{"type":"Feature","properties":{"name":"(unnamed public road)","road_class":"track","tracktype":"grade4","source":"OpenStreetMap","source_detail":"osm way 174212066","source_tile":"175/409","surface_inferred":true},"geometry":{"type":"LineString","coordinates":[[-118.36307,33.79536],[-118.36315,33.7955],[-118.36317,33.79559],[-118.36317,33.79566],[-118.36314,33.79575],[-118.36308,33.79587],[-118.36306,33.79598],[-118.36305,33.79607],[-118.36305,33.79622],[-118.36307,33.79628],[-118.36311,33.79632],[-118.36318,33.79635],[-118.36366,33.79659],[-118.36391,33.79676],[-118.36401,33.79685],[-118.36403,33.79693]]}},{"type":"Feature","properties":{"name":"Portal Avenue","road_class":"track","surface":"ground","source":"OpenStreetMap","source_detail":"osm way 174693852","source_tile":"175/409"},"geometry":{"type":"LineString","coordinates":[[-118.37883,33.95797],[-118.37888,33.95275],[-118.37888,33.95266]]}},{"type":"Feature","properties":{"name":"(unnamed public road)","road_class":"track","source":"OpenStreetMap","source_detail":"osm way 218549701","source_tile":"175/409","surface_inferred":true},"geometry":{"type":"LineString","coordinates":[[-118.43478,33.96983],[-118.43484,33.96992]]}},{"type":"Feature","properties":{"name":"(unnamed public road)","road_class":"track","tracktype":"grade4","source":"OpenStreetMap","source_detail":"osm way 230036404","source_tile":"175/409","surface_inferred":true},"geometry":{"type":"LineString","coordinates":[[-118.38987,34.00149],[-118.38947,34.00142],[-118.38614,34.00112],[-118.38492,34.00113],[-118.38451,34.00117]]}},{"type":"Feature","properties":{"name":"(unnamed public road)","road_class":"track","source":"OpenStreetMap","source_detail":"osm way 318579709","source_tile":"175/409","surface_inferred":true},"geometry":{"type":"LineString","coordinates":[[-118.2609,33.97834],[-118.26091,33.98]]}},{"type":"Feature","properties":{"name":"(unnamed public road)","road_class":"track","source":"OpenStreetMap","source_detail":"osm way 371807508","source_tile":"175/409","surface_inferred":true},"geometry":{"type":"LineString","coordinates":[[-118.41178,33.98596],[-118.4117,33.986],[-118.41157,33.98609],[-118.41133,33.98623]]}},{"type":"Feature","properties":{"name":"East Lomita Boulevard","road_class":"unclassified","surface":"compacted","source":"OpenStreetMap","source_detail":"osm way 380051084","source_tile":"175/409"},"geometry":{"type":"LineString","coordinates":[[-118.25681,33.79953],[-118.25663,33.79954],[-118.25632,33.79956],[-118.25425,33.79968],[-118.25391,33.7997],[-118.25332,33.79974],[-118.25296,33.79976],[-118.25283,33.79976],[-118.25257,33.79978],[-118.25155,33.79982],[-118.25139,33.79982],[-118.25058,33.79986],[-118.246,33.80011],[-118.24587,33.80011],[-118.24438,33.80019],[-118.24417,33.8002],[-118.23872,33.80047],[-118.23864,33.80046],[-118.23859,33.80043],[-118.23857,33.8004],[-118.23856,33.80038],[-118.23856,33.80028],[-118.2386,33.80016],[-118.23875,33.79995],[-118.23895,33.79961],[-118.2388,33.79955]]}},{"type":"Feature","properties":{"name":"(unnamed public road)","road_class":"track","source":"OpenStreetMap","source_detail":"osm way 384726287","source_tile":"175/409","surface_inferred":true},"geometry":{"type":"LineString","coordinates":[[-118.44563,33.96176],[-118.44572,33.96172],[-118.44584,33.96162],[-118.44588,33.96158],[-118.44595,33.9615]]}},{"type":"Feature","properties":{"name":"(unnamed public road)","road_class":"track","source":"OpenStreetMap","source_detail":"osm way 384726319","source_tile":"175/409","surface_inferred":true},"geometry":{"type":"LineString","coordinates":[[-118.45294,33.96258],[-118.45284,33.96263],[-118.45275,33.96272]]}},{"type":"Feature","properties":{"name":"(unnamed public road)","road_class":"track","surface":"dirt","source":"OpenStreetMap","source_detail":"osm way 396500697","source_tile":"175/409"},"geometry":{"type":"LineString","coordinates":[[-118.39266,33.80192],[-118.39283,33.80199],[-118.39296,33.80204],[-118.3931,33.80209],[-118.3932,33.80207],[-118.39333,33.80206],[-118.39342,33.80209],[-118.39348,33.80214],[-118.39361,33.80218],[-118.39415,33.80221],[-118.39444,33.80232]]}},{"type":"Feature","properties":{"name":"(unnamed public road)","road_class":"track","source":"OpenStreetMap","source_detail":"osm way 509729687","source_tile":"175/409","surface_inferred":true},"geometry":{"type":"LineString","coordinates":[[-118.23769,33.78513],[-118.23819,33.7851]]}},{"type":"Feature","properties":{"name":"(unnamed public road)","road_class":"track","source":"OpenStreetMap","source_detail":"osm way 584027813","source_tile":"175/409","surface_inferred":true},"geometry":{"type":"LineString","coordinates":[[-118.14519,33.80522],[-118.14554,33.80526]]}},{"type":"Feature","properties":{"name":"(unnamed public road)","road_class":"track","source":"OpenStreetMap","source_detail":"osm way 587620618","source_tile":"175/409","surface_inferred":true},"geometry":{"type":"LineString","coordinates":[[-118.31429,33.91786],[-118.31427,33.91786]]}},{"type":"Feature","properties":{"name":"(unnamed public road)","road_class":"track","source":"OpenStreetMap","source_detail":"osm way 652581645","source_tile":"175/409","surface_inferred":true},"geometry":{"type":"LineString","coordinates":[[-118.28258,33.77904],[-118.28261,33.77911],[-118.28315,33.77912],[-118.2833,33.77914],[-118.28342,33.77908],[-118.28412,33.77904],[-118.28428,33.77916],[-118.28446,33.77924],[-118.285,33.77933],[-118.28538,33.77949],[-118.28573,33.77972],[-118.28587,33.77977],[-118.28612,33.77978],[-118.2863,33.77981],[-118.28667,33.77979],[-118.28708,33.77972],[-118.28725,33.7797],[-118.28771,33.77957],[-118.28797,33.77957],[-118.28813,33.77955],[-118.28826,33.77955],[-118.2884,33.77957],[-118.28876,33.77967],[-118.28888,33.7797],[-118.28906,33.77973],[-118.28928,33.77974],[-118.28949,33.77973],[-118.28962,33.7797],[-118.28978,33.77963],[-118.28991,33.77954],[-118.28997,33.77943],[-118.28999,33.7793],[-118.29003,33.77921],[-118.29015,33.77916],[-118.2903,33.77916],[-118.29044,33.77924],[-118.29056,33.77927],[-118.29081,33.7793],[-118.29122,33.7794],[-118.29131,33.77941],[-118.29157,33.77938],[-118.29216,33.77929],[-118.29229,33.77931],[-118.29247,33.77935],[-118.29265,33.77945],[-118.29385,33.78007],[-118.29398,33.78021],[-118.29403,33.78031],[-118.29405,33.78047],[-118.29408,33.78066],[-118.29419,33.78093],[-118.29419,33.78122],[-118.29423,33.78137],[-118.29433,33.78147],[-118.2945,33.78155],[-118.29478,33.78166],[-118.29496,33.78167],[-118.29553,33.78164]]}},{"type":"Feature","properties":{"name":"(unnamed public road)","road_class":"track","source":"OpenStreetMap","source_detail":"osm way 652581647","source_tile":"175/409","surface_inferred":true},"geometry":{"type":"LineString","coordinates":[[-118.29405,33.78047],[-118.29394,33.78041],[-118.2938,33.78025]]}},{"type":"Feature","properties":{"name":"(unnamed public road)","road_class":"track","source":"OpenStreetMap","source_detail":"osm way 652581653","source_tile":"175/409","surface_inferred":true},"geometry":{"type":"LineString","coordinates":[[-118.28832,33.78018],[-118.28823,33.78021],[-118.28811,33.78023],[-118.28803,33.78026],[-118.288,33.78035]]}},{"type":"Feature","properties":{"name":"(unnamed public road)","road_class":"track","source":"OpenStreetMap","source_detail":"osm way 652581654","source_tile":"175/409","surface_inferred":true},"geometry":{"type":"LineString","coordinates":[[-118.2833,33.77914],[-118.28332,33.77918],[-118.2833,33.77922],[-118.28307,33.77938],[-118.28299,33.77943],[-118.28274,33.77956],[-118.28254,33.77977],[-118.28238,33.78001],[-118.28241,33.78036]]}},{"type":"Feature","properties":{"name":"(unnamed public road)","road_class":"track","source":"OpenStreetMap","source_detail":"osm way 652581658","source_tile":"175/409","surface_inferred":true},"geometry":{"type":"LineString","coordinates":[[-118.29193,33.78495],[-118.292,33.78498],[-118.29215,33.78498],[-118.29242,33.78495],[-118.29265,33.78492],[-118.29272,33.78493],[-118.29275,33.78497],[-118.2929,33.78519],[-118.29291,33.78527],[-118.29291,33.78533],[-118.29282,33.78562],[-118.29278,33.78577],[-118.29281,33.78588],[-118.29279,33.78599],[-118.29273,33.78606],[-118.29267,33.78617]]}},{"type":"Feature","properties":{"name":"(unnamed public road)","road_class":"track","source":"OpenStreetMap","source_detail":"osm way 667353857","source_tile":"175/409","surface_inferred":true},"geometry":{"type":"LineString","coordinates":[[-118.15249,33.83253],[-118.15248,33.83224]]}},{"type":"Feature","properties":{"name":"(unnamed public road)","road_class":"track","source":"OpenStreetMap","source_detail":"osm way 679618278","source_tile":"175/409","surface_inferred":true},"geometry":{"type":"LineString","coordinates":[[-118.17631,33.80767],[-118.17668,33.80763],[-118.17682,33.80764],[-118.17705,33.80761],[-118.17726,33.80755],[-118.17748,33.80753],[-118.1777,33.80756],[-118.17787,33.80759],[-118.17811,33.80762],[-118.17833,33.80761],[-118.17851,33.80756],[-118.17856,33.80747],[-118.17861,33.80732],[-118.17857,33.80718],[-118.17845,33.80707],[-118.17824,33.80696],[-118.17811,33.80689],[-118.17779,33.80676],[-118.17757,33.8067],[-118.17733,33.80663],[-118.17713,33.80664],[-118.17689,33.80673],[-118.17679,33.8068],[-118.17671,33.80686],[-118.17664,33.80682],[-118.17665,33.80675],[-118.17676,33.80661],[-118.17681,33.80652],[-118.17692,33.80643],[-118.17715,33.80633],[-118.17723,33.80631],[-118.17736,33.80629],[-118.17765,33.80626],[-118.17903,33.80626],[-118.1792,33.80631],[-118.17938,33.80639],[-118.17953,33.80651],[-118.17961,33.80659],[-118.17961,33.80662],[-118.1796,33.80673],[-118.17959,33.80698],[-118.17961,33.8074],[-118.17958,33.80767],[-118.17946,33.80779],[-118.17922,33.80794]]}},{"type":"Feature","properties":{"name":"(unnamed public road)","road_class":"track","source":"OpenStreetMap","source_detail":"osm way 679618279","source_tile":"175/409","surface_inferred":true},"geometry":{"type":"LineString","coordinates":[[-118.17733,33.80663],[-118.17723,33.80653],[-118.17719,33.80645],[-118.17719,33.80638],[-118.17723,33.80631]]}},{"type":"Feature","properties":{"name":"(unnamed public road)","road_class":"track","source":"OpenStreetMap","source_detail":"osm way 679618280","source_tile":"175/409","surface_inferred":true},"geometry":{"type":"LineString","coordinates":[[-118.18068,33.80654],[-118.18039,33.80655],[-118.17972,33.80658],[-118.17965,33.8066],[-118.17961,33.80662]]}},{"type":"Feature","properties":{"name":"(unnamed public road)","road_class":"track","surface":"unpaved","source":"OpenStreetMap","source_detail":"osm way 800851638","source_tile":"175/409"},"geometry":{"type":"LineString","coordinates":[[-118.14591,33.7774],[-118.14599,33.77741],[-118.14615,33.77749],[-118.14634,33.77758],[-118.14668,33.77781],[-118.14676,33.77787],[-118.14703,33.77804],[-118.14737,33.77824],[-118.14746,33.77829],[-118.1476,33.77839],[-118.14772,33.77847],[-118.14784,33.77856],[-118.14791,33.7786],[-118.1481,33.77873],[-118.14825,33.77887],[-118.14828,33.7789],[-118.14829,33.77897]]}},{"type":"Feature","properties":{"name":"Blinn Avenue","road_class":"unclassified","surface":"compacted","source":"OpenStreetMap","source_detail":"osm way 800876299","source_tile":"175/409"},"geometry":{"type":"LineString","coordinates":[[-118.24574,33.79583],[-118.246,33.80011]]}},{"type":"Feature","properties":{"name":"(unnamed public road)","road_class":"track","source":"OpenStreetMap","source_detail":"osm way 813493164","source_tile":"175/409","surface_inferred":true},"geometry":{"type":"LineString","coordinates":[[-118.15242,33.83215],[-118.15235,33.83218]]}},{"type":"Feature","properties":{"name":"(unnamed public road)","road_class":"track","source":"OpenStreetMap","source_detail":"osm way 868304716","source_tile":"175/409","surface_inferred":true},"geometry":{"type":"LineString","coordinates":[[-118.4083,33.74181],[-118.40828,33.74176],[-118.40817,33.74171]]}},{"type":"Feature","properties":{"name":"(unnamed public road)","road_class":"track","surface":"gravel","tracktype":"grade2","source":"OpenStreetMap","source_detail":"osm way 1054275436","source_tile":"175/409"},"geometry":{"type":"LineString","coordinates":[[-118.38647,34.01467],[-118.38645,34.01465],[-118.38644,34.0146],[-118.38644,34.01456],[-118.38644,34.01454],[-118.38645,34.01449],[-118.3865,34.01438]]}},{"type":"Feature","properties":{"name":"(unnamed public road)","road_class":"track","surface":"gravel","source":"OpenStreetMap","source_detail":"osm way 1250924999","source_tile":"175/409"},"geometry":{"type":"LineString","coordinates":[[-118.20592,33.97439],[-118.2059,33.97439],[-118.20565,33.97435],[-118.20564,33.97435],[-118.20563,33.97435],[-118.2055,33.97438]]}},{"type":"Feature","properties":{"name":"(unnamed public road)","road_class":"track","access":"customers","source":"OpenStreetMap","source_detail":"osm way 1251408361","source_tile":"175/409","surface_inferred":true},"geometry":{"type":"LineString","coordinates":[[-118.16469,33.93936],[-118.16473,33.93933]]}},{"type":"Feature","properties":{"name":"(unnamed public road)","road_class":"unclassified","surface":"dirt","source":"OpenStreetMap","source_detail":"osm way 1316577319","source_tile":"175/409"},"geometry":{"type":"LineString","coordinates":[[-118.27961,33.85424],[-118.27939,33.85413],[-118.27919,33.85393],[-118.27907,33.85367],[-118.27903,33.85335],[-118.27892,33.85308],[-118.27877,33.85288],[-118.27861,33.85274],[-118.27812,33.85239],[-118.27762,33.85189],[-118.27696,33.85141],[-118.27651,33.85121],[-118.27628,33.85109],[-118.27472,33.84991],[-118.27169,33.84773]]}},{"type":"Feature","properties":{"name":"(unnamed public road)","road_class":"track","surface":"dirt","source":"OpenStreetMap","source_detail":"osm way 1344646373","source_tile":"175/409"},"geometry":{"type":"LineString","coordinates":[[-118.34025,33.97379],[-118.34029,33.97371],[-118.34029,33.97362],[-118.34027,33.97359],[-118.34026,33.97355],[-118.34024,33.97348],[-118.34029,33.97341],[-118.34041,33.97335],[-118.34145,33.9729]]}},{"type":"Feature","properties":{"name":"(unnamed public road)","road_class":"track","surface":"unpaved","source":"OpenStreetMap","source_detail":"osm way 1359401987","source_tile":"175/409"},"geometry":{"type":"LineString","coordinates":[[-118.26102,33.88008],[-118.26082,33.88009],[-118.25994,33.88011],[-118.25907,33.88013],[-118.25868,33.88015]]}},{"type":"Feature","properties":{"name":"(unnamed public road)","road_class":"track","source":"OpenStreetMap","source_detail":"osm way 1388403668","source_tile":"175/409","surface_inferred":true},"geometry":{"type":"LineString","coordinates":[[-118.38071,33.7509],[-118.38081,33.75106],[-118.38119,33.75122],[-118.38165,33.75117],[-118.38168,33.75117],[-118.38177,33.75116],[-118.38199,33.75102],[-118.38203,33.75087],[-118.38203,33.75061],[-118.38209,33.7504],[-118.38215,33.75017],[-118.38221,33.74996],[-118.38235,33.7496],[-118.38239,33.74939],[-118.38249,33.74914],[-118.38249,33.749],[-118.38247,33.74885],[-118.38236,33.74871],[-118.38216,33.74859],[-118.38213,33.74856],[-118.38214,33.74851],[-118.38218,33.74845],[-118.38223,33.74842],[-118.38251,33.74835],[-118.38283,33.74827],[-118.38288,33.74823],[-118.38292,33.74817],[-118.38295,33.74808],[-118.38313,33.74789],[-118.38414,33.7471],[-118.38419,33.74698],[-118.38416,33.74691],[-118.3841,33.74688],[-118.38399,33.74685],[-118.38385,33.74687],[-118.38335,33.74698],[-118.3832,33.74695],[-118.38316,33.7469],[-118.38316,33.74685],[-118.3831,33.74681],[-118.38301,33.74677],[-118.38284,33.74669],[-118.38271,33.74633],[-118.38201,33.74549],[-118.38186,33.74531]]}},{"type":"Feature","properties":{"name":"(unnamed public road)","road_class":"track","source":"OpenStreetMap","source_detail":"osm way 1388403669","source_tile":"175/409","surface_inferred":true},"geometry":{"type":"LineString","coordinates":[[-118.38071,33.7509],[-118.38045,33.75106],[-118.37946,33.75171],[-118.37883,33.75185],[-118.37874,33.75181],[-118.3787,33.75174],[-118.37864,33.75162],[-118.37841,33.75145],[-118.37805,33.75122],[-118.37784,33.75103],[-118.37765,33.7508],[-118.37732,33.75059],[-118.37711,33.75047]]}},{"type":"Feature","properties":{"name":"(unnamed public road)","road_class":"track","source":"OpenStreetMap","source_detail":"osm way 1388403670","source_tile":"175/409","surface_inferred":true},"geometry":{"type":"LineString","coordinates":[[-118.37711,33.75047],[-118.3771,33.75047],[-118.37677,33.75052],[-118.37607,33.75059],[-118.37593,33.75058],[-118.37587,33.75059],[-118.37568,33.75061],[-118.37531,33.75076],[-118.3751,33.75084],[-118.37487,33.75084],[-118.37479,33.75084],[-118.37474,33.75086]]}},{"type":"Feature","properties":{"name":"(unnamed public road)","road_class":"track","source":"OpenStreetMap","source_detail":"osm way 1388403672","source_tile":"175/409","surface_inferred":true},"geometry":{"type":"LineString","coordinates":[[-118.38168,33.75117],[-118.38189,33.75005],[-118.38191,33.74973],[-118.38182,33.74925],[-118.38192,33.74901],[-118.38201,33.74885],[-118.38203,33.74852],[-118.38201,33.74841],[-118.38192,33.74832],[-118.38176,33.74832],[-118.38133,33.74845],[-118.38115,33.74848],[-118.38088,33.74847],[-118.38048,33.74837],[-118.3803,33.74826],[-118.37982,33.74789]]}},{"type":"Feature","properties":{"name":"(unnamed public road)","road_class":"track","surface":"dirt","source":"OpenStreetMap","source_detail":"osm way 1414801065","source_tile":"175/409"},"geometry":{"type":"LineString","coordinates":[[-118.42704,33.96561],[-118.42713,33.96559],[-118.42726,33.96557],[-118.4273,33.96557]]}},{"type":"Feature","properties":{"name":"(unnamed public road)","road_class":"track","source":"OpenStreetMap","source_detail":"osm way 1424936727","source_tile":"175/409","surface_inferred":true},"geometry":{"type":"LineString","coordinates":[[-118.28013,33.84707],[-118.28005,33.84708],[-118.28002,33.84708],[-118.27943,33.84706],[-118.27861,33.84705],[-118.27737,33.84706],[-118.27562,33.84706],[-118.27304,33.84703],[-118.27282,33.84703],[-118.27238,33.84703]]}},{"type":"Feature","properties":{"name":"(unnamed public road)","road_class":"track","surface":"sand","source":"OpenStreetMap","source_detail":"osm way 1435724130","source_tile":"175/409"},"geometry":{"type":"LineString","coordinates":[[-118.39471,33.80346],[-118.3944,33.80372],[-118.39424,33.80398],[-118.3942,33.80411],[-118.39421,33.80416]]}},{"type":"Feature","properties":{"name":"(unnamed public road)","road_class":"track","tracktype":"grade5","source":"OpenStreetMap","source_detail":"osm way 1454325451","source_tile":"175/409","surface_inferred":true},"geometry":{"type":"LineString","coordinates":[[-118.44418,33.96887],[-118.44424,33.9689],[-118.44426,33.9689],[-118.44426,33.96891],[-118.44426,33.96892],[-118.44426,33.96896],[-118.44426,33.969],[-118.44411,33.96908],[-118.44401,33.96915],[-118.44391,33.96926]]}},{"type":"Feature","properties":{"name":"(unnamed public road)","road_class":"track","source":"OpenStreetMap","source_detail":"osm way 1454565897","source_tile":"175/409","surface_inferred":true},"geometry":{"type":"LineString","coordinates":[[-118.43911,33.94825],[-118.43922,33.94828]]}},{"type":"Feature","properties":{"name":"(unnamed public road)","road_class":"track","tracktype":"grade4","source":"OpenStreetMap","source_detail":"osm way 1463243507","source_tile":"175/409","surface_inferred":true},"geometry":{"type":"LineString","coordinates":[[-118.35087,33.79139],[-118.35059,33.79157],[-118.35043,33.79174]]}},{"type":"Feature","properties":{"name":"(unnamed public road)","road_class":"track","source":"OpenStreetMap","source_detail":"osm way 1495782045","source_tile":"175/409","surface_inferred":true},"geometry":{"type":"LineString","coordinates":[[-118.3613,33.7381],[-118.36157,33.73789],[-118.36191,33.73768]]}},{"type":"Feature","properties":{"name":"(unnamed public road)","road_class":"track","source":"OpenStreetMap","source_detail":"osm way 1495782046","source_tile":"175/409","surface_inferred":true},"geometry":{"type":"LineString","coordinates":[[-118.36157,33.73789],[-118.36138,33.73783],[-118.36121,33.73775],[-118.36116,33.73772],[-118.36113,33.73766],[-118.3611,33.73759],[-118.36109,33.73752],[-118.36106,33.73732],[-118.36103,33.73729],[-118.36096,33.73726]]}},{"type":"Feature","properties":{"name":"(unnamed public road)","road_class":"track","source":"OpenStreetMap","source_detail":"osm way 1495782047","source_tile":"175/409","surface_inferred":true},"geometry":{"type":"LineString","coordinates":[[-118.36157,33.73789],[-118.36185,33.73802],[-118.36193,33.73806],[-118.36208,33.73809],[-118.36221,33.73814],[-118.36234,33.73823],[-118.36252,33.73833],[-118.36258,33.73839],[-118.36261,33.73846],[-118.36257,33.73852],[-118.36246,33.73856],[-118.36238,33.73858],[-118.3623,33.73864],[-118.36214,33.73874],[-118.36178,33.73889],[-118.36168,33.73895],[-118.36165,33.73903],[-118.36168,33.73914],[-118.36169,33.73922]]}}]}