{"type":"FeatureCollection","features":[{"type":"Feature","properties":{"name":"Isthmus Road","road_class":"unclassified","surface":"dirt","motor_vehicle":"yes","access":"yes","source":"OpenStreetMap","source_detail":"osm way 13415094","source_tile":"175/411"},"geometry":{"type":"LineString","coordinates":[[-118.47085,33.4335],[-118.4706,33.43329],[-118.47044,33.43305],[-118.47039,33.43287],[-118.4702,33.43147],[-118.46996,33.42895],[-118.4696,33.42705],[-118.46958,33.42684],[-118.46959,33.42665],[-118.46966,33.42648],[-118.46993,33.42593],[-118.47005,33.42567],[-118.47015,33.42545],[-118.4703,33.42506],[-118.47048,33.42463],[-118.47082,33.4239],[-118.47117,33.42314],[-118.47131,33.4229],[-118.47143,33.42269],[-118.47157,33.42254],[-118.47175,33.42236],[-118.47215,33.42204],[-118.4725,33.42173],[-118.47282,33.42143],[-118.47313,33.4211],[-118.4734,33.42071],[-118.4735,33.42047],[-118.47357,33.42024],[-118.47361,33.4201],[-118.47364,33.41993],[-118.47364,33.41976],[-118.47362,33.41964],[-118.47357,33.41949],[-118.47352,33.41936],[-118.47342,33.41918],[-118.47329,33.41898],[-118.47314,33.41876],[-118.47296,33.41853],[-118.47274,33.4182],[-118.47266,33.41809],[-118.47255,33.41797],[-118.47245,33.41788],[-118.47234,33.41779],[-118.47223,33.41771],[-118.47213,33.4176],[-118.47203,33.4175],[-118.47197,33.41741],[-118.47192,33.41733],[-118.47185,33.41714],[-118.47174,33.41677],[-118.47167,33.41653],[-118.4716,33.4164],[-118.47153,33.4163],[-118.47144,33.41623],[-118.47131,33.41615],[-118.47114,33.41611],[-118.47106,33.41608],[-118.47102,33.41604],[-118.47101,33.41598],[-118.47101,33.41593],[-118.47106,33.41582],[-118.4711,33.41568],[-118.47114,33.41551],[-118.47116,33.41533],[-118.47119,33.41505],[-118.4712,33.41478],[-118.47118,33.41449],[-118.47113,33.41429],[-118.47108,33.41405],[-118.47105,33.4138],[-118.47099,33.41343],[-118.47094,33.41312],[-118.47087,33.41284],[-118.47077,33.41256],[-118.47067,33.4123],[-118.47056,33.41195],[-118.47048,33.41158],[-118.47043,33.41143],[-118.47036,33.41131],[-118.47028,33.41121],[-118.47022,33.41114],[-118.47007,33.41107],[-118.46983,33.41097],[-118.46962,33.41089],[-118.46944,33.4108],[-118.46924,33.41065],[-118.46899,33.41047],[-118.46882,33.4104],[-118.46867,33.41035],[-118.46827,33.4103],[-118.46795,33.41026],[-118.46781,33.41024],[-118.4677,33.41022],[-118.46761,33.41019],[-118.46756,33.41016],[-118.4675,33.4101],[-118.46744,33.41005],[-118.46739,33.40996],[-118.46737,33.40988],[-118.46737,33.40982],[-118.46739,33.40971],[-118.46742,33.40965],[-118.46747,33.40958],[-118.46764,33.40942],[-118.46804,33.40908],[-118.4682,33.40891],[-118.4683,33.40878],[-118.46834,33.40868],[-118.46835,33.40859],[-118.46835,33.4085],[-118.46834,33.40843],[-118.46831,33.40831],[-118.46826,33.40823],[-118.4682,33.40814],[-118.46812,33.40807],[-118.46803,33.408],[-118.46791,33.40792],[-118.46773,33.40781],[-118.4676,33.40771],[-118.4675,33.4076],[-118.46744,33.40753],[-118.4674,33.40745],[-118.46739,33.40738],[-118.46739,33.40728],[-118.4674,33.4072],[-118.46741,33.40711],[-118.46747,33.40694],[-118.46751,33.40679],[-118.46752,33.40668],[-118.46749,33.40658],[-118.46745,33.40649],[-118.46737,33.40635],[-118.46717,33.40608],[-118.46706,33.40592],[-118.46702,33.40581],[-118.467,33.4057],[-118.467,33.40562],[-118.46701,33.40555],[-118.46704,33.40547],[-118.46708,33.40541],[-118.46718,33.40523],[-118.46721,33.40515],[-118.46722,33.40508],[-118.46722,33.40499],[-118.4672,33.4049],[-118.46716,33.40477],[-118.46708,33.40459],[-118.46704,33.40451],[-118.46703,33.40443],[-118.46702,33.40435],[-118.46702,33.40427],[-118.46703,33.4042],[-118.46706,33.40413],[-118.46709,33.40408],[-118.46713,33.40402],[-118.46721,33.40395],[-118.46732,33.4039],[-118.46752,33.40385],[-118.46768,33.40379],[-118.46785,33.4037],[-118.46794,33.40365],[-118.46803,33.40358],[-118.46816,33.40345],[-118.46826,33.40329],[-118.46832,33.40314],[-118.46835,33.40299],[-118.46835,33.40233],[-118.46834,33.40179],[-118.46829,33.40171],[-118.46819,33.40154],[-118.46806,33.40126],[-118.46797,33.40103],[-118.46793,33.40081],[-118.468,33.3996],[-118.46789,33.39922],[-118.46791,33.39909],[-118.468,33.39895],[-118.46829,33.39868],[-118.46835,33.39857],[-118.46841,33.39832],[-118.46855,33.39817],[-118.46886,33.398],[-118.46913,33.39781],[-118.46927,33.39761],[-118.46931,33.39743],[-118.46928,33.39724],[-118.46899,33.39674],[-118.46899,33.39663],[-118.46907,33.39635],[-118.46928,33.39572],[-118.46942,33.39524],[-118.46956,33.39502],[-118.46996,33.39465],[-118.47022,33.39425],[-118.47048,33.39378],[-118.47061,33.39365],[-118.47083,33.39355],[-118.47114,33.39346],[-118.47133,33.3934],[-118.47142,33.39334],[-118.47154,33.39325],[-118.4717,33.39306],[-118.47189,33.3929],[-118.47238,33.3925],[-118.4725,33.39234],[-118.47254,33.39221],[-118.47254,33.39208],[-118.47246,33.39172],[-118.47246,33.39151],[-118.47248,33.39135],[-118.4726,33.39106],[-118.47283,33.3907],[-118.47292,33.39056],[-118.47296,33.39044],[-118.47299,33.3903],[-118.47297,33.39017],[-118.47292,33.39007],[-118.47278,33.38989],[-118.47239,33.38955]]}},{"type":"Feature","properties":{"name":"(unnamed public road)","road_class":"track","source":"OpenStreetMap","source_detail":"osm way 441366217","source_tile":"175/410","surface_inferred":true},"geometry":{"type":"LineString","coordinates":[[-118.46002,33.43684],[-118.46044,33.43684],[-118.46058,33.43684],[-118.46069,33.43687],[-118.46078,33.43691],[-118.46088,33.43696],[-118.46126,33.4372],[-118.46137,33.43728],[-118.46146,33.43736],[-118.46165,33.43751],[-118.46169,33.43757],[-118.46176,33.43763],[-118.46184,33.43765],[-118.46192,33.43764],[-118.46198,33.43757]]}},{"type":"Feature","properties":{"name":"(unnamed public road)","road_class":"track","source":"OpenStreetMap","source_detail":"osm way 441366219","source_tile":"175/410","surface_inferred":true},"geometry":{"type":"LineString","coordinates":[[-118.45657,33.43504],[-118.45685,33.43532],[-118.45689,33.4354],[-118.45736,33.43576],[-118.45748,33.43583],[-118.45763,33.43602],[-118.45793,33.43631],[-118.45809,33.4364],[-118.45842,33.43647],[-118.45879,33.43652],[-118.45934,33.43667],[-118.45971,33.43677],[-118.46002,33.43684],[-118.46035,33.43697],[-118.46076,33.43722],[-118.46097,33.4374],[-118.46123,33.43761],[-118.46135,33.43773],[-118.46146,33.43787],[-118.46156,33.43804],[-118.46162,33.4382],[-118.46171,33.43847],[-118.46179,33.43864],[-118.46197,33.43895],[-118.46214,33.43927],[-118.4623,33.43952],[-118.46255,33.43983]]}},{"type":"Feature","properties":{"name":"(unnamed public road)","road_class":"track","access":"permissive","source":"OpenStreetMap","source_detail":"osm way 1240358518","source_tile":"175/410","surface_inferred":true},"geometry":{"type":"LineString","coordinates":[[-118.29532,33.71407],[-118.29541,33.714],[-118.29541,33.71389],[-118.29533,33.71365],[-118.29525,33.71348],[-118.29522,33.71336],[-118.29521,33.71324],[-118.29519,33.71304],[-118.29519,33.71295],[-118.29515,33.71291],[-118.2951,33.71289],[-118.29503,33.71288],[-118.29497,33.71288]]}}]}