{"type":"FeatureCollection","features":[{"type":"Feature","properties":{"name":"(unnamed public road)","road_class":"track","source":"OpenStreetMap","source_detail":"osm way 13273307","source_tile":"175/412","surface_inferred":true},"geometry":{"type":"LineString","coordinates":[[-118.43097,32.8465],[-118.431,32.84669],[-118.43116,32.84685],[-118.43157,32.84698],[-118.4323,32.84804],[-118.43214,32.84895],[-118.43263,32.84985],[-118.43277,32.85047],[-118.43388,32.85076],[-118.43542,32.85108],[-118.43572,32.85129],[-118.43605,32.85138],[-118.43632,32.85159],[-118.43733,32.85276],[-118.43733,32.85354],[-118.43762,32.85404],[-118.43833,32.85477],[-118.43885,32.85507],[-118.43914,32.85548]]}},{"type":"Feature","properties":{"name":"(unnamed public road)","road_class":"track","surface":"dirt","source":"OpenStreetMap","source_detail":"osm way 733322241","source_tile":"175/412"},"geometry":{"type":"LineString","coordinates":[[-118.46053,32.85704],[-118.46094,32.85648],[-118.46102,32.85623],[-118.46089,32.85588],[-118.46061,32.85557],[-118.4598,32.85525],[-118.45958,32.85498],[-118.45961,32.85443],[-118.46037,32.85259],[-118.4605,32.85165],[-118.46031,32.85108],[-118.46039,32.85065],[-118.46009,32.84996],[-118.46015,32.84962],[-118.46042,32.84936],[-118.46091,32.84932],[-118.46134,32.84957],[-118.46188,32.85016],[-118.46284,32.85168],[-118.46322,32.852],[-118.46365,32.85211],[-118.46414,32.85209],[-118.46487,32.85172],[-118.4659,32.85094],[-118.46612,32.84989],[-118.46601,32.84948],[-118.4656,32.849],[-118.46544,32.84863],[-118.46549,32.84813],[-118.46653,32.84725],[-118.46693,32.84675],[-118.46699,32.84641],[-118.46677,32.84602],[-118.46633,32.84581],[-118.46566,32.84563],[-118.46534,32.84496],[-118.46479,32.84407]]}},{"type":"Feature","properties":{"name":"(unnamed public road)","road_class":"track","source":"OpenStreetMap","source_detail":"osm way 733324037","source_tile":"175/412","surface_inferred":true},"geometry":{"type":"LineString","coordinates":[[-118.41525,32.85541],[-118.41513,32.85572],[-118.41492,32.85608],[-118.41483,32.85628],[-118.41475,32.8564],[-118.4146,32.85654],[-118.41444,32.85668],[-118.41424,32.85687],[-118.41401,32.85711],[-118.41358,32.85762],[-118.41305,32.8582],[-118.41276,32.85853],[-118.41257,32.85872],[-118.41243,32.8589],[-118.41235,32.859],[-118.41228,32.85906],[-118.41219,32.85911],[-118.41202,32.85918],[-118.41183,32.85925],[-118.41174,32.85928],[-118.41169,32.8593],[-118.41164,32.85934],[-118.41159,32.8594],[-118.41156,32.85946],[-118.41155,32.85953],[-118.41156,32.8596],[-118.41158,32.85971],[-118.41159,32.85987],[-118.41158,32.85998],[-118.41153,32.86004],[-118.41145,32.86008],[-118.41128,32.86011],[-118.41124,32.86011],[-118.4112,32.86008],[-118.41117,32.86003]]}}]}