{"type":"FeatureCollection","features":[{"type":"Feature","properties":{"name":"(unnamed public road)","road_class":"track","source":"OpenStreetMap","source_detail":"osm way 495275925","source_tile":"175/413","surface_inferred":true},"geometry":{"type":"LineString","coordinates":[[-118.43134,32.81394],[-118.43113,32.8138]]}},{"type":"Feature","properties":{"name":"(unnamed public road)","road_class":"track","source":"OpenStreetMap","source_detail":"osm way 732209113","source_tile":"175/413","surface_inferred":true},"geometry":{"type":"LineString","coordinates":[[-118.39781,32.82386],[-118.39822,32.82379]]}},{"type":"Feature","properties":{"name":"(unnamed public road)","road_class":"track","source":"OpenStreetMap","source_detail":"osm way 732209114","source_tile":"175/413","surface_inferred":true},"geometry":{"type":"LineString","coordinates":[[-118.39822,32.82379],[-118.39837,32.82372],[-118.39845,32.82367],[-118.39871,32.82344],[-118.39897,32.82328],[-118.39919,32.8231],[-118.39937,32.82286],[-118.39978,32.82262]]}},{"type":"Feature","properties":{"name":"(unnamed public road)","road_class":"track","source":"OpenStreetMap","source_detail":"osm way 732209116","source_tile":"175/413","surface_inferred":true},"geometry":{"type":"LineString","coordinates":[[-118.39978,32.82262],[-118.39993,32.82252]]}},{"type":"Feature","properties":{"name":"(unnamed public road)","road_class":"track","source":"OpenStreetMap","source_detail":"osm way 732209117","source_tile":"175/413","surface_inferred":true},"geometry":{"type":"LineString","coordinates":[[-118.40412,32.81482],[-118.40404,32.81473],[-118.40396,32.8146],[-118.40389,32.81453],[-118.40386,32.81447],[-118.40382,32.81423],[-118.40379,32.81398],[-118.40376,32.81368],[-118.40376,32.81355],[-118.40379,32.81348],[-118.40383,32.81345],[-118.40389,32.81341],[-118.40393,32.81341],[-118.40397,32.81342],[-118.40428,32.81352],[-118.40456,32.81359],[-118.40496,32.81372],[-118.40525,32.81381],[-118.40539,32.81384],[-118.4055,32.81385]]}},{"type":"Feature","properties":{"name":"(unnamed public road)","road_class":"track","source":"OpenStreetMap","source_detail":"osm way 732209118","source_tile":"175/413","surface_inferred":true},"geometry":{"type":"LineString","coordinates":[[-118.41482,32.81223],[-118.41495,32.81231]]}},{"type":"Feature","properties":{"name":"(unnamed public road)","road_class":"unclassified","surface":"unpaved","source":"OpenStreetMap","source_detail":"osm way 732209122","source_tile":"175/413"},"geometry":{"type":"LineString","coordinates":[[-118.42781,32.81265],[-118.42768,32.81265]]}},{"type":"Feature","properties":{"name":"(unnamed public road)","road_class":"track","source":"OpenStreetMap","source_detail":"osm way 732209128","source_tile":"175/413","surface_inferred":true},"geometry":{"type":"LineString","coordinates":[[-118.42839,32.81206],[-118.42848,32.81215]]}},{"type":"Feature","properties":{"name":"(unnamed public road)","road_class":"track","source":"OpenStreetMap","source_detail":"osm way 733095242","source_tile":"175/413","surface_inferred":true},"geometry":{"type":"LineString","coordinates":[[-118.43745,32.83909],[-118.43712,32.83878],[-118.43668,32.83861]]}},{"type":"Feature","properties":{"name":"(unnamed public road)","road_class":"unclassified","surface":"unpaved","source":"OpenStreetMap","source_detail":"osm way 733322975","source_tile":"175/413"},"geometry":{"type":"LineString","coordinates":[[-118.38003,32.83692],[-118.37998,32.83682],[-118.37993,32.83672],[-118.37992,32.8366],[-118.37992,32.83649],[-118.37995,32.83637],[-118.38004,32.83617],[-118.38015,32.83588],[-118.38019,32.83574],[-118.38019,32.83556],[-118.38014,32.83536],[-118.38003,32.83503],[-118.37999,32.8349],[-118.37999,32.83476],[-118.38001,32.83463],[-118.38005,32.83453],[-118.38012,32.83443],[-118.38028,32.83431],[-118.38057,32.83415],[-118.38089,32.83403],[-118.38139,32.83391],[-118.38168,32.83382],[-118.38203,32.83371],[-118.38226,32.83365],[-118.38236,32.83363],[-118.38256,32.83361],[-118.38265,32.8336],[-118.38283,32.83352]]}},{"type":"Feature","properties":{"name":"(unnamed public road)","road_class":"track","source":"OpenStreetMap","source_detail":"osm way 1121983782","source_tile":"175/413","surface_inferred":true},"geometry":{"type":"LineString","coordinates":[[-118.368,32.83069],[-118.36791,32.83068],[-118.36772,32.8305],[-118.36776,32.83036],[-118.36754,32.8301],[-118.36706,32.82975],[-118.36693,32.8292],[-118.3668,32.82878],[-118.36677,32.82876],[-118.36671,32.82876],[-118.36646,32.82889],[-118.36646,32.82922],[-118.36634,32.82937],[-118.36617,32.82942],[-118.36609,32.82941],[-118.36594,32.82929],[-118.36572,32.82916],[-118.36541,32.82914],[-118.36519,32.82921]]}},{"type":"Feature","properties":{"name":"(unnamed public road)","road_class":"track","source":"OpenStreetMap","source_detail":"osm way 1121983787","source_tile":"175/413","surface_inferred":true},"geometry":{"type":"LineString","coordinates":[[-118.38019,32.83622],[-118.38022,32.83609],[-118.38043,32.83575],[-118.38072,32.83536],[-118.38088,32.83511],[-118.38105,32.83493],[-118.3812,32.83474],[-118.38144,32.83436],[-118.38166,32.8341],[-118.3818,32.83399]]}},{"type":"Feature","properties":{"name":"(unnamed public road)","road_class":"track","source":"OpenStreetMap","source_detail":"osm way 1328232138","source_tile":"175/413","surface_inferred":true},"geometry":{"type":"LineString","coordinates":[[-118.41584,32.81239],[-118.41576,32.81233],[-118.41563,32.81217],[-118.41546,32.8119],[-118.41537,32.81175],[-118.41529,32.81167],[-118.41524,32.81165],[-118.41517,32.81165],[-118.41513,32.81167],[-118.41511,32.8117],[-118.4151,32.81175],[-118.41511,32.81187],[-118.4151,32.81202],[-118.41511,32.81215],[-118.41512,32.81223],[-118.41511,32.81228],[-118.41509,32.81232]]}},{"type":"Feature","properties":{"name":"(unnamed public road)","road_class":"track","source":"OpenStreetMap","source_detail":"osm way 1328232139","source_tile":"175/413","surface_inferred":true},"geometry":{"type":"LineString","coordinates":[[-118.42508,32.80561],[-118.42502,32.80558],[-118.42497,32.80556],[-118.42491,32.80555],[-118.42486,32.80556],[-118.42479,32.8056]]}}]}