{"type":"FeatureCollection","features":[{"type":"Feature","properties":{"name":"(unnamed public road)","road_class":"unclassified","surface":"gravel","source":"Caltrans All Roads + OpenStreetMap explicit surface","source_detail":"osm way 7916779; Caltrans All Roads public-network geometry match","source_tile":"170/381","public_network_source":"Caltrans All Roads (ARNOLD/HPMS)","surface_source":"OpenStreetMap explicit surface tag","caltrans_match_coverage":1.0,"verified_length_m":3767},"geometry":{"type":"LineString","coordinates":[[-120.11886,41.63076],[-120.11873,41.63066],[-120.11851,41.63052],[-120.11804,41.63026],[-120.11729,41.62986],[-120.11691,41.62965],[-120.11648,41.6294],[-120.11544,41.62873],[-120.11525,41.62858],[-120.11339,41.62707],[-120.11325,41.62695],[-120.11313,41.62683],[-120.11302,41.62669],[-120.11296,41.62656],[-120.11287,41.62636],[-120.11261,41.62544],[-120.11254,41.62527],[-120.11217,41.62466],[-120.11185,41.62407],[-120.11175,41.62393],[-120.11157,41.62372],[-120.11134,41.62349],[-120.11093,41.62312],[-120.1108,41.62298],[-120.11069,41.62283],[-120.11059,41.62267],[-120.11052,41.6225],[-120.11039,41.62203],[-120.11024,41.6217],[-120.11013,41.62151],[-120.11008,41.6214],[-120.11004,41.62128],[-120.10999,41.62102],[-120.10992,41.62051],[-120.10987,41.61979],[-120.10976,41.61912],[-120.10974,41.61898],[-120.10952,41.61835],[-120.10898,41.61699],[-120.10868,41.61653],[-120.10823,41.61579],[-120.10761,41.61482],[-120.10751,41.61461],[-120.10737,41.61438],[-120.10716,41.61412],[-120.10686,41.61383],[-120.10662,41.61362],[-120.10643,41.61345],[-120.10565,41.61282],[-120.10539,41.61259],[-120.105,41.61219],[-120.10451,41.61167],[-120.10421,41.61137],[-120.10362,41.61084],[-120.1033,41.61059],[-120.10316,41.61047],[-120.10279,41.61011],[-120.10263,41.60994],[-120.10236,41.6096],[-120.10215,41.60935],[-120.10182,41.60902],[-120.1013,41.60847],[-120.10085,41.60802],[-120.10066,41.60785],[-120.10026,41.60753],[-120.09964,41.60715],[-120.09955,41.60699],[-120.09951,41.60687],[-120.0995,41.60658],[-120.09957,41.60499],[-120.09967,41.60161]]}},{"type":"Feature","properties":{"name":"County Road 18","road_class":"unclassified","surface":"gravel","source":"Caltrans All Roads + OpenStreetMap explicit surface","source_detail":"osm way 7922215; Caltrans All Roads public-network geometry match","source_tile":"170/381","public_network_source":"Caltrans All Roads (ARNOLD/HPMS)","surface_source":"OpenStreetMap explicit surface tag","caltrans_match_coverage":0.983,"verified_length_m":15623},"geometry":{"type":"LineString","coordinates":[[-120.16647,41.60242],[-120.16384,41.60246],[-120.16258,41.60249],[-120.16236,41.60249],[-120.16142,41.60249],[-120.16117,41.6025],[-120.16109,41.6025],[-120.15775,41.60252],[-120.15706,41.60254],[-120.15503,41.60261],[-120.15322,41.60264],[-120.152,41.60262],[-120.15085,41.60258],[-120.15007,41.60258],[-120.14899,41.60254],[-120.14883,41.60254],[-120.1483,41.60251],[-120.14522,41.60244],[-120.14324,41.60241],[-120.14294,41.6024],[-120.14176,41.60237],[-120.13982,41.60234],[-120.13463,41.6022],[-120.13408,41.60219],[-120.13124,41.60213],[-120.12435,41.60201],[-120.12412,41.60201],[-120.12382,41.60201],[-120.12212,41.60198],[-120.12132,41.60198],[-120.11809,41.6019],[-120.11619,41.60188],[-120.11245,41.60181],[-120.10691,41.60172],[-120.10394,41.60165],[-120.10272,41.60163],[-120.10102,41.60163],[-120.09967,41.60161],[-120.0996,41.6016],[-120.09908,41.60146],[-120.09713,41.60079],[-120.09694,41.60072],[-120.09424,41.5998],[-120.09401,41.59971],[-120.09374,41.59961],[-120.09329,41.59945],[-120.09253,41.59918],[-120.09235,41.59913],[-120.092,41.59904],[-120.09176,41.59896],[-120.09154,41.59886],[-120.09074,41.59863],[-120.08987,41.59832],[-120.0891,41.59805],[-120.08882,41.59796],[-120.08811,41.5979],[-120.08567,41.59776],[-120.08495,41.59772],[-120.08453,41.59769],[-120.0844,41.59768],[-120.08322,41.59749],[-120.08254,41.59734],[-120.08239,41.5973],[-120.08212,41.59719],[-120.08079,41.59636],[-120.07983,41.59579],[-120.07941,41.59551],[-120.07894,41.59524],[-120.07849,41.59495],[-120.07649,41.59372],[-120.07596,41.59337],[-120.07538,41.59302],[-120.07403,41.59216],[-120.0727,41.59134],[-120.07258,41.59126],[-120.07223,41.59103],[-120.07175,41.59069],[-120.0716,41.59056],[-120.07148,41.59045],[-120.07097,41.58995],[-120.07036,41.58934],[-120.06954,41.58852],[-120.06918,41.58816],[-120.06909,41.58808],[-120.06764,41.58663],[-120.06738,41.5864],[-120.0673,41.58635],[-120.06707,41.58623],[-120.06559,41.58578],[-120.06544,41.58573],[-120.06529,41.58569],[-120.06176,41.58458],[-120.05877,41.58365],[-120.05741,41.58322],[-120.057,41.58309],[-120.05684,41.58305],[-120.05671,41.58298],[-120.05659,41.58289],[-120.05628,41.58253],[-120.05554,41.58154],[-120.05431,41.57996],[-120.05215,41.57712],[-120.05201,41.57696],[-120.05191,41.57688],[-120.0518,41.5768],[-120.05167,41.57673],[-120.05154,41.57667],[-120.0514,41.57663],[-120.05125,41.57659],[-120.0511,41.57657],[-120.05094,41.57655],[-120.05072,41.57656],[-120.05029,41.57661],[-120.04952,41.57671],[-120.0491,41.57677],[-120.04862,41.57684],[-120.04801,41.57694],[-120.04741,41.57707],[-120.04714,41.57714],[-120.0468,41.57723],[-120.04657,41.57729],[-120.04636,41.57741],[-120.04607,41.57755],[-120.04581,41.57774],[-120.04445,41.57862],[-120.04416,41.5788],[-120.04393,41.57889],[-120.04352,41.579],[-120.04199,41.57895],[-120.04151,41.57903],[-120.04089,41.57922],[-120.04051,41.57931],[-120.0395,41.57959],[-120.03888,41.57976],[-120.03839,41.57988],[-120.03789,41.57998],[-120.03778,41.58],[-120.0373,41.58005],[-120.03711,41.58007],[-120.03699,41.58007],[-120.03683,41.58006],[-120.03668,41.58004],[-120.03654,41.58],[-120.03635,41.57993],[-120.03597,41.57972],[-120.03541,41.57936],[-120.0348,41.5789],[-120.03435,41.57852],[-120.03392,41.57824],[-120.03335,41.57796],[-120.03308,41.57785],[-120.03105,41.57704],[-120.03034,41.57669],[-120.03007,41.57652],[-120.02945,41.5761],[-120.02927,41.57596],[-120.02903,41.57569],[-120.02897,41.5756],[-120.02885,41.5753],[-120.02873,41.57497],[-120.02867,41.57474],[-120.02857,41.57415],[-120.02843,41.57338],[-120.0283,41.57295],[-120.02811,41.57249],[-120.02792,41.5721],[-120.02771,41.57156],[-120.02751,41.57101],[-120.0272,41.56941],[-120.02697,41.56863],[-120.02658,41.56748],[-120.02629,41.56679],[-120.02611,41.56643],[-120.02535,41.56512],[-120.02493,41.56446],[-120.02455,41.56384],[-120.0239,41.56277],[-120.02291,41.56122],[-120.02245,41.56043],[-120.02199,41.55957],[-120.02183,41.55926],[-120.02156,41.55874],[-120.02117,41.5579],[-120.0205,41.55651],[-120.02008,41.55568],[-120.0198,41.55492],[-120.01917,41.55306],[-120.01908,41.55281],[-120.01881,41.55201],[-120.01864,41.55142],[-120.0186,41.55128]]}},{"type":"Feature","properties":{"name":"County Road 15A","road_class":"unclassified","surface":"dirt","source":"Caltrans All Roads + OpenStreetMap explicit surface","source_detail":"osm way 7925375; Caltrans All Roads public-network geometry match","source_tile":"170/381","public_network_source":"Caltrans All Roads (ARNOLD/HPMS)","surface_source":"OpenStreetMap explicit surface tag","caltrans_match_coverage":1.0,"verified_length_m":12239},"geometry":{"type":"LineString","coordinates":[[-120.09136,41.73617],[-120.09138,41.73598],[-120.09134,41.7333],[-120.09132,41.73008],[-120.0913,41.72935],[-120.09129,41.72794],[-120.09127,41.72764],[-120.09122,41.72751],[-120.09119,41.72746],[-120.09106,41.72731],[-120.09102,41.72721],[-120.09101,41.72706],[-120.09104,41.72677],[-120.09103,41.72669],[-120.091,41.7266],[-120.09065,41.72585],[-120.09056,41.72568],[-120.09033,41.72515],[-120.09028,41.72495],[-120.09,41.72285],[-120.08986,41.72161],[-120.08986,41.7215],[-120.08983,41.72134],[-120.08975,41.72119],[-120.08963,41.72105],[-120.0895,41.72093],[-120.08939,41.72078],[-120.0893,41.72058],[-120.08929,41.72047],[-120.08929,41.71996],[-120.08929,41.71901],[-120.08927,41.71889],[-120.08924,41.71877],[-120.08912,41.7185],[-120.08882,41.71768],[-120.08839,41.71643],[-120.08829,41.71617],[-120.08827,41.71603],[-120.08827,41.71593],[-120.08828,41.71583],[-120.08831,41.71574],[-120.08835,41.71563],[-120.0885,41.71535],[-120.08862,41.71508],[-120.08888,41.7142],[-120.08905,41.71355],[-120.08941,41.71225],[-120.08986,41.71088],[-120.08998,41.71045],[-120.09,41.71028],[-120.09,41.7101],[-120.08993,41.70955],[-120.08986,41.70909],[-120.08978,41.70875],[-120.08957,41.70804],[-120.0892,41.70689],[-120.08915,41.70667],[-120.08912,41.70651],[-120.08912,41.7064],[-120.08918,41.70587],[-120.08924,41.70524],[-120.08936,41.70415],[-120.08944,41.70363],[-120.08998,41.70135],[-120.09029,41.70004],[-120.09046,41.69931],[-120.09062,41.69858],[-120.09067,41.69826],[-120.09067,41.69824],[-120.0908,41.69766],[-120.09082,41.69754],[-120.09096,41.69684],[-120.09107,41.69607],[-120.09137,41.6942],[-120.09148,41.69348],[-120.09178,41.69167],[-120.09189,41.69092],[-120.09214,41.68937],[-120.09231,41.68818],[-120.09276,41.68546],[-120.09296,41.68425],[-120.09321,41.68256],[-120.09325,41.68231],[-120.0935,41.68068],[-120.09363,41.67993],[-120.09416,41.67725],[-120.09465,41.67505],[-120.0948,41.67464],[-120.0953,41.67337],[-120.09583,41.6721],[-120.0964,41.67081],[-120.09743,41.66882],[-120.09819,41.66718],[-120.09855,41.66648],[-120.09883,41.66586],[-120.09889,41.66567],[-120.09892,41.66547],[-120.09892,41.66529],[-120.09899,41.66436],[-120.09903,41.66363],[-120.09904,41.66311],[-120.09906,41.66292],[-120.09921,41.66273],[-120.09961,41.66236],[-120.10076,41.66125],[-120.10146,41.66061],[-120.10159,41.66047],[-120.1017,41.66033],[-120.1018,41.66017],[-120.10218,41.6594],[-120.10285,41.65799],[-120.10298,41.65773],[-120.10422,41.65528],[-120.10498,41.65375],[-120.10614,41.65147],[-120.10653,41.65071],[-120.10667,41.65042],[-120.10683,41.65014],[-120.10694,41.64998],[-120.10751,41.64927],[-120.10946,41.64696],[-120.11008,41.64611],[-120.1114,41.64431],[-120.11188,41.64371],[-120.11298,41.64221],[-120.11324,41.64182],[-120.11383,41.64087],[-120.11549,41.63833],[-120.11567,41.63809],[-120.11577,41.63796],[-120.11582,41.63786],[-120.11583,41.63769],[-120.1158,41.63759],[-120.11547,41.63695],[-120.11536,41.63668],[-120.11534,41.63659],[-120.11533,41.63652],[-120.11536,41.63642],[-120.11542,41.63634],[-120.11586,41.63602],[-120.11677,41.63533],[-120.11704,41.63511],[-120.11714,41.63501],[-120.11723,41.63489],[-120.11731,41.63475],[-120.11755,41.63428],[-120.11768,41.63409],[-120.11779,41.63395],[-120.11853,41.63296],[-120.11861,41.63288],[-120.11909,41.63225],[-120.11944,41.63178],[-120.11974,41.63151],[-120.11984,41.6314],[-120.11996,41.63135],[-120.12012,41.63125]]}},{"type":"Feature","properties":{"name":"County Road 190B","road_class":"unclassified","surface":"unpaved","source":"Caltrans All Roads + OpenStreetMap explicit surface","source_detail":"osm way 7930509; Caltrans All Roads public-network geometry match","source_tile":"170/381","public_network_source":"Caltrans All Roads (ARNOLD/HPMS)","surface_source":"OpenStreetMap explicit surface tag","caltrans_match_coverage":1.0,"verified_length_m":693},"geometry":{"type":"LineString","coordinates":[[-120.17222,41.58483],[-120.17219,41.58555],[-120.17222,41.58693],[-120.17222,41.58699],[-120.1722,41.59074],[-120.17221,41.59091],[-120.17224,41.5911]]}},{"type":"Feature","properties":{"name":"County Road 17","road_class":"unclassified","surface":"gravel","motor_vehicle":"yes","access":"yes","source":"Caltrans All Roads + OpenStreetMap explicit surface","source_detail":"osm way 155878685; Caltrans All Roads public-network geometry match","source_tile":"170/381","public_network_source":"Caltrans All Roads (ARNOLD/HPMS)","surface_source":"OpenStreetMap explicit surface tag","caltrans_match_coverage":1.0,"verified_length_m":2757},"geometry":{"type":"LineString","coordinates":[[-120.20161,41.60149],[-120.2014,41.60123],[-120.20132,41.6011],[-120.20122,41.60092],[-120.20103,41.60063],[-120.2006,41.59993],[-120.20008,41.59911],[-120.20003,41.59899],[-120.2,41.59888],[-120.19998,41.59876],[-120.19997,41.59846],[-120.19997,41.59761],[-120.20002,41.59732],[-120.20003,41.5973],[-120.20005,41.59721],[-120.20005,41.59713],[-120.2,41.59701],[-120.19994,41.59695],[-120.19987,41.59691],[-120.19978,41.59685],[-120.19865,41.59622],[-120.19812,41.59591],[-120.19756,41.59561],[-120.19649,41.595],[-120.19589,41.59468],[-120.19467,41.59414],[-120.19393,41.59384],[-120.1932,41.59351],[-120.19307,41.59344],[-120.19295,41.59336],[-120.19284,41.59327],[-120.19275,41.59318],[-120.19224,41.59252],[-120.192,41.59217],[-120.19176,41.59182],[-120.1915,41.59148],[-120.19143,41.59141],[-120.1913,41.59134],[-120.1912,41.59131],[-120.19109,41.5913],[-120.19009,41.5913],[-120.18581,41.59125],[-120.18407,41.59122],[-120.18323,41.59122],[-120.18229,41.59123],[-120.18173,41.59123],[-120.18166,41.59123],[-120.17934,41.59119],[-120.17864,41.59118],[-120.17829,41.59117],[-120.17627,41.5912]]}},{"type":"Feature","properties":{"name":"County Road 15","road_class":"unclassified","surface":"gravel","source":"Caltrans All Roads + OpenStreetMap explicit surface","source_detail":"osm way 453603783; Caltrans All Roads public-network geometry match","source_tile":"170/381","public_network_source":"Caltrans All Roads (ARNOLD/HPMS)","surface_source":"OpenStreetMap explicit surface tag","caltrans_match_coverage":1.0,"verified_length_m":1823},"geometry":{"type":"LineString","coordinates":[[-120.11648,41.6294],[-120.11618,41.6293],[-120.11599,41.62927],[-120.11577,41.62926],[-120.11554,41.62928],[-120.11526,41.62934],[-120.11498,41.62944],[-120.11475,41.62952],[-120.11461,41.6296],[-120.11449,41.62968],[-120.11432,41.62983],[-120.11414,41.63002],[-120.11369,41.6305],[-120.11338,41.63092],[-120.11306,41.63141],[-120.11296,41.63151],[-120.11268,41.63176],[-120.11257,41.63184],[-120.11232,41.63201],[-120.11199,41.6322],[-120.11174,41.63233],[-120.11099,41.63251],[-120.10722,41.63338],[-120.1063,41.6336],[-120.1016,41.63469],[-120.09976,41.63514],[-120.09882,41.63536],[-120.09756,41.63564],[-120.09721,41.63573]]}}]}