{"type":"FeatureCollection","features":[{"type":"Feature","properties":{"name":"Granger Canyon Road","road_class":"track","surface":"ground","source":"Caltrans All Roads + OpenStreetMap explicit surface","source_detail":"osm way 887596061; Caltrans All Roads public-network geometry match","source_tile":"170/382","public_network_source":"Caltrans All Roads (ARNOLD/HPMS)","surface_source":"OpenStreetMap explicit surface tag","caltrans_match_coverage":0.905,"verified_length_m":6417},"geometry":{"type":"LineString","coordinates":[[-120.19987,41.46966],[-120.20018,41.4694],[-120.20047,41.46911],[-120.20062,41.469],[-120.20077,41.46894],[-120.20108,41.46888],[-120.20141,41.46876],[-120.20207,41.46843],[-120.20235,41.46834],[-120.20259,41.46832],[-120.20327,41.46838],[-120.20386,41.46831],[-120.20424,41.4682],[-120.20455,41.46817],[-120.20482,41.46812],[-120.20505,41.46813],[-120.20525,41.46812],[-120.20557,41.46805],[-120.20623,41.46779],[-120.20642,41.46767],[-120.20677,41.46737],[-120.20741,41.4669],[-120.20748,41.46675],[-120.20763,41.46657],[-120.20786,41.46646],[-120.20802,41.46643],[-120.20818,41.4664],[-120.20827,41.46644],[-120.20834,41.46649],[-120.20844,41.46657],[-120.20879,41.46677],[-120.20905,41.46692],[-120.20923,41.46698],[-120.20936,41.46703],[-120.20949,41.46714],[-120.20969,41.46733],[-120.20983,41.46745],[-120.20996,41.46755],[-120.21015,41.46767],[-120.21032,41.46771],[-120.21057,41.46778],[-120.21084,41.46782],[-120.21099,41.46779],[-120.21122,41.46771],[-120.21133,41.46769],[-120.21145,41.46769],[-120.21154,41.46772],[-120.21172,41.4678],[-120.21206,41.46801],[-120.21231,41.46819],[-120.21289,41.46853],[-120.21308,41.46864],[-120.21319,41.4687],[-120.21334,41.46875],[-120.21348,41.46876],[-120.21403,41.46866],[-120.21421,41.46869],[-120.21437,41.46875],[-120.21501,41.46911],[-120.21523,41.4692],[-120.21538,41.46922],[-120.21554,41.4692],[-120.216,41.4691],[-120.21609,41.46911],[-120.21628,41.46918],[-120.21642,41.46931],[-120.21654,41.46938],[-120.21665,41.46941],[-120.21675,41.46942],[-120.21686,41.46941],[-120.21697,41.46936],[-120.21718,41.46927],[-120.21741,41.46919],[-120.21768,41.46915],[-120.21785,41.46916],[-120.21797,41.4692],[-120.21807,41.46927],[-120.21817,41.46938],[-120.21831,41.46948],[-120.21855,41.46955],[-120.21883,41.4697],[-120.21902,41.46979],[-120.21927,41.46984],[-120.21946,41.46986],[-120.21981,41.46987],[-120.22,41.46987],[-120.22019,41.46985],[-120.22032,41.46983],[-120.22047,41.46979],[-120.22062,41.4697],[-120.22086,41.46959],[-120.22102,41.46961],[-120.22123,41.46969],[-120.22154,41.46986],[-120.22183,41.46998],[-120.22201,41.47003],[-120.22225,41.47014],[-120.22231,41.47015],[-120.22249,41.47015],[-120.22271,41.47011],[-120.22286,41.47006],[-120.22311,41.46996],[-120.22324,41.46988],[-120.22331,41.46978],[-120.22336,41.46965],[-120.22339,41.4695],[-120.22347,41.46938],[-120.22374,41.46915],[-120.2239,41.46897],[-120.22399,41.46888],[-120.22407,41.46883],[-120.2242,41.46879],[-120.22435,41.46876],[-120.2251,41.46862],[-120.22532,41.46859],[-120.22554,41.46853],[-120.22561,41.46847],[-120.22566,41.46837],[-120.22571,41.46823],[-120.22589,41.46804],[-120.22604,41.46792],[-120.22617,41.46789],[-120.22627,41.46789],[-120.22644,41.46788],[-120.22658,41.46786],[-120.22669,41.46781],[-120.22678,41.46773],[-120.22707,41.46734],[-120.22737,41.46713],[-120.22774,41.4667],[-120.22803,41.46646],[-120.22829,41.46624],[-120.22885,41.46583],[-120.22923,41.46563],[-120.22949,41.46542],[-120.22978,41.46517],[-120.22995,41.46498],[-120.23007,41.46474],[-120.2302,41.46443],[-120.23044,41.4642],[-120.23102,41.46404],[-120.2313,41.46401],[-120.2314,41.46402],[-120.23152,41.46406],[-120.23192,41.46418],[-120.23203,41.46418],[-120.23211,41.46416],[-120.23221,41.46412],[-120.23227,41.46405],[-120.23233,41.46398],[-120.23238,41.46383],[-120.23242,41.46341],[-120.23249,41.4632],[-120.23264,41.46292],[-120.23284,41.46279],[-120.23303,41.46272],[-120.23333,41.46263],[-120.23346,41.46254],[-120.23356,41.46245],[-120.23382,41.46206],[-120.23387,41.46199],[-120.2339,41.46191],[-120.23393,41.46178],[-120.23394,41.46162],[-120.23394,41.46154],[-120.23392,41.46145],[-120.23382,41.46124],[-120.2337,41.46101],[-120.23356,41.46081],[-120.23332,41.46056],[-120.23315,41.46044],[-120.23272,41.46011],[-120.23249,41.45992],[-120.23222,41.45961],[-120.23213,41.4595],[-120.23207,41.45936],[-120.23201,41.45913],[-120.23197,41.45899],[-120.23171,41.45844],[-120.23149,41.45784],[-120.23142,41.45775],[-120.23134,41.4577],[-120.23123,41.45765],[-120.23073,41.45757],[-120.2306,41.45753],[-120.23054,41.45739],[-120.23051,41.45723],[-120.23048,41.45694],[-120.23049,41.45683],[-120.23057,41.45676],[-120.23067,41.45674],[-120.23088,41.45672],[-120.2313,41.45668],[-120.23146,41.45664],[-120.23161,41.45658],[-120.23181,41.45649],[-120.23195,41.45638],[-120.2321,41.45613],[-120.23246,41.45518],[-120.23256,41.45489],[-120.23262,41.45479],[-120.23272,41.45471],[-120.23287,41.45462],[-120.23326,41.45445],[-120.23349,41.45433],[-120.23383,41.45415],[-120.23413,41.45403],[-120.23457,41.45384],[-120.23554,41.4534],[-120.23572,41.45331],[-120.23581,41.45324],[-120.23587,41.45317],[-120.23596,41.45305],[-120.23604,41.45292],[-120.23616,41.45263],[-120.23622,41.45241],[-120.23623,41.45226],[-120.23622,41.45205],[-120.23618,41.4518],[-120.23609,41.45156],[-120.236,41.45136],[-120.23596,41.45119],[-120.23596,41.45113],[-120.23599,41.45106],[-120.23604,41.45102],[-120.23609,41.45099],[-120.23615,41.45096],[-120.23637,41.45094],[-120.23655,41.45097],[-120.23715,41.45108],[-120.23752,41.45118],[-120.2377,41.45123],[-120.23782,41.4513],[-120.23791,41.45139],[-120.2384,41.4522],[-120.23871,41.45279],[-120.23897,41.45331],[-120.23908,41.45354],[-120.2391,41.4537],[-120.23912,41.45382],[-120.23896,41.4545],[-120.23878,41.45525],[-120.23859,41.45605],[-120.23853,41.45642],[-120.23852,41.4566],[-120.23853,41.45669],[-120.23857,41.45681],[-120.23865,41.45693],[-120.23876,41.45703],[-120.23916,41.45736],[-120.23971,41.4577],[-120.23988,41.45781],[-120.23998,41.4579],[-120.24007,41.45799],[-120.24023,41.45815],[-120.2403,41.45829],[-120.24048,41.45886],[-120.24056,41.45898],[-120.24065,41.4591],[-120.24076,41.45921],[-120.24089,41.45933],[-120.24115,41.4595],[-120.24126,41.45956],[-120.24143,41.45964]]}},{"type":"Feature","properties":{"name":"Granger Canyon Road","road_class":"track","surface":"ground","source":"Caltrans All Roads + OpenStreetMap explicit surface","source_detail":"osm way 7927590; Caltrans All Roads public-network geometry match","source_tile":"170/382","public_network_source":"Caltrans All Roads (ARNOLD/HPMS)","surface_source":"OpenStreetMap explicit surface tag","caltrans_match_coverage":1.0,"verified_length_m":2084},"geometry":{"type":"LineString","coordinates":[[-120.18177,41.47871],[-120.18183,41.47862],[-120.18206,41.47795],[-120.182,41.47722],[-120.18219,41.47688],[-120.18229,41.47681],[-120.18243,41.4766],[-120.18248,41.4765],[-120.18254,41.47617],[-120.18266,41.47573],[-120.18279,41.4756],[-120.18292,41.47548],[-120.18368,41.47501],[-120.18389,41.47497],[-120.18405,41.47497],[-120.1846,41.47473],[-120.18495,41.47465],[-120.18503,41.4746],[-120.18513,41.47447],[-120.18521,41.47426],[-120.18526,41.47418],[-120.18541,41.47404],[-120.18566,41.4739],[-120.18597,41.4738],[-120.18607,41.47375],[-120.18616,41.47368],[-120.18633,41.4735],[-120.18652,41.47337],[-120.18672,41.47329],[-120.18704,41.47324],[-120.18736,41.47317],[-120.18755,41.47307],[-120.1878,41.47288],[-120.18796,41.47283],[-120.18831,41.47284],[-120.18874,41.47296],[-120.18914,41.47293],[-120.18933,41.47297],[-120.18958,41.47293],[-120.18977,41.47286],[-120.1903,41.47253],[-120.19063,41.47246],[-120.19096,41.47245],[-120.19117,41.47232],[-120.19127,41.47205],[-120.19141,41.47178],[-120.19158,41.47174],[-120.19186,41.47172],[-120.19205,41.47166],[-120.19219,41.4715],[-120.1924,41.47138],[-120.19266,41.47136],[-120.19294,41.47146],[-120.19341,41.47159],[-120.19364,41.47159],[-120.19385,41.47155],[-120.19402,41.47147],[-120.19438,41.47124],[-120.19463,41.47116],[-120.19475,41.47115],[-120.19488,41.47115],[-120.19512,41.47124],[-120.19595,41.47129],[-120.19646,41.47135],[-120.19693,41.47137],[-120.19709,41.47135],[-120.19725,41.4713],[-120.19764,41.47111],[-120.19813,41.47094],[-120.19831,41.47083],[-120.19889,41.4703],[-120.19937,41.46996],[-120.19987,41.46966]]}},{"type":"Feature","properties":{"name":"County Road 38","road_class":"unclassified","surface":"unpaved","source":"Caltrans All Roads + OpenStreetMap explicit surface","source_detail":"osm way 7928229; Caltrans All Roads public-network geometry match","source_tile":"170/382","public_network_source":"Caltrans All Roads (ARNOLD/HPMS)","surface_source":"OpenStreetMap explicit surface tag","caltrans_match_coverage":1.0,"verified_length_m":5909},"geometry":{"type":"LineString","coordinates":[[-120.06712,41.31488],[-120.06662,41.31492],[-120.06641,41.31496],[-120.06552,41.3152],[-120.06468,41.31537],[-120.06432,41.3154],[-120.06351,41.31542],[-120.06114,41.31544],[-120.06006,41.31548],[-120.05924,41.3155],[-120.05752,41.31553],[-120.05647,41.31558],[-120.05422,41.31576],[-120.05217,41.31592],[-120.05174,41.31595],[-120.0513,41.31597],[-120.05069,41.31596],[-120.05031,41.31593],[-120.04905,41.3158],[-120.04483,41.31537],[-120.04343,41.31528],[-120.04275,41.31525],[-120.0424,41.31523],[-120.04132,41.31518],[-120.04111,41.31516],[-120.03974,41.3151],[-120.03772,41.3151],[-120.03596,41.3151],[-120.03574,41.31512],[-120.0351,41.31523],[-120.03396,41.31546],[-120.03312,41.31564],[-120.03274,41.31571],[-120.03179,41.31592],[-120.03145,41.31598],[-120.03105,41.31605],[-120.03074,41.31614],[-120.0293,41.31659],[-120.0285,41.31681],[-120.02783,41.31697],[-120.02682,41.31717],[-120.02648,41.31725],[-120.02605,41.31737],[-120.02565,41.3175],[-120.025,41.31769],[-120.0243,41.31786],[-120.02357,41.31807],[-120.02277,41.31843],[-120.02245,41.31854],[-120.02184,41.31881],[-120.02055,41.31947],[-120.02043,41.31952],[-120.02032,41.31956],[-120.0202,41.31958],[-120.02007,41.31961],[-120.01995,41.31961],[-120.01983,41.31961],[-120.01867,41.31952],[-120.01818,41.31952],[-120.01774,41.31954],[-120.01754,41.31954],[-120.01623,41.31941],[-120.01569,41.31937],[-120.01485,41.31929],[-120.01428,41.3192],[-120.01411,41.31917],[-120.01391,41.31911],[-120.01207,41.31867],[-120.01155,41.31864],[-120.01112,41.31863],[-120.01026,41.31866],[-120.00994,41.31865],[-120.00964,41.31867],[-120.00901,41.31878],[-120.00762,41.31893],[-120.00731,41.31896],[-120.00647,41.31909],[-120.00594,41.31919],[-120.00528,41.31937],[-120.00509,41.31943],[-120.00446,41.3197],[-120.00351,41.32011],[-120.00275,41.32046],[-120.00206,41.32082],[-120.00126,41.32125],[-120.00109,41.32135],[-120.00091,41.32151],[-120.00074,41.32172],[-120.00059,41.32196],[-120.00039,41.32222],[-120.0003,41.3223],[-120.00021,41.32237],[-120.0001,41.32243],[-119.99997,41.32248],[-119.99965,41.32255]]}},{"type":"Feature","properties":{"name":"Tom Lee Meadows Road","road_class":"track","surface":"ground","tracktype":"grade4","source":"Caltrans All Roads + OpenStreetMap explicit surface","source_detail":"osm way 1493809356; Caltrans All Roads public-network geometry match","source_tile":"170/382","public_network_source":"Caltrans All Roads (ARNOLD/HPMS)","surface_source":"OpenStreetMap explicit surface tag","caltrans_match_coverage":1.0,"verified_length_m":542},"geometry":{"type":"LineString","coordinates":[[-120.2268,41.45412],[-120.22718,41.45428],[-120.22746,41.45456],[-120.2279,41.4547],[-120.22804,41.45484],[-120.22814,41.455],[-120.22819,41.45524],[-120.22833,41.45558],[-120.22842,41.45587],[-120.22853,41.45641],[-120.2286,41.45663],[-120.22862,41.45672],[-120.22872,41.45685],[-120.22909,41.45698],[-120.22939,41.45705],[-120.22982,41.45713],[-120.2299,41.45716],[-120.23003,41.4572],[-120.23026,41.45729],[-120.2304,41.45739],[-120.23051,41.45748],[-120.2306,41.45753]]}},{"type":"Feature","properties":{"name":"Granger Spur Road C","road_class":"track","surface":"ground","source":"Caltrans All Roads + OpenStreetMap explicit surface","source_detail":"osm way 1493809357; Caltrans All Roads public-network geometry match","source_tile":"170/382","public_network_source":"Caltrans All Roads (ARNOLD/HPMS)","surface_source":"OpenStreetMap explicit surface tag","caltrans_match_coverage":1.0,"verified_length_m":565},"geometry":{"type":"LineString","coordinates":[[-120.23264,41.46292],[-120.23237,41.46289],[-120.2322,41.46289],[-120.23205,41.46292],[-120.23187,41.46297],[-120.23158,41.46307],[-120.23141,41.46314],[-120.23127,41.46319],[-120.23116,41.46324],[-120.231,41.46328],[-120.23083,41.46326],[-120.23062,41.46326],[-120.22983,41.46318],[-120.22974,41.46319],[-120.22963,41.46323],[-120.22959,41.4633],[-120.22953,41.46345],[-120.22946,41.46358],[-120.22939,41.46365],[-120.22928,41.46371],[-120.22905,41.4638],[-120.22894,41.46389],[-120.22871,41.46416],[-120.22822,41.4645],[-120.22792,41.46467],[-120.22772,41.46476],[-120.22754,41.46483],[-120.22733,41.46485],[-120.22718,41.46487],[-120.22699,41.46488]]}}]}