{"type":"FeatureCollection","features":[{"type":"Feature","properties":{"name":"Dixie Valley Road","road_class":"unclassified","surface":"gravel","source":"Caltrans All Roads + OpenStreetMap explicit surface","source_detail":"osm way 453533618; Caltrans All Roads public-network geometry match","source_tile":"170/388","public_network_source":"Caltrans All Roads (ARNOLD/HPMS)","surface_source":"OpenStreetMap explicit surface tag","caltrans_match_coverage":0.966,"verified_length_m":15821},"geometry":{"type":"LineString","coordinates":[[-120.21275,39.90839],[-120.21349,39.90801],[-120.21708,39.90652],[-120.21794,39.90629],[-120.22014,39.90631],[-120.22269,39.90576],[-120.22441,39.90563],[-120.22513,39.90588],[-120.22605,39.90638],[-120.22661,39.90647],[-120.22695,39.90642],[-120.22842,39.90617],[-120.23035,39.9061],[-120.23279,39.90571],[-120.23439,39.90574],[-120.23641,39.90587],[-120.2378,39.9061],[-120.24125,39.9074],[-120.24173,39.90768],[-120.24428,39.90818],[-120.24642,39.90802],[-120.24728,39.9082],[-120.24942,39.90786],[-120.25054,39.90756],[-120.25062,39.90747],[-120.25104,39.90701],[-120.25148,39.90673],[-120.25177,39.90655],[-120.25377,39.90621],[-120.25481,39.90593],[-120.25596,39.90532],[-120.25638,39.90481],[-120.25688,39.90445],[-120.25908,39.90388],[-120.25962,39.90399],[-120.2603,39.90461],[-120.26055,39.90462],[-120.26413,39.9039],[-120.26624,39.90271],[-120.26877,39.90109],[-120.27016,39.90087],[-120.27022,39.90086],[-120.27117,39.90027],[-120.2728,39.90023],[-120.27301,39.90022],[-120.27384,39.90009],[-120.27554,39.89954],[-120.2764,39.89949],[-120.27898,39.89991],[-120.28248,39.90089],[-120.28304,39.90106],[-120.28406,39.90137],[-120.28629,39.90176],[-120.29124,39.90215],[-120.29187,39.90229],[-120.29193,39.90242],[-120.29314,39.90306],[-120.29599,39.90494],[-120.29671,39.90524],[-120.29813,39.9056],[-120.29843,39.90565],[-120.30086,39.90638],[-120.30155,39.90686],[-120.30318,39.90839],[-120.30416,39.90915],[-120.30475,39.91007],[-120.30597,39.91107],[-120.30778,39.91237],[-120.30823,39.91288],[-120.30858,39.9137],[-120.30867,39.91448],[-120.30879,39.91484],[-120.31019,39.9161],[-120.31048,39.91661],[-120.31078,39.91743],[-120.31105,39.91786],[-120.31185,39.91863],[-120.31239,39.91914],[-120.31335,39.92034],[-120.31405,39.9212],[-120.31551,39.92264],[-120.31568,39.92271],[-120.31585,39.92285],[-120.3166,39.92351],[-120.31723,39.92392],[-120.31898,39.92473],[-120.31984,39.92498],[-120.32088,39.92509],[-120.32323,39.92623],[-120.32489,39.92749],[-120.32575,39.92863],[-120.32605,39.92925],[-120.32596,39.93008],[-120.32495,39.93143],[-120.32436,39.93236],[-120.32439,39.93269],[-120.32442,39.93298],[-120.32483,39.93346],[-120.32543,39.93383],[-120.32887,39.93527],[-120.32962,39.9357],[-120.33017,39.93578],[-120.33134,39.93593],[-120.33191,39.93657],[-120.3325,39.93742],[-120.33428,39.93961],[-120.33517,39.94034],[-120.33541,39.94041],[-120.33684,39.9413],[-120.33705,39.94133],[-120.33806,39.94206],[-120.33936,39.94343],[-120.33954,39.94375],[-120.33972,39.94444],[-120.33975,39.94499],[-120.34002,39.94595],[-120.34008,39.94599],[-120.3407,39.94778],[-120.34081,39.94837],[-120.34133,39.95139],[-120.34145,39.95176],[-120.34148,39.9529],[-120.34171,39.95384],[-120.34166,39.95686],[-120.34169,39.96035],[-120.34178,39.96054],[-120.34181,39.96093]]}},{"type":"Feature","properties":{"name":"Frenchman Boulevard","road_class":"unclassified","surface":"fine_gravel","source":"Caltrans All Roads + OpenStreetMap explicit surface","source_detail":"osm way 453533625; Caltrans All Roads public-network geometry match","source_tile":"170/388","public_network_source":"Caltrans All Roads (ARNOLD/HPMS)","surface_source":"OpenStreetMap explicit surface tag","caltrans_match_coverage":1.0,"verified_length_m":15173},"geometry":{"type":"LineString","coordinates":[[-120.21275,39.90839],[-120.21486,39.90977],[-120.21544,39.91017],[-120.21572,39.91045],[-120.21588,39.91069],[-120.21603,39.91098],[-120.21614,39.91128],[-120.21634,39.91194],[-120.21683,39.91345],[-120.21719,39.91459],[-120.2179,39.9168],[-120.21805,39.9172],[-120.2182,39.91751],[-120.21844,39.91791],[-120.21925,39.91926],[-120.21948,39.91963],[-120.21959,39.91985],[-120.21964,39.92003],[-120.21963,39.92017],[-120.21962,39.92042],[-120.21954,39.92092],[-120.21949,39.92124],[-120.2195,39.92143],[-120.21953,39.9216],[-120.21961,39.92183],[-120.2197,39.92207],[-120.22006,39.92292],[-120.22014,39.92316],[-120.22017,39.92342],[-120.22015,39.92362],[-120.22011,39.92386],[-120.22,39.9241],[-120.21979,39.92438],[-120.21764,39.92719],[-120.21746,39.92746],[-120.21733,39.92766],[-120.21726,39.92788],[-120.21721,39.92812],[-120.21699,39.92989],[-120.21689,39.9308],[-120.21682,39.93113],[-120.21673,39.9314],[-120.21662,39.93171],[-120.21646,39.93211],[-120.21637,39.93248],[-120.21626,39.93293],[-120.21618,39.93337],[-120.21607,39.93432],[-120.21596,39.93547],[-120.21593,39.93572],[-120.21585,39.93594],[-120.21576,39.93615],[-120.21565,39.93634],[-120.21551,39.93651],[-120.21533,39.93667],[-120.21517,39.93685],[-120.21504,39.93701],[-120.2149,39.93716],[-120.21475,39.9373],[-120.21449,39.9375],[-120.21419,39.9377],[-120.21385,39.93788],[-120.21362,39.93803],[-120.2135,39.93815],[-120.2134,39.93831],[-120.21335,39.93848],[-120.21335,39.93863],[-120.21338,39.93876],[-120.21345,39.93896],[-120.21352,39.93912],[-120.21382,39.93983],[-120.21387,39.93998],[-120.21389,39.94013],[-120.21389,39.9403],[-120.21389,39.94043],[-120.2139,39.94054],[-120.21394,39.94068],[-120.21401,39.94085],[-120.21408,39.94102],[-120.21412,39.94125],[-120.21414,39.9415],[-120.21414,39.94177],[-120.21412,39.94192],[-120.21409,39.94207],[-120.21403,39.9422],[-120.21394,39.94235],[-120.21303,39.94371],[-120.21233,39.94483],[-120.2122,39.94503],[-120.21206,39.94525],[-120.21199,39.94541],[-120.21191,39.94564],[-120.21184,39.94585],[-120.21175,39.94608],[-120.21127,39.94723],[-120.21106,39.94776],[-120.21099,39.94797],[-120.21092,39.94823],[-120.21072,39.94921],[-120.21065,39.94951],[-120.21059,39.9498],[-120.21054,39.95007],[-120.21054,39.95031],[-120.21056,39.95057],[-120.21058,39.95081],[-120.21064,39.95104],[-120.2107,39.95126],[-120.2108,39.95151],[-120.21089,39.95176],[-120.21121,39.9525],[-120.21137,39.95291],[-120.21143,39.95315],[-120.21148,39.95333],[-120.21154,39.9535],[-120.21165,39.95371],[-120.21175,39.95388],[-120.21221,39.95442],[-120.21251,39.95476],[-120.21275,39.95503],[-120.21295,39.95533],[-120.21321,39.9559],[-120.21341,39.95626],[-120.21356,39.95665],[-120.21367,39.95693],[-120.21377,39.9573],[-120.21416,39.95911],[-120.21432,39.9598],[-120.21434,39.95998],[-120.21434,39.96027],[-120.21431,39.96049],[-120.21421,39.96081],[-120.21403,39.96114],[-120.21377,39.96156],[-120.21143,39.96515],[-120.21132,39.96542],[-120.21127,39.96567],[-120.21128,39.96595],[-120.21125,39.96614],[-120.2112,39.96625],[-120.21108,39.96637],[-120.21084,39.96648],[-120.21066,39.96659],[-120.21058,39.96669],[-120.2105,39.96685],[-120.21045,39.96763],[-120.21046,39.96768],[-120.21046,39.96771],[-120.21047,39.96776],[-120.21054,39.96792],[-120.21076,39.96829],[-120.21091,39.9685],[-120.21107,39.96863],[-120.21124,39.96887],[-120.21136,39.96906],[-120.2115,39.96952],[-120.21153,39.96969],[-120.21149,39.96982],[-120.21151,39.96994],[-120.21158,39.96998],[-120.21172,39.97001],[-120.21186,39.97005],[-120.21194,39.97017],[-120.21198,39.97028],[-120.21214,39.97043],[-120.21231,39.97055],[-120.21235,39.97069],[-120.2123,39.97086],[-120.21219,39.97098],[-120.21202,39.97111],[-120.21104,39.97168],[-120.21087,39.97184],[-120.21077,39.97198],[-120.21074,39.9721],[-120.21078,39.97227],[-120.21093,39.97254],[-120.21105,39.97276],[-120.21131,39.97305],[-120.21184,39.97369],[-120.21205,39.97403],[-120.21223,39.97432],[-120.21228,39.97453],[-120.2123,39.9747],[-120.21242,39.97508],[-120.2125,39.97527],[-120.21255,39.97549],[-120.21257,39.97581],[-120.21265,39.97614],[-120.21277,39.97654],[-120.21284,39.97675],[-120.21293,39.97702],[-120.21309,39.97725],[-120.2133,39.9775],[-120.21356,39.97778],[-120.21371,39.97802],[-120.21396,39.97852],[-120.21424,39.97915],[-120.21437,39.97949],[-120.21453,39.97978],[-120.2147,39.98003],[-120.21485,39.98024],[-120.21495,39.98044],[-120.21509,39.98087],[-120.2152,39.98123],[-120.21529,39.98147],[-120.21544,39.98164],[-120.21575,39.98185],[-120.21588,39.98202],[-120.21595,39.9822],[-120.21597,39.98225],[-120.216,39.98255],[-120.21609,39.98278],[-120.21619,39.98297],[-120.2164,39.98333],[-120.21682,39.98421],[-120.2169,39.98437],[-120.21711,39.98481],[-120.21722,39.98497],[-120.21746,39.98508],[-120.21778,39.98516],[-120.21824,39.98525],[-120.21852,39.98536],[-120.21871,39.98552],[-120.21894,39.98579],[-120.21922,39.98606],[-120.21947,39.98627],[-120.21975,39.98655],[-120.22006,39.98704],[-120.2202,39.98733],[-120.22027,39.98755],[-120.22038,39.98781],[-120.22069,39.98832],[-120.221,39.98887],[-120.22117,39.98919],[-120.22139,39.98951],[-120.22165,39.98987],[-120.22173,39.98996],[-120.222,39.99011],[-120.22218,39.99018],[-120.22229,39.99029],[-120.22242,39.99047],[-120.2227,39.99075],[-120.22284,39.99091],[-120.22292,39.99103],[-120.22296,39.9912],[-120.2229,39.99132],[-120.22277,39.99145],[-120.22266,39.99156],[-120.22264,39.99175],[-120.22263,39.99188],[-120.22271,39.99218],[-120.22294,39.99322],[-120.22298,39.9934],[-120.22299,39.99357],[-120.22288,39.99371],[-120.22257,39.99397],[-120.22224,39.99433],[-120.2222,39.99448],[-120.22225,39.9947],[-120.22228,39.99488],[-120.22224,39.99509],[-120.22193,39.99603],[-120.22174,39.9967],[-120.22161,39.9972],[-120.22143,39.99784],[-120.22123,39.99838],[-120.2209,39.99915],[-120.2204,40.00024],[-120.22033,40.00047],[-120.22036,40.00073],[-120.22046,40.00094],[-120.22066,40.0012],[-120.22111,40.00165],[-120.22137,40.00192],[-120.22148,40.00212],[-120.22173,40.00265],[-120.22184,40.00294],[-120.22219,40.00342],[-120.22288,40.00434],[-120.22426,40.00617],[-120.22477,40.00689],[-120.22516,40.00731],[-120.22603,40.00808],[-120.22659,40.00858],[-120.22682,40.00891],[-120.22691,40.00915],[-120.22691,40.00967],[-120.22692,40.01015],[-120.22695,40.01037],[-120.22715,40.01065],[-120.22818,40.01206],[-120.22842,40.01241],[-120.22851,40.01266],[-120.22855,40.01298],[-120.22868,40.01367],[-120.22879,40.01405],[-120.22902,40.01453],[-120.22945,40.01556],[-120.22973,40.01637],[-120.22986,40.01689],[-120.22994,40.0173],[-120.22994,40.01757],[-120.22988,40.01785],[-120.22977,40.01808],[-120.22961,40.0183],[-120.22943,40.01845],[-120.22915,40.01864],[-120.22883,40.01879],[-120.22845,40.01896],[-120.22799,40.01921],[-120.22757,40.01944],[-120.22714,40.01958],[-120.22671,40.01969],[-120.22607,40.01983],[-120.22577,40.01989],[-120.22553,40.01995],[-120.22534,40.02008],[-120.22522,40.0202],[-120.22518,40.02036],[-120.22517,40.02057],[-120.22512,40.02074],[-120.22512,40.02095],[-120.22517,40.0212],[-120.22528,40.02151],[-120.22544,40.02197],[-120.22568,40.02274],[-120.22582,40.02317],[-120.22593,40.02351],[-120.226,40.0238],[-120.22604,40.024],[-120.2261,40.02417],[-120.22623,40.02436],[-120.22637,40.0246],[-120.22645,40.0248],[-120.22654,40.0251],[-120.22659,40.02549],[-120.22659,40.02572],[-120.22654,40.02596],[-120.22641,40.02631],[-120.22621,40.02697],[-120.22616,40.02721],[-120.22612,40.02757],[-120.22607,40.02802],[-120.22598,40.02839],[-120.22589,40.02867],[-120.22585,40.02885],[-120.22582,40.02911],[-120.22583,40.02928],[-120.22591,40.02952],[-120.22603,40.02982],[-120.22624,40.03019],[-120.22639,40.03037],[-120.2266,40.03069],[-120.22679,40.03093],[-120.22691,40.03104],[-120.22712,40.03127],[-120.22725,40.03139],[-120.22729,40.03147],[-120.22728,40.0316],[-120.22724,40.03169],[-120.22718,40.03176]]}},{"type":"Feature","properties":{"name":"Frenchman East Shore Road","road_class":"unclassified","surface":"fine_gravel","source":"Caltrans All Roads + OpenStreetMap explicit surface","source_detail":"osm way 934854431; Caltrans All Roads public-network geometry match","source_tile":"170/388","public_network_source":"Caltrans All Roads (ARNOLD/HPMS)","surface_source":"OpenStreetMap explicit surface tag","caltrans_match_coverage":1.0,"verified_length_m":6942},"geometry":{"type":"LineString","coordinates":[[-120.17407,39.90474],[-120.17427,39.90501],[-120.17443,39.90521],[-120.17469,39.90571],[-120.17507,39.9065],[-120.17525,39.90689],[-120.17531,39.90708],[-120.17533,39.90734],[-120.17533,39.90756],[-120.17538,39.90781],[-120.17581,39.90848],[-120.17597,39.9087],[-120.17611,39.90883],[-120.17629,39.90893],[-120.17677,39.90902],[-120.17708,39.90908],[-120.17735,39.90918],[-120.17749,39.90932],[-120.17757,39.90949],[-120.17759,39.90967],[-120.17759,39.90983],[-120.17749,39.91037],[-120.17749,39.91056],[-120.17751,39.91074],[-120.17759,39.9109],[-120.17781,39.91121],[-120.17786,39.91134],[-120.17784,39.9115],[-120.1778,39.91166],[-120.17774,39.91183],[-120.17775,39.91198],[-120.17783,39.91216],[-120.17895,39.91367],[-120.17941,39.91426],[-120.17953,39.91436],[-120.17967,39.91441],[-120.17993,39.91446],[-120.18039,39.9145],[-120.18065,39.91455],[-120.1808,39.91466],[-120.18091,39.91478],[-120.18099,39.91497],[-120.18098,39.91515],[-120.1809,39.91534],[-120.1808,39.91555],[-120.18074,39.91571],[-120.18073,39.91589],[-120.18081,39.91607],[-120.18096,39.91629],[-120.18269,39.91863],[-120.18292,39.91893],[-120.18318,39.91917],[-120.1835,39.91937],[-120.18383,39.91951],[-120.18424,39.91963],[-120.18463,39.91966],[-120.18566,39.91959],[-120.18608,39.91958],[-120.18629,39.91958],[-120.18662,39.91965],[-120.18695,39.91976],[-120.18728,39.91989],[-120.18751,39.92006],[-120.18776,39.92027],[-120.189,39.92151],[-120.19042,39.9229],[-120.19092,39.92343],[-120.19191,39.92465],[-120.19362,39.92675],[-120.19527,39.92874],[-120.19549,39.92904],[-120.19567,39.92932],[-120.1958,39.92961],[-120.19592,39.9299],[-120.19606,39.9303],[-120.1962,39.93065],[-120.19635,39.93094],[-120.19658,39.93125],[-120.19684,39.93155],[-120.19714,39.93184],[-120.19748,39.9321],[-120.19791,39.93237],[-120.19966,39.93337],[-120.20011,39.93362],[-120.20045,39.93385],[-120.20076,39.93411],[-120.2011,39.93446],[-120.20136,39.93476],[-120.20155,39.93507],[-120.20172,39.93538],[-120.20188,39.93575],[-120.20203,39.93607],[-120.20225,39.93642],[-120.20243,39.93669],[-120.20277,39.93705],[-120.20312,39.93742],[-120.20478,39.93914],[-120.20511,39.93948],[-120.20537,39.9398],[-120.20559,39.94012],[-120.20573,39.94036],[-120.20586,39.94064],[-120.20603,39.94106],[-120.2062,39.94146],[-120.20627,39.94178],[-120.20631,39.94208],[-120.20632,39.94242],[-120.20632,39.94275],[-120.20625,39.9433],[-120.20616,39.94385],[-120.2061,39.94428],[-120.20599,39.94504],[-120.20587,39.94604],[-120.20579,39.94651],[-120.20576,39.94683],[-120.20578,39.94718],[-120.20588,39.94773],[-120.2068,39.95281],[-120.20686,39.95304],[-120.20695,39.95324],[-120.20707,39.95342],[-120.20726,39.95361],[-120.20746,39.95373],[-120.20767,39.95382],[-120.20794,39.95389],[-120.20826,39.95391],[-120.20853,39.95389],[-120.21154,39.9535]]}},{"type":"Feature","properties":{"name":"Fort Sage Road","road_class":"unclassified","surface":"unpaved","source":"Caltrans All Roads + OpenStreetMap explicit surface","source_detail":"osm way 7917112; Caltrans All Roads public-network geometry match","source_tile":"170/387","public_network_source":"Caltrans All Roads (ARNOLD/HPMS)","surface_source":"OpenStreetMap explicit surface tag","caltrans_match_coverage":1.0,"verified_length_m":16464},"geometry":{"type":"LineString","coordinates":[[-120.10368,40.04497],[-120.10198,40.04642],[-120.10138,40.04699],[-120.10129,40.04707],[-120.10012,40.04832],[-120.09955,40.04894],[-120.09925,40.04928],[-120.09895,40.04961],[-120.09817,40.05048],[-120.09796,40.05074],[-120.09782,40.05092],[-120.09768,40.05115],[-120.09752,40.0515],[-120.09726,40.05215],[-120.09707,40.05272],[-120.09656,40.05406],[-120.09636,40.05466],[-120.09629,40.05495],[-120.09623,40.05515],[-120.09617,40.05551],[-120.09611,40.05596],[-120.09608,40.05664],[-120.09609,40.05695],[-120.09611,40.05718],[-120.09615,40.05747],[-120.09621,40.0579],[-120.09629,40.05846],[-120.09638,40.05897],[-120.09657,40.06014],[-120.0966,40.06049],[-120.09657,40.06131],[-120.09657,40.06286],[-120.09654,40.06386],[-120.0964,40.06495],[-120.09602,40.06743],[-120.0959,40.06824],[-120.09585,40.06868],[-120.09578,40.06912],[-120.0957,40.06986],[-120.09544,40.07167],[-120.0954,40.07232],[-120.09537,40.07359],[-120.09539,40.07542],[-120.0953,40.07788],[-120.09521,40.08243],[-120.09522,40.08304],[-120.09518,40.08579],[-120.09519,40.08622],[-120.09515,40.08729],[-120.09505,40.08769],[-120.09487,40.08832],[-120.09445,40.08964],[-120.09432,40.09004],[-120.09393,40.09125],[-120.09373,40.0919],[-120.0935,40.09262],[-120.0934,40.09297],[-120.09331,40.09331],[-120.09323,40.09371],[-120.09305,40.09467],[-120.09297,40.09511],[-120.09288,40.09566],[-120.09279,40.09616],[-120.09262,40.09723],[-120.09255,40.09779],[-120.09244,40.09833],[-120.09228,40.09938],[-120.09223,40.09978],[-120.09221,40.1005],[-120.09219,40.10085],[-120.09215,40.10128],[-120.09205,40.10216],[-120.09196,40.10312],[-120.09193,40.10362],[-120.09187,40.10412],[-120.0918,40.10452],[-120.09172,40.10486],[-120.09156,40.10543],[-120.09135,40.10637],[-120.0911,40.10719],[-120.09102,40.10761],[-120.09096,40.10787],[-120.0909,40.10807],[-120.09079,40.10832],[-120.09066,40.10856],[-120.09045,40.10888],[-120.0901,40.10953],[-120.08992,40.10984],[-120.08985,40.10995],[-120.08974,40.11008],[-120.08952,40.11031],[-120.08914,40.11072],[-120.08909,40.11078],[-120.08903,40.11087],[-120.08898,40.11097],[-120.0889,40.11116],[-120.08884,40.11132],[-120.08875,40.1116],[-120.08871,40.11168],[-120.08869,40.11176],[-120.08861,40.1119],[-120.08846,40.11213],[-120.08816,40.11252],[-120.08787,40.11285],[-120.08768,40.11302],[-120.08724,40.11337],[-120.08718,40.11342],[-120.08698,40.11368],[-120.08687,40.11383],[-120.08684,40.11387],[-120.08678,40.11393],[-120.08666,40.11402],[-120.0863,40.11424],[-120.08616,40.11431],[-120.08602,40.11437],[-120.08588,40.11441],[-120.08575,40.11445],[-120.0856,40.11449],[-120.08545,40.11451],[-120.08527,40.11453],[-120.08513,40.11453],[-120.08467,40.11453],[-120.08443,40.11453],[-120.08422,40.11451],[-120.08396,40.11446],[-120.08368,40.1144],[-120.08353,40.11436],[-120.08339,40.11431],[-120.0832,40.11424],[-120.08308,40.11418],[-120.08298,40.11413],[-120.08289,40.11407],[-120.08281,40.114],[-120.0825,40.11374],[-120.08167,40.11297],[-120.08153,40.11281],[-120.08121,40.1124],[-120.08106,40.11225],[-120.0809,40.11211],[-120.08063,40.11194],[-120.08034,40.1118],[-120.07977,40.11157],[-120.07926,40.11136],[-120.0788,40.11119],[-120.07819,40.111],[-120.07791,40.11092],[-120.0776,40.11085],[-120.07727,40.11079],[-120.07682,40.11073],[-120.07591,40.11062],[-120.07521,40.11057],[-120.07402,40.11042],[-120.07322,40.11032],[-120.07201,40.11013],[-120.0716,40.11003],[-120.07121,40.1099],[-120.07101,40.10982],[-120.07044,40.10954],[-120.07019,40.10941],[-120.07007,40.10934],[-120.06989,40.10922],[-120.06973,40.10908],[-120.06958,40.10893],[-120.0695,40.10882],[-120.06878,40.10767],[-120.06854,40.10723],[-120.06834,40.10691],[-120.06806,40.10654],[-120.06773,40.10615],[-120.06747,40.10587],[-120.06689,40.10534],[-120.0666,40.10503],[-120.06634,40.10479],[-120.06617,40.10464],[-120.06603,40.10456],[-120.06596,40.10453],[-120.06567,40.10443],[-120.06526,40.10426],[-120.06511,40.10417],[-120.06494,40.10406],[-120.06475,40.10393],[-120.06457,40.10379],[-120.06439,40.10363],[-120.06391,40.1032],[-120.06374,40.10308],[-120.06362,40.10301],[-120.06343,40.10289],[-120.06292,40.10262],[-120.06239,40.10234],[-120.06128,40.10181],[-120.06079,40.10158],[-120.06043,40.10138],[-120.06014,40.10122],[-120.05988,40.10106],[-120.05958,40.10084],[-120.05939,40.10068],[-120.05898,40.10034],[-120.05876,40.10016],[-120.05859,40.10005],[-120.05841,40.09995],[-120.05776,40.09965],[-120.05712,40.09939],[-120.05638,40.09913],[-120.05604,40.09901],[-120.05572,40.09889],[-120.05512,40.09862],[-120.05482,40.09847],[-120.05386,40.09802],[-120.05346,40.09783],[-120.0528,40.09753],[-120.0524,40.09738],[-120.05117,40.09691],[-120.05078,40.09674],[-120.05025,40.0965],[-120.04967,40.09623],[-120.04788,40.09539],[-120.04726,40.0951],[-120.04583,40.09444],[-120.04547,40.09428],[-120.04536,40.09423],[-120.04488,40.09402],[-120.04403,40.09365],[-120.0432,40.0933],[-120.04257,40.09305],[-120.04203,40.09286],[-120.04155,40.09269],[-120.04124,40.09259],[-120.04094,40.09251],[-120.04062,40.09244],[-120.0404,40.09241],[-120.04025,40.09239],[-120.04007,40.09238],[-120.03895,40.09233],[-120.03854,40.09231],[-120.03778,40.09228],[-120.03511,40.0922],[-120.03401,40.09218],[-120.03291,40.09216],[-120.03028,40.09215],[-120.0289,40.09212],[-120.02421,40.09207],[-120.02174,40.09203],[-120.018,40.09198],[-120.01521,40.09195],[-120.01421,40.09194],[-120.01388,40.09194],[-120.01355,40.09194],[-120.01083,40.09191],[-120.00989,40.0919],[-120.00892,40.0919],[-120.00109,40.09182],[-119.99966,40.09183],[-119.99918,40.09183],[-119.99867,40.0918],[-119.99781,40.0918],[-119.99729,40.09181]]}},{"type":"Feature","properties":{"name":"Scott Road","road_class":"track","surface":"unpaved","source":"Caltrans All Roads + OpenStreetMap explicit surface","source_detail":"osm way 7918995; Caltrans All Roads public-network geometry match","source_tile":"170/388","public_network_source":"Caltrans All Roads (ARNOLD/HPMS)","surface_source":"OpenStreetMap explicit surface tag","caltrans_match_coverage":1.0,"verified_length_m":7736},"geometry":{"type":"LineString","coordinates":[[-120.04959,39.8673],[-120.04968,39.86729],[-120.04972,39.86731],[-120.04975,39.86734],[-120.04976,39.86737],[-120.04976,39.86741],[-120.04969,39.86783],[-120.04963,39.86805],[-120.04958,39.86817],[-120.04934,39.8686],[-120.04925,39.8688],[-120.04918,39.86894],[-120.04907,39.86916],[-120.04887,39.86951],[-120.04873,39.8697],[-120.04856,39.86993],[-120.04833,39.87029],[-120.0482,39.87043],[-120.04818,39.87046],[-120.04818,39.8705],[-120.04817,39.87058],[-120.04814,39.87068],[-120.04803,39.87094],[-120.04773,39.87149],[-120.04756,39.87188],[-120.0475,39.87201],[-120.04745,39.87209],[-120.04715,39.87242],[-120.04706,39.87254],[-120.04698,39.87265],[-120.0469,39.87279],[-120.04682,39.87293],[-120.04675,39.87308],[-120.04671,39.87318],[-120.04631,39.87393],[-120.04619,39.8742],[-120.04609,39.87446],[-120.04604,39.87462],[-120.04599,39.87478],[-120.04597,39.87485],[-120.04594,39.8749],[-120.0459,39.87495],[-120.04586,39.87504],[-120.04582,39.87518],[-120.04577,39.87534],[-120.04566,39.87567],[-120.04552,39.87597],[-120.04548,39.87608],[-120.04533,39.8765],[-120.04524,39.87678],[-120.04519,39.87691],[-120.04515,39.87699],[-120.04513,39.87704],[-120.04509,39.87715],[-120.04503,39.87723],[-120.04492,39.87736],[-120.04471,39.8776],[-120.04456,39.87776],[-120.0444,39.87798],[-120.04429,39.87809],[-120.04412,39.87825],[-120.04386,39.87845],[-120.04365,39.87857],[-120.04331,39.87877],[-120.04299,39.87898],[-120.04281,39.87905],[-120.04217,39.87938],[-120.04192,39.8795],[-120.04155,39.87966],[-120.04127,39.87978],[-120.04048,39.88015],[-120.04,39.88037],[-120.03981,39.88045],[-120.03974,39.88047],[-120.03964,39.8805],[-120.03951,39.88051],[-120.03933,39.88052],[-120.03905,39.88052],[-120.03791,39.8805],[-120.03755,39.88053],[-120.03746,39.88053],[-120.03737,39.88051],[-120.03711,39.88045],[-120.03698,39.88043],[-120.03671,39.88042],[-120.03639,39.88043],[-120.03627,39.88045],[-120.03614,39.88048],[-120.03585,39.88058],[-120.03561,39.88068],[-120.03513,39.88092],[-120.03448,39.88122],[-120.03411,39.88139],[-120.03402,39.88142],[-120.03398,39.88144],[-120.03394,39.88148],[-120.03391,39.88153],[-120.03386,39.88161],[-120.03379,39.88165],[-120.0336,39.88176],[-120.03327,39.88194],[-120.03319,39.88199],[-120.03311,39.88206],[-120.03298,39.88217],[-120.03291,39.88223],[-120.0328,39.88231],[-120.0327,39.88237],[-120.03262,39.88241],[-120.03248,39.88246],[-120.03218,39.88255],[-120.03202,39.88259],[-120.03186,39.88262],[-120.03176,39.88262],[-120.03166,39.88261],[-120.03161,39.8826],[-120.03153,39.88256],[-120.03146,39.88252],[-120.0313,39.88244],[-120.03125,39.88243],[-120.0312,39.88243],[-120.03115,39.88244],[-120.03111,39.88246],[-120.03107,39.8825],[-120.03104,39.8826],[-120.03098,39.88272],[-120.03095,39.88282],[-120.03093,39.88289],[-120.03089,39.88296],[-120.03078,39.88313],[-120.03077,39.88326],[-120.03075,39.8835],[-120.0307,39.88391],[-120.0307,39.88403],[-120.0307,39.88414],[-120.03077,39.88446],[-120.03078,39.88467],[-120.03078,39.88477],[-120.03072,39.88502],[-120.03058,39.88543],[-120.03043,39.8857],[-120.03037,39.88578],[-120.03011,39.88609],[-120.02994,39.88628],[-120.02987,39.88635],[-120.02934,39.8868],[-120.02912,39.88701],[-120.02903,39.88711],[-120.02893,39.88723],[-120.0288,39.88737],[-120.02863,39.88753],[-120.02853,39.88763],[-120.02829,39.88788],[-120.02821,39.88797],[-120.02807,39.88818],[-120.02799,39.88829],[-120.02783,39.88848],[-120.0274,39.88898],[-120.0272,39.88919],[-120.0269,39.88953],[-120.02671,39.88972],[-120.0266,39.8898],[-120.0265,39.88986],[-120.02639,39.88991],[-120.02628,39.88995],[-120.02625,39.88995],[-120.02616,39.88998],[-120.02604,39.89],[-120.02596,39.89],[-120.02561,39.89001],[-120.02549,39.89004],[-120.02541,39.89007],[-120.02533,39.8901],[-120.02527,39.89014],[-120.02503,39.89033],[-120.02486,39.89048],[-120.0247,39.89062],[-120.02452,39.89077],[-120.02442,39.89084],[-120.02431,39.89091],[-120.02423,39.89095],[-120.02415,39.89099],[-120.02408,39.89101],[-120.02398,39.89103],[-120.0237,39.89111],[-120.02358,39.89115],[-120.02348,39.89119],[-120.02336,39.89126],[-120.02325,39.89134],[-120.02313,39.89143],[-120.02302,39.89154],[-120.02287,39.89169],[-120.02254,39.89207],[-120.02241,39.8922],[-120.02208,39.8925],[-120.02181,39.89273],[-120.02157,39.89291],[-120.02122,39.89321],[-120.02069,39.89369],[-120.02017,39.89415],[-120.02012,39.89421],[-120.02009,39.89428],[-120.02007,39.89435],[-120.02005,39.89448],[-120.02006,39.89455],[-120.02008,39.89462],[-120.02019,39.8948],[-120.02022,39.89488],[-120.02023,39.89493],[-120.02024,39.89502],[-120.02023,39.89517],[-120.02021,39.89526],[-120.02018,39.89534],[-120.02009,39.89551],[-120.01996,39.89574],[-120.01981,39.89603],[-120.01979,39.89609],[-120.01979,39.89613],[-120.01981,39.8962],[-120.01984,39.89625],[-120.01989,39.8963],[-120.02004,39.89642],[-120.02008,39.89648],[-120.02015,39.89661],[-120.02018,39.89669],[-120.02019,39.89679],[-120.02019,39.89703],[-120.02018,39.89732],[-120.02019,39.89805],[-120.02017,39.89826],[-120.02012,39.8985],[-120.02009,39.89862],[-120.02005,39.89873],[-120.01997,39.89894],[-120.01972,39.89942],[-120.01962,39.8996],[-120.01942,39.89993],[-120.01936,39.90003],[-120.01929,39.9002],[-120.01927,39.90033],[-120.01925,39.90055],[-120.01924,39.90069],[-120.01922,39.90089],[-120.01919,39.90104],[-120.01915,39.90113],[-120.01901,39.90138],[-120.01888,39.90154],[-120.01874,39.90172],[-120.0187,39.90182],[-120.01868,39.90188],[-120.01867,39.90193],[-120.01868,39.90199],[-120.01872,39.90206],[-120.01883,39.9022],[-120.01894,39.90234],[-120.01902,39.90247],[-120.01908,39.90258],[-120.01919,39.90288],[-120.01921,39.903],[-120.01922,39.90313],[-120.01922,39.90324],[-120.0192,39.90336],[-120.01915,39.90349],[-120.01911,39.90357],[-120.01905,39.90368],[-120.01891,39.90391],[-120.01874,39.90419],[-120.01865,39.90436],[-120.01859,39.90448],[-120.01858,39.90453],[-120.01857,39.9046],[-120.01857,39.90468],[-120.01859,39.90474],[-120.01861,39.90481],[-120.01861,39.90487],[-120.01865,39.90536],[-120.01867,39.9055],[-120.01869,39.90561],[-120.01872,39.9057],[-120.01879,39.90587],[-120.01896,39.90627],[-120.01904,39.90642],[-120.01936,39.90688],[-120.01944,39.90698],[-120.01977,39.90734],[-120.02013,39.90768],[-120.02023,39.90783],[-120.02044,39.90821],[-120.02047,39.90827],[-120.02051,39.90839],[-120.02052,39.90852],[-120.02051,39.90858],[-120.02049,39.90865],[-120.02046,39.90872],[-120.02031,39.909],[-120.02023,39.90918],[-120.02009,39.90944],[-120.02005,39.9095],[-120.02002,39.90955],[-120.01991,39.90969],[-120.01984,39.90982],[-120.01981,39.90987],[-120.0198,39.90995],[-120.0198,39.91003],[-120.0198,39.91013],[-120.0198,39.91032],[-120.01979,39.91051],[-120.01977,39.91065],[-120.01974,39.9108],[-120.01972,39.91096],[-120.0197,39.91114],[-120.0197,39.91132],[-120.01971,39.91149],[-120.01975,39.91175],[-120.01981,39.91196],[-120.01985,39.91209],[-120.01988,39.91216],[-120.01994,39.91226],[-120.02013,39.91252],[-120.02016,39.91258],[-120.0202,39.91264],[-120.02024,39.91269],[-120.02032,39.91275],[-120.02049,39.91286],[-120.02075,39.913],[-120.0208,39.91306],[-120.02084,39.91312],[-120.02087,39.91319],[-120.02089,39.91328],[-120.02092,39.91368],[-120.02095,39.91387],[-120.02097,39.91405],[-120.02099,39.91418],[-120.02099,39.91427],[-120.02096,39.9144],[-120.02093,39.91475],[-120.02088,39.91513],[-120.02085,39.91521],[-120.02079,39.91538],[-120.02076,39.91549],[-120.02072,39.91568],[-120.02073,39.91582],[-120.02072,39.91588],[-120.02069,39.91594],[-120.02063,39.916],[-120.02056,39.91607],[-120.0205,39.91615],[-120.02046,39.91627],[-120.02043,39.91638],[-120.02039,39.91654],[-120.02036,39.91681],[-120.02035,39.91716],[-120.02029,39.91773],[-120.02035,39.91786],[-120.02043,39.91795],[-120.02055,39.91807],[-120.02086,39.91835],[-120.02107,39.91852],[-120.02123,39.91868],[-120.02141,39.91887],[-120.02151,39.919],[-120.02163,39.91913],[-120.02174,39.91927],[-120.02189,39.91951],[-120.02196,39.91964],[-120.02227,39.9201],[-120.02236,39.92022],[-120.02255,39.92039],[-120.02275,39.92055],[-120.02288,39.92065],[-120.02295,39.92072],[-120.023,39.92078],[-120.02303,39.92083],[-120.02307,39.92092],[-120.02314,39.92121],[-120.02317,39.92136],[-120.02328,39.92176],[-120.02337,39.92215],[-120.02338,39.92226],[-120.02338,39.92233],[-120.02349,39.92281],[-120.02351,39.92294],[-120.02356,39.92319]]}}]}