{"type":"FeatureCollection","features":[{"type":"Feature","properties":{"name":"Dixie Valley Road","road_class":"unclassified","surface":"gravel","source":"Caltrans All Roads + OpenStreetMap explicit surface","source_detail":"osm way 453533618; Caltrans All Roads public-network geometry match","source_tile":"170/388","public_network_source":"Caltrans All Roads (ARNOLD/HPMS)","surface_source":"OpenStreetMap explicit surface tag","caltrans_match_coverage":0.966,"verified_length_m":15821},"geometry":{"type":"LineString","coordinates":[[-120.21275,39.90839],[-120.21349,39.90801],[-120.21708,39.90652],[-120.21794,39.90629],[-120.22014,39.90631],[-120.22269,39.90576],[-120.22441,39.90563],[-120.22513,39.90588],[-120.22605,39.90638],[-120.22661,39.90647],[-120.22695,39.90642],[-120.22842,39.90617],[-120.23035,39.9061],[-120.23279,39.90571],[-120.23439,39.90574],[-120.23641,39.90587],[-120.2378,39.9061],[-120.24125,39.9074],[-120.24173,39.90768],[-120.24428,39.90818],[-120.24642,39.90802],[-120.24728,39.9082],[-120.24942,39.90786],[-120.25054,39.90756],[-120.25062,39.90747],[-120.25104,39.90701],[-120.25148,39.90673],[-120.25177,39.90655],[-120.25377,39.90621],[-120.25481,39.90593],[-120.25596,39.90532],[-120.25638,39.90481],[-120.25688,39.90445],[-120.25908,39.90388],[-120.25962,39.90399],[-120.2603,39.90461],[-120.26055,39.90462],[-120.26413,39.9039],[-120.26624,39.90271],[-120.26877,39.90109],[-120.27016,39.90087],[-120.27022,39.90086],[-120.27117,39.90027],[-120.2728,39.90023],[-120.27301,39.90022],[-120.27384,39.90009],[-120.27554,39.89954],[-120.2764,39.89949],[-120.27898,39.89991],[-120.28248,39.90089],[-120.28304,39.90106],[-120.28406,39.90137],[-120.28629,39.90176],[-120.29124,39.90215],[-120.29187,39.90229],[-120.29193,39.90242],[-120.29314,39.90306],[-120.29599,39.90494],[-120.29671,39.90524],[-120.29813,39.9056],[-120.29843,39.90565],[-120.30086,39.90638],[-120.30155,39.90686],[-120.30318,39.90839],[-120.30416,39.90915],[-120.30475,39.91007],[-120.30597,39.91107],[-120.30778,39.91237],[-120.30823,39.91288],[-120.30858,39.9137],[-120.30867,39.91448],[-120.30879,39.91484],[-120.31019,39.9161],[-120.31048,39.91661],[-120.31078,39.91743],[-120.31105,39.91786],[-120.31185,39.91863],[-120.31239,39.91914],[-120.31335,39.92034],[-120.31405,39.9212],[-120.31551,39.92264],[-120.31568,39.92271],[-120.31585,39.92285],[-120.3166,39.92351],[-120.31723,39.92392],[-120.31898,39.92473],[-120.31984,39.92498],[-120.32088,39.92509],[-120.32323,39.92623],[-120.32489,39.92749],[-120.32575,39.92863],[-120.32605,39.92925],[-120.32596,39.93008],[-120.32495,39.93143],[-120.32436,39.93236],[-120.32439,39.93269],[-120.32442,39.93298],[-120.32483,39.93346],[-120.32543,39.93383],[-120.32887,39.93527],[-120.32962,39.9357],[-120.33017,39.93578],[-120.33134,39.93593],[-120.33191,39.93657],[-120.3325,39.93742],[-120.33428,39.93961],[-120.33517,39.94034],[-120.33541,39.94041],[-120.33684,39.9413],[-120.33705,39.94133],[-120.33806,39.94206],[-120.33936,39.94343],[-120.33954,39.94375],[-120.33972,39.94444],[-120.33975,39.94499],[-120.34002,39.94595],[-120.34008,39.94599],[-120.3407,39.94778],[-120.34081,39.94837],[-120.34133,39.95139],[-120.34145,39.95176],[-120.34148,39.9529],[-120.34171,39.95384],[-120.34166,39.95686],[-120.34169,39.96035],[-120.34178,39.96054],[-120.34181,39.96093]]}},{"type":"Feature","properties":{"name":"Frenchman Boulevard","road_class":"unclassified","surface":"fine_gravel","source":"Caltrans All Roads + OpenStreetMap explicit surface","source_detail":"osm way 453533625; Caltrans All Roads public-network geometry match","source_tile":"170/388","public_network_source":"Caltrans All Roads (ARNOLD/HPMS)","surface_source":"OpenStreetMap explicit surface tag","caltrans_match_coverage":1.0,"verified_length_m":15173},"geometry":{"type":"LineString","coordinates":[[-120.21275,39.90839],[-120.21486,39.90977],[-120.21544,39.91017],[-120.21572,39.91045],[-120.21588,39.91069],[-120.21603,39.91098],[-120.21614,39.91128],[-120.21634,39.91194],[-120.21683,39.91345],[-120.21719,39.91459],[-120.2179,39.9168],[-120.21805,39.9172],[-120.2182,39.91751],[-120.21844,39.91791],[-120.21925,39.91926],[-120.21948,39.91963],[-120.21959,39.91985],[-120.21964,39.92003],[-120.21963,39.92017],[-120.21962,39.92042],[-120.21954,39.92092],[-120.21949,39.92124],[-120.2195,39.92143],[-120.21953,39.9216],[-120.21961,39.92183],[-120.2197,39.92207],[-120.22006,39.92292],[-120.22014,39.92316],[-120.22017,39.92342],[-120.22015,39.92362],[-120.22011,39.92386],[-120.22,39.9241],[-120.21979,39.92438],[-120.21764,39.92719],[-120.21746,39.92746],[-120.21733,39.92766],[-120.21726,39.92788],[-120.21721,39.92812],[-120.21699,39.92989],[-120.21689,39.9308],[-120.21682,39.93113],[-120.21673,39.9314],[-120.21662,39.93171],[-120.21646,39.93211],[-120.21637,39.93248],[-120.21626,39.93293],[-120.21618,39.93337],[-120.21607,39.93432],[-120.21596,39.93547],[-120.21593,39.93572],[-120.21585,39.93594],[-120.21576,39.93615],[-120.21565,39.93634],[-120.21551,39.93651],[-120.21533,39.93667],[-120.21517,39.93685],[-120.21504,39.93701],[-120.2149,39.93716],[-120.21475,39.9373],[-120.21449,39.9375],[-120.21419,39.9377],[-120.21385,39.93788],[-120.21362,39.93803],[-120.2135,39.93815],[-120.2134,39.93831],[-120.21335,39.93848],[-120.21335,39.93863],[-120.21338,39.93876],[-120.21345,39.93896],[-120.21352,39.93912],[-120.21382,39.93983],[-120.21387,39.93998],[-120.21389,39.94013],[-120.21389,39.9403],[-120.21389,39.94043],[-120.2139,39.94054],[-120.21394,39.94068],[-120.21401,39.94085],[-120.21408,39.94102],[-120.21412,39.94125],[-120.21414,39.9415],[-120.21414,39.94177],[-120.21412,39.94192],[-120.21409,39.94207],[-120.21403,39.9422],[-120.21394,39.94235],[-120.21303,39.94371],[-120.21233,39.94483],[-120.2122,39.94503],[-120.21206,39.94525],[-120.21199,39.94541],[-120.21191,39.94564],[-120.21184,39.94585],[-120.21175,39.94608],[-120.21127,39.94723],[-120.21106,39.94776],[-120.21099,39.94797],[-120.21092,39.94823],[-120.21072,39.94921],[-120.21065,39.94951],[-120.21059,39.9498],[-120.21054,39.95007],[-120.21054,39.95031],[-120.21056,39.95057],[-120.21058,39.95081],[-120.21064,39.95104],[-120.2107,39.95126],[-120.2108,39.95151],[-120.21089,39.95176],[-120.21121,39.9525],[-120.21137,39.95291],[-120.21143,39.95315],[-120.21148,39.95333],[-120.21154,39.9535],[-120.21165,39.95371],[-120.21175,39.95388],[-120.21221,39.95442],[-120.21251,39.95476],[-120.21275,39.95503],[-120.21295,39.95533],[-120.21321,39.9559],[-120.21341,39.95626],[-120.21356,39.95665],[-120.21367,39.95693],[-120.21377,39.9573],[-120.21416,39.95911],[-120.21432,39.9598],[-120.21434,39.95998],[-120.21434,39.96027],[-120.21431,39.96049],[-120.21421,39.96081],[-120.21403,39.96114],[-120.21377,39.96156],[-120.21143,39.96515],[-120.21132,39.96542],[-120.21127,39.96567],[-120.21128,39.96595],[-120.21125,39.96614],[-120.2112,39.96625],[-120.21108,39.96637],[-120.21084,39.96648],[-120.21066,39.96659],[-120.21058,39.96669],[-120.2105,39.96685],[-120.21045,39.96763],[-120.21046,39.96768],[-120.21046,39.96771],[-120.21047,39.96776],[-120.21054,39.96792],[-120.21076,39.96829],[-120.21091,39.9685],[-120.21107,39.96863],[-120.21124,39.96887],[-120.21136,39.96906],[-120.2115,39.96952],[-120.21153,39.96969],[-120.21149,39.96982],[-120.21151,39.96994],[-120.21158,39.96998],[-120.21172,39.97001],[-120.21186,39.97005],[-120.21194,39.97017],[-120.21198,39.97028],[-120.21214,39.97043],[-120.21231,39.97055],[-120.21235,39.97069],[-120.2123,39.97086],[-120.21219,39.97098],[-120.21202,39.97111],[-120.21104,39.97168],[-120.21087,39.97184],[-120.21077,39.97198],[-120.21074,39.9721],[-120.21078,39.97227],[-120.21093,39.97254],[-120.21105,39.97276],[-120.21131,39.97305],[-120.21184,39.97369],[-120.21205,39.97403],[-120.21223,39.97432],[-120.21228,39.97453],[-120.2123,39.9747],[-120.21242,39.97508],[-120.2125,39.97527],[-120.21255,39.97549],[-120.21257,39.97581],[-120.21265,39.97614],[-120.21277,39.97654],[-120.21284,39.97675],[-120.21293,39.97702],[-120.21309,39.97725],[-120.2133,39.9775],[-120.21356,39.97778],[-120.21371,39.97802],[-120.21396,39.97852],[-120.21424,39.97915],[-120.21437,39.97949],[-120.21453,39.97978],[-120.2147,39.98003],[-120.21485,39.98024],[-120.21495,39.98044],[-120.21509,39.98087],[-120.2152,39.98123],[-120.21529,39.98147],[-120.21544,39.98164],[-120.21575,39.98185],[-120.21588,39.98202],[-120.21595,39.9822],[-120.21597,39.98225],[-120.216,39.98255],[-120.21609,39.98278],[-120.21619,39.98297],[-120.2164,39.98333],[-120.21682,39.98421],[-120.2169,39.98437],[-120.21711,39.98481],[-120.21722,39.98497],[-120.21746,39.98508],[-120.21778,39.98516],[-120.21824,39.98525],[-120.21852,39.98536],[-120.21871,39.98552],[-120.21894,39.98579],[-120.21922,39.98606],[-120.21947,39.98627],[-120.21975,39.98655],[-120.22006,39.98704],[-120.2202,39.98733],[-120.22027,39.98755],[-120.22038,39.98781],[-120.22069,39.98832],[-120.221,39.98887],[-120.22117,39.98919],[-120.22139,39.98951],[-120.22165,39.98987],[-120.22173,39.98996],[-120.222,39.99011],[-120.22218,39.99018],[-120.22229,39.99029],[-120.22242,39.99047],[-120.2227,39.99075],[-120.22284,39.99091],[-120.22292,39.99103],[-120.22296,39.9912],[-120.2229,39.99132],[-120.22277,39.99145],[-120.22266,39.99156],[-120.22264,39.99175],[-120.22263,39.99188],[-120.22271,39.99218],[-120.22294,39.99322],[-120.22298,39.9934],[-120.22299,39.99357],[-120.22288,39.99371],[-120.22257,39.99397],[-120.22224,39.99433],[-120.2222,39.99448],[-120.22225,39.9947],[-120.22228,39.99488],[-120.22224,39.99509],[-120.22193,39.99603],[-120.22174,39.9967],[-120.22161,39.9972],[-120.22143,39.99784],[-120.22123,39.99838],[-120.2209,39.99915],[-120.2204,40.00024],[-120.22033,40.00047],[-120.22036,40.00073],[-120.22046,40.00094],[-120.22066,40.0012],[-120.22111,40.00165],[-120.22137,40.00192],[-120.22148,40.00212],[-120.22173,40.00265],[-120.22184,40.00294],[-120.22219,40.00342],[-120.22288,40.00434],[-120.22426,40.00617],[-120.22477,40.00689],[-120.22516,40.00731],[-120.22603,40.00808],[-120.22659,40.00858],[-120.22682,40.00891],[-120.22691,40.00915],[-120.22691,40.00967],[-120.22692,40.01015],[-120.22695,40.01037],[-120.22715,40.01065],[-120.22818,40.01206],[-120.22842,40.01241],[-120.22851,40.01266],[-120.22855,40.01298],[-120.22868,40.01367],[-120.22879,40.01405],[-120.22902,40.01453],[-120.22945,40.01556],[-120.22973,40.01637],[-120.22986,40.01689],[-120.22994,40.0173],[-120.22994,40.01757],[-120.22988,40.01785],[-120.22977,40.01808],[-120.22961,40.0183],[-120.22943,40.01845],[-120.22915,40.01864],[-120.22883,40.01879],[-120.22845,40.01896],[-120.22799,40.01921],[-120.22757,40.01944],[-120.22714,40.01958],[-120.22671,40.01969],[-120.22607,40.01983],[-120.22577,40.01989],[-120.22553,40.01995],[-120.22534,40.02008],[-120.22522,40.0202],[-120.22518,40.02036],[-120.22517,40.02057],[-120.22512,40.02074],[-120.22512,40.02095],[-120.22517,40.0212],[-120.22528,40.02151],[-120.22544,40.02197],[-120.22568,40.02274],[-120.22582,40.02317],[-120.22593,40.02351],[-120.226,40.0238],[-120.22604,40.024],[-120.2261,40.02417],[-120.22623,40.02436],[-120.22637,40.0246],[-120.22645,40.0248],[-120.22654,40.0251],[-120.22659,40.02549],[-120.22659,40.02572],[-120.22654,40.02596],[-120.22641,40.02631],[-120.22621,40.02697],[-120.22616,40.02721],[-120.22612,40.02757],[-120.22607,40.02802],[-120.22598,40.02839],[-120.22589,40.02867],[-120.22585,40.02885],[-120.22582,40.02911],[-120.22583,40.02928],[-120.22591,40.02952],[-120.22603,40.02982],[-120.22624,40.03019],[-120.22639,40.03037],[-120.2266,40.03069],[-120.22679,40.03093],[-120.22691,40.03104],[-120.22712,40.03127],[-120.22725,40.03139],[-120.22729,40.03147],[-120.22728,40.0316],[-120.22724,40.03169],[-120.22718,40.03176]]}},{"type":"Feature","properties":{"name":"Frenchman East Shore Road","road_class":"unclassified","surface":"fine_gravel","source":"Caltrans All Roads + OpenStreetMap explicit surface","source_detail":"osm way 934854431; Caltrans All Roads public-network geometry match","source_tile":"170/388","public_network_source":"Caltrans All Roads (ARNOLD/HPMS)","surface_source":"OpenStreetMap explicit surface tag","caltrans_match_coverage":1.0,"verified_length_m":6942},"geometry":{"type":"LineString","coordinates":[[-120.17407,39.90474],[-120.17427,39.90501],[-120.17443,39.90521],[-120.17469,39.90571],[-120.17507,39.9065],[-120.17525,39.90689],[-120.17531,39.90708],[-120.17533,39.90734],[-120.17533,39.90756],[-120.17538,39.90781],[-120.17581,39.90848],[-120.17597,39.9087],[-120.17611,39.90883],[-120.17629,39.90893],[-120.17677,39.90902],[-120.17708,39.90908],[-120.17735,39.90918],[-120.17749,39.90932],[-120.17757,39.90949],[-120.17759,39.90967],[-120.17759,39.90983],[-120.17749,39.91037],[-120.17749,39.91056],[-120.17751,39.91074],[-120.17759,39.9109],[-120.17781,39.91121],[-120.17786,39.91134],[-120.17784,39.9115],[-120.1778,39.91166],[-120.17774,39.91183],[-120.17775,39.91198],[-120.17783,39.91216],[-120.17895,39.91367],[-120.17941,39.91426],[-120.17953,39.91436],[-120.17967,39.91441],[-120.17993,39.91446],[-120.18039,39.9145],[-120.18065,39.91455],[-120.1808,39.91466],[-120.18091,39.91478],[-120.18099,39.91497],[-120.18098,39.91515],[-120.1809,39.91534],[-120.1808,39.91555],[-120.18074,39.91571],[-120.18073,39.91589],[-120.18081,39.91607],[-120.18096,39.91629],[-120.18269,39.91863],[-120.18292,39.91893],[-120.18318,39.91917],[-120.1835,39.91937],[-120.18383,39.91951],[-120.18424,39.91963],[-120.18463,39.91966],[-120.18566,39.91959],[-120.18608,39.91958],[-120.18629,39.91958],[-120.18662,39.91965],[-120.18695,39.91976],[-120.18728,39.91989],[-120.18751,39.92006],[-120.18776,39.92027],[-120.189,39.92151],[-120.19042,39.9229],[-120.19092,39.92343],[-120.19191,39.92465],[-120.19362,39.92675],[-120.19527,39.92874],[-120.19549,39.92904],[-120.19567,39.92932],[-120.1958,39.92961],[-120.19592,39.9299],[-120.19606,39.9303],[-120.1962,39.93065],[-120.19635,39.93094],[-120.19658,39.93125],[-120.19684,39.93155],[-120.19714,39.93184],[-120.19748,39.9321],[-120.19791,39.93237],[-120.19966,39.93337],[-120.20011,39.93362],[-120.20045,39.93385],[-120.20076,39.93411],[-120.2011,39.93446],[-120.20136,39.93476],[-120.20155,39.93507],[-120.20172,39.93538],[-120.20188,39.93575],[-120.20203,39.93607],[-120.20225,39.93642],[-120.20243,39.93669],[-120.20277,39.93705],[-120.20312,39.93742],[-120.20478,39.93914],[-120.20511,39.93948],[-120.20537,39.9398],[-120.20559,39.94012],[-120.20573,39.94036],[-120.20586,39.94064],[-120.20603,39.94106],[-120.2062,39.94146],[-120.20627,39.94178],[-120.20631,39.94208],[-120.20632,39.94242],[-120.20632,39.94275],[-120.20625,39.9433],[-120.20616,39.94385],[-120.2061,39.94428],[-120.20599,39.94504],[-120.20587,39.94604],[-120.20579,39.94651],[-120.20576,39.94683],[-120.20578,39.94718],[-120.20588,39.94773],[-120.2068,39.95281],[-120.20686,39.95304],[-120.20695,39.95324],[-120.20707,39.95342],[-120.20726,39.95361],[-120.20746,39.95373],[-120.20767,39.95382],[-120.20794,39.95389],[-120.20826,39.95391],[-120.20853,39.95389],[-120.21154,39.9535]]}},{"type":"Feature","properties":{"name":"Scott Road","road_class":"track","surface":"unpaved","source":"Caltrans All Roads + OpenStreetMap explicit surface","source_detail":"osm way 7918995; Caltrans All Roads public-network geometry match","source_tile":"170/388","public_network_source":"Caltrans All Roads (ARNOLD/HPMS)","surface_source":"OpenStreetMap explicit surface tag","caltrans_match_coverage":1.0,"verified_length_m":7736},"geometry":{"type":"LineString","coordinates":[[-120.04959,39.8673],[-120.04968,39.86729],[-120.04972,39.86731],[-120.04975,39.86734],[-120.04976,39.86737],[-120.04976,39.86741],[-120.04969,39.86783],[-120.04963,39.86805],[-120.04958,39.86817],[-120.04934,39.8686],[-120.04925,39.8688],[-120.04918,39.86894],[-120.04907,39.86916],[-120.04887,39.86951],[-120.04873,39.8697],[-120.04856,39.86993],[-120.04833,39.87029],[-120.0482,39.87043],[-120.04818,39.87046],[-120.04818,39.8705],[-120.04817,39.87058],[-120.04814,39.87068],[-120.04803,39.87094],[-120.04773,39.87149],[-120.04756,39.87188],[-120.0475,39.87201],[-120.04745,39.87209],[-120.04715,39.87242],[-120.04706,39.87254],[-120.04698,39.87265],[-120.0469,39.87279],[-120.04682,39.87293],[-120.04675,39.87308],[-120.04671,39.87318],[-120.04631,39.87393],[-120.04619,39.8742],[-120.04609,39.87446],[-120.04604,39.87462],[-120.04599,39.87478],[-120.04597,39.87485],[-120.04594,39.8749],[-120.0459,39.87495],[-120.04586,39.87504],[-120.04582,39.87518],[-120.04577,39.87534],[-120.04566,39.87567],[-120.04552,39.87597],[-120.04548,39.87608],[-120.04533,39.8765],[-120.04524,39.87678],[-120.04519,39.87691],[-120.04515,39.87699],[-120.04513,39.87704],[-120.04509,39.87715],[-120.04503,39.87723],[-120.04492,39.87736],[-120.04471,39.8776],[-120.04456,39.87776],[-120.0444,39.87798],[-120.04429,39.87809],[-120.04412,39.87825],[-120.04386,39.87845],[-120.04365,39.87857],[-120.04331,39.87877],[-120.04299,39.87898],[-120.04281,39.87905],[-120.04217,39.87938],[-120.04192,39.8795],[-120.04155,39.87966],[-120.04127,39.87978],[-120.04048,39.88015],[-120.04,39.88037],[-120.03981,39.88045],[-120.03974,39.88047],[-120.03964,39.8805],[-120.03951,39.88051],[-120.03933,39.88052],[-120.03905,39.88052],[-120.03791,39.8805],[-120.03755,39.88053],[-120.03746,39.88053],[-120.03737,39.88051],[-120.03711,39.88045],[-120.03698,39.88043],[-120.03671,39.88042],[-120.03639,39.88043],[-120.03627,39.88045],[-120.03614,39.88048],[-120.03585,39.88058],[-120.03561,39.88068],[-120.03513,39.88092],[-120.03448,39.88122],[-120.03411,39.88139],[-120.03402,39.88142],[-120.03398,39.88144],[-120.03394,39.88148],[-120.03391,39.88153],[-120.03386,39.88161],[-120.03379,39.88165],[-120.0336,39.88176],[-120.03327,39.88194],[-120.03319,39.88199],[-120.03311,39.88206],[-120.03298,39.88217],[-120.03291,39.88223],[-120.0328,39.88231],[-120.0327,39.88237],[-120.03262,39.88241],[-120.03248,39.88246],[-120.03218,39.88255],[-120.03202,39.88259],[-120.03186,39.88262],[-120.03176,39.88262],[-120.03166,39.88261],[-120.03161,39.8826],[-120.03153,39.88256],[-120.03146,39.88252],[-120.0313,39.88244],[-120.03125,39.88243],[-120.0312,39.88243],[-120.03115,39.88244],[-120.03111,39.88246],[-120.03107,39.8825],[-120.03104,39.8826],[-120.03098,39.88272],[-120.03095,39.88282],[-120.03093,39.88289],[-120.03089,39.88296],[-120.03078,39.88313],[-120.03077,39.88326],[-120.03075,39.8835],[-120.0307,39.88391],[-120.0307,39.88403],[-120.0307,39.88414],[-120.03077,39.88446],[-120.03078,39.88467],[-120.03078,39.88477],[-120.03072,39.88502],[-120.03058,39.88543],[-120.03043,39.8857],[-120.03037,39.88578],[-120.03011,39.88609],[-120.02994,39.88628],[-120.02987,39.88635],[-120.02934,39.8868],[-120.02912,39.88701],[-120.02903,39.88711],[-120.02893,39.88723],[-120.0288,39.88737],[-120.02863,39.88753],[-120.02853,39.88763],[-120.02829,39.88788],[-120.02821,39.88797],[-120.02807,39.88818],[-120.02799,39.88829],[-120.02783,39.88848],[-120.0274,39.88898],[-120.0272,39.88919],[-120.0269,39.88953],[-120.02671,39.88972],[-120.0266,39.8898],[-120.0265,39.88986],[-120.02639,39.88991],[-120.02628,39.88995],[-120.02625,39.88995],[-120.02616,39.88998],[-120.02604,39.89],[-120.02596,39.89],[-120.02561,39.89001],[-120.02549,39.89004],[-120.02541,39.89007],[-120.02533,39.8901],[-120.02527,39.89014],[-120.02503,39.89033],[-120.02486,39.89048],[-120.0247,39.89062],[-120.02452,39.89077],[-120.02442,39.89084],[-120.02431,39.89091],[-120.02423,39.89095],[-120.02415,39.89099],[-120.02408,39.89101],[-120.02398,39.89103],[-120.0237,39.89111],[-120.02358,39.89115],[-120.02348,39.89119],[-120.02336,39.89126],[-120.02325,39.89134],[-120.02313,39.89143],[-120.02302,39.89154],[-120.02287,39.89169],[-120.02254,39.89207],[-120.02241,39.8922],[-120.02208,39.8925],[-120.02181,39.89273],[-120.02157,39.89291],[-120.02122,39.89321],[-120.02069,39.89369],[-120.02017,39.89415],[-120.02012,39.89421],[-120.02009,39.89428],[-120.02007,39.89435],[-120.02005,39.89448],[-120.02006,39.89455],[-120.02008,39.89462],[-120.02019,39.8948],[-120.02022,39.89488],[-120.02023,39.89493],[-120.02024,39.89502],[-120.02023,39.89517],[-120.02021,39.89526],[-120.02018,39.89534],[-120.02009,39.89551],[-120.01996,39.89574],[-120.01981,39.89603],[-120.01979,39.89609],[-120.01979,39.89613],[-120.01981,39.8962],[-120.01984,39.89625],[-120.01989,39.8963],[-120.02004,39.89642],[-120.02008,39.89648],[-120.02015,39.89661],[-120.02018,39.89669],[-120.02019,39.89679],[-120.02019,39.89703],[-120.02018,39.89732],[-120.02019,39.89805],[-120.02017,39.89826],[-120.02012,39.8985],[-120.02009,39.89862],[-120.02005,39.89873],[-120.01997,39.89894],[-120.01972,39.89942],[-120.01962,39.8996],[-120.01942,39.89993],[-120.01936,39.90003],[-120.01929,39.9002],[-120.01927,39.90033],[-120.01925,39.90055],[-120.01924,39.90069],[-120.01922,39.90089],[-120.01919,39.90104],[-120.01915,39.90113],[-120.01901,39.90138],[-120.01888,39.90154],[-120.01874,39.90172],[-120.0187,39.90182],[-120.01868,39.90188],[-120.01867,39.90193],[-120.01868,39.90199],[-120.01872,39.90206],[-120.01883,39.9022],[-120.01894,39.90234],[-120.01902,39.90247],[-120.01908,39.90258],[-120.01919,39.90288],[-120.01921,39.903],[-120.01922,39.90313],[-120.01922,39.90324],[-120.0192,39.90336],[-120.01915,39.90349],[-120.01911,39.90357],[-120.01905,39.90368],[-120.01891,39.90391],[-120.01874,39.90419],[-120.01865,39.90436],[-120.01859,39.90448],[-120.01858,39.90453],[-120.01857,39.9046],[-120.01857,39.90468],[-120.01859,39.90474],[-120.01861,39.90481],[-120.01861,39.90487],[-120.01865,39.90536],[-120.01867,39.9055],[-120.01869,39.90561],[-120.01872,39.9057],[-120.01879,39.90587],[-120.01896,39.90627],[-120.01904,39.90642],[-120.01936,39.90688],[-120.01944,39.90698],[-120.01977,39.90734],[-120.02013,39.90768],[-120.02023,39.90783],[-120.02044,39.90821],[-120.02047,39.90827],[-120.02051,39.90839],[-120.02052,39.90852],[-120.02051,39.90858],[-120.02049,39.90865],[-120.02046,39.90872],[-120.02031,39.909],[-120.02023,39.90918],[-120.02009,39.90944],[-120.02005,39.9095],[-120.02002,39.90955],[-120.01991,39.90969],[-120.01984,39.90982],[-120.01981,39.90987],[-120.0198,39.90995],[-120.0198,39.91003],[-120.0198,39.91013],[-120.0198,39.91032],[-120.01979,39.91051],[-120.01977,39.91065],[-120.01974,39.9108],[-120.01972,39.91096],[-120.0197,39.91114],[-120.0197,39.91132],[-120.01971,39.91149],[-120.01975,39.91175],[-120.01981,39.91196],[-120.01985,39.91209],[-120.01988,39.91216],[-120.01994,39.91226],[-120.02013,39.91252],[-120.02016,39.91258],[-120.0202,39.91264],[-120.02024,39.91269],[-120.02032,39.91275],[-120.02049,39.91286],[-120.02075,39.913],[-120.0208,39.91306],[-120.02084,39.91312],[-120.02087,39.91319],[-120.02089,39.91328],[-120.02092,39.91368],[-120.02095,39.91387],[-120.02097,39.91405],[-120.02099,39.91418],[-120.02099,39.91427],[-120.02096,39.9144],[-120.02093,39.91475],[-120.02088,39.91513],[-120.02085,39.91521],[-120.02079,39.91538],[-120.02076,39.91549],[-120.02072,39.91568],[-120.02073,39.91582],[-120.02072,39.91588],[-120.02069,39.91594],[-120.02063,39.916],[-120.02056,39.91607],[-120.0205,39.91615],[-120.02046,39.91627],[-120.02043,39.91638],[-120.02039,39.91654],[-120.02036,39.91681],[-120.02035,39.91716],[-120.02029,39.91773],[-120.02035,39.91786],[-120.02043,39.91795],[-120.02055,39.91807],[-120.02086,39.91835],[-120.02107,39.91852],[-120.02123,39.91868],[-120.02141,39.91887],[-120.02151,39.919],[-120.02163,39.91913],[-120.02174,39.91927],[-120.02189,39.91951],[-120.02196,39.91964],[-120.02227,39.9201],[-120.02236,39.92022],[-120.02255,39.92039],[-120.02275,39.92055],[-120.02288,39.92065],[-120.02295,39.92072],[-120.023,39.92078],[-120.02303,39.92083],[-120.02307,39.92092],[-120.02314,39.92121],[-120.02317,39.92136],[-120.02328,39.92176],[-120.02337,39.92215],[-120.02338,39.92226],[-120.02338,39.92233],[-120.02349,39.92281],[-120.02351,39.92294],[-120.02356,39.92319]]}},{"type":"Feature","properties":{"name":"(unnamed public road)","road_class":"unclassified","surface":"unpaved","source":"Caltrans All Roads + OpenStreetMap explicit surface","source_detail":"osm way 7892030; Caltrans All Roads public-network geometry match","source_tile":"170/388","public_network_source":"Caltrans All Roads (ARNOLD/HPMS)","surface_source":"OpenStreetMap explicit surface tag","caltrans_match_coverage":1.0,"verified_length_m":2271},"geometry":{"type":"LineString","coordinates":[[-120.04171,39.8527],[-120.04199,39.85272],[-120.04221,39.85274],[-120.04237,39.85276],[-120.04254,39.85278],[-120.04268,39.85282],[-120.04282,39.85287],[-120.04294,39.85294],[-120.04303,39.853],[-120.0431,39.85307],[-120.04315,39.85312],[-120.0432,39.85321],[-120.04325,39.85332],[-120.0433,39.8535],[-120.04332,39.85365],[-120.04332,39.85381],[-120.04336,39.85417],[-120.04336,39.85422],[-120.04342,39.85464],[-120.04343,39.85468],[-120.04345,39.85493],[-120.04344,39.85504],[-120.04343,39.85516],[-120.04339,39.85528],[-120.04328,39.85551],[-120.0429,39.85611],[-120.04272,39.85645],[-120.04243,39.8571],[-120.04232,39.85734],[-120.04222,39.85753],[-120.04212,39.85771],[-120.04194,39.858],[-120.04186,39.85811],[-120.04176,39.85821],[-120.04148,39.85847],[-120.04139,39.85857],[-120.04133,39.85866],[-120.0413,39.85874],[-120.04127,39.85887],[-120.0412,39.85975],[-120.04117,39.86021],[-120.04121,39.8605],[-120.04125,39.86058],[-120.04132,39.8607],[-120.04146,39.86086],[-120.04167,39.86107],[-120.04176,39.86114],[-120.04181,39.86117],[-120.04188,39.86123],[-120.0419,39.86127],[-120.04194,39.86134],[-120.04196,39.86142],[-120.04194,39.8617],[-120.04196,39.86182],[-120.04198,39.86192],[-120.04203,39.86204],[-120.04215,39.86223],[-120.04224,39.86236],[-120.04237,39.86248],[-120.04274,39.86277],[-120.04329,39.86332],[-120.04341,39.86345],[-120.04345,39.86351],[-120.04348,39.86361],[-120.04349,39.86373],[-120.04347,39.86395],[-120.04344,39.86412],[-120.04341,39.86425],[-120.04331,39.8651],[-120.04331,39.86529],[-120.04332,39.86554],[-120.04336,39.86594],[-120.04338,39.86604],[-120.04373,39.8671],[-120.0438,39.86732],[-120.04392,39.86754],[-120.04399,39.86763],[-120.04406,39.86769],[-120.04412,39.86773],[-120.04418,39.86776],[-120.04425,39.8678],[-120.04433,39.86782],[-120.0444,39.86784],[-120.04448,39.86785],[-120.04456,39.86786],[-120.04614,39.86782],[-120.04709,39.86783],[-120.04761,39.86785],[-120.04827,39.8679],[-120.04848,39.86793],[-120.04854,39.86793],[-120.0487,39.86796]]}},{"type":"Feature","properties":{"name":"(unnamed public road)","road_class":"track","surface":"unpaved","source":"Caltrans All Roads + OpenStreetMap explicit surface","source_detail":"osm way 7894562; Caltrans All Roads public-network geometry match","source_tile":"170/388","public_network_source":"Caltrans All Roads (ARNOLD/HPMS)","surface_source":"OpenStreetMap explicit surface tag","caltrans_match_coverage":1.0,"verified_length_m":1594},"geometry":{"type":"LineString","coordinates":[[-120.08516,39.76235],[-120.08498,39.76236],[-120.08477,39.76236],[-120.08397,39.76235],[-120.08356,39.76234],[-120.08228,39.76232],[-120.08178,39.76232],[-120.08116,39.76231],[-120.08051,39.76229],[-120.08004,39.76227],[-120.0795,39.76227],[-120.07895,39.76226],[-120.07822,39.76225],[-120.07798,39.76225],[-120.07632,39.76221],[-120.07587,39.76222],[-120.07563,39.76221],[-120.07551,39.7622],[-120.07535,39.76219],[-120.07469,39.76218],[-120.07438,39.7622],[-120.07373,39.76218],[-120.07332,39.7622],[-120.07277,39.76221],[-120.07165,39.76221],[-120.07045,39.76224],[-120.06996,39.76223],[-120.06928,39.76224],[-120.06903,39.76226],[-120.06897,39.76227],[-120.06888,39.76231],[-120.06883,39.76236],[-120.06875,39.76244],[-120.06866,39.76259],[-120.06861,39.7627],[-120.06849,39.76294],[-120.06838,39.76306],[-120.06827,39.76317],[-120.06819,39.76327],[-120.06796,39.76345],[-120.06782,39.76359],[-120.06756,39.76376]]}},{"type":"Feature","properties":{"name":"Scott Road","road_class":"unclassified","surface":"unpaved","source":"Caltrans All Roads + OpenStreetMap explicit surface","source_detail":"osm way 7897783; Caltrans All Roads public-network geometry match","source_tile":"170/388","public_network_source":"Caltrans All Roads (ARNOLD/HPMS)","surface_source":"OpenStreetMap explicit surface tag","caltrans_match_coverage":1.0,"verified_length_m":8670},"geometry":{"type":"LineString","coordinates":[[-120.07706,39.78564],[-120.07706,39.78582],[-120.07685,39.78702],[-120.07674,39.78759],[-120.07667,39.78799],[-120.07664,39.78824],[-120.07659,39.78849],[-120.07654,39.78879],[-120.07645,39.78924],[-120.07613,39.791],[-120.07607,39.79138],[-120.07599,39.79178],[-120.07593,39.79206],[-120.07593,39.79209],[-120.07587,39.7925],[-120.07579,39.79288],[-120.07576,39.79305],[-120.07574,39.79318],[-120.07562,39.79381],[-120.07558,39.79405],[-120.07551,39.7945],[-120.07548,39.79472],[-120.07548,39.79491],[-120.07549,39.79524],[-120.07559,39.79597],[-120.0756,39.79612],[-120.07562,39.79653],[-120.07568,39.79696],[-120.07578,39.79849],[-120.07589,39.79941],[-120.07604,39.80023],[-120.07622,39.80093],[-120.07628,39.80119],[-120.07629,39.80129],[-120.07641,39.80175],[-120.0765,39.80206],[-120.07661,39.80227],[-120.07671,39.80241],[-120.07688,39.80269],[-120.07705,39.803],[-120.07715,39.80331],[-120.0772,39.80356],[-120.07723,39.80385],[-120.0772,39.8041],[-120.07722,39.80439],[-120.07726,39.80455],[-120.07733,39.8048],[-120.0774,39.805],[-120.07751,39.80524],[-120.078,39.80621],[-120.07822,39.80666],[-120.07841,39.8071],[-120.07869,39.80777],[-120.07887,39.80817],[-120.07903,39.80856],[-120.07918,39.80899],[-120.07931,39.80938],[-120.07939,39.80965],[-120.07947,39.80986],[-120.07969,39.8106],[-120.07992,39.81149],[-120.08026,39.81286],[-120.08039,39.81329],[-120.0807,39.81457],[-120.08086,39.81522],[-120.0812,39.81649],[-120.08135,39.81717],[-120.08154,39.81784],[-120.08175,39.81848],[-120.08221,39.81974],[-120.08249,39.82043],[-120.08282,39.82114],[-120.08313,39.82184],[-120.08337,39.82245],[-120.08385,39.82362],[-120.08419,39.8244],[-120.08446,39.82506],[-120.08459,39.82541],[-120.08467,39.82564],[-120.08474,39.82585],[-120.08481,39.82612],[-120.08487,39.82636],[-120.08496,39.82673],[-120.08516,39.82735],[-120.08534,39.82787],[-120.08561,39.82853],[-120.08578,39.82893],[-120.08622,39.82985],[-120.08643,39.83032],[-120.08651,39.8305],[-120.08666,39.83085],[-120.0873,39.83225],[-120.08736,39.83241],[-120.08753,39.833],[-120.08755,39.83315],[-120.08757,39.83341],[-120.08758,39.83367],[-120.08753,39.83434],[-120.08748,39.835],[-120.08738,39.83602],[-120.08737,39.83615],[-120.08745,39.83644],[-120.08747,39.83659],[-120.08748,39.83669],[-120.08746,39.83681],[-120.08741,39.83696],[-120.08737,39.83706],[-120.08734,39.83714],[-120.08726,39.83754],[-120.08721,39.83778],[-120.08714,39.83803],[-120.08712,39.83808],[-120.08711,39.83812],[-120.08692,39.83848],[-120.08675,39.83883],[-120.08583,39.84058],[-120.0855,39.84124],[-120.08524,39.84171],[-120.0852,39.84182],[-120.08518,39.8419],[-120.08518,39.84204],[-120.08521,39.84251],[-120.08528,39.84338],[-120.0853,39.84433],[-120.08527,39.84522],[-120.08529,39.84533],[-120.08531,39.84538],[-120.08535,39.84542],[-120.08539,39.84546],[-120.08545,39.84548],[-120.08551,39.8455],[-120.08557,39.84551],[-120.08658,39.84545],[-120.0869,39.84545],[-120.08807,39.84549],[-120.08894,39.84549],[-120.08911,39.84548],[-120.08961,39.84544],[-120.08979,39.84542],[-120.08998,39.84539],[-120.09022,39.84534],[-120.09026,39.84538],[-120.09028,39.84542],[-120.0903,39.84546],[-120.09031,39.84549],[-120.09032,39.84555],[-120.09033,39.84585],[-120.09034,39.84592],[-120.09038,39.84605],[-120.09045,39.8462],[-120.09047,39.84624],[-120.09069,39.84673],[-120.09095,39.84722],[-120.09098,39.84729],[-120.09099,39.84738],[-120.09101,39.84754],[-120.091,39.84773],[-120.09098,39.84811],[-120.09097,39.84831],[-120.09099,39.84844],[-120.091,39.84856],[-120.09104,39.84866],[-120.09106,39.84875],[-120.09106,39.84883],[-120.09103,39.84896],[-120.09041,39.85066],[-120.09036,39.85083],[-120.09031,39.85097],[-120.0903,39.85106],[-120.0903,39.85115],[-120.0903,39.85127],[-120.09034,39.85138],[-120.09043,39.85161],[-120.09049,39.85177],[-120.09054,39.85187],[-120.09058,39.85198],[-120.0906,39.85204],[-120.09061,39.85217],[-120.09062,39.85236],[-120.09064,39.8534],[-120.09066,39.85382],[-120.09067,39.85399],[-120.09067,39.85402],[-120.09068,39.85427],[-120.09069,39.85435],[-120.09071,39.85447],[-120.09076,39.85464],[-120.09081,39.85474],[-120.09086,39.85482],[-120.09091,39.85488],[-120.09099,39.85492],[-120.09107,39.85496],[-120.09117,39.85498],[-120.09158,39.85506],[-120.09166,39.85509],[-120.09175,39.85512],[-120.09181,39.85518],[-120.09186,39.85524],[-120.09187,39.85526],[-120.0919,39.85532],[-120.09192,39.85547],[-120.09194,39.85554],[-120.09195,39.85557],[-120.09197,39.85559],[-120.09202,39.85564],[-120.09208,39.85568],[-120.09217,39.85571],[-120.09226,39.85572],[-120.09244,39.85572],[-120.09252,39.85569],[-120.09255,39.8557],[-120.09261,39.8557],[-120.09269,39.85571],[-120.09288,39.85575],[-120.09301,39.85576],[-120.09314,39.85574],[-120.09323,39.85572],[-120.09342,39.85571],[-120.09355,39.85569],[-120.09365,39.85566],[-120.09376,39.85562],[-120.09391,39.85554],[-120.09406,39.85546],[-120.09439,39.85531],[-120.09442,39.85531],[-120.09444,39.85532]]}},{"type":"Feature","properties":{"name":"(unnamed public road)","road_class":"unclassified","surface":"unpaved","source":"Caltrans All Roads + OpenStreetMap explicit surface","source_detail":"osm way 7912911; Caltrans All Roads public-network geometry match","source_tile":"170/388","public_network_source":"Caltrans All Roads (ARNOLD/HPMS)","surface_source":"OpenStreetMap explicit surface tag","caltrans_match_coverage":1.0,"verified_length_m":603},"geometry":{"type":"LineString","coordinates":[[-120.05799,39.73739],[-120.05831,39.73738],[-120.05853,39.73737],[-120.059,39.73737],[-120.0594,39.73735],[-120.06021,39.73731],[-120.06082,39.73728],[-120.06122,39.73727],[-120.06144,39.73725],[-120.06165,39.73725],[-120.06198,39.73724],[-120.06234,39.73722],[-120.06281,39.7372],[-120.0632,39.73718],[-120.0635,39.73718],[-120.06386,39.73718],[-120.06416,39.73717],[-120.06437,39.7371],[-120.06478,39.73709],[-120.06483,39.73709],[-120.06488,39.7371],[-120.06493,39.73712],[-120.06497,39.73716]]}},{"type":"Feature","properties":{"name":"Phillips Road","road_class":"track","surface":"unpaved","source":"Caltrans All Roads + OpenStreetMap explicit surface","source_detail":"osm way 7917821; Caltrans All Roads public-network geometry match","source_tile":"170/388","public_network_source":"Caltrans All Roads (ARNOLD/HPMS)","surface_source":"OpenStreetMap explicit surface tag","caltrans_match_coverage":1.0,"verified_length_m":2771},"geometry":{"type":"LineString","coordinates":[[-120.08899,39.79117],[-120.08901,39.79123],[-120.08899,39.79147],[-120.08901,39.79177],[-120.08904,39.79222],[-120.08908,39.79249],[-120.08909,39.79266],[-120.08911,39.79351],[-120.08914,39.79455],[-120.08914,39.79465],[-120.08912,39.79534],[-120.08911,39.7956],[-120.08911,39.79577],[-120.08913,39.79589],[-120.08915,39.79615],[-120.08914,39.79623],[-120.08912,39.79633],[-120.08909,39.79642],[-120.08905,39.7965],[-120.089,39.79655],[-120.08896,39.7966],[-120.08891,39.79664],[-120.08887,39.79675],[-120.08887,39.79681],[-120.08889,39.79688],[-120.08891,39.7969],[-120.08894,39.79694],[-120.08898,39.79696],[-120.08901,39.79697],[-120.08906,39.797],[-120.08909,39.79704],[-120.0891,39.79706],[-120.08911,39.79711],[-120.08912,39.79722],[-120.08912,39.79727],[-120.08912,39.79729],[-120.08915,39.79733],[-120.08917,39.79734],[-120.08923,39.79736],[-120.08925,39.79737],[-120.08926,39.79738],[-120.08926,39.7974],[-120.08921,39.79748],[-120.0892,39.79751],[-120.08919,39.79756],[-120.08918,39.79762],[-120.08918,39.79767],[-120.08921,39.79788],[-120.08923,39.79805],[-120.08923,39.79816],[-120.08925,39.79842],[-120.08927,39.79872],[-120.08928,39.79893],[-120.08926,39.79938],[-120.08926,39.80004],[-120.08927,39.80042],[-120.08926,39.80074],[-120.08929,39.80143],[-120.08928,39.80182],[-120.0893,39.80277],[-120.08929,39.80324],[-120.0893,39.80462],[-120.0893,39.80496],[-120.08932,39.80703],[-120.08933,39.80755],[-120.08932,39.80814],[-120.08933,39.80832],[-120.08936,39.80885],[-120.08935,39.80928],[-120.08936,39.80967],[-120.08935,39.81001],[-120.08934,39.81048],[-120.08937,39.81145],[-120.08935,39.81204],[-120.08938,39.81236],[-120.08938,39.81265],[-120.08937,39.81307],[-120.08936,39.81347],[-120.08937,39.81374],[-120.08936,39.81418],[-120.08935,39.81446],[-120.08929,39.81517],[-120.08927,39.8154],[-120.08926,39.81589],[-120.08925,39.81603]]}},{"type":"Feature","properties":{"name":"Conkey Lane","road_class":"track","surface":"unpaved","source":"Caltrans All Roads + OpenStreetMap explicit surface","source_detail":"osm way 7920033; Caltrans All Roads public-network geometry match","source_tile":"170/388","public_network_source":"Caltrans All Roads (ARNOLD/HPMS)","surface_source":"OpenStreetMap explicit surface tag","caltrans_match_coverage":1.0,"verified_length_m":1197},"geometry":{"type":"LineString","coordinates":[[-120.09054,39.75477],[-120.09031,39.75487],[-120.08982,39.75512],[-120.08933,39.75542],[-120.08904,39.75561],[-120.08889,39.75569],[-120.08865,39.75583],[-120.08827,39.75602],[-120.08779,39.75625],[-120.08756,39.75635],[-120.08749,39.7564],[-120.08745,39.75643],[-120.08741,39.75647],[-120.08734,39.75657],[-120.08716,39.75687],[-120.08715,39.75691],[-120.08688,39.75774],[-120.08678,39.75802],[-120.08671,39.75817],[-120.08641,39.75878],[-120.08633,39.75894],[-120.08627,39.75908],[-120.08619,39.75933],[-120.0861,39.7597],[-120.08604,39.75998],[-120.08601,39.7602],[-120.08599,39.76027],[-120.08599,39.76033],[-120.08596,39.7605],[-120.08592,39.76061],[-120.08582,39.76078],[-120.08563,39.76105],[-120.08548,39.76124],[-120.08539,39.76138],[-120.08534,39.7615],[-120.08522,39.76186],[-120.08517,39.76207],[-120.08515,39.76225],[-120.08516,39.76235],[-120.0853,39.76295],[-120.08532,39.76306],[-120.08537,39.76319],[-120.08541,39.7633],[-120.08545,39.76338],[-120.08548,39.76341],[-120.08553,39.76345],[-120.08558,39.76346],[-120.0857,39.76348],[-120.08581,39.76349],[-120.0862,39.76355]]}},{"type":"Feature","properties":{"name":"(unnamed public road)","road_class":"track","surface":"grass","tracktype":"grade5","source":"Caltrans All Roads + OpenStreetMap explicit surface","source_detail":"osm way 10581485; Caltrans All Roads public-network geometry match","source_tile":"170/388","public_network_source":"Caltrans All Roads (ARNOLD/HPMS)","surface_source":"OpenStreetMap explicit surface tag","caltrans_match_coverage":0.919,"verified_length_m":4590},"geometry":{"type":"LineString","coordinates":[[-120.03408,39.7087],[-120.03372,39.7076],[-120.03297,39.70525],[-120.03295,39.70517],[-120.03282,39.7048],[-120.03276,39.70458],[-120.03255,39.70409],[-120.03252,39.70405],[-120.03248,39.704],[-120.03244,39.70397],[-120.03226,39.7039],[-120.03212,39.70383],[-120.03182,39.70365],[-120.03177,39.70361],[-120.03135,39.70313],[-120.03123,39.703],[-120.03118,39.70295],[-120.03112,39.7029],[-120.03101,39.70284],[-120.03092,39.70279],[-120.03085,39.70276],[-120.03079,39.70273],[-120.03076,39.7027],[-120.03075,39.70267],[-120.03074,39.70261],[-120.03074,39.70233],[-120.03074,39.7022],[-120.03072,39.70212],[-120.03069,39.70199],[-120.03067,39.70183],[-120.0305,39.70118],[-120.03035,39.70068],[-120.03033,39.70063],[-120.03021,39.70049],[-120.02959,39.69986],[-120.0293,39.69962],[-120.02913,39.69944],[-120.02884,39.69917],[-120.02863,39.699],[-120.02851,39.69892],[-120.0284,39.69886],[-120.02833,39.69881],[-120.02827,39.69875],[-120.02817,39.69866],[-120.02804,39.69854],[-120.02796,39.69848],[-120.02749,39.69819],[-120.02713,39.69797],[-120.02681,39.69776],[-120.0264,39.6975],[-120.02632,39.69745],[-120.02623,39.69738],[-120.02546,39.69693],[-120.02493,39.6966],[-120.02462,39.69641],[-120.02377,39.69591],[-120.02338,39.69565],[-120.02333,39.69562],[-120.02326,39.69557],[-120.02315,39.69552],[-120.02269,39.69525],[-120.02253,39.69515],[-120.02243,39.69509],[-120.02184,39.69475],[-120.02128,39.69438],[-120.02071,39.69403],[-120.02012,39.69368],[-120.01938,39.69323],[-120.01891,39.69295],[-120.01869,39.69283],[-120.01856,39.69275],[-120.01844,39.69266],[-120.0181,39.69246],[-120.01774,39.69225],[-120.01769,39.69221],[-120.01764,39.69219],[-120.01755,39.69217],[-120.01735,39.69213],[-120.01707,39.6921],[-120.01697,39.69208],[-120.0169,39.69205],[-120.01683,39.69201],[-120.01673,39.69194],[-120.01611,39.69155],[-120.01584,39.69137],[-120.01535,39.69101],[-120.01516,39.69088],[-120.01486,39.69065],[-120.01435,39.69024],[-120.01415,39.69008],[-120.01389,39.68986],[-120.01369,39.68965],[-120.01324,39.68923],[-120.01303,39.68904],[-120.01269,39.68868],[-120.01225,39.6882],[-120.01199,39.68788],[-120.01189,39.68778],[-120.01178,39.68766],[-120.01164,39.68752],[-120.01158,39.68744],[-120.01147,39.68729],[-120.0114,39.6872],[-120.01114,39.68688],[-120.01111,39.68684],[-120.01081,39.6865],[-120.01075,39.68641],[-120.0107,39.68634],[-120.01061,39.68626],[-120.01044,39.68608],[-120.01036,39.68599],[-120.01012,39.68568],[-120.01003,39.68558],[-120.00987,39.68535],[-120.0098,39.68529],[-120.00972,39.68523],[-120.00964,39.68516],[-120.00954,39.68505],[-120.00936,39.68483],[-120.0091,39.68446],[-120.00896,39.68421],[-120.00878,39.68393],[-120.00867,39.6838],[-120.00859,39.68368],[-120.00847,39.68349],[-120.00835,39.68327],[-120.0081,39.68283],[-120.008,39.68271],[-120.00793,39.68263],[-120.0079,39.68261],[-120.00768,39.68233],[-120.00749,39.68211],[-120.00709,39.68164],[-120.00705,39.68159],[-120.00681,39.68132],[-120.00649,39.68094],[-120.00628,39.6807],[-120.0061,39.68052],[-120.00579,39.68019],[-120.00565,39.68005],[-120.00552,39.67991],[-120.00536,39.67974],[-120.00512,39.67949],[-120.00481,39.67918],[-120.00467,39.67903],[-120.00447,39.67883],[-120.00428,39.67863],[-120.00414,39.67849],[-120.00402,39.67835],[-120.00391,39.67824],[-120.00376,39.67808],[-120.00357,39.67789],[-120.00335,39.67767],[-120.00319,39.67749],[-120.00303,39.67733],[-120.00279,39.67708],[-120.00255,39.67684],[-120.00251,39.6768],[-120.00248,39.67677]]}},{"type":"Feature","properties":{"name":"Evans Ranch Road","road_class":"unclassified","surface":"fine_gravel","access":"permissive","source":"Caltrans All Roads + OpenStreetMap explicit surface","source_detail":"osm way 10581760; Caltrans All Roads public-network geometry match","source_tile":"170/388","public_network_source":"Caltrans All Roads (ARNOLD/HPMS)","surface_source":"OpenStreetMap explicit surface tag","caltrans_match_coverage":1.0,"verified_length_m":1192},"geometry":{"type":"LineString","coordinates":[[-120.02152,39.69232],[-120.02179,39.69242],[-120.022,39.69251],[-120.0224,39.69269],[-120.02259,39.69279],[-120.02331,39.69317],[-120.02372,39.69339],[-120.02415,39.69361],[-120.02478,39.6939],[-120.02517,39.69408],[-120.02546,39.6942],[-120.02567,39.69429],[-120.02617,39.69445],[-120.02656,39.6946],[-120.02686,39.69474],[-120.02731,39.69498],[-120.02777,39.69521],[-120.02986,39.69622],[-120.03004,39.69633],[-120.03015,39.69642],[-120.03028,39.69654],[-120.03065,39.69697],[-120.03071,39.69702],[-120.03099,39.69732],[-120.03123,39.69764],[-120.03139,39.69782],[-120.03151,39.69799],[-120.03155,39.69807],[-120.03155,39.69813],[-120.03153,39.69818],[-120.03144,39.69825],[-120.03071,39.69872]]}},{"type":"Feature","properties":{"name":"(unnamed public road)","road_class":"unclassified","surface":"ground","access":"permissive","source":"Caltrans All Roads + OpenStreetMap explicit surface","source_detail":"osm way 10584986; Caltrans All Roads public-network geometry match","source_tile":"170/389","public_network_source":"Caltrans All Roads (ARNOLD/HPMS)","surface_source":"OpenStreetMap explicit surface tag","caltrans_match_coverage":1.0,"verified_length_m":3603},"geometry":{"type":"LineString","coordinates":[[-120.00546,39.63768],[-120.00531,39.63777],[-120.00523,39.63783],[-120.00514,39.63793],[-120.00485,39.63833],[-120.00467,39.63861],[-120.00441,39.63902],[-120.00422,39.63937],[-120.00399,39.63987],[-120.00343,39.64106],[-120.00281,39.64237],[-120.00261,39.64277],[-120.00237,39.6432],[-120.00215,39.64363],[-120.00193,39.64406],[-120.00165,39.64471],[-120.00156,39.64491],[-120.0015,39.64506],[-120.00148,39.64517],[-120.00147,39.64531],[-120.00149,39.64545],[-120.00152,39.64566],[-120.00158,39.64591],[-120.00164,39.64621],[-120.00179,39.64689],[-120.00183,39.64712],[-120.00193,39.64781],[-120.00198,39.64811],[-120.00211,39.64871],[-120.00243,39.65033],[-120.00254,39.65089],[-120.00259,39.65118],[-120.00262,39.65143],[-120.00265,39.65174],[-120.00296,39.65498],[-120.00299,39.65527],[-120.00304,39.65564],[-120.0031,39.65605],[-120.00318,39.65661],[-120.0033,39.65735],[-120.00338,39.65783],[-120.00343,39.65817],[-120.00348,39.65845],[-120.00353,39.65873],[-120.00358,39.65904],[-120.0036,39.65925],[-120.00361,39.65944],[-120.0036,39.65962],[-120.00357,39.65975],[-120.00353,39.6599],[-120.00348,39.66005],[-120.00341,39.66021],[-120.0018,39.66336],[-120.00158,39.66377],[-120.00151,39.66392],[-120.00145,39.66409],[-120.00141,39.66423],[-120.00138,39.66438],[-120.00137,39.66452],[-120.00136,39.66467],[-120.00139,39.66573],[-120.00145,39.66863],[-120.00145,39.66879],[-120.00145,39.66895],[-120.00146,39.66906],[-120.00147,39.66914],[-120.00149,39.6692]]}},{"type":"Feature","properties":{"name":"Dodge Road","road_class":"track","surface":"ground","tracktype":"grade4","motor_vehicle":"designated","source":"Caltrans All Roads + OpenStreetMap explicit surface","source_detail":"osm way 10585433; Caltrans All Roads public-network geometry match","source_tile":"170/389","public_network_source":"Caltrans All Roads (ARNOLD/HPMS)","surface_source":"OpenStreetMap explicit surface tag","caltrans_match_coverage":0.99,"verified_length_m":4213},"geometry":{"type":"LineString","coordinates":[[-120.18127,39.62845],[-120.18106,39.62858],[-120.18095,39.62866],[-120.18078,39.6288],[-120.18062,39.62893],[-120.18057,39.629],[-120.18053,39.62907],[-120.18052,39.62915],[-120.18052,39.62934],[-120.18051,39.62941],[-120.18048,39.62946],[-120.18044,39.6295],[-120.18037,39.62954],[-120.18012,39.62963],[-120.17997,39.62967],[-120.1798,39.62971],[-120.17968,39.62972],[-120.17958,39.62973],[-120.17947,39.62975],[-120.1794,39.62977],[-120.1793,39.62983],[-120.17921,39.62988],[-120.17916,39.62992],[-120.17913,39.62996],[-120.17909,39.63002],[-120.17902,39.63009],[-120.17891,39.63017],[-120.1787,39.63036],[-120.17848,39.63055],[-120.17828,39.63072],[-120.17808,39.63093],[-120.17792,39.6311],[-120.17783,39.63118],[-120.17772,39.63125],[-120.17759,39.63134],[-120.17753,39.63139],[-120.17747,39.63147],[-120.17742,39.63153],[-120.17733,39.63162],[-120.1771,39.63184],[-120.17685,39.6321],[-120.17671,39.63224],[-120.17665,39.6323],[-120.17661,39.63237],[-120.17657,39.63243],[-120.1765,39.63248],[-120.17644,39.63254],[-120.17637,39.63264],[-120.17611,39.633],[-120.17588,39.63329],[-120.17573,39.63352],[-120.17563,39.63369],[-120.17558,39.63377],[-120.17554,39.63384],[-120.1755,39.63393],[-120.17546,39.63402],[-120.1754,39.63411],[-120.17529,39.63428],[-120.17515,39.63448],[-120.17504,39.63465],[-120.17495,39.63478],[-120.17489,39.63489],[-120.17482,39.63497],[-120.17474,39.63507],[-120.17464,39.63515],[-120.17455,39.63521],[-120.17438,39.63531],[-120.17422,39.63541],[-120.17404,39.63551],[-120.17397,39.63556],[-120.17392,39.6356],[-120.17384,39.63566],[-120.17375,39.63571],[-120.17356,39.63581],[-120.17342,39.63587],[-120.17333,39.6359],[-120.17327,39.63593],[-120.17323,39.63597],[-120.17318,39.63601],[-120.1731,39.63604],[-120.17299,39.63607],[-120.17272,39.63618],[-120.17263,39.63622],[-120.17254,39.63627],[-120.17244,39.63634],[-120.17235,39.63642],[-120.1723,39.63651],[-120.17224,39.6366],[-120.1722,39.63664],[-120.17214,39.6367],[-120.17196,39.6369],[-120.17188,39.63696],[-120.17178,39.63708],[-120.17174,39.63712],[-120.17172,39.63717],[-120.17171,39.63723],[-120.1717,39.63726],[-120.17167,39.63728],[-120.17165,39.63728],[-120.1716,39.63728],[-120.17157,39.63729],[-120.17154,39.63732],[-120.17147,39.63739],[-120.17143,39.63743],[-120.17135,39.63749],[-120.17124,39.63756],[-120.17119,39.6376],[-120.17113,39.63766],[-120.17104,39.63774],[-120.17092,39.63785],[-120.17077,39.63796],[-120.1706,39.63809],[-120.17035,39.63826],[-120.17015,39.63839],[-120.1701,39.63844],[-120.17004,39.63851],[-120.16991,39.6386],[-120.16974,39.63874],[-120.16953,39.6389],[-120.16934,39.63902],[-120.16911,39.63916],[-120.16887,39.63929],[-120.16869,39.63939],[-120.16848,39.63949],[-120.16833,39.63956],[-120.16824,39.63962],[-120.16815,39.63969],[-120.16805,39.63975],[-120.16794,39.6398],[-120.16754,39.63994],[-120.16739,39.63999],[-120.16715,39.64004],[-120.16681,39.64011],[-120.16653,39.64015],[-120.16634,39.64017],[-120.16615,39.64019],[-120.16604,39.64021],[-120.16595,39.64023],[-120.1659,39.64024],[-120.16582,39.64024],[-120.16575,39.64024],[-120.16567,39.64025],[-120.16557,39.64027],[-120.16548,39.64028],[-120.16539,39.64028],[-120.16523,39.64027],[-120.16511,39.64028],[-120.16498,39.64029],[-120.16487,39.64031],[-120.16477,39.64033],[-120.16466,39.64038],[-120.16453,39.64042],[-120.16446,39.64043],[-120.16438,39.64045],[-120.16433,39.64047],[-120.16432,39.6405],[-120.16433,39.64054],[-120.16438,39.64062],[-120.1644,39.64067],[-120.1644,39.64072],[-120.16438,39.64077],[-120.16433,39.64083],[-120.16424,39.6409],[-120.16412,39.64099],[-120.16405,39.64106],[-120.16399,39.64113],[-120.16394,39.64118],[-120.16386,39.64123],[-120.16373,39.64129],[-120.16362,39.64137],[-120.16353,39.64144],[-120.16316,39.64182],[-120.16303,39.64197],[-120.16296,39.64206],[-120.16293,39.64211],[-120.1629,39.64218],[-120.16286,39.64226],[-120.16279,39.64237],[-120.16272,39.64249],[-120.16266,39.6426],[-120.1626,39.64271],[-120.16252,39.64281],[-120.16241,39.64292],[-120.16234,39.643],[-120.16229,39.64307],[-120.16224,39.64316],[-120.16218,39.64329],[-120.16211,39.64339],[-120.16203,39.6435],[-120.16194,39.64357],[-120.1618,39.64372],[-120.16168,39.64382],[-120.16157,39.64389],[-120.16143,39.64396],[-120.16127,39.64404],[-120.16075,39.64425],[-120.16041,39.6444],[-120.16032,39.64445],[-120.16025,39.6445],[-120.16017,39.64456],[-120.16007,39.64462],[-120.15998,39.64468],[-120.15992,39.64473],[-120.15987,39.64479],[-120.1598,39.64488],[-120.15974,39.645],[-120.15969,39.64509],[-120.15963,39.64518],[-120.15957,39.64527],[-120.15948,39.64535],[-120.15934,39.64546],[-120.1592,39.64556],[-120.15903,39.64569],[-120.15889,39.64577],[-120.1588,39.64585],[-120.15854,39.64606],[-120.15842,39.64617],[-120.1583,39.64625],[-120.15818,39.64633],[-120.15787,39.64651],[-120.15776,39.64657],[-120.15771,39.64661],[-120.15766,39.64665],[-120.1576,39.6467],[-120.1575,39.64677],[-120.15729,39.64691],[-120.15721,39.64697],[-120.15711,39.64702],[-120.15698,39.64708],[-120.15687,39.64712],[-120.15675,39.64715],[-120.15669,39.64717],[-120.15665,39.64719],[-120.15661,39.64722],[-120.15655,39.64724],[-120.15647,39.64727],[-120.15634,39.64732],[-120.15626,39.64734],[-120.1562,39.64734],[-120.15612,39.64734],[-120.15587,39.64734],[-120.15574,39.64734],[-120.15559,39.64735],[-120.15522,39.64738],[-120.15453,39.64744],[-120.15425,39.64746],[-120.15415,39.64747],[-120.15407,39.64748],[-120.15402,39.64749],[-120.15396,39.64753],[-120.15391,39.64755],[-120.15387,39.64756],[-120.15381,39.64755],[-120.15374,39.64754],[-120.15366,39.64751],[-120.15356,39.64745],[-120.15331,39.64731],[-120.15306,39.64718],[-120.15265,39.64696],[-120.15258,39.64692],[-120.15251,39.64687],[-120.1524,39.64678],[-120.15233,39.64674],[-120.15224,39.6467],[-120.15213,39.64666],[-120.15201,39.64663],[-120.1519,39.64661],[-120.15158,39.64658],[-120.15146,39.64658],[-120.15138,39.64658],[-120.15124,39.64662],[-120.15105,39.64666],[-120.15083,39.6467],[-120.15071,39.64673],[-120.15061,39.64675],[-120.15055,39.64675],[-120.15048,39.64677],[-120.1504,39.64679],[-120.15031,39.6468],[-120.15021,39.64681],[-120.15,39.64683],[-120.14954,39.64689],[-120.14946,39.6469],[-120.14938,39.64693],[-120.14932,39.64696],[-120.14923,39.64699],[-120.14914,39.647],[-120.14906,39.647],[-120.14898,39.64699],[-120.1489,39.64696],[-120.14886,39.64693],[-120.14883,39.64688],[-120.14882,39.64683],[-120.14882,39.64677],[-120.14883,39.64673],[-120.1489,39.64667],[-120.14897,39.64663],[-120.14912,39.64655],[-120.14927,39.64648],[-120.1494,39.6464],[-120.14953,39.64631],[-120.14968,39.64621],[-120.14977,39.64612],[-120.14986,39.64603],[-120.14994,39.64596],[-120.14999,39.64589],[-120.15006,39.64579],[-120.15011,39.64568],[-120.15015,39.64561],[-120.15021,39.64555],[-120.15026,39.6455],[-120.15033,39.64546],[-120.15039,39.64544],[-120.15049,39.64541],[-120.15068,39.64538],[-120.15074,39.64536],[-120.15078,39.64534],[-120.15081,39.64529],[-120.15085,39.64524],[-120.15087,39.64518],[-120.15087,39.6451],[-120.15086,39.64504],[-120.15085,39.64499],[-120.15082,39.64494],[-120.1508,39.6449],[-120.15079,39.64486],[-120.15077,39.64478],[-120.15074,39.64474],[-120.15071,39.64471],[-120.15062,39.64466],[-120.1506,39.64464],[-120.15059,39.64461],[-120.1506,39.64458],[-120.15065,39.64452],[-120.15068,39.64447],[-120.1507,39.64443],[-120.1507,39.64438],[-120.15068,39.6443],[-120.15066,39.64423]]}},{"type":"Feature","properties":{"name":"Long Valley Road","road_class":"unclassified","surface":"fine_gravel","source":"Caltrans All Roads + OpenStreetMap explicit surface","source_detail":"osm way 347355581; Caltrans All Roads public-network geometry match","source_tile":"170/389","public_network_source":"Caltrans All Roads (ARNOLD/HPMS)","surface_source":"OpenStreetMap explicit surface tag","caltrans_match_coverage":1.0,"verified_length_m":4618},"geometry":{"type":"LineString","coordinates":[[-120.00592,39.63734],[-120.00581,39.63739],[-120.00572,39.63746],[-120.00561,39.63753],[-120.00552,39.63761],[-120.00546,39.63768],[-120.00542,39.63782],[-120.0054,39.63794],[-120.0054,39.63808],[-120.00544,39.63873],[-120.00545,39.63897],[-120.00546,39.6391],[-120.00551,39.63928],[-120.00559,39.63954],[-120.00566,39.63971],[-120.00581,39.64002],[-120.0059,39.64024],[-120.00608,39.64064],[-120.00651,39.64176],[-120.00656,39.64193],[-120.00659,39.64204],[-120.00661,39.64214],[-120.0066,39.64222],[-120.00656,39.64233],[-120.00648,39.64246],[-120.00623,39.6429],[-120.00615,39.64307],[-120.00609,39.64322],[-120.00607,39.64332],[-120.00607,39.64344],[-120.00609,39.64357],[-120.00614,39.6437],[-120.00622,39.64382],[-120.00631,39.64393],[-120.00642,39.64405],[-120.00661,39.64427],[-120.00673,39.64443],[-120.00684,39.64456],[-120.00686,39.64462],[-120.0069,39.64471],[-120.00695,39.64485],[-120.00695,39.64497],[-120.00696,39.64514],[-120.00694,39.64582],[-120.00695,39.64659],[-120.00701,39.64849],[-120.00702,39.64937],[-120.00701,39.64982],[-120.00702,39.64998],[-120.00703,39.65009],[-120.00707,39.6502],[-120.00713,39.65049],[-120.00716,39.65064],[-120.00718,39.65089],[-120.00723,39.65145],[-120.00725,39.65171],[-120.00726,39.65206],[-120.00726,39.65233],[-120.00725,39.65261],[-120.00723,39.65292],[-120.00723,39.65312],[-120.00725,39.65329],[-120.00728,39.65353],[-120.00732,39.65373],[-120.0074,39.65412],[-120.00743,39.65429],[-120.00744,39.65442],[-120.00743,39.65454],[-120.00741,39.65466],[-120.00736,39.65485],[-120.00726,39.65532],[-120.00721,39.65559],[-120.00716,39.65582],[-120.00709,39.65607],[-120.00701,39.65629],[-120.00695,39.65651],[-120.00692,39.65667],[-120.00691,39.65685],[-120.0069,39.65703],[-120.00689,39.65726],[-120.00686,39.65737],[-120.00683,39.65747],[-120.00677,39.65757],[-120.00664,39.65776],[-120.0066,39.65786],[-120.00657,39.65795],[-120.00657,39.65805],[-120.00656,39.65823],[-120.00655,39.65841],[-120.00651,39.65879],[-120.00647,39.65902],[-120.00641,39.65929],[-120.00635,39.65951],[-120.00634,39.65964],[-120.00634,39.65975],[-120.00635,39.65994],[-120.00635,39.6601],[-120.00634,39.6603],[-120.0063,39.66046],[-120.00623,39.66079],[-120.00616,39.66109],[-120.00611,39.66124],[-120.00605,39.66139],[-120.00597,39.66153],[-120.00585,39.66175],[-120.00556,39.6624],[-120.00541,39.66268],[-120.00528,39.66285],[-120.00461,39.66371],[-120.00428,39.66424],[-120.00394,39.66479],[-120.00376,39.66506],[-120.00354,39.66533],[-120.00329,39.66566],[-120.00306,39.66591],[-120.00281,39.66615],[-120.00263,39.66632],[-120.00252,39.66644],[-120.00244,39.66657],[-120.00237,39.66673],[-120.00179,39.66833],[-120.00165,39.66874],[-120.00158,39.66891],[-120.00153,39.66905],[-120.00149,39.6692],[-120.00148,39.66934],[-120.00147,39.66946],[-120.00146,39.6696],[-120.00144,39.66977],[-120.00141,39.66992],[-120.00136,39.67022],[-120.00135,39.67033],[-120.00136,39.67042],[-120.0014,39.67052],[-120.00147,39.67063],[-120.00156,39.67071],[-120.00168,39.67082],[-120.00185,39.67095],[-120.00199,39.67108],[-120.00212,39.6712],[-120.00237,39.67152],[-120.00249,39.6717],[-120.00256,39.67182],[-120.00271,39.67207],[-120.00283,39.67226],[-120.00309,39.67265],[-120.00359,39.67338],[-120.00409,39.67416],[-120.00442,39.67468],[-120.00467,39.67509],[-120.00481,39.67531],[-120.00498,39.67557],[-120.00516,39.67583],[-120.00537,39.67611],[-120.0055,39.67629],[-120.00558,39.67641],[-120.00563,39.67652],[-120.00563,39.6766],[-120.00561,39.67666],[-120.00559,39.6767]]}},{"type":"Feature","properties":{"name":"Bringman Road","road_class":"unclassified","surface":"unpaved","source":"Caltrans All Roads + OpenStreetMap explicit surface","source_detail":"osm way 377200344; Caltrans All Roads public-network geometry match","source_tile":"170/388","public_network_source":"Caltrans All Roads (ARNOLD/HPMS)","surface_source":"OpenStreetMap explicit surface tag","caltrans_match_coverage":1.0,"verified_length_m":969},"geometry":{"type":"LineString","coordinates":[[-120.05154,39.73738],[-120.05138,39.73744],[-120.05121,39.73749],[-120.0508,39.7376],[-120.05066,39.73761],[-120.05049,39.73762],[-120.05026,39.73763],[-120.04973,39.73763],[-120.04909,39.73763],[-120.04854,39.73764],[-120.04629,39.73764],[-120.04503,39.73766],[-120.04294,39.73769],[-120.04028,39.73774]]}},{"type":"Feature","properties":{"name":"Scott Road","road_class":"track","surface":"unpaved","source":"Caltrans All Roads + OpenStreetMap explicit surface","source_detail":"osm way 377200345; Caltrans All Roads public-network geometry match","source_tile":"170/388","public_network_source":"Caltrans All Roads (ARNOLD/HPMS)","surface_source":"OpenStreetMap explicit surface tag","caltrans_match_coverage":1.0,"verified_length_m":4996},"geometry":{"type":"LineString","coordinates":[[-120.03155,39.69813],[-120.03188,39.69847],[-120.03205,39.69868],[-120.03216,39.69885],[-120.03223,39.69898],[-120.03231,39.69911],[-120.03241,39.69932],[-120.03247,39.69948],[-120.03256,39.69975],[-120.0326,39.69988],[-120.03262,39.69999],[-120.03267,39.70012],[-120.03323,39.70126],[-120.03342,39.70173],[-120.03357,39.70205],[-120.0339,39.70293],[-120.03415,39.70353],[-120.03434,39.70391],[-120.03458,39.70436],[-120.03464,39.70448],[-120.03476,39.70467],[-120.0348,39.70475],[-120.03486,39.7049],[-120.03498,39.70509],[-120.03512,39.70526],[-120.03522,39.70538],[-120.03533,39.70557],[-120.03549,39.70582],[-120.03561,39.70603],[-120.03594,39.70646],[-120.03621,39.70682],[-120.0364,39.7071],[-120.03653,39.70726],[-120.03663,39.70742],[-120.03672,39.7076],[-120.03683,39.70775],[-120.03696,39.70794],[-120.03706,39.70807],[-120.03713,39.70818],[-120.03742,39.7087],[-120.03754,39.70891],[-120.0379,39.70941],[-120.03813,39.70966],[-120.03863,39.71019],[-120.03901,39.71068],[-120.03911,39.71082],[-120.03922,39.71091],[-120.03942,39.71115],[-120.03985,39.71162],[-120.04003,39.71178],[-120.0401,39.71184],[-120.0403,39.71198],[-120.04047,39.71209],[-120.04069,39.7124],[-120.04081,39.71258],[-120.04085,39.71275],[-120.04086,39.71295],[-120.04085,39.71309],[-120.04084,39.71315],[-120.04085,39.71327],[-120.04088,39.71345],[-120.04088,39.71359],[-120.04092,39.71388],[-120.04094,39.71409],[-120.041,39.71453],[-120.04103,39.71486],[-120.04106,39.71586],[-120.04104,39.71618],[-120.04104,39.71639],[-120.04106,39.71652],[-120.04105,39.71666],[-120.04105,39.71678],[-120.04102,39.71718],[-120.041,39.71736],[-120.04098,39.71748],[-120.04095,39.71759],[-120.04091,39.71769],[-120.0409,39.7178],[-120.04086,39.71789],[-120.04085,39.71809],[-120.04083,39.71824],[-120.0408,39.71835],[-120.04077,39.71845],[-120.04072,39.71854],[-120.04049,39.71892],[-120.04038,39.71912],[-120.04026,39.71928],[-120.04016,39.71944],[-120.04007,39.71958],[-120.03995,39.71976],[-120.03987,39.71988],[-120.03978,39.71999],[-120.03964,39.72015],[-120.03942,39.72043],[-120.03936,39.72052],[-120.03933,39.72061],[-120.03933,39.7207],[-120.03934,39.7208],[-120.03937,39.72093],[-120.0394,39.72106],[-120.03949,39.72133],[-120.03959,39.72165],[-120.03965,39.72178],[-120.03969,39.72192],[-120.0397,39.72204],[-120.0397,39.72212],[-120.03969,39.72218],[-120.03957,39.72252],[-120.03953,39.72265],[-120.03948,39.72293],[-120.03948,39.72304],[-120.03948,39.72317],[-120.03955,39.72359],[-120.03959,39.72371],[-120.03964,39.72383],[-120.03966,39.72392],[-120.03968,39.72409],[-120.03968,39.72422],[-120.0397,39.72426],[-120.03974,39.72436],[-120.0398,39.72446],[-120.03987,39.72463],[-120.03994,39.72481],[-120.04002,39.72509],[-120.04016,39.72552],[-120.04058,39.72692],[-120.04068,39.72732],[-120.0408,39.72764],[-120.04087,39.72794],[-120.04104,39.72839],[-120.0411,39.72855],[-120.04135,39.72932],[-120.04144,39.72961],[-120.04156,39.72991],[-120.04162,39.73004],[-120.04165,39.73013],[-120.04178,39.73036],[-120.04191,39.73056],[-120.04208,39.73089],[-120.04273,39.73149],[-120.04297,39.73172],[-120.04322,39.73193],[-120.04343,39.7321],[-120.04363,39.73233],[-120.04398,39.73264],[-120.04454,39.73318],[-120.04474,39.73335],[-120.04528,39.73377],[-120.04579,39.73406],[-120.04595,39.73416],[-120.04612,39.7343],[-120.0463,39.73448],[-120.04655,39.73465],[-120.04679,39.73479],[-120.04761,39.73526],[-120.04806,39.73553],[-120.04884,39.73601],[-120.04909,39.73618],[-120.04969,39.73656],[-120.05017,39.73684],[-120.05046,39.737],[-120.05054,39.73705],[-120.05059,39.7371],[-120.05063,39.73716],[-120.0507,39.73725],[-120.05076,39.73727],[-120.05088,39.73729],[-120.05093,39.73729],[-120.05116,39.73728],[-120.05126,39.73729],[-120.05138,39.73732],[-120.05154,39.73738]]}},{"type":"Feature","properties":{"name":"Scott Road","road_class":"unclassified","surface":"unpaved","source":"Caltrans All Roads + OpenStreetMap explicit surface","source_detail":"osm way 377283352; Caltrans All Roads public-network geometry match","source_tile":"170/388","public_network_source":"Caltrans All Roads (ARNOLD/HPMS)","surface_source":"OpenStreetMap explicit surface tag","caltrans_match_coverage":0.971,"verified_length_m":5378},"geometry":{"type":"LineString","coordinates":[[-120.05715,39.73743],[-120.05754,39.73741],[-120.05799,39.73739],[-120.05802,39.73759],[-120.0581,39.73777],[-120.05824,39.738],[-120.05835,39.73817],[-120.05848,39.73827],[-120.05862,39.73834],[-120.05878,39.73843],[-120.05894,39.73855],[-120.05902,39.73865],[-120.05906,39.73875],[-120.0591,39.73906],[-120.05916,39.73916],[-120.05922,39.73921],[-120.05931,39.73926],[-120.0594,39.73931],[-120.05946,39.7394],[-120.05951,39.73949],[-120.05955,39.73963],[-120.05958,39.73985],[-120.05959,39.73988],[-120.05963,39.74001],[-120.05967,39.74017],[-120.05971,39.74028],[-120.05973,39.74037],[-120.05974,39.74056],[-120.05987,39.74116],[-120.06001,39.74148],[-120.06004,39.74169],[-120.06017,39.74213],[-120.06024,39.74233],[-120.06029,39.7425],[-120.06037,39.74277],[-120.06043,39.74296],[-120.06047,39.74302],[-120.0605,39.74312],[-120.06057,39.74324],[-120.06072,39.74347],[-120.06078,39.74354],[-120.06086,39.7436],[-120.06111,39.74378],[-120.06115,39.74383],[-120.06119,39.74391],[-120.06122,39.74401],[-120.06128,39.74423],[-120.0613,39.7443],[-120.06129,39.74446],[-120.06127,39.74457],[-120.0612,39.74468],[-120.06119,39.74474],[-120.06123,39.7448],[-120.0613,39.74485],[-120.06138,39.74489],[-120.06143,39.74493],[-120.06148,39.74499],[-120.06158,39.74513],[-120.06178,39.74537],[-120.0619,39.74555],[-120.06203,39.74571],[-120.06223,39.746],[-120.06233,39.74609],[-120.06243,39.74616],[-120.06251,39.7462],[-120.06258,39.74624],[-120.06263,39.74629],[-120.06267,39.74635],[-120.06271,39.74643],[-120.06278,39.74663],[-120.06288,39.74684],[-120.06297,39.74698],[-120.06312,39.74718],[-120.06334,39.74746],[-120.06376,39.74802],[-120.06431,39.7488],[-120.06448,39.74901],[-120.06463,39.74923],[-120.06463,39.74945],[-120.06462,39.74979],[-120.06462,39.75],[-120.06464,39.7501],[-120.0647,39.75018],[-120.06483,39.75034],[-120.06488,39.7504],[-120.06518,39.75073],[-120.06588,39.75153],[-120.06614,39.75186],[-120.06636,39.75214],[-120.06641,39.75222],[-120.06643,39.75232],[-120.06651,39.75287],[-120.06657,39.75335],[-120.06664,39.75373],[-120.06667,39.75393],[-120.06669,39.75416],[-120.06669,39.75431],[-120.06672,39.75459],[-120.06676,39.75482],[-120.06679,39.75508],[-120.06678,39.75516],[-120.06681,39.75552],[-120.06687,39.75577],[-120.06688,39.7559],[-120.06691,39.75608],[-120.06697,39.75651],[-120.06702,39.75678],[-120.06703,39.75691],[-120.06702,39.75729],[-120.06707,39.75751],[-120.06715,39.75782],[-120.0674,39.75856],[-120.06771,39.75937],[-120.06783,39.75976],[-120.06786,39.75992],[-120.06785,39.76006],[-120.06783,39.76016],[-120.06773,39.76046],[-120.06763,39.76071],[-120.06756,39.76104],[-120.06751,39.76129],[-120.06745,39.7615],[-120.0674,39.76161],[-120.06732,39.76176],[-120.06722,39.7619],[-120.06714,39.762],[-120.06703,39.76211],[-120.06696,39.76221],[-120.06692,39.7623],[-120.06691,39.76239],[-120.06692,39.76253],[-120.06696,39.76272],[-120.06702,39.76294],[-120.0671,39.76313],[-120.06719,39.76329],[-120.06726,39.7634],[-120.06736,39.76353],[-120.06749,39.76368],[-120.06756,39.76376],[-120.06763,39.76386],[-120.06785,39.76409],[-120.06793,39.7642],[-120.06811,39.76448],[-120.06827,39.76478],[-120.06832,39.76489],[-120.0684,39.76511],[-120.06844,39.76519],[-120.06851,39.7653],[-120.06864,39.76548],[-120.06873,39.76563],[-120.06883,39.76576],[-120.06891,39.76588],[-120.06896,39.76596],[-120.069,39.76608],[-120.06906,39.76624],[-120.06918,39.76645],[-120.06929,39.76669],[-120.06934,39.76684],[-120.06935,39.76695],[-120.06932,39.76721],[-120.06932,39.76737],[-120.06937,39.76779],[-120.06944,39.76809],[-120.06955,39.76846],[-120.06964,39.76871],[-120.06973,39.76888],[-120.06983,39.76903],[-120.06996,39.76916],[-120.07055,39.7697],[-120.07071,39.76987],[-120.07104,39.77018],[-120.07107,39.77021],[-120.07133,39.77053],[-120.07138,39.77057],[-120.07151,39.77066],[-120.0716,39.77071],[-120.07169,39.77074],[-120.07179,39.77076],[-120.0719,39.77078],[-120.07244,39.7708],[-120.07258,39.77082],[-120.07269,39.77086],[-120.07284,39.77093],[-120.07295,39.77099],[-120.07303,39.77106],[-120.07314,39.7712],[-120.0733,39.77138],[-120.07334,39.77142],[-120.07371,39.77161],[-120.07379,39.77168],[-120.07381,39.7717],[-120.07386,39.77176],[-120.07391,39.77184],[-120.07396,39.7721],[-120.07399,39.77221],[-120.07407,39.77255],[-120.07418,39.77305],[-120.07419,39.7732],[-120.07422,39.77337],[-120.07425,39.77349],[-120.0743,39.7736],[-120.07437,39.7737],[-120.07445,39.7738],[-120.0747,39.77411],[-120.07542,39.77493],[-120.07572,39.7753],[-120.07614,39.77582],[-120.07648,39.77621],[-120.07666,39.77642],[-120.07718,39.77695],[-120.07742,39.77721],[-120.07759,39.77736],[-120.07778,39.77759],[-120.07788,39.77774],[-120.07795,39.77786],[-120.07818,39.77838],[-120.07825,39.77855],[-120.07833,39.77882],[-120.07839,39.77899],[-120.07845,39.77921],[-120.07845,39.77926],[-120.07843,39.77934],[-120.07841,39.77939],[-120.07837,39.77948],[-120.07827,39.77965],[-120.07819,39.77976],[-120.07813,39.77996],[-120.07809,39.78014]]}},{"type":"Feature","properties":{"name":"Bent D Road","road_class":"track","surface":"unpaved","source":"Caltrans All Roads + OpenStreetMap explicit surface","source_detail":"osm way 883617705; Caltrans All Roads public-network geometry match","source_tile":"170/388","public_network_source":"Caltrans All Roads (ARNOLD/HPMS)","surface_source":"OpenStreetMap explicit surface tag","caltrans_match_coverage":0.879,"verified_length_m":4246},"geometry":{"type":"LineString","coordinates":[[-120.00053,39.7957],[-120.00074,39.7956],[-120.00083,39.79557],[-120.00091,39.79555],[-120.00116,39.79544],[-120.00139,39.79535],[-120.00142,39.79534],[-120.0015,39.79533],[-120.00158,39.79533],[-120.00175,39.79536],[-120.00187,39.79536],[-120.00202,39.79536],[-120.00222,39.79538],[-120.00234,39.7954],[-120.00242,39.79543],[-120.00268,39.79545],[-120.00278,39.79548],[-120.00287,39.79552],[-120.00304,39.79559],[-120.00311,39.7956],[-120.00319,39.79559],[-120.00324,39.79558],[-120.0033,39.79554],[-120.00333,39.79551],[-120.00336,39.79547],[-120.00337,39.79536],[-120.00337,39.79528],[-120.00335,39.79511],[-120.00335,39.79503],[-120.00337,39.79496],[-120.00344,39.79479],[-120.00346,39.79469],[-120.00347,39.79458],[-120.00348,39.79429],[-120.00353,39.79408],[-120.00355,39.79393],[-120.00357,39.79384],[-120.00365,39.79361],[-120.00367,39.79353],[-120.00371,39.79345],[-120.00372,39.79336],[-120.00373,39.79328],[-120.00373,39.79316],[-120.00371,39.79308],[-120.00369,39.79297],[-120.00368,39.79287],[-120.00369,39.79271],[-120.00372,39.79264],[-120.00383,39.79247],[-120.00387,39.79232],[-120.00401,39.79226],[-120.00421,39.79214],[-120.00442,39.79198],[-120.00457,39.79191],[-120.00466,39.79185],[-120.00476,39.79181],[-120.00508,39.79175],[-120.00528,39.79172],[-120.00539,39.7917],[-120.00549,39.79168],[-120.00554,39.79167],[-120.00564,39.79164],[-120.00584,39.79159],[-120.00598,39.79159],[-120.00608,39.79163],[-120.00617,39.79166],[-120.00627,39.79168],[-120.00637,39.79167],[-120.00657,39.79163],[-120.00669,39.79161],[-120.0068,39.79161],[-120.0069,39.79161],[-120.00703,39.79164],[-120.0072,39.79169],[-120.00736,39.79175],[-120.00742,39.79177],[-120.00759,39.79181],[-120.00767,39.79183],[-120.00771,39.79186],[-120.00784,39.79194],[-120.00791,39.792],[-120.00798,39.79203],[-120.00808,39.79204],[-120.00819,39.79202],[-120.0086,39.79196],[-120.00876,39.79194],[-120.00943,39.79172],[-120.00989,39.79167],[-120.01026,39.79159],[-120.01043,39.79152],[-120.01068,39.79131],[-120.01078,39.79124],[-120.01085,39.79118],[-120.01084,39.79106],[-120.01077,39.79095],[-120.01075,39.79083],[-120.01084,39.79037],[-120.01087,39.78994],[-120.01093,39.78945],[-120.01108,39.78912],[-120.01114,39.78893],[-120.011,39.7887],[-120.01098,39.78858],[-120.01111,39.78845],[-120.0114,39.78812],[-120.01169,39.78786],[-120.01199,39.7877],[-120.01217,39.78758],[-120.01226,39.78753],[-120.0125,39.78735],[-120.01262,39.78723],[-120.01276,39.78711],[-120.01302,39.78697],[-120.01349,39.78675],[-120.0138,39.78666],[-120.01439,39.78664],[-120.01484,39.78662],[-120.01514,39.78668],[-120.01531,39.78663],[-120.01582,39.7864],[-120.01611,39.78627],[-120.01624,39.7862],[-120.01634,39.78611],[-120.01646,39.78604],[-120.0166,39.78596],[-120.01674,39.7859],[-120.01686,39.78584],[-120.01697,39.78575],[-120.01709,39.78568],[-120.01722,39.78562],[-120.01743,39.78552],[-120.01796,39.7852],[-120.01806,39.78514],[-120.0182,39.78505],[-120.0184,39.78497],[-120.01861,39.7849],[-120.01879,39.78486],[-120.01891,39.78484],[-120.01908,39.78483],[-120.01954,39.78477],[-120.02019,39.78461],[-120.02101,39.78444],[-120.02118,39.78442],[-120.02156,39.7844],[-120.02176,39.78439],[-120.02195,39.78435],[-120.0221,39.78431],[-120.02252,39.78418],[-120.02275,39.78409],[-120.02299,39.78399],[-120.02311,39.78391],[-120.02318,39.78385],[-120.02324,39.7838],[-120.02339,39.78372],[-120.02355,39.78362],[-120.02364,39.78355],[-120.02401,39.78323],[-120.0244,39.78293],[-120.02457,39.78282],[-120.02478,39.78273],[-120.02499,39.78264],[-120.02523,39.78256],[-120.02548,39.78248],[-120.02576,39.78241],[-120.02591,39.78236],[-120.02601,39.78235],[-120.02634,39.78239],[-120.02653,39.78239],[-120.02673,39.78237],[-120.02693,39.78233],[-120.02709,39.78228],[-120.0275,39.7821],[-120.02799,39.78195],[-120.02842,39.78186],[-120.02863,39.78181],[-120.02879,39.78176],[-120.02923,39.78153],[-120.02962,39.78135],[-120.02974,39.78127],[-120.02992,39.78115],[-120.03012,39.78103],[-120.03029,39.78093],[-120.03062,39.78068],[-120.03076,39.78057],[-120.03081,39.78053],[-120.0309,39.78043],[-120.03101,39.78036],[-120.03119,39.78028],[-120.03152,39.78007],[-120.03162,39.78001],[-120.03173,39.77997],[-120.0318,39.77992],[-120.03199,39.77974],[-120.03203,39.77968],[-120.03209,39.77964],[-120.03216,39.77958],[-120.03235,39.77941],[-120.0325,39.77931],[-120.03264,39.77919],[-120.03271,39.77912],[-120.03278,39.77904],[-120.03287,39.77888],[-120.03293,39.77882],[-120.03321,39.77864],[-120.03337,39.77852],[-120.03346,39.77844],[-120.03352,39.77839],[-120.0336,39.77834],[-120.03371,39.7783],[-120.03382,39.77829],[-120.03398,39.77829],[-120.03414,39.77829],[-120.03441,39.77829],[-120.03455,39.77829],[-120.03466,39.77831],[-120.03476,39.77835],[-120.03518,39.77846],[-120.03544,39.77852],[-120.03555,39.77853],[-120.03595,39.77852],[-120.03614,39.77852],[-120.03631,39.77854],[-120.03659,39.77854],[-120.03669,39.77853],[-120.03678,39.77851],[-120.03688,39.77847],[-120.03698,39.77842],[-120.03703,39.7784],[-120.03729,39.7783],[-120.03736,39.77819]]}},{"type":"Feature","properties":{"name":"(unnamed public road)","road_class":"unclassified","surface":"unpaved","source":"Caltrans All Roads + OpenStreetMap explicit surface","source_detail":"osm way 884503281; Caltrans All Roads public-network geometry match","source_tile":"170/388","public_network_source":"Caltrans All Roads (ARNOLD/HPMS)","surface_source":"OpenStreetMap explicit surface tag","caltrans_match_coverage":1.0,"verified_length_m":1337},"geometry":{"type":"LineString","coordinates":[[-120.06497,39.73716],[-120.06498,39.73718],[-120.06498,39.73739],[-120.06497,39.73761],[-120.06496,39.73793],[-120.06495,39.73817],[-120.06491,39.74021],[-120.06489,39.74081],[-120.06489,39.74092],[-120.06488,39.7417],[-120.06485,39.74231],[-120.06486,39.74237],[-120.06486,39.7424],[-120.06486,39.74245],[-120.06486,39.74252],[-120.06482,39.74284],[-120.06482,39.74293],[-120.0648,39.74362],[-120.06478,39.74436],[-120.06477,39.74455],[-120.06473,39.74471],[-120.06471,39.74579],[-120.06471,39.74586],[-120.06469,39.74661],[-120.06464,39.74736],[-120.06463,39.74754],[-120.06464,39.7477],[-120.06462,39.74784],[-120.06462,39.7479],[-120.06466,39.74808],[-120.06469,39.74815],[-120.0647,39.74818],[-120.06469,39.74823],[-120.06468,39.74831],[-120.06467,39.74863],[-120.06467,39.74888],[-120.06465,39.74914],[-120.06463,39.74923]]}},{"type":"Feature","properties":{"name":"(unnamed public road)","road_class":"track","surface":"unpaved","source":"Caltrans All Roads + OpenStreetMap explicit surface","source_detail":"osm way 884503296; Caltrans All Roads public-network geometry match","source_tile":"170/388","public_network_source":"Caltrans All Roads (ARNOLD/HPMS)","surface_source":"OpenStreetMap explicit surface tag","caltrans_match_coverage":0.948,"verified_length_m":4853},"geometry":{"type":"LineString","coordinates":[[-120.0071,39.74619],[-120.00687,39.74623],[-120.00668,39.74622],[-120.00638,39.74617],[-120.00596,39.74609],[-120.00551,39.74601],[-120.00529,39.7458],[-120.00511,39.74546],[-120.00499,39.74523],[-120.00502,39.74505],[-120.00517,39.74484],[-120.00529,39.74474],[-120.0056,39.74447],[-120.00636,39.74389],[-120.00655,39.7438],[-120.00682,39.74381],[-120.00697,39.74387],[-120.00707,39.74402],[-120.00713,39.74413],[-120.00728,39.74414],[-120.00768,39.74413],[-120.0079,39.74413],[-120.00804,39.74412],[-120.00814,39.74413],[-120.00829,39.74415],[-120.00848,39.74418],[-120.00877,39.74426],[-120.00893,39.74429],[-120.00906,39.74433],[-120.00942,39.74446],[-120.00958,39.74451],[-120.00964,39.74453],[-120.00971,39.74456],[-120.00979,39.74464],[-120.00983,39.74466],[-120.00987,39.74466],[-120.00991,39.74466],[-120.00996,39.74464],[-120.01001,39.74462],[-120.01006,39.74461],[-120.01012,39.74461],[-120.01016,39.74462],[-120.01022,39.74466],[-120.01031,39.74475],[-120.01044,39.74481],[-120.0106,39.74487],[-120.01091,39.745],[-120.01118,39.7451],[-120.01145,39.74516],[-120.01169,39.7452],[-120.01176,39.74522],[-120.01183,39.74524],[-120.0121,39.74536],[-120.01228,39.74545],[-120.01254,39.74559],[-120.01297,39.74583],[-120.0132,39.74592],[-120.01356,39.74609],[-120.01377,39.74621],[-120.01383,39.74625],[-120.01393,39.74637],[-120.0141,39.74654],[-120.01418,39.7466],[-120.01431,39.74669],[-120.01444,39.74676],[-120.01493,39.74699],[-120.01519,39.74711],[-120.0153,39.74713],[-120.01549,39.74717],[-120.01556,39.7472],[-120.01562,39.74723],[-120.01575,39.74737],[-120.01584,39.74745],[-120.01604,39.74761],[-120.01611,39.74765],[-120.01639,39.74784],[-120.01643,39.74786],[-120.0165,39.74787],[-120.017,39.74773],[-120.01728,39.74766],[-120.01748,39.7476],[-120.01766,39.74753],[-120.01774,39.7475],[-120.01824,39.74742],[-120.01839,39.74739],[-120.0185,39.74739],[-120.0186,39.74739],[-120.01871,39.74739],[-120.01881,39.74741],[-120.01887,39.74742],[-120.01931,39.74756],[-120.01972,39.74769],[-120.02004,39.74777],[-120.02029,39.74783],[-120.02045,39.74788],[-120.02053,39.74792],[-120.02058,39.74795],[-120.02081,39.74816],[-120.02097,39.74835],[-120.02113,39.74856],[-120.02139,39.74887],[-120.02149,39.74896],[-120.02163,39.74907],[-120.022,39.74931],[-120.02208,39.74937],[-120.02222,39.74949],[-120.02231,39.74956],[-120.02237,39.7496],[-120.02271,39.74976],[-120.02291,39.74987],[-120.02296,39.7499],[-120.02302,39.74996],[-120.02316,39.75015],[-120.02321,39.75019],[-120.02323,39.75021],[-120.0233,39.75026],[-120.02341,39.75031],[-120.02357,39.75035],[-120.02366,39.75037],[-120.02388,39.7504],[-120.02397,39.75041],[-120.02426,39.75048],[-120.02435,39.75049],[-120.02444,39.7505],[-120.02464,39.7505],[-120.02491,39.75051],[-120.02504,39.75053],[-120.02525,39.75057],[-120.02538,39.7506],[-120.02552,39.75065],[-120.02576,39.75071],[-120.0259,39.75074],[-120.02617,39.7508],[-120.02627,39.75082],[-120.02638,39.75083],[-120.02674,39.75085],[-120.0268,39.75086],[-120.02711,39.75094],[-120.02735,39.75101],[-120.02781,39.75118],[-120.02787,39.7512],[-120.02794,39.75121],[-120.02841,39.75122],[-120.02876,39.75129],[-120.02895,39.75131],[-120.02904,39.75132],[-120.02914,39.75131],[-120.02929,39.7513],[-120.02938,39.7513],[-120.02958,39.75132],[-120.02968,39.75134],[-120.0299,39.7514],[-120.03008,39.75147],[-120.03022,39.75153],[-120.03045,39.75162],[-120.03103,39.7518],[-120.03115,39.75183],[-120.03123,39.75184],[-120.03139,39.75185],[-120.03154,39.75185],[-120.0317,39.75183],[-120.03184,39.75181],[-120.03231,39.75174],[-120.0329,39.75167],[-120.03321,39.75162],[-120.03414,39.75139],[-120.03456,39.75129],[-120.03499,39.75117],[-120.03516,39.75112],[-120.03532,39.75106],[-120.03569,39.75091],[-120.03612,39.75074],[-120.03639,39.75062],[-120.03659,39.75053],[-120.03699,39.75035],[-120.03709,39.7503],[-120.03718,39.75026],[-120.03751,39.7501],[-120.03764,39.75003],[-120.03772,39.74996],[-120.03774,39.74993],[-120.03776,39.74987],[-120.03776,39.74972],[-120.03776,39.74937],[-120.03775,39.74805],[-120.03769,39.73944],[-120.03769,39.73877],[-120.03767,39.73837],[-120.03768,39.73827],[-120.0377,39.73811],[-120.03773,39.73807],[-120.03781,39.738],[-120.0379,39.73794],[-120.03799,39.73789],[-120.03807,39.73786],[-120.03819,39.73783]]}}]}