{"type":"FeatureCollection","features":[{"type":"Feature","properties":{"name":"(unnamed public road)","road_class":"track","surface":"unpaved","source":"Caltrans All Roads + OpenStreetMap explicit surface","source_detail":"osm way 10330009; Caltrans All Roads public-network geometry match","source_tile":"170/401","public_network_source":"Caltrans All Roads (ARNOLD/HPMS)","surface_source":"OpenStreetMap explicit surface tag","caltrans_match_coverage":1.0,"verified_length_m":1317},"geometry":{"type":"LineString","coordinates":[[-120.15698,36.18624],[-120.15668,36.18694],[-120.15596,36.18761],[-120.15449,36.18819],[-120.15255,36.18985],[-120.15191,36.19104],[-120.15198,36.19161],[-120.15237,36.19199],[-120.15181,36.193],[-120.15182,36.19377],[-120.15126,36.19426],[-120.15098,36.19457],[-120.15101,36.19481],[-120.15127,36.19491],[-120.15154,36.19531],[-120.15195,36.19559]]}},{"type":"Feature","properties":{"name":"Newton Avenue","road_class":"unclassified","surface":"unpaved","source":"Caltrans All Roads + OpenStreetMap explicit surface","source_detail":"osm way 10398915; Caltrans All Roads public-network geometry match","source_tile":"171/401","public_network_source":"Caltrans All Roads (ARNOLD/HPMS)","surface_source":"OpenStreetMap explicit surface tag","caltrans_match_coverage":1.0,"verified_length_m":565},"geometry":{"type":"LineString","coordinates":[[-119.8785,36.12191],[-119.87853,36.12284],[-119.87855,36.12294],[-119.87858,36.12303],[-119.8786,36.12307],[-119.87864,36.12311],[-119.87871,36.12318],[-119.87876,36.12322],[-119.87882,36.12326],[-119.8789,36.12329],[-119.87896,36.1233],[-119.87911,36.12331],[-119.88088,36.12332],[-119.88334,36.12334]]}}]}