{"type":"FeatureCollection","features":[{"type":"Feature","properties":{"name":"(unnamed public road)","road_class":"track","tracktype":"grade2","source":"OpenStreetMap","source_detail":"osm way 10530520","source_tile":"167/395","surface_inferred":true},"geometry":{"type":"LineString","coordinates":[[-121.27534,37.99595],[-121.27538,37.99597],[-121.27539,37.99598],[-121.27539,37.996],[-121.27532,37.99625],[-121.27528,37.99634],[-121.27523,37.99643],[-121.27484,37.99696],[-121.27476,37.99705],[-121.27467,37.99714],[-121.27463,37.99718],[-121.27453,37.99727],[-121.27442,37.99736],[-121.27424,37.99748],[-121.27383,37.99771],[-121.27332,37.998],[-121.27321,37.99807],[-121.2731,37.99816],[-121.27279,37.99845],[-121.27245,37.99887],[-121.2723,37.99903],[-121.27213,37.99925],[-121.27213,37.99927],[-121.27186,37.9996],[-121.27157,37.99984],[-121.27144,37.99991],[-121.27129,37.99992],[-121.2711,37.99996],[-121.27069,38.00001],[-121.2705,38.00005],[-121.27034,38.00006],[-121.27011,38.00005],[-121.26989,38.00004],[-121.26969,38.00003],[-121.26949,38.00006],[-121.26929,38.00011],[-121.26913,38.00018],[-121.26899,38.00024],[-121.26888,38.00031],[-121.26878,38.00035],[-121.26873,38.00042]]}},{"type":"Feature","properties":{"name":"North Belgrade Road","road_class":"track","surface":"unpaved","source":"OpenStreetMap","source_detail":"osm way 673467365","source_tile":"167/395"},"geometry":{"type":"LineString","coordinates":[[-121.06338,37.98728],[-121.06328,37.98742],[-121.06277,37.98745],[-121.06186,37.98749],[-121.06139,37.98753],[-121.06118,37.98762],[-121.06073,37.98789],[-121.0592,37.98896],[-121.05849,37.98922],[-121.05721,37.98922],[-121.05649,37.98931],[-121.05599,37.98972],[-121.05573,37.99018],[-121.05551,37.99073],[-121.05515,37.99149],[-121.05464,37.99203],[-121.05399,37.99257],[-121.05333,37.99301],[-121.05179,37.99377],[-121.05161,37.99387],[-121.05153,37.99412],[-121.05156,37.99467],[-121.0516,37.99629],[-121.05162,37.99671],[-121.0517,37.99688],[-121.05177,37.99705],[-121.05192,37.99721],[-121.05214,37.99737],[-121.05305,37.99783],[-121.05428,37.99843],[-121.05475,37.99868],[-121.05508,37.99885],[-121.05523,37.99893],[-121.05537,37.99901],[-121.05548,37.99911],[-121.05554,37.99918],[-121.0556,37.99923],[-121.05569,37.99928],[-121.05581,37.9994],[-121.05587,37.99947],[-121.0559,37.99955],[-121.05592,37.99963],[-121.05594,37.99972],[-121.05595,37.9998],[-121.05596,38.00004],[-121.05596,38.00014],[-121.05595,38.00023],[-121.05594,38.00033],[-121.05591,38.00042],[-121.05588,38.00051],[-121.05562,38.00127],[-121.05483,38.00204]]}},{"type":"Feature","properties":{"name":"North Missoula Road","road_class":"track","surface":"unpaved","source":"OpenStreetMap","source_detail":"osm way 673467370","source_tile":"167/395"},"geometry":{"type":"LineString","coordinates":[[-121.05842,37.9961],[-121.05853,38.002]]}},{"type":"Feature","properties":{"name":"(unnamed public road)","road_class":"track","source":"OpenStreetMap","source_detail":"osm way 707893944","source_tile":"167/395","surface_inferred":true},"geometry":{"type":"LineString","coordinates":[[-121.18469,37.9965],[-121.18226,37.99158]]}},{"type":"Feature","properties":{"name":"(unnamed public road)","road_class":"track","source":"OpenStreetMap","source_detail":"osm way 707893945","source_tile":"167/395","surface_inferred":true},"geometry":{"type":"LineString","coordinates":[[-121.19028,38.00156],[-121.18906,37.9987],[-121.18914,37.99858],[-121.18779,37.99573],[-121.18469,37.9965]]}},{"type":"Feature","properties":{"name":"(unnamed public road)","road_class":"track","source":"OpenStreetMap","source_detail":"osm way 783809861","source_tile":"167/395","surface_inferred":true},"geometry":{"type":"LineString","coordinates":[[-121.14103,37.99034],[-121.14107,37.99312],[-121.14109,37.99352],[-121.14116,37.99572],[-121.14119,37.99666],[-121.14044,37.99667],[-121.13895,37.99668],[-121.13909,37.9966],[-121.13915,37.99651],[-121.13911,37.99622],[-121.13905,37.99595],[-121.139,37.99582],[-121.13896,37.99576],[-121.13886,37.99576],[-121.13881,37.99581],[-121.13877,37.99597]]}},{"type":"Feature","properties":{"name":"(unnamed public road)","road_class":"track","source":"OpenStreetMap","source_detail":"osm way 10529439","source_tile":"167/395","surface_inferred":true},"geometry":{"type":"LineString","coordinates":[[-121.21998,37.87512],[-121.22007,37.87511],[-121.22014,37.87512],[-121.2202,37.87512],[-121.22033,37.87513],[-121.22066,37.87515],[-121.22107,37.87522],[-121.22137,37.87524],[-121.22144,37.87524],[-121.22151,37.87523],[-121.22158,37.87521],[-121.2221,37.87498],[-121.22236,37.87488],[-121.22246,37.87485],[-121.22251,37.87484],[-121.22255,37.87484],[-121.22265,37.87484],[-121.22274,37.87485],[-121.22297,37.87489],[-121.2233,37.87493],[-121.22361,37.87497],[-121.22404,37.87502],[-121.22434,37.87504],[-121.22474,37.87509],[-121.22532,37.87523],[-121.22551,37.87528],[-121.22558,37.8753],[-121.22567,37.87535],[-121.22583,37.87546],[-121.2259,37.87549],[-121.22598,37.87551],[-121.22604,37.87552],[-121.22611,37.87552],[-121.2263,37.87551],[-121.22639,37.8755],[-121.22646,37.87548],[-121.22665,37.8754],[-121.22684,37.87531],[-121.22691,37.87526],[-121.22702,37.87518],[-121.22716,37.87507],[-121.22722,37.87504],[-121.2273,37.87501],[-121.22738,37.87498],[-121.22744,37.87497],[-121.2275,37.87497],[-121.22755,37.87498],[-121.22765,37.87502],[-121.22788,37.87513],[-121.22801,37.87518],[-121.22809,37.8752],[-121.22817,37.87521],[-121.22826,37.87522],[-121.2284,37.87518],[-121.22852,37.87515],[-121.22856,37.87514],[-121.22861,37.87514],[-121.22983,37.87525],[-121.22991,37.87528],[-121.22998,37.87517]]}},{"type":"Feature","properties":{"name":"(unnamed public road)","road_class":"track","source":"OpenStreetMap","source_detail":"osm way 10529707","source_tile":"167/395","surface_inferred":true},"geometry":{"type":"LineString","coordinates":[[-121.20206,37.89071],[-121.20748,37.8907],[-121.20801,37.89069],[-121.20815,37.89068],[-121.20823,37.89069],[-121.20831,37.8907],[-121.20842,37.89071],[-121.20854,37.89071],[-121.21935,37.89066],[-121.21972,37.89062],[-121.21995,37.89062],[-121.22008,37.89063]]}},{"type":"Feature","properties":{"name":"(unnamed public road)","road_class":"track","tracktype":"grade2","source":"OpenStreetMap","source_detail":"osm way 10529954","source_tile":"167/395","surface_inferred":true},"geometry":{"type":"LineString","coordinates":[[-121.27629,37.9953],[-121.27624,37.99525],[-121.27605,37.99524],[-121.27592,37.99526],[-121.2758,37.99532],[-121.27567,37.9954],[-121.27559,37.9955],[-121.27553,37.99562],[-121.27549,37.99575],[-121.27543,37.99594],[-121.2754,37.99592],[-121.27536,37.99591]]}},{"type":"Feature","properties":{"name":"(unnamed public road)","road_class":"track","source":"OpenStreetMap","source_detail":"osm way 10530298","source_tile":"167/395","surface_inferred":true},"geometry":{"type":"LineString","coordinates":[[-121.05564,37.76183],[-121.05564,37.76183],[-121.05557,37.75828]]}},{"type":"Feature","properties":{"name":"(unnamed public road)","road_class":"track","tracktype":"grade2","source":"OpenStreetMap","source_detail":"osm way 10530375","source_tile":"167/395","surface_inferred":true},"geometry":{"type":"LineString","coordinates":[[-121.26404,37.92325],[-121.26436,37.92315],[-121.26521,37.92285],[-121.26552,37.92275],[-121.26569,37.92271],[-121.26587,37.92268],[-121.26623,37.92264],[-121.26639,37.92264],[-121.26652,37.92265],[-121.26676,37.92267],[-121.26691,37.9227],[-121.267,37.92271],[-121.26713,37.92272],[-121.26725,37.92272],[-121.26739,37.92269],[-121.26771,37.92261],[-121.268,37.9225],[-121.2681,37.92246],[-121.26816,37.92242],[-121.26821,37.92238],[-121.26827,37.92229],[-121.2683,37.92225],[-121.26861,37.92196],[-121.2688,37.92182],[-121.26901,37.92167],[-121.26917,37.92158],[-121.26924,37.92155],[-121.26959,37.92142],[-121.26991,37.92133],[-121.2705,37.92118],[-121.27091,37.92103],[-121.27098,37.921],[-121.27107,37.92095],[-121.27118,37.92087],[-121.27123,37.9208],[-121.27129,37.92063],[-121.27178,37.91902],[-121.27209,37.91803],[-121.27227,37.91739],[-121.27234,37.91706],[-121.27238,37.91676],[-121.27241,37.91636],[-121.27241,37.9161],[-121.27235,37.91605],[-121.27233,37.91605],[-121.27224,37.91609],[-121.27219,37.91609],[-121.27216,37.91608],[-121.27213,37.91605],[-121.27208,37.91598],[-121.27197,37.91587],[-121.27192,37.91582],[-121.27179,37.91573],[-121.27173,37.91571],[-121.27167,37.9157],[-121.2716,37.91571],[-121.27146,37.9158],[-121.27132,37.91587],[-121.27116,37.91593],[-121.27085,37.91602],[-121.26914,37.91648]]}},{"type":"Feature","properties":{"name":"(unnamed public road)","road_class":"track","source":"OpenStreetMap","source_detail":"osm way 10530379","source_tile":"167/395","surface_inferred":true},"geometry":{"type":"LineString","coordinates":[[-121.28639,37.91693],[-121.28634,37.91681],[-121.28629,37.91675],[-121.28618,37.91665],[-121.28601,37.91651],[-121.28579,37.91636],[-121.28529,37.91606],[-121.28522,37.91602],[-121.28477,37.91584],[-121.28471,37.9158],[-121.28418,37.91529],[-121.28397,37.9151],[-121.2839,37.91505],[-121.28384,37.91503],[-121.28316,37.91482],[-121.28276,37.91468],[-121.2824,37.91454],[-121.28232,37.91452],[-121.28219,37.91448],[-121.28207,37.91449],[-121.28199,37.91449]]}},{"type":"Feature","properties":{"name":"(unnamed public road)","road_class":"track","source":"OpenStreetMap","source_detail":"osm way 10530575","source_tile":"167/395","surface_inferred":true},"geometry":{"type":"LineString","coordinates":[[-121.23314,37.87415],[-121.23229,37.87436],[-121.2301,37.87497],[-121.23005,37.87497],[-121.22996,37.87497],[-121.22969,37.87499],[-121.22935,37.87497],[-121.22883,37.87495],[-121.22865,37.87494],[-121.22851,37.87495],[-121.2283,37.87498],[-121.22821,37.87498],[-121.22814,37.87498],[-121.22807,37.87496],[-121.22799,37.87492],[-121.22782,37.87481],[-121.22766,37.87472],[-121.22761,37.8747],[-121.22755,37.87468],[-121.22747,37.87468],[-121.22741,37.87468],[-121.22734,37.8747],[-121.22728,37.87473],[-121.22677,37.875],[-121.22672,37.87504],[-121.22661,37.87512],[-121.22655,37.87516],[-121.22646,37.87521],[-121.22637,37.87524],[-121.22628,37.87527],[-121.22624,37.87528],[-121.22616,37.87529],[-121.22612,37.87529],[-121.22604,37.87527],[-121.2259,37.87521],[-121.22579,37.87514],[-121.22574,37.87512],[-121.22515,37.87491],[-121.22509,37.8749],[-121.225,37.87487],[-121.22491,37.87485],[-121.22467,37.87482],[-121.22438,37.87482],[-121.22406,37.8748],[-121.22332,37.87474],[-121.22298,37.87468],[-121.22263,37.87461],[-121.22246,37.87459],[-121.22238,37.87461],[-121.22217,37.87469],[-121.22191,37.87479],[-121.22169,37.87491],[-121.22159,37.87496],[-121.22148,37.87499],[-121.22141,37.875],[-121.2213,37.87501],[-121.2211,37.87501],[-121.22101,37.875],[-121.22093,37.87499],[-121.22066,37.87493],[-121.22036,37.87484],[-121.22018,37.87482],[-121.22009,37.87479],[-121.22002,37.87477],[-121.21996,37.87473],[-121.21979,37.87234],[-121.21978,37.87217]]}},{"type":"Feature","properties":{"name":"(unnamed public road)","road_class":"track","source":"OpenStreetMap","source_detail":"osm way 10531339","source_tile":"167/395","surface_inferred":true},"geometry":{"type":"LineString","coordinates":[[-121.27506,37.91558],[-121.2753,37.91557],[-121.27533,37.91557],[-121.27539,37.91555],[-121.27565,37.91546],[-121.27621,37.9153],[-121.27662,37.91517],[-121.27676,37.91511],[-121.2768,37.9151],[-121.27684,37.91508],[-121.27687,37.91507],[-121.27696,37.91505],[-121.27706,37.91505],[-121.27716,37.91498],[-121.27867,37.91455],[-121.27889,37.91448],[-121.27898,37.91445],[-121.27926,37.91436],[-121.27981,37.91421],[-121.28015,37.91411],[-121.2802,37.9141],[-121.28029,37.91405],[-121.28047,37.914],[-121.28048,37.91399],[-121.28054,37.91399],[-121.28088,37.91399],[-121.2816,37.91406],[-121.2817,37.91406],[-121.2818,37.91405]]}},{"type":"Feature","properties":{"name":"(unnamed public road)","road_class":"track","source":"OpenStreetMap","source_detail":"osm way 10531467","source_tile":"167/395","surface_inferred":true},"geometry":{"type":"LineString","coordinates":[[-121.00142,37.76118],[-121.00031,37.76064],[-121.0,37.76051],[-120.99951,37.76033],[-120.99891,37.76015],[-120.99848,37.76003],[-120.99825,37.75999],[-120.99813,37.75998],[-120.99803,37.75999],[-120.99791,37.75999],[-120.99763,37.76006],[-120.99727,37.76018],[-120.997,37.76029],[-120.99676,37.76039],[-120.99638,37.76058],[-120.99619,37.76072],[-120.99612,37.76079],[-120.99602,37.76094],[-120.99599,37.76102],[-120.99595,37.76123],[-120.99601,37.76337],[-120.99615,37.7678],[-120.99612,37.76797],[-120.99607,37.7681],[-120.99594,37.76828],[-120.9959,37.76832],[-120.99569,37.76853],[-120.99544,37.7688],[-120.99542,37.76882],[-120.99528,37.76894],[-120.99513,37.76902],[-120.99494,37.76908],[-120.99487,37.76909],[-120.99323,37.76906],[-120.99232,37.76907],[-120.99202,37.76908],[-120.99097,37.76909],[-120.98769,37.76908],[-120.98658,37.76906],[-120.9833,37.76906],[-120.9814,37.76904],[-120.98012,37.76905],[-120.97912,37.76903],[-120.97788,37.76903],[-120.97682,37.76904],[-120.97482,37.76903],[-120.97286,37.76902],[-120.97076,37.76902],[-120.9695,37.76901],[-120.96883,37.76901],[-120.96866,37.76896],[-120.96862,37.76896],[-120.96858,37.76896],[-120.96842,37.769],[-120.96532,37.76896],[-120.96525,37.76897],[-120.96416,37.76946],[-120.9638,37.76962],[-120.96351,37.76976],[-120.96317,37.7699],[-120.96258,37.77018],[-120.96232,37.77031],[-120.96211,37.77044]]}},{"type":"Feature","properties":{"name":"(unnamed public road)","road_class":"track","tracktype":"grade2","source":"OpenStreetMap","source_detail":"osm way 10531610","source_tile":"167/395","surface_inferred":true},"geometry":{"type":"LineString","coordinates":[[-121.26404,37.92325],[-121.26388,37.92328],[-121.26377,37.92331],[-121.26367,37.92334],[-121.26329,37.92347],[-121.26314,37.92355],[-121.26304,37.92363],[-121.26301,37.92365],[-121.26239,37.9241],[-121.26232,37.92413],[-121.26224,37.92417],[-121.26199,37.92427],[-121.26168,37.92439],[-121.26084,37.92477],[-121.26067,37.92487],[-121.2605,37.92498],[-121.26037,37.92508],[-121.26023,37.9252],[-121.26011,37.92531],[-121.25999,37.92539],[-121.25985,37.92548],[-121.2597,37.92555],[-121.25964,37.92557],[-121.25956,37.92559],[-121.25948,37.92561],[-121.25941,37.92563],[-121.25936,37.92563],[-121.2593,37.92564],[-121.25917,37.92565],[-121.25905,37.92565],[-121.25898,37.92564],[-121.25895,37.92564],[-121.25891,37.92563],[-121.25883,37.92561],[-121.25848,37.9255],[-121.25829,37.92543],[-121.25813,37.92535],[-121.25795,37.92524],[-121.25762,37.92501],[-121.25756,37.92496],[-121.2574,37.92481],[-121.25736,37.92475],[-121.25733,37.9247],[-121.25725,37.92452],[-121.2572,37.92416],[-121.25715,37.92405],[-121.25708,37.92394],[-121.25704,37.92389],[-121.257,37.92385],[-121.25694,37.92381],[-121.25688,37.92377],[-121.2568,37.92374],[-121.25665,37.9237],[-121.25657,37.92368],[-121.2564,37.92367],[-121.2563,37.92366],[-121.25622,37.92367],[-121.25605,37.92368],[-121.25588,37.9237],[-121.25581,37.92372],[-121.25573,37.92374],[-121.25565,37.92377],[-121.25558,37.9238],[-121.25552,37.92384],[-121.25547,37.92389],[-121.25538,37.924],[-121.25533,37.92407],[-121.25531,37.9241],[-121.25527,37.92412],[-121.25519,37.92416],[-121.25507,37.92419],[-121.25498,37.92423],[-121.25492,37.92427],[-121.25474,37.9244],[-121.25468,37.92443],[-121.25463,37.92446],[-121.25441,37.92453],[-121.25427,37.92458],[-121.25422,37.9246],[-121.25417,37.92465],[-121.25408,37.92473],[-121.254,37.92481],[-121.25397,37.92483],[-121.25383,37.92486],[-121.25376,37.92486],[-121.25357,37.92483],[-121.25338,37.92478],[-121.25336,37.92477],[-121.25329,37.92475],[-121.25316,37.92473],[-121.2531,37.92473],[-121.25303,37.92474],[-121.25296,37.92474],[-121.25289,37.92473],[-121.25282,37.92471],[-121.25254,37.92456],[-121.25238,37.9245],[-121.25223,37.92445],[-121.25215,37.92444],[-121.25208,37.92443],[-121.25202,37.92443],[-121.25195,37.92443],[-121.25182,37.92444],[-121.25173,37.92447],[-121.2516,37.92451]]}},{"type":"Feature","properties":{"name":"(unnamed public road)","road_class":"track","tracktype":"grade2","source":"OpenStreetMap","source_detail":"osm way 10532118","source_tile":"167/395","surface_inferred":true},"geometry":{"type":"LineString","coordinates":[[-121.27536,37.99591],[-121.27534,37.99595]]}},{"type":"Feature","properties":{"name":"(unnamed public road)","road_class":"track","surface":"unpaved","tracktype":"grade2","source":"OpenStreetMap","source_detail":"osm way 10532378","source_tile":"167/395"},"geometry":{"type":"LineString","coordinates":[[-121.25842,37.98604],[-121.25851,37.98603],[-121.25858,37.98604],[-121.25862,37.98605],[-121.25879,37.98612],[-121.26127,37.98718],[-121.26428,37.98845],[-121.26436,37.98849],[-121.26478,37.98866],[-121.26684,37.98951],[-121.26716,37.98965],[-121.26739,37.98985],[-121.26752,37.99]]}},{"type":"Feature","properties":{"name":"(unnamed public road)","road_class":"track","source":"OpenStreetMap","source_detail":"osm way 10532690","source_tile":"167/395","surface_inferred":true},"geometry":{"type":"LineString","coordinates":[[-121.23325,37.87412],[-121.23314,37.87415],[-121.23313,37.87398],[-121.23308,37.87391],[-121.23298,37.87383],[-121.23279,37.8737],[-121.23258,37.87357],[-121.23249,37.87352],[-121.23234,37.87348],[-121.2321,37.87341],[-121.23201,37.8734],[-121.23191,37.87339],[-121.23178,37.87339],[-121.23165,37.8734],[-121.23153,37.87343],[-121.23139,37.87348],[-121.23123,37.87354],[-121.23116,37.87356],[-121.23089,37.87364],[-121.23023,37.87379],[-121.22997,37.87384],[-121.22983,37.87386],[-121.22961,37.87387],[-121.22875,37.87391],[-121.22837,37.87394],[-121.22796,37.87394],[-121.22755,37.87393],[-121.22718,37.87392],[-121.22679,37.87388],[-121.22567,37.87372],[-121.22558,37.8737],[-121.22547,37.87367],[-121.22513,37.87355],[-121.22464,37.87342],[-121.22439,37.87334],[-121.2241,37.87324],[-121.22403,37.8732],[-121.22381,37.87308],[-121.22363,37.873],[-121.22344,37.87291],[-121.22335,37.87287],[-121.22279,37.87267],[-121.22266,37.87262],[-121.22255,37.87257],[-121.22246,37.87251],[-121.22236,37.87241],[-121.22221,37.87224],[-121.22204,37.87207],[-121.22195,37.87202],[-121.22177,37.87194],[-121.22173,37.87192],[-121.22169,37.87192],[-121.22165,37.87192],[-121.22156,37.87197],[-121.22145,37.87204],[-121.22127,37.87217],[-121.22122,37.8722],[-121.22117,37.87223],[-121.22111,37.87224],[-121.22106,37.87225],[-121.22093,37.87224],[-121.22076,37.87221],[-121.22069,37.87221],[-121.22063,37.87221],[-121.22057,37.87222],[-121.22042,37.87228],[-121.22034,37.87231],[-121.22028,37.87233],[-121.22022,37.87234],[-121.22011,37.87235],[-121.22002,37.87235],[-121.21997,37.87234],[-121.21989,37.87234],[-121.21979,37.87234]]}},{"type":"Feature","properties":{"name":"(unnamed public road)","road_class":"track","source":"OpenStreetMap","source_detail":"osm way 10532878","source_tile":"167/395","surface_inferred":true},"geometry":{"type":"LineString","coordinates":[[-121.03732,37.76256],[-121.03718,37.76254],[-121.0368,37.76254],[-121.03284,37.76257],[-121.02818,37.76257],[-121.01874,37.76253],[-121.01414,37.76248]]}},{"type":"Feature","properties":{"name":"(unnamed public road)","road_class":"track","tracktype":"grade2","source":"OpenStreetMap","source_detail":"osm way 10533850","source_tile":"167/395","surface_inferred":true},"geometry":{"type":"LineString","coordinates":[[-121.25842,37.98604],[-121.25832,37.98596],[-121.25795,37.98574],[-121.25699,37.98532],[-121.25659,37.98515],[-121.25616,37.98497],[-121.25578,37.9848],[-121.25525,37.98459],[-121.25462,37.98432],[-121.25393,37.98401],[-121.25256,37.98347],[-121.25243,37.98342],[-121.25241,37.98344]]}},{"type":"Feature","properties":{"name":"(unnamed public road)","road_class":"track","source":"OpenStreetMap","source_detail":"osm way 10533967","source_tile":"167/395","surface_inferred":true},"geometry":{"type":"LineString","coordinates":[[-121.21605,37.96062],[-121.21415,37.96115],[-121.21391,37.96055],[-121.21379,37.96026],[-121.21358,37.95977],[-121.21356,37.9597],[-121.21356,37.95957],[-121.21357,37.95954],[-121.21356,37.95949],[-121.2135,37.95939]]}},{"type":"Feature","properties":{"name":"(unnamed public road)","road_class":"track","source":"OpenStreetMap","source_detail":"osm way 10534095","source_tile":"167/395","surface_inferred":true},"geometry":{"type":"LineString","coordinates":[[-121.2203,37.87808],[-121.22029,37.8779],[-121.22029,37.87785],[-121.22028,37.8778],[-121.22022,37.87774],[-121.22016,37.87765],[-121.22015,37.87759],[-121.21998,37.87512],[-121.21998,37.87502]]}},{"type":"Feature","properties":{"name":"(unnamed public road)","road_class":"track","source":"OpenStreetMap","source_detail":"osm way 10534345","source_tile":"167/395","surface_inferred":true},"geometry":{"type":"LineString","coordinates":[[-121.27439,37.81625],[-121.27205,37.81627],[-121.27161,37.81628]]}},{"type":"Feature","properties":{"name":"(unnamed public road)","road_class":"track","surface":"compacted","tracktype":"grade3","source":"OpenStreetMap","source_detail":"osm way 10534662","source_tile":"167/395"},"geometry":{"type":"LineString","coordinates":[[-121.14459,37.83397],[-121.14311,37.83399],[-121.14022,37.83401]]}},{"type":"Feature","properties":{"name":"(unnamed public road)","road_class":"track","source":"OpenStreetMap","source_detail":"osm way 10534879","source_tile":"167/395","surface_inferred":true},"geometry":{"type":"LineString","coordinates":[[-121.07134,37.81291],[-121.07147,37.8132],[-121.07179,37.81364],[-121.07214,37.81418],[-121.07259,37.81482],[-121.0729,37.81531],[-121.07304,37.81562],[-121.07308,37.81591],[-121.07306,37.81624]]}},{"type":"Feature","properties":{"name":"(unnamed public road)","road_class":"track","source":"OpenStreetMap","source_detail":"osm way 10535116","source_tile":"167/395","surface_inferred":true},"geometry":{"type":"LineString","coordinates":[[-121.27511,37.91593],[-121.27516,37.9159],[-121.27529,37.9159],[-121.27552,37.91586],[-121.27573,37.91579],[-121.27603,37.91569],[-121.2768,37.91549],[-121.27683,37.91548],[-121.277,37.9155],[-121.27706,37.91553],[-121.2771,37.91552],[-121.2772,37.91549],[-121.27723,37.91547],[-121.27732,37.91539]]}},{"type":"Feature","properties":{"name":"(unnamed public road)","road_class":"track","source":"OpenStreetMap","source_detail":"osm way 10535176","source_tile":"167/395","surface_inferred":true},"geometry":{"type":"LineString","coordinates":[[-121.2301,37.87497],[-121.23015,37.87503],[-121.23021,37.8751],[-121.23043,37.87525],[-121.23067,37.87538],[-121.23077,37.87542],[-121.2309,37.87545],[-121.23104,37.87547],[-121.23116,37.87548],[-121.23141,37.87546],[-121.23157,37.87547],[-121.2317,37.87548],[-121.2318,37.8755],[-121.23194,37.87556],[-121.23206,37.87562],[-121.23217,37.87568],[-121.23229,37.87576],[-121.23234,37.8758],[-121.23238,37.87584],[-121.23252,37.87603],[-121.23265,37.87622],[-121.23273,37.87637],[-121.23276,37.87646],[-121.23276,37.87649],[-121.23275,37.87657],[-121.23278,37.87676],[-121.23281,37.87687],[-121.23285,37.87698],[-121.23295,37.87718],[-121.23306,37.87738],[-121.2331,37.8774],[-121.23314,37.87742],[-121.23322,37.87743],[-121.23328,37.87743],[-121.23341,37.8774],[-121.23395,37.87722],[-121.23468,37.877],[-121.23497,37.87692],[-121.23539,37.87684],[-121.23545,37.87682],[-121.23552,37.87679],[-121.23577,37.87664],[-121.23589,37.87658]]}},{"type":"Feature","properties":{"name":"Coelho Road","road_class":"track","source":"OpenStreetMap","source_detail":"osm way 10535571","source_tile":"167/395","surface_inferred":true},"geometry":{"type":"LineString","coordinates":[[-121.24155,37.85189],[-121.24155,37.85195],[-121.24159,37.85364],[-121.24154,37.85372],[-121.24157,37.8554],[-121.24159,37.85547],[-121.24163,37.85552],[-121.24166,37.85554],[-121.24174,37.85556],[-121.24249,37.85557],[-121.2439,37.85558],[-121.24615,37.85558],[-121.24621,37.85557],[-121.24624,37.85555]]}},{"type":"Feature","properties":{"name":"(unnamed public road)","road_class":"track","source":"OpenStreetMap","source_detail":"osm way 10535589","source_tile":"167/395","surface_inferred":true},"geometry":{"type":"LineString","coordinates":[[-121.25997,37.72173],[-121.26007,37.72182],[-121.26012,37.72193],[-121.26029,37.72279],[-121.26033,37.72326],[-121.26034,37.7242],[-121.26032,37.72437],[-121.26028,37.7245],[-121.26012,37.72464],[-121.26007,37.72475],[-121.26005,37.72482],[-121.26005,37.72489]]}},{"type":"Feature","properties":{"name":"Meyers Avenue","road_class":"track","source":"OpenStreetMap","source_detail":"osm way 10539932","source_tile":"167/395","surface_inferred":true},"geometry":{"type":"LineString","coordinates":[[-121.00133,37.76139],[-121.00052,37.76246],[-121.00046,37.7626],[-121.00044,37.76269],[-121.00039,37.76286],[-121.00037,37.76321],[-121.0004,37.76419],[-121.00041,37.76437],[-121.00043,37.76495],[-121.00048,37.76551],[-121.00049,37.76653],[-121.0005,37.7668],[-121.00053,37.76829],[-121.0005,37.76835],[-121.00046,37.76841],[-121.00043,37.76843],[-121.00033,37.76845],[-120.99889,37.76845],[-120.99833,37.76846],[-120.99758,37.76846],[-120.99706,37.76846],[-120.99662,37.76846],[-120.99654,37.76846],[-120.99651,37.76846],[-120.99638,37.76849],[-120.99626,37.76856],[-120.99615,37.76864],[-120.99597,37.76876]]}},{"type":"Feature","properties":{"name":"Nelson Road","road_class":"track","source":"OpenStreetMap","source_detail":"osm way 10540520","source_tile":"167/395","surface_inferred":true},"geometry":{"type":"LineString","coordinates":[[-121.08335,37.906],[-121.08337,37.90595],[-121.0833,37.90471],[-121.08326,37.90399]]}},{"type":"Feature","properties":{"name":"Security Way","road_class":"track","source":"OpenStreetMap","source_detail":"osm way 10541501","source_tile":"167/395","surface_inferred":true},"geometry":{"type":"LineString","coordinates":[[-121.07132,37.89244],[-121.07128,37.8914]]}},{"type":"Feature","properties":{"name":"Brennan Road","road_class":"track","surface":"dirt","source":"OpenStreetMap","source_detail":"osm way 10542510","source_tile":"167/395"},"geometry":{"type":"LineString","coordinates":[[-121.00985,37.77306],[-121.01414,37.77307],[-121.01423,37.77305],[-121.01426,37.77303],[-121.01428,37.773],[-121.0143,37.77293],[-121.01434,37.77174],[-121.01433,37.77166],[-121.01431,37.77009],[-121.01429,37.76938],[-121.0142,37.76608],[-121.01413,37.76364],[-121.01412,37.76316],[-121.01411,37.76298],[-121.01414,37.76248]]}},{"type":"Feature","properties":{"name":"South Security Way","road_class":"track","source":"OpenStreetMap","source_detail":"osm way 10544566","source_tile":"167/395","surface_inferred":true},"geometry":{"type":"LineString","coordinates":[[-121.07128,37.8914],[-121.07116,37.88742]]}},{"type":"Feature","properties":{"name":"(unnamed public road)","road_class":"track","source":"OpenStreetMap","source_detail":"osm way 24880079","source_tile":"167/395","surface_inferred":true},"geometry":{"type":"LineString","coordinates":[[-121.17951,37.78488],[-121.18245,37.78488],[-121.18563,37.78487]]}},{"type":"Feature","properties":{"name":"(unnamed public road)","road_class":"track","source":"OpenStreetMap","source_detail":"osm way 24880094","source_tile":"167/395","surface_inferred":true},"geometry":{"type":"LineString","coordinates":[[-121.18245,37.78488],[-121.18246,37.78665],[-121.18416,37.78668],[-121.18415,37.78846]]}},{"type":"Feature","properties":{"name":"(unnamed public road)","road_class":"track","surface":"compacted","source":"OpenStreetMap","source_detail":"osm way 24880120","source_tile":"167/395"},"geometry":{"type":"LineString","coordinates":[[-121.18563,37.78487],[-121.18603,37.78513],[-121.18613,37.7852],[-121.1864,37.78538],[-121.18676,37.78556],[-121.18706,37.78566],[-121.18731,37.7857],[-121.18756,37.78574],[-121.1879,37.78576],[-121.18796,37.78579],[-121.18821,37.78673],[-121.18865,37.78847],[-121.18912,37.79028],[-121.18593,37.79026],[-121.18424,37.79025],[-121.17962,37.79025]]}},{"type":"Feature","properties":{"name":"(unnamed public road)","road_class":"track","source":"OpenStreetMap","source_detail":"osm way 24880127","source_tile":"167/395","surface_inferred":true},"geometry":{"type":"LineString","coordinates":[[-121.18912,37.79028],[-121.18988,37.79314],[-121.19003,37.79387]]}},{"type":"Feature","properties":{"name":"(unnamed public road)","road_class":"track","source":"OpenStreetMap","source_detail":"osm way 24880146","source_tile":"167/395","surface_inferred":true},"geometry":{"type":"LineString","coordinates":[[-121.18865,37.78847],[-121.18415,37.78846],[-121.18084,37.78842],[-121.18081,37.78661],[-121.17978,37.7866],[-121.17965,37.7866],[-121.17954,37.7866]]}},{"type":"Feature","properties":{"name":"(unnamed public road)","road_class":"track","surface":"compacted","source":"OpenStreetMap","source_detail":"osm way 24880185","source_tile":"167/395"},"geometry":{"type":"LineString","coordinates":[[-121.18563,37.78487],[-121.18534,37.78466],[-121.18506,37.78431],[-121.1848,37.78384],[-121.18469,37.78347],[-121.18467,37.78309],[-121.1847,37.78178],[-121.18468,37.78136],[-121.18462,37.78125],[-121.18451,37.78121],[-121.18281,37.7812],[-121.17942,37.78119]]}},{"type":"Feature","properties":{"name":"(unnamed public road)","road_class":"track","source":"OpenStreetMap","source_detail":"osm way 24892383","source_tile":"167/395","surface_inferred":true},"geometry":{"type":"LineString","coordinates":[[-121.18281,37.7812],[-121.18284,37.77949],[-121.18234,37.77948],[-121.17939,37.77949]]}},{"type":"Feature","properties":{"name":"(unnamed public road)","road_class":"track","source":"OpenStreetMap","source_detail":"osm way 24892390","source_tile":"167/395","surface_inferred":true},"geometry":{"type":"LineString","coordinates":[[-121.18284,37.77949],[-121.1845,37.77949]]}},{"type":"Feature","properties":{"name":"(unnamed public road)","road_class":"track","source":"OpenStreetMap","source_detail":"osm way 24892410","source_tile":"167/395","surface_inferred":true},"geometry":{"type":"LineString","coordinates":[[-121.18234,37.77948],[-121.18236,37.77822]]}},{"type":"Feature","properties":{"name":"Pato Court","road_class":"track","tracktype":"grade2","source":"OpenStreetMap","source_detail":"osm way 26272547","source_tile":"167/395","surface_inferred":true},"geometry":{"type":"LineString","coordinates":[[-121.25786,37.92487],[-121.25762,37.92501]]}},{"type":"Feature","properties":{"name":"(unnamed public road)","road_class":"track","tracktype":"grade2","source":"OpenStreetMap","source_detail":"osm way 26272548","source_tile":"167/395","surface_inferred":true},"geometry":{"type":"LineString","coordinates":[[-121.26302,37.92346],[-121.26314,37.92355]]}},{"type":"Feature","properties":{"name":"(unnamed public road)","road_class":"track","source":"OpenStreetMap","source_detail":"osm way 48016446","source_tile":"167/395","surface_inferred":true},"geometry":{"type":"LineString","coordinates":[[-121.21997,37.87481],[-121.21996,37.87473]]}},{"type":"Feature","properties":{"name":"(unnamed public road)","road_class":"track","source":"OpenStreetMap","source_detail":"osm way 48255284","source_tile":"167/395","surface_inferred":true},"geometry":{"type":"LineString","coordinates":[[-121.21977,37.87197],[-121.21973,37.87159],[-121.21958,37.87027],[-121.21958,37.87015],[-121.2196,37.87012],[-121.21962,37.8701],[-121.21967,37.87007],[-121.2197,37.87006],[-121.21975,37.87006],[-121.22009,37.87005],[-121.22132,37.87005],[-121.2219,37.87006],[-121.2225,37.87005],[-121.22314,37.87005],[-121.22367,37.87004],[-121.2251,37.87004],[-121.2255,37.87004],[-121.22626,37.87005]]}},{"type":"Feature","properties":{"name":"(unnamed public road)","road_class":"track","source":"OpenStreetMap","source_detail":"osm way 245361484","source_tile":"167/395","surface_inferred":true},"geometry":{"type":"LineString","coordinates":[[-120.99175,37.78205],[-120.98759,37.78206],[-120.98704,37.78207]]}},{"type":"Feature","properties":{"name":"(unnamed public road)","road_class":"track","source":"OpenStreetMap","source_detail":"osm way 249088876","source_tile":"167/395","surface_inferred":true},"geometry":{"type":"LineString","coordinates":[[-121.11827,37.86347],[-121.11849,37.87081]]}},{"type":"Feature","properties":{"name":"Little John's Creek","road_class":"track","source":"OpenStreetMap","source_detail":"osm way 313299727","source_tile":"167/395","surface_inferred":true},"geometry":{"type":"LineString","coordinates":[[-120.99958,37.93207],[-120.99938,37.93203],[-120.99912,37.93195],[-120.99895,37.93188],[-120.99868,37.93169],[-120.99837,37.93145],[-120.99833,37.93139],[-120.99832,37.93136],[-120.99833,37.93134],[-120.99835,37.93131],[-120.99838,37.9313],[-120.99852,37.93129],[-120.99876,37.93129]]}},{"type":"Feature","properties":{"name":"(unnamed public road)","road_class":"track","source":"OpenStreetMap","source_detail":"osm way 359998187","source_tile":"167/395","surface_inferred":true},"geometry":{"type":"LineString","coordinates":[[-121.22644,37.87005],[-121.22649,37.87004]]}},{"type":"Feature","properties":{"name":"(unnamed public road)","road_class":"track","source":"OpenStreetMap","source_detail":"osm way 359998189","source_tile":"167/395","surface_inferred":true},"geometry":{"type":"LineString","coordinates":[[-121.22626,37.87005],[-121.22632,37.87005],[-121.22644,37.87005]]}},{"type":"Feature","properties":{"name":"(unnamed public road)","road_class":"track","source":"OpenStreetMap","source_detail":"osm way 372129356","source_tile":"167/395","surface_inferred":true},"geometry":{"type":"LineString","coordinates":[[-121.14514,37.95394],[-121.14493,37.95411]]}},{"type":"Feature","properties":{"name":"(unnamed public road)","road_class":"track","surface":"dirt","source":"OpenStreetMap","source_detail":"osm way 372264667","source_tile":"167/395"},"geometry":{"type":"LineString","coordinates":[[-121.15757,37.9538],[-121.15745,37.94945],[-121.15759,37.94943],[-121.16383,37.94939],[-121.16391,37.94936],[-121.16398,37.94932],[-121.16399,37.94927],[-121.16401,37.94907]]}},{"type":"Feature","properties":{"name":"(unnamed public road)","road_class":"track","source":"OpenStreetMap","source_detail":"osm way 414304888","source_tile":"167/395","surface_inferred":true},"geometry":{"type":"LineString","coordinates":[[-121.22248,37.97066],[-121.22208,37.97075],[-121.22172,37.97083],[-121.22118,37.97091],[-121.21992,37.97101],[-121.21901,37.97112],[-121.21839,37.97127],[-121.21796,37.97139],[-121.21547,37.97204],[-121.21144,37.97308],[-121.20527,37.97471],[-121.20414,37.97502],[-121.20391,37.97504]]}},{"type":"Feature","properties":{"name":"(unnamed public road)","road_class":"track","source":"OpenStreetMap","source_detail":"osm way 446959396","source_tile":"167/395","surface_inferred":true},"geometry":{"type":"LineString","coordinates":[[-121.26298,37.73579],[-121.2629,37.73602],[-121.26281,37.73616],[-121.26264,37.73635],[-121.26194,37.73703],[-121.26157,37.73728],[-121.26096,37.73763],[-121.26085,37.73778],[-121.26082,37.73793],[-121.26081,37.73823],[-121.26085,37.73851],[-121.26092,37.73871],[-121.26091,37.73885],[-121.26088,37.73903]]}},{"type":"Feature","properties":{"name":"(unnamed public road)","road_class":"track","source":"OpenStreetMap","source_detail":"osm way 446959397","source_tile":"167/395","surface_inferred":true},"geometry":{"type":"LineString","coordinates":[[-121.25213,37.73735],[-121.25625,37.73737]]}},{"type":"Feature","properties":{"name":"(unnamed public road)","road_class":"track","source":"OpenStreetMap","source_detail":"osm way 446959399","source_tile":"167/395","surface_inferred":true},"geometry":{"type":"LineString","coordinates":[[-121.25217,37.72851],[-121.24753,37.72851],[-121.24305,37.72852]]}},{"type":"Feature","properties":{"name":"(unnamed public road)","road_class":"track","source":"OpenStreetMap","source_detail":"osm way 446959400","source_tile":"167/395","surface_inferred":true},"geometry":{"type":"LineString","coordinates":[[-121.25217,37.72866],[-121.25504,37.72863],[-121.25848,37.72863]]}},{"type":"Feature","properties":{"name":"(unnamed public road)","road_class":"track","source":"OpenStreetMap","source_detail":"osm way 446959401","source_tile":"167/395","surface_inferred":true},"geometry":{"type":"LineString","coordinates":[[-121.24303,37.75035],[-121.24318,37.75035],[-121.2452,37.75035],[-121.24556,37.75037],[-121.24746,37.75036]]}},{"type":"Feature","properties":{"name":"(unnamed public road)","road_class":"track","source":"OpenStreetMap","source_detail":"osm way 446959402","source_tile":"167/395","surface_inferred":true},"geometry":{"type":"LineString","coordinates":[[-121.28144,37.74246],[-121.28158,37.7425],[-121.28172,37.74257],[-121.28213,37.74289],[-121.28543,37.74552],[-121.28554,37.74556]]}},{"type":"Feature","properties":{"name":"(unnamed public road)","road_class":"track","source":"OpenStreetMap","source_detail":"osm way 453844148","source_tile":"167/395","surface_inferred":true},"geometry":{"type":"LineString","coordinates":[[-121.23388,37.75374],[-121.23129,37.75376],[-121.22927,37.75377]]}},{"type":"Feature","properties":{"name":"(unnamed public road)","road_class":"track","source":"OpenStreetMap","source_detail":"osm way 453844149","source_tile":"167/395","surface_inferred":true},"geometry":{"type":"LineString","coordinates":[[-121.23384,37.7438],[-121.23217,37.74382],[-121.23015,37.74384]]}},{"type":"Feature","properties":{"name":"(unnamed public road)","road_class":"track","source":"OpenStreetMap","source_detail":"osm way 454921026","source_tile":"167/395","surface_inferred":true},"geometry":{"type":"LineString","coordinates":[[-121.18266,37.94937],[-121.18258,37.94944],[-121.18249,37.9495],[-121.1824,37.94954],[-121.18224,37.94957],[-121.18195,37.94968],[-121.18171,37.94981],[-121.18076,37.9504],[-121.18055,37.95048],[-121.18038,37.95052],[-121.18024,37.95055],[-121.18,37.95056],[-121.17992,37.95056],[-121.17986,37.95055],[-121.17978,37.95051],[-121.1797,37.95047],[-121.17958,37.95043],[-121.1791,37.95037]]}},{"type":"Feature","properties":{"name":"(unnamed public road)","road_class":"track","source":"OpenStreetMap","source_detail":"osm way 455137782","source_tile":"167/395","surface_inferred":true},"geometry":{"type":"LineString","coordinates":[[-121.23376,37.73208],[-121.23408,37.73211],[-121.23447,37.73213],[-121.23505,37.73211],[-121.23559,37.73216],[-121.23605,37.73211],[-121.23625,37.7321],[-121.2405,37.73211],[-121.24076,37.73217],[-121.24172,37.73215],[-121.24257,37.73215],[-121.24272,37.73219],[-121.24305,37.73215],[-121.24405,37.73215],[-121.24708,37.73217],[-121.25215,37.73217]]}},{"type":"Feature","properties":{"name":"(unnamed public road)","road_class":"track","source":"OpenStreetMap","source_detail":"osm way 455137783","source_tile":"167/395","surface_inferred":true},"geometry":{"type":"LineString","coordinates":[[-121.23374,37.72849],[-121.23601,37.72849]]}},{"type":"Feature","properties":{"name":"(unnamed public road)","road_class":"track","source":"OpenStreetMap","source_detail":"osm way 459279511","source_tile":"167/395","surface_inferred":true},"geometry":{"type":"LineString","coordinates":[[-120.94286,37.83754],[-120.94304,37.83757],[-120.94513,37.83755],[-120.94521,37.83758],[-120.94526,37.83763],[-120.94529,37.83839],[-120.94532,37.83843],[-120.9454,37.83845],[-120.94708,37.83846],[-120.94752,37.8385],[-120.94982,37.83848]]}},{"type":"Feature","properties":{"name":"(unnamed public road)","road_class":"track","source":"OpenStreetMap","source_detail":"osm way 459279557","source_tile":"167/395","surface_inferred":true},"geometry":{"type":"LineString","coordinates":[[-120.96043,37.81552],[-120.96099,37.81551],[-120.96112,37.81554],[-120.96267,37.81553],[-120.96282,37.81552],[-120.96295,37.81549],[-120.96305,37.81546],[-120.96321,37.81534],[-120.96368,37.815],[-120.96389,37.81487],[-120.96406,37.81481],[-120.96429,37.81475],[-120.96504,37.81462]]}},{"type":"Feature","properties":{"name":"(unnamed public road)","road_class":"track","source":"OpenStreetMap","source_detail":"osm way 459279559","source_tile":"167/395","surface_inferred":true},"geometry":{"type":"LineString","coordinates":[[-120.96557,37.82761],[-120.96556,37.82705],[-120.96559,37.827],[-120.96562,37.82697],[-120.96595,37.82684],[-120.96601,37.82679],[-120.96606,37.82673],[-120.9661,37.82668],[-120.96612,37.82662],[-120.96613,37.82655],[-120.96613,37.82648],[-120.96597,37.82574],[-120.96583,37.82501],[-120.9658,37.82495],[-120.96577,37.82491],[-120.96565,37.82478],[-120.96554,37.82466],[-120.96548,37.82457],[-120.96545,37.82448],[-120.96541,37.82384]]}},{"type":"Feature","properties":{"name":"(unnamed public road)","road_class":"track","source":"OpenStreetMap","source_detail":"osm way 459279562","source_tile":"167/395","surface_inferred":true},"geometry":{"type":"LineString","coordinates":[[-120.96101,37.82985],[-120.96094,37.82985],[-120.96088,37.82987],[-120.96075,37.82993],[-120.96064,37.82998],[-120.96051,37.83],[-120.96034,37.83002],[-120.96024,37.83002],[-120.96016,37.83],[-120.96012,37.82996],[-120.96012,37.82966]]}},{"type":"Feature","properties":{"name":"(unnamed public road)","road_class":"track","source":"OpenStreetMap","source_detail":"osm way 459286446","source_tile":"167/395","surface_inferred":true},"geometry":{"type":"LineString","coordinates":[[-120.96027,37.80948],[-120.96469,37.80946],[-120.96479,37.80944],[-120.96485,37.80939],[-120.96487,37.80933],[-120.96486,37.80892]]}},{"type":"Feature","properties":{"name":"(unnamed public road)","road_class":"track","source":"OpenStreetMap","source_detail":"osm way 459665251","source_tile":"167/395","surface_inferred":true},"geometry":{"type":"LineString","coordinates":[[-121.09102,37.86861],[-121.08852,37.86862]]}},{"type":"Feature","properties":{"name":"(unnamed public road)","road_class":"track","source":"OpenStreetMap","source_detail":"osm way 459869858","source_tile":"167/395","surface_inferred":true},"geometry":{"type":"LineString","coordinates":[[-121.03503,37.83503],[-121.03525,37.84217],[-121.03529,37.84223],[-121.03527,37.84236],[-121.03537,37.84603],[-121.03549,37.8495],[-121.03557,37.85235],[-121.0356,37.85243],[-121.03563,37.85248],[-121.03573,37.85255]]}},{"type":"Feature","properties":{"name":"(unnamed public road)","road_class":"track","source":"OpenStreetMap","source_detail":"osm way 459869861","source_tile":"167/395","surface_inferred":true},"geometry":{"type":"LineString","coordinates":[[-121.01568,37.82039],[-121.01893,37.82038],[-121.01902,37.8204],[-121.01907,37.82046],[-121.01916,37.82368]]}},{"type":"Feature","properties":{"name":"(unnamed public road)","road_class":"track","source":"OpenStreetMap","source_detail":"osm way 459869871","source_tile":"167/395","surface_inferred":true},"geometry":{"type":"LineString","coordinates":[[-121.04931,37.85652],[-121.04927,37.85291]]}},{"type":"Feature","properties":{"name":"(unnamed public road)","road_class":"track","source":"OpenStreetMap","source_detail":"osm way 459869872","source_tile":"167/395","surface_inferred":true},"geometry":{"type":"LineString","coordinates":[[-121.06425,37.85637],[-121.06427,37.8576],[-121.06432,37.85769],[-121.06438,37.85779],[-121.06443,37.8579]]}},{"type":"Feature","properties":{"name":"(unnamed public road)","road_class":"track","source":"OpenStreetMap","source_detail":"osm way 460664897","source_tile":"167/395","surface_inferred":true},"geometry":{"type":"LineString","coordinates":[[-121.12476,37.77358],[-121.12421,37.77352],[-121.12391,37.77344],[-121.12373,37.77342],[-121.12345,37.7734]]}},{"type":"Feature","properties":{"name":"(unnamed public road)","road_class":"track","source":"OpenStreetMap","source_detail":"osm way 461208962","source_tile":"167/395","surface_inferred":true},"geometry":{"type":"LineString","coordinates":[[-121.19464,37.92144],[-121.19441,37.92165],[-121.1943,37.92189],[-121.19447,37.92302],[-121.1947,37.92319],[-121.19495,37.92322],[-121.1965,37.92323]]}},{"type":"Feature","properties":{"name":"(unnamed public road)","road_class":"track","source":"OpenStreetMap","source_detail":"osm way 461208963","source_tile":"167/395","surface_inferred":true},"geometry":{"type":"LineString","coordinates":[[-121.19565,37.9216],[-121.19582,37.92163],[-121.1965,37.92323],[-121.19659,37.92337],[-121.19662,37.92346],[-121.1967,37.9237],[-121.19777,37.9262],[-121.19926,37.92972]]}},{"type":"Feature","properties":{"name":"(unnamed public road)","road_class":"track","source":"OpenStreetMap","source_detail":"osm way 461208965","source_tile":"167/395","surface_inferred":true},"geometry":{"type":"LineString","coordinates":[[-121.2,37.92969],[-121.19993,37.92965],[-121.19981,37.92962],[-121.19978,37.92962],[-121.19968,37.92962],[-121.19926,37.92972],[-121.19879,37.92983],[-121.19477,37.93085],[-121.19423,37.93099],[-121.1887,37.93243],[-121.18475,37.93348],[-121.18464,37.9335],[-121.18456,37.9335],[-121.18449,37.93337],[-121.18429,37.92972],[-121.18435,37.92955],[-121.18436,37.92942],[-121.18434,37.92926],[-121.18425,37.92829],[-121.18419,37.92551],[-121.18417,37.92283]]}},{"type":"Feature","properties":{"name":"(unnamed public road)","road_class":"track","source":"OpenStreetMap","source_detail":"osm way 461208966","source_tile":"167/395","surface_inferred":true},"geometry":{"type":"LineString","coordinates":[[-121.18417,37.92283],[-121.18439,37.92271],[-121.18462,37.9226],[-121.18484,37.92253],[-121.18502,37.92248],[-121.18505,37.92247],[-121.1852,37.92245],[-121.18539,37.92247],[-121.18565,37.92253],[-121.1859,37.92264],[-121.18643,37.9229],[-121.18672,37.923],[-121.18695,37.92307],[-121.18728,37.92309],[-121.18751,37.92306],[-121.18766,37.92301],[-121.18792,37.92292],[-121.18808,37.92286],[-121.18823,37.92281],[-121.18839,37.92279],[-121.18861,37.92277],[-121.18887,37.92279],[-121.18923,37.92284],[-121.19054,37.92315],[-121.19118,37.92324],[-121.19148,37.92326],[-121.19236,37.92328],[-121.19288,37.92327],[-121.19396,37.92337],[-121.19458,37.92338],[-121.19577,37.92339],[-121.19662,37.92346]]}},{"type":"Feature","properties":{"name":"(unnamed public road)","road_class":"track","source":"OpenStreetMap","source_detail":"osm way 461208968","source_tile":"167/395","surface_inferred":true},"geometry":{"type":"LineString","coordinates":[[-121.19236,37.92328],[-121.19234,37.92337],[-121.19237,37.92351],[-121.19311,37.92585],[-121.19343,37.92684],[-121.19411,37.92893],[-121.19466,37.93063],[-121.19477,37.93085]]}},{"type":"Feature","properties":{"name":"(unnamed public road)","road_class":"track","source":"OpenStreetMap","source_detail":"osm way 504165533","source_tile":"167/395","surface_inferred":true},"geometry":{"type":"LineString","coordinates":[[-121.25504,37.72863],[-121.25502,37.72517],[-121.25523,37.7249]]}},{"type":"Feature","properties":{"name":"(unnamed public road)","road_class":"track","source":"OpenStreetMap","source_detail":"osm way 504165534","source_tile":"167/395","surface_inferred":true},"geometry":{"type":"LineString","coordinates":[[-121.25595,37.7241],[-121.25575,37.72409]]}},{"type":"Feature","properties":{"name":"(unnamed public road)","road_class":"track","source":"OpenStreetMap","source_detail":"osm way 504165536","source_tile":"167/395","surface_inferred":true},"geometry":{"type":"LineString","coordinates":[[-121.25601,37.72109],[-121.25597,37.72122],[-121.25595,37.7241],[-121.25595,37.72467],[-121.25595,37.72491]]}},{"type":"Feature","properties":{"name":"(unnamed public road)","road_class":"track","source":"OpenStreetMap","source_detail":"osm way 504165539","source_tile":"167/396","surface_inferred":true},"geometry":{"type":"LineString","coordinates":[[-121.25917,37.721],[-121.25879,37.72056],[-121.25858,37.72021],[-121.25846,37.71973],[-121.25835,37.71915],[-121.2583,37.71866],[-121.25826,37.71824],[-121.25554,37.71825],[-121.2542,37.71822],[-121.25296,37.71821],[-121.25264,37.7182],[-121.25244,37.71819],[-121.25235,37.71811],[-121.25217,37.7181]]}},{"type":"Feature","properties":{"name":"(unnamed public road)","road_class":"track","source":"OpenStreetMap","source_detail":"osm way 504165540","source_tile":"167/395","surface_inferred":true},"geometry":{"type":"LineString","coordinates":[[-121.25216,37.72096],[-121.2524,37.72107],[-121.25261,37.72109],[-121.25601,37.72109],[-121.25905,37.72109],[-121.25917,37.721],[-121.2594,37.72121],[-121.25954,37.72134],[-121.25997,37.72173]]}},{"type":"Feature","properties":{"name":"(unnamed public road)","road_class":"track","source":"OpenStreetMap","source_detail":"osm way 601939301","source_tile":"167/395","surface_inferred":true},"geometry":{"type":"LineString","coordinates":[[-121.14834,37.95492],[-121.148,37.95493],[-121.14754,37.95442],[-121.14721,37.95414],[-121.14707,37.95411],[-121.14689,37.95412],[-121.14667,37.9542],[-121.14564,37.95419],[-121.14534,37.95411],[-121.14514,37.95394]]}},{"type":"Feature","properties":{"name":"Sayre Road","road_class":"track","source":"OpenStreetMap","source_detail":"osm way 665331225","source_tile":"167/395","surface_inferred":true},"geometry":{"type":"LineString","coordinates":[[-121.07722,37.90653],[-121.07738,37.90655],[-121.07808,37.90655],[-121.07977,37.90652],[-121.08021,37.9065],[-121.08241,37.90643],[-121.08248,37.90641],[-121.08263,37.90629],[-121.08271,37.90623],[-121.0829,37.90615],[-121.08313,37.90611],[-121.08326,37.90607],[-121.08335,37.906]]}},{"type":"Feature","properties":{"name":"Marie Baker Road","road_class":"unclassified","surface":"unpaved","source":"OpenStreetMap","source_detail":"osm way 673507313","source_tile":"167/395"},"geometry":{"type":"LineString","coordinates":[[-121.14563,37.85573],[-121.14029,37.85583]]}},{"type":"Feature","properties":{"name":"(unnamed public road)","road_class":"track","source":"OpenStreetMap","source_detail":"osm way 685336825","source_tile":"167/395","surface_inferred":true},"geometry":{"type":"LineString","coordinates":[[-121.10537,37.74566],[-121.10537,37.74549],[-121.10536,37.74528],[-121.10537,37.74515],[-121.10537,37.74483],[-121.10537,37.74481],[-121.10541,37.74472],[-121.10544,37.74434],[-121.10538,37.74311],[-121.10534,37.743],[-121.10528,37.74294],[-121.10523,37.74293],[-121.10474,37.74277],[-121.10348,37.74237],[-121.10262,37.74211],[-121.10238,37.74207],[-121.10227,37.74206],[-121.10167,37.74217],[-121.10109,37.74226],[-121.10092,37.74227],[-121.10061,37.74224],[-121.10031,37.74217],[-121.10021,37.74215],[-121.10002,37.74208],[-121.09964,37.74188],[-121.09943,37.74177],[-121.09924,37.74161],[-121.0991,37.74143],[-121.0988,37.74082],[-121.09851,37.74026],[-121.09844,37.74012],[-121.09834,37.73998],[-121.09822,37.73987],[-121.0981,37.73978]]}},{"type":"Feature","properties":{"name":"(unnamed public road)","road_class":"track","access":"yes","source":"OpenStreetMap","source_detail":"osm way 701944296","source_tile":"167/395","surface_inferred":true},"geometry":{"type":"LineString","coordinates":[[-121.2523,37.98248],[-121.25306,37.98233]]}},{"type":"Feature","properties":{"name":"(unnamed public road)","road_class":"track","surface":"ground","tracktype":"grade5","source":"OpenStreetMap","source_detail":"osm way 751917416","source_tile":"167/395"},"geometry":{"type":"LineString","coordinates":[[-121.13827,37.76852],[-121.13826,37.76815]]}},{"type":"Feature","properties":{"name":"(unnamed public road)","road_class":"track","surface":"ground","tracktype":"grade4","source":"OpenStreetMap","source_detail":"osm way 751917418","source_tile":"167/395"},"geometry":{"type":"LineString","coordinates":[[-121.13826,37.76815],[-121.13824,37.76746],[-121.13824,37.76733],[-121.13822,37.76729],[-121.13819,37.76731],[-121.13813,37.76735],[-121.13804,37.76737],[-121.13596,37.76735]]}},{"type":"Feature","properties":{"name":"Clinton South Avenue","road_class":"track","source":"OpenStreetMap","source_detail":"osm way 755887837","source_tile":"167/395","surface_inferred":true},"geometry":{"type":"LineString","coordinates":[[-121.11511,37.76853],[-121.11305,37.76851],[-121.1121,37.76853],[-121.11085,37.76855]]}},{"type":"Feature","properties":{"name":"(unnamed public road)","road_class":"track","source":"OpenStreetMap","source_detail":"osm way 783026032","source_tile":"167/395","surface_inferred":true},"geometry":{"type":"LineString","coordinates":[[-120.97124,37.8615],[-120.97123,37.86173],[-120.97114,37.86184],[-120.971,37.86188],[-120.97066,37.86185],[-120.97003,37.86182],[-120.96934,37.86182],[-120.96886,37.86181],[-120.96772,37.86181],[-120.96599,37.8618],[-120.96486,37.86178],[-120.96481,37.86184],[-120.9647,37.86208],[-120.96473,37.86257],[-120.96475,37.86298],[-120.96486,37.86305],[-120.9656,37.86305],[-120.96787,37.8631],[-120.96793,37.86315],[-120.96796,37.86327],[-120.96798,37.86393],[-120.96805,37.86395],[-120.96819,37.86395],[-120.9712,37.86397],[-120.97125,37.86393],[-120.9713,37.86387],[-120.97131,37.86375],[-120.97123,37.86173]]}},{"type":"Feature","properties":{"name":"(unnamed public road)","road_class":"track","source":"OpenStreetMap","source_detail":"osm way 783809863","source_tile":"167/395","surface_inferred":true},"geometry":{"type":"LineString","coordinates":[[-121.13882,37.99356],[-121.14109,37.99352]]}},{"type":"Feature","properties":{"name":"(unnamed public road)","road_class":"track","source":"OpenStreetMap","source_detail":"osm way 783812675","source_tile":"167/395","surface_inferred":true},"geometry":{"type":"LineString","coordinates":[[-121.16151,37.79758],[-121.16149,37.79701],[-121.16145,37.79645],[-121.16142,37.79425],[-121.16143,37.79382],[-121.16144,37.79327],[-121.1614,37.79214],[-121.16137,37.79102],[-121.16137,37.79034],[-121.16142,37.79027],[-121.16152,37.79024],[-121.16192,37.79026],[-121.16215,37.79031],[-121.16327,37.79094],[-121.164,37.79144],[-121.16445,37.79183],[-121.16464,37.79185],[-121.1659,37.7919]]}},{"type":"Feature","properties":{"name":"(unnamed public road)","road_class":"track","source":"OpenStreetMap","source_detail":"osm way 784118299","source_tile":"167/395","surface_inferred":true},"geometry":{"type":"LineString","coordinates":[[-121.00497,37.76221],[-121.0049,37.75876]]}},{"type":"Feature","properties":{"name":"(unnamed public road)","road_class":"track","source":"OpenStreetMap","source_detail":"osm way 784118300","source_tile":"167/395","surface_inferred":true},"geometry":{"type":"LineString","coordinates":[[-121.00725,37.76223],[-121.00717,37.75847]]}},{"type":"Feature","properties":{"name":"(unnamed public road)","road_class":"track","source":"OpenStreetMap","source_detail":"osm way 784118301","source_tile":"167/395","surface_inferred":true},"geometry":{"type":"LineString","coordinates":[[-121.0095,37.76224],[-121.00952,37.76203],[-121.0094,37.758]]}},{"type":"Feature","properties":{"name":"(unnamed public road)","road_class":"track","source":"OpenStreetMap","source_detail":"osm way 787001174","source_tile":"167/395","surface_inferred":true},"geometry":{"type":"LineString","coordinates":[[-121.04208,37.90761],[-121.042,37.90761],[-121.04178,37.90761],[-121.04117,37.90762],[-121.03981,37.90765],[-121.03904,37.90767],[-121.03745,37.9077],[-121.03612,37.90772],[-121.03483,37.90774],[-121.03338,37.90776],[-121.032,37.90777],[-121.03193,37.90778],[-121.03189,37.9078],[-121.03188,37.90785]]}},{"type":"Feature","properties":{"name":"(unnamed public road)","road_class":"track","source":"OpenStreetMap","source_detail":"osm way 792151888","source_tile":"167/395","surface_inferred":true},"geometry":{"type":"LineString","coordinates":[[-121.17981,37.72123],[-121.17981,37.72177],[-121.17888,37.72177],[-121.17858,37.72177]]}},{"type":"Feature","properties":{"name":"(unnamed public road)","road_class":"track","source":"OpenStreetMap","source_detail":"osm way 798233437","source_tile":"167/395","surface_inferred":true},"geometry":{"type":"LineString","coordinates":[[-121.0656,37.95074],[-121.06564,37.95157]]}},{"type":"Feature","properties":{"name":"(unnamed public road)","road_class":"track","source":"OpenStreetMap","source_detail":"osm way 800572313","source_tile":"167/395","surface_inferred":true},"geometry":{"type":"LineString","coordinates":[[-121.20877,37.75027],[-121.20875,37.75001]]}},{"type":"Feature","properties":{"name":"(unnamed public road)","road_class":"track","source":"OpenStreetMap","source_detail":"osm way 801530820","source_tile":"167/395","surface_inferred":true},"geometry":{"type":"LineString","coordinates":[[-121.25425,37.83652],[-121.25394,37.83655],[-121.25382,37.83665],[-121.2538,37.83669],[-121.25386,37.83682],[-121.25396,37.83696],[-121.25391,37.83706],[-121.25376,37.83714],[-121.25362,37.83732]]}},{"type":"Feature","properties":{"name":"(unnamed public road)","road_class":"track","surface":"compacted","source":"OpenStreetMap","source_detail":"osm way 806688953","source_tile":"167/395"},"geometry":{"type":"LineString","coordinates":[[-121.10588,37.79796],[-121.10587,37.79833],[-121.10587,37.79851],[-121.10588,37.79859],[-121.1059,37.79863],[-121.10592,37.79866]]}},{"type":"Feature","properties":{"name":"(unnamed public road)","road_class":"track","source":"OpenStreetMap","source_detail":"osm way 808258387","source_tile":"167/395","surface_inferred":true},"geometry":{"type":"LineString","coordinates":[[-121.19709,37.7467],[-121.19264,37.74669],[-121.19261,37.74668],[-121.19258,37.74665],[-121.19253,37.74345]]}},{"type":"Feature","properties":{"name":"(unnamed public road)","road_class":"track","source":"OpenStreetMap","source_detail":"osm way 809158234","source_tile":"167/395","surface_inferred":true},"geometry":{"type":"LineString","coordinates":[[-121.08904,37.80811],[-121.08828,37.80813],[-121.08445,37.80815]]}},{"type":"Feature","properties":{"name":"(unnamed public road)","road_class":"track","source":"OpenStreetMap","source_detail":"osm way 813164181","source_tile":"167/395","surface_inferred":true},"geometry":{"type":"LineString","coordinates":[[-121.13882,37.99356],[-121.13877,37.99038],[-121.14008,37.99036],[-121.14103,37.99034]]}},{"type":"Feature","properties":{"name":"(unnamed public road)","road_class":"track","source":"OpenStreetMap","source_detail":"osm way 818631450","source_tile":"167/395","surface_inferred":true},"geometry":{"type":"LineString","coordinates":[[-121.22467,37.74978],[-121.22394,37.74977],[-121.22287,37.74978],[-121.22265,37.74978],[-121.22252,37.74978],[-121.22248,37.74978],[-121.22245,37.74977],[-121.22241,37.74975],[-121.22237,37.74974],[-121.22233,37.74974],[-121.2223,37.74973],[-121.22215,37.74973],[-121.22204,37.74974],[-121.22199,37.74975],[-121.22196,37.74975],[-121.22189,37.74976],[-121.22185,37.74976],[-121.22164,37.74977],[-121.22157,37.74977],[-121.22147,37.74977],[-121.22122,37.74978],[-121.22106,37.74977],[-121.22097,37.74976],[-121.2209,37.74976],[-121.22082,37.74976],[-121.22075,37.74976],[-121.22054,37.74976],[-121.22033,37.74976],[-121.22015,37.74973],[-121.2201,37.74973],[-121.22004,37.74972],[-121.21993,37.74971],[-121.21975,37.74969],[-121.21956,37.74965],[-121.21933,37.7496],[-121.21914,37.74957],[-121.21887,37.74948],[-121.21864,37.74941],[-121.21843,37.74936],[-121.21828,37.74932],[-121.21804,37.74926],[-121.21787,37.74925],[-121.2176,37.74925],[-121.21728,37.74924],[-121.21668,37.74925],[-121.21597,37.74925],[-121.21553,37.74923]]}},{"type":"Feature","properties":{"name":"(unnamed public road)","road_class":"track","source":"OpenStreetMap","source_detail":"osm way 818631451","source_tile":"167/395","surface_inferred":true},"geometry":{"type":"LineString","coordinates":[[-121.2201,37.74973],[-121.22011,37.74862],[-121.2201,37.74764],[-121.22007,37.7476],[-121.22003,37.74758],[-121.21929,37.74764],[-121.21831,37.74764],[-121.21717,37.74765]]}},{"type":"Feature","properties":{"name":"(unnamed public road)","road_class":"track","source":"OpenStreetMap","source_detail":"osm way 824431623","source_tile":"167/395","surface_inferred":true},"geometry":{"type":"LineString","coordinates":[[-121.23897,37.73941],[-121.239,37.73966],[-121.23903,37.73978],[-121.23902,37.74023],[-121.23902,37.74039],[-121.239,37.74043],[-121.23897,37.74045],[-121.23892,37.74047],[-121.23885,37.74047],[-121.23848,37.74048],[-121.23838,37.74049]]}},{"type":"Feature","properties":{"name":"(unnamed public road)","road_class":"track","source":"OpenStreetMap","source_detail":"osm way 830595353","source_tile":"167/395","surface_inferred":true},"geometry":{"type":"LineString","coordinates":[[-121.23845,37.76116],[-121.23828,37.76114],[-121.23812,37.76113],[-121.23757,37.76112],[-121.23732,37.76112],[-121.23684,37.76114],[-121.23642,37.76114],[-121.23608,37.76114],[-121.23575,37.76116],[-121.23554,37.76117],[-121.23546,37.76117],[-121.23536,37.76117],[-121.23528,37.76118],[-121.23519,37.76118],[-121.23509,37.76116],[-121.235,37.76112],[-121.23494,37.76112],[-121.23483,37.76112],[-121.23443,37.76113],[-121.23389,37.76113]]}},{"type":"Feature","properties":{"name":"(unnamed public road)","road_class":"track","source":"OpenStreetMap","source_detail":"osm way 830684250","source_tile":"167/395","surface_inferred":true},"geometry":{"type":"LineString","coordinates":[[-121.17645,37.82659],[-121.17651,37.8289],[-121.1766,37.83108],[-121.17639,37.83102],[-121.17503,37.83053],[-121.17385,37.83014],[-121.17269,37.82968],[-121.17224,37.82957],[-121.17197,37.82955]]}},{"type":"Feature","properties":{"name":"(unnamed public road)","road_class":"track","source":"OpenStreetMap","source_detail":"osm way 894470045","source_tile":"167/395","surface_inferred":true},"geometry":{"type":"LineString","coordinates":[[-121.10775,37.81981],[-121.10755,37.81981],[-121.10723,37.81982],[-121.10663,37.81982],[-121.10565,37.81982],[-121.10497,37.81984],[-121.10425,37.81983],[-121.10356,37.81984],[-121.10334,37.81985],[-121.10327,37.81987],[-121.10323,37.81998],[-121.10323,37.82027],[-121.10325,37.82078],[-121.10328,37.82126],[-121.1033,37.82165],[-121.10332,37.82219],[-121.10333,37.82258],[-121.10335,37.82292],[-121.10336,37.82327],[-121.10338,37.82363],[-121.10338,37.82401],[-121.1034,37.8244],[-121.10342,37.82482],[-121.10343,37.82529],[-121.10344,37.82579],[-121.10346,37.82614],[-121.10348,37.82652],[-121.10349,37.82711]]}},{"type":"Feature","properties":{"name":"(unnamed public road)","road_class":"track","source":"OpenStreetMap","source_detail":"osm way 894481524","source_tile":"167/395","surface_inferred":true},"geometry":{"type":"LineString","coordinates":[[-121.1803,37.80714],[-121.18079,37.80713],[-121.18091,37.80712],[-121.18096,37.80709],[-121.18104,37.80696],[-121.18104,37.80694],[-121.18105,37.80677],[-121.18107,37.80652],[-121.18108,37.80647],[-121.18106,37.80645],[-121.18103,37.80643],[-121.18075,37.80642],[-121.18027,37.80641]]}},{"type":"Feature","properties":{"name":"(unnamed public road)","road_class":"track","source":"OpenStreetMap","source_detail":"osm way 894515993","source_tile":"167/395","surface_inferred":true},"geometry":{"type":"LineString","coordinates":[[-121.21649,37.7394],[-121.21645,37.73923],[-121.21621,37.73909],[-121.21597,37.73896],[-121.21577,37.73883],[-121.2157,37.73846],[-121.21565,37.73213],[-121.21563,37.7314]]}},{"type":"Feature","properties":{"name":"(unnamed public road)","road_class":"track","source":"OpenStreetMap","source_detail":"osm way 894520098","source_tile":"167/395","surface_inferred":true},"geometry":{"type":"LineString","coordinates":[[-121.14582,37.81275],[-121.14586,37.81349],[-121.14589,37.8142],[-121.14578,37.8149],[-121.14573,37.81509],[-121.14575,37.81522],[-121.14585,37.81531],[-121.14605,37.81534],[-121.14649,37.81534]]}},{"type":"Feature","properties":{"name":"(unnamed public road)","road_class":"track","source":"OpenStreetMap","source_detail":"osm way 894520099","source_tile":"167/395","surface_inferred":true},"geometry":{"type":"LineString","coordinates":[[-121.14378,37.81523],[-121.14469,37.81519],[-121.14495,37.8152],[-121.14575,37.81522]]}},{"type":"Feature","properties":{"name":"(unnamed public road)","road_class":"track","source":"OpenStreetMap","source_detail":"osm way 894520100","source_tile":"167/395","surface_inferred":true},"geometry":{"type":"LineString","coordinates":[[-121.1438,37.81587],[-121.14487,37.81584],[-121.14493,37.81575],[-121.14495,37.8152]]}},{"type":"Feature","properties":{"name":"(unnamed public road)","road_class":"track","source":"OpenStreetMap","source_detail":"osm way 894521874","source_tile":"167/395","surface_inferred":true},"geometry":{"type":"LineString","coordinates":[[-121.22652,37.987],[-121.22639,37.98702],[-121.22532,37.98731],[-121.22515,37.98736],[-121.22427,37.98761],[-121.2235,37.98782]]}},{"type":"Feature","properties":{"name":"(unnamed public road)","road_class":"track","source":"OpenStreetMap","source_detail":"osm way 894521875","source_tile":"167/395","surface_inferred":true},"geometry":{"type":"LineString","coordinates":[[-121.22515,37.98736],[-121.22468,37.98625],[-121.22458,37.98601],[-121.22603,37.98562],[-121.22608,37.98566],[-121.22611,37.9857],[-121.22619,37.98587],[-121.22625,37.98589],[-121.22666,37.98579],[-121.22844,37.98531],[-121.22829,37.98494],[-121.22829,37.9849],[-121.22832,37.98488],[-121.22934,37.9846],[-121.22938,37.98454],[-121.22946,37.98452]]}},{"type":"Feature","properties":{"name":"(unnamed public road)","road_class":"track","source":"OpenStreetMap","source_detail":"osm way 894526801","source_tile":"167/395","surface_inferred":true},"geometry":{"type":"LineString","coordinates":[[-121.05741,37.95089],[-121.05722,37.95087],[-121.05652,37.95089],[-121.05492,37.95093],[-121.05318,37.95096],[-121.05218,37.951],[-121.04985,37.95105],[-121.04821,37.9511],[-121.04686,37.95114],[-121.04513,37.9512],[-121.04359,37.95125],[-121.03891,37.95137]]}},{"type":"Feature","properties":{"name":"(unnamed public road)","road_class":"track","source":"OpenStreetMap","source_detail":"osm way 894530333","source_tile":"167/395","surface_inferred":true},"geometry":{"type":"LineString","coordinates":[[-121.00825,37.7804],[-121.00825,37.77964],[-121.00824,37.77938],[-121.00823,37.77932],[-121.00818,37.77929],[-121.00747,37.77931],[-121.00739,37.77938],[-121.00738,37.77951],[-121.00741,37.77963],[-121.00746,37.77971],[-121.00747,37.78041]]}},{"type":"Feature","properties":{"name":"(unnamed public road)","road_class":"track","source":"OpenStreetMap","source_detail":"osm way 894544391","source_tile":"167/395","surface_inferred":true},"geometry":{"type":"LineString","coordinates":[[-121.07171,37.83718],[-121.07219,37.83716],[-121.07323,37.83714],[-121.07384,37.83714],[-121.0741,37.83704]]}},{"type":"Feature","properties":{"name":"(unnamed public road)","road_class":"track","source":"OpenStreetMap","source_detail":"osm way 894544392","source_tile":"167/395","surface_inferred":true},"geometry":{"type":"LineString","coordinates":[[-121.07184,37.83966],[-121.07268,37.83964],[-121.07272,37.83942],[-121.07271,37.83893],[-121.07268,37.83848],[-121.07268,37.83805],[-121.07265,37.83763],[-121.07258,37.83749],[-121.07206,37.83745],[-121.07172,37.83745]]}},{"type":"Feature","properties":{"name":"(unnamed public road)","road_class":"track","source":"OpenStreetMap","source_detail":"osm way 894550673","source_tile":"167/395","surface_inferred":true},"geometry":{"type":"LineString","coordinates":[[-121.05663,37.92912],[-121.06092,37.92904],[-121.06567,37.92895],[-121.06577,37.9289],[-121.0657,37.92639],[-121.06572,37.92611],[-121.06594,37.9261],[-121.0673,37.92606],[-121.06984,37.92602]]}},{"type":"Feature","properties":{"name":"(unnamed public road)","road_class":"track","source":"OpenStreetMap","source_detail":"osm way 894789419","source_tile":"167/395","surface_inferred":true},"geometry":{"type":"LineString","coordinates":[[-121.05385,37.98751],[-121.05377,37.98565],[-121.05366,37.98541],[-121.0535,37.98048]]}},{"type":"Feature","properties":{"name":"(unnamed public road)","road_class":"track","source":"OpenStreetMap","source_detail":"osm way 894789420","source_tile":"167/395","surface_inferred":true},"geometry":{"type":"LineString","coordinates":[[-121.05366,37.98752],[-121.05356,37.98573],[-121.05358,37.98564],[-121.05366,37.98541]]}},{"type":"Feature","properties":{"name":"(unnamed public road)","road_class":"track","source":"OpenStreetMap","source_detail":"osm way 894798692","source_tile":"167/395","surface_inferred":true},"geometry":{"type":"LineString","coordinates":[[-121.01429,37.76938],[-121.01458,37.7694],[-121.015,37.76941],[-121.01542,37.76941],[-121.01586,37.76941],[-121.01646,37.76941],[-121.01706,37.76941],[-121.01788,37.76943]]}},{"type":"Feature","properties":{"name":"(unnamed public road)","road_class":"track","source":"OpenStreetMap","source_detail":"osm way 894820004","source_tile":"167/395","surface_inferred":true},"geometry":{"type":"LineString","coordinates":[[-120.9712,37.86034],[-120.97246,37.86034],[-120.97403,37.86036],[-120.97533,37.86036],[-120.9757,37.86037],[-120.97574,37.86036],[-120.97577,37.86034],[-120.97576,37.86023]]}},{"type":"Feature","properties":{"name":"(unnamed public road)","road_class":"track","source":"OpenStreetMap","source_detail":"osm way 894820251","source_tile":"167/395","surface_inferred":true},"geometry":{"type":"LineString","coordinates":[[-121.18622,37.84224],[-121.18517,37.84227],[-121.18179,37.84235],[-121.18173,37.84232],[-121.1817,37.84225],[-121.18166,37.84011]]}},{"type":"Feature","properties":{"name":"(unnamed public road)","road_class":"track","source":"OpenStreetMap","source_detail":"osm way 894820252","source_tile":"167/395","surface_inferred":true},"geometry":{"type":"LineString","coordinates":[[-121.18517,37.84227],[-121.18517,37.84167],[-121.18519,37.84164],[-121.18524,37.84162],[-121.18621,37.8416]]}},{"type":"Feature","properties":{"name":"(unnamed public road)","road_class":"track","source":"OpenStreetMap","source_detail":"osm way 894820388","source_tile":"167/395","surface_inferred":true},"geometry":{"type":"LineString","coordinates":[[-121.2439,37.85558],[-121.2439,37.85526],[-121.24388,37.85468],[-121.24386,37.85399],[-121.24386,37.85365],[-121.24385,37.85296],[-121.24382,37.85207],[-121.24384,37.852],[-121.2439,37.85192]]}},{"type":"Feature","properties":{"name":"(unnamed public road)","road_class":"track","source":"OpenStreetMap","source_detail":"osm way 894826838","source_tile":"167/395","surface_inferred":true},"geometry":{"type":"LineString","coordinates":[[-120.97847,37.80047],[-120.97758,37.80049],[-120.97573,37.80049],[-120.97393,37.80048],[-120.97142,37.80044],[-120.96756,37.80039],[-120.9656,37.80039],[-120.96366,37.80038],[-120.96151,37.80036]]}},{"type":"Feature","properties":{"name":"(unnamed public road)","road_class":"track","source":"OpenStreetMap","source_detail":"osm way 894865589","source_tile":"167/395","surface_inferred":true},"geometry":{"type":"LineString","coordinates":[[-120.96473,37.86257],[-120.96935,37.86261],[-120.96934,37.86182]]}},{"type":"Feature","properties":{"name":"(unnamed public road)","road_class":"track","source":"OpenStreetMap","source_detail":"osm way 898196674","source_tile":"167/396","surface_inferred":true},"geometry":{"type":"LineString","coordinates":[[-120.99847,37.71829],[-120.99748,37.71829],[-120.99712,37.71911]]}},{"type":"Feature","properties":{"name":"(unnamed public road)","road_class":"track","source":"OpenStreetMap","source_detail":"osm way 898196686","source_tile":"167/395","surface_inferred":true},"geometry":{"type":"LineString","coordinates":[[-120.99786,37.72933],[-120.99787,37.72921]]}},{"type":"Feature","properties":{"name":"(unnamed public road)","road_class":"track","source":"OpenStreetMap","source_detail":"osm way 927718190","source_tile":"167/395","surface_inferred":true},"geometry":{"type":"LineString","coordinates":[[-121.17207,37.98535],[-121.1756,37.99318]]}},{"type":"Feature","properties":{"name":"(unnamed public road)","road_class":"track","source":"OpenStreetMap","source_detail":"osm way 927718534","source_tile":"167/395","surface_inferred":true},"geometry":{"type":"LineString","coordinates":[[-121.06613,37.95072],[-121.06641,37.95793]]}},{"type":"Feature","properties":{"name":"(unnamed public road)","road_class":"track","source":"OpenStreetMap","source_detail":"osm way 955761809","source_tile":"167/395","surface_inferred":true},"geometry":{"type":"LineString","coordinates":[[-120.99996,37.7731],[-120.99994,37.77235],[-120.99989,37.77075]]}},{"type":"Feature","properties":{"name":"(unnamed public road)","road_class":"track","source":"OpenStreetMap","source_detail":"osm way 955761810","source_tile":"167/395","surface_inferred":true},"geometry":{"type":"LineString","coordinates":[[-120.99994,37.77235],[-120.99968,37.77233],[-120.99926,37.77232],[-120.9991,37.77233],[-120.9989,37.77236],[-120.9988,37.77236],[-120.99859,37.77233],[-120.99828,37.77233],[-120.99817,37.77234],[-120.99812,37.77236],[-120.99752,37.77237],[-120.99747,37.77076]]}},{"type":"Feature","properties":{"name":"(unnamed public road)","road_class":"track","source":"OpenStreetMap","source_detail":"osm way 955761811","source_tile":"167/395","surface_inferred":true},"geometry":{"type":"LineString","coordinates":[[-120.99752,37.77237],[-120.99753,37.77256],[-120.99762,37.77259],[-120.99769,37.77264],[-120.99769,37.7727]]}},{"type":"Feature","properties":{"name":"(unnamed public road)","road_class":"track","source":"OpenStreetMap","source_detail":"osm way 961826280","source_tile":"167/395","surface_inferred":true},"geometry":{"type":"LineString","coordinates":[[-120.94541,37.82027],[-120.94547,37.82033],[-120.94592,37.82073],[-120.94719,37.82184],[-120.94728,37.82191],[-120.94738,37.822],[-120.94751,37.82216]]}},{"type":"Feature","properties":{"name":"(unnamed public road)","road_class":"track","source":"OpenStreetMap","source_detail":"osm way 993518758","source_tile":"167/395","surface_inferred":true},"geometry":{"type":"LineString","coordinates":[[-121.28633,37.84063],[-121.28634,37.84043],[-121.28687,37.83835],[-121.28669,37.83832]]}},{"type":"Feature","properties":{"name":"(unnamed public road)","road_class":"track","source":"OpenStreetMap","source_detail":"osm way 1014238900","source_tile":"167/395","surface_inferred":true},"geometry":{"type":"LineString","coordinates":[[-121.13896,37.99576],[-121.13882,37.99561],[-121.13884,37.99408],[-121.13882,37.99356]]}},{"type":"Feature","properties":{"name":"(unnamed public road)","road_class":"track","source":"OpenStreetMap","source_detail":"osm way 1066576331","source_tile":"167/395","surface_inferred":true},"geometry":{"type":"LineString","coordinates":[[-121.26886,37.98903],[-121.26884,37.9891],[-121.26887,37.98917],[-121.26895,37.98924],[-121.2691,37.98931],[-121.26929,37.98935],[-121.26947,37.98939],[-121.26966,37.98945],[-121.26995,37.98956],[-121.27059,37.98984],[-121.27177,37.99034],[-121.27236,37.99058],[-121.27284,37.99078],[-121.27332,37.99098],[-121.2736,37.9911],[-121.27378,37.99121]]}},{"type":"Feature","properties":{"name":"(unnamed public road)","road_class":"track","source":"OpenStreetMap","source_detail":"osm way 1143789483","source_tile":"167/395","surface_inferred":true},"geometry":{"type":"LineString","coordinates":[[-121.00497,37.76243],[-121.00491,37.76243],[-121.00362,37.7624],[-121.00334,37.76242],[-121.003,37.76242],[-121.00286,37.76241],[-121.00279,37.7624],[-121.00274,37.76237],[-121.00214,37.76192],[-121.00181,37.76169],[-121.00133,37.76139],[-121.00128,37.76137],[-121.0008,37.76112],[-120.99995,37.76076],[-120.99961,37.76063],[-120.99903,37.76044],[-120.99861,37.76031],[-120.99836,37.76025],[-120.99806,37.76022],[-120.99793,37.76023],[-120.99779,37.76025],[-120.99762,37.7603],[-120.9974,37.76038],[-120.99692,37.76059],[-120.99659,37.76077],[-120.99647,37.76086],[-120.99638,37.76093],[-120.99632,37.761],[-120.99629,37.76107],[-120.99627,37.76115],[-120.99626,37.76129],[-120.99626,37.76148],[-120.99627,37.76186],[-120.99635,37.76338],[-120.9964,37.76559],[-120.99641,37.76616],[-120.99643,37.76651],[-120.99643,37.76731],[-120.99644,37.76766],[-120.99644,37.76779],[-120.99641,37.76802],[-120.99637,37.76813],[-120.99632,37.76825],[-120.99624,37.7684],[-120.99621,37.76846],[-120.99621,37.76851],[-120.99626,37.76856]]}},{"type":"Feature","properties":{"name":"(unnamed public road)","road_class":"track","surface":"unpaved","tracktype":"grade3","source":"OpenStreetMap","source_detail":"osm way 1143789484","source_tile":"167/395"},"geometry":{"type":"LineString","coordinates":[[-121.00504,37.76243],[-121.00497,37.76243]]}},{"type":"Feature","properties":{"name":"(unnamed public road)","road_class":"track","source":"OpenStreetMap","source_detail":"osm way 1143789494","source_tile":"167/395","surface_inferred":true},"geometry":{"type":"LineString","coordinates":[[-121.01414,37.76248],[-121.01201,37.76247],[-121.00721,37.76244],[-121.00506,37.76243],[-121.00504,37.76243]]}},{"type":"Feature","properties":{"name":"Greenleaf Road","road_class":"track","source":"OpenStreetMap","source_detail":"osm way 1143789495","source_tile":"167/395","surface_inferred":true},"geometry":{"type":"LineString","coordinates":[[-121.00142,37.76118],[-121.00215,37.76165],[-121.00254,37.76192],[-121.00277,37.76206],[-121.00289,37.76212],[-121.00301,37.76216],[-121.00321,37.76218],[-121.00379,37.7622],[-121.00497,37.76221],[-121.00725,37.76223],[-121.00761,37.76223],[-121.0095,37.76224],[-121.01414,37.76228]]}},{"type":"Feature","properties":{"name":"Brennan Road","road_class":"track","surface":"dirt","tracktype":"grade3","source":"OpenStreetMap","source_detail":"osm way 1143789496","source_tile":"167/395"},"geometry":{"type":"LineString","coordinates":[[-121.01414,37.76248],[-121.01414,37.76228]]}},{"type":"Feature","properties":{"name":"Greenleaf Road","road_class":"track","source":"OpenStreetMap","source_detail":"osm way 1143789501","source_tile":"167/395","surface_inferred":true},"geometry":{"type":"LineString","coordinates":[[-121.01414,37.76228],[-121.01712,37.7623],[-121.01719,37.7623],[-121.01744,37.7623],[-121.0179,37.76229],[-121.01936,37.76229],[-121.02324,37.76234],[-121.0233,37.76234],[-121.02909,37.76236],[-121.0306,37.76237],[-121.03261,37.76236],[-121.03284,37.76237]]}},{"type":"Feature","properties":{"name":"(unnamed public road)","road_class":"track","source":"OpenStreetMap","source_detail":"osm way 1143789503","source_tile":"167/395","surface_inferred":true},"geometry":{"type":"LineString","coordinates":[[-121.05565,37.76202],[-121.05522,37.76201],[-121.05413,37.76201],[-121.05151,37.76206],[-121.05141,37.76206],[-121.05116,37.76211],[-121.05101,37.76212],[-121.05042,37.76208],[-121.04557,37.76218],[-121.04198,37.76229],[-121.04027,37.7623],[-121.03974,37.7623],[-121.0394,37.76231],[-121.03869,37.76232],[-121.03814,37.76237],[-121.03795,37.76238],[-121.03776,37.76243],[-121.03761,37.76248],[-121.03754,37.76253],[-121.03748,37.76255]]}},{"type":"Feature","properties":{"name":"(unnamed public road)","road_class":"track","source":"OpenStreetMap","source_detail":"osm way 1143789504","source_tile":"167/395","surface_inferred":true},"geometry":{"type":"LineString","coordinates":[[-121.03748,37.76255],[-121.03732,37.76256]]}},{"type":"Feature","properties":{"name":"(unnamed public road)","road_class":"track","source":"OpenStreetMap","source_detail":"osm way 1143789509","source_tile":"167/395","surface_inferred":true},"geometry":{"type":"LineString","coordinates":[[-121.05552,37.763],[-121.05561,37.76286],[-121.05564,37.76275],[-121.05566,37.76256],[-121.05566,37.76208],[-121.05565,37.76202],[-121.05565,37.76199]]}},{"type":"Feature","properties":{"name":"(unnamed public road)","road_class":"track","source":"OpenStreetMap","source_detail":"osm way 1143789510","source_tile":"167/395","surface_inferred":true},"geometry":{"type":"LineString","coordinates":[[-121.05565,37.76199],[-121.05564,37.76183]]}},{"type":"Feature","properties":{"name":"(unnamed public road)","road_class":"track","surface":"unpaved","source":"OpenStreetMap","source_detail":"osm way 1156546929","source_tile":"167/395"},"geometry":{"type":"LineString","coordinates":[[-121.13443,37.88321],[-121.13433,37.88332],[-121.13431,37.88336],[-121.13428,37.88339],[-121.13425,37.88343],[-121.13399,37.88373],[-121.13374,37.88395],[-121.13356,37.88404],[-121.13339,37.88408],[-121.13314,37.88407],[-121.13292,37.88403],[-121.13281,37.88398],[-121.1327,37.88397],[-121.13255,37.88398],[-121.13236,37.88404],[-121.13221,37.88407],[-121.13202,37.88412],[-121.13191,37.88412],[-121.12884,37.88416],[-121.12344,37.88423]]}},{"type":"Feature","properties":{"name":"(unnamed public road)","road_class":"track","source":"OpenStreetMap","source_detail":"osm way 1165351206","source_tile":"167/395","surface_inferred":true},"geometry":{"type":"LineString","coordinates":[[-120.98997,37.72121],[-120.98922,37.72121],[-120.98895,37.7213],[-120.98777,37.72206],[-120.98774,37.72207],[-120.98722,37.7217],[-120.98483,37.7217]]}},{"type":"Feature","properties":{"name":"(unnamed public road)","road_class":"track","source":"OpenStreetMap","source_detail":"osm way 1297701305","source_tile":"167/395","surface_inferred":true},"geometry":{"type":"LineString","coordinates":[[-121.13329,37.93498],[-121.1335,37.94204],[-121.13347,37.94209],[-121.13341,37.94212],[-121.1307,37.94215],[-121.13064,37.94212],[-121.13043,37.94197],[-121.13041,37.94192],[-121.1302,37.93502],[-121.13329,37.93498]]}},{"type":"Feature","properties":{"name":"(unnamed public road)","road_class":"track","source":"OpenStreetMap","source_detail":"osm way 1297701306","source_tile":"167/395","surface_inferred":true},"geometry":{"type":"LineString","coordinates":[[-121.13329,37.93498],[-121.13585,37.93494],[-121.13625,37.93494],[-121.13914,37.9349],[-121.13925,37.93487],[-121.1393,37.9348],[-121.13931,37.93471],[-121.13906,37.92763]]}},{"type":"Feature","properties":{"name":"(unnamed public road)","road_class":"track","source":"OpenStreetMap","source_detail":"osm way 1297701307","source_tile":"167/395","surface_inferred":true},"geometry":{"type":"LineString","coordinates":[[-121.13625,37.93494],[-121.13644,37.94014],[-121.1364,37.94034],[-121.1363,37.94051],[-121.13607,37.94066],[-121.13593,37.94074],[-121.13578,37.94077]]}},{"type":"Feature","properties":{"name":"(unnamed public road)","road_class":"track","source":"OpenStreetMap","source_detail":"osm way 1364772084","source_tile":"167/395","surface_inferred":true},"geometry":{"type":"LineString","coordinates":[[-121.23362,37.87401],[-121.23355,37.87402]]}},{"type":"Feature","properties":{"name":"(unnamed public road)","road_class":"track","source":"OpenStreetMap","source_detail":"osm way 1364772085","source_tile":"167/395","surface_inferred":true},"geometry":{"type":"LineString","coordinates":[[-121.23355,37.87402],[-121.23325,37.87412]]}},{"type":"Feature","properties":{"name":"(unnamed public road)","road_class":"track","source":"OpenStreetMap","source_detail":"osm way 1364772112","source_tile":"167/395","surface_inferred":true},"geometry":{"type":"LineString","coordinates":[[-121.23007,37.87505],[-121.2301,37.87497]]}},{"type":"Feature","properties":{"name":"(unnamed public road)","road_class":"track","source":"OpenStreetMap","source_detail":"osm way 1364772113","source_tile":"167/395","surface_inferred":true},"geometry":{"type":"LineString","coordinates":[[-121.22998,37.87517],[-121.23007,37.87505]]}},{"type":"Feature","properties":{"name":"(unnamed public road)","road_class":"track","surface":"dirt","source":"OpenStreetMap","source_detail":"osm way 1425089203","source_tile":"167/395"},"geometry":{"type":"LineString","coordinates":[[-121.13308,37.72717],[-121.13308,37.72733],[-121.13317,37.72733],[-121.13334,37.72734],[-121.13351,37.72735],[-121.13369,37.72739],[-121.13384,37.72743],[-121.13395,37.72749],[-121.13402,37.72753],[-121.13405,37.72757]]}},{"type":"Feature","properties":{"name":"(unnamed public road)","road_class":"track","surface":"dirt","tracktype":"grade2","source":"OpenStreetMap","source_detail":"osm way 1425366957","source_tile":"167/395"},"geometry":{"type":"LineString","coordinates":[[-121.14188,37.72525],[-121.14086,37.72533],[-121.13989,37.7254],[-121.13902,37.72547],[-121.13817,37.72553],[-121.13721,37.7256],[-121.13714,37.72562],[-121.1369,37.72575],[-121.13628,37.72612],[-121.1349,37.7269],[-121.13481,37.72694],[-121.13467,37.72697],[-121.13454,37.72697],[-121.13333,37.72696],[-121.13303,37.72695],[-121.13289,37.72694]]}},{"type":"Feature","properties":{"name":"(unnamed public road)","road_class":"track","surface":"dirt","tracktype":"grade2","source":"OpenStreetMap","source_detail":"osm way 1425366958","source_tile":"167/395"},"geometry":{"type":"LineString","coordinates":[[-121.13308,37.72717],[-121.13301,37.72714],[-121.13295,37.7271],[-121.13291,37.72705],[-121.13289,37.72694],[-121.13289,37.72632],[-121.13288,37.72594],[-121.13314,37.72582],[-121.13378,37.72551],[-121.13394,37.72544],[-121.13398,37.72543],[-121.13417,37.72541],[-121.13454,37.7254],[-121.13587,37.72533],[-121.13598,37.72532],[-121.13606,37.72529],[-121.13625,37.72522],[-121.13669,37.72498],[-121.13727,37.72468],[-121.13738,37.72462],[-121.13747,37.72454],[-121.13757,37.7244],[-121.13805,37.72372],[-121.13807,37.72369],[-121.13815,37.72356],[-121.13823,37.72342],[-121.13841,37.72304],[-121.13845,37.72297],[-121.13848,37.72293],[-121.13854,37.72289],[-121.13864,37.72285],[-121.13879,37.7228],[-121.13898,37.72277],[-121.13901,37.72277],[-121.13907,37.72278],[-121.13917,37.7228],[-121.13989,37.72307],[-121.14027,37.72322],[-121.1404,37.72328],[-121.14054,37.72331],[-121.14067,37.72332],[-121.14084,37.72333],[-121.14173,37.72335],[-121.14184,37.72336],[-121.14195,37.72338]]}},{"type":"Feature","properties":{"name":"(unnamed public road)","road_class":"track","surface":"dirt","tracktype":"grade2","source":"OpenStreetMap","source_detail":"osm way 1425366959","source_tile":"167/395"},"geometry":{"type":"LineString","coordinates":[[-121.14086,37.72533],[-121.14084,37.72333]]}},{"type":"Feature","properties":{"name":"(unnamed public road)","road_class":"track","surface":"dirt","tracktype":"grade2","source":"OpenStreetMap","source_detail":"osm way 1425366960","source_tile":"167/395"},"geometry":{"type":"LineString","coordinates":[[-121.13989,37.7254],[-121.13989,37.72515],[-121.13989,37.72307]]}},{"type":"Feature","properties":{"name":"(unnamed public road)","road_class":"track","surface":"dirt","tracktype":"grade2","source":"OpenStreetMap","source_detail":"osm way 1425366961","source_tile":"167/395"},"geometry":{"type":"LineString","coordinates":[[-121.13901,37.72277],[-121.13902,37.72291],[-121.13901,37.72304],[-121.13901,37.72356],[-121.13902,37.72547]]}},{"type":"Feature","properties":{"name":"(unnamed public road)","road_class":"track","surface":"dirt","tracktype":"grade2","source":"OpenStreetMap","source_detail":"osm way 1425366962","source_tile":"167/395"},"geometry":{"type":"LineString","coordinates":[[-121.13817,37.72553],[-121.13816,37.72376],[-121.13814,37.72372],[-121.13807,37.72369]]}},{"type":"Feature","properties":{"name":"(unnamed public road)","road_class":"track","surface":"dirt","tracktype":"grade2","source":"OpenStreetMap","source_detail":"osm way 1425366963","source_tile":"167/395"},"geometry":{"type":"LineString","coordinates":[[-121.13628,37.72612],[-121.13626,37.72537],[-121.13625,37.72522]]}},{"type":"Feature","properties":{"name":"(unnamed public road)","road_class":"track","surface":"dirt","tracktype":"grade2","source":"OpenStreetMap","source_detail":"osm way 1425366964","source_tile":"167/395"},"geometry":{"type":"LineString","coordinates":[[-121.13454,37.72697],[-121.13455,37.7267],[-121.13454,37.7254]]}},{"type":"Feature","properties":{"name":"(unnamed public road)","road_class":"track","surface":"dirt","tracktype":"grade3","source":"OpenStreetMap","source_detail":"osm way 1425387803","source_tile":"167/395"},"geometry":{"type":"LineString","coordinates":[[-121.12842,37.72521],[-121.12837,37.7252],[-121.12828,37.72521],[-121.12817,37.72523],[-121.12809,37.72522],[-121.12796,37.72518],[-121.12786,37.72514],[-121.12772,37.72505],[-121.12765,37.72496],[-121.12753,37.72485],[-121.12739,37.72478],[-121.12726,37.72474],[-121.12713,37.72474],[-121.12696,37.72472],[-121.12686,37.72469],[-121.1268,37.72464],[-121.12674,37.72456],[-121.12663,37.72452],[-121.12651,37.72447],[-121.12642,37.72443],[-121.12639,37.72437],[-121.12634,37.72421],[-121.1263,37.72411],[-121.12628,37.72403],[-121.12627,37.72395],[-121.12624,37.72389],[-121.12622,37.72384],[-121.12619,37.72379],[-121.12614,37.72374],[-121.12613,37.72368],[-121.12616,37.72361],[-121.1262,37.72359],[-121.12624,37.72359],[-121.12629,37.72361],[-121.12631,37.72365],[-121.12632,37.72368],[-121.12629,37.72372],[-121.12625,37.72377],[-121.12623,37.72379],[-121.12622,37.72384]]}},{"type":"Feature","properties":{"name":"(unnamed public road)","road_class":"track","surface":"gravel","tracktype":"grade2","source":"OpenStreetMap","source_detail":"osm way 1425387805","source_tile":"167/395"},"geometry":{"type":"LineString","coordinates":[[-121.12387,37.72785],[-121.12385,37.7278],[-121.12382,37.72766],[-121.1238,37.72754],[-121.12378,37.72749],[-121.12377,37.72744],[-121.12372,37.72737],[-121.12367,37.72731],[-121.12357,37.72722],[-121.12354,37.72717],[-121.1235,37.72714],[-121.12344,37.7271],[-121.12335,37.72706],[-121.12326,37.72704],[-121.12317,37.72701],[-121.1231,37.72696],[-121.123,37.7269],[-121.12294,37.72684],[-121.12288,37.72676],[-121.12283,37.72667],[-121.12279,37.72657],[-121.12273,37.72648],[-121.12268,37.7264],[-121.12262,37.7263],[-121.12254,37.72617],[-121.12251,37.72613],[-121.12248,37.72609],[-121.12245,37.72606],[-121.12239,37.72602],[-121.12226,37.72595],[-121.12217,37.72588],[-121.12207,37.72581],[-121.12199,37.72578],[-121.12185,37.72576],[-121.12172,37.72573],[-121.12161,37.7257],[-121.12146,37.72568],[-121.12134,37.7257],[-121.12126,37.72576],[-121.12118,37.72582],[-121.12111,37.72582],[-121.12095,37.72578],[-121.12087,37.72574],[-121.12081,37.72569],[-121.12071,37.72562],[-121.12064,37.72558],[-121.12059,37.72558],[-121.1205,37.72561],[-121.12044,37.72563],[-121.1204,37.72562],[-121.12034,37.72557],[-121.12027,37.72554],[-121.12017,37.72552],[-121.1201,37.72553],[-121.12005,37.72555],[-121.11997,37.7256],[-121.11991,37.72562],[-121.11984,37.72562],[-121.11971,37.72566],[-121.1196,37.72569],[-121.11948,37.72573],[-121.11935,37.7258],[-121.11922,37.72583],[-121.11908,37.72584],[-121.11896,37.72584],[-121.11881,37.72585],[-121.11873,37.72587],[-121.11868,37.72592],[-121.11862,37.72603],[-121.11859,37.72607],[-121.11854,37.72613],[-121.11843,37.72621],[-121.11815,37.72631],[-121.11772,37.72644],[-121.11749,37.72653],[-121.11727,37.72661],[-121.11715,37.72663],[-121.11706,37.72666],[-121.11687,37.72675],[-121.11666,37.72682],[-121.11648,37.72689],[-121.11632,37.72695],[-121.11617,37.72703],[-121.11596,37.72712],[-121.11565,37.72723],[-121.11551,37.72728],[-121.1154,37.72734],[-121.11536,37.72734],[-121.11532,37.72734],[-121.11529,37.72733],[-121.11524,37.72732],[-121.11515,37.72732],[-121.11504,37.72736],[-121.11496,37.7274],[-121.11485,37.72747],[-121.11475,37.72751],[-121.11459,37.72757],[-121.1144,37.72763],[-121.1142,37.72767],[-121.1139,37.72772],[-121.11364,37.72777],[-121.11346,37.72781],[-121.11336,37.72787],[-121.11319,37.72802],[-121.11298,37.72814],[-121.11284,37.72823],[-121.11273,37.72832],[-121.11254,37.72844],[-121.11241,37.72855],[-121.11233,37.72864],[-121.11226,37.72873],[-121.11218,37.72886],[-121.11209,37.72908],[-121.11205,37.72922],[-121.11199,37.72936],[-121.1119,37.72943],[-121.11182,37.72947],[-121.11171,37.72953],[-121.11164,37.72958],[-121.11159,37.72963],[-121.11156,37.72969],[-121.11151,37.72976],[-121.11144,37.72984],[-121.11133,37.72991],[-121.11123,37.72997],[-121.11116,37.73003],[-121.1111,37.73011],[-121.11104,37.73026],[-121.11097,37.73036],[-121.11094,37.73041],[-121.11085,37.73047],[-121.1108,37.73048],[-121.11071,37.73051],[-121.11015,37.73089],[-121.11003,37.73095],[-121.10985,37.73104],[-121.10954,37.73112],[-121.10936,37.73126],[-121.10928,37.73135],[-121.10918,37.73144],[-121.10908,37.73151],[-121.10924,37.73155],[-121.10954,37.73162],[-121.1097,37.73167],[-121.10975,37.73169],[-121.10996,37.73177],[-121.11014,37.73185],[-121.11031,37.73193],[-121.11041,37.73198],[-121.11051,37.73199],[-121.11061,37.73195],[-121.11085,37.73187],[-121.11093,37.73186],[-121.11104,37.73186],[-121.11118,37.73189]]}}]}