{"type":"FeatureCollection","features":[{"type":"Feature","properties":{"name":"BUCKHORN ROAD","source":"Bureau of Land Management","source_detail":"BLM GTLF OBJECTID 154293","source_id":"{9893B3AC-8B19-4D51-8F01-29360A92DC1B}","road_class":"transportation_system_-_road","surface":"aggregate","vehicle_class":"2wd_low","allowed_mode":"unk","access_restriction":"unknown","seasonal_restriction":"no","gis_miles":17.7307368},"geometry":{"type":"LineString","coordinates":[[-119.98052,40.87936],[-119.97986,40.87944],[-119.97967,40.87947],[-119.97942,40.8795],[-119.97916,40.87954],[-119.97888,40.87957],[-119.9786,40.87962],[-119.97832,40.87966],[-119.97804,40.87971],[-119.97774,40.87976],[-119.97745,40.87981],[-119.97716,40.87986],[-119.97687,40.87992],[-119.9766,40.87998],[-119.97635,40.88008],[-119.97611,40.88019],[-119.97588,40.88031],[-119.97566,40.88042],[-119.97543,40.88053],[-119.97521,40.88064],[-119.97499,40.88073],[-119.97477,40.88082],[-119.97451,40.88089],[-119.97429,40.88095],[-119.97417,40.88098],[-119.97402,40.88102],[-119.97381,40.88108],[-119.97357,40.88114],[-119.97333,40.8812],[-119.97306,40.88124],[-119.97278,40.88128],[-119.97255,40.8813],[-119.97239,40.88132],[-119.97226,40.88133],[-119.97214,40.88134],[-119.97206,40.88135],[-119.97197,40.88136],[-119.97184,40.88138],[-119.97167,40.8814],[-119.97149,40.88142],[-119.97131,40.88145],[-119.97111,40.88148],[-119.97091,40.88151],[-119.97072,40.88153],[-119.97054,40.88155],[-119.97037,40.88158],[-119.9702,40.8816],[-119.97006,40.88162],[-119.96991,40.88164],[-119.96974,40.88166],[-119.96955,40.88168],[-119.96936,40.88171],[-119.96918,40.88173],[-119.96902,40.88176],[-119.96884,40.88178],[-119.96866,40.8818],[-119.96847,40.88182],[-119.96829,40.88185],[-119.9681,40.88187],[-119.9679,40.8819],[-119.96768,40.88193],[-119.96746,40.88196],[-119.96724,40.88199],[-119.96701,40.88202],[-119.96679,40.88205],[-119.96658,40.88207],[-119.96637,40.8821],[-119.96616,40.88213],[-119.96595,40.88216],[-119.96573,40.88219],[-119.9655,40.88222],[-119.96527,40.88225],[-119.96504,40.88228],[-119.96481,40.88231],[-119.96456,40.88234],[-119.96432,40.88237],[-119.96407,40.8824],[-119.96382,40.88243],[-119.96357,40.88247],[-119.96331,40.8825],[-119.96302,40.88254],[-119.96273,40.88258],[-119.96245,40.88262],[-119.96217,40.88266],[-119.96189,40.8827],[-119.96161,40.88273],[-119.96135,40.88275],[-119.96109,40.88275],[-119.96083,40.88273],[-119.96056,40.88269],[-119.96028,40.88265],[-119.96,40.8826],[-119.95972,40.88256],[-119.95945,40.88251],[-119.95918,40.88248],[-119.95893,40.88244],[-119.95866,40.8824],[-119.95838,40.88235],[-119.95808,40.8823],[-119.95777,40.88226],[-119.95759,40.88223],[-119.95751,40.88221],[-119.9574,40.8822],[-119.95726,40.88218],[-119.95706,40.88215],[-119.95681,40.88211],[-119.95655,40.88207],[-119.95626,40.88202],[-119.95596,40.88197],[-119.95564,40.88192],[-119.95531,40.88186],[-119.95498,40.8818],[-119.95464,40.88175],[-119.9543,40.88169],[-119.95395,40.88164],[-119.95365,40.88158],[-119.95347,40.88155],[-119.95337,40.88154],[-119.95315,40.88151],[-119.95299,40.88148],[-119.95276,40.88144],[-119.9527,40.88143],[-119.95269,40.88143],[-119.95248,40.88139],[-119.95217,40.88134],[-119.95184,40.88129],[-119.9515,40.88123],[-119.95115,40.88117],[-119.95079,40.88111],[-119.95042,40.88105],[-119.95006,40.88099],[-119.94971,40.88094],[-119.94935,40.88088],[-119.949,40.88082],[-119.94868,40.88077],[-119.94839,40.88073],[-119.94821,40.8807],[-119.94803,40.88067],[-119.94781,40.88064],[-119.94757,40.88059],[-119.94735,40.88056],[-119.94711,40.88052],[-119.94688,40.88048],[-119.94665,40.88045],[-119.94642,40.88041],[-119.94619,40.88038],[-119.94597,40.88035],[-119.94577,40.88032],[-119.94555,40.88028],[-119.94531,40.88025],[-119.94507,40.88021],[-119.94483,40.88017],[-119.94459,40.88013],[-119.94436,40.8801],[-119.94411,40.88008],[-119.94384,40.88007],[-119.94357,40.88007],[-119.94329,40.88008],[-119.94298,40.88009],[-119.94268,40.88009],[-119.94238,40.8801],[-119.94209,40.88011],[-119.9418,40.88012],[-119.94154,40.88012],[-119.94127,40.88013],[-119.94097,40.88013],[-119.94066,40.88013],[-119.94033,40.88013],[-119.94016,40.88014],[-119.94015,40.88014],[-119.94001,40.88014],[-119.93985,40.88014],[-119.93972,40.88014],[-119.9396,40.88014],[-119.9395,40.88014],[-119.9394,40.88015],[-119.9393,40.88015],[-119.93921,40.88015],[-119.93911,40.88015],[-119.93902,40.88015],[-119.9389,40.88015],[-119.9387,40.88015],[-119.93844,40.88015],[-119.93814,40.88016],[-119.93782,40.88016],[-119.93748,40.88017],[-119.93715,40.88017],[-119.93681,40.88018],[-119.93647,40.88018],[-119.93612,40.88018],[-119.93577,40.88019],[-119.93545,40.88019],[-119.93514,40.88021],[-119.93484,40.88025],[-119.93457,40.88029],[-119.93435,40.88033],[-119.93413,40.88037],[-119.93389,40.88042],[-119.93363,40.88048],[-119.93335,40.88054],[-119.93307,40.88061],[-119.93278,40.88067],[-119.93249,40.88075],[-119.9322,40.88082],[-119.93194,40.88088],[-119.93169,40.88094],[-119.93146,40.88099],[-119.93123,40.88105],[-119.931,40.88112],[-119.93077,40.88119],[-119.93054,40.88128],[-119.93033,40.88138],[-119.93014,40.8815],[-119.92995,40.88163],[-119.92971,40.88178],[-119.92948,40.88194],[-119.92925,40.8821],[-119.929,40.88226],[-119.9288,40.88239],[-119.92864,40.8825],[-119.92844,40.88263],[-119.92825,40.88276],[-119.92804,40.88288],[-119.92782,40.883],[-119.92759,40.88312],[-119.92736,40.8832],[-119.92716,40.88325],[-119.92696,40.88328],[-119.92676,40.8833],[-119.92655,40.88331],[-119.92636,40.88331],[-119.9262,40.88331],[-119.92605,40.88331],[-119.92592,40.8833],[-119.92577,40.88329],[-119.92561,40.88329],[-119.92549,40.88329],[-119.92536,40.88328],[-119.92523,40.88328],[-119.9251,40.88327],[-119.92497,40.88326],[-119.92497,40.88326],[-119.92486,40.88322],[-119.92474,40.88317],[-119.92462,40.88311],[-119.92449,40.88306],[-119.9243,40.88298],[-119.9243,40.88298],[-119.92406,40.8829],[-119.9238,40.8828],[-119.92354,40.88273],[-119.92331,40.88267],[-119.92306,40.8826],[-119.9228,40.88253],[-119.92251,40.88245],[-119.92219,40.88236],[-119.92193,40.88223],[-119.92174,40.88208],[-119.92159,40.8819],[-119.9215,40.88171],[-119.92143,40.8815],[-119.92135,40.88124],[-119.92125,40.881],[-119.92117,40.88077],[-119.9211,40.88053],[-119.92099,40.88025],[-119.92086,40.87997],[-119.92068,40.87973],[-119.92049,40.87955],[-119.92025,40.87939],[-119.91994,40.87927],[-119.9196,40.87919],[-119.9193,40.87915],[-119.91901,40.87913],[-119.91874,40.87915],[-119.91854,40.87918],[-119.91854,40.87918],[-119.91851,40.87919],[-119.91829,40.87925],[-119.9181,40.87935],[-119.91794,40.87951],[-119.91778,40.87969],[-119.9176,40.87987],[-119.91743,40.88006],[-119.91724,40.88024],[-119.91705,40.88043],[-119.91687,40.88061],[-119.91668,40.88079],[-119.91651,40.88097],[-119.91633,40.88114],[-119.91616,40.8813],[-119.916,40.88146],[-119.91583,40.88163],[-119.91567,40.88179],[-119.91551,40.88193],[-119.91532,40.88206],[-119.91508,40.88215],[-119.91481,40.88221],[-119.91453,40.88224],[-119.91425,40.88227],[-119.91397,40.88229],[-119.91371,40.88232],[-119.91345,40.88235],[-119.91319,40.88238],[-119.91292,40.8824],[-119.91268,40.88242],[-119.91246,40.88244],[-119.91224,40.88246],[-119.91202,40.88249],[-119.91179,40.88252],[-119.91158,40.88255],[-119.91139,40.88258],[-119.91123,40.8826],[-119.91108,40.88262],[-119.91096,40.88264],[-119.91082,40.88266],[-119.91067,40.88268],[-119.9105,40.88271],[-119.91031,40.88274],[-119.91011,40.88277],[-119.9099,40.8828],[-119.9097,40.88284],[-119.90951,40.88291],[-119.90936,40.88299],[-119.90933,40.88301],[-119.90933,40.88301],[-119.90928,40.88305],[-119.90921,40.8831],[-119.9091,40.88319],[-119.90898,40.88332],[-119.90885,40.88348],[-119.90875,40.88365],[-119.90866,40.88382],[-119.90857,40.88399],[-119.90849,40.88416],[-119.9084,40.88433],[-119.90831,40.88451],[-119.90822,40.88469],[-119.90813,40.88487],[-119.90806,40.88505],[-119.908,40.88522],[-119.90797,40.88541],[-119.90797,40.88559],[-119.90799,40.88577],[-119.90803,40.88594],[-119.90811,40.8861],[-119.9082,40.88623],[-119.90827,40.88633],[-119.90832,40.88639],[-119.90835,40.88643],[-119.90839,40.88647],[-119.90845,40.88655],[-119.90855,40.88666],[-119.90864,40.88678],[-119.90872,40.8869],[-119.90876,40.88702],[-119.90877,40.88717],[-119.9087,40.88733],[-119.90859,40.88747],[-119.90845,40.88758],[-119.90827,40.88766],[-119.90804,40.88768],[-119.90776,40.88768],[-119.90745,40.88766],[-119.90713,40.88765],[-119.90686,40.88764],[-119.9067,40.88764],[-119.90656,40.88763],[-119.9064,40.88763],[-119.90621,40.88763],[-119.90599,40.88762],[-119.90574,40.88762],[-119.90545,40.88761],[-119.90515,40.88761],[-119.90486,40.88761],[-119.90455,40.8876],[-119.9042,40.8876],[-119.90384,40.88759],[-119.90373,40.88759],[-119.90351,40.88758],[-119.90317,40.88756],[-119.9028,40.88754],[-119.9024,40.88751],[-119.902,40.88748],[-119.90161,40.88746],[-119.90123,40.88745],[-119.90087,40.88746],[-119.90049,40.88748],[-119.90012,40.88752],[-119.8998,40.88758],[-119.8995,40.88765],[-119.89924,40.88774],[-119.899,40.88787],[-119.89879,40.888],[-119.89863,40.88809],[-119.89845,40.88818],[-119.89824,40.88827],[-119.89802,40.88837],[-119.89774,40.8885],[-119.89746,40.88864],[-119.89724,40.88875],[-119.89707,40.88884],[-119.89696,40.8889],[-119.89688,40.88895],[-119.89681,40.889],[-119.89671,40.88906],[-119.89662,40.88913],[-119.89651,40.8892],[-119.89645,40.88927],[-119.89644,40.88927],[-119.8964,40.88931],[-119.8963,40.88942],[-119.89622,40.88952],[-119.89615,40.88961],[-119.89607,40.8897],[-119.89596,40.88983],[-119.89584,40.88998],[-119.89572,40.89013],[-119.89559,40.89029],[-119.89546,40.89046],[-119.89532,40.89063],[-119.89519,40.89079],[-119.89504,40.89095],[-119.89489,40.89111],[-119.89472,40.89129],[-119.89455,40.89147],[-119.89442,40.89162],[-119.89433,40.89173],[-119.89424,40.89183],[-119.89416,40.89195],[-119.8941,40.89208],[-119.89406,40.89222],[-119.89404,40.89235],[-119.89402,40.89248],[-119.89401,40.89262],[-119.89399,40.89276],[-119.89397,40.89291],[-119.89395,40.89305],[-119.89393,40.89319],[-119.89391,40.89333],[-119.89389,40.89348],[-119.89388,40.89365],[-119.89387,40.89381],[-119.89387,40.89396],[-119.89388,40.89411],[-119.8939,40.89427],[-119.89393,40.89442],[-119.89396,40.89458],[-119.89399,40.89474],[-119.89401,40.89491],[-119.89403,40.89505],[-119.89404,40.89516],[-119.89404,40.89526],[-119.89405,40.89538],[-119.89405,40.89549],[-119.89405,40.89564],[-119.89405,40.89581],[-119.89405,40.896],[-119.89404,40.8962],[-119.89402,40.8964],[-119.89397,40.89659],[-119.89386,40.89676],[-119.89372,40.8969],[-119.89357,40.89702],[-119.89345,40.8971],[-119.89339,40.89714],[-119.89335,40.89716],[-119.89325,40.8972],[-119.89312,40.89727],[-119.89298,40.89734],[-119.89287,40.89739],[-119.89278,40.89744],[-119.89269,40.89748],[-119.89257,40.89753],[-119.89245,40.89757],[-119.89233,40.89762],[-119.89221,40.89767],[-119.89208,40.89772],[-119.89192,40.89779],[-119.89176,40.89786],[-119.8916,40.89793],[-119.89143,40.89801],[-119.89127,40.8981],[-119.89112,40.89818],[-119.89098,40.89826],[-119.89084,40.89835],[-119.89072,40.89843],[-119.89059,40.89853],[-119.89048,40.89863],[-119.89037,40.89874],[-119.89028,40.89885],[-119.89017,40.89896],[-119.89009,40.89906],[-119.89001,40.89915],[-119.88992,40.89924],[-119.88983,40.89934],[-119.88974,40.89947],[-119.8897,40.89961],[-119.88969,40.89977],[-119.8897,40.89992],[-119.88972,40.90007],[-119.88975,40.9002],[-119.88976,40.90031],[-119.88978,40.90041],[-119.88979,40.90051],[-119.8898,40.9006],[-119.88981,40.90069],[-119.88981,40.9008],[-119.88983,40.90094],[-119.88985,40.9011],[-119.88987,40.90127],[-119.88988,40.90145],[-119.8899,40.90162],[-119.88991,40.90178],[-119.88993,40.90193],[-119.88995,40.90209],[-119.88996,40.90225],[-119.88998,40.90241],[-119.88998,40.90256],[-119.88998,40.90269],[-119.88994,40.90281],[-119.88989,40.90294],[-119.88983,40.90306],[-119.88975,40.90319],[-119.88967,40.90331],[-119.8896,40.90342],[-119.88953,40.90353],[-119.88945,40.90365],[-119.88938,40.90376],[-119.88931,40.90386],[-119.88925,40.90397],[-119.88918,40.90408],[-119.8891,40.9042],[-119.88902,40.90434],[-119.88897,40.90447],[-119.88892,40.90459],[-119.88886,40.90472],[-119.8888,40.90486],[-119.88875,40.90501],[-119.88871,40.90516],[-119.88867,40.90531],[-119.88864,40.90544],[-119.88861,40.90557],[-119.88859,40.9057],[-119.88857,40.90582],[-119.88854,40.90595],[-119.88852,40.90609],[-119.8885,40.90623],[-119.88848,40.90635],[-119.88846,40.90646],[-119.88843,40.90659],[-119.8884,40.90671],[-119.88837,40.90684],[-119.88834,40.90697],[-119.8883,40.90709],[-119.88824,40.9072],[-119.88817,40.90729],[-119.88808,40.90737],[-119.88799,40.90743],[-119.8879,40.90747],[-119.88783,40.90749],[-119.88777,40.90751],[-119.8877,40.90753],[-119.8877,40.90753],[-119.88765,40.90754],[-119.88762,40.90755],[-119.88761,40.90755],[-119.88753,40.90757],[-119.88735,40.90759],[-119.88714,40.9076],[-119.88692,40.9076],[-119.88667,40.9076],[-119.88643,40.9076],[-119.88618,40.9076],[-119.88595,40.90761],[-119.88572,40.90762],[-119.88549,40.90764],[-119.88526,40.90765],[-119.88505,40.90766],[-119.88483,40.90767],[-119.88467,40.90768],[-119.88451,40.90769],[-119.88431,40.90769],[-119.88409,40.9077],[-119.88387,40.9077],[-119.88365,40.90771],[-119.88341,40.90772],[-119.88318,40.90773],[-119.88294,40.90774],[-119.8827,40.90775],[-119.88246,40.90776],[-119.8822,40.90776],[-119.88196,40.90777],[-119.88174,40.90777],[-119.88153,40.90777],[-119.88133,40.90775],[-119.88115,40.90772],[-119.88098,40.90767],[-119.88084,40.9076],[-119.8807,40.90751],[-119.88058,40.9074],[-119.88047,40.90727],[-119.88039,40.90714],[-119.88032,40.907],[-119.88026,40.90687],[-119.88021,40.90674],[-119.88016,40.90662],[-119.88012,40.90651],[-119.88007,40.90639],[-119.88,40.90626],[-119.87992,40.90611],[-119.87983,40.90593],[-119.87973,40.90574],[-119.87963,40.90552],[-119.87954,40.90532],[-119.87945,40.90514],[-119.87938,40.90499],[-119.87931,40.90485],[-119.87924,40.90472],[-119.87916,40.90458],[-119.87906,40.90446],[-119.87894,40.90433],[-119.87877,40.90424],[-119.87858,40.90419],[-119.87834,40.90418],[-119.87807,40.90418],[-119.87779,40.90416],[-119.87755,40.90418],[-119.87754,40.90419],[-119.87733,40.90426],[-119.87712,40.90439],[-119.87687,40.90454],[-119.87662,40.90469],[-119.87638,40.90483],[-119.87614,40.90497],[-119.8759,40.9051],[-119.87571,40.90521],[-119.87565,40.90525],[-119.87556,40.9053],[-119.87547,40.90535],[-119.87539,40.90539],[-119.87528,40.90546],[-119.87515,40.90554],[-119.8751,40.90557],[-119.87502,40.90562],[-119.87489,40.90571],[-119.87474,40.9058],[-119.87458,40.9059],[-119.8744,40.90601],[-119.87423,40.90611],[-119.87406,40.90621],[-119.87389,40.90631],[-119.87371,40.90641],[-119.87353,40.90652],[-119.87336,40.90663],[-119.87318,40.90674],[-119.873,40.90684],[-119.87282,40.90693],[-119.8728,40.90693],[-119.87263,40.907],[-119.87241,40.90706],[-119.87216,40.90712],[-119.87191,40.90717],[-119.87167,40.90719],[-119.87144,40.90714],[-119.87123,40.90709],[-119.87101,40.90704],[-119.87076,40.90704],[-119.8705,40.90705],[-119.87023,40.90708],[-119.86994,40.90712],[-119.86963,40.90717],[-119.86931,40.90725],[-119.86898,40.90735],[-119.86865,40.90747],[-119.86832,40.90758],[-119.868,40.9077],[-119.86769,40.90783],[-119.86749,40.90792],[-119.86739,40.90797],[-119.86725,40.90806],[-119.86712,40.90814],[-119.867,40.90823],[-119.86685,40.90833],[-119.86658,40.90852],[-119.8665,40.90857],[-119.86649,40.90858],[-119.8663,40.90869],[-119.86605,40.90878],[-119.86601,40.90879],[-119.866,40.90879],[-119.86568,40.90885],[-119.86562,40.90886],[-119.86533,40.90888],[-119.86494,40.9089],[-119.86454,40.9089],[-119.86413,40.9089],[-119.8637,40.90889],[-119.86327,40.90886],[-119.86283,40.90883],[-119.8624,40.90879],[-119.86199,40.90876],[-119.86161,40.90873],[-119.86125,40.9087],[-119.86095,40.90867],[-119.86078,40.90866],[-119.86064,40.90865],[-119.86053,40.90865],[-119.86036,40.90865],[-119.86018,40.90865],[-119.85998,40.90865],[-119.85978,40.90863],[-119.85954,40.90859],[-119.8593,40.90855],[-119.85906,40.90854],[-119.85882,40.90855],[-119.8586,40.90858],[-119.8584,40.90863],[-119.85821,40.9087],[-119.85801,40.90878],[-119.85796,40.90881],[-119.8578,40.90889],[-119.85779,40.9089],[-119.85758,40.90903],[-119.85745,40.90912],[-119.85739,40.90916],[-119.85736,40.90918],[-119.85714,40.90935],[-119.857,40.90946],[-119.85694,40.90951],[-119.85679,40.90964],[-119.85668,40.90972],[-119.85666,40.90974],[-119.85659,40.90979],[-119.85647,40.90989],[-119.85636,40.90999],[-119.85634,40.91],[-119.8562,40.91012],[-119.85606,40.91023],[-119.85591,40.91035],[-119.85573,40.91049],[-119.85549,40.91066],[-119.85521,40.91086],[-119.85509,40.91093],[-119.85508,40.91094],[-119.85494,40.91103],[-119.85468,40.91115],[-119.85465,40.91115],[-119.85452,40.91116],[-119.85439,40.91116],[-119.8543,40.91113],[-119.85429,40.91113],[-119.85425,40.91111],[-119.85421,40.91109],[-119.85412,40.91105],[-119.85395,40.91095],[-119.85376,40.91085],[-119.85356,40.91074],[-119.85336,40.91063],[-119.85317,40.9105],[-119.85297,40.91038],[-119.85275,40.91028],[-119.85249,40.91027],[-119.85234,40.91029],[-119.85226,40.91035],[-119.85222,40.91037],[-119.85214,40.91048],[-119.85212,40.91051],[-119.8521,40.91053],[-119.85199,40.91072],[-119.85184,40.91097],[-119.85169,40.91123],[-119.85153,40.9115],[-119.85138,40.91178],[-119.85124,40.91206],[-119.85109,40.91235],[-119.85093,40.91263],[-119.85076,40.91286],[-119.85053,40.91304],[-119.85027,40.91322],[-119.84998,40.91342],[-119.84966,40.91363],[-119.84936,40.91384],[-119.84912,40.914],[-119.84893,40.91412],[-119.84871,40.91427],[-119.84845,40.91444],[-119.84818,40.91461],[-119.8479,40.91478],[-119.84781,40.91482],[-119.8477,40.91487],[-119.8476,40.91491],[-119.8474,40.91497],[-119.84727,40.915],[-119.84712,40.91503],[-119.84691,40.91506],[-119.84657,40.91509],[-119.84628,40.9151],[-119.84609,40.9151],[-119.84604,40.9151],[-119.84595,40.91509],[-119.84592,40.91509],[-119.84577,40.91508],[-119.84554,40.91504],[-119.84527,40.91498],[-119.84495,40.9149],[-119.84468,40.91483],[-119.84453,40.9148],[-119.84441,40.91478],[-119.8443,40.91477],[-119.84422,40.91476],[-119.84416,40.91476],[-119.84404,40.91477],[-119.84387,40.91479],[-119.84367,40.91483],[-119.84353,40.91487],[-119.84348,40.91488],[-119.84328,40.91494],[-119.84307,40.91501],[-119.84286,40.91508],[-119.84261,40.91517],[-119.84235,40.91526],[-119.84208,40.91536],[-119.84191,40.91546],[-119.84182,40.91551],[-119.84158,40.91568],[-119.84134,40.91587],[-119.84111,40.91608],[-119.84092,40.91631],[-119.84073,40.91654],[-119.84051,40.91673],[-119.84026,40.91686],[-119.83998,40.91691],[-119.83973,40.91691],[-119.83963,40.91689],[-119.83959,40.91689],[-119.83945,40.91685],[-119.83925,40.91674],[-119.83906,40.91657],[-119.83887,40.91637],[-119.83868,40.91614],[-119.83849,40.91591],[-119.8383,40.91567],[-119.83811,40.91545],[-119.83788,40.91526],[-119.83761,40.91512],[-119.83735,40.91503],[-119.83711,40.91496],[-119.83688,40.91491],[-119.83674,40.91489],[-119.83668,40.91488],[-119.83657,40.91486],[-119.83634,40.91484],[-119.83605,40.91483],[-119.83575,40.91489],[-119.83546,40.91502],[-119.83517,40.91517],[-119.83511,40.91521],[-119.83489,40.91535],[-119.83458,40.91553],[-119.83428,40.91571],[-119.83398,40.9159],[-119.83364,40.9161],[-119.83329,40.91631],[-119.83293,40.91653],[-119.83262,40.91671],[-119.83236,40.91686],[-119.83209,40.91703],[-119.83179,40.91721],[-119.83148,40.9174],[-119.83116,40.9176],[-119.83081,40.91781],[-119.83044,40.91803],[-119.83004,40.91827],[-119.82964,40.91851],[-119.82924,40.91875],[-119.82891,40.91896],[-119.82861,40.91915],[-119.82831,40.91933],[-119.82802,40.9195],[-119.82773,40.91968],[-119.82745,40.91985],[-119.82718,40.92001],[-119.82692,40.92017],[-119.82673,40.92029],[-119.82657,40.92038],[-119.82637,40.92049],[-119.82614,40.92064],[-119.82587,40.9208],[-119.8256,40.92096],[-119.82531,40.92114],[-119.82501,40.92131],[-119.82471,40.92149],[-119.82442,40.92167],[-119.82413,40.92184],[-119.82384,40.92202],[-119.82354,40.9222],[-119.82325,40.92237],[-119.82295,40.92254],[-119.82265,40.92271],[-119.82235,40.92289],[-119.82206,40.92308],[-119.82178,40.92328],[-119.8215,40.92351],[-119.82123,40.92375],[-119.82097,40.92399],[-119.8207,40.92423],[-119.82044,40.92447],[-119.82019,40.9247],[-119.82001,40.92485],[-119.81988,40.92492],[-119.81969,40.92497],[-119.81947,40.92496],[-119.81925,40.92487],[-119.81907,40.92472],[-119.81897,40.92455],[-119.81898,40.92438],[-119.81905,40.92423],[-119.81915,40.92405],[-119.81929,40.92384],[-119.81944,40.92364],[-119.81956,40.92348],[-119.81965,40.92335],[-119.81972,40.92319],[-119.81977,40.92304],[-119.81982,40.92287],[-119.81988,40.92268],[-119.81994,40.92247],[-119.81998,40.92224],[-119.81998,40.92201],[-119.81994,40.92179],[-119.81992,40.92167],[-119.81989,40.92156],[-119.81986,40.92142],[-119.8198,40.92124],[-119.81972,40.92102],[-119.81965,40.92079],[-119.81958,40.92055],[-119.81952,40.92031],[-119.81947,40.92005],[-119.81944,40.9198],[-119.81943,40.91958],[-119.81944,40.9194],[-119.81946,40.9192],[-119.81948,40.91899],[-119.81951,40.91879],[-119.81954,40.91858],[-119.81957,40.91836],[-119.8196,40.91813],[-119.81965,40.91788],[-119.81971,40.91766],[-119.81978,40.91745],[-119.81989,40.9172],[-119.82005,40.91693],[-119.82026,40.91666],[-119.82047,40.9164],[-119.82066,40.91618],[-119.82082,40.91597],[-119.82092,40.91573],[-119.82091,40.91549],[-119.82077,40.91529],[-119.82052,40.91511],[-119.82025,40.91502],[-119.81993,40.91499],[-119.81958,40.91498],[-119.81921,40.91498],[-119.81881,40.91497],[-119.81839,40.91497],[-119.81811,40.91497],[-119.81807,40.91497],[-119.818,40.91497],[-119.81795,40.91498],[-119.81786,40.91498],[-119.81777,40.91499],[-119.81764,40.91501],[-119.8175,40.91506],[-119.81735,40.91513],[-119.81718,40.91523],[-119.81699,40.91539],[-119.81676,40.91559],[-119.81648,40.9158],[-119.81616,40.91601],[-119.8158,40.91614],[-119.81544,40.91618],[-119.81511,40.91615],[-119.81477,40.91608],[-119.81442,40.91601],[-119.81408,40.91593],[-119.81373,40.91585],[-119.8134,40.91578],[-119.81304,40.91572],[-119.81265,40.91567],[-119.81225,40.91567],[-119.81184,40.9157],[-119.81145,40.91575],[-119.81107,40.91581],[-119.81083,40.91584],[-119.81073,40.91586],[-119.81063,40.91587],[-119.81043,40.9159],[-119.81016,40.91594],[-119.80983,40.91598],[-119.80949,40.91603],[-119.80915,40.91608],[-119.80881,40.91612],[-119.80847,40.91617],[-119.80812,40.91621],[-119.80775,40.91627],[-119.80739,40.91634],[-119.80704,40.91643],[-119.80675,40.91654],[-119.80661,40.9166],[-119.80649,40.91666],[-119.8063,40.91675],[-119.80606,40.91688],[-119.80579,40.91703],[-119.80551,40.91718],[-119.80522,40.91734],[-119.80493,40.9175],[-119.80463,40.91766],[-119.80433,40.91783],[-119.804,40.918],[-119.80368,40.91818],[-119.80335,40.91835],[-119.80303,40.91855],[-119.80276,40.91878],[-119.80254,40.91904],[-119.80239,40.91924],[-119.80236,40.9193],[-119.80227,40.91951],[-119.80225,40.91976],[-119.80226,40.92003],[-119.80228,40.92033],[-119.80231,40.92064],[-119.80232,40.92092],[-119.80233,40.92109],[-119.80233,40.9212],[-119.80233,40.92132],[-119.80233,40.92149],[-119.80232,40.92171],[-119.80232,40.92197],[-119.80231,40.92202],[-119.80231,40.92202],[-119.80231,40.92226],[-119.8023,40.92247],[-119.8023,40.92247],[-119.80229,40.92255],[-119.80228,40.92287],[-119.80226,40.9232],[-119.80225,40.92354],[-119.80223,40.92385],[-119.80221,40.92417],[-119.80219,40.92449],[-119.80217,40.92482],[-119.80214,40.92516],[-119.80212,40.92551],[-119.8021,40.92586],[-119.80208,40.92621],[-119.80206,40.92656],[-119.80204,40.92691],[-119.80202,40.92726],[-119.802,40.92761],[-119.80199,40.92796],[-119.80197,40.9283],[-119.80196,40.92863],[-119.80195,40.92892],[-119.80193,40.92922],[-119.80191,40.92953],[-119.80189,40.92985],[-119.80187,40.93017],[-119.80186,40.93049],[-119.80185,40.93083],[-119.80185,40.93116],[-119.80186,40.93149],[-119.80187,40.93178],[-119.80189,40.93206],[-119.80192,40.93235],[-119.80194,40.93264],[-119.80198,40.93295],[-119.80202,40.93326],[-119.80206,40.93355],[-119.80211,40.93382],[-119.80215,40.93409],[-119.8022,40.93438],[-119.80225,40.9347],[-119.8023,40.93503],[-119.80236,40.93538],[-119.80241,40.93573],[-119.80245,40.93603],[-119.80248,40.93621],[-119.8025,40.93635],[-119.80253,40.93654],[-119.80254,40.93679],[-119.80255,40.93707],[-119.80257,40.93738],[-119.80259,40.9377],[-119.80262,40.93803],[-119.80264,40.93836],[-119.80266,40.93853],[-119.80267,40.93865],[-119.80268,40.9388],[-119.80269,40.93899],[-119.80271,40.93921],[-119.80272,40.93943],[-119.80273,40.93951],[-119.80273,40.93951],[-119.80273,40.93964],[-119.80274,40.93979],[-119.80274,40.93987],[-119.80275,40.93997],[-119.80275,40.94011],[-119.80276,40.94029],[-119.80277,40.9405],[-119.80279,40.94073],[-119.8028,40.94098],[-119.80282,40.94124],[-119.80285,40.94152],[-119.80288,40.94181],[-119.80291,40.9421],[-119.80293,40.94241],[-119.80294,40.9427],[-119.80293,40.94298],[-119.80292,40.94324],[-119.8029,40.94349],[-119.80289,40.94373],[-119.80287,40.94396],[-119.80286,40.9442],[-119.80285,40.94443],[-119.80284,40.94465],[-119.80282,40.94486],[-119.80281,40.94506],[-119.8028,40.94528],[-119.80279,40.94551],[-119.80278,40.94566],[-119.80278,40.94567],[-119.80278,40.94575],[-119.80277,40.94598],[-119.80276,40.9462],[-119.80274,40.9464],[-119.80273,40.94659],[-119.80273,40.94674],[-119.80272,40.94687],[-119.80272,40.94692],[-119.80272,40.94692],[-119.80272,40.94698],[-119.80271,40.9471],[-119.80271,40.94722],[-119.80271,40.94723],[-119.80271,40.94723],[-119.80271,40.94729],[-119.8027,40.9474],[-119.80268,40.94752],[-119.80265,40.94766],[-119.80261,40.94781],[-119.80255,40.94798],[-119.80249,40.94817],[-119.80242,40.94837],[-119.80235,40.94858],[-119.80227,40.94881],[-119.80219,40.94906],[-119.8021,40.94933],[-119.80201,40.9496],[-119.80192,40.94988],[-119.80183,40.95017],[-119.80173,40.95046],[-119.80163,40.95075],[-119.80155,40.951],[-119.80151,40.95115],[-119.80148,40.95124],[-119.80145,40.95133],[-119.80142,40.95143],[-119.80138,40.95158],[-119.80132,40.95176],[-119.80127,40.95191],[-119.80125,40.95201],[-119.80123,40.95214],[-119.80123,40.95231],[-119.80124,40.9525],[-119.80126,40.95271],[-119.80128,40.95293],[-119.80131,40.95317],[-119.80134,40.95342],[-119.80137,40.95368],[-119.80139,40.95396],[-119.80142,40.95424],[-119.80145,40.95451],[-119.80149,40.95477],[-119.80153,40.95503],[-119.80156,40.9553],[-119.8016,40.95559],[-119.80163,40.95588],[-119.80168,40.95616],[-119.80173,40.95644],[-119.80181,40.95672],[-119.80191,40.957],[-119.80202,40.95728],[-119.80213,40.95755],[-119.80219,40.9577],[-119.80223,40.95779],[-119.80227,40.95789],[-119.80234,40.95806],[-119.80243,40.95828],[-119.80252,40.95853],[-119.80263,40.95881],[-119.80273,40.95908],[-119.8028,40.95926],[-119.8028,40.95926],[-119.8028,40.95927],[-119.80286,40.95944],[-119.80289,40.95961],[-119.8029,40.95979],[-119.80293,40.95997],[-119.80298,40.96018],[-119.80309,40.96039],[-119.80321,40.96062],[-119.80335,40.96086],[-119.80349,40.96111],[-119.80364,40.96137],[-119.80381,40.9616],[-119.80401,40.96184],[-119.8042,40.96207],[-119.80437,40.96232],[-119.8045,40.96255],[-119.80463,40.96276],[-119.80476,40.96301],[-119.80494,40.96329],[-119.80515,40.96357],[-119.80538,40.96376],[-119.80539,40.96376],[-119.80545,40.96381],[-119.80582,40.964],[-119.80619,40.96416],[-119.80657,40.96433],[-119.80694,40.9645],[-119.80732,40.96469],[-119.80772,40.96489],[-119.80789,40.96497],[-119.80812,40.96508],[-119.80812,40.96509],[-119.8085,40.96527],[-119.80889,40.96545],[-119.80927,40.96563],[-119.80962,40.96579],[-119.80996,40.96595],[-119.81032,40.9661],[-119.81068,40.96625],[-119.81104,40.96638],[-119.81142,40.96653],[-119.81172,40.96667],[-119.8119,40.9668],[-119.81198,40.96688],[-119.812,40.9669],[-119.81201,40.96691],[-119.81201,40.96692],[-119.81206,40.96701],[-119.81207,40.96715],[-119.81208,40.96734],[-119.81209,40.96752],[-119.81209,40.96771],[-119.8121,40.96794],[-119.8121,40.96819],[-119.8121,40.96848],[-119.8121,40.96879],[-119.8121,40.96911],[-119.81211,40.96942],[-119.81211,40.96974],[-119.81212,40.97004],[-119.81212,40.97034],[-119.81213,40.97063],[-119.81213,40.97094],[-119.81214,40.97125],[-119.81215,40.97157],[-119.81216,40.97188],[-119.81216,40.9722],[-119.81217,40.97251],[-119.81218,40.97284],[-119.81218,40.97313],[-119.81219,40.97335],[-119.8122,40.97348],[-119.8122,40.9736],[-119.81219,40.97378],[-119.81219,40.97396],[-119.81219,40.97419],[-119.8122,40.97446],[-119.81221,40.97474],[-119.81222,40.97503],[-119.81222,40.97531],[-119.81222,40.9756],[-119.81223,40.9759],[-119.81224,40.97622],[-119.81225,40.97655],[-119.81226,40.97688],[-119.81227,40.97721],[-119.81229,40.97756],[-119.8123,40.97789],[-119.81231,40.97821],[-119.81231,40.97854],[-119.8123,40.97886],[-119.81228,40.97917],[-119.81226,40.97948],[-119.81224,40.97979],[-119.81221,40.9801],[-119.8122,40.98041],[-119.81219,40.98073],[-119.81217,40.98104],[-119.81215,40.98135],[-119.81214,40.98165],[-119.81212,40.98195],[-119.81211,40.98224],[-119.8121,40.98254],[-119.81208,40.98284],[-119.81206,40.98315],[-119.81204,40.98346],[-119.81202,40.98378],[-119.81201,40.98412],[-119.81199,40.98445],[-119.81196,40.98478],[-119.81194,40.98509],[-119.81192,40.9854],[-119.81191,40.98568],[-119.8119,40.98595],[-119.81188,40.98621],[-119.81187,40.98645],[-119.81185,40.98664],[-119.81184,40.98676],[-119.81182,40.98691],[-119.81179,40.98703],[-119.81179,40.98711]]}}]}