{"type":"FeatureCollection","features":[{"type":"Feature","properties":{"name":"Rd 628","source":"Bureau of Land Management","source_detail":"BLM GTLF OBJECTID 157884","source_id":"{8553D226-F99D-4BDF-B607-30D9664E83CD}","road_class":"transportation_system_-_primitive_road","surface":"natural_improved","vehicle_class":"4wd_low","allowed_mode":"all_moto_veh","access_restriction":"unknown","seasonal_restriction":"not_listed","route_plan_id":"1288","gis_miles":0.56350545},"geometry":{"type":"LineString","coordinates":[[-119.70234,37.40306],[-119.70198,37.40313],[-119.70158,37.40339],[-119.70133,37.4037],[-119.70122,37.4041],[-119.70113,37.40502],[-119.70139,37.40541],[-119.70112,37.40567],[-119.70098,37.40587],[-119.70107,37.40639],[-119.70086,37.4066],[-119.69975,37.40724],[-119.69959,37.40756],[-119.69956,37.40783],[-119.69992,37.40821],[-119.69966,37.40846],[-119.69964,37.40885],[-119.69945,37.40945],[-119.69976,37.40979],[-119.69978,37.4098]]}}]}