{"type":"FeatureCollection","features":[{"type":"Feature","properties":{"name":"1247","source":"Bureau of Land Management","source_detail":"BLM GTLF OBJECTID 156497","source_id":"{4D022A4F-AE5F-41DA-A342-213974C03EF9}","road_class":"transportation_system_-_primitive_road","surface":"natural","vehicle_class":"4wd_low","allowed_mode":"all_moto_veh","access_restriction":"unknown","seasonal_restriction":"not_listed","route_plan_id":"1247","gis_miles":0.14141125},"geometry":{"type":"LineString","coordinates":[[-119.60476,37.07815],[-119.60478,37.07801],[-119.60482,37.07793],[-119.60493,37.07788],[-119.6051,37.07781],[-119.60523,37.07778],[-119.60541,37.07772],[-119.60554,37.07764],[-119.60567,37.07753],[-119.60573,37.07741],[-119.60577,37.07728],[-119.60572,37.07717],[-119.60559,37.07712],[-119.60545,37.077],[-119.60534,37.07689],[-119.60518,37.07681],[-119.6051,37.07679]]}},{"type":"Feature","properties":{"name":"1247","source":"Bureau of Land Management","source_detail":"BLM GTLF OBJECTID 157171","source_id":"{D49400DF-3270-4695-B86D-0AF7CFEA0FDA}","road_class":"transportation_system_-_primitive_road","surface":"natural","vehicle_class":"4wd_low","allowed_mode":"all_moto_veh","access_restriction":"unknown","seasonal_restriction":"not_listed","route_plan_id":"1247","gis_miles":0.00802546},"geometry":{"type":"LineString","coordinates":[[-119.60554,37.07852],[-119.60539,37.07853]]}}]}