{"type":"FeatureCollection","features":[{"type":"Feature","properties":{"name":"2015","source":"Bureau of Land Management","source_detail":"BLM GTLF OBJECTID 157278","source_id":"{69C31BC3-7F12-4F04-9185-70C2586D4760}","road_class":"transportation_system_-_primitive_road","surface":"natural","vehicle_class":"4wd_low","allowed_mode":"all_moto_veh","access_restriction":"unknown","seasonal_restriction":"not_listed","route_plan_id":"2015","gis_miles":0.48411069},"geometry":{"type":"LineString","coordinates":[[-119.5558,35.84795],[-119.5558,35.84808],[-119.55582,35.85281],[-119.55581,35.85496]]}},{"type":"Feature","properties":{"name":"Avenue 36","source":"Bureau of Land Management","source_detail":"BLM GTLF OBJECTID 158615","source_id":"{2202338C-E343-4301-B3E3-24D291E98F18}","road_class":"transportation_system_-_primitive_road","surface":"natural","vehicle_class":"4wd_low","allowed_mode":"all_moto_veh","access_restriction":"unknown","seasonal_restriction":"not_listed","route_plan_id":"2015","gis_miles":0.06261261},"geometry":{"type":"LineString","coordinates":[[-119.5558,35.84613],[-119.55581,35.84523]]}},{"type":"Feature","properties":{"name":"2011","source":"Bureau of Land Management","source_detail":"BLM GTLF OBJECTID 159917","source_id":"{1BC80CEF-1718-43A2-8AC0-C51B83BAF2AD}","road_class":"transportation_system_-_primitive_road","surface":"natural","vehicle_class":"4wd_low","allowed_mode":"all_moto_veh","access_restriction":"unknown","seasonal_restriction":"not_listed","route_plan_id":"2011","gis_miles":0.50096649},"geometry":{"type":"LineString","coordinates":[[-119.55573,35.83343],[-119.5557,35.8311],[-119.55567,35.82617]]}}]}