{"type":"FeatureCollection","features":[{"type":"Feature","properties":{"name":"1637","source":"Bureau of Land Management","source_detail":"BLM GTLF OBJECTID 157697","source_id":"{6D90FDC4-AA29-4779-9438-04E3A220BAC0}","road_class":"transportation_system_-_primitive_road","surface":"natural_improved","vehicle_class":"4wd_low","allowed_mode":"all_moto_veh","access_restriction":"unknown","seasonal_restriction":"not_listed","route_plan_id":"1637","gis_miles":0.18530202},"geometry":{"type":"LineString","coordinates":[[-119.00793,35.51912],[-119.0081,35.5192],[-119.00815,35.51923],[-119.00865,35.51948],[-119.00884,35.51957],[-119.00911,35.51958],[-119.01032,35.5196],[-119.01095,35.51992]]}},{"type":"Feature","properties":{"name":"224","source":"Bureau of Land Management","source_detail":"BLM GTLF OBJECTID 157745","source_id":"{E84D0C56-E373-4D0B-958F-54B50AD01DF2}","road_class":"transportation_system_-_primitive_road","surface":"natural_improved","vehicle_class":"2wd_low","allowed_mode":"all_moto_veh","access_restriction":"unknown","seasonal_restriction":"not_listed","route_plan_id":"224","gis_miles":0.02145979},"geometry":{"type":"LineString","coordinates":[[-119.03935,35.57775],[-119.03946,35.57788],[-119.03962,35.57797]]}}]}