{"type":"FeatureCollection","features":[{"type":"Feature","properties":{"name":"1416","source":"Bureau of Land Management","source_detail":"BLM GTLF OBJECTID 154159","source_id":"{0C9FA98A-F535-4613-B67B-B373755AF358}","road_class":"transportation_system_-_primitive_road","surface":"natural_improved","vehicle_class":"4wd_low","allowed_mode":"all_moto_veh","access_restriction":"unknown","seasonal_restriction":"not_listed","route_plan_id":"1416","gis_miles":0.12568737},"geometry":{"type":"LineString","coordinates":[[-118.93327,34.90137],[-118.93325,34.9013],[-118.93314,34.90123],[-118.933,34.90117],[-118.93296,34.90109],[-118.93295,34.90098],[-118.93298,34.90086],[-118.93298,34.90086],[-118.93298,34.9007],[-118.93292,34.90062],[-118.93261,34.90052],[-118.93236,34.90048],[-118.93224,34.9004],[-118.93213,34.90028],[-118.93201,34.90014]]}},{"type":"Feature","properties":{"name":"1416","source":"Bureau of Land Management","source_detail":"BLM GTLF OBJECTID 155485","source_id":"{10765BE0-46F0-4816-94EB-932AEFAEEEF2}","road_class":"transportation_system_-_primitive_road","surface":"natural_improved","vehicle_class":"4wd_low","allowed_mode":"all_moto_veh","access_restriction":"unknown","seasonal_restriction":"not_listed","route_plan_id":"1416","gis_miles":0.11772409},"geometry":{"type":"LineString","coordinates":[[-118.93411,34.90136],[-118.93406,34.90118],[-118.93402,34.90098],[-118.93405,34.90074],[-118.9341,34.90064],[-118.93401,34.90059],[-118.93391,34.90066],[-118.93378,34.90079],[-118.93373,34.90086],[-118.93372,34.90108],[-118.93369,34.9012],[-118.9336,34.90137]]}}]}