{"type":"FeatureCollection","features":[{"type":"Feature","properties":{"name":"(unnamed public road)","road_class":"track","source":"OpenStreetMap","source_detail":"osm way 5138735","source_tile":"169/380","surface_inferred":true},"geometry":{"type":"LineString","coordinates":[[-120.58841,42.02492],[-120.58838,42.02549],[-120.58746,42.02737],[-120.58777,42.02799],[-120.58786,42.02803],[-120.58799,42.02831],[-120.58823,42.02847],[-120.58823,42.02856],[-120.58857,42.0289],[-120.58884,42.02954],[-120.58881,42.03046],[-120.58866,42.03084],[-120.58863,42.03153],[-120.58875,42.03169],[-120.58888,42.03233],[-120.58986,42.03315],[-120.59179,42.03404],[-120.59204,42.03423],[-120.59243,42.03512],[-120.59243,42.03569],[-120.59216,42.03601],[-120.59063,42.03702],[-120.59035,42.0372],[-120.59023,42.03738],[-120.58925,42.03731],[-120.58796,42.03752],[-120.5875,42.03718],[-120.58685,42.0369],[-120.58654,42.0369],[-120.58636,42.0369],[-120.58563,42.03718],[-120.5848,42.03773],[-120.58403,42.03807],[-120.58348,42.03811],[-120.58336,42.03812],[-120.58256,42.0381],[-120.58208,42.03799],[-120.58146,42.03764],[-120.58061,42.03729],[-120.5782,42.03693],[-120.57728,42.03654],[-120.57649,42.03588],[-120.57624,42.03547],[-120.57612,42.03446],[-120.57554,42.03359],[-120.57541,42.03302],[-120.57461,42.03183],[-120.57434,42.03101],[-120.57305,42.02918],[-120.57216,42.02851],[-120.5698,42.0276],[-120.56931,42.0273],[-120.56882,42.02687],[-120.56793,42.02573],[-120.56716,42.02522],[-120.56584,42.02474],[-120.56498,42.02451],[-120.564,42.02449],[-120.56278,42.02465],[-120.56238,42.02451],[-120.56225,42.02433],[-120.56112,42.0244],[-120.561,42.0246],[-120.55876,42.026],[-120.55854,42.02643],[-120.55845,42.02689],[-120.55821,42.02737],[-120.55747,42.02806],[-120.5563,42.02886],[-120.55563,42.02937]]}},{"type":"Feature","properties":{"name":"National Forest Development Road 4020","road_class":"unclassified","surface":"gravel","source":"OpenStreetMap","source_detail":"osm way 5142836","source_tile":"168/380"},"geometry":{"type":"LineString","coordinates":[[-120.55208,42.08483],[-120.55242,42.08479],[-120.55315,42.0846],[-120.55394,42.08444],[-120.55442,42.08441],[-120.55469,42.08443],[-120.55514,42.08467],[-120.55549,42.08502],[-120.55602,42.08558],[-120.55631,42.08587],[-120.55648,42.08597],[-120.55665,42.08602],[-120.55685,42.08599],[-120.55696,42.08586],[-120.55695,42.08559],[-120.55686,42.0849],[-120.55675,42.08432],[-120.55687,42.08413],[-120.55702,42.08392],[-120.55713,42.08369],[-120.55712,42.0833],[-120.55706,42.08245],[-120.55716,42.08216],[-120.55752,42.08185],[-120.55762,42.08154],[-120.55761,42.08119],[-120.55768,42.08088],[-120.55782,42.08075],[-120.55804,42.08068],[-120.55852,42.08051],[-120.55886,42.08034],[-120.55938,42.07967],[-120.55972,42.07935],[-120.56053,42.0789],[-120.56107,42.0786],[-120.5614,42.07841],[-120.56195,42.0781],[-120.56317,42.07741],[-120.5639,42.07698],[-120.56601,42.07577],[-120.56757,42.07485],[-120.56897,42.07404],[-120.56944,42.07381],[-120.57042,42.07334],[-120.57064,42.07316],[-120.57074,42.07298],[-120.57075,42.07269],[-120.57068,42.07236],[-120.57048,42.07198],[-120.57044,42.0718],[-120.57046,42.07158],[-120.57076,42.07086],[-120.57094,42.07034],[-120.57098,42.06985],[-120.57075,42.06927],[-120.5705,42.06889],[-120.56972,42.06826],[-120.56901,42.0677],[-120.56856,42.06752],[-120.56674,42.06695],[-120.5663,42.06673],[-120.56603,42.06652],[-120.56564,42.06619],[-120.56523,42.0657],[-120.56482,42.06512],[-120.5647,42.06466],[-120.5647,42.06463],[-120.56469,42.0641],[-120.56476,42.06355],[-120.56476,42.06311],[-120.56464,42.06269],[-120.56448,42.06212],[-120.56437,42.06181],[-120.56428,42.06144],[-120.56416,42.06107],[-120.56375,42.06052],[-120.56354,42.06025],[-120.56331,42.05998],[-120.56313,42.05968],[-120.56297,42.05905],[-120.56307,42.05848],[-120.5635,42.05737],[-120.56356,42.05679],[-120.56329,42.0554],[-120.56326,42.05469],[-120.56345,42.05422],[-120.5644,42.05345],[-120.56501,42.05309],[-120.56554,42.05272],[-120.56631,42.05225],[-120.56686,42.05173],[-120.56709,42.05144],[-120.56775,42.05063],[-120.56924,42.0493],[-120.57035,42.04867],[-120.57092,42.048],[-120.57202,42.04689],[-120.573,42.04646],[-120.57406,42.04605],[-120.5745,42.0456],[-120.57472,42.04523],[-120.57488,42.04504],[-120.57533,42.04472],[-120.57632,42.04405],[-120.5777,42.04345],[-120.57845,42.04318],[-120.57921,42.04294],[-120.58006,42.04269],[-120.58068,42.04242],[-120.58152,42.04167],[-120.58248,42.04076],[-120.5829,42.04038],[-120.58332,42.04016],[-120.58393,42.04],[-120.58448,42.03992],[-120.585,42.03991],[-120.58558,42.04006],[-120.58604,42.04017],[-120.58661,42.04041],[-120.58691,42.04068],[-120.58711,42.04105],[-120.58715,42.04122],[-120.58731,42.04189],[-120.58748,42.04253],[-120.58762,42.04305],[-120.58794,42.04349],[-120.5885,42.04426],[-120.58858,42.04493],[-120.58842,42.04533],[-120.58844,42.04598],[-120.58865,42.04654],[-120.58906,42.04689],[-120.58984,42.04695],[-120.59087,42.04717],[-120.59167,42.0472],[-120.59321,42.048],[-120.59411,42.04827],[-120.59502,42.04844],[-120.59626,42.04866],[-120.59663,42.04882],[-120.59692,42.04909],[-120.59799,42.05013],[-120.59844,42.05073],[-120.60024,42.05172],[-120.6011,42.05191],[-120.60163,42.05212],[-120.60263,42.05226],[-120.60371,42.05198],[-120.60436,42.05211],[-120.60519,42.05203],[-120.60631,42.05202],[-120.60753,42.05201],[-120.60832,42.05209],[-120.60884,42.0523],[-120.60925,42.05256],[-120.60947,42.05277],[-120.60989,42.05318],[-120.61024,42.05332],[-120.61118,42.05341],[-120.61138,42.05335],[-120.61151,42.05326],[-120.61166,42.0529],[-120.61193,42.05252],[-120.61208,42.05238],[-120.61232,42.05226],[-120.61254,42.05227],[-120.61273,42.05234],[-120.61338,42.05263],[-120.61365,42.0526],[-120.61393,42.05239],[-120.61405,42.05222],[-120.61419,42.05183],[-120.61435,42.05168],[-120.61457,42.05155],[-120.61522,42.05131],[-120.61547,42.05114],[-120.61567,42.05086],[-120.61568,42.05048],[-120.61574,42.05036],[-120.61707,42.04954],[-120.61726,42.04928],[-120.61736,42.04908],[-120.61752,42.04876],[-120.6179,42.04826],[-120.61834,42.04804],[-120.61905,42.04777],[-120.62001,42.04749],[-120.62094,42.04743],[-120.62155,42.04743],[-120.62247,42.0474],[-120.62293,42.04729],[-120.62365,42.04689],[-120.6245,42.0462],[-120.62457,42.04605],[-120.62465,42.04541],[-120.62475,42.04515],[-120.62491,42.04483],[-120.62551,42.04387],[-120.62608,42.04334],[-120.62821,42.04191],[-120.62926,42.04155],[-120.62946,42.04143],[-120.62957,42.0413],[-120.62966,42.04104],[-120.62973,42.04053],[-120.6299,42.04018],[-120.63019,42.03993],[-120.63082,42.03966],[-120.63149,42.03955],[-120.63317,42.0394],[-120.63412,42.03932],[-120.63458,42.03913],[-120.63501,42.03872],[-120.63532,42.03852],[-120.63596,42.03842],[-120.63642,42.03848],[-120.63707,42.03876],[-120.63777,42.03915],[-120.63839,42.03931],[-120.63921,42.03933],[-120.64087,42.03921],[-120.64207,42.03903],[-120.64298,42.03898],[-120.64356,42.03904],[-120.64512,42.03936],[-120.64551,42.0394],[-120.64608,42.03931],[-120.64656,42.03936],[-120.64686,42.03951],[-120.64704,42.03967],[-120.64735,42.03979],[-120.64769,42.03972],[-120.64788,42.03965],[-120.64822,42.03957],[-120.64889,42.03937],[-120.64944,42.03883],[-120.64966,42.03868],[-120.65008,42.03858],[-120.65077,42.03858],[-120.65155,42.03867],[-120.65217,42.03879],[-120.65276,42.03898],[-120.65357,42.03954],[-120.65393,42.03987],[-120.65403,42.04015],[-120.65379,42.04045],[-120.65315,42.04062],[-120.65285,42.04075],[-120.65279,42.04097],[-120.6529,42.04141],[-120.65314,42.04261],[-120.65314,42.04291],[-120.65301,42.04368],[-120.65284,42.04425],[-120.65284,42.04446],[-120.65293,42.04465],[-120.6533,42.04492],[-120.6541,42.04524],[-120.6544,42.04542],[-120.65526,42.04644],[-120.65551,42.04681],[-120.65561,42.04709],[-120.65562,42.04747],[-120.65575,42.04773],[-120.65599,42.0478],[-120.65656,42.04785],[-120.65692,42.04801],[-120.65702,42.0482],[-120.65695,42.04897],[-120.65681,42.05047],[-120.65671,42.05077],[-120.65652,42.05096],[-120.65613,42.05112],[-120.6558,42.05134],[-120.65554,42.05196],[-120.65494,42.05244],[-120.6542,42.053],[-120.65382,42.05324],[-120.65378,42.05333],[-120.65378,42.05342],[-120.65384,42.05359],[-120.65426,42.05377],[-120.6559,42.05422],[-120.65746,42.05463],[-120.65806,42.05482],[-120.65857,42.05511],[-120.65885,42.0555],[-120.65913,42.05605],[-120.65944,42.05669],[-120.65956,42.05688],[-120.65972,42.05705],[-120.65996,42.05709],[-120.66033,42.05692],[-120.66114,42.05665],[-120.66169,42.05641],[-120.66197,42.05628],[-120.66256,42.05622],[-120.6629,42.05625],[-120.66328,42.05637],[-120.66376,42.05671],[-120.66435,42.05726],[-120.66447,42.05745],[-120.66449,42.0578],[-120.66456,42.05862],[-120.66459,42.0598],[-120.66458,42.06001],[-120.66461,42.06015],[-120.66475,42.06028],[-120.66506,42.06031],[-120.66567,42.06002],[-120.666,42.05995],[-120.66629,42.05997],[-120.66694,42.06009],[-120.6673,42.06007],[-120.6678,42.05985],[-120.66843,42.0595],[-120.66878,42.05923],[-120.66881,42.05909],[-120.66876,42.05898],[-120.6684,42.05843],[-120.66841,42.05815],[-120.66871,42.05788],[-120.66927,42.05769],[-120.67013,42.05741],[-120.67079,42.05725],[-120.67136,42.05722],[-120.67156,42.05719],[-120.67175,42.05713],[-120.67183,42.05698],[-120.6718,42.05683],[-120.67161,42.05667],[-120.67125,42.05631],[-120.67112,42.05606],[-120.67067,42.05505],[-120.67038,42.05439],[-120.6703,42.0541],[-120.67027,42.05373],[-120.67035,42.05352],[-120.67065,42.05324],[-120.67142,42.05284],[-120.67166,42.0521],[-120.67181,42.05142],[-120.67197,42.05067],[-120.67173,42.05023],[-120.67109,42.04959],[-120.67067,42.04911],[-120.67052,42.04849],[-120.67052,42.04779],[-120.67095,42.04719],[-120.67167,42.04646],[-120.67221,42.0461],[-120.67233,42.04542],[-120.67251,42.04514],[-120.6733,42.04485],[-120.67461,42.04429],[-120.67487,42.04411],[-120.67506,42.04379],[-120.67534,42.04355],[-120.6758,42.04334],[-120.67619,42.0432],[-120.67645,42.04307],[-120.67666,42.04291],[-120.67672,42.04272],[-120.67651,42.04237],[-120.67638,42.04209],[-120.6763,42.04178],[-120.67622,42.04137],[-120.67632,42.04057],[-120.67613,42.04],[-120.67593,42.03958],[-120.67589,42.03928],[-120.67594,42.0391],[-120.67611,42.03885],[-120.67626,42.03872],[-120.67645,42.03855],[-120.67659,42.03838],[-120.67672,42.0382],[-120.67677,42.03795],[-120.67676,42.03765],[-120.67672,42.03742],[-120.67669,42.03713],[-120.67679,42.03684],[-120.67686,42.03668],[-120.67698,42.03647],[-120.67719,42.03618],[-120.67733,42.03593],[-120.67755,42.03573],[-120.67772,42.03561],[-120.67787,42.03556],[-120.67824,42.03539],[-120.67852,42.03513],[-120.67847,42.03479],[-120.67838,42.03427],[-120.67836,42.03397],[-120.67839,42.03383],[-120.67859,42.03361],[-120.67879,42.03355],[-120.67891,42.03354],[-120.67908,42.03355],[-120.67924,42.03356],[-120.67944,42.03356],[-120.67965,42.03356],[-120.67998,42.03358],[-120.68034,42.03345],[-120.68048,42.03324],[-120.68048,42.0329],[-120.68043,42.03244],[-120.68074,42.03208],[-120.68095,42.03178],[-120.68089,42.03156],[-120.68078,42.03139],[-120.68056,42.03124],[-120.68015,42.03103],[-120.67981,42.03076],[-120.67958,42.03056],[-120.67958,42.03044],[-120.67966,42.03022],[-120.67965,42.03002],[-120.67958,42.02977],[-120.67913,42.02927],[-120.67902,42.02898],[-120.67896,42.02863],[-120.67894,42.02843],[-120.679,42.02821],[-120.67926,42.02785],[-120.67939,42.02748],[-120.67955,42.02716],[-120.68012,42.0266],[-120.68048,42.02633],[-120.68089,42.02587],[-120.68127,42.0257],[-120.68139,42.02551],[-120.68126,42.0249],[-120.68135,42.02472],[-120.68177,42.02428],[-120.68197,42.02409],[-120.6822,42.02392],[-120.6828,42.02382],[-120.6833,42.02354],[-120.68393,42.02334],[-120.68465,42.023],[-120.68529,42.02276],[-120.68557,42.02277],[-120.68586,42.0229],[-120.68621,42.02324],[-120.68644,42.02365],[-120.68643,42.02387],[-120.68616,42.02408],[-120.68607,42.02425],[-120.68617,42.02441],[-120.68641,42.02451],[-120.68679,42.02453],[-120.68716,42.02448],[-120.6876,42.02418],[-120.68804,42.0239],[-120.68839,42.02375],[-120.68869,42.02372],[-120.68896,42.02378],[-120.68923,42.02398],[-120.6894,42.02419],[-120.68968,42.02433],[-120.69004,42.02434],[-120.69071,42.02414],[-120.69148,42.0239],[-120.69187,42.02352],[-120.6921,42.0234],[-120.69244,42.02341],[-120.69279,42.02352],[-120.6933,42.02361],[-120.69366,42.02352],[-120.69389,42.02336],[-120.69413,42.02321],[-120.69448,42.02318],[-120.69493,42.02332],[-120.69543,42.02349],[-120.69583,42.02357],[-120.69653,42.02341],[-120.69687,42.02333],[-120.69728,42.02338],[-120.69765,42.02338],[-120.6983,42.02329],[-120.69876,42.02322],[-120.69958,42.02315],[-120.70001,42.02309],[-120.70049,42.02298],[-120.70059,42.02287],[-120.70062,42.02268],[-120.7006,42.02254],[-120.70065,42.02238],[-120.70116,42.02204],[-120.70152,42.02177],[-120.70177,42.02177],[-120.70203,42.02181],[-120.70255,42.02193],[-120.70323,42.02212],[-120.70372,42.02206],[-120.70465,42.02229],[-120.70554,42.02262],[-120.70614,42.02296],[-120.70637,42.02319],[-120.7066,42.02333],[-120.70853,42.02383],[-120.70907,42.02386],[-120.70976,42.02406],[-120.71039,42.02413],[-120.71263,42.02401],[-120.71345,42.02385],[-120.71501,42.02342],[-120.71583,42.02319],[-120.7167,42.0228],[-120.71714,42.02261],[-120.7184,42.02255],[-120.71923,42.02246],[-120.71984,42.02231],[-120.72044,42.02214],[-120.72092,42.02202],[-120.72135,42.02195],[-120.72176,42.02186],[-120.72336,42.02135],[-120.7238,42.02129],[-120.72418,42.02121],[-120.72453,42.02108],[-120.72519,42.0208],[-120.7256,42.02069],[-120.7261,42.02085],[-120.72651,42.02096],[-120.72707,42.02104],[-120.72748,42.02103],[-120.72796,42.02097],[-120.72958,42.0203],[-120.72989,42.02017],[-120.73022,42.02016],[-120.73093,42.02014],[-120.73121,42.0201],[-120.73158,42.01995],[-120.73179,42.01974],[-120.73211,42.01931],[-120.73243,42.01888],[-120.7336,42.01853],[-120.73443,42.01824],[-120.73529,42.018],[-120.73635,42.01788],[-120.73749,42.0178],[-120.73994,42.01765],[-120.74028,42.01765],[-120.7406,42.0177],[-120.74121,42.01783],[-120.74409,42.01888],[-120.74443,42.01898],[-120.74978,42.0217],[-120.7501,42.02192],[-120.75025,42.02212],[-120.75056,42.02259],[-120.75103,42.02334],[-120.7514,42.02384],[-120.75181,42.02425]]}}]}