{"type":"FeatureCollection","features":[{"type":"Feature","properties":{"name":"(unnamed public road)","road_class":"track","source":"OpenStreetMap","source_detail":"osm way 705437779","source_tile":"169/396","surface_inferred":true},"geometry":{"type":"LineString","coordinates":[[-120.59134,37.68935],[-120.59073,37.68937],[-120.58976,37.68953],[-120.58886,37.6899],[-120.58775,37.69081],[-120.5872,37.69104],[-120.57466,37.69563],[-120.56801,37.69367],[-120.56312,37.69203]]}},{"type":"Feature","properties":{"name":"(unnamed public road)","road_class":"track","source":"OpenStreetMap","source_detail":"osm way 10688892","source_tile":"169/396","surface_inferred":true},"geometry":{"type":"LineString","coordinates":[[-120.43103,37.72177],[-120.43047,37.72145],[-120.42979,37.72112],[-120.42931,37.72086],[-120.42895,37.72064],[-120.42888,37.72058],[-120.42867,37.72032],[-120.42854,37.72021],[-120.4283,37.72004],[-120.4282,37.71995],[-120.428,37.71972],[-120.42782,37.71954],[-120.42734,37.71915],[-120.42728,37.71907],[-120.42714,37.71868],[-120.42707,37.71848],[-120.42703,37.71838],[-120.42662,37.7178],[-120.42648,37.71761],[-120.42632,37.7174],[-120.42615,37.71724],[-120.42599,37.71711],[-120.42587,37.71704],[-120.4257,37.71697],[-120.42533,37.71689],[-120.42506,37.71684],[-120.42503,37.71683],[-120.42483,37.71675],[-120.42476,37.7167],[-120.42467,37.71657],[-120.4245,37.71643],[-120.42438,37.71636],[-120.42426,37.71627],[-120.42401,37.71613],[-120.42391,37.71603],[-120.42378,37.71588],[-120.42366,37.71576],[-120.42282,37.7151],[-120.42271,37.715],[-120.42265,37.71492],[-120.42259,37.71483],[-120.42254,37.71467],[-120.42215,37.71408]]}},{"type":"Feature","properties":{"name":"(unnamed public road)","road_class":"track","source":"OpenStreetMap","source_detail":"osm way 887957031","source_tile":"169/396","surface_inferred":true},"geometry":{"type":"LineString","coordinates":[[-120.43816,37.71731],[-120.43759,37.7173],[-120.43653,37.71754],[-120.43637,37.71764],[-120.43628,37.71774],[-120.43628,37.71786],[-120.43638,37.71858],[-120.4364,37.71867],[-120.4364,37.71876],[-120.43636,37.71901],[-120.43625,37.71934],[-120.43617,37.71959],[-120.43617,37.71982],[-120.43615,37.71998],[-120.4361,37.72011],[-120.43602,37.72027],[-120.43591,37.7204],[-120.43584,37.72047],[-120.43537,37.72078],[-120.43527,37.72087],[-120.43518,37.72096],[-120.43509,37.72103],[-120.43486,37.7212],[-120.43472,37.72127],[-120.43443,37.72142],[-120.43372,37.72172],[-120.43352,37.72178],[-120.43293,37.72191],[-120.43268,37.72194],[-120.43198,37.72192],[-120.43152,37.72189],[-120.43133,37.72186],[-120.43103,37.72177]]}},{"type":"Feature","properties":{"name":"Cooperstown Road","road_class":"unclassified","surface":"gravel","source":"OpenStreetMap","source_detail":"osm way 1096164072","source_tile":"169/396"},"geometry":{"type":"LineString","coordinates":[[-120.5202,37.71867],[-120.51997,37.71828],[-120.51913,37.7167],[-120.51785,37.71581],[-120.51659,37.71491],[-120.51613,37.7146],[-120.51516,37.71397],[-120.51266,37.7124],[-120.51178,37.71213],[-120.51113,37.71191],[-120.51051,37.7117],[-120.50974,37.71142],[-120.50872,37.71102],[-120.50708,37.7103],[-120.50366,37.70882],[-120.50327,37.70865],[-120.50288,37.70848],[-120.50205,37.70811],[-120.50158,37.70788],[-120.50148,37.70783],[-120.5009,37.70755],[-120.50047,37.70735],[-120.50003,37.70719],[-120.49971,37.7071]]}},{"type":"Feature","properties":{"name":"(unnamed public road)","road_class":"track","source":"OpenStreetMap","source_detail":"osm way 10414479","source_tile":"169/396","surface_inferred":true},"geometry":{"type":"LineString","coordinates":[[-120.32686,37.60182],[-120.32677,37.60208],[-120.3267,37.60222],[-120.32659,37.60238],[-120.32649,37.60256],[-120.3264,37.60268],[-120.32628,37.6028],[-120.32626,37.60283],[-120.32623,37.60299],[-120.32619,37.60325],[-120.32614,37.60331],[-120.32602,37.60337],[-120.32597,37.60341],[-120.32595,37.60349],[-120.32596,37.60353],[-120.326,37.60361],[-120.32603,37.60381],[-120.32604,37.60437],[-120.32609,37.60438],[-120.32611,37.60435],[-120.32613,37.60431],[-120.32621,37.60422],[-120.3263,37.60413],[-120.32632,37.60408],[-120.32636,37.60392],[-120.3264,37.60389],[-120.32646,37.60388],[-120.32658,37.6039],[-120.32667,37.60394],[-120.32676,37.604],[-120.3268,37.60402],[-120.32691,37.60404],[-120.32698,37.60402],[-120.32705,37.60402],[-120.32712,37.60405],[-120.32724,37.60409],[-120.32738,37.60411],[-120.32743,37.6041],[-120.32748,37.60407],[-120.32749,37.60402],[-120.32743,37.60388],[-120.32736,37.6037],[-120.32731,37.60357],[-120.32731,37.60346],[-120.32731,37.60341],[-120.32731,37.60334],[-120.32732,37.6032],[-120.32731,37.60306],[-120.32723,37.60286],[-120.32721,37.60282],[-120.32719,37.60273],[-120.32721,37.60259],[-120.32722,37.60234],[-120.32722,37.60231],[-120.32717,37.60219],[-120.32711,37.60212],[-120.32699,37.60202],[-120.3269,37.60191],[-120.32686,37.60182],[-120.32691,37.60129],[-120.32692,37.60104],[-120.32694,37.60092],[-120.32704,37.60066],[-120.32706,37.60055],[-120.32706,37.60039],[-120.32707,37.6003],[-120.32712,37.60005],[-120.32717,37.59994],[-120.32727,37.59954],[-120.32734,37.59927],[-120.32739,37.59918],[-120.32741,37.59914],[-120.32747,37.59909],[-120.32755,37.59905],[-120.32762,37.59904],[-120.32768,37.599],[-120.32774,37.59887],[-120.32778,37.59878],[-120.32784,37.5987],[-120.32794,37.59859],[-120.32811,37.59848],[-120.32822,37.59838],[-120.32828,37.59831],[-120.3287,37.59773],[-120.32885,37.59758],[-120.32897,37.59743],[-120.32905,37.5973],[-120.3291,37.5972],[-120.32917,37.5971],[-120.32928,37.59702],[-120.32954,37.59692],[-120.32968,37.59691],[-120.32987,37.59694],[-120.32998,37.59695],[-120.33008,37.59692],[-120.33014,37.59687],[-120.33018,37.59681],[-120.33022,37.59669],[-120.33027,37.59661],[-120.33042,37.59651],[-120.33062,37.59627],[-120.3307,37.59622],[-120.33083,37.59617],[-120.33191,37.59599],[-120.33238,37.59594],[-120.33295,37.59592],[-120.33301,37.59592],[-120.33312,37.59594],[-120.33318,37.596],[-120.33319,37.59603],[-120.33318,37.59606],[-120.33313,37.59614],[-120.33312,37.5962],[-120.33314,37.59623],[-120.33319,37.59628],[-120.33324,37.59629],[-120.33333,37.59628],[-120.33342,37.59624],[-120.33349,37.59619],[-120.33356,37.59617],[-120.33376,37.59614],[-120.33396,37.59614],[-120.33404,37.59614],[-120.3341,37.5961],[-120.33414,37.59602],[-120.33415,37.59595],[-120.33416,37.5959],[-120.33427,37.59583],[-120.33439,37.59578],[-120.33476,37.59574],[-120.33487,37.59572],[-120.335,37.59566],[-120.3351,37.59557],[-120.3352,37.59551],[-120.33532,37.59546],[-120.33544,37.59543],[-120.33574,37.5954],[-120.33589,37.5954],[-120.33603,37.59541],[-120.33616,37.59543],[-120.33643,37.59552],[-120.33698,37.59576],[-120.33711,37.5958],[-120.33725,37.5958],[-120.3376,37.59571],[-120.33769,37.59566],[-120.33784,37.59564],[-120.33802,37.59563],[-120.33815,37.59562],[-120.33822,37.5956],[-120.33833,37.59557],[-120.33851,37.59555],[-120.33866,37.59552],[-120.33876,37.59546],[-120.33882,37.59544],[-120.3389,37.59545],[-120.33901,37.59549],[-120.33907,37.59551],[-120.33915,37.59552],[-120.33918,37.59553],[-120.33929,37.59552],[-120.3394,37.5955],[-120.33965,37.5954],[-120.33974,37.59534],[-120.33976,37.59532],[-120.33986,37.59513],[-120.33996,37.59494],[-120.34015,37.59466],[-120.34021,37.59456],[-120.3403,37.59434],[-120.3404,37.59423],[-120.3405,37.59414],[-120.34063,37.59404],[-120.341,37.59382],[-120.34114,37.59371],[-120.34128,37.59359],[-120.34144,37.59341],[-120.34155,37.59323],[-120.3418,37.59265],[-120.34207,37.59187],[-120.34215,37.59146]]}},{"type":"Feature","properties":{"name":"(unnamed public road)","road_class":"track","source":"OpenStreetMap","source_detail":"osm way 10415621","source_tile":"169/396","surface_inferred":true},"geometry":{"type":"LineString","coordinates":[[-120.30105,37.54307],[-120.3013,37.54326],[-120.30149,37.54344],[-120.30167,37.54364],[-120.30172,37.54372],[-120.30189,37.5441],[-120.30201,37.54443],[-120.30218,37.54475],[-120.30275,37.54545],[-120.30296,37.5458],[-120.30298,37.54588],[-120.30298,37.54605],[-120.303,37.5462],[-120.30305,37.54632],[-120.30321,37.54662],[-120.30331,37.54684],[-120.30342,37.54704],[-120.30353,37.54716],[-120.30358,37.54721],[-120.30395,37.54763],[-120.30409,37.54778],[-120.30423,37.54795],[-120.30435,37.54806],[-120.30455,37.54819],[-120.3048,37.54828],[-120.30491,37.54831],[-120.30501,37.54833],[-120.30516,37.54839],[-120.3053,37.54848],[-120.30541,37.54858],[-120.30549,37.54866],[-120.3056,37.54883],[-120.30565,37.54897],[-120.30566,37.5491],[-120.30573,37.54927],[-120.30577,37.54941],[-120.30589,37.54974],[-120.30596,37.54998],[-120.30605,37.55038],[-120.3061,37.55081],[-120.30608,37.55101],[-120.30604,37.55124],[-120.30603,37.55141],[-120.30606,37.55157],[-120.30608,37.55165],[-120.30611,37.55182],[-120.30624,37.5523],[-120.30633,37.55255],[-120.30642,37.55295],[-120.30643,37.55309],[-120.30652,37.5532],[-120.30657,37.55335],[-120.30661,37.55355],[-120.30662,37.55386],[-120.30666,37.55415],[-120.30668,37.55422],[-120.30673,37.5543],[-120.30685,37.55457],[-120.307,37.55507],[-120.30706,37.55516],[-120.30726,37.55535],[-120.30728,37.5554],[-120.30729,37.55545],[-120.30725,37.55564],[-120.30719,37.55571],[-120.30718,37.55579],[-120.30718,37.55589],[-120.30727,37.55613],[-120.30728,37.55622],[-120.30728,37.55629],[-120.30726,37.55641],[-120.30724,37.55656],[-120.30725,37.55668],[-120.30729,37.55681],[-120.30733,37.55687],[-120.30743,37.55694],[-120.30756,37.55699],[-120.30784,37.55703],[-120.30792,37.55704],[-120.30798,37.55707],[-120.30828,37.55731],[-120.30871,37.55761],[-120.30882,37.5577],[-120.30909,37.55795],[-120.30946,37.55826],[-120.30965,37.55839],[-120.31013,37.55868],[-120.31041,37.55879],[-120.31068,37.55884],[-120.31117,37.55888],[-120.31135,37.55889],[-120.31172,37.55895],[-120.31193,37.55902],[-120.31213,37.55911],[-120.31258,37.55936],[-120.31293,37.55951],[-120.31301,37.55952],[-120.31308,37.5595],[-120.31338,37.55938],[-120.31351,37.55934],[-120.31398,37.55917],[-120.31433,37.55904],[-120.31439,37.55905],[-120.31448,37.55913],[-120.31454,37.55922],[-120.31457,37.55931],[-120.31458,37.55938],[-120.31452,37.55982],[-120.31447,37.56045],[-120.31438,37.56072],[-120.31437,37.56079],[-120.31439,37.56104],[-120.3145,37.56163],[-120.31452,37.56198],[-120.3145,37.56217],[-120.31444,37.56248],[-120.31446,37.56264],[-120.31449,37.56272],[-120.31458,37.56292],[-120.31463,37.56302],[-120.31469,37.5631],[-120.31487,37.56327],[-120.31517,37.56351],[-120.31533,37.56368],[-120.31561,37.56399],[-120.31591,37.56429],[-120.31603,37.56446],[-120.3161,37.56457],[-120.31616,37.56474],[-120.3162,37.56489],[-120.31621,37.56497],[-120.31626,37.56503],[-120.31638,37.56509],[-120.31646,37.56514],[-120.31656,37.56526],[-120.31663,37.56536],[-120.31669,37.56552],[-120.31671,37.56565],[-120.31672,37.56584],[-120.31673,37.56591],[-120.31691,37.5662],[-120.31699,37.56638],[-120.31734,37.56679],[-120.31752,37.56705],[-120.31757,37.56716],[-120.31766,37.56752],[-120.31773,37.56767],[-120.31788,37.5679],[-120.31815,37.56845],[-120.3183,37.56867],[-120.31834,37.56872],[-120.3186,37.56894],[-120.31875,37.56904],[-120.31879,37.5691],[-120.31887,37.56924],[-120.319,37.56951],[-120.31924,37.56993],[-120.31944,37.57015],[-120.31954,37.57029],[-120.31959,37.5704],[-120.31965,37.57054],[-120.31971,37.57061],[-120.32021,37.57088],[-120.32032,37.57097],[-120.32085,37.57158],[-120.32109,37.57182],[-120.32123,37.57192],[-120.3213,37.57196],[-120.32138,37.572],[-120.32148,37.57204],[-120.32173,37.57209],[-120.32182,37.57212],[-120.32192,37.57219],[-120.32195,37.57227],[-120.32195,37.57235],[-120.32193,37.57242],[-120.32189,37.57247],[-120.32177,37.57258],[-120.32166,37.57276],[-120.32162,37.57283],[-120.3215,37.57302],[-120.32144,37.5731],[-120.32131,37.57321],[-120.32109,37.57349],[-120.32101,37.57358],[-120.32086,37.57371],[-120.32076,37.57377],[-120.32065,37.57382],[-120.32054,37.57384],[-120.32038,37.57384],[-120.3203,37.57387],[-120.32012,37.57398],[-120.32009,37.57402],[-120.32007,37.57404],[-120.32005,37.57423],[-120.31978,37.57464],[-120.31975,37.57471],[-120.31958,37.5752],[-120.31954,37.57541],[-120.31944,37.57573],[-120.3194,37.57575],[-120.31934,37.57575],[-120.31927,37.57575],[-120.31919,37.57577],[-120.31898,37.57589],[-120.31888,37.57597],[-120.31872,37.57613],[-120.31866,37.57623],[-120.31865,37.57626],[-120.31867,37.57651],[-120.31875,37.57659],[-120.31886,37.57667],[-120.31888,37.57671],[-120.31889,37.57678],[-120.3189,37.5768],[-120.31893,37.57681],[-120.31908,37.57683],[-120.31935,37.57682],[-120.31953,37.57682],[-120.3197,37.57684],[-120.31995,37.57688],[-120.32042,37.57702],[-120.32073,37.5771],[-120.32097,37.57714],[-120.32133,37.57717],[-120.32143,37.57716],[-120.32162,37.57719],[-120.32171,37.57722],[-120.32179,37.57727],[-120.32184,37.57732],[-120.32191,37.57734],[-120.3222,37.57736],[-120.32233,37.57741],[-120.32243,37.57746],[-120.32259,37.57758],[-120.32269,37.57769],[-120.32293,37.5779],[-120.3234,37.57826],[-120.32349,37.57835],[-120.32376,37.57854],[-120.32428,37.57913],[-120.32431,37.57923],[-120.32432,37.57939],[-120.32436,37.57943],[-120.32442,37.57946],[-120.3245,37.57948],[-120.32458,37.57953],[-120.32469,37.57966],[-120.32478,37.57981],[-120.3249,37.57992],[-120.32526,37.58014],[-120.32547,37.58028],[-120.32555,37.58031],[-120.32566,37.58031],[-120.32573,37.58031],[-120.32599,37.58023],[-120.32604,37.58021],[-120.32624,37.58016],[-120.32634,37.58015],[-120.32658,37.58014],[-120.32752,37.58013],[-120.32832,37.58012],[-120.32847,37.58009],[-120.32892,37.57994],[-120.32936,37.57983],[-120.32957,37.57982],[-120.32972,37.57979],[-120.32985,37.57979],[-120.32992,37.57981],[-120.33002,37.57989],[-120.33009,37.57997],[-120.33012,37.58002],[-120.33014,37.5802],[-120.33017,37.58025],[-120.33022,37.58028],[-120.33032,37.5803],[-120.33042,37.58029],[-120.3307,37.58024],[-120.33092,37.58024],[-120.33098,37.58021],[-120.33103,37.58016],[-120.33106,37.5801],[-120.33106,37.58001],[-120.33104,37.57991],[-120.33102,37.57987],[-120.33095,37.57976],[-120.33093,37.57969],[-120.33097,37.57963],[-120.33114,37.57944],[-120.33134,37.57928],[-120.33158,37.57906],[-120.33169,37.57899],[-120.3318,37.57894],[-120.3319,37.57891],[-120.33206,37.57889],[-120.33223,37.57887],[-120.33236,37.57888],[-120.33247,37.57892],[-120.33255,37.57897],[-120.33264,37.57905],[-120.33282,37.57917],[-120.33305,37.57929],[-120.33328,37.57942],[-120.33336,37.57944],[-120.3335,37.57945],[-120.33367,37.57951],[-120.33387,37.57966],[-120.33424,37.58013],[-120.33438,37.58026],[-120.33473,37.58062],[-120.33505,37.58093],[-120.33557,37.58135],[-120.33586,37.58161],[-120.33598,37.58176],[-120.33606,37.58189],[-120.33621,37.58206],[-120.3363,37.58213],[-120.33646,37.58225],[-120.33656,37.58229],[-120.33681,37.58234],[-120.33727,37.58241],[-120.33739,37.5824],[-120.33773,37.58233],[-120.33785,37.58231],[-120.33798,37.58232],[-120.33805,37.58237],[-120.33809,37.58243],[-120.3381,37.58255],[-120.33809,37.58263],[-120.33806,37.58269],[-120.33805,37.58279],[-120.33809,37.58286],[-120.33821,37.58306],[-120.33824,37.58314],[-120.3383,37.5832],[-120.33886,37.58368],[-120.33895,37.58374],[-120.33905,37.58378],[-120.33919,37.58381],[-120.33924,37.58384],[-120.33939,37.58402],[-120.33953,37.58418],[-120.3396,37.58432],[-120.33973,37.58463],[-120.33986,37.58491],[-120.33992,37.58507],[-120.34,37.5852],[-120.34008,37.5853],[-120.34015,37.58542],[-120.34025,37.58563],[-120.34038,37.58584],[-120.34049,37.58612],[-120.34061,37.58652],[-120.34068,37.58671],[-120.34073,37.58689],[-120.34092,37.58727],[-120.341,37.58739],[-120.34132,37.58779],[-120.3414,37.58792],[-120.34157,37.5883],[-120.34167,37.58847],[-120.34181,37.58864],[-120.34197,37.5889],[-120.34213,37.58919],[-120.34241,37.58996],[-120.34243,37.59005],[-120.34242,37.59041],[-120.3424,37.59054],[-120.34236,37.59093],[-120.34232,37.59106],[-120.34215,37.59146],[-120.34222,37.59159],[-120.34227,37.59166],[-120.34237,37.59178],[-120.34238,37.59185],[-120.34237,37.592],[-120.34238,37.59206],[-120.34247,37.59217],[-120.34254,37.59231],[-120.34258,37.59236],[-120.34275,37.59251],[-120.34302,37.59269],[-120.34325,37.59282],[-120.34335,37.59293],[-120.34362,37.59327],[-120.3439,37.59356],[-120.34419,37.59382],[-120.34436,37.59399],[-120.34452,37.59416],[-120.34463,37.59427],[-120.34478,37.59436],[-120.34502,37.59453],[-120.34556,37.59485],[-120.34566,37.59494],[-120.34585,37.59513],[-120.34622,37.59557],[-120.34629,37.59564],[-120.34643,37.59573],[-120.34658,37.59581],[-120.34667,37.59589],[-120.34683,37.59599],[-120.34711,37.59611],[-120.34793,37.59652],[-120.34855,37.59688],[-120.34873,37.59702],[-120.34896,37.59723],[-120.34928,37.59758],[-120.34948,37.59785],[-120.34981,37.59837],[-120.3499,37.59845],[-120.35003,37.59854],[-120.35009,37.59862],[-120.35024,37.59891],[-120.35035,37.59906],[-120.35039,37.5991],[-120.3506,37.59925],[-120.35115,37.5996],[-120.35133,37.59972],[-120.35156,37.59992],[-120.35164,37.60003],[-120.35171,37.60019],[-120.35179,37.60043],[-120.3518,37.60061],[-120.35179,37.60082],[-120.35181,37.60102],[-120.3518,37.60111],[-120.35182,37.60134],[-120.35187,37.60148],[-120.3519,37.60164],[-120.3519,37.60178],[-120.35197,37.60191],[-120.35199,37.60194],[-120.35203,37.60207],[-120.35205,37.60215],[-120.35206,37.60253],[-120.35204,37.60265],[-120.352,37.60274],[-120.35193,37.60286],[-120.3519,37.60291],[-120.35187,37.60312],[-120.35188,37.60337],[-120.35192,37.60351],[-120.35197,37.60373],[-120.35201,37.60399],[-120.35202,37.60422],[-120.35205,37.60435],[-120.35211,37.60452],[-120.35228,37.60489],[-120.35252,37.60536],[-120.35281,37.60584],[-120.35292,37.60595],[-120.35307,37.60607],[-120.35328,37.60621],[-120.35399,37.60677],[-120.3542,37.60697],[-120.35439,37.60712],[-120.35468,37.60727],[-120.35527,37.60753],[-120.35575,37.60781],[-120.35612,37.60807],[-120.35624,37.60813],[-120.3564,37.60818],[-120.35667,37.60821],[-120.35671,37.60822],[-120.35681,37.60824],[-120.35685,37.60826],[-120.35691,37.60831],[-120.35699,37.6084],[-120.35703,37.60846],[-120.35708,37.60849],[-120.35712,37.60849],[-120.35743,37.6084],[-120.35753,37.60839],[-120.3576,37.60841],[-120.35786,37.60855],[-120.35797,37.60862],[-120.35832,37.60899],[-120.35852,37.60911],[-120.35871,37.60922],[-120.35887,37.60929],[-120.35904,37.60932],[-120.35912,37.60933],[-120.35915,37.60934],[-120.35919,37.60936],[-120.35924,37.6094],[-120.35935,37.60951],[-120.3594,37.60955],[-120.3595,37.6096],[-120.35962,37.60964],[-120.35973,37.60965],[-120.36012,37.60964],[-120.36028,37.60966],[-120.36038,37.60969],[-120.36046,37.60977],[-120.36051,37.60986],[-120.36053,37.60992],[-120.36052,37.61],[-120.3606,37.61015],[-120.3607,37.61042],[-120.36075,37.6106],[-120.3608,37.61107],[-120.36081,37.6113],[-120.36079,37.61162],[-120.36077,37.61173],[-120.36072,37.61191],[-120.36073,37.61247],[-120.36076,37.61274],[-120.36058,37.61381]]}},{"type":"Feature","properties":{"name":"(unnamed public road)","road_class":"track","source":"OpenStreetMap","source_detail":"osm way 10415889","source_tile":"169/396","surface_inferred":true},"geometry":{"type":"LineString","coordinates":[[-120.32676,37.604],[-120.32659,37.60417],[-120.32639,37.60451],[-120.32632,37.60466],[-120.32627,37.6048],[-120.32618,37.60515],[-120.32617,37.60527],[-120.32612,37.6055],[-120.32605,37.60565],[-120.32595,37.60575],[-120.32565,37.606],[-120.32559,37.60608],[-120.32546,37.6062],[-120.32534,37.60628],[-120.32523,37.60638],[-120.32511,37.60647],[-120.32504,37.6065],[-120.32493,37.60652],[-120.32475,37.60657],[-120.32466,37.60662],[-120.32456,37.6067],[-120.32444,37.60682],[-120.32438,37.60692],[-120.32427,37.60716],[-120.32411,37.60743],[-120.32408,37.60751],[-120.32407,37.60772],[-120.32404,37.60786],[-120.32402,37.6079],[-120.32396,37.60793],[-120.32388,37.60794],[-120.32382,37.60792],[-120.32377,37.60788],[-120.32369,37.60777],[-120.32361,37.60769],[-120.32339,37.60756],[-120.32323,37.60742],[-120.32302,37.60726],[-120.32293,37.60722],[-120.32278,37.60711],[-120.32264,37.60696],[-120.32251,37.60685],[-120.32199,37.60653],[-120.32178,37.60641],[-120.32167,37.60633],[-120.32162,37.60626],[-120.32147,37.60607],[-120.32113,37.60572],[-120.32108,37.60565],[-120.32106,37.60558],[-120.32101,37.60548],[-120.32094,37.6054],[-120.32076,37.60524],[-120.3203,37.60489],[-120.32006,37.60474],[-120.31978,37.60454],[-120.31957,37.60439],[-120.31894,37.6038],[-120.31877,37.60361],[-120.31849,37.60341],[-120.31838,37.60333],[-120.31828,37.60325],[-120.31779,37.60283],[-120.31768,37.60271],[-120.31756,37.60254],[-120.31738,37.60225],[-120.3173,37.60221],[-120.31724,37.6022],[-120.31718,37.60222],[-120.31713,37.60226],[-120.31696,37.60249],[-120.31693,37.60261],[-120.31688,37.60306],[-120.31686,37.60317],[-120.31676,37.60336],[-120.31657,37.6036],[-120.31649,37.60371],[-120.31631,37.60391],[-120.31628,37.604],[-120.31628,37.60413],[-120.31624,37.60423],[-120.3161,37.60442],[-120.31598,37.60464],[-120.31582,37.60502],[-120.31579,37.60513],[-120.31579,37.60526],[-120.31581,37.60559],[-120.31578,37.60575],[-120.31575,37.60583],[-120.31558,37.60613],[-120.31549,37.60625],[-120.31542,37.60637],[-120.31531,37.60653],[-120.31524,37.60666],[-120.31519,37.60673],[-120.315,37.60688],[-120.31495,37.60694],[-120.3149,37.60704],[-120.31487,37.60722],[-120.31483,37.60726],[-120.31481,37.60727],[-120.31471,37.60726],[-120.31449,37.60713],[-120.3144,37.6071],[-120.31416,37.60707],[-120.31351,37.60701],[-120.31331,37.60698],[-120.31324,37.60696],[-120.31305,37.60687],[-120.31294,37.60683],[-120.31284,37.60682],[-120.31265,37.60682],[-120.3126,37.60682],[-120.31248,37.60686],[-120.31232,37.60696],[-120.31216,37.60712],[-120.31212,37.60721],[-120.31206,37.60744],[-120.31199,37.60759],[-120.31191,37.60772],[-120.31178,37.60785],[-120.31163,37.60795],[-120.31122,37.60812],[-120.31104,37.60821],[-120.31094,37.60824],[-120.31083,37.60826],[-120.31065,37.60826],[-120.31041,37.60831],[-120.31014,37.6084],[-120.31003,37.60842],[-120.30985,37.6084]]}},{"type":"Feature","properties":{"name":"(unnamed public road)","road_class":"track","source":"OpenStreetMap","source_detail":"osm way 10416418","source_tile":"169/396","surface_inferred":true},"geometry":{"type":"LineString","coordinates":[[-120.3836,37.68328],[-120.38413,37.68331],[-120.38463,37.68342],[-120.38494,37.68354],[-120.38636,37.68422],[-120.38704,37.68406],[-120.38841,37.68385],[-120.3889,37.68251],[-120.38881,37.68206],[-120.38877,37.682],[-120.38888,37.68187],[-120.38897,37.68182],[-120.38945,37.68167],[-120.3897,37.68147],[-120.38985,37.68126],[-120.39055,37.68086],[-120.39149,37.68079],[-120.39191,37.68082]]}},{"type":"Feature","properties":{"name":"(unnamed public road)","road_class":"track","source":"OpenStreetMap","source_detail":"osm way 10417375","source_tile":"169/396","surface_inferred":true},"geometry":{"type":"LineString","coordinates":[[-120.39281,37.67983],[-120.39282,37.67973],[-120.39289,37.67938],[-120.39287,37.67927],[-120.39283,37.67915],[-120.39281,37.67905],[-120.39284,37.67878],[-120.39283,37.67869],[-120.39277,37.67856],[-120.39267,37.67835],[-120.3925,37.67784],[-120.39243,37.67736],[-120.39235,37.67698],[-120.39235,37.67679],[-120.39238,37.67662],[-120.39241,37.67634],[-120.39239,37.67625],[-120.39234,37.67616],[-120.39218,37.67597],[-120.39205,37.67573],[-120.39196,37.67564],[-120.39168,37.67537],[-120.39141,37.67508],[-120.3913,37.67501],[-120.39104,37.6749],[-120.39095,37.67483],[-120.39091,37.67478],[-120.3907,37.67447],[-120.39041,37.67393],[-120.39032,37.67381],[-120.39018,37.6737],[-120.39002,37.67358],[-120.3899,37.67348],[-120.38987,37.67344],[-120.38961,37.67313],[-120.38917,37.67272],[-120.38908,37.67266],[-120.38889,37.67259],[-120.38867,37.67252],[-120.38851,37.67244],[-120.38811,37.67222],[-120.38784,37.67213],[-120.38753,37.67208],[-120.38618,37.67167],[-120.38571,37.67149],[-120.38533,37.67139],[-120.38505,37.67126]]}},{"type":"Feature","properties":{"name":"(unnamed public road)","road_class":"track","source":"OpenStreetMap","source_detail":"osm way 10417557","source_tile":"169/396","surface_inferred":true},"geometry":{"type":"LineString","coordinates":[[-120.31115,37.65227],[-120.31106,37.65226],[-120.31098,37.65224],[-120.31079,37.65217],[-120.31057,37.65212],[-120.31044,37.65212],[-120.3103,37.65216],[-120.31002,37.65228],[-120.30973,37.65234],[-120.30899,37.65247],[-120.30878,37.65249],[-120.30866,37.65248],[-120.30847,37.65247],[-120.30837,37.65248],[-120.30789,37.65259],[-120.30759,37.65257],[-120.30747,37.6525],[-120.30737,37.65238],[-120.30723,37.65229],[-120.30715,37.65228],[-120.30695,37.65231],[-120.30662,37.65245],[-120.30649,37.65253],[-120.30619,37.65264],[-120.30606,37.65266],[-120.30592,37.65275],[-120.30579,37.65285],[-120.30567,37.65299],[-120.3055,37.65324],[-120.30548,37.65333],[-120.30544,37.65343],[-120.3054,37.65347],[-120.30533,37.65349],[-120.30523,37.65348],[-120.30505,37.65342],[-120.30495,37.65338],[-120.30478,37.65335],[-120.30468,37.65335],[-120.30455,37.65333],[-120.30443,37.65326],[-120.30436,37.6532],[-120.30432,37.65312],[-120.30415,37.653],[-120.30405,37.6529],[-120.30398,37.65279],[-120.30395,37.6527],[-120.30396,37.65265],[-120.304,37.65263],[-120.30404,37.65254],[-120.30411,37.65247],[-120.30415,37.65241],[-120.30415,37.65235],[-120.3041,37.65228],[-120.30405,37.65229],[-120.30397,37.65228],[-120.30383,37.65219],[-120.30376,37.65214],[-120.30369,37.65212],[-120.30361,37.65214],[-120.30351,37.65216],[-120.30343,37.65216],[-120.3033,37.65208],[-120.30316,37.65206],[-120.30293,37.65213],[-120.30291,37.65218],[-120.30294,37.65221],[-120.30314,37.65226],[-120.30321,37.65231],[-120.3032,37.65245],[-120.30314,37.65257],[-120.30301,37.65281],[-120.30303,37.65295],[-120.30308,37.65306],[-120.3032,37.6534],[-120.30324,37.65361],[-120.30325,37.65371],[-120.30322,37.65377],[-120.30312,37.65383],[-120.30277,37.65398],[-120.30238,37.6542],[-120.3022,37.65431],[-120.30203,37.65435],[-120.30153,37.65444],[-120.30089,37.65449],[-120.30083,37.65443],[-120.30062,37.65432],[-120.29999,37.65406],[-120.2996,37.65392],[-120.29923,37.65376],[-120.29912,37.65368],[-120.29894,37.65357],[-120.29851,37.65333],[-120.29783,37.65287],[-120.29729,37.65258],[-120.29707,37.65242],[-120.29702,37.65236],[-120.29695,37.65227],[-120.29682,37.65213],[-120.29662,37.65203],[-120.29644,37.65196],[-120.29564,37.65166],[-120.29552,37.65161]]}},{"type":"Feature","properties":{"name":"(unnamed public road)","road_class":"track","source":"OpenStreetMap","source_detail":"osm way 10418008","source_tile":"169/396","surface_inferred":true},"geometry":{"type":"LineString","coordinates":[[-120.38221,37.68297],[-120.38093,37.68238],[-120.38089,37.68236]]}},{"type":"Feature","properties":{"name":"(unnamed public road)","road_class":"track","source":"OpenStreetMap","source_detail":"osm way 10418159","source_tile":"169/396","surface_inferred":true},"geometry":{"type":"LineString","coordinates":[[-120.32847,37.62149],[-120.32856,37.62147],[-120.32862,37.62142],[-120.32892,37.62111],[-120.32914,37.62087],[-120.32966,37.62037],[-120.32973,37.6203],[-120.32998,37.62015],[-120.3302,37.62004],[-120.33039,37.61996],[-120.3306,37.61989],[-120.33065,37.61988],[-120.3309,37.61989],[-120.33126,37.61994],[-120.33134,37.61998],[-120.3316,37.62016],[-120.33165,37.62019],[-120.33171,37.62024],[-120.33176,37.6203],[-120.3319,37.62043],[-120.33197,37.6205],[-120.33229,37.62078],[-120.33243,37.6209],[-120.33252,37.62098],[-120.33266,37.62107],[-120.33276,37.62111],[-120.33298,37.62128],[-120.33307,37.62139],[-120.33311,37.62154],[-120.33314,37.62159],[-120.33323,37.62168],[-120.33329,37.62172],[-120.33335,37.62176],[-120.33444,37.62272],[-120.33575,37.62355],[-120.33767,37.62445],[-120.33826,37.62474],[-120.33869,37.62493],[-120.34008,37.62549],[-120.3413,37.62635],[-120.34329,37.62709],[-120.34451,37.6275],[-120.34552,37.62806],[-120.34648,37.62842],[-120.34716,37.6283],[-120.34753,37.62835],[-120.34793,37.6285],[-120.34854,37.62911],[-120.34897,37.62934],[-120.35021,37.62974],[-120.35112,37.62989],[-120.35247,37.62997],[-120.35258,37.62999],[-120.35399,37.63027]]}},{"type":"Feature","properties":{"name":"(unnamed public road)","road_class":"track","source":"OpenStreetMap","source_detail":"osm way 10418425","source_tile":"169/396","surface_inferred":true},"geometry":{"type":"LineString","coordinates":[[-120.33539,37.62493],[-120.33533,37.62467],[-120.33518,37.62433],[-120.33464,37.6238],[-120.33404,37.62324],[-120.33359,37.62267],[-120.33341,37.62231],[-120.3333,37.62198],[-120.33335,37.62176]]}},{"type":"Feature","properties":{"name":"(unnamed public road)","road_class":"track","source":"OpenStreetMap","source_detail":"osm way 10418775","source_tile":"169/396","surface_inferred":true},"geometry":{"type":"LineString","coordinates":[[-120.30875,37.57301],[-120.30857,37.57291],[-120.30847,37.57285],[-120.30828,37.57265],[-120.30819,37.57252],[-120.30799,37.57232],[-120.30792,37.57223],[-120.30786,37.5721],[-120.30783,37.57199],[-120.30778,37.57157],[-120.30774,37.57146],[-120.30755,37.57093],[-120.30752,37.57083],[-120.30752,37.57075],[-120.30754,37.57046],[-120.30752,37.57034],[-120.30747,37.57018],[-120.30738,37.56985],[-120.30718,37.56941],[-120.30712,37.56925],[-120.30709,37.56909],[-120.30704,37.56901],[-120.30691,37.5689],[-120.30685,37.56883],[-120.3068,37.56876],[-120.30675,37.56863],[-120.30651,37.56829],[-120.30636,37.56798],[-120.3063,37.56788],[-120.30607,37.56757],[-120.306,37.56753],[-120.30591,37.56751],[-120.30554,37.56755],[-120.3054,37.56756],[-120.30527,37.56754],[-120.30511,37.56747],[-120.30488,37.56732],[-120.3045,37.56703],[-120.30442,37.56696],[-120.30433,37.56688],[-120.30381,37.56657],[-120.30361,37.56649],[-120.3034,37.56641],[-120.30331,37.56637],[-120.30324,37.56631],[-120.30304,37.56607],[-120.30268,37.56559],[-120.30258,37.56546],[-120.3024,37.56532],[-120.30228,37.56523],[-120.3021,37.56504],[-120.30194,37.56487],[-120.30175,37.56473],[-120.30149,37.56447],[-120.30139,37.5644],[-120.3012,37.56432],[-120.30116,37.56429],[-120.30115,37.56424],[-120.30116,37.56418],[-120.30124,37.56408],[-120.30132,37.564],[-120.30148,37.56384],[-120.30157,37.5637],[-120.30167,37.5635]]}},{"type":"Feature","properties":{"name":"(unnamed public road)","road_class":"track","source":"OpenStreetMap","source_detail":"osm way 10419204","source_tile":"169/396","surface_inferred":true},"geometry":{"type":"LineString","coordinates":[[-120.3555,37.62354],[-120.35508,37.62443],[-120.35501,37.62502],[-120.35464,37.62646],[-120.3541,37.62716],[-120.35406,37.62788],[-120.3535,37.62835],[-120.35247,37.62997]]}},{"type":"Feature","properties":{"name":"(unnamed public road)","road_class":"track","source":"OpenStreetMap","source_detail":"osm way 10420343","source_tile":"169/396","surface_inferred":true},"geometry":{"type":"LineString","coordinates":[[-120.30623,37.58427],[-120.30623,37.5844],[-120.30633,37.58454],[-120.30666,37.58484],[-120.3067,37.58494],[-120.3067,37.58504],[-120.30666,37.58519],[-120.30665,37.58534],[-120.30667,37.58545],[-120.30674,37.58568],[-120.30677,37.58588],[-120.3068,37.58595],[-120.30685,37.58599],[-120.30689,37.586],[-120.30702,37.586],[-120.30726,37.58601]]}},{"type":"Feature","properties":{"name":"(unnamed public road)","road_class":"track","source":"OpenStreetMap","source_detail":"osm way 10420660","source_tile":"169/396","surface_inferred":true},"geometry":{"type":"LineString","coordinates":[[-120.30167,37.5635],[-120.30165,37.56347],[-120.30158,37.56343],[-120.30131,37.56337],[-120.3012,37.56336],[-120.30108,37.56336],[-120.30093,37.56337],[-120.30061,37.56337],[-120.30049,37.56336],[-120.30024,37.56331],[-120.29997,37.56323],[-120.29981,37.56316],[-120.29967,37.56309],[-120.29885,37.56261],[-120.29851,37.56241],[-120.29815,37.56212],[-120.29795,37.56199],[-120.29763,37.56166],[-120.2975,37.56154],[-120.29743,37.56147],[-120.29739,37.56137],[-120.29739,37.56117],[-120.29741,37.56105],[-120.29742,37.56092],[-120.29738,37.56083],[-120.29726,37.56069],[-120.29695,37.56038],[-120.29681,37.56016],[-120.29652,37.55975],[-120.29644,37.55957],[-120.29636,37.55944],[-120.29602,37.5591],[-120.29589,37.55891],[-120.29577,37.55864],[-120.29572,37.55845],[-120.29562,37.55785],[-120.29556,37.55769],[-120.29527,37.55706],[-120.29515,37.55683],[-120.29505,37.55669],[-120.29488,37.5565],[-120.2946,37.55615],[-120.29452,37.55605],[-120.29445,37.55597],[-120.29438,37.55591],[-120.2942,37.55577],[-120.29405,37.55563],[-120.29396,37.55549],[-120.29375,37.55493],[-120.29365,37.55456],[-120.29348,37.55418],[-120.29338,37.55387],[-120.29332,37.55381],[-120.29325,37.55378],[-120.29287,37.55369],[-120.29264,37.55359],[-120.2923,37.55343],[-120.29215,37.55339],[-120.29188,37.55331],[-120.29173,37.55323],[-120.29168,37.55319],[-120.29163,37.55313],[-120.29157,37.55301],[-120.2915,37.55267],[-120.29146,37.55238],[-120.29135,37.55208],[-120.29123,37.55171],[-120.29116,37.55153],[-120.29097,37.5512],[-120.29081,37.55103],[-120.29072,37.5509],[-120.29064,37.55069],[-120.29056,37.55043],[-120.2905,37.55029],[-120.29042,37.55022],[-120.29013,37.55003],[-120.28993,37.54984],[-120.28981,37.54972],[-120.28967,37.54962],[-120.28949,37.54949],[-120.28937,37.54929],[-120.28931,37.54908],[-120.28925,37.5489],[-120.28915,37.54868],[-120.28899,37.54846],[-120.28875,37.54819],[-120.28852,37.54787],[-120.28843,37.54773],[-120.28838,37.5476],[-120.28838,37.54736],[-120.28843,37.54708],[-120.28848,37.54689],[-120.28849,37.54674],[-120.28848,37.54662],[-120.28827,37.5459],[-120.28823,37.54573],[-120.28821,37.54558],[-120.2882,37.5454],[-120.28823,37.54525],[-120.28828,37.54514],[-120.2883,37.54504],[-120.2883,37.54497],[-120.28834,37.54484],[-120.28838,37.54476],[-120.28845,37.54466],[-120.28853,37.5445],[-120.28858,37.54441],[-120.28864,37.54427],[-120.2888,37.54404],[-120.28886,37.544],[-120.28894,37.54393],[-120.28901,37.54381],[-120.28902,37.54379],[-120.28907,37.54375],[-120.28923,37.54368],[-120.28936,37.54356],[-120.28949,37.54349],[-120.28963,37.54346],[-120.28968,37.54342],[-120.28969,37.54337],[-120.28969,37.54324],[-120.28965,37.54306],[-120.28965,37.54281],[-120.28966,37.54275],[-120.28972,37.54262],[-120.28972,37.54256],[-120.2897,37.54248],[-120.28974,37.54236],[-120.28977,37.54231],[-120.28982,37.54216],[-120.28988,37.54201],[-120.28991,37.54189],[-120.28988,37.54184],[-120.28989,37.54178],[-120.28987,37.54163],[-120.28988,37.54147],[-120.2899,37.54139],[-120.28993,37.54133],[-120.28997,37.5413],[-120.29002,37.54128]]}},{"type":"Feature","properties":{"name":"(unnamed public road)","road_class":"track","source":"OpenStreetMap","source_detail":"osm way 10420900","source_tile":"169/396","surface_inferred":true},"geometry":{"type":"LineString","coordinates":[[-120.3171,37.59802],[-120.31695,37.59809],[-120.31667,37.59826],[-120.31661,37.59832],[-120.31658,37.5984],[-120.31657,37.59861],[-120.3165,37.59874],[-120.3163,37.59905],[-120.31625,37.59909],[-120.31609,37.59921],[-120.31595,37.59934],[-120.31591,37.59941],[-120.31589,37.59946],[-120.31588,37.59959],[-120.31589,37.59968],[-120.31594,37.59977],[-120.31601,37.59988],[-120.31605,37.59999],[-120.31608,37.60019],[-120.31608,37.6004],[-120.31605,37.60053],[-120.31605,37.60055],[-120.31617,37.60063],[-120.31625,37.60071],[-120.31629,37.60075],[-120.31634,37.6008],[-120.31646,37.60082],[-120.31662,37.60084],[-120.31678,37.60088],[-120.31696,37.60095],[-120.31712,37.60105],[-120.31721,37.60113],[-120.31731,37.60129],[-120.31734,37.60136],[-120.31736,37.6015],[-120.31736,37.60195],[-120.31738,37.60225]]}},{"type":"Feature","properties":{"name":"(unnamed public road)","road_class":"track","source":"OpenStreetMap","source_detail":"osm way 10422352","source_tile":"169/396","surface_inferred":true},"geometry":{"type":"LineString","coordinates":[[-120.36049,37.61398],[-120.36046,37.61391],[-120.36039,37.61383],[-120.36019,37.61368]]}},{"type":"Feature","properties":{"name":"Rich Gultch Drive","road_class":"track","source":"OpenStreetMap","source_detail":"osm way 10428677","source_tile":"169/396","surface_inferred":true},"geometry":{"type":"LineString","coordinates":[[-120.35562,37.67258],[-120.35594,37.67356],[-120.35631,37.67453]]}},{"type":"Feature","properties":{"name":"Prouty Road","road_class":"track","source":"OpenStreetMap","source_detail":"osm way 10429373","source_tile":"169/396","surface_inferred":true},"geometry":{"type":"LineString","coordinates":[[-120.30818,37.60789],[-120.30825,37.60788],[-120.30839,37.60789],[-120.30853,37.60793],[-120.30872,37.60802],[-120.30898,37.60813],[-120.30911,37.60821],[-120.30951,37.60826],[-120.3097,37.60832],[-120.3098,37.60836],[-120.30985,37.6084],[-120.31018,37.60871],[-120.31061,37.60908],[-120.3108,37.6093],[-120.31089,37.60945],[-120.3111,37.60986],[-120.31121,37.61004],[-120.31133,37.61018],[-120.31164,37.61059],[-120.31172,37.61069],[-120.31213,37.61107],[-120.3123,37.61124],[-120.31256,37.61152],[-120.31298,37.61183],[-120.31315,37.61194],[-120.31382,37.61233],[-120.31401,37.61241],[-120.31441,37.61256],[-120.31464,37.61267],[-120.3148,37.61275],[-120.31497,37.61287],[-120.31533,37.6132],[-120.31564,37.61344],[-120.31578,37.61354],[-120.31588,37.61366],[-120.31624,37.61406],[-120.31683,37.61468],[-120.31698,37.61487],[-120.3171,37.61499],[-120.31728,37.61513],[-120.31741,37.61522],[-120.31773,37.6154],[-120.31864,37.61582],[-120.31876,37.6159],[-120.31893,37.61609],[-120.31914,37.61626],[-120.31919,37.6163],[-120.31961,37.61649],[-120.32021,37.61679],[-120.32053,37.61699],[-120.32058,37.61704],[-120.3206,37.61711],[-120.3206,37.61715],[-120.32057,37.61725],[-120.3206,37.6173],[-120.32082,37.61747],[-120.32135,37.61799],[-120.32191,37.61845],[-120.32245,37.61883],[-120.32253,37.6189],[-120.32258,37.6189],[-120.32263,37.6189],[-120.32271,37.61895],[-120.3229,37.61911],[-120.32316,37.61937],[-120.3236,37.61965],[-120.32363,37.6197],[-120.32366,37.61981],[-120.32373,37.61988],[-120.32382,37.61994],[-120.32397,37.61999],[-120.32422,37.62002],[-120.32438,37.62007],[-120.32449,37.62012],[-120.32512,37.62052],[-120.32543,37.62066],[-120.32555,37.62069],[-120.32568,37.62072],[-120.32571,37.62074],[-120.32583,37.62089],[-120.32602,37.62105],[-120.32619,37.62114],[-120.32654,37.62125],[-120.32673,37.62127],[-120.32704,37.6213],[-120.32741,37.6214],[-120.32751,37.62142],[-120.32784,37.62146],[-120.32838,37.62149],[-120.32847,37.62149]]}},{"type":"Feature","properties":{"name":"(unnamed public road)","road_class":"track","source":"OpenStreetMap","source_detail":"osm way 10431305","source_tile":"169/396","surface_inferred":true},"geometry":{"type":"LineString","coordinates":[[-120.37144,37.6425],[-120.37218,37.64267],[-120.37298,37.64281],[-120.3732,37.64285],[-120.37381,37.643],[-120.37425,37.64308],[-120.37469,37.64314],[-120.37509,37.64322],[-120.37585,37.64344]]}},{"type":"Feature","properties":{"name":"Barrett Entrance Road","road_class":"unclassified","surface":"gravel","source":"OpenStreetMap","source_detail":"osm way 10431430","source_tile":"169/396"},"geometry":{"type":"LineString","coordinates":[[-120.30655,37.63955],[-120.30652,37.64142],[-120.30653,37.64432]]}},{"type":"Feature","properties":{"name":"(unnamed public road)","road_class":"track","source":"OpenStreetMap","source_detail":"osm way 10434906","source_tile":"169/396","surface_inferred":true},"geometry":{"type":"LineString","coordinates":[[-120.3924,37.63113],[-120.39237,37.6311],[-120.39205,37.63087],[-120.39185,37.63076],[-120.39174,37.63072],[-120.39131,37.63067],[-120.39115,37.63064],[-120.39081,37.63054],[-120.39036,37.6304],[-120.39024,37.63037],[-120.39015,37.63033],[-120.39004,37.63029],[-120.38973,37.63014],[-120.38964,37.63011],[-120.38951,37.63008],[-120.38936,37.63005]]}},{"type":"Feature","properties":{"name":"(unnamed public road)","road_class":"track","source":"OpenStreetMap","source_detail":"osm way 10438930","source_tile":"169/396","surface_inferred":true},"geometry":{"type":"LineString","coordinates":[[-120.46424,37.56052],[-120.46303,37.56181]]}},{"type":"Feature","properties":{"name":"Floto Street","road_class":"track","surface":"ground","tracktype":"grade1","source":"OpenStreetMap","source_detail":"osm way 10609563","source_tile":"169/396"},"geometry":{"type":"LineString","coordinates":[[-120.46481,37.66187],[-120.46469,37.6619],[-120.46456,37.6619],[-120.46439,37.66189],[-120.46403,37.66185],[-120.4631,37.66175],[-120.46299,37.66173],[-120.46285,37.66171],[-120.46258,37.66169],[-120.46237,37.66168],[-120.46209,37.66165],[-120.46202,37.66164],[-120.46194,37.66165],[-120.4619,37.66166],[-120.46187,37.6617],[-120.46183,37.66175],[-120.46175,37.6619],[-120.46167,37.66198],[-120.46153,37.66203]]}},{"type":"Feature","properties":{"name":"(unnamed public road)","road_class":"track","source":"OpenStreetMap","source_detail":"osm way 10682636","source_tile":"169/396","surface_inferred":true},"geometry":{"type":"LineString","coordinates":[[-120.36264,37.67857],[-120.36182,37.6778],[-120.36155,37.67758],[-120.36125,37.67738],[-120.36116,37.67731],[-120.3611,37.67723],[-120.36105,37.67717],[-120.361,37.67705],[-120.36097,37.67699],[-120.36086,37.67675],[-120.36081,37.67666],[-120.36076,37.6766],[-120.3606,37.67643],[-120.36053,37.67635],[-120.36049,37.67628],[-120.36035,37.67594],[-120.36031,37.67587],[-120.36013,37.67567]]}},{"type":"Feature","properties":{"name":"(unnamed public road)","road_class":"track","source":"OpenStreetMap","source_detail":"osm way 10682802","source_tile":"169/396","surface_inferred":true},"geometry":{"type":"LineString","coordinates":[[-120.44038,37.71078],[-120.44003,37.71089],[-120.43996,37.71094],[-120.43994,37.71096],[-120.43985,37.71116],[-120.43976,37.71142],[-120.43975,37.71153],[-120.43977,37.7116],[-120.43982,37.71173],[-120.43988,37.71181],[-120.43992,37.71194],[-120.43991,37.71199],[-120.43988,37.71206],[-120.43985,37.7121],[-120.43967,37.71225],[-120.43953,37.7124],[-120.43939,37.71251],[-120.4391,37.71266],[-120.43904,37.71273],[-120.43899,37.71281],[-120.43892,37.71294],[-120.43887,37.71299],[-120.43879,37.71303],[-120.43863,37.71306],[-120.43857,37.71311],[-120.43829,37.71343],[-120.438,37.71391],[-120.43795,37.71414],[-120.43801,37.71448],[-120.43825,37.71523],[-120.43824,37.71546],[-120.43823,37.716],[-120.43828,37.71647],[-120.43826,37.71681],[-120.4382,37.71711],[-120.43816,37.71731]]}},{"type":"Feature","properties":{"name":"(unnamed public road)","road_class":"track","source":"OpenStreetMap","source_detail":"osm way 10683132","source_tile":"169/396","surface_inferred":true},"geometry":{"type":"LineString","coordinates":[[-120.43464,37.71574],[-120.43454,37.71555],[-120.43441,37.71528]]}},{"type":"Feature","properties":{"name":"(unnamed public road)","road_class":"track","source":"OpenStreetMap","source_detail":"osm way 10684000","source_tile":"169/396","surface_inferred":true},"geometry":{"type":"LineString","coordinates":[[-120.38089,37.68236],[-120.38081,37.6823],[-120.38057,37.68209],[-120.3805,37.68203],[-120.38028,37.68191],[-120.37969,37.68148],[-120.3795,37.68132],[-120.37942,37.68126],[-120.37924,37.6811]]}},{"type":"Feature","properties":{"name":"(unnamed public road)","road_class":"track","source":"OpenStreetMap","source_detail":"osm way 10685182","source_tile":"169/396","surface_inferred":true},"geometry":{"type":"LineString","coordinates":[[-120.42743,37.67598],[-120.42748,37.67604],[-120.42741,37.67616],[-120.42738,37.67624],[-120.4274,37.67631],[-120.4274,37.67639],[-120.42737,37.67644],[-120.42731,37.67645],[-120.42725,37.67642],[-120.42722,37.67637],[-120.4272,37.67632],[-120.42723,37.67613],[-120.42724,37.67606],[-120.42728,37.676],[-120.42735,37.67597],[-120.42743,37.67598]]}},{"type":"Feature","properties":{"name":"(unnamed public road)","road_class":"track","source":"OpenStreetMap","source_detail":"osm way 10685190","source_tile":"169/396","surface_inferred":true},"geometry":{"type":"LineString","coordinates":[[-120.38089,37.68236],[-120.38026,37.68219],[-120.37989,37.68207],[-120.37982,37.68205],[-120.37908,37.68203],[-120.37889,37.68204],[-120.37851,37.68212],[-120.37807,37.68225],[-120.37796,37.68227],[-120.37747,37.68227],[-120.37706,37.68226],[-120.37693,37.68228],[-120.37678,37.68234],[-120.3767,37.68238],[-120.37645,37.68263],[-120.37641,37.68268],[-120.37638,37.68284],[-120.37638,37.68299],[-120.37645,37.68323],[-120.37645,37.68332],[-120.37642,37.6834],[-120.37636,37.6835],[-120.3763,37.68354],[-120.37611,37.68362],[-120.37603,37.68367],[-120.37584,37.68384],[-120.37571,37.68395],[-120.37557,37.68413],[-120.37543,37.68436],[-120.37538,37.68441],[-120.37515,37.68455],[-120.37505,37.68465],[-120.37496,37.68482],[-120.37492,37.68491],[-120.37485,37.68495],[-120.37463,37.68506],[-120.37449,37.68516],[-120.37439,37.68527],[-120.37434,37.68536],[-120.37432,37.68545],[-120.37436,37.6856],[-120.37435,37.68565],[-120.37432,37.68569],[-120.37426,37.68571],[-120.37365,37.68576],[-120.37334,37.68577],[-120.3732,37.6858],[-120.37309,37.68585],[-120.37302,37.68588],[-120.37291,37.68597],[-120.37281,37.68606]]}},{"type":"Feature","properties":{"name":"(unnamed public road)","road_class":"track","source":"OpenStreetMap","source_detail":"osm way 10685325","source_tile":"169/396","surface_inferred":true},"geometry":{"type":"LineString","coordinates":[[-120.3836,37.68328],[-120.38347,37.68326],[-120.38328,37.68319],[-120.38305,37.68313],[-120.38293,37.68311],[-120.38256,37.68307],[-120.38237,37.68303],[-120.38228,37.683],[-120.38221,37.68297]]}},{"type":"Feature","properties":{"name":"Penole Peak Road","road_class":"track","source":"OpenStreetMap","source_detail":"osm way 10685330","source_tile":"169/396","surface_inferred":true},"geometry":{"type":"LineString","coordinates":[[-120.36274,37.68306],[-120.36268,37.68312],[-120.36266,37.68317],[-120.36263,37.68329],[-120.36254,37.68351],[-120.36253,37.68357],[-120.36252,37.6837],[-120.36251,37.68383],[-120.3625,37.68393],[-120.36246,37.68414],[-120.36245,37.68421],[-120.36246,37.68432],[-120.36247,37.68448],[-120.36254,37.68484],[-120.36255,37.68495],[-120.36254,37.68515],[-120.3625,37.68559],[-120.36252,37.68599],[-120.36247,37.6863],[-120.36244,37.6866],[-120.36244,37.68665],[-120.36246,37.68673],[-120.36246,37.68678],[-120.36243,37.68683],[-120.36236,37.68694],[-120.36231,37.68704],[-120.36229,37.68714],[-120.36226,37.68719],[-120.36221,37.68725],[-120.36213,37.68732],[-120.36203,37.68737],[-120.36179,37.68747],[-120.36169,37.68752],[-120.36165,37.68754],[-120.36162,37.68759],[-120.36161,37.68765],[-120.36161,37.68785],[-120.3616,37.68801],[-120.3616,37.68819],[-120.36159,37.68825],[-120.36153,37.68837],[-120.36152,37.68842],[-120.36152,37.68848],[-120.3617,37.68891],[-120.36171,37.68899],[-120.3617,37.68905],[-120.36167,37.6891],[-120.36163,37.68917],[-120.36154,37.68926],[-120.36146,37.68932],[-120.36129,37.68943],[-120.36121,37.6895],[-120.36116,37.68957],[-120.36101,37.68984],[-120.36098,37.6899],[-120.36092,37.69013],[-120.36089,37.69019],[-120.36085,37.69025],[-120.36075,37.69037],[-120.36067,37.69047],[-120.36028,37.69084],[-120.36022,37.69088],[-120.36016,37.6909],[-120.36009,37.69092],[-120.36003,37.69094],[-120.35998,37.69097],[-120.35983,37.69109],[-120.35969,37.69117],[-120.35914,37.69155],[-120.35899,37.69171],[-120.35892,37.69177],[-120.35885,37.69181],[-120.35858,37.69193],[-120.35849,37.69196],[-120.3584,37.69197],[-120.3583,37.69198],[-120.35817,37.69199],[-120.35801,37.69197],[-120.35793,37.69197]]}},{"type":"Feature","properties":{"name":"(unnamed public road)","road_class":"track","source":"OpenStreetMap","source_detail":"osm way 10685750","source_tile":"169/396","surface_inferred":true},"geometry":{"type":"LineString","coordinates":[[-120.40476,37.68034],[-120.40478,37.68064],[-120.40474,37.68088],[-120.40468,37.68101],[-120.40461,37.68114],[-120.4046,37.68127],[-120.40462,37.68142],[-120.40469,37.68167],[-120.40471,37.68177],[-120.40475,37.68203],[-120.40483,37.68232],[-120.40494,37.68258],[-120.40515,37.68291],[-120.40549,37.6833],[-120.40564,37.68352],[-120.4059,37.68386],[-120.40615,37.68412],[-120.40631,37.68424],[-120.40643,37.68431],[-120.40648,37.68433],[-120.40659,37.68436],[-120.40674,37.68438],[-120.40702,37.68437],[-120.40721,37.68437],[-120.40756,37.6844],[-120.40765,37.6844],[-120.40794,37.68435],[-120.40812,37.68435],[-120.40836,37.68436],[-120.40858,37.6844],[-120.40886,37.6845],[-120.40902,37.6846],[-120.40935,37.68484],[-120.40948,37.68491],[-120.40954,37.68493],[-120.40966,37.68493],[-120.40977,37.6849],[-120.40995,37.68484],[-120.41019,37.6848],[-120.41054,37.68477],[-120.41073,37.68478],[-120.41131,37.68489],[-120.41146,37.68491],[-120.41161,37.68491],[-120.41178,37.6849],[-120.41189,37.68491],[-120.41195,37.68492],[-120.41205,37.68498],[-120.41236,37.68523],[-120.41263,37.68539],[-120.41269,37.68542],[-120.41283,37.68545],[-120.41336,37.68554],[-120.4135,37.68558],[-120.41356,37.68561],[-120.41364,37.68567],[-120.41373,37.68569],[-120.41387,37.6857],[-120.41396,37.68576],[-120.41405,37.68582],[-120.41417,37.68595],[-120.41426,37.68598],[-120.41431,37.68599],[-120.41445,37.68598],[-120.41456,37.686],[-120.41462,37.68603],[-120.41469,37.68609],[-120.41475,37.6862],[-120.4148,37.68623],[-120.41505,37.68626],[-120.41524,37.68632],[-120.41547,37.68648],[-120.41586,37.68672],[-120.41638,37.68695],[-120.41645,37.68697],[-120.41652,37.68696],[-120.41656,37.68692],[-120.4167,37.68664],[-120.41683,37.68644],[-120.41685,37.68638],[-120.41686,37.6863],[-120.41683,37.68623],[-120.4168,37.68619],[-120.41663,37.686],[-120.41662,37.68594],[-120.41665,37.68588],[-120.4167,37.68585],[-120.41681,37.6858],[-120.41689,37.68574],[-120.41701,37.68564],[-120.41739,37.68538],[-120.41764,37.68508],[-120.41777,37.68499],[-120.41794,37.68491],[-120.41826,37.68479],[-120.41892,37.68452],[-120.419,37.6845],[-120.41916,37.68447],[-120.41943,37.68447],[-120.41969,37.68445],[-120.41975,37.68444],[-120.4198,37.68442],[-120.41995,37.68428],[-120.42007,37.6842],[-120.42018,37.68409],[-120.42035,37.68388],[-120.42052,37.68364],[-120.42057,37.68358],[-120.42099,37.68323]]}},{"type":"Feature","properties":{"name":"(unnamed public road)","road_class":"track","source":"OpenStreetMap","source_detail":"osm way 10685772","source_tile":"169/396","surface_inferred":true},"geometry":{"type":"LineString","coordinates":[[-120.36426,37.68031],[-120.36438,37.68007]]}},{"type":"Feature","properties":{"name":"(unnamed public road)","road_class":"track","source":"OpenStreetMap","source_detail":"osm way 10686366","source_tile":"169/396","surface_inferred":true},"geometry":{"type":"LineString","coordinates":[[-120.43756,37.6712],[-120.43756,37.67124],[-120.43759,37.67131],[-120.43776,37.67166],[-120.43777,37.67171],[-120.43777,37.67174],[-120.43772,37.67177],[-120.43761,37.6718],[-120.4375,37.67181],[-120.43737,37.67188],[-120.43709,37.67206],[-120.43699,37.67215],[-120.43678,37.6724],[-120.43665,37.67251],[-120.43647,37.67262],[-120.43633,37.67267],[-120.43604,37.67271],[-120.43571,37.67276],[-120.43538,37.67276],[-120.43519,37.67278],[-120.43509,37.67279],[-120.43495,37.67274],[-120.43485,37.67272],[-120.43476,37.67272],[-120.43435,37.67279],[-120.43424,37.6728],[-120.43411,37.67279],[-120.43366,37.67269],[-120.4332,37.67265],[-120.43308,37.67261],[-120.4328,37.67246],[-120.43265,37.6724],[-120.4323,37.67231],[-120.43215,37.67225],[-120.43211,37.67223],[-120.43188,37.67221],[-120.43173,37.67221],[-120.4316,37.67222],[-120.43143,37.67229],[-120.43139,37.67232],[-120.43124,37.67244],[-120.43113,37.67247],[-120.43073,37.67254],[-120.43065,37.67254],[-120.43052,37.67252],[-120.43036,37.6725],[-120.43024,37.67251],[-120.43019,37.67254],[-120.43012,37.6726],[-120.43002,37.6728],[-120.42995,37.67288],[-120.42981,37.67297],[-120.42963,37.6731],[-120.42924,37.67353],[-120.4292,37.67368]]}},{"type":"Feature","properties":{"name":"(unnamed public road)","road_class":"track","source":"OpenStreetMap","source_detail":"osm way 10686792","source_tile":"169/396","surface_inferred":true},"geometry":{"type":"LineString","coordinates":[[-120.42944,37.66515],[-120.42926,37.66533],[-120.4291,37.66545],[-120.42889,37.66556],[-120.42875,37.66561],[-120.4286,37.66562],[-120.42776,37.66561],[-120.42768,37.66561],[-120.42758,37.66566],[-120.42732,37.66582],[-120.42723,37.66586],[-120.42709,37.6659],[-120.4267,37.66606],[-120.42663,37.66611],[-120.42652,37.66622],[-120.42647,37.66631],[-120.42646,37.66642],[-120.42649,37.66648],[-120.42673,37.66686],[-120.42681,37.66696],[-120.42725,37.66738],[-120.42748,37.66758],[-120.42771,37.66776],[-120.42788,37.6679],[-120.4281,37.66813],[-120.42837,37.66853],[-120.42852,37.66881],[-120.42882,37.66967],[-120.4289,37.66981],[-120.42905,37.66999],[-120.4292,37.67014],[-120.42952,37.67038],[-120.4296,37.67046],[-120.42973,37.67059],[-120.42986,37.6708],[-120.43,37.67094],[-120.43063,37.67139],[-120.43083,37.67153],[-120.4316,37.67193],[-120.43211,37.67223]]}},{"type":"Feature","properties":{"name":"(unnamed public road)","road_class":"track","source":"OpenStreetMap","source_detail":"osm way 10689882","source_tile":"169/396","surface_inferred":true},"geometry":{"type":"LineString","coordinates":[[-120.41937,37.67233],[-120.4194,37.67238],[-120.41945,37.6725],[-120.41944,37.67263],[-120.4194,37.67275],[-120.41931,37.67286],[-120.41921,37.67295],[-120.41908,37.67303],[-120.41899,37.67313],[-120.41897,37.67318],[-120.41895,37.67327],[-120.41898,37.67336],[-120.41901,37.67341],[-120.41902,37.67343],[-120.41913,37.67353],[-120.41936,37.67366],[-120.41947,37.67375],[-120.4196,37.67389],[-120.4199,37.67434],[-120.42003,37.67457],[-120.42012,37.67476],[-120.42015,37.67489],[-120.42016,37.675],[-120.42018,37.67505],[-120.42024,37.67515],[-120.4204,37.67532],[-120.42062,37.67558],[-120.42071,37.6757],[-120.42083,37.67589],[-120.42095,37.67617],[-120.42101,37.67634],[-120.42101,37.67648],[-120.42099,37.67658],[-120.42089,37.67673],[-120.42076,37.67696],[-120.42074,37.67708],[-120.42075,37.67722],[-120.42081,37.67735],[-120.42089,37.67745],[-120.42101,37.67752],[-120.42114,37.67757],[-120.4214,37.67762],[-120.4215,37.67765],[-120.42163,37.67771],[-120.42168,37.67776],[-120.42177,37.67788],[-120.42195,37.67804],[-120.42199,37.67813],[-120.42216,37.67881],[-120.42225,37.67904],[-120.42239,37.67935],[-120.4224,37.67941],[-120.42239,37.67947],[-120.42236,37.6795],[-120.42229,37.67957],[-120.42219,37.67961],[-120.42213,37.67965],[-120.4221,37.67973],[-120.4221,37.67983],[-120.42212,37.67995],[-120.42223,37.68024],[-120.42224,37.68033],[-120.42222,37.68043],[-120.42217,37.68057],[-120.42208,37.68098],[-120.42202,37.68112],[-120.42176,37.68158],[-120.42172,37.68167],[-120.42169,37.68173],[-120.42168,37.68183],[-120.4217,37.68192],[-120.42176,37.68206],[-120.42178,37.68212],[-120.42177,37.68218],[-120.42174,37.68225],[-120.4217,37.68231],[-120.42157,37.68243],[-120.42145,37.68257],[-120.42137,37.6827],[-120.42131,37.68286],[-120.4212,37.68304],[-120.42112,37.68312],[-120.42099,37.68323],[-120.42083,37.68318],[-120.42054,37.68308],[-120.42048,37.68304],[-120.42037,37.68284],[-120.42035,37.68279],[-120.4203,37.68249],[-120.42027,37.68238],[-120.42016,37.68215],[-120.42001,37.68194],[-120.41992,37.68179],[-120.41982,37.68168],[-120.41968,37.6816],[-120.4196,37.68157],[-120.41947,37.68155],[-120.41905,37.68153],[-120.4188,37.68156],[-120.41862,37.68155],[-120.41805,37.68145],[-120.41779,37.68141],[-120.41763,37.68138],[-120.41751,37.68133],[-120.41732,37.68118],[-120.41719,37.68106],[-120.41714,37.68104],[-120.41694,37.68102],[-120.41663,37.68103],[-120.41658,37.68102],[-120.4164,37.68097],[-120.41629,37.68095],[-120.41557,37.68092],[-120.41549,37.68091],[-120.41543,37.68085],[-120.4154,37.68027],[-120.41535,37.6801],[-120.41522,37.67978],[-120.41515,37.67968],[-120.41505,37.67948],[-120.41494,37.67933],[-120.41477,37.67917],[-120.4146,37.67905],[-120.41444,37.67896],[-120.41423,37.67888],[-120.41379,37.67859],[-120.41369,37.6785],[-120.41358,37.6783],[-120.41345,37.67813],[-120.41325,37.67791],[-120.41288,37.6776],[-120.41284,37.67761],[-120.41267,37.67762],[-120.41226,37.67761],[-120.4121,37.67763],[-120.41196,37.67768],[-120.41171,37.67778],[-120.41143,37.67786],[-120.41118,37.6779],[-120.41098,37.67791],[-120.41075,37.67789],[-120.4106,37.67784],[-120.41044,37.67777],[-120.41017,37.67762],[-120.40991,37.67748],[-120.40979,37.67744],[-120.40971,37.67742],[-120.40963,37.67742],[-120.40949,37.67744],[-120.40938,37.6775],[-120.40933,37.67753],[-120.40923,37.67763],[-120.40916,37.67775],[-120.40914,37.67781],[-120.40913,37.67793],[-120.40917,37.67815],[-120.40927,37.67847],[-120.40941,37.67892],[-120.40943,37.679],[-120.40943,37.67915],[-120.4094,37.67929],[-120.4093,37.67947],[-120.40919,37.67958],[-120.409,37.6797],[-120.40873,37.67987],[-120.40869,37.67989],[-120.40863,37.67995],[-120.40855,37.67998],[-120.40822,37.68003],[-120.4079,37.68014],[-120.40739,37.68019],[-120.40711,37.68024],[-120.40661,37.68027],[-120.40644,37.6803],[-120.40608,37.6804],[-120.406,37.68041],[-120.40593,37.68041],[-120.40576,37.68037],[-120.40546,37.68026],[-120.40525,37.68022],[-120.40516,37.68021],[-120.40507,37.68023],[-120.40499,37.68025],[-120.40476,37.68034],[-120.40462,37.68037],[-120.40443,37.6804],[-120.40404,37.68052],[-120.40373,37.68057],[-120.40367,37.68059],[-120.40361,37.68062],[-120.4034,37.68079],[-120.40304,37.68101],[-120.40298,37.68104],[-120.40284,37.68107],[-120.40272,37.68109],[-120.40258,37.68113],[-120.40243,37.68118],[-120.40226,37.68129],[-120.40219,37.68131],[-120.40163,37.68133],[-120.40141,37.68132],[-120.40076,37.68124],[-120.40057,37.68123],[-120.4004,37.68119],[-120.40003,37.68108],[-120.39986,37.68104],[-120.39963,37.68101],[-120.39883,37.68101],[-120.39868,37.68099],[-120.39826,37.6809],[-120.39818,37.68089],[-120.39766,37.68094],[-120.39741,37.68095],[-120.39713,37.68094],[-120.39693,37.68089],[-120.39653,37.68075],[-120.39637,37.68071],[-120.39628,37.6807],[-120.39592,37.68067],[-120.39558,37.68066],[-120.39534,37.68069],[-120.39499,37.68065],[-120.39488,37.68066],[-120.39477,37.68069],[-120.39451,37.68077],[-120.39417,37.68085],[-120.39394,37.68089],[-120.39382,37.6809],[-120.39365,37.68089],[-120.3935,37.68085],[-120.3931,37.6807],[-120.39303,37.68068],[-120.39285,37.68067],[-120.39264,37.68071],[-120.39243,37.68075],[-120.39199,37.68082],[-120.39191,37.68082]]}},{"type":"Feature","properties":{"name":"(unnamed public road)","road_class":"track","source":"OpenStreetMap","source_detail":"osm way 10690108","source_tile":"169/396","surface_inferred":true},"geometry":{"type":"LineString","coordinates":[[-120.35527,37.68922],[-120.35522,37.6892],[-120.35502,37.68907],[-120.35492,37.68899],[-120.35484,37.68883],[-120.35481,37.68872],[-120.3548,37.68848],[-120.35478,37.6884],[-120.35472,37.68825],[-120.35472,37.68814],[-120.35475,37.68805],[-120.35479,37.68799],[-120.35486,37.68793],[-120.35503,37.68785],[-120.35505,37.68781],[-120.35504,37.6878],[-120.35498,37.68778],[-120.3547,37.68775],[-120.3545,37.68771],[-120.35444,37.68771],[-120.35411,37.68773],[-120.35402,37.68772],[-120.35392,37.68767],[-120.35385,37.68762],[-120.35369,37.68744],[-120.35367,37.68734],[-120.3537,37.68714],[-120.35373,37.68705],[-120.35378,37.687],[-120.35382,37.68697],[-120.35392,37.68694],[-120.35426,37.68685],[-120.35437,37.68684],[-120.35462,37.68684],[-120.35471,37.68686],[-120.35486,37.68692],[-120.35506,37.68704],[-120.35513,37.68706],[-120.35539,37.68709],[-120.35573,37.68718],[-120.35618,37.68723],[-120.35646,37.68731],[-120.35655,37.68731],[-120.35663,37.6873],[-120.35683,37.68724],[-120.35695,37.68723],[-120.35734,37.68722],[-120.3575,37.68725],[-120.35763,37.6873],[-120.35803,37.6875],[-120.35828,37.6876],[-120.35855,37.68767],[-120.35873,37.6877],[-120.35883,37.68774],[-120.35892,37.68779],[-120.35912,37.68798],[-120.35932,37.68823],[-120.3594,37.68829],[-120.35955,37.68838],[-120.35963,37.68841],[-120.35975,37.68844],[-120.3599,37.68845],[-120.36039,37.68845],[-120.36078,37.68843],[-120.36097,37.6884],[-120.3616,37.68801]]}},{"type":"Feature","properties":{"name":"(unnamed public road)","road_class":"track","source":"OpenStreetMap","source_detail":"osm way 10690790","source_tile":"169/396","surface_inferred":true},"geometry":{"type":"LineString","coordinates":[[-120.38649,37.69948],[-120.38654,37.69941],[-120.3866,37.69932],[-120.38668,37.69922],[-120.38675,37.69914],[-120.3869,37.69899],[-120.38696,37.69894],[-120.38702,37.69884],[-120.38705,37.69878],[-120.3871,37.69864],[-120.38728,37.69811],[-120.38742,37.69784],[-120.38759,37.69744],[-120.38765,37.69737],[-120.3879,37.69714],[-120.38795,37.69711],[-120.38803,37.69708],[-120.38823,37.69705],[-120.38833,37.69703],[-120.38841,37.69701],[-120.38868,37.69693],[-120.38893,37.69687],[-120.389,37.69685],[-120.38908,37.69681]]}},{"type":"Feature","properties":{"name":"(unnamed public road)","road_class":"track","source":"OpenStreetMap","source_detail":"osm way 10691183","source_tile":"169/396","surface_inferred":true},"geometry":{"type":"LineString","coordinates":[[-120.39814,37.70694],[-120.39802,37.70676],[-120.39798,37.70665],[-120.39792,37.70636],[-120.39789,37.70614],[-120.39786,37.70605],[-120.39777,37.70596],[-120.39748,37.70573],[-120.39638,37.70499],[-120.39616,37.70482],[-120.396,37.70467],[-120.3958,37.70438],[-120.39572,37.70431],[-120.39512,37.70384],[-120.3947,37.70352],[-120.3946,37.70341],[-120.39431,37.70296],[-120.39413,37.70264],[-120.39403,37.70251],[-120.39377,37.70226],[-120.39327,37.70175],[-120.39283,37.70135],[-120.39277,37.7008]]}},{"type":"Feature","properties":{"name":"(unnamed public road)","road_class":"track","source":"OpenStreetMap","source_detail":"osm way 10692454","source_tile":"169/396","surface_inferred":true},"geometry":{"type":"LineString","coordinates":[[-120.42076,37.66932],[-120.42098,37.66919],[-120.42195,37.6686],[-120.42207,37.66851],[-120.42218,37.6684],[-120.42231,37.66819],[-120.42242,37.66807],[-120.42325,37.66752],[-120.42345,37.66736],[-120.42387,37.66696],[-120.4239,37.66689],[-120.42392,37.66681],[-120.42395,37.66676],[-120.42432,37.66631],[-120.4244,37.66623],[-120.4245,37.66618],[-120.42476,37.6661],[-120.42499,37.66601],[-120.42513,37.66597],[-120.42539,37.66593],[-120.42551,37.66593],[-120.42612,37.66596],[-120.42631,37.66596],[-120.42709,37.6659]]}},{"type":"Feature","properties":{"name":"(unnamed public road)","road_class":"track","source":"OpenStreetMap","source_detail":"osm way 10692598","source_tile":"169/396","surface_inferred":true},"geometry":{"type":"LineString","coordinates":[[-120.39281,37.67983],[-120.39275,37.68004],[-120.39275,37.68013],[-120.39279,37.68023],[-120.39295,37.68042],[-120.3931,37.6807]]}},{"type":"Feature","properties":{"name":"(unnamed public road)","road_class":"track","source":"OpenStreetMap","source_detail":"osm way 10693642","source_tile":"169/396","surface_inferred":true},"geometry":{"type":"LineString","coordinates":[[-120.41166,37.69719],[-120.41187,37.69703],[-120.41192,37.69696],[-120.41195,37.69688],[-120.41196,37.69679],[-120.41194,37.69666],[-120.41187,37.69636],[-120.41186,37.69623],[-120.41187,37.69614],[-120.4119,37.69605],[-120.41194,37.69597],[-120.41208,37.69582],[-120.41215,37.69571],[-120.41221,37.69559],[-120.41229,37.69541],[-120.41233,37.69533],[-120.4124,37.69524],[-120.41254,37.69511],[-120.41292,37.69472],[-120.41321,37.69447],[-120.41333,37.69441],[-120.41343,37.69436],[-120.41354,37.69435],[-120.4137,37.69436],[-120.41477,37.69453]]}},{"type":"Feature","properties":{"name":"(unnamed public road)","road_class":"track","source":"OpenStreetMap","source_detail":"osm way 10693977","source_tile":"169/396","surface_inferred":true},"geometry":{"type":"LineString","coordinates":[[-120.38013,37.69022],[-120.38008,37.69027],[-120.38005,37.69033],[-120.38008,37.69065],[-120.38011,37.69071],[-120.38014,37.69076],[-120.38019,37.6908],[-120.38026,37.69084],[-120.38038,37.69089],[-120.38071,37.691],[-120.3808,37.69104],[-120.38088,37.69109],[-120.38096,37.69116],[-120.38104,37.69126],[-120.38117,37.69142],[-120.38125,37.69154],[-120.3813,37.69165],[-120.38135,37.69177],[-120.38141,37.692],[-120.38144,37.69207],[-120.38149,37.69216],[-120.38168,37.69238],[-120.38189,37.69263],[-120.38214,37.69291],[-120.38221,37.69298],[-120.38229,37.69304],[-120.38286,37.6934],[-120.38293,37.69348],[-120.38296,37.69354],[-120.38319,37.69429],[-120.38325,37.69443],[-120.3833,37.69451],[-120.38335,37.69459],[-120.38343,37.69467],[-120.38354,37.69476],[-120.38363,37.69482],[-120.3839,37.69499],[-120.384,37.69507],[-120.38408,37.69515],[-120.38417,37.69526],[-120.38435,37.69557],[-120.38437,37.69563],[-120.38446,37.69587],[-120.38451,37.69596],[-120.38456,37.69605],[-120.38463,37.69612],[-120.38471,37.69619],[-120.38502,37.69638],[-120.38523,37.69656],[-120.38532,37.69662],[-120.38546,37.69669],[-120.38686,37.69719],[-120.38708,37.69728],[-120.38721,37.69733],[-120.38759,37.69744],[-120.38778,37.69749],[-120.38795,37.6975],[-120.38825,37.6975],[-120.38843,37.69752],[-120.38861,37.69757],[-120.38885,37.69767],[-120.38905,37.69778],[-120.38921,37.6979],[-120.38962,37.69833],[-120.39002,37.69884],[-120.39043,37.69941],[-120.39056,37.69956],[-120.39065,37.69962],[-120.39088,37.69972],[-120.39109,37.69981],[-120.39137,37.7],[-120.39164,37.70021],[-120.39189,37.70043],[-120.39216,37.70062],[-120.3924,37.70087],[-120.3927,37.70121],[-120.39283,37.70135]]}},{"type":"Feature","properties":{"name":"(unnamed public road)","road_class":"track","source":"OpenStreetMap","source_detail":"osm way 10694201","source_tile":"169/396","surface_inferred":true},"geometry":{"type":"LineString","coordinates":[[-120.36681,37.68178],[-120.36661,37.68192],[-120.36656,37.68194],[-120.3665,37.68193],[-120.36645,37.68191],[-120.36634,37.68181],[-120.36621,37.68168],[-120.36614,37.68162],[-120.36604,37.68156],[-120.36595,37.68152],[-120.36572,37.68146],[-120.36548,37.68136],[-120.36535,37.68133],[-120.36524,37.68131],[-120.36514,37.68131],[-120.36488,37.68131],[-120.36464,37.68133],[-120.36444,37.68135],[-120.36413,37.6814],[-120.36399,37.68143],[-120.36392,37.68145],[-120.36383,37.6815],[-120.36374,37.68155],[-120.36365,37.68163],[-120.3635,37.68175],[-120.36339,37.68184],[-120.36331,37.68188],[-120.36322,37.68192],[-120.36311,37.68197],[-120.36299,37.68201],[-120.36269,37.6821],[-120.36256,37.68214],[-120.36243,37.68217],[-120.3623,37.6822],[-120.36215,37.68222],[-120.36201,37.68224],[-120.36124,37.68234],[-120.36117,37.68234],[-120.36111,37.68234],[-120.36106,37.68234],[-120.36101,37.68233],[-120.36081,37.68226]]}},{"type":"Feature","properties":{"name":"Jalapa Way","road_class":"track","source":"OpenStreetMap","source_detail":"osm way 10697859","source_tile":"169/396","surface_inferred":true},"geometry":{"type":"LineString","coordinates":[[-120.36647,37.68118],[-120.36655,37.68119],[-120.36661,37.68118],[-120.36667,37.68117],[-120.36688,37.681],[-120.36696,37.68095],[-120.36707,37.68089],[-120.36728,37.68079],[-120.36743,37.68073],[-120.36771,37.68065],[-120.36795,37.68059],[-120.36815,37.68054],[-120.36845,37.68048],[-120.36867,37.68042]]}},{"type":"Feature","properties":{"name":"Enebro Way","road_class":"track","source":"OpenStreetMap","source_detail":"osm way 10700256","source_tile":"169/396","surface_inferred":true},"geometry":{"type":"LineString","coordinates":[[-120.34552,37.69703],[-120.34545,37.697],[-120.34532,37.69699],[-120.34508,37.69699],[-120.34438,37.69706],[-120.34421,37.6971],[-120.34378,37.69714],[-120.34364,37.69718],[-120.34324,37.69736],[-120.34306,37.69741],[-120.34295,37.69741],[-120.3428,37.6974],[-120.34274,37.69741],[-120.34251,37.69755],[-120.34234,37.69762],[-120.34202,37.69766],[-120.34179,37.69772],[-120.34172,37.69775],[-120.34161,37.69782],[-120.34144,37.69799],[-120.34134,37.69805],[-120.34122,37.69811],[-120.34108,37.69822],[-120.34088,37.69838],[-120.34083,37.69843],[-120.34077,37.69855],[-120.3407,37.69869],[-120.34065,37.69875],[-120.34046,37.69891],[-120.34033,37.69904],[-120.34015,37.69921],[-120.34007,37.69927],[-120.34005,37.69932],[-120.34005,37.69964],[-120.34004,37.69976],[-120.34001,37.69996],[-120.33996,37.70014],[-120.33983,37.70046]]}},{"type":"Feature","properties":{"name":"Banderita Way","road_class":"track","source":"OpenStreetMap","source_detail":"osm way 10701678","source_tile":"169/396","surface_inferred":true},"geometry":{"type":"LineString","coordinates":[[-120.37181,37.68535],[-120.37183,37.68536],[-120.37186,37.68519],[-120.37179,37.68485],[-120.37177,37.6848],[-120.37174,37.68475],[-120.37095,37.68391],[-120.37051,37.68346],[-120.3703,37.68324],[-120.37017,37.68311],[-120.37006,37.68302],[-120.36982,37.68288],[-120.3697,37.6828],[-120.36939,37.68264],[-120.369,37.68247],[-120.36867,37.68233],[-120.3681,37.68212],[-120.36784,37.68202],[-120.36757,37.6819],[-120.36731,37.68176],[-120.36716,37.68168],[-120.36696,37.68154],[-120.3667,37.68135],[-120.36647,37.68118],[-120.36606,37.68093],[-120.3656,37.68062],[-120.36526,37.68042],[-120.36517,37.68037],[-120.36502,37.68031],[-120.36438,37.68007],[-120.36413,37.67997],[-120.36391,37.67988],[-120.36379,37.67981],[-120.36369,37.67974],[-120.36357,37.67964]]}},{"type":"Feature","properties":{"name":"(unnamed public road)","road_class":"track","surface":"ground","tracktype":"grade2","source":"OpenStreetMap","source_detail":"osm way 217504272","source_tile":"169/396"},"geometry":{"type":"LineString","coordinates":[[-120.45983,37.66165],[-120.45989,37.66138],[-120.4599,37.66132],[-120.45988,37.66129],[-120.45983,37.66127],[-120.45979,37.66126],[-120.45963,37.66124]]}},{"type":"Feature","properties":{"name":"Granite Springs Road","road_class":"track","source":"OpenStreetMap","source_detail":"osm way 370555729","source_tile":"169/396","surface_inferred":true},"geometry":{"type":"LineString","coordinates":[[-120.28975,37.70116],[-120.28929,37.70098],[-120.28878,37.70076],[-120.28796,37.70035],[-120.28744,37.70011],[-120.28733,37.70008],[-120.28684,37.70002],[-120.28641,37.69995],[-120.28621,37.69986],[-120.28608,37.69984],[-120.28596,37.69983],[-120.28563,37.69978],[-120.28552,37.69975],[-120.28539,37.69967]]}},{"type":"Feature","properties":{"name":"Penole Peak Road","road_class":"track","source":"OpenStreetMap","source_detail":"osm way 437386233","source_tile":"169/396","surface_inferred":true},"geometry":{"type":"LineString","coordinates":[[-120.36067,37.69047],[-120.36072,37.69057],[-120.36079,37.69069],[-120.36084,37.69085],[-120.36099,37.69117],[-120.36104,37.69124],[-120.36112,37.69134],[-120.36116,37.69142],[-120.36122,37.69156],[-120.36132,37.69195],[-120.36135,37.69201],[-120.36143,37.69214]]}},{"type":"Feature","properties":{"name":"Penole Peak Road","road_class":"track","source":"OpenStreetMap","source_detail":"osm way 437386234","source_tile":"169/396","surface_inferred":true},"geometry":{"type":"LineString","coordinates":[[-120.36239,37.67955],[-120.36231,37.67964],[-120.36237,37.6798],[-120.36251,37.67991],[-120.36264,37.68005],[-120.3628,37.68024],[-120.36286,37.68034],[-120.36292,37.68045],[-120.36305,37.68087],[-120.36315,37.68109],[-120.36329,37.68129],[-120.36339,37.68184]]}},{"type":"Feature","properties":{"name":"Penole Peak Road","road_class":"track","source":"OpenStreetMap","source_detail":"osm way 437386235","source_tile":"169/396","surface_inferred":true},"geometry":{"type":"LineString","coordinates":[[-120.3635,37.68175],[-120.36346,37.68181],[-120.36342,37.6819],[-120.36338,37.68201],[-120.3633,37.68236],[-120.36325,37.68248],[-120.3631,37.68281],[-120.36305,37.68289],[-120.36299,37.68294],[-120.36293,37.68298],[-120.36284,37.68302],[-120.36274,37.68306],[-120.36256,37.68312],[-120.36232,37.68323],[-120.36208,37.68332],[-120.36194,37.68336],[-120.36215,37.68344],[-120.36226,37.68349],[-120.36236,37.68354],[-120.36241,37.68358],[-120.36248,37.68364],[-120.36252,37.6837]]}},{"type":"Feature","properties":{"name":"(unnamed public road)","road_class":"track","source":"OpenStreetMap","source_detail":"osm way 437386236","source_tile":"169/396","surface_inferred":true},"geometry":{"type":"LineString","coordinates":[[-120.36946,37.66855],[-120.36924,37.66853],[-120.36912,37.66854],[-120.36871,37.66863],[-120.36817,37.6688],[-120.3679,37.66889],[-120.36768,37.66901],[-120.36754,37.66912],[-120.36742,37.66925],[-120.36737,37.66933],[-120.36733,37.6694]]}},{"type":"Feature","properties":{"name":"(unnamed public road)","road_class":"track","source":"OpenStreetMap","source_detail":"osm way 437386239","source_tile":"169/396","surface_inferred":true},"geometry":{"type":"LineString","coordinates":[[-120.36392,37.68145],[-120.36369,37.68146],[-120.36354,37.68143],[-120.36338,37.68136],[-120.36329,37.68129]]}},{"type":"Feature","properties":{"name":"(unnamed public road)","road_class":"track","source":"OpenStreetMap","source_detail":"osm way 451490059","source_tile":"169/396","surface_inferred":true},"geometry":{"type":"LineString","coordinates":[[-120.42828,37.7035],[-120.42831,37.70347],[-120.42834,37.70341],[-120.42836,37.70323],[-120.4284,37.70316],[-120.42844,37.70308],[-120.42854,37.703],[-120.42863,37.70296],[-120.42874,37.70294],[-120.42936,37.70293],[-120.42951,37.70294],[-120.42961,37.70296],[-120.42975,37.70304],[-120.42999,37.70322],[-120.43024,37.7034]]}},{"type":"Feature","properties":{"name":"(unnamed public road)","road_class":"track","source":"OpenStreetMap","source_detail":"osm way 464139368","source_tile":"169/396","surface_inferred":true},"geometry":{"type":"LineString","coordinates":[[-120.42646,37.69953],[-120.42644,37.69956],[-120.42637,37.69958],[-120.42631,37.69957],[-120.42621,37.69955],[-120.42613,37.69952],[-120.42606,37.69952],[-120.426,37.69953],[-120.42591,37.69957],[-120.42588,37.6996],[-120.42585,37.69965],[-120.42584,37.69974]]}},{"type":"Feature","properties":{"name":"(unnamed public road)","road_class":"track","source":"OpenStreetMap","source_detail":"osm way 464139369","source_tile":"169/396","surface_inferred":true},"geometry":{"type":"LineString","coordinates":[[-120.42618,37.69891],[-120.42644,37.69947],[-120.42646,37.69953],[-120.42671,37.70006],[-120.42669,37.70013],[-120.42665,37.70016],[-120.42657,37.70016],[-120.42645,37.7001],[-120.42628,37.7],[-120.42612,37.6999]]}},{"type":"Feature","properties":{"name":"Coyote Run","road_class":"track","source":"OpenStreetMap","source_detail":"osm way 530246862","source_tile":"169/396","surface_inferred":true},"geometry":{"type":"LineString","coordinates":[[-120.53704,37.60089],[-120.53617,37.59994],[-120.5366,37.59751],[-120.5385,37.59585],[-120.54129,37.59623],[-120.54354,37.59582],[-120.54436,37.59511],[-120.5446,37.5951],[-120.54498,37.59518],[-120.54681,37.5956]]}},{"type":"Feature","properties":{"name":"Olsen Road","road_class":"unclassified","surface":"unpaved","source":"OpenStreetMap","source_detail":"osm way 530246866","source_tile":"169/396"},"geometry":{"type":"LineString","coordinates":[[-120.51858,37.57409],[-120.51807,37.57435],[-120.51748,37.57462],[-120.51671,37.57496],[-120.51611,37.57526],[-120.5158,37.57547],[-120.51538,37.57569],[-120.51523,37.57579],[-120.51513,37.57587],[-120.51498,37.57602],[-120.5149,37.5761],[-120.51477,37.57626],[-120.51412,37.57694],[-120.51353,37.57753],[-120.51303,37.57805],[-120.5125,37.5786],[-120.51191,37.57922],[-120.51174,37.57942],[-120.51159,37.5796],[-120.51144,37.57978],[-120.51139,37.57986],[-120.51133,37.57997],[-120.51127,37.58009],[-120.5112,37.58026],[-120.51108,37.58058],[-120.5109,37.581],[-120.51076,37.5813],[-120.51065,37.58149],[-120.51052,37.5817],[-120.51015,37.58221],[-120.51004,37.58237],[-120.50993,37.58249],[-120.50982,37.5826],[-120.5097,37.58273],[-120.50961,37.58278],[-120.50942,37.58287],[-120.50929,37.58293],[-120.50906,37.58301],[-120.5089,37.58307],[-120.50864,37.58314],[-120.50823,37.58326],[-120.50777,37.58337],[-120.50745,37.58344],[-120.50713,37.5835],[-120.50656,37.58359],[-120.50596,37.58367],[-120.50539,37.58373],[-120.50479,37.58381],[-120.50462,37.58382],[-120.50436,37.58383],[-120.50416,37.58383],[-120.50368,37.5838],[-120.50325,37.58375],[-120.50302,37.58374],[-120.5029,37.58374],[-120.50273,37.58375],[-120.50258,37.58377],[-120.50207,37.5839],[-120.5016,37.584],[-120.50139,37.58405],[-120.50101,37.58416],[-120.50076,37.58425],[-120.50037,37.58438],[-120.50033,37.58439],[-120.50018,37.58446],[-120.49997,37.58456],[-120.49984,37.58463],[-120.49911,37.58506],[-120.49836,37.58546],[-120.49793,37.58572],[-120.49741,37.58604],[-120.4967,37.58656],[-120.49622,37.58689],[-120.4959,37.58713],[-120.49518,37.58771],[-120.49504,37.58782],[-120.49498,37.58786],[-120.4949,37.58789],[-120.49477,37.58793],[-120.49461,37.58795],[-120.49452,37.58796],[-120.49421,37.58795],[-120.49412,37.58795],[-120.49402,37.58793],[-120.49388,37.58789],[-120.49373,37.58783],[-120.49355,37.58773],[-120.49337,37.58762],[-120.49309,37.58743],[-120.49274,37.58717],[-120.49244,37.58687],[-120.49211,37.58659],[-120.49187,37.5864],[-120.49176,37.58633],[-120.49166,37.58627],[-120.49148,37.58617],[-120.49133,37.58611],[-120.49123,37.58607],[-120.49111,37.58606],[-120.49103,37.58606],[-120.49095,37.58607],[-120.49078,37.58612],[-120.49073,37.58615],[-120.49053,37.58627]]}},{"type":"Feature","properties":{"name":"Olsen Road","road_class":"track","source":"OpenStreetMap","source_detail":"osm way 875434760","source_tile":"169/396","surface_inferred":true},"geometry":{"type":"LineString","coordinates":[[-120.49053,37.58627],[-120.4903,37.58643],[-120.49014,37.58655],[-120.4898,37.58688],[-120.48965,37.587],[-120.4896,37.58702],[-120.48952,37.58706],[-120.48939,37.58709],[-120.48933,37.5871],[-120.48925,37.5871],[-120.48902,37.5871],[-120.48875,37.58709],[-120.48842,37.58709],[-120.48826,37.58708],[-120.4882,37.58707],[-120.4881,37.58705],[-120.48791,37.58697],[-120.48779,37.58695],[-120.48774,37.58694],[-120.48766,37.58694],[-120.48739,37.58697],[-120.48716,37.58698],[-120.48687,37.58698],[-120.4867,37.58698],[-120.48653,37.58699],[-120.48611,37.58698],[-120.48575,37.58696],[-120.48539,37.58691],[-120.48512,37.58689],[-120.48473,37.5869],[-120.48447,37.58689],[-120.48439,37.58688],[-120.48422,37.58685],[-120.48409,37.5868],[-120.4839,37.58673],[-120.48382,37.58671],[-120.48374,37.58669],[-120.48355,37.58668],[-120.48337,37.58668],[-120.48311,37.58669],[-120.4828,37.58671],[-120.48256,37.58672],[-120.4821,37.58673],[-120.48204,37.58674],[-120.48192,37.58678],[-120.48179,37.58682],[-120.48157,37.58692],[-120.48122,37.58711],[-120.48114,37.58714],[-120.4811,37.58714],[-120.48004,37.58713],[-120.47927,37.58712],[-120.47858,37.58711],[-120.47773,37.5871],[-120.47769,37.58709],[-120.47767,37.58707],[-120.47766,37.58706],[-120.47755,37.5867],[-120.47738,37.58623],[-120.4771,37.58537],[-120.47701,37.58517],[-120.47698,37.58511],[-120.47691,37.58503],[-120.47687,37.58499],[-120.47662,37.58484],[-120.47622,37.58465],[-120.47617,37.58461],[-120.47613,37.58457],[-120.47607,37.5845],[-120.47602,37.58441],[-120.47598,37.58432],[-120.47597,37.58428],[-120.47597,37.58416],[-120.47597,37.5841],[-120.47601,37.58402],[-120.47618,37.58379],[-120.47627,37.58364],[-120.47629,37.58357],[-120.47631,37.5835],[-120.47631,37.58343],[-120.47629,37.5833],[-120.47625,37.58317],[-120.47594,37.58246],[-120.47592,37.58238],[-120.47587,37.58211],[-120.47584,37.58177],[-120.47577,37.58113],[-120.47576,37.58107],[-120.47571,37.58089],[-120.47565,37.58076],[-120.47552,37.58047],[-120.47546,37.58031],[-120.47545,37.58024],[-120.47543,37.58004],[-120.47539,37.57986],[-120.47535,37.57973],[-120.47531,37.57963],[-120.47516,37.57927],[-120.47509,37.57916],[-120.47492,37.57892],[-120.47453,37.57833],[-120.47437,37.57812],[-120.47417,37.57788],[-120.47388,37.5776],[-120.47373,37.57741],[-120.47361,37.57724],[-120.47344,37.577],[-120.47337,37.57686],[-120.47331,37.57673],[-120.47325,37.57654],[-120.47324,37.57649],[-120.47323,37.57634],[-120.47329,37.5757],[-120.47353,37.57366],[-120.47363,37.57275],[-120.47364,37.57265],[-120.47363,37.57257],[-120.4736,37.57246],[-120.47358,37.57241],[-120.47344,37.57223],[-120.47335,37.57207],[-120.4733,37.5719],[-120.47327,37.57177],[-120.47324,37.57164],[-120.47312,37.57077],[-120.47311,37.57059],[-120.47311,37.57031],[-120.47313,37.57005],[-120.47319,37.56965],[-120.47331,37.56873],[-120.47338,37.56802],[-120.47342,37.5676],[-120.47341,37.5675],[-120.47339,37.5674],[-120.47336,37.56732],[-120.47311,37.56671],[-120.47307,37.56661],[-120.47305,37.56656],[-120.47299,37.56647],[-120.47295,37.56642],[-120.47284,37.56634],[-120.47273,37.56624],[-120.47245,37.56603],[-120.47228,37.56589],[-120.47212,37.56575],[-120.47199,37.56565],[-120.47189,37.56557],[-120.47185,37.56554],[-120.47158,37.56541],[-120.47116,37.56522],[-120.47079,37.56505],[-120.47049,37.56487],[-120.47006,37.56459],[-120.46963,37.56431],[-120.46946,37.56417],[-120.46861,37.56345],[-120.46824,37.56313],[-120.46793,37.56291],[-120.46715,37.56241],[-120.46694,37.56229],[-120.46662,37.56212],[-120.46611,37.56188],[-120.46598,37.56182],[-120.46551,37.56155],[-120.46527,37.5614],[-120.46516,37.56132],[-120.46506,37.56124],[-120.46424,37.56052],[-120.46408,37.56039],[-120.46377,37.56012],[-120.46363,37.55998],[-120.46357,37.55991],[-120.46352,37.55982],[-120.46344,37.55967],[-120.46336,37.55945],[-120.46331,37.55933],[-120.46328,37.55929],[-120.46325,37.55925],[-120.46319,37.5592]]}},{"type":"Feature","properties":{"name":"(unnamed public road)","road_class":"track","source":"OpenStreetMap","source_detail":"osm way 887986301","source_tile":"169/396","surface_inferred":true},"geometry":{"type":"LineString","coordinates":[[-120.43145,37.71445],[-120.43135,37.71468],[-120.43134,37.71474],[-120.43137,37.7148],[-120.43142,37.71484],[-120.43154,37.71489],[-120.43184,37.71509],[-120.43188,37.71514],[-120.43192,37.71523],[-120.43201,37.71531],[-120.43237,37.71553],[-120.4328,37.71574],[-120.43295,37.71581],[-120.43299,37.71585],[-120.43307,37.71594],[-120.43311,37.71596],[-120.43323,37.71599],[-120.43357,37.71604],[-120.43368,37.71604],[-120.43373,37.71603],[-120.43401,37.7159],[-120.43464,37.71574],[-120.43476,37.7157],[-120.43484,37.7157],[-120.43512,37.71578],[-120.43525,37.71585],[-120.43533,37.71591],[-120.43545,37.71603],[-120.43605,37.71673],[-120.4361,37.71681],[-120.43613,37.71695],[-120.43613,37.71703],[-120.43606,37.71707],[-120.43593,37.71707],[-120.4358,37.71704],[-120.43552,37.71688],[-120.4351,37.71659],[-120.43505,37.71651],[-120.43502,37.71629],[-120.43495,37.71613],[-120.43475,37.71586],[-120.43464,37.71574]]}},{"type":"Feature","properties":{"name":"(unnamed public road)","road_class":"track","source":"OpenStreetMap","source_detail":"osm way 887986317","source_tile":"169/396","surface_inferred":true},"geometry":{"type":"LineString","coordinates":[[-120.43476,37.7157],[-120.43466,37.71564],[-120.43454,37.71555]]}},{"type":"Feature","properties":{"name":"Cooperstown Road","road_class":"unclassified","surface":"gravel","source":"OpenStreetMap","source_detail":"osm way 1096154656","source_tile":"169/396"},"geometry":{"type":"LineString","coordinates":[[-120.49942,37.70702],[-120.49882,37.70687],[-120.49828,37.70671],[-120.49773,37.70652],[-120.49697,37.70616],[-120.49582,37.70551],[-120.49575,37.70547],[-120.49202,37.7036],[-120.4916,37.70327],[-120.49152,37.70217],[-120.49178,37.70099],[-120.49236,37.69916],[-120.49238,37.69912],[-120.49239,37.69882],[-120.49175,37.6965],[-120.49081,37.69559],[-120.49072,37.69551],[-120.48939,37.69459],[-120.48761,37.69321],[-120.48644,37.69224],[-120.48539,37.69122],[-120.48389,37.68926],[-120.48327,37.68805],[-120.48254,37.68761],[-120.48178,37.6873],[-120.47978,37.68707],[-120.47926,37.68643],[-120.47882,37.68538],[-120.47835,37.68504],[-120.4764,37.68414],[-120.47566,37.68394],[-120.47242,37.68239],[-120.4708,37.68156],[-120.47041,37.68143],[-120.46963,37.68133],[-120.46929,37.68133],[-120.46863,37.68157]]}},{"type":"Feature","properties":{"name":"(unnamed public road)","road_class":"track","source":"OpenStreetMap","source_detail":"osm way 1281821274","source_tile":"169/396","surface_inferred":true},"geometry":{"type":"LineString","coordinates":[[-120.3066,37.63334],[-120.30594,37.63335],[-120.30573,37.63336],[-120.3055,37.6332],[-120.30522,37.6326],[-120.30521,37.63231]]}},{"type":"Feature","properties":{"name":"(unnamed public road)","road_class":"track","source":"OpenStreetMap","source_detail":"osm way 1305971756","source_tile":"169/396","surface_inferred":true},"geometry":{"type":"LineString","coordinates":[[-120.30834,37.62413],[-120.30841,37.62419],[-120.30838,37.62431],[-120.30834,37.62448],[-120.3084,37.62461],[-120.30845,37.62474],[-120.30848,37.62487],[-120.30856,37.62498],[-120.3087,37.62508],[-120.30894,37.62516],[-120.30939,37.62531],[-120.30952,37.62532],[-120.30971,37.6253],[-120.31005,37.62518],[-120.31057,37.62494],[-120.31072,37.62487],[-120.31091,37.6248],[-120.311,37.62473],[-120.31105,37.62466],[-120.31115,37.62457],[-120.31129,37.62448],[-120.31158,37.62431],[-120.31183,37.62423],[-120.31211,37.62418],[-120.31239,37.62419],[-120.3128,37.62429],[-120.31308,37.62439],[-120.31323,37.62447],[-120.31337,37.6246],[-120.31353,37.62479],[-120.31362,37.6249],[-120.3137,37.62495],[-120.31383,37.62498],[-120.31423,37.62503],[-120.31449,37.62507],[-120.31475,37.62514],[-120.31515,37.62522],[-120.31538,37.62523],[-120.31552,37.62521],[-120.31562,37.62514],[-120.31598,37.62465],[-120.31628,37.62428],[-120.31631,37.62417],[-120.31625,37.62405]]}},{"type":"Feature","properties":{"name":"(unnamed public road)","road_class":"track","source":"OpenStreetMap","source_detail":"osm way 1305971757","source_tile":"169/396","surface_inferred":true},"geometry":{"type":"LineString","coordinates":[[-120.30841,37.62419],[-120.30858,37.62412],[-120.30875,37.62403],[-120.30888,37.62388],[-120.30905,37.62374],[-120.30919,37.62371],[-120.3093,37.62374],[-120.30941,37.62381],[-120.30944,37.62392],[-120.30942,37.62405],[-120.30935,37.62417],[-120.3092,37.6243],[-120.30917,37.62447],[-120.30922,37.6246],[-120.30929,37.62478],[-120.30937,37.62493],[-120.30941,37.62505],[-120.30939,37.62516],[-120.30941,37.62527],[-120.30939,37.62531]]}},{"type":"Feature","properties":{"name":"(unnamed public road)","road_class":"track","source":"OpenStreetMap","source_detail":"osm way 1305971758","source_tile":"169/396","surface_inferred":true},"geometry":{"type":"LineString","coordinates":[[-120.3092,37.6243],[-120.30899,37.62416],[-120.30875,37.62403]]}},{"type":"Feature","properties":{"name":"(unnamed public road)","road_class":"track","source":"OpenStreetMap","source_detail":"osm way 1305971763","source_tile":"169/396","surface_inferred":true},"geometry":{"type":"LineString","coordinates":[[-120.30167,37.5635],[-120.30174,37.56345],[-120.30182,37.56341],[-120.30191,37.56339],[-120.3028,37.56348],[-120.30325,37.5635],[-120.30387,37.5635]]}},{"type":"Feature","properties":{"name":"(unnamed public road)","road_class":"track","source":"OpenStreetMap","source_detail":"osm way 1305978053","source_tile":"169/396","surface_inferred":true},"geometry":{"type":"LineString","coordinates":[[-120.32613,37.66152],[-120.32602,37.66153],[-120.32594,37.66158],[-120.32583,37.66164],[-120.3257,37.66169],[-120.32557,37.6618],[-120.32547,37.66184],[-120.32536,37.66183],[-120.32524,37.66183],[-120.32515,37.66186],[-120.3251,37.66192],[-120.32503,37.66198],[-120.32496,37.66199],[-120.32483,37.66197],[-120.32464,37.66194],[-120.32453,37.66195],[-120.32449,37.66196],[-120.32448,37.662],[-120.3245,37.66203],[-120.32451,37.66207]]}},{"type":"Feature","properties":{"name":"(unnamed public road)","road_class":"track","source":"OpenStreetMap","source_detail":"osm way 1305984677","source_tile":"169/396","surface_inferred":true},"geometry":{"type":"LineString","coordinates":[[-120.3498,37.67075],[-120.34963,37.67076],[-120.34942,37.67083],[-120.34919,37.67098],[-120.34895,37.67115],[-120.34876,37.67129],[-120.34859,37.67144],[-120.34848,37.67153],[-120.34842,37.67154],[-120.34835,37.67153],[-120.34826,37.67147],[-120.34812,37.67132],[-120.34802,37.67117],[-120.34796,37.67101],[-120.34793,37.67088],[-120.34795,37.67083],[-120.34812,37.67076]]}},{"type":"Feature","properties":{"name":"Fields Road","road_class":"track","surface":"gravel","tracktype":"grade2","source":"OpenStreetMap","source_detail":"osm way 1497757343","source_tile":"169/396"},"geometry":{"type":"LineString","coordinates":[[-120.39345,37.63741],[-120.39286,37.63705]]}},{"type":"Feature","properties":{"name":"Fields Road","road_class":"track","surface":"gravel","tracktype":"grade2","source":"OpenStreetMap","source_detail":"osm way 1497757344","source_tile":"169/396"},"geometry":{"type":"LineString","coordinates":[[-120.42527,37.56505],[-120.4259,37.56507]]}},{"type":"Feature","properties":{"name":"Fields Road","road_class":"track","surface":"gravel","tracktype":"grade2","source":"OpenStreetMap","source_detail":"osm way 1497757345","source_tile":"169/396"},"geometry":{"type":"LineString","coordinates":[[-120.4259,37.56507],[-120.42635,37.56508]]}}]}