{"type":"FeatureCollection","features":[{"type":"Feature","properties":{"name":"Road 310","road_class":"unclassified","surface":"dirt","source":"Caltrans All Roads + OpenStreetMap explicit surface","source_detail":"osm way 10344637; Caltrans All Roads public-network geometry match","source_tile":"163/389","public_network_source":"Caltrans All Roads (ARNOLD/HPMS)","surface_source":"OpenStreetMap explicit surface tag","caltrans_match_coverage":1.0,"verified_length_m":1908},"geometry":{"type":"LineString","coordinates":[[-122.70991,39.6311],[-122.70981,39.63114],[-122.70949,39.6312],[-122.70907,39.63121],[-122.70853,39.63109],[-122.7084,39.63107],[-122.70809,39.63109],[-122.70747,39.63121],[-122.70721,39.63123],[-122.70678,39.63138],[-122.70608,39.63171],[-122.70569,39.6317],[-122.70548,39.63171],[-122.70533,39.63174],[-122.70449,39.63196],[-122.70419,39.63205],[-122.70366,39.63231],[-122.70349,39.63238],[-122.70327,39.63255],[-122.70303,39.63278],[-122.70269,39.63314],[-122.70256,39.63322],[-122.70236,39.63326],[-122.70223,39.63326],[-122.70207,39.63321],[-122.70171,39.63297],[-122.70132,39.63276],[-122.70122,39.63273],[-122.70104,39.6327],[-122.70017,39.63265],[-122.6999,39.6327],[-122.69907,39.63301],[-122.69902,39.63305],[-122.69897,39.6331],[-122.69889,39.63332],[-122.69878,39.6334],[-122.69864,39.63343],[-122.6981,39.63345],[-122.698,39.63344],[-122.69794,39.63341],[-122.69726,39.63302],[-122.69652,39.63263],[-122.6962,39.63236],[-122.69618,39.63229],[-122.69623,39.63215],[-122.69636,39.63202],[-122.69659,39.63192],[-122.69655,39.63186],[-122.69639,39.63184],[-122.69626,39.63186],[-122.69611,39.63183],[-122.69593,39.63187],[-122.69568,39.63199],[-122.69551,39.63201],[-122.69513,39.632],[-122.69505,39.63202],[-122.69497,39.63208],[-122.69496,39.63213],[-122.69497,39.63222],[-122.69502,39.63227],[-122.69531,39.63246],[-122.69539,39.63253],[-122.69554,39.63277],[-122.69582,39.6332],[-122.69571,39.63329],[-122.6953,39.63333],[-122.69522,39.63333],[-122.69493,39.63327],[-122.69454,39.63324],[-122.69448,39.63322],[-122.69422,39.63307],[-122.69399,39.633],[-122.69377,39.6329]]}},{"type":"Feature","properties":{"name":"Sanhedrin Road","road_class":"unclassified","surface":"gravel","source":"Caltrans All Roads + OpenStreetMap explicit surface","source_detail":"osm way 34517331; Caltrans All Roads public-network geometry match","source_tile":"163/389","public_network_source":"Caltrans All Roads (ARNOLD/HPMS)","surface_source":"OpenStreetMap explicit surface tag","caltrans_match_coverage":0.996,"verified_length_m":4623},"geometry":{"type":"LineString","coordinates":[[-122.66431,39.63508],[-122.66439,39.63508],[-122.66448,39.63506],[-122.66476,39.63491],[-122.66488,39.63486],[-122.665,39.63479],[-122.66505,39.63474],[-122.66508,39.63471],[-122.66511,39.63466],[-122.66512,39.63459],[-122.66513,39.63452],[-122.66515,39.63448],[-122.66516,39.63444],[-122.66523,39.63441],[-122.66531,39.63438],[-122.66541,39.63434],[-122.66551,39.6343],[-122.66559,39.63427],[-122.66566,39.63426],[-122.66573,39.63426],[-122.66581,39.63432],[-122.6659,39.63438],[-122.66606,39.63444],[-122.66624,39.63447],[-122.66638,39.63453],[-122.66655,39.63456],[-122.66682,39.63457],[-122.66697,39.63456],[-122.66708,39.63455],[-122.66734,39.63448],[-122.66741,39.63447],[-122.66748,39.63447],[-122.66754,39.63447],[-122.66765,39.6345],[-122.66775,39.63455],[-122.66786,39.63459],[-122.66799,39.63463],[-122.66811,39.63466],[-122.66829,39.63473],[-122.66839,39.63476],[-122.66851,39.63478],[-122.6686,39.63478],[-122.66872,39.63478],[-122.66897,39.63475],[-122.66914,39.63474],[-122.66943,39.63479],[-122.66987,39.63481],[-122.67023,39.63483],[-122.67033,39.63483],[-122.67049,39.63482],[-122.67065,39.63478],[-122.67078,39.63475],[-122.67091,39.63471],[-122.67108,39.63466],[-122.67117,39.63466],[-122.67129,39.63467],[-122.67142,39.63467],[-122.67148,39.63467],[-122.67157,39.63465],[-122.67162,39.63466],[-122.67166,39.63467],[-122.67189,39.63488],[-122.67197,39.63493],[-122.67213,39.635],[-122.67235,39.63511],[-122.67242,39.63514],[-122.67248,39.63517],[-122.67259,39.6352],[-122.67271,39.6352],[-122.67285,39.63518],[-122.67303,39.63514],[-122.67312,39.63513],[-122.67319,39.63514],[-122.67325,39.63517],[-122.67334,39.63521],[-122.67339,39.63524],[-122.67346,39.63529],[-122.67351,39.63534],[-122.67357,39.63541],[-122.67363,39.63547],[-122.67365,39.63548],[-122.67372,39.63551],[-122.67381,39.63552],[-122.67391,39.63551],[-122.67409,39.63547],[-122.67429,39.6354],[-122.67441,39.63532],[-122.67449,39.63528],[-122.67474,39.63531],[-122.67501,39.63528],[-122.67514,39.63528],[-122.67529,39.63531],[-122.67534,39.63533],[-122.67541,39.63534],[-122.6755,39.63535],[-122.67557,39.63536],[-122.67569,39.63535],[-122.67581,39.63535],[-122.67589,39.63534],[-122.67601,39.63534],[-122.6761,39.63536],[-122.67616,39.63538],[-122.67623,39.63543],[-122.67629,39.63551],[-122.67635,39.63555],[-122.67639,39.63562],[-122.67645,39.6357],[-122.67649,39.63574],[-122.67662,39.63584],[-122.67672,39.6359],[-122.67679,39.63592],[-122.67682,39.63592],[-122.67687,39.63591],[-122.67706,39.63584],[-122.67724,39.63578],[-122.67732,39.63576],[-122.67739,39.63576],[-122.67749,39.63576],[-122.67758,39.63576],[-122.67764,39.63578],[-122.67767,39.63581],[-122.67769,39.63584],[-122.67773,39.6361],[-122.67776,39.63619],[-122.67781,39.63624],[-122.67787,39.63628],[-122.67792,39.63629],[-122.67801,39.63629],[-122.6782,39.63629],[-122.67825,39.6363],[-122.67829,39.63631],[-122.67838,39.63634],[-122.67843,39.63637],[-122.67852,39.63643],[-122.67874,39.63665],[-122.67878,39.63668],[-122.67883,39.63671],[-122.67885,39.63672],[-122.67893,39.63673],[-122.67915,39.63676],[-122.67925,39.63677],[-122.67937,39.63678],[-122.67958,39.63685],[-122.67969,39.63693],[-122.67981,39.63697],[-122.67994,39.637],[-122.68011,39.63704],[-122.68037,39.63708],[-122.68051,39.63709],[-122.68064,39.63707],[-122.68075,39.63705],[-122.68084,39.63702],[-122.68101,39.63698],[-122.68109,39.63696],[-122.68116,39.63694],[-122.68127,39.63698],[-122.68141,39.63702],[-122.68161,39.63703],[-122.68184,39.63701],[-122.68223,39.63705],[-122.68244,39.63705],[-122.68255,39.63707],[-122.68263,39.63708],[-122.68271,39.6371],[-122.68279,39.63712],[-122.68289,39.63718],[-122.68297,39.6372],[-122.68308,39.63722],[-122.6832,39.63723],[-122.68337,39.63722],[-122.68359,39.63724],[-122.68381,39.63724],[-122.68392,39.63724],[-122.68404,39.63725],[-122.68414,39.63728],[-122.68426,39.63729],[-122.68437,39.63732],[-122.68455,39.63736],[-122.68474,39.63738],[-122.68488,39.63738],[-122.68506,39.63739],[-122.68515,39.63739],[-122.68536,39.63742],[-122.68548,39.63744],[-122.68569,39.63744],[-122.68585,39.63743],[-122.68605,39.6374],[-122.68614,39.63735],[-122.68623,39.63731],[-122.68638,39.63724],[-122.68662,39.63711],[-122.68676,39.6371],[-122.68684,39.63706],[-122.68708,39.63689],[-122.68725,39.63681],[-122.68735,39.63672],[-122.6874,39.63664],[-122.68743,39.6365],[-122.68748,39.63645],[-122.68755,39.63641],[-122.68766,39.63639],[-122.68776,39.63638],[-122.68786,39.63637],[-122.6879,39.6364],[-122.68795,39.63644],[-122.68805,39.63648],[-122.68812,39.63651],[-122.68821,39.63652],[-122.6883,39.63652],[-122.6884,39.63649],[-122.68848,39.63646],[-122.68863,39.63644],[-122.68879,39.63638],[-122.689,39.63628],[-122.68922,39.63626],[-122.68943,39.63626],[-122.68963,39.63627],[-122.68973,39.63627],[-122.68983,39.63623],[-122.68992,39.63617],[-122.69003,39.63614],[-122.69028,39.63614],[-122.6904,39.63613],[-122.69049,39.63609],[-122.69062,39.63602],[-122.69079,39.63588],[-122.69089,39.63579],[-122.69096,39.6357],[-122.69101,39.63568],[-122.69106,39.63568],[-122.69111,39.63572],[-122.69117,39.63578],[-122.69122,39.63592],[-122.69125,39.63599],[-122.69132,39.63606],[-122.69142,39.63611],[-122.69155,39.63616],[-122.69172,39.63625],[-122.69176,39.63629],[-122.69176,39.63637],[-122.69175,39.63649],[-122.69176,39.63659],[-122.6918,39.63665],[-122.69185,39.6367],[-122.69189,39.63671],[-122.69195,39.63673],[-122.69208,39.63671],[-122.69215,39.63667],[-122.69228,39.63661],[-122.69236,39.6366],[-122.69243,39.63658],[-122.69249,39.63658],[-122.69253,39.63658],[-122.69256,39.63661],[-122.69257,39.63663],[-122.69256,39.63681],[-122.69257,39.63686],[-122.69258,39.63689],[-122.69258,39.63692],[-122.6926,39.63696],[-122.69262,39.63699],[-122.69269,39.63701],[-122.69278,39.63701],[-122.69292,39.63698],[-122.69304,39.63697],[-122.69313,39.63698],[-122.69322,39.637],[-122.69332,39.63702],[-122.69348,39.63707],[-122.69364,39.63715],[-122.69381,39.63722],[-122.69389,39.63725],[-122.69395,39.63725],[-122.69403,39.63724],[-122.69424,39.63717],[-122.69432,39.63716],[-122.69441,39.63715],[-122.69449,39.63715],[-122.69459,39.63718],[-122.69468,39.6372],[-122.69478,39.63726],[-122.69501,39.63736],[-122.69511,39.6374],[-122.69522,39.63742],[-122.69537,39.63742],[-122.69554,39.6374],[-122.69565,39.6374],[-122.69574,39.63742],[-122.69596,39.63755],[-122.6962,39.63761],[-122.69635,39.63767],[-122.69653,39.63777],[-122.69673,39.63794],[-122.69677,39.63798],[-122.69685,39.63801],[-122.69693,39.638],[-122.69723,39.63799],[-122.69728,39.638],[-122.69731,39.63803],[-122.69736,39.63816],[-122.69743,39.63827],[-122.69757,39.6384],[-122.6976,39.63847],[-122.69761,39.63854],[-122.69766,39.63863],[-122.69771,39.63867],[-122.69775,39.63869],[-122.69785,39.63871],[-122.69799,39.63872],[-122.69809,39.63875],[-122.69814,39.63878],[-122.69818,39.63884],[-122.69825,39.63895],[-122.69838,39.63918],[-122.69845,39.63927],[-122.69849,39.63932],[-122.69852,39.63935],[-122.69859,39.6394],[-122.69864,39.63943],[-122.69876,39.63948],[-122.69909,39.63953],[-122.69947,39.63962],[-122.69967,39.63965],[-122.69982,39.63966],[-122.69992,39.63967],[-122.69998,39.6397],[-122.70003,39.63974],[-122.70009,39.63982],[-122.70019,39.63988],[-122.70033,39.63996],[-122.70058,39.64003],[-122.70067,39.64004],[-122.70077,39.64005],[-122.70084,39.64007],[-122.7009,39.6401],[-122.70107,39.64023],[-122.70118,39.64029],[-122.70126,39.64033],[-122.70133,39.64036],[-122.70143,39.64038],[-122.7015,39.64037],[-122.70161,39.64035],[-122.70175,39.64028],[-122.70191,39.64028],[-122.702,39.64028],[-122.7021,39.64022],[-122.70221,39.64012],[-122.70233,39.64002],[-122.70249,39.63989],[-122.70258,39.63978],[-122.70263,39.63974],[-122.70267,39.6397],[-122.70272,39.63966],[-122.70283,39.63967],[-122.70293,39.63971],[-122.70297,39.63974],[-122.7031,39.63983],[-122.70315,39.63987],[-122.70322,39.63991],[-122.70331,39.63994],[-122.7034,39.63994],[-122.70356,39.63989],[-122.70364,39.63987],[-122.70379,39.63988],[-122.70393,39.63986],[-122.70405,39.63983],[-122.70414,39.63978],[-122.70424,39.63969],[-122.70433,39.63964],[-122.70438,39.63956],[-122.70442,39.63947],[-122.70446,39.6394],[-122.70454,39.63939],[-122.70467,39.63937],[-122.7048,39.63931],[-122.70489,39.63923],[-122.70508,39.6391],[-122.70516,39.639],[-122.70526,39.63894],[-122.70535,39.63894],[-122.70545,39.63903],[-122.70556,39.63907],[-122.70566,39.63912],[-122.70571,39.63917],[-122.7057,39.63921],[-122.7057,39.6393],[-122.70572,39.63938],[-122.70579,39.63948],[-122.70589,39.63957],[-122.70609,39.63965],[-122.7062,39.63967],[-122.70628,39.63969],[-122.70641,39.63972],[-122.70659,39.63974],[-122.70691,39.63972],[-122.70734,39.6397],[-122.70764,39.63974],[-122.7078,39.63978],[-122.70794,39.6398],[-122.70806,39.6398],[-122.70814,39.63979],[-122.70821,39.63978],[-122.7083,39.63974],[-122.70839,39.63971],[-122.70849,39.63966],[-122.70864,39.63957],[-122.70871,39.63951],[-122.70879,39.63945],[-122.70888,39.63937],[-122.70893,39.63935],[-122.709,39.63933],[-122.70905,39.63933],[-122.70911,39.63933],[-122.70917,39.63931],[-122.70924,39.6393],[-122.7093,39.63926],[-122.70939,39.63916]]}},{"type":"Feature","properties":{"name":"Road 308","road_class":"track","surface":"compacted","tracktype":"grade2","source":"Caltrans All Roads + OpenStreetMap explicit surface","source_detail":"osm way 10354094; Caltrans All Roads public-network geometry match","source_tile":"163/389","public_network_source":"Caltrans All Roads (ARNOLD/HPMS)","surface_source":"OpenStreetMap explicit surface tag","caltrans_match_coverage":0.997,"verified_length_m":8460},"geometry":{"type":"LineString","coordinates":[[-122.68857,39.55111],[-122.68856,39.55115],[-122.68856,39.55119],[-122.68859,39.55124],[-122.68862,39.55128],[-122.68868,39.55133],[-122.68875,39.55136],[-122.68885,39.55141],[-122.68896,39.55147],[-122.68904,39.55152],[-122.68919,39.55161],[-122.68941,39.55173],[-122.68952,39.55182],[-122.68959,39.55193],[-122.68961,39.55208],[-122.68967,39.55216],[-122.68973,39.55223],[-122.68986,39.55231],[-122.68995,39.55236],[-122.69002,39.55238],[-122.69009,39.55242],[-122.69017,39.55244],[-122.69023,39.55246],[-122.69035,39.55246],[-122.69046,39.55249],[-122.69057,39.55251],[-122.69065,39.55255],[-122.69072,39.55261],[-122.69075,39.55267],[-122.69075,39.55273],[-122.69074,39.55278],[-122.69071,39.55286],[-122.69066,39.55301],[-122.69063,39.55316],[-122.69064,39.55332],[-122.69067,39.55342],[-122.6907,39.55347],[-122.69072,39.55353],[-122.69077,39.55358],[-122.69081,39.5536],[-122.69087,39.55363],[-122.69097,39.55367],[-122.69115,39.55369],[-122.69152,39.55365],[-122.69159,39.55365],[-122.69165,39.55367],[-122.69169,39.55369],[-122.69171,39.55374],[-122.69171,39.55379],[-122.69169,39.55392],[-122.69167,39.55398],[-122.69168,39.55406],[-122.6917,39.55408],[-122.69173,39.55411],[-122.69178,39.55413],[-122.69189,39.55413],[-122.69202,39.55412],[-122.69208,39.55414],[-122.69212,39.55421],[-122.69219,39.55429],[-122.69224,39.55439],[-122.69222,39.55443],[-122.69213,39.55451],[-122.69185,39.55478],[-122.69179,39.55482],[-122.69176,39.55488],[-122.69174,39.55492],[-122.69172,39.55498],[-122.69172,39.55503],[-122.69173,39.55509],[-122.69183,39.55532],[-122.69185,39.55535],[-122.69189,39.55538],[-122.69193,39.55539],[-122.69202,39.55541],[-122.69207,39.5554],[-122.69216,39.55538],[-122.69226,39.55536],[-122.69231,39.55536],[-122.69234,39.55538],[-122.69236,39.5554],[-122.69237,39.55543],[-122.69234,39.55549],[-122.69228,39.55559],[-122.69224,39.55568],[-122.69222,39.55575],[-122.69222,39.55581],[-122.69223,39.5559],[-122.69226,39.55593],[-122.69232,39.55598],[-122.69238,39.55604],[-122.69246,39.5561],[-122.6925,39.55614],[-122.69256,39.55622],[-122.69264,39.55636],[-122.69272,39.55643],[-122.69279,39.5565],[-122.69288,39.55653],[-122.69292,39.55655],[-122.69302,39.55657],[-122.69311,39.55658],[-122.69333,39.55659],[-122.69339,39.55663],[-122.69347,39.55673],[-122.69362,39.55683],[-122.69369,39.55689],[-122.69375,39.557],[-122.69385,39.55714],[-122.69395,39.5573],[-122.69401,39.55746],[-122.69404,39.55755],[-122.69406,39.55764],[-122.69405,39.55771],[-122.69401,39.55779],[-122.69392,39.5579],[-122.69388,39.55798],[-122.69388,39.55802],[-122.6939,39.55807],[-122.69394,39.5581],[-122.69401,39.55812],[-122.69411,39.55811],[-122.69421,39.55811],[-122.69428,39.5581],[-122.6944,39.55811],[-122.69454,39.55813],[-122.6946,39.55815],[-122.69464,39.55818],[-122.69464,39.55822],[-122.69462,39.55826],[-122.6946,39.55831],[-122.69446,39.55841],[-122.6944,39.55844],[-122.69435,39.5585],[-122.69434,39.55855],[-122.69434,39.55861],[-122.69437,39.55867],[-122.69441,39.55869],[-122.69446,39.55873],[-122.6946,39.55879],[-122.69468,39.55882],[-122.69476,39.55886],[-122.69481,39.55888],[-122.69483,39.55893],[-122.69485,39.55899],[-122.69484,39.55916],[-122.69487,39.55926],[-122.69492,39.5593],[-122.69505,39.55935],[-122.69516,39.55941],[-122.69527,39.55947],[-122.69534,39.5595],[-122.69546,39.55953],[-122.69564,39.55955],[-122.69572,39.5596],[-122.69577,39.55963],[-122.69579,39.55968],[-122.69574,39.55973],[-122.69564,39.55979],[-122.69543,39.55991],[-122.69532,39.56],[-122.69525,39.56007],[-122.69518,39.56015],[-122.69509,39.56027],[-122.69501,39.56038],[-122.69499,39.56045],[-122.695,39.56061],[-122.69502,39.56064],[-122.69503,39.5607],[-122.69502,39.56076],[-122.69497,39.56082],[-122.69483,39.56094],[-122.69458,39.56113],[-122.69451,39.56119],[-122.69448,39.56123],[-122.69445,39.56128],[-122.69443,39.56132],[-122.69444,39.56136],[-122.69445,39.56142],[-122.69448,39.56152],[-122.69456,39.56163],[-122.69462,39.56172],[-122.6947,39.5618],[-122.69472,39.56186],[-122.69471,39.56191],[-122.69467,39.56193],[-122.69464,39.56193],[-122.69457,39.56189],[-122.69452,39.56181],[-122.69447,39.56174],[-122.69442,39.5617],[-122.69437,39.56166],[-122.69433,39.56162],[-122.69428,39.56158],[-122.69422,39.56151],[-122.69421,39.56145],[-122.6942,39.56141],[-122.6942,39.5613],[-122.6942,39.56123],[-122.69427,39.56107],[-122.69437,39.56093],[-122.69452,39.56074],[-122.69452,39.56069],[-122.6945,39.56061],[-122.69445,39.56052],[-122.69439,39.56039],[-122.6944,39.56022],[-122.69449,39.55996],[-122.6945,39.55989],[-122.69445,39.55986],[-122.69438,39.55985],[-122.69419,39.55992],[-122.69402,39.55997],[-122.69392,39.55998],[-122.69381,39.55997],[-122.6937,39.55991],[-122.69362,39.55984],[-122.69352,39.55965],[-122.69343,39.55952],[-122.69337,39.55947],[-122.69328,39.55947],[-122.69311,39.55948],[-122.69298,39.55947],[-122.69289,39.55946],[-122.6928,39.55944],[-122.69273,39.5594],[-122.69262,39.55932],[-122.69253,39.55926],[-122.69246,39.55923],[-122.6924,39.55922],[-122.69231,39.55923],[-122.69222,39.55926],[-122.69205,39.55938],[-122.69195,39.55945],[-122.69188,39.55949],[-122.6918,39.55951],[-122.69172,39.55953],[-122.69151,39.55949],[-122.69132,39.55944],[-122.69126,39.55938],[-122.69122,39.55933],[-122.69121,39.5592],[-122.69111,39.55912],[-122.691,39.55906],[-122.69097,39.55906],[-122.6909,39.55906],[-122.69084,39.55909],[-122.69078,39.55914],[-122.69064,39.55922],[-122.69055,39.55925],[-122.69045,39.55928],[-122.6903,39.55929],[-122.69017,39.55926],[-122.69013,39.55925],[-122.69007,39.55922],[-122.68995,39.55918],[-122.6899,39.55917],[-122.68978,39.55915],[-122.68972,39.55913],[-122.68969,39.55911],[-122.68968,39.55909],[-122.68965,39.55902],[-122.68966,39.55892],[-122.68965,39.55887],[-122.68959,39.55885],[-122.68946,39.55888],[-122.68938,39.55892],[-122.68927,39.55896],[-122.68908,39.55905],[-122.68895,39.55909],[-122.6889,39.5591],[-122.68882,39.55906],[-122.68871,39.55898],[-122.68866,39.55893],[-122.68865,39.55887],[-122.68867,39.55879],[-122.68874,39.5587],[-122.68878,39.55861],[-122.6888,39.55855],[-122.68874,39.55842],[-122.68867,39.55834],[-122.68859,39.55826],[-122.68848,39.5582],[-122.68838,39.55816],[-122.68831,39.55808],[-122.68829,39.55803],[-122.6883,39.55794],[-122.68834,39.55784],[-122.6884,39.55769],[-122.68842,39.55746],[-122.68843,39.55732],[-122.68843,39.55725],[-122.68843,39.55718],[-122.68842,39.55715],[-122.68839,39.55711],[-122.68834,39.5571],[-122.6883,39.5571],[-122.68822,39.55713],[-122.68803,39.55729],[-122.68794,39.55734],[-122.68785,39.55738],[-122.68779,39.55739],[-122.6877,39.55739],[-122.68763,39.55738],[-122.68748,39.55736],[-122.68742,39.55735],[-122.68733,39.55735],[-122.68695,39.55735],[-122.68677,39.55733],[-122.68658,39.55728],[-122.6865,39.55723],[-122.68641,39.55717],[-122.68635,39.55711],[-122.68631,39.55705],[-122.68628,39.557],[-122.68625,39.55681],[-122.68621,39.55674],[-122.68617,39.5567],[-122.68613,39.55668],[-122.68606,39.5567],[-122.68596,39.55676],[-122.68584,39.55682],[-122.6857,39.55689],[-122.68544,39.557],[-122.68515,39.55709],[-122.68493,39.55715],[-122.68484,39.55716],[-122.6847,39.55718],[-122.6846,39.55718],[-122.68454,39.55717],[-122.68445,39.5571],[-122.68439,39.557],[-122.68435,39.55692],[-122.68432,39.55677],[-122.68431,39.55671],[-122.68427,39.55668],[-122.68422,39.55668],[-122.68415,39.55668],[-122.68409,39.55671],[-122.68403,39.55675],[-122.68398,39.55681],[-122.68393,39.55687],[-122.68388,39.55694],[-122.68383,39.55703],[-122.68376,39.55719],[-122.6837,39.55728],[-122.68362,39.55735],[-122.68346,39.55741],[-122.68328,39.55749],[-122.68316,39.55752],[-122.68306,39.55753],[-122.68297,39.55756],[-122.68293,39.55759],[-122.68282,39.55773],[-122.68275,39.55779],[-122.68271,39.55783],[-122.68262,39.55785],[-122.6825,39.55786],[-122.68242,39.55784],[-122.68232,39.5578],[-122.6822,39.55775],[-122.682,39.55763],[-122.68184,39.55754],[-122.68159,39.55739],[-122.68147,39.55729],[-122.68131,39.55713],[-122.68113,39.55697],[-122.68104,39.55691],[-122.68095,39.55679],[-122.68082,39.55666],[-122.68077,39.55665],[-122.68073,39.55666],[-122.6807,39.55671],[-122.6807,39.55684],[-122.6807,39.55709],[-122.6807,39.55736],[-122.68063,39.5575],[-122.68059,39.55773],[-122.68054,39.55793],[-122.68049,39.55807],[-122.68046,39.55814],[-122.68039,39.55828],[-122.6803,39.55838],[-122.68021,39.55843],[-122.68012,39.55844],[-122.67999,39.55844],[-122.6798,39.5584],[-122.67966,39.55833],[-122.67958,39.55832],[-122.67956,39.55834],[-122.67947,39.55849],[-122.67944,39.5586],[-122.67936,39.5588],[-122.67927,39.55891],[-122.6792,39.55898],[-122.67909,39.55903],[-122.67891,39.55906],[-122.67872,39.55905],[-122.67863,39.55904],[-122.67857,39.55907],[-122.67856,39.55913],[-122.67856,39.55923],[-122.67856,39.55929],[-122.67856,39.5594],[-122.67851,39.55948],[-122.67844,39.55956],[-122.67832,39.55963],[-122.67822,39.55967],[-122.67797,39.55973],[-122.67786,39.55976],[-122.67768,39.55978],[-122.67756,39.55978],[-122.67751,39.55976],[-122.67741,39.55972],[-122.67734,39.55965],[-122.67726,39.55955],[-122.67719,39.55945],[-122.67717,39.55934],[-122.67712,39.55925],[-122.67708,39.55919],[-122.67704,39.55918],[-122.67696,39.55923],[-122.67685,39.55931],[-122.67676,39.5594],[-122.67667,39.5596],[-122.67658,39.55971],[-122.67653,39.55975],[-122.67646,39.55978],[-122.67639,39.55979],[-122.67627,39.55979],[-122.67614,39.55981],[-122.67604,39.55986],[-122.6759,39.56001],[-122.67583,39.56011],[-122.67573,39.5602],[-122.67558,39.56028],[-122.67538,39.56038],[-122.6753,39.5604],[-122.6752,39.56041],[-122.67496,39.56039],[-122.67473,39.56038],[-122.67461,39.56037],[-122.6744,39.56035],[-122.67419,39.56028],[-122.67407,39.56022],[-122.67399,39.56017],[-122.67379,39.55993],[-122.67374,39.55983],[-122.67367,39.55971],[-122.67361,39.55966],[-122.67348,39.55962],[-122.67337,39.55958],[-122.6733,39.5595],[-122.67323,39.55941],[-122.67315,39.55933],[-122.67305,39.55922],[-122.67285,39.55903],[-122.67278,39.55897],[-122.67274,39.55888],[-122.67272,39.55879],[-122.67276,39.55867],[-122.67288,39.55842],[-122.67291,39.55828],[-122.67281,39.5579],[-122.67278,39.55774],[-122.67278,39.55766],[-122.67276,39.55758],[-122.6727,39.55754],[-122.67262,39.5575],[-122.6725,39.55748],[-122.67234,39.55751],[-122.67222,39.55757],[-122.67212,39.55763],[-122.67203,39.55765],[-122.67193,39.55766],[-122.67185,39.55765],[-122.67178,39.55762],[-122.67171,39.55755],[-122.67162,39.55728],[-122.67159,39.55711],[-122.67158,39.55703],[-122.67153,39.55698],[-122.67146,39.55698],[-122.67138,39.55699],[-122.67128,39.55707],[-122.67124,39.55713],[-122.67122,39.5572],[-122.6712,39.55725],[-122.67114,39.55735],[-122.6711,39.55741],[-122.67099,39.55752],[-122.67092,39.55758],[-122.67087,39.55762],[-122.67077,39.55767],[-122.67062,39.55772],[-122.6704,39.55785],[-122.67012,39.55798],[-122.66984,39.55816],[-122.66955,39.55834],[-122.66937,39.55842],[-122.66924,39.55847],[-122.66909,39.55848],[-122.66893,39.55844],[-122.66874,39.5584],[-122.66849,39.55829],[-122.66836,39.55824],[-122.66826,39.55814],[-122.66811,39.55784],[-122.66802,39.55768],[-122.66783,39.55755],[-122.66769,39.55746],[-122.66756,39.55727],[-122.66753,39.55722],[-122.66747,39.55721],[-122.66739,39.5572],[-122.66731,39.55724],[-122.66726,39.55728],[-122.66713,39.55745],[-122.6669,39.55773],[-122.66664,39.55813],[-122.66637,39.55844],[-122.66626,39.55851],[-122.66599,39.5586],[-122.66575,39.55865],[-122.66548,39.55869],[-122.6652,39.55868],[-122.66503,39.55869],[-122.66492,39.55865],[-122.66485,39.55856],[-122.66482,39.55848],[-122.66478,39.55839],[-122.66471,39.55829],[-122.66454,39.55814],[-122.66429,39.55786],[-122.66419,39.55777],[-122.66412,39.55771],[-122.66402,39.55767],[-122.66393,39.55764],[-122.66384,39.55759],[-122.66376,39.5575],[-122.66369,39.55731],[-122.66366,39.55715],[-122.6636,39.55708],[-122.66354,39.55708],[-122.66346,39.5571],[-122.66334,39.55723],[-122.66313,39.55751],[-122.66305,39.5577],[-122.66298,39.55778],[-122.66287,39.55785],[-122.66272,39.55794],[-122.66261,39.55799],[-122.66251,39.55802],[-122.66242,39.55801],[-122.66233,39.558],[-122.66217,39.55791],[-122.66209,39.55784],[-122.66204,39.55779],[-122.66199,39.55778],[-122.66183,39.55787],[-122.66174,39.55791],[-122.66166,39.55791],[-122.66158,39.55792],[-122.66151,39.5579],[-122.66145,39.55781],[-122.66143,39.55772],[-122.66144,39.55765],[-122.66148,39.55754],[-122.66149,39.55748],[-122.66149,39.55745],[-122.66147,39.55741],[-122.66138,39.55741],[-122.6613,39.55743],[-122.66122,39.55748],[-122.66113,39.55754],[-122.66099,39.55762],[-122.66081,39.55774],[-122.66065,39.55779],[-122.66055,39.55782],[-122.66037,39.55788],[-122.66011,39.55788],[-122.65992,39.55785],[-122.65975,39.55782],[-122.6596,39.55781],[-122.65946,39.55778],[-122.65935,39.55775],[-122.65924,39.55771],[-122.65912,39.55767],[-122.65901,39.5576],[-122.6589,39.55756],[-122.65879,39.55753],[-122.65868,39.55753],[-122.65857,39.55749],[-122.65841,39.55742],[-122.65833,39.55736],[-122.65824,39.5573],[-122.65821,39.55727],[-122.65818,39.55724],[-122.65812,39.55723],[-122.65805,39.55727],[-122.65788,39.55737],[-122.65779,39.55737],[-122.65765,39.55735],[-122.65751,39.55735],[-122.65739,39.55743],[-122.65726,39.55757],[-122.65717,39.55773],[-122.65703,39.55789],[-122.65695,39.55794],[-122.65686,39.55796],[-122.65679,39.55796],[-122.6567,39.55795],[-122.65646,39.55791],[-122.65631,39.55788],[-122.65608,39.55788],[-122.65596,39.55787],[-122.65567,39.55783],[-122.65551,39.55781],[-122.65525,39.55781],[-122.65481,39.55775],[-122.65469,39.55775],[-122.65436,39.55783],[-122.65407,39.55785],[-122.65392,39.55785],[-122.65378,39.55786],[-122.65366,39.55787],[-122.65351,39.55787],[-122.65338,39.55784],[-122.65326,39.55779],[-122.6531,39.55779],[-122.65298,39.55777],[-122.65289,39.55777],[-122.6528,39.55773],[-122.65273,39.55767],[-122.65268,39.55755],[-122.65264,39.5574],[-122.65264,39.55722],[-122.65261,39.55715],[-122.65257,39.55712],[-122.65253,39.55711],[-122.65246,39.55713],[-122.65237,39.55719],[-122.65229,39.55727],[-122.65219,39.55737],[-122.65214,39.55745],[-122.65205,39.55756],[-122.65198,39.5576],[-122.6519,39.55764],[-122.65181,39.55764],[-122.6517,39.55766],[-122.65159,39.55767],[-122.65149,39.55767],[-122.65138,39.55761],[-122.65132,39.5576],[-122.65126,39.5576],[-122.65121,39.55763],[-122.65117,39.55767],[-122.65114,39.55772],[-122.65105,39.5579],[-122.65102,39.55798],[-122.65092,39.55806],[-122.65078,39.55814],[-122.65054,39.5582],[-122.6504,39.55823],[-122.65016,39.55825],[-122.65005,39.55821],[-122.64991,39.55809],[-122.6498,39.55796],[-122.6497,39.5579],[-122.64963,39.55789],[-122.64955,39.55796],[-122.6495,39.55805],[-122.64938,39.5582],[-122.64923,39.55839],[-122.6491,39.55855],[-122.64892,39.55866],[-122.64856,39.55887],[-122.64824,39.55902],[-122.64806,39.55907],[-122.64783,39.55911],[-122.64772,39.55916],[-122.64737,39.55936],[-122.64722,39.55944],[-122.64699,39.55953],[-122.64682,39.55961],[-122.64668,39.55963],[-122.64633,39.55958],[-122.64616,39.55956],[-122.64608,39.55956],[-122.646,39.55961],[-122.64583,39.5598],[-122.64581,39.55985],[-122.6458,39.55992],[-122.64581,39.56006],[-122.6458,39.56013],[-122.64577,39.56022],[-122.64564,39.56035],[-122.64535,39.56053],[-122.64519,39.56062],[-122.64498,39.56067],[-122.64464,39.56065],[-122.6445,39.56063],[-122.64432,39.56053],[-122.64422,39.56049],[-122.64412,39.56049],[-122.64403,39.56049],[-122.64381,39.56048],[-122.64342,39.56046],[-122.64322,39.56042],[-122.64314,39.56038],[-122.64304,39.56034],[-122.64296,39.56034],[-122.6429,39.56035],[-122.64285,39.56036]]}},{"type":"Feature","properties":{"name":"Sanhedrin Road","road_class":"unclassified","surface":"gravel","source":"Caltrans All Roads + OpenStreetMap explicit surface","source_detail":"osm way 34517332; Caltrans All Roads public-network geometry match","source_tile":"163/389","public_network_source":"Caltrans All Roads (ARNOLD/HPMS)","surface_source":"OpenStreetMap explicit surface tag","caltrans_match_coverage":1.0,"verified_length_m":6523},"geometry":{"type":"LineString","coordinates":[[-122.60841,39.6353],[-122.60845,39.63537],[-122.60849,39.63542],[-122.60852,39.63545],[-122.60857,39.63548],[-122.60863,39.63551],[-122.60871,39.63553],[-122.6088,39.63553],[-122.60886,39.63551],[-122.60897,39.63547],[-122.60913,39.6354],[-122.60919,39.63538],[-122.60926,39.63537],[-122.60934,39.63537],[-122.60945,39.63538],[-122.60956,39.63539],[-122.60966,39.6354],[-122.60986,39.6354],[-122.60995,39.6354],[-122.61003,39.63542],[-122.6101,39.63543],[-122.61014,39.63545],[-122.61017,39.63547],[-122.61019,39.63549],[-122.6102,39.63553],[-122.61019,39.63558],[-122.6101,39.63571],[-122.6101,39.63575],[-122.6101,39.63577],[-122.61013,39.63582],[-122.61018,39.63586],[-122.61024,39.63589],[-122.61039,39.63594],[-122.61043,39.63597],[-122.61045,39.636],[-122.61048,39.63606],[-122.61053,39.63624],[-122.61058,39.63636],[-122.61059,39.63641],[-122.61059,39.63647],[-122.61058,39.63649],[-122.61056,39.6365],[-122.61046,39.63653],[-122.61042,39.63656],[-122.61038,39.63659],[-122.61035,39.63662],[-122.61034,39.63665],[-122.61033,39.63668],[-122.61034,39.63676],[-122.61036,39.63681],[-122.61042,39.63689],[-122.61044,39.63693],[-122.61046,39.63698],[-122.61046,39.63704],[-122.61044,39.63713],[-122.61044,39.63717],[-122.61046,39.63725],[-122.61049,39.6373],[-122.61053,39.63735],[-122.61061,39.63743],[-122.61066,39.63747],[-122.61082,39.63757],[-122.61099,39.63766],[-122.61105,39.63769],[-122.61109,39.63772],[-122.6111,39.63775],[-122.6111,39.63779],[-122.6111,39.63783],[-122.61105,39.63787],[-122.61094,39.63798],[-122.61092,39.638],[-122.61091,39.63803],[-122.61091,39.63807],[-122.61092,39.63813],[-122.61094,39.63819],[-122.611,39.63825],[-122.61112,39.63835],[-122.61116,39.63841],[-122.61118,39.63844],[-122.61119,39.63848],[-122.61118,39.63852],[-122.6111,39.63867],[-122.61106,39.6388],[-122.61104,39.63884],[-122.61102,39.63887],[-122.61098,39.63888],[-122.61092,39.63888],[-122.61072,39.63891],[-122.61064,39.63893],[-122.61059,39.63897],[-122.61057,39.639],[-122.61054,39.63906],[-122.61049,39.63913],[-122.61046,39.63917],[-122.6104,39.63921],[-122.61031,39.63925],[-122.61025,39.63931],[-122.61024,39.63935],[-122.61022,39.6394],[-122.61022,39.63945],[-122.61023,39.63949],[-122.61025,39.63954],[-122.61037,39.63972],[-122.6105,39.63987],[-122.61071,39.64003],[-122.61074,39.64006],[-122.61078,39.64012],[-122.61084,39.64025],[-122.61087,39.64029],[-122.6109,39.64033],[-122.61103,39.64043],[-122.61118,39.64057],[-122.61128,39.64071],[-122.61131,39.64075],[-122.61136,39.64078],[-122.6115,39.64084],[-122.61163,39.64091],[-122.61183,39.64104],[-122.61189,39.64106],[-122.61195,39.64108],[-122.61199,39.64109],[-122.61206,39.64109],[-122.61212,39.64108],[-122.61217,39.64108],[-122.61236,39.641],[-122.61243,39.64098],[-122.61266,39.64097],[-122.61281,39.64098],[-122.61301,39.64097],[-122.61312,39.64095],[-122.61319,39.64094],[-122.61332,39.64092],[-122.61356,39.64091],[-122.61365,39.64094],[-122.61384,39.64102],[-122.61404,39.64113],[-122.6142,39.64124],[-122.61426,39.64128],[-122.61433,39.64131],[-122.6144,39.64133],[-122.61447,39.64133],[-122.61454,39.64131],[-122.61462,39.64128],[-122.61478,39.64123],[-122.61496,39.64112],[-122.61504,39.64105],[-122.61514,39.64094],[-122.61525,39.64081],[-122.61527,39.64077],[-122.6153,39.64074],[-122.61532,39.64073],[-122.61538,39.6407],[-122.61548,39.64071],[-122.61552,39.64072],[-122.61575,39.64082],[-122.61581,39.64085],[-122.61587,39.64087],[-122.61594,39.64088],[-122.61602,39.64087],[-122.61609,39.64086],[-122.61618,39.64083],[-122.61646,39.64074],[-122.61677,39.64059],[-122.6169,39.64051],[-122.61695,39.64048],[-122.617,39.64047],[-122.61734,39.64044],[-122.61745,39.64044],[-122.61751,39.64043],[-122.61757,39.64042],[-122.61767,39.64039],[-122.61774,39.64036],[-122.61781,39.64029],[-122.61785,39.64023],[-122.61794,39.64006],[-122.61797,39.63998],[-122.61801,39.63994],[-122.61805,39.63991],[-122.61813,39.63988],[-122.61826,39.6399],[-122.61833,39.63991],[-122.61839,39.63988],[-122.61845,39.63987],[-122.61851,39.63985],[-122.61864,39.63983],[-122.61869,39.63983],[-122.61874,39.63984],[-122.61899,39.63994],[-122.61925,39.64004],[-122.6193,39.64006],[-122.61938,39.64007],[-122.61944,39.64006],[-122.61957,39.64004],[-122.61978,39.64],[-122.61992,39.63999],[-122.62007,39.64],[-122.62019,39.64001],[-122.6203,39.64003],[-122.6204,39.64001],[-122.62046,39.64001],[-122.62056,39.63995],[-122.62066,39.63989],[-122.62084,39.63976],[-122.6211,39.63967],[-122.62119,39.63961],[-122.62123,39.63958],[-122.62128,39.63953],[-122.62133,39.63946],[-122.62136,39.63942],[-122.62139,39.63936],[-122.62142,39.63934],[-122.62145,39.63932],[-122.6215,39.63931],[-122.62165,39.63932],[-122.62175,39.63933],[-122.62188,39.6393],[-122.622,39.63925],[-122.62217,39.63915],[-122.6222,39.63914],[-122.62226,39.63913],[-122.62233,39.63915],[-122.62246,39.63927],[-122.62257,39.63935],[-122.62264,39.63938],[-122.6227,39.63941],[-122.62278,39.63942],[-122.62286,39.63942],[-122.62303,39.63938],[-122.62313,39.63937],[-122.62321,39.63933],[-122.6233,39.63929],[-122.62336,39.63924],[-122.6234,39.63918],[-122.62352,39.63895],[-122.62356,39.63886],[-122.62366,39.63873],[-122.62381,39.63857],[-122.62384,39.63853],[-122.6239,39.6385],[-122.62395,39.63851],[-122.624,39.63853],[-122.62414,39.63865],[-122.6242,39.63869],[-122.62424,39.63871],[-122.62433,39.63874],[-122.62439,39.63875],[-122.62446,39.63874],[-122.62453,39.63871],[-122.62459,39.63867],[-122.62464,39.63864],[-122.62469,39.63861],[-122.62474,39.63858],[-122.62482,39.63857],[-122.62498,39.63858],[-122.62505,39.63857],[-122.62512,39.63857],[-122.62517,39.63854],[-122.6252,39.63851],[-122.62524,39.63842],[-122.62528,39.63836],[-122.62534,39.63827],[-122.62544,39.63818],[-122.62548,39.63811],[-122.62549,39.63803],[-122.62553,39.63793],[-122.62554,39.63791],[-122.62557,39.63789],[-122.62562,39.63787],[-122.62569,39.63788],[-122.62594,39.63794],[-122.62603,39.63797],[-122.62611,39.63799],[-122.62618,39.63796],[-122.62624,39.63793],[-122.6263,39.6379],[-122.62643,39.63778],[-122.62668,39.63753],[-122.62674,39.63747],[-122.62678,39.63745],[-122.62684,39.63747],[-122.62696,39.63752],[-122.62702,39.63754],[-122.6271,39.63755],[-122.62716,39.63755],[-122.62724,39.63753],[-122.62729,39.63752],[-122.62736,39.6375],[-122.62744,39.63749],[-122.62753,39.6375],[-122.62757,39.63752],[-122.6276,39.63757],[-122.62762,39.63762],[-122.62761,39.63768],[-122.62762,39.63774],[-122.62768,39.63778],[-122.62777,39.63784],[-122.62803,39.63794],[-122.62811,39.63796],[-122.62818,39.63798],[-122.62839,39.638],[-122.62852,39.63799],[-122.62887,39.63789],[-122.62923,39.63773],[-122.62949,39.63758],[-122.6296,39.63748],[-122.62965,39.63742],[-122.62969,39.63736],[-122.62972,39.63729],[-122.62972,39.63722],[-122.62973,39.63714],[-122.62974,39.63709],[-122.62975,39.63705],[-122.62978,39.63701],[-122.62983,39.63697],[-122.62987,39.63694],[-122.62992,39.63692],[-122.62998,39.6369],[-122.63005,39.63689],[-122.63011,39.63686],[-122.63016,39.63684],[-122.6302,39.6368],[-122.63024,39.63677],[-122.63029,39.63669],[-122.63037,39.63658],[-122.63041,39.63655],[-122.63047,39.63653],[-122.63053,39.63652],[-122.63059,39.63652],[-122.63065,39.63653],[-122.63069,39.63655],[-122.63074,39.63657],[-122.6308,39.63659],[-122.63084,39.63664],[-122.6309,39.63671],[-122.631,39.63688],[-122.63105,39.63693],[-122.63109,39.63698],[-122.63113,39.637],[-122.63118,39.63703],[-122.63125,39.63705],[-122.6313,39.63705],[-122.63137,39.63704],[-122.63143,39.63702],[-122.63158,39.63686],[-122.63164,39.63684],[-122.6317,39.63684],[-122.63179,39.63687],[-122.63185,39.63688],[-122.63193,39.63688],[-122.63212,39.63683],[-122.63223,39.63679],[-122.63228,39.63679],[-122.63234,39.63679],[-122.63238,39.63682],[-122.63241,39.63686],[-122.63243,39.63688],[-122.63251,39.63696],[-122.63259,39.63703],[-122.63265,39.63706],[-122.63273,39.63711],[-122.63281,39.63713],[-122.63294,39.63716],[-122.6331,39.63718],[-122.63325,39.63721],[-122.63335,39.63721],[-122.63345,39.6372],[-122.63351,39.63719],[-122.63359,39.63716],[-122.63365,39.63713],[-122.63368,39.63709],[-122.63376,39.63697],[-122.63382,39.63691],[-122.63419,39.63665],[-122.63425,39.63661],[-122.63429,39.63658],[-122.63433,39.63658],[-122.63438,39.63659],[-122.63444,39.63662],[-122.63451,39.6367],[-122.6346,39.63673],[-122.63469,39.63676],[-122.63493,39.63678],[-122.63508,39.63679],[-122.63515,39.63679],[-122.63523,39.63678],[-122.6353,39.63675],[-122.63535,39.63671],[-122.63538,39.63666],[-122.6354,39.63657],[-122.63539,39.63651],[-122.63542,39.63637],[-122.63545,39.63633],[-122.63549,39.63632],[-122.63553,39.63632],[-122.63558,39.63632],[-122.63563,39.63635],[-122.63571,39.63641],[-122.6358,39.6365],[-122.63593,39.63658],[-122.63599,39.6366],[-122.63606,39.63662],[-122.63612,39.63661],[-122.63616,39.6366],[-122.63622,39.63657],[-122.63624,39.63653],[-122.63627,39.63642],[-122.63629,39.63637],[-122.63631,39.63632],[-122.63636,39.63628],[-122.63641,39.63626],[-122.63653,39.63625],[-122.6366,39.63624],[-122.63668,39.63624],[-122.63679,39.63622],[-122.63685,39.63619],[-122.63693,39.63615],[-122.637,39.63614],[-122.63705,39.63615],[-122.63711,39.63617],[-122.63717,39.63621],[-122.63734,39.6363],[-122.63744,39.63632],[-122.63749,39.63633],[-122.6376,39.63633],[-122.63801,39.63633],[-122.63813,39.63635],[-122.63842,39.63641],[-122.63866,39.63646],[-122.6388,39.63647],[-122.6389,39.63647],[-122.63899,39.63646],[-122.63914,39.63644],[-122.63928,39.63639],[-122.63942,39.63634],[-122.63947,39.63634],[-122.63953,39.63634],[-122.63984,39.63645],[-122.64001,39.63648],[-122.64016,39.63648],[-122.6403,39.63649],[-122.64049,39.63648],[-122.6406,39.63646],[-122.64073,39.63642],[-122.64082,39.63638],[-122.64093,39.63631],[-122.64111,39.63617],[-122.64142,39.636],[-122.64148,39.63598],[-122.64155,39.63597],[-122.6416,39.63597],[-122.64167,39.636],[-122.6419,39.63612],[-122.6421,39.63622],[-122.64216,39.63627],[-122.64221,39.6363],[-122.64229,39.63636],[-122.64239,39.63641],[-122.64251,39.63645],[-122.64267,39.63649],[-122.64275,39.63651],[-122.64285,39.63651],[-122.64298,39.63647],[-122.6431,39.63647],[-122.64326,39.6365],[-122.64353,39.63655],[-122.64395,39.63662],[-122.64411,39.63665],[-122.64426,39.63666],[-122.6444,39.63664],[-122.64458,39.63662],[-122.64477,39.6366],[-122.6449,39.63659],[-122.64502,39.63659],[-122.64512,39.63658],[-122.64522,39.63656],[-122.6454,39.63647],[-122.64547,39.63644],[-122.64551,39.63643],[-122.64557,39.63642],[-122.64561,39.63644],[-122.6458,39.63653],[-122.64594,39.63658],[-122.64601,39.63659],[-122.64609,39.6366],[-122.64619,39.63659],[-122.64629,39.63656],[-122.64643,39.63649],[-122.64654,39.63643],[-122.64659,39.63642],[-122.64661,39.63642],[-122.64664,39.63643],[-122.64668,39.63645],[-122.64674,39.6365],[-122.64682,39.63661],[-122.64689,39.6367],[-122.64692,39.63673],[-122.64695,39.63675],[-122.64701,39.63678],[-122.64708,39.6368],[-122.64724,39.63683],[-122.64744,39.63683],[-122.64773,39.6368],[-122.64797,39.63677],[-122.64815,39.63676],[-122.64835,39.63678],[-122.64841,39.63679],[-122.64848,39.63677],[-122.64853,39.63674],[-122.6486,39.63662],[-122.64863,39.63658],[-122.64866,39.63655],[-122.64869,39.63654],[-122.64874,39.63655],[-122.64878,39.63656],[-122.64884,39.6366],[-122.64889,39.63665],[-122.64892,39.63669],[-122.64901,39.6368],[-122.64909,39.63692],[-122.64914,39.63698],[-122.64919,39.63704],[-122.64925,39.63708],[-122.64932,39.6371],[-122.64938,39.63711],[-122.64943,39.63711],[-122.64949,39.63711],[-122.64956,39.6371],[-122.64962,39.63707],[-122.64968,39.63704],[-122.64974,39.63697],[-122.64978,39.63692],[-122.64982,39.63686],[-122.64998,39.63673],[-122.65015,39.63662],[-122.6502,39.63659],[-122.65025,39.63659],[-122.65029,39.63662],[-122.65032,39.63668],[-122.65033,39.63677],[-122.65034,39.6369],[-122.65035,39.63693],[-122.65037,39.63696],[-122.6504,39.63699],[-122.65049,39.63705],[-122.65064,39.63715],[-122.65077,39.63723],[-122.65091,39.63728],[-122.65103,39.63732],[-122.65114,39.63733],[-122.65122,39.63733],[-122.65132,39.63732],[-122.65146,39.63729],[-122.6516,39.63723],[-122.6518,39.63712],[-122.65192,39.63704],[-122.65198,39.63697],[-122.65204,39.63691],[-122.65206,39.63682],[-122.65209,39.63666],[-122.65212,39.6366],[-122.65215,39.63653],[-122.65218,39.63651],[-122.65222,39.6365],[-122.65227,39.6365],[-122.6523,39.6365],[-122.65235,39.63653],[-122.65248,39.63662],[-122.65259,39.63669],[-122.65263,39.63672],[-122.6527,39.63674],[-122.6528,39.63676],[-122.6529,39.63675],[-122.653,39.63671],[-122.65314,39.63666],[-122.65324,39.63662],[-122.65331,39.63663],[-122.65339,39.63664],[-122.65343,39.63669],[-122.65344,39.63678],[-122.65346,39.6369],[-122.65349,39.63694],[-122.65351,39.63696],[-122.65357,39.63698],[-122.65375,39.63702],[-122.65386,39.63701],[-122.65394,39.63701],[-122.65405,39.63697],[-122.65421,39.63693],[-122.65435,39.63689],[-122.65448,39.63689],[-122.65462,39.63686],[-122.65469,39.63683],[-122.65475,39.6368],[-122.6549,39.63665],[-122.65514,39.63639],[-122.65518,39.63635],[-122.65522,39.63633],[-122.65526,39.63631],[-122.65531,39.63631],[-122.65537,39.63633],[-122.65539,39.63636],[-122.65541,39.63639],[-122.65543,39.63645],[-122.65544,39.63657],[-122.65545,39.63662],[-122.65546,39.63666],[-122.65548,39.6367],[-122.65552,39.63672],[-122.65556,39.63675],[-122.65561,39.63676],[-122.65567,39.63676],[-122.65579,39.63674],[-122.65598,39.6367],[-122.65608,39.63668],[-122.65626,39.63669],[-122.65641,39.63667],[-122.65658,39.63665],[-122.65665,39.63662],[-122.65673,39.63659],[-122.65678,39.63656],[-122.65681,39.63653],[-122.65686,39.63649],[-122.65688,39.63642],[-122.6569,39.63635],[-122.65693,39.63613],[-122.65695,39.63607],[-122.65699,39.63602],[-122.65703,39.636],[-122.65707,39.63597],[-122.65713,39.63596],[-122.65723,39.63596],[-122.6574,39.63596],[-122.65749,39.63598],[-122.65757,39.63601],[-122.65762,39.63604],[-122.65767,39.63606],[-122.65774,39.63608],[-122.65782,39.6361],[-122.65812,39.63614],[-122.65832,39.63613],[-122.65846,39.63613],[-122.65867,39.63611],[-122.65913,39.63603],[-122.65934,39.63602],[-122.65942,39.63602],[-122.65955,39.63599],[-122.65964,39.63596],[-122.65978,39.63589],[-122.6599,39.63582],[-122.66002,39.6357],[-122.66012,39.63558],[-122.66021,39.63551],[-122.66029,39.63544],[-122.66034,39.63541],[-122.66042,39.63539],[-122.66056,39.63538],[-122.66091,39.63535],[-122.66103,39.63533],[-122.66114,39.63529],[-122.6614,39.63515],[-122.66162,39.63504],[-122.66172,39.635],[-122.6618,39.63498],[-122.66192,39.63496],[-122.66199,39.63496],[-122.66207,39.63497],[-122.66233,39.63501],[-122.66239,39.63503],[-122.66245,39.63505],[-122.6625,39.63508],[-122.66257,39.6351],[-122.66265,39.6351],[-122.6629,39.63507],[-122.66313,39.63503],[-122.6633,39.63502],[-122.66341,39.63502],[-122.66353,39.63503],[-122.66366,39.63501],[-122.66381,39.63494],[-122.66387,39.63491],[-122.66393,39.6349],[-122.66399,39.63491],[-122.66412,39.63504],[-122.66421,39.63507],[-122.66431,39.63508]]}},{"type":"Feature","properties":{"name":"Ivory Mill Road","road_class":"unclassified","surface":"compacted","tracktype":"grade2","source":"Caltrans All Roads + OpenStreetMap explicit surface","source_detail":"osm way 10342608; Caltrans All Roads public-network geometry match","source_tile":"163/389","public_network_source":"Caltrans All Roads (ARNOLD/HPMS)","surface_source":"OpenStreetMap explicit surface tag","caltrans_match_coverage":1.0,"verified_length_m":4657},"geometry":{"type":"LineString","coordinates":[[-122.62155,39.57125],[-122.62164,39.57123],[-122.62173,39.57122],[-122.62194,39.57124],[-122.6221,39.57124],[-122.62238,39.57122],[-122.62265,39.57121],[-122.6232,39.57123],[-122.62331,39.57123],[-122.62356,39.57121],[-122.62399,39.57121],[-122.62412,39.57119],[-122.62431,39.57118],[-122.62448,39.57113],[-122.62458,39.57111],[-122.6247,39.57106],[-122.62479,39.57102],[-122.62487,39.57095],[-122.6251,39.57075],[-122.6253,39.57053],[-122.62541,39.57043],[-122.6256,39.57033],[-122.62601,39.57021],[-122.62608,39.57019],[-122.62622,39.57019],[-122.6263,39.57021],[-122.62677,39.57041],[-122.62692,39.57045],[-122.62708,39.57048],[-122.62727,39.57048],[-122.62741,39.57042],[-122.62772,39.57026],[-122.62787,39.5702],[-122.62801,39.57017],[-122.62816,39.57016],[-122.62852,39.57019],[-122.62942,39.57028],[-122.62966,39.57028],[-122.62988,39.57021],[-122.63011,39.57014],[-122.63034,39.57006],[-122.63093,39.56985],[-122.63125,39.56978],[-122.63169,39.56973],[-122.63181,39.56974],[-122.63197,39.56979],[-122.63225,39.56993],[-122.63266,39.57014],[-122.63282,39.57019],[-122.63295,39.57024],[-122.63309,39.57025],[-122.63326,39.57026],[-122.63353,39.57018],[-122.63378,39.5701],[-122.63398,39.57008],[-122.6344,39.57009],[-122.63481,39.57011],[-122.63504,39.5701],[-122.63522,39.57006],[-122.63536,39.57001],[-122.63549,39.56995],[-122.63563,39.56987],[-122.63581,39.56973],[-122.63647,39.56913],[-122.63659,39.56905],[-122.63666,39.56901],[-122.63679,39.56897],[-122.637,39.56894],[-122.63712,39.56894],[-122.63721,39.56896],[-122.63738,39.56902],[-122.63753,39.56907],[-122.63765,39.5691],[-122.63774,39.5691],[-122.63795,39.56911],[-122.63815,39.56912],[-122.63836,39.56912],[-122.63866,39.56925],[-122.63902,39.56937],[-122.6392,39.56941],[-122.63935,39.56941],[-122.63969,39.56938],[-122.6398,39.56936],[-122.64011,39.56939],[-122.64036,39.56946],[-122.64054,39.56952],[-122.64071,39.56958],[-122.64123,39.56954],[-122.64143,39.56956],[-122.64158,39.56957],[-122.64169,39.56962],[-122.64178,39.56968],[-122.64185,39.56976],[-122.64188,39.56982],[-122.64197,39.56989],[-122.64201,39.56992],[-122.64213,39.56998],[-122.64223,39.56997],[-122.64236,39.56996],[-122.64333,39.56974],[-122.64349,39.56972],[-122.64361,39.56972],[-122.64373,39.56972],[-122.64388,39.56976],[-122.64409,39.5698],[-122.6442,39.56983],[-122.64457,39.56979],[-122.64489,39.56969],[-122.64522,39.56962],[-122.64535,39.56963],[-122.64553,39.56965],[-122.64583,39.56969],[-122.64598,39.56973],[-122.64619,39.56975],[-122.64646,39.5698],[-122.64661,39.56981],[-122.64697,39.56979],[-122.64723,39.56974],[-122.64745,39.56969],[-122.64761,39.56969],[-122.6479,39.5698],[-122.64802,39.56982],[-122.64824,39.56981],[-122.64833,39.56979],[-122.64862,39.5697],[-122.6488,39.56961],[-122.64912,39.56955],[-122.64929,39.56952],[-122.64952,39.56949],[-122.64966,39.56948],[-122.64982,39.56941],[-122.65002,39.56932],[-122.65021,39.56926],[-122.65038,39.56927],[-122.65058,39.56932],[-122.65092,39.56942],[-122.65111,39.56947],[-122.65133,39.56954],[-122.65157,39.56959],[-122.65178,39.56964],[-122.65191,39.56967],[-122.65204,39.56968],[-122.65219,39.56966],[-122.65232,39.56963],[-122.65251,39.56954],[-122.6527,39.5694],[-122.65283,39.5693],[-122.65294,39.56922],[-122.65309,39.56913],[-122.65332,39.56911],[-122.6535,39.56913],[-122.65363,39.56919],[-122.65379,39.56931],[-122.65391,39.56942],[-122.65412,39.56954],[-122.6543,39.56958],[-122.65445,39.56958],[-122.65465,39.56956],[-122.65477,39.56951],[-122.65486,39.56947],[-122.65512,39.56934],[-122.65528,39.5693],[-122.65577,39.56925],[-122.65609,39.5693],[-122.6563,39.56931],[-122.65661,39.56935],[-122.65709,39.56937],[-122.65744,39.56935],[-122.65776,39.56932],[-122.65797,39.56932],[-122.65808,39.56932],[-122.65852,39.56927],[-122.65878,39.56931],[-122.65885,39.56933],[-122.65902,39.56937],[-122.65911,39.5694],[-122.65929,39.56945],[-122.65945,39.5695],[-122.65955,39.56952],[-122.65968,39.56953],[-122.65982,39.56952],[-122.66026,39.56948],[-122.66059,39.56946],[-122.66087,39.56941],[-122.66113,39.56933],[-122.66154,39.56922],[-122.66192,39.56911],[-122.66224,39.56904],[-122.66276,39.56892],[-122.66308,39.5688],[-122.66336,39.56869],[-122.66353,39.56869],[-122.66364,39.56874],[-122.66371,39.56884],[-122.66378,39.56902],[-122.66381,39.56917],[-122.66391,39.56933],[-122.66404,39.56942],[-122.66424,39.56954],[-122.66458,39.56967],[-122.66487,39.56975],[-122.66509,39.56985],[-122.6653,39.5699],[-122.66549,39.56996],[-122.66574,39.57004],[-122.66596,39.57012],[-122.66622,39.57016],[-122.66655,39.57028],[-122.66694,39.57035],[-122.66718,39.57042],[-122.66729,39.57045],[-122.66751,39.57049],[-122.66824,39.57066],[-122.66864,39.57083],[-122.66886,39.57088],[-122.66903,39.57095],[-122.66934,39.571],[-122.66974,39.57112],[-122.67005,39.57126],[-122.67051,39.5714],[-122.67062,39.57143],[-122.67092,39.57147],[-122.67141,39.57144]]}},{"type":"Feature","properties":{"name":"(unnamed public road)","road_class":"unclassified","surface":"unpaved","source":"Caltrans All Roads + OpenStreetMap explicit surface","source_detail":"osm way 10347529; Caltrans All Roads public-network geometry match","source_tile":"163/389","public_network_source":"Caltrans All Roads (ARNOLD/HPMS)","surface_source":"OpenStreetMap explicit surface tag","caltrans_match_coverage":1.0,"verified_length_m":763},"geometry":{"type":"LineString","coordinates":[[-122.51039,39.48486],[-122.51033,39.48452],[-122.51018,39.48381],[-122.5099,39.48285],[-122.50982,39.48264],[-122.50978,39.48256],[-122.50963,39.48233],[-122.50868,39.48099],[-122.50853,39.48082],[-122.50822,39.48047],[-122.50784,39.48009],[-122.50753,39.47979],[-122.50741,39.47966],[-122.50715,39.47942],[-122.5071,39.47936],[-122.50695,39.47924],[-122.50674,39.47904],[-122.50667,39.47899],[-122.50662,39.47896],[-122.50657,39.47891],[-122.5065,39.4789],[-122.50643,39.4789]]}},{"type":"Feature","properties":{"name":"(unnamed public road)","road_class":"track","surface":"dirt","source":"Caltrans All Roads + OpenStreetMap explicit surface","source_detail":"osm way 10351593; Caltrans All Roads public-network geometry match","source_tile":"163/389","public_network_source":"Caltrans All Roads (ARNOLD/HPMS)","surface_source":"OpenStreetMap explicit surface tag","caltrans_match_coverage":1.0,"verified_length_m":1221},"geometry":{"type":"LineString","coordinates":[[-122.38429,39.63108],[-122.38446,39.63096],[-122.38464,39.63089],[-122.38488,39.63083],[-122.38547,39.6306],[-122.38638,39.6303],[-122.38685,39.63015],[-122.38712,39.63006],[-122.38745,39.62994],[-122.38757,39.62989],[-122.38767,39.62983],[-122.38788,39.62972],[-122.38827,39.62949],[-122.38843,39.62941],[-122.38852,39.62938],[-122.38859,39.62935],[-122.38873,39.62932],[-122.389,39.62928],[-122.38938,39.62924],[-122.38944,39.62923],[-122.38959,39.62922],[-122.38969,39.6292],[-122.3898,39.62917],[-122.38988,39.62914],[-122.39016,39.62902],[-122.39033,39.62894],[-122.39044,39.62889],[-122.39052,39.62884],[-122.39061,39.62877],[-122.39068,39.6287],[-122.39073,39.62863],[-122.39077,39.62856],[-122.39081,39.62848],[-122.39085,39.62841],[-122.3909,39.62832],[-122.39097,39.62822],[-122.39108,39.62813],[-122.39122,39.62802],[-122.39142,39.62789],[-122.39159,39.62774],[-122.39173,39.62759],[-122.39185,39.62744],[-122.39189,39.62736],[-122.39189,39.62731],[-122.39189,39.62727],[-122.39187,39.62708],[-122.39187,39.62699],[-122.39189,39.6269],[-122.39193,39.62681],[-122.39199,39.62672],[-122.39207,39.62665],[-122.39217,39.62657],[-122.39229,39.62649],[-122.39245,39.62642],[-122.39259,39.62636],[-122.39275,39.62631],[-122.3929,39.62628],[-122.39305,39.62625],[-122.39332,39.62621],[-122.39354,39.62619],[-122.39426,39.62616],[-122.39465,39.62617],[-122.3949,39.62618],[-122.39494,39.62618],[-122.39498,39.62616],[-122.39525,39.62596],[-122.39542,39.62582],[-122.3956,39.62569]]}},{"type":"Feature","properties":{"name":"Road 308","road_class":"track","surface":"compacted","tracktype":"grade2","source":"Caltrans All Roads + OpenStreetMap explicit surface","source_detail":"osm way 10354140; Caltrans All Roads public-network geometry match","source_tile":"163/389","public_network_source":"Caltrans All Roads (ARNOLD/HPMS)","surface_source":"OpenStreetMap explicit surface tag","caltrans_match_coverage":1.0,"verified_length_m":832},"geometry":{"type":"LineString","coordinates":[[-122.64285,39.56036],[-122.64283,39.56041],[-122.64285,39.56046],[-122.64291,39.56053],[-122.64305,39.5606],[-122.64336,39.56071],[-122.64345,39.56075],[-122.64351,39.56081],[-122.64358,39.56088],[-122.64363,39.56095],[-122.64367,39.56106],[-122.64365,39.56114],[-122.64361,39.56121],[-122.64355,39.56127],[-122.64346,39.56134],[-122.64298,39.56154],[-122.64269,39.56165],[-122.64245,39.5617],[-122.64227,39.56171],[-122.64197,39.56166],[-122.64176,39.56166],[-122.64162,39.56164],[-122.64154,39.5616],[-122.64151,39.56156],[-122.64149,39.56152],[-122.64148,39.56148],[-122.64148,39.56143],[-122.64149,39.56132],[-122.6415,39.56126],[-122.64151,39.56123],[-122.6415,39.56117],[-122.64146,39.56113],[-122.64137,39.56108],[-122.64121,39.56105],[-122.6411,39.56104],[-122.64098,39.56103],[-122.64088,39.561],[-122.6408,39.56098],[-122.64073,39.56094],[-122.64058,39.56086],[-122.64045,39.56083],[-122.64032,39.56084],[-122.6401,39.56086],[-122.64,39.56086],[-122.6399,39.56084],[-122.63975,39.56078],[-122.63965,39.56072],[-122.63949,39.5606],[-122.6394,39.56053],[-122.63924,39.56036],[-122.63917,39.56033],[-122.6391,39.56031],[-122.63901,39.56032],[-122.63887,39.56032],[-122.63881,39.56033],[-122.63873,39.56034],[-122.63869,39.56036],[-122.63865,39.5604],[-122.63862,39.56049],[-122.63861,39.56059],[-122.63861,39.56067],[-122.63864,39.56078],[-122.63868,39.56086],[-122.63878,39.56099],[-122.63885,39.56106],[-122.6389,39.56111],[-122.63899,39.56119],[-122.63916,39.56136],[-122.63928,39.56147],[-122.63953,39.56167],[-122.63957,39.56173]]}},{"type":"Feature","properties":{"name":"Saint John Road","road_class":"track","surface":"unpaved","motor_vehicle":"yes","source":"Caltrans All Roads + OpenStreetMap explicit surface","source_detail":"osm way 10354499; Caltrans All Roads public-network geometry match","source_tile":"163/389","public_network_source":"Caltrans All Roads (ARNOLD/HPMS)","surface_source":"OpenStreetMap explicit surface tag","caltrans_match_coverage":1.0,"verified_length_m":1691},"geometry":{"type":"LineString","coordinates":[[-122.65137,39.38095],[-122.65148,39.38095],[-122.65156,39.38097],[-122.6517,39.38103],[-122.6522,39.38125],[-122.65235,39.38135],[-122.65246,39.38142],[-122.65255,39.38153],[-122.65262,39.3816],[-122.65268,39.38169],[-122.65269,39.38177],[-122.6527,39.38188],[-122.65272,39.38208],[-122.65275,39.38217],[-122.65277,39.38223],[-122.65282,39.3823],[-122.65294,39.38239],[-122.65301,39.38248],[-122.65301,39.3827],[-122.65304,39.38275],[-122.65308,39.38279],[-122.65315,39.38281],[-122.65326,39.3828],[-122.65333,39.38278],[-122.65338,39.38273],[-122.65341,39.38264],[-122.6534,39.3826],[-122.65337,39.38251],[-122.65328,39.38234],[-122.65329,39.38228],[-122.65329,39.38224],[-122.65333,39.38218],[-122.65358,39.38191],[-122.65363,39.3818],[-122.65365,39.38173],[-122.65364,39.38164],[-122.65363,39.38154],[-122.65354,39.38126],[-122.6535,39.38118],[-122.65348,39.3811],[-122.65348,39.38099],[-122.65345,39.38089],[-122.6534,39.38083],[-122.65332,39.38077],[-122.6532,39.38063],[-122.65316,39.38057],[-122.65315,39.38052],[-122.65316,39.38049],[-122.65317,39.38047],[-122.65322,39.38044],[-122.65328,39.38043],[-122.65335,39.38043],[-122.65341,39.38046],[-122.65354,39.38058],[-122.65371,39.38074],[-122.65385,39.38088],[-122.65398,39.38109],[-122.65408,39.38121],[-122.65424,39.38129],[-122.65427,39.38132],[-122.65433,39.38137],[-122.65436,39.38145],[-122.65437,39.38155],[-122.65437,39.3818],[-122.65437,39.38192],[-122.65441,39.38205],[-122.65444,39.38213],[-122.6545,39.38221],[-122.65467,39.38242],[-122.65533,39.38291],[-122.65556,39.38319],[-122.65566,39.3833],[-122.65587,39.38349],[-122.65596,39.38354],[-122.65615,39.38366],[-122.65625,39.38374],[-122.65636,39.38381],[-122.65646,39.38386],[-122.65662,39.38392],[-122.65679,39.38399],[-122.65707,39.3841],[-122.65769,39.3844],[-122.65784,39.38452],[-122.65797,39.38464],[-122.65805,39.38472],[-122.65809,39.38474],[-122.65816,39.38476],[-122.65824,39.38476],[-122.65837,39.38474],[-122.65849,39.38471],[-122.6586,39.38471],[-122.65872,39.38478],[-122.65875,39.38485],[-122.65888,39.3851],[-122.65901,39.3853],[-122.65908,39.3854],[-122.65924,39.38558],[-122.65928,39.38566],[-122.65932,39.38579],[-122.65935,39.386],[-122.65936,39.38614],[-122.65935,39.3863],[-122.65933,39.38641],[-122.65932,39.38655],[-122.65933,39.38661],[-122.65936,39.38666],[-122.65939,39.38672],[-122.65943,39.38677],[-122.65948,39.38682],[-122.65953,39.38685],[-122.65973,39.38696],[-122.65982,39.38703],[-122.6599,39.3871],[-122.66009,39.38723],[-122.66022,39.3873],[-122.66033,39.38734],[-122.6604,39.38739],[-122.66044,39.38743],[-122.66047,39.38748],[-122.66049,39.38756],[-122.66048,39.38763],[-122.66042,39.38774]]}},{"type":"Feature","properties":{"name":"County Road 401","road_class":"unclassified","surface":"unpaved","source":"Caltrans All Roads + OpenStreetMap explicit surface","source_detail":"osm way 10355305; Caltrans All Roads public-network geometry match","source_tile":"163/389","public_network_source":"Caltrans All Roads (ARNOLD/HPMS)","surface_source":"OpenStreetMap explicit surface tag","caltrans_match_coverage":1.0,"verified_length_m":7902},"geometry":{"type":"LineString","coordinates":[[-122.4691,39.38383],[-122.46904,39.38405],[-122.46895,39.38432],[-122.46887,39.38453],[-122.46886,39.38465],[-122.46887,39.38502],[-122.46887,39.38515],[-122.46884,39.38537],[-122.46882,39.38549],[-122.4688,39.38565],[-122.4688,39.38584],[-122.46883,39.38598],[-122.46886,39.38605],[-122.46889,39.38613],[-122.46892,39.38622],[-122.46895,39.38678],[-122.46903,39.38726],[-122.46908,39.38747],[-122.46913,39.3877],[-122.46923,39.38808],[-122.46928,39.38831],[-122.4693,39.38855],[-122.46934,39.3887],[-122.46944,39.38899],[-122.46954,39.38922],[-122.46957,39.38933],[-122.46958,39.38939],[-122.46959,39.3895],[-122.46959,39.38961],[-122.46957,39.38974],[-122.46951,39.38986],[-122.46935,39.39014],[-122.46921,39.39035],[-122.46915,39.39048],[-122.46913,39.39059],[-122.46913,39.3907],[-122.46913,39.39074],[-122.46923,39.3911],[-122.4693,39.39132],[-122.46935,39.39142],[-122.46945,39.39155],[-122.46947,39.39158],[-122.46952,39.39169],[-122.46962,39.39191],[-122.4698,39.39247],[-122.46985,39.39263],[-122.47002,39.39308],[-122.47003,39.39313],[-122.47004,39.39319],[-122.47005,39.39325],[-122.47007,39.39336],[-122.4701,39.39342],[-122.47017,39.39358],[-122.4702,39.39361],[-122.47026,39.39369],[-122.47032,39.39374],[-122.4704,39.3938],[-122.47045,39.39382],[-122.47075,39.39391],[-122.47081,39.39393],[-122.47088,39.39396],[-122.47096,39.39402],[-122.47103,39.39408],[-122.47117,39.39428],[-122.47121,39.39432],[-122.47139,39.39449],[-122.47156,39.39462],[-122.47178,39.39473],[-122.47183,39.39476],[-122.47187,39.39479],[-122.47195,39.39486],[-122.47209,39.39502],[-122.47229,39.39517],[-122.47255,39.39533],[-122.47259,39.39537],[-122.47266,39.39544],[-122.4727,39.39551],[-122.47282,39.39578],[-122.47288,39.39596],[-122.47291,39.39611],[-122.47294,39.39616],[-122.47299,39.39623],[-122.47305,39.39629],[-122.47313,39.39636],[-122.47336,39.3965],[-122.47353,39.39661],[-122.47359,39.39666],[-122.47365,39.39674],[-122.47368,39.39679],[-122.47372,39.39684],[-122.47385,39.39696],[-122.47401,39.3971],[-122.47425,39.39732],[-122.47454,39.39756],[-122.47489,39.39787],[-122.47502,39.39796],[-122.4752,39.39808],[-122.47526,39.39811],[-122.47536,39.39815],[-122.47545,39.39816],[-122.47548,39.39816],[-122.4756,39.39816],[-122.47575,39.39813],[-122.47622,39.39801],[-122.47672,39.39785],[-122.47703,39.39778],[-122.47718,39.39775],[-122.47735,39.39773],[-122.47779,39.39768],[-122.47813,39.39766],[-122.47822,39.39765],[-122.47842,39.3976],[-122.47852,39.39758],[-122.47867,39.39756],[-122.47896,39.39754],[-122.47913,39.39754],[-122.47926,39.39755],[-122.47938,39.39758],[-122.47942,39.39761],[-122.47951,39.39763],[-122.47979,39.39769],[-122.47993,39.39771],[-122.48,39.39772],[-122.4801,39.39771],[-122.48016,39.3977],[-122.48035,39.39765],[-122.48045,39.39761],[-122.48063,39.39754],[-122.48083,39.39747],[-122.48093,39.39745],[-122.48104,39.39743],[-122.48115,39.39742],[-122.48173,39.39742],[-122.48183,39.39742],[-122.48194,39.39741],[-122.4821,39.39741],[-122.48216,39.39742],[-122.48224,39.39744],[-122.48231,39.39747],[-122.48253,39.39759],[-122.48273,39.39768],[-122.48286,39.39772],[-122.48299,39.39775],[-122.48336,39.39782],[-122.48356,39.39787],[-122.48381,39.39799],[-122.48393,39.39804],[-122.48407,39.39807],[-122.48425,39.39809],[-122.48432,39.39811],[-122.4844,39.39813],[-122.48448,39.39816],[-122.48501,39.3984],[-122.48529,39.39854],[-122.48555,39.39867],[-122.4857,39.39875],[-122.4858,39.39879],[-122.4859,39.39883],[-122.48608,39.39887],[-122.48616,39.3989],[-122.4863,39.39895],[-122.48636,39.39897],[-122.48675,39.39908],[-122.48694,39.39912],[-122.48708,39.39914],[-122.48714,39.39914],[-122.4872,39.39914],[-122.48728,39.39913],[-122.48764,39.39904],[-122.48773,39.39903],[-122.48805,39.39901],[-122.48826,39.39899],[-122.48859,39.39892],[-122.48869,39.39891],[-122.48878,39.3989],[-122.48939,39.39888],[-122.48968,39.39888],[-122.49026,39.39886],[-122.49041,39.39887],[-122.49049,39.39889],[-122.49052,39.3989],[-122.49056,39.39893],[-122.49059,39.39895],[-122.49068,39.39905],[-122.49076,39.39915],[-122.49085,39.39923],[-122.4909,39.39934],[-122.49097,39.39945],[-122.49102,39.3995],[-122.49125,39.39974],[-122.49136,39.39986],[-122.49147,39.39997],[-122.49179,39.40027],[-122.49184,39.40034],[-122.49192,39.40044],[-122.49195,39.40049],[-122.49197,39.40056],[-122.492,39.40069],[-122.49201,39.40082],[-122.49201,39.40089],[-122.49197,39.40104],[-122.49187,39.40138],[-122.49183,39.40151],[-122.49178,39.40187],[-122.49173,39.40231],[-122.49173,39.40236],[-122.49174,39.40245],[-122.49178,39.40259],[-122.49186,39.40282],[-122.49203,39.40338],[-122.49208,39.40349],[-122.49217,39.40368],[-122.4922,39.40378],[-122.49227,39.40431],[-122.49227,39.40457],[-122.49227,39.40464],[-122.4923,39.40479],[-122.49234,39.40494],[-122.49239,39.40538],[-122.49241,39.4055],[-122.49245,39.40562],[-122.49248,39.40578],[-122.49252,39.40593],[-122.49259,39.40614],[-122.49263,39.40623],[-122.49274,39.40644],[-122.49278,39.40655],[-122.49282,39.40673],[-122.49283,39.40686],[-122.49286,39.40736],[-122.49285,39.40774],[-122.4928,39.40862],[-122.49278,39.40934],[-122.49276,39.41063],[-122.49277,39.41107],[-122.49277,39.41129],[-122.49279,39.41152],[-122.49283,39.41189],[-122.49284,39.41215],[-122.49284,39.41246],[-122.49286,39.41259],[-122.49287,39.41266],[-122.49291,39.41279],[-122.49296,39.41288],[-122.49302,39.41296],[-122.49309,39.41304],[-122.4932,39.4132],[-122.49329,39.41336],[-122.49334,39.41352],[-122.49338,39.41367],[-122.49343,39.41382],[-122.49347,39.41398],[-122.49349,39.41404],[-122.49351,39.41424],[-122.49352,39.41433],[-122.49355,39.41439],[-122.49374,39.41461],[-122.49379,39.41468],[-122.49381,39.41474],[-122.49384,39.41481],[-122.49386,39.41495],[-122.49388,39.41501],[-122.49393,39.41511],[-122.49409,39.41535],[-122.49423,39.41553],[-122.49432,39.41566],[-122.49441,39.41582],[-122.49443,39.41586],[-122.49462,39.41602],[-122.4947,39.41608],[-122.49487,39.41624],[-122.49492,39.4163],[-122.49496,39.41637],[-122.49502,39.41653],[-122.49509,39.41673],[-122.4951,39.41683],[-122.4951,39.41691],[-122.4951,39.41694],[-122.49512,39.41697],[-122.49524,39.41715],[-122.49534,39.41727],[-122.49555,39.41751],[-122.49568,39.41771],[-122.49576,39.4178],[-122.49585,39.41788],[-122.49588,39.41792],[-122.4959,39.41797],[-122.4961,39.41854],[-122.4962,39.41886],[-122.49628,39.41903],[-122.49639,39.41921],[-122.49645,39.41927],[-122.49653,39.41936],[-122.4969,39.41979],[-122.497,39.41989],[-122.49714,39.42006],[-122.49726,39.42015],[-122.49731,39.42018],[-122.49739,39.42023],[-122.49752,39.42028],[-122.49763,39.42032],[-122.49775,39.42035],[-122.49798,39.42039],[-122.49812,39.42039],[-122.49899,39.4204],[-122.49953,39.4204],[-122.50017,39.42041],[-122.50108,39.42042],[-122.50163,39.42039],[-122.50191,39.42039],[-122.5021,39.42039],[-122.50217,39.4204],[-122.50248,39.42041],[-122.50253,39.42041],[-122.5026,39.42044],[-122.50263,39.42046],[-122.50265,39.42048],[-122.50267,39.42051],[-122.50268,39.42058],[-122.50269,39.42082],[-122.5027,39.42158],[-122.50271,39.42203],[-122.50272,39.42329],[-122.50275,39.42442],[-122.50274,39.42542],[-122.50276,39.42642],[-122.50273,39.42726],[-122.50274,39.42763],[-122.50277,39.42782],[-122.50281,39.42797],[-122.50286,39.42811],[-122.50291,39.42821],[-122.50294,39.42825],[-122.50298,39.42829],[-122.50302,39.42832],[-122.50307,39.42835],[-122.50312,39.42838],[-122.50339,39.42847],[-122.50361,39.42853],[-122.50383,39.42857],[-122.50405,39.4286],[-122.50445,39.42863],[-122.50454,39.42865],[-122.50463,39.42867],[-122.50476,39.42872],[-122.50492,39.4288],[-122.50496,39.42883],[-122.50504,39.42892],[-122.50508,39.429],[-122.50511,39.42907],[-122.50514,39.42917],[-122.50517,39.4293],[-122.50517,39.4294],[-122.50516,39.42949],[-122.50515,39.42957],[-122.50508,39.42976],[-122.50504,39.42983],[-122.50499,39.42991],[-122.50493,39.42998],[-122.50487,39.43004],[-122.50471,39.43016],[-122.50466,39.43021],[-122.50454,39.43033],[-122.50445,39.43048],[-122.50418,39.43082],[-122.50396,39.43109],[-122.50373,39.43138],[-122.50357,39.4316],[-122.50352,39.43166],[-122.50346,39.43171],[-122.50337,39.43178],[-122.50333,39.43182],[-122.50326,39.43195],[-122.50317,39.43209],[-122.50315,39.43215],[-122.50311,39.43225],[-122.50307,39.43243],[-122.50303,39.43272],[-122.50299,39.43295],[-122.50286,39.43348],[-122.50276,39.43376],[-122.5027,39.43388],[-122.50266,39.43408],[-122.50263,39.43418],[-122.50261,39.43426],[-122.50257,39.43435],[-122.50252,39.43443],[-122.5025,39.43449],[-122.50249,39.43454],[-122.5025,39.43462]]}},{"type":"Feature","properties":{"name":"Road 310","road_class":"unclassified","surface":"dirt","source":"Caltrans All Roads + OpenStreetMap explicit surface","source_detail":"osm way 10356599; Caltrans All Roads public-network geometry match","source_tile":"163/389","public_network_source":"Caltrans All Roads (ARNOLD/HPMS)","surface_source":"OpenStreetMap explicit surface tag","caltrans_match_coverage":1.0,"verified_length_m":991},"geometry":{"type":"LineString","coordinates":[[-122.68662,39.63711],[-122.68678,39.63698],[-122.68687,39.63687],[-122.68704,39.63654],[-122.68719,39.63643],[-122.68723,39.63627],[-122.68721,39.63613],[-122.68723,39.63581],[-122.68731,39.63546],[-122.68736,39.63541],[-122.68745,39.63538],[-122.68767,39.63542],[-122.68801,39.6354],[-122.68831,39.63524],[-122.68862,39.63513],[-122.68873,39.63499],[-122.68871,39.63482],[-122.68871,39.63465],[-122.68885,39.63459],[-122.68903,39.63453],[-122.68916,39.63439],[-122.68919,39.63433],[-122.6892,39.63422],[-122.68924,39.63413],[-122.68941,39.63406],[-122.68982,39.63366],[-122.69,39.63351],[-122.69023,39.63344],[-122.69044,39.63324],[-122.6907,39.63312],[-122.69083,39.6331],[-122.69104,39.63308],[-122.69122,39.63304],[-122.6914,39.63297],[-122.69162,39.63294],[-122.69204,39.63275],[-122.69207,39.63271],[-122.69206,39.63265],[-122.69199,39.6326],[-122.6918,39.63251],[-122.69176,39.63243],[-122.69178,39.63239],[-122.69184,39.63238],[-122.69199,39.63235],[-122.69212,39.63236],[-122.693,39.63261],[-122.69363,39.63286],[-122.69377,39.6329]]}},{"type":"Feature","properties":{"name":"Open Ridge-Black Diamond Road","road_class":"unclassified","surface":"gravel","motor_vehicle":"yes","source":"Caltrans All Roads + OpenStreetMap explicit surface","source_detail":"osm way 10357058; Caltrans All Roads public-network geometry match","source_tile":"163/389","public_network_source":"Caltrans All Roads (ARNOLD/HPMS)","surface_source":"OpenStreetMap explicit surface tag","caltrans_match_coverage":1.0,"verified_length_m":1822},"geometry":{"type":"LineString","coordinates":[[-122.5698,39.40731],[-122.5696,39.4073],[-122.56946,39.40728],[-122.5694,39.40727],[-122.56907,39.40718],[-122.56889,39.40716],[-122.56879,39.40714],[-122.56855,39.4071],[-122.56797,39.40696],[-122.56777,39.40694],[-122.56754,39.40691],[-122.56518,39.4069],[-122.56377,39.40691],[-122.56333,39.40691],[-122.56274,39.40691],[-122.56256,39.40691],[-122.56231,39.40691],[-122.56101,39.40691],[-122.55773,39.4069],[-122.55551,39.4069],[-122.55538,39.4069],[-122.55532,39.40689],[-122.55526,39.40685],[-122.55521,39.40682],[-122.5551,39.40675],[-122.555,39.40669],[-122.55489,39.40663],[-122.55465,39.40655],[-122.5544,39.40647],[-122.55422,39.40644],[-122.55407,39.40643],[-122.55392,39.40644],[-122.55379,39.40647],[-122.55361,39.40652],[-122.55344,39.40657],[-122.55322,39.40663],[-122.55289,39.4067],[-122.55276,39.40676],[-122.55261,39.40684],[-122.55243,39.40697],[-122.55229,39.40704],[-122.5522,39.40706],[-122.55208,39.40707],[-122.55199,39.40708],[-122.55183,39.40705],[-122.55137,39.40697],[-122.55122,39.40696],[-122.55107,39.40695],[-122.55091,39.40696],[-122.55067,39.40697],[-122.5504,39.40697],[-122.55019,39.40697],[-122.54996,39.40696],[-122.54936,39.40692],[-122.54919,39.4069],[-122.54908,39.40686]]}},{"type":"Feature","properties":{"name":"Road 308","road_class":"track","surface":"compacted","tracktype":"grade2","source":"Caltrans All Roads + OpenStreetMap explicit surface","source_detail":"osm way 362654467; Caltrans All Roads public-network geometry match","source_tile":"163/389","public_network_source":"Caltrans All Roads (ARNOLD/HPMS)","surface_source":"OpenStreetMap explicit surface tag","caltrans_match_coverage":1.0,"verified_length_m":4200},"geometry":{"type":"LineString","coordinates":[[-122.62155,39.57125],[-122.62156,39.57117],[-122.62152,39.57112],[-122.62144,39.57106],[-122.62123,39.57099],[-122.62089,39.57089],[-122.62072,39.57084],[-122.62069,39.57082],[-122.62057,39.57072],[-122.6204,39.57055],[-122.62038,39.57051],[-122.62036,39.57037],[-122.62037,39.57013],[-122.62029,39.57002],[-122.62016,39.56994],[-122.62013,39.56988],[-122.62018,39.56977],[-122.62023,39.56967],[-122.62044,39.56942],[-122.62046,39.56934],[-122.62041,39.56921],[-122.62043,39.56913],[-122.62041,39.56908],[-122.62025,39.56892],[-122.62019,39.56879],[-122.62018,39.5687],[-122.62017,39.56841],[-122.62015,39.56833],[-122.62012,39.56826],[-122.62007,39.56819],[-122.61996,39.56818],[-122.61963,39.56819],[-122.61948,39.56817],[-122.61938,39.56815],[-122.6193,39.56813],[-122.61925,39.5681],[-122.6192,39.56804],[-122.61919,39.56801],[-122.6192,39.56796],[-122.61922,39.56792],[-122.61929,39.56788],[-122.61947,39.56781],[-122.61965,39.56779],[-122.61971,39.56776],[-122.61979,39.56772],[-122.61998,39.56757],[-122.62007,39.56746],[-122.62015,39.5673],[-122.62021,39.56722],[-122.62026,39.56718],[-122.62044,39.56707],[-122.62062,39.56698],[-122.62078,39.56695],[-122.62087,39.56693],[-122.62095,39.56691],[-122.621,39.56687],[-122.6212,39.56648],[-122.62122,39.56641],[-122.62121,39.56632],[-122.62118,39.56627],[-122.62112,39.56623],[-122.6211,39.5662],[-122.62112,39.56607],[-122.62116,39.56598],[-122.62119,39.5659],[-122.62117,39.56581],[-122.62107,39.56562],[-122.62107,39.56557],[-122.62108,39.5654],[-122.62106,39.56537],[-122.62092,39.56531],[-122.62089,39.56526],[-122.62088,39.56522],[-122.62089,39.56518],[-122.62091,39.56513],[-122.62096,39.56507],[-122.621,39.56495],[-122.62101,39.56486],[-122.62095,39.56474],[-122.62088,39.56465],[-122.62087,39.5646],[-122.62087,39.56455],[-122.62088,39.56451],[-122.62092,39.56447],[-122.621,39.5644],[-122.62104,39.56437],[-122.62105,39.56433],[-122.62104,39.56427],[-122.62099,39.56422],[-122.6208,39.56417],[-122.62061,39.56414],[-122.62051,39.56413],[-122.62043,39.56411],[-122.62037,39.5641],[-122.62031,39.56405],[-122.62026,39.56398],[-122.62026,39.56392],[-122.62027,39.56389],[-122.6203,39.56384],[-122.62034,39.56377],[-122.62038,39.56367],[-122.62043,39.56361],[-122.62049,39.56352],[-122.62058,39.56347],[-122.62064,39.56346],[-122.62072,39.56347],[-122.62086,39.56347],[-122.62096,39.56347],[-122.62106,39.56347],[-122.6211,39.56346],[-122.62115,39.56343],[-122.62116,39.56339],[-122.62116,39.56334],[-122.62112,39.56323],[-122.62108,39.56313],[-122.62108,39.56301],[-122.62111,39.5629],[-122.62118,39.56283],[-122.62127,39.56279],[-122.62143,39.56272],[-122.62151,39.56266],[-122.62156,39.56262],[-122.62157,39.56255],[-122.62153,39.56249],[-122.62141,39.56235],[-122.62138,39.5623],[-122.62137,39.56224],[-122.62141,39.5622],[-122.62145,39.56217],[-122.6215,39.56215],[-122.62159,39.56216],[-122.62183,39.5622],[-122.62207,39.56223],[-122.62235,39.56225],[-122.62261,39.56226],[-122.62282,39.56224],[-122.62298,39.56217],[-122.6231,39.56214],[-122.62321,39.56215],[-122.62333,39.56221],[-122.62342,39.56224],[-122.62348,39.56223],[-122.62353,39.56219],[-122.62358,39.56213],[-122.62364,39.56207],[-122.62364,39.562],[-122.62362,39.56194],[-122.62356,39.56189],[-122.62349,39.56187],[-122.62341,39.56183],[-122.62332,39.56179],[-122.62314,39.56163],[-122.62312,39.56155],[-122.62314,39.5615],[-122.62318,39.56143],[-122.62325,39.56135],[-122.62331,39.56128],[-122.62336,39.56123],[-122.62346,39.56121],[-122.62362,39.56125],[-122.62368,39.56126],[-122.62376,39.56124],[-122.62392,39.56113],[-122.62397,39.56108],[-122.62406,39.56105],[-122.62426,39.56106],[-122.62434,39.56105],[-122.62441,39.56099],[-122.62447,39.5609],[-122.62454,39.56082],[-122.62461,39.56076],[-122.62466,39.56075],[-122.62472,39.56073],[-122.62481,39.56074],[-122.62492,39.56077],[-122.62504,39.56086],[-122.62519,39.56092],[-122.62527,39.56096],[-122.62534,39.56097],[-122.62543,39.56095],[-122.62545,39.56092],[-122.62545,39.56086],[-122.62542,39.5608],[-122.62535,39.56074],[-122.62524,39.56061],[-122.62522,39.56055],[-122.62523,39.56048],[-122.62526,39.56042],[-122.62533,39.56033],[-122.62543,39.56026],[-122.62549,39.56021],[-122.62556,39.56018],[-122.62558,39.56013],[-122.62557,39.56007],[-122.62553,39.56004],[-122.62544,39.55993],[-122.62542,39.55988],[-122.62542,39.55983],[-122.62544,39.55976],[-122.6255,39.55971],[-122.62555,39.55968],[-122.6256,39.55967],[-122.62566,39.55969],[-122.62575,39.55974],[-122.62579,39.55981],[-122.626,39.56007],[-122.62608,39.56017],[-122.62611,39.56028],[-122.62615,39.56034],[-122.62626,39.56045],[-122.62635,39.56051],[-122.62644,39.56059],[-122.62645,39.56066],[-122.62643,39.56069],[-122.62641,39.56074],[-122.62635,39.56079],[-122.62628,39.56086],[-122.62626,39.56092],[-122.62626,39.56099],[-122.62628,39.56111],[-122.62645,39.56128],[-122.62648,39.56134],[-122.62649,39.56141],[-122.62643,39.56147],[-122.62637,39.56147],[-122.62629,39.5615],[-122.6262,39.56154],[-122.62611,39.56161],[-122.62597,39.56182],[-122.62591,39.56187],[-122.62584,39.56192],[-122.6258,39.56196],[-122.6258,39.56201],[-122.62582,39.56207],[-122.62588,39.56211],[-122.6261,39.56221],[-122.62621,39.56229],[-122.62629,39.56235],[-122.62631,39.5624],[-122.62631,39.56247],[-122.62628,39.56257],[-122.62622,39.56265],[-122.62619,39.56269],[-122.62619,39.56277],[-122.62628,39.56286],[-122.62671,39.563],[-122.62693,39.56308],[-122.62701,39.56311],[-122.6271,39.56318],[-122.62714,39.56325],[-122.62723,39.5635],[-122.62726,39.5636],[-122.62731,39.56371],[-122.62737,39.56379],[-122.62748,39.56384],[-122.62764,39.56384],[-122.62784,39.56383],[-122.62794,39.56383],[-122.62801,39.56386],[-122.62808,39.56391],[-122.62813,39.56398],[-122.62816,39.56411],[-122.6282,39.56421],[-122.62825,39.56428],[-122.62832,39.56432],[-122.62855,39.5644],[-122.62864,39.56441],[-122.62884,39.56444],[-122.62897,39.56444],[-122.62918,39.56442],[-122.62951,39.56428],[-122.62969,39.5642],[-122.62987,39.5641],[-122.63015,39.56391],[-122.63027,39.56379],[-122.6303,39.56373],[-122.63032,39.56364],[-122.63034,39.56356],[-122.63033,39.56348],[-122.63029,39.56341],[-122.63011,39.56325],[-122.63007,39.56319],[-122.63007,39.56313],[-122.63009,39.56308],[-122.63012,39.56305],[-122.6302,39.56302],[-122.63031,39.56301],[-122.63072,39.56314],[-122.63091,39.56319],[-122.63107,39.5632],[-122.63121,39.56317],[-122.6313,39.56313],[-122.63138,39.56306],[-122.63145,39.56299],[-122.63148,39.56283],[-122.6315,39.56278],[-122.63153,39.56276],[-122.63162,39.56274],[-122.63168,39.56274],[-122.63198,39.56285],[-122.63208,39.56288],[-122.63218,39.56289],[-122.6325,39.56289],[-122.63293,39.56275],[-122.63304,39.56273],[-122.63314,39.56273],[-122.6332,39.56278],[-122.63324,39.56285],[-122.63328,39.56291],[-122.63337,39.56297],[-122.63342,39.56299],[-122.63352,39.56304],[-122.63367,39.56305],[-122.63399,39.56296],[-122.63424,39.56298],[-122.63465,39.56299],[-122.63495,39.56301],[-122.63536,39.56308],[-122.63565,39.56308],[-122.63591,39.56307],[-122.63616,39.56308],[-122.63642,39.56311],[-122.63694,39.56317],[-122.63709,39.5632],[-122.63721,39.56319],[-122.63727,39.56315],[-122.6373,39.56307],[-122.63728,39.56301],[-122.63723,39.56294],[-122.63714,39.56289],[-122.63701,39.56286],[-122.6368,39.5628],[-122.63657,39.56272],[-122.63623,39.56258],[-122.63598,39.56241],[-122.6357,39.56217],[-122.63535,39.56183],[-122.63526,39.56166],[-122.63523,39.5615],[-122.63516,39.56135],[-122.63509,39.56125],[-122.6349,39.56107],[-122.63485,39.561],[-122.63483,39.56095],[-122.63484,39.56083],[-122.63491,39.56052],[-122.63493,39.56041],[-122.63495,39.5603],[-122.63502,39.56023],[-122.63512,39.56022]]}},{"type":"Feature","properties":{"name":"(unnamed public road)","road_class":"unclassified","surface":"unpaved","source":"Caltrans All Roads + OpenStreetMap explicit surface","source_detail":"osm way 569349833; Caltrans All Roads public-network geometry match","source_tile":"163/389","public_network_source":"Caltrans All Roads (ARNOLD/HPMS)","surface_source":"OpenStreetMap explicit surface tag","caltrans_match_coverage":1.0,"verified_length_m":4261},"geometry":{"type":"LineString","coordinates":[[-122.4387,39.61667],[-122.43869,39.61644],[-122.43868,39.61633],[-122.43865,39.61622],[-122.43853,39.61586],[-122.43851,39.61569],[-122.4385,39.61552],[-122.43849,39.61517],[-122.4385,39.61463],[-122.4385,39.61446],[-122.43853,39.61429],[-122.43857,39.61413],[-122.43863,39.61396],[-122.43874,39.61371],[-122.4388,39.61358],[-122.43899,39.61336],[-122.43914,39.6132],[-122.43932,39.61302],[-122.43957,39.61275],[-122.43975,39.61256],[-122.43997,39.61236],[-122.44009,39.61226],[-122.44035,39.61212],[-122.44067,39.61195],[-122.44087,39.61185],[-122.4411,39.61174],[-122.44124,39.61168],[-122.44141,39.61161],[-122.44174,39.61152],[-122.44203,39.61143],[-122.44247,39.61129],[-122.44275,39.61118],[-122.44297,39.61108],[-122.44307,39.61103],[-122.44316,39.61097],[-122.44344,39.61079],[-122.44427,39.61019],[-122.44443,39.61005],[-122.44463,39.60992],[-122.44474,39.60985],[-122.44492,39.60975],[-122.44509,39.6097],[-122.44533,39.60963],[-122.44566,39.60954],[-122.44604,39.60945],[-122.44628,39.60937],[-122.44646,39.60929],[-122.44667,39.60919],[-122.44677,39.60912],[-122.44688,39.60906],[-122.44715,39.60887],[-122.44724,39.60881],[-122.44731,39.60875],[-122.44742,39.60863],[-122.44751,39.60853],[-122.44758,39.60843],[-122.44765,39.60829],[-122.44768,39.60817],[-122.44771,39.60802],[-122.44771,39.60789],[-122.44771,39.6077],[-122.44771,39.60749],[-122.4477,39.60731],[-122.44771,39.60713],[-122.44771,39.60668],[-122.44768,39.60655],[-122.44766,39.6065],[-122.44761,39.60645],[-122.44757,39.60639],[-122.44747,39.60627],[-122.44742,39.60619],[-122.44735,39.60606],[-122.4473,39.60587],[-122.44727,39.60571],[-122.44723,39.6053],[-122.44718,39.605],[-122.44718,39.60491],[-122.44718,39.60479],[-122.44716,39.60459],[-122.44712,39.60445],[-122.44705,39.60428],[-122.44688,39.60401],[-122.4468,39.60392],[-122.44671,39.60381],[-122.44632,39.60342],[-122.44609,39.60319],[-122.44584,39.60292],[-122.44571,39.60279],[-122.44545,39.6025],[-122.44535,39.6024],[-122.44527,39.60232],[-122.44499,39.602],[-122.44487,39.60187],[-122.44481,39.60182],[-122.44471,39.60173],[-122.44446,39.60153],[-122.44426,39.60137],[-122.44412,39.60127],[-122.44386,39.60107],[-122.44359,39.60088],[-122.44304,39.60045],[-122.44281,39.60027],[-122.44255,39.60007],[-122.44234,39.59991],[-122.44214,39.59977],[-122.44198,39.59964],[-122.44183,39.5995],[-122.44169,39.59931],[-122.44155,39.59904],[-122.44145,39.59888],[-122.44141,39.59876],[-122.44137,39.59864],[-122.44136,39.59853],[-122.44134,39.59836],[-122.44134,39.5982],[-122.44136,39.59801],[-122.44138,39.59786],[-122.44143,39.5977],[-122.44148,39.59759],[-122.44156,39.59748],[-122.44164,39.59737],[-122.44175,39.59727],[-122.44186,39.59721],[-122.44197,39.59715],[-122.44209,39.59712],[-122.44271,39.59707],[-122.44279,39.59706],[-122.44304,39.59702],[-122.44311,39.597],[-122.4432,39.59696],[-122.4433,39.59693],[-122.4435,39.59683],[-122.44365,39.59674],[-122.44379,39.59664],[-122.4439,39.59655],[-122.44427,39.59625],[-122.44449,39.59602],[-122.44454,39.59593],[-122.44461,39.59581],[-122.44484,39.59533],[-122.4449,39.59521],[-122.44496,39.59505],[-122.44501,39.59489],[-122.44501,39.59483],[-122.445,39.59467],[-122.44494,39.59449],[-122.44491,39.59446],[-122.44484,39.59439],[-122.44463,39.59419],[-122.44442,39.59402],[-122.44389,39.59369],[-122.44368,39.59357],[-122.44331,39.59332],[-122.44313,39.59318],[-122.44283,39.59295],[-122.44278,39.59287],[-122.44273,39.59278],[-122.4427,39.59266],[-122.44258,39.59242],[-122.44245,39.5922],[-122.4423,39.59195],[-122.44214,39.59175],[-122.44201,39.59161],[-122.44183,39.59139],[-122.44164,39.59117],[-122.44134,39.59084],[-122.44099,39.59049],[-122.44074,39.59028],[-122.44048,39.5901],[-122.44007,39.58983],[-122.43977,39.58966],[-122.43959,39.58957],[-122.43942,39.58949],[-122.43929,39.58946],[-122.43919,39.58944],[-122.43884,39.58942],[-122.43856,39.58941],[-122.43851,39.58941],[-122.43847,39.5894],[-122.43839,39.58937],[-122.43833,39.58934],[-122.43829,39.58929],[-122.43827,39.58925],[-122.43826,39.58913],[-122.43826,39.58898],[-122.43827,39.58891],[-122.43829,39.58881],[-122.43831,39.58876],[-122.43835,39.58871],[-122.4384,39.58866],[-122.43845,39.58862],[-122.43852,39.58858],[-122.43863,39.58853],[-122.43876,39.58847],[-122.43887,39.58844],[-122.43921,39.58835],[-122.43935,39.5883],[-122.43947,39.58825],[-122.43953,39.58821],[-122.43955,39.58817],[-122.43956,39.5881],[-122.43952,39.58795]]}},{"type":"Feature","properties":{"name":"Sanhedrin Road","road_class":"unclassified","surface":"gravel","source":"Caltrans All Roads + OpenStreetMap explicit surface","source_detail":"osm way 792063076; Caltrans All Roads public-network geometry match","source_tile":"163/389","public_network_source":"Caltrans All Roads (ARNOLD/HPMS)","surface_source":"OpenStreetMap explicit surface tag","caltrans_match_coverage":1.0,"verified_length_m":2270},"geometry":{"type":"LineString","coordinates":[[-122.59095,39.62733],[-122.5911,39.62734],[-122.59127,39.62735],[-122.59151,39.62736],[-122.59183,39.62739],[-122.59213,39.62741],[-122.59225,39.62741],[-122.59244,39.62738],[-122.59258,39.62736],[-122.59296,39.62726],[-122.59309,39.62722],[-122.59344,39.62709],[-122.59354,39.62706],[-122.59364,39.62703],[-122.59373,39.62702],[-122.59391,39.627],[-122.59401,39.627],[-122.59424,39.627],[-122.59445,39.62702],[-122.59466,39.62705],[-122.59478,39.62708],[-122.59515,39.62716],[-122.59553,39.62727],[-122.59588,39.62736],[-122.59634,39.6275],[-122.59664,39.62758],[-122.5974,39.62775],[-122.59763,39.62782],[-122.59779,39.62788],[-122.59802,39.62797],[-122.59819,39.62804],[-122.59845,39.62818],[-122.59857,39.62825],[-122.59881,39.62841],[-122.59906,39.62861],[-122.59921,39.62874],[-122.5993,39.62881],[-122.59942,39.62887],[-122.59947,39.62889],[-122.59964,39.62894],[-122.60014,39.62903],[-122.60025,39.62906],[-122.60044,39.62913],[-122.60062,39.62921],[-122.60072,39.62925],[-122.60117,39.62931],[-122.60134,39.62935],[-122.60147,39.62939],[-122.60162,39.62946],[-122.60169,39.6295],[-122.60179,39.62958],[-122.60195,39.62974],[-122.60203,39.6298],[-122.60212,39.62986],[-122.60223,39.6299],[-122.6024,39.62994],[-122.60257,39.62998],[-122.60287,39.63002],[-122.60327,39.63006],[-122.60376,39.63007],[-122.60388,39.63007],[-122.60399,39.63008],[-122.60406,39.6301],[-122.60413,39.63012],[-122.60423,39.63017],[-122.60452,39.63038],[-122.6046,39.63042],[-122.6047,39.63047],[-122.60476,39.63049],[-122.60506,39.63055],[-122.6052,39.63059],[-122.6053,39.63063],[-122.60537,39.63068],[-122.6054,39.63071],[-122.6055,39.63086],[-122.60564,39.63101],[-122.6057,39.63107],[-122.60575,39.63111],[-122.60585,39.63118],[-122.60597,39.63123],[-122.60608,39.63126],[-122.60618,39.63129],[-122.60634,39.63132],[-122.60642,39.63134],[-122.60647,39.63137],[-122.60663,39.63147],[-122.60672,39.63155],[-122.60685,39.63163],[-122.60696,39.63169],[-122.60713,39.63177],[-122.60722,39.63179],[-122.60732,39.63182],[-122.60742,39.63183],[-122.60752,39.63184],[-122.60761,39.63184],[-122.60778,39.63184],[-122.60814,39.63179],[-122.60834,39.63179],[-122.60843,39.63179],[-122.60853,39.63177],[-122.60862,39.63174],[-122.60869,39.63173],[-122.60874,39.63173],[-122.60881,39.63175],[-122.60883,39.6318],[-122.60883,39.63184],[-122.60881,39.63188],[-122.60878,39.63192],[-122.60872,39.63195],[-122.60863,39.63198],[-122.60839,39.63203],[-122.60827,39.63207],[-122.60813,39.63212],[-122.60797,39.63219],[-122.60789,39.63226],[-122.60781,39.63234],[-122.60774,39.63239],[-122.60767,39.63243],[-122.60755,39.63246],[-122.60743,39.63249],[-122.60727,39.63253],[-122.60718,39.63258],[-122.60713,39.63263],[-122.60703,39.63274],[-122.60697,39.63285],[-122.60694,39.63291],[-122.60692,39.63295],[-122.60692,39.63304],[-122.60693,39.63323],[-122.60693,39.6333],[-122.6069,39.6334],[-122.60685,39.63352],[-122.60682,39.6337],[-122.60676,39.63391],[-122.60674,39.63401],[-122.60674,39.63405],[-122.60675,39.6341],[-122.6068,39.63413],[-122.60687,39.63415],[-122.60714,39.63421],[-122.60732,39.63427],[-122.6075,39.63431],[-122.60777,39.63443],[-122.6081,39.63461],[-122.60822,39.63468],[-122.60827,39.63472],[-122.60829,39.63476],[-122.60832,39.63481],[-122.60833,39.63488],[-122.60833,39.63505],[-122.60835,39.63512],[-122.60841,39.6353]]}},{"type":"Feature","properties":{"name":"(unnamed public road)","road_class":"track","surface":"dirt","source":"Caltrans All Roads + OpenStreetMap explicit surface","source_detail":"osm way 938647388; Caltrans All Roads public-network geometry match","source_tile":"163/389","public_network_source":"Caltrans All Roads (ARNOLD/HPMS)","surface_source":"OpenStreetMap explicit surface tag","caltrans_match_coverage":0.869,"verified_length_m":2273},"geometry":{"type":"LineString","coordinates":[[-122.35435,39.4067],[-122.35437,39.40661],[-122.35438,39.40656],[-122.35443,39.40642],[-122.3545,39.40625],[-122.35464,39.40599],[-122.35513,39.40524],[-122.35534,39.40488],[-122.35548,39.40467],[-122.35563,39.40437],[-122.35576,39.40405],[-122.35582,39.40389],[-122.35606,39.40339],[-122.35619,39.40312],[-122.35637,39.40289],[-122.35645,39.40281],[-122.35653,39.40273],[-122.35668,39.40261],[-122.35699,39.40242],[-122.35781,39.40199],[-122.3581,39.40183],[-122.35888,39.40135],[-122.3592,39.40118],[-122.3594,39.40106],[-122.35945,39.40103],[-122.35961,39.40097],[-122.35995,39.40086],[-122.36043,39.40074],[-122.36083,39.40065],[-122.36112,39.40059],[-122.36127,39.40057],[-122.36147,39.40055],[-122.36158,39.40054],[-122.36176,39.40054],[-122.36305,39.40064],[-122.36364,39.40067],[-122.36406,39.4007],[-122.36434,39.40073],[-122.3646,39.40076],[-122.36481,39.40078],[-122.36497,39.4008],[-122.36515,39.40084],[-122.36528,39.40087],[-122.36541,39.40091],[-122.36558,39.40103],[-122.36568,39.40114],[-122.36581,39.40131],[-122.36594,39.40147],[-122.36606,39.40161],[-122.36621,39.40176],[-122.36633,39.40185],[-122.36647,39.40196],[-122.36666,39.40205],[-122.36693,39.40216],[-122.36718,39.40226],[-122.36734,39.40234],[-122.36749,39.40242],[-122.36765,39.40255],[-122.36778,39.40265],[-122.368,39.40276],[-122.36829,39.40293],[-122.3686,39.40312],[-122.36877,39.40323],[-122.3689,39.40332],[-122.36904,39.40346],[-122.36913,39.40355],[-122.36924,39.40375],[-122.36933,39.40384],[-122.36943,39.40391],[-122.36955,39.40397],[-122.36971,39.40409],[-122.36986,39.4042],[-122.37013,39.40436],[-122.37031,39.40445],[-122.37054,39.40456],[-122.37072,39.40462],[-122.3709,39.40465],[-122.37108,39.40464],[-122.3712,39.40461],[-122.37129,39.40457],[-122.37137,39.40446],[-122.37149,39.40415],[-122.37158,39.40404],[-122.37204,39.40309],[-122.3723,39.40258],[-122.37242,39.40238],[-122.37247,39.40231],[-122.37253,39.40225]]}},{"type":"Feature","properties":{"name":"(unnamed public road)","road_class":"track","surface":"dirt","source":"Caltrans All Roads + OpenStreetMap explicit surface","source_detail":"osm way 963819013; Caltrans All Roads public-network geometry match","source_tile":"163/389","public_network_source":"Caltrans All Roads (ARNOLD/HPMS)","surface_source":"OpenStreetMap explicit surface tag","caltrans_match_coverage":1.0,"verified_length_m":564},"geometry":{"type":"LineString","coordinates":[[-122.37999,39.62732],[-122.38006,39.62745],[-122.38014,39.62755],[-122.38026,39.62766],[-122.38041,39.62777],[-122.38053,39.62786],[-122.38064,39.62794],[-122.38087,39.62808],[-122.38111,39.62822],[-122.38125,39.62829],[-122.38142,39.62834],[-122.38152,39.6284],[-122.3816,39.62847],[-122.38171,39.62856],[-122.38184,39.62864],[-122.38205,39.62875],[-122.38223,39.62886],[-122.38241,39.62902],[-122.38257,39.62917],[-122.38294,39.62952],[-122.38325,39.62984],[-122.38342,39.63002],[-122.38356,39.63017],[-122.38361,39.63023],[-122.38366,39.63029],[-122.38377,39.63047],[-122.38387,39.63061],[-122.38398,39.63076],[-122.38413,39.63092],[-122.38429,39.63108]]}},{"type":"Feature","properties":{"name":"Rail Canyon Road","road_class":"unclassified","surface":"unpaved","source":"Caltrans All Roads + OpenStreetMap explicit surface","source_detail":"osm way 10313339; Caltrans All Roads public-network geometry match","source_tile":"163/390","public_network_source":"Caltrans All Roads (ARNOLD/HPMS)","surface_source":"OpenStreetMap explicit surface tag","caltrans_match_coverage":1.0,"verified_length_m":3703},"geometry":{"type":"LineString","coordinates":[[-122.46037,39.35498],[-122.46038,39.35525],[-122.4604,39.35533],[-122.46044,39.35538],[-122.46048,39.35542],[-122.46053,39.35545],[-122.46129,39.35573],[-122.46143,39.35581],[-122.46154,39.35588],[-122.46156,39.3559],[-122.46156,39.35593],[-122.46155,39.35597],[-122.46137,39.3562],[-122.46129,39.35633],[-122.46123,39.35648],[-122.46121,39.35657],[-122.46117,39.35688],[-122.46115,39.35697],[-122.46114,39.35701],[-122.46109,39.35711],[-122.46109,39.35714],[-122.4611,39.3572],[-122.46111,39.35722],[-122.46115,39.35726],[-122.46118,39.35728],[-122.46134,39.35738],[-122.4614,39.35743],[-122.46144,39.35747],[-122.46156,39.35766],[-122.4616,39.35772],[-122.46166,39.35778],[-122.46169,39.3578],[-122.46173,39.35782],[-122.4618,39.35784],[-122.46191,39.35786],[-122.46205,39.35786],[-122.46252,39.35783],[-122.46263,39.35784],[-122.46272,39.35786],[-122.46279,39.3579],[-122.46283,39.35793],[-122.46285,39.35796],[-122.46286,39.358],[-122.46286,39.35802],[-122.46284,39.35805],[-122.46278,39.35811],[-122.46262,39.3582],[-122.46232,39.35833],[-122.46227,39.35837],[-122.46224,39.3584],[-122.46224,39.35845],[-122.46226,39.35858],[-122.46228,39.35866],[-122.4623,39.35873],[-122.46235,39.3588],[-122.46246,39.35895],[-122.46255,39.35906],[-122.46262,39.3591],[-122.4627,39.35912],[-122.46288,39.35914],[-122.46314,39.35915],[-122.46332,39.35918],[-122.46339,39.35921],[-122.46351,39.35927],[-122.46357,39.35931],[-122.46361,39.35936],[-122.46362,39.35939],[-122.4636,39.35947],[-122.46357,39.35952],[-122.46351,39.3596],[-122.46344,39.35968],[-122.4634,39.35973],[-122.46339,39.35977],[-122.46339,39.35979],[-122.46342,39.35992],[-122.46343,39.36001],[-122.46343,39.3602],[-122.46345,39.36024],[-122.46348,39.36027],[-122.46377,39.36047],[-122.4638,39.36049],[-122.4638,39.36051],[-122.46381,39.36055],[-122.46383,39.3607],[-122.46384,39.36077],[-122.46386,39.3608],[-122.46403,39.36108],[-122.46407,39.36113],[-122.46417,39.3612],[-122.46429,39.36125],[-122.46442,39.36132],[-122.46445,39.36135],[-122.46448,39.36141],[-122.46483,39.36226],[-122.46485,39.36238],[-122.46485,39.36244],[-122.46483,39.3625],[-122.4648,39.36259],[-122.46477,39.36264],[-122.46464,39.36281],[-122.46459,39.36287],[-122.46453,39.36294],[-122.46449,39.36301],[-122.46442,39.36314],[-122.46435,39.36332],[-122.46431,39.36344],[-122.46429,39.36362],[-122.46425,39.36405],[-122.4642,39.36441],[-122.4642,39.36451],[-122.46421,39.36471],[-122.46423,39.3648],[-122.46424,39.36487],[-122.46427,39.36494],[-122.46438,39.36521],[-122.46444,39.36539],[-122.46446,39.36548],[-122.46447,39.36558],[-122.46445,39.36572],[-122.46438,39.36608],[-122.46435,39.36631],[-122.46428,39.36706],[-122.46429,39.36712],[-122.46432,39.36717],[-122.46436,39.3672],[-122.46442,39.36724],[-122.46452,39.3673],[-122.46468,39.36736],[-122.46519,39.36757],[-122.46527,39.36761],[-122.46553,39.36775],[-122.46568,39.36784],[-122.4658,39.36795],[-122.46596,39.36815],[-122.46607,39.36833],[-122.46611,39.36842],[-122.46613,39.36851],[-122.46614,39.36865],[-122.46615,39.36868],[-122.46618,39.36873],[-122.46622,39.36879],[-122.46639,39.36901],[-122.46658,39.36928],[-122.46669,39.36948],[-122.46675,39.36963],[-122.46684,39.36996],[-122.46692,39.37027],[-122.46695,39.37035],[-122.46701,39.37044],[-122.46703,39.37048],[-122.46706,39.37051],[-122.46714,39.37057],[-122.46718,39.37059],[-122.46724,39.37061],[-122.46731,39.37062],[-122.4674,39.37063],[-122.46768,39.37063],[-122.46786,39.37065],[-122.46796,39.37066],[-122.46805,39.37069],[-122.46811,39.37071],[-122.46813,39.37073],[-122.46815,39.37075],[-122.46816,39.37077],[-122.46824,39.37105],[-122.4683,39.37128],[-122.46839,39.37167],[-122.46847,39.37196],[-122.46859,39.37234],[-122.46861,39.37248],[-122.46861,39.37261],[-122.46859,39.37271],[-122.46855,39.37288],[-122.46852,39.37308],[-122.46852,39.37316],[-122.46853,39.37323],[-122.46855,39.37333],[-122.46859,39.37343],[-122.46861,39.37349],[-122.46863,39.37372],[-122.46863,39.37383],[-122.46858,39.37422],[-122.46852,39.37451],[-122.46848,39.37483],[-122.46848,39.37506],[-122.4685,39.37533],[-122.46857,39.37575],[-122.4686,39.37611],[-122.46861,39.37629],[-122.46859,39.37648],[-122.46853,39.37677],[-122.46852,39.3769],[-122.46852,39.37713],[-122.46855,39.37737],[-122.46859,39.37758],[-122.46873,39.3811],[-122.46879,39.38133],[-122.46888,39.38158],[-122.46897,39.38191],[-122.46902,39.38212],[-122.46905,39.38259],[-122.46905,39.3827],[-122.4691,39.38304],[-122.46914,39.38332],[-122.46915,39.38342],[-122.46915,39.38354],[-122.46913,39.3837],[-122.4691,39.38383]]}}]}