{"type":"FeatureCollection","features":[{"type":"Feature","properties":{"name":"Walker Ridge Road","road_class":"unclassified","surface":"gravel","source":"Caltrans All Roads + OpenStreetMap explicit surface","source_detail":"osm way 10255908; Caltrans All Roads public-network geometry match","source_tile":"163/391","public_network_source":"Caltrans All Roads (ARNOLD/HPMS)","surface_source":"OpenStreetMap explicit surface tag","caltrans_match_coverage":1.0,"verified_length_m":23349},"geometry":{"type":"LineString","coordinates":[[-122.45359,39.02292],[-122.45355,39.02301],[-122.4535,39.02316],[-122.45349,39.02323],[-122.45346,39.0235],[-122.45346,39.0242],[-122.45342,39.02441],[-122.45337,39.02453],[-122.45331,39.02463],[-122.45288,39.02504],[-122.45261,39.02524],[-122.45236,39.02539],[-122.45225,39.02547],[-122.45213,39.02559],[-122.45206,39.0257],[-122.45201,39.02594],[-122.45204,39.02608],[-122.45211,39.02625],[-122.4522,39.02643],[-122.45231,39.02659],[-122.45247,39.02671],[-122.45287,39.02685],[-122.45295,39.0269],[-122.453,39.02694],[-122.45328,39.02769],[-122.4533,39.0278],[-122.45328,39.02791],[-122.45322,39.02803],[-122.45313,39.02814],[-122.45281,39.0283],[-122.45255,39.02847],[-122.45226,39.02862],[-122.45213,39.02867],[-122.45195,39.0287],[-122.45162,39.02871],[-122.4515,39.02874],[-122.45142,39.02878],[-122.45095,39.02923],[-122.45082,39.02938],[-122.45074,39.0295],[-122.45073,39.02958],[-122.45076,39.02966],[-122.45084,39.02978],[-122.45104,39.02995],[-122.45116,39.03006],[-122.45122,39.03019],[-122.45124,39.03033],[-122.45123,39.03053],[-122.4512,39.03066],[-122.45114,39.03077],[-122.45083,39.03107],[-122.45073,39.03124],[-122.4506,39.03173],[-122.45058,39.03196],[-122.4506,39.03206],[-122.45073,39.03226],[-122.45094,39.03248],[-122.45112,39.0326],[-122.45156,39.03277],[-122.4517,39.03286],[-122.45207,39.03324],[-122.45218,39.03333],[-122.45229,39.03339],[-122.45244,39.03344],[-122.45306,39.03356],[-122.45353,39.03368],[-122.45404,39.03376],[-122.45463,39.0338],[-122.45506,39.03379],[-122.45515,39.03377],[-122.45556,39.03364],[-122.45572,39.03356],[-122.4561,39.03319],[-122.45624,39.0331],[-122.45633,39.03308],[-122.45646,39.0331],[-122.45658,39.03319],[-122.45665,39.03331],[-122.45661,39.03385],[-122.45665,39.03406],[-122.45678,39.03438],[-122.45681,39.03451],[-122.45681,39.03463],[-122.45673,39.03483],[-122.4566,39.03506],[-122.45659,39.03518],[-122.4566,39.03525],[-122.45666,39.03531],[-122.45704,39.03549],[-122.4571,39.03556],[-122.45712,39.03563],[-122.45712,39.03575],[-122.45709,39.03583],[-122.45665,39.03649],[-122.4566,39.03661],[-122.45662,39.03672],[-122.45665,39.03679],[-122.4567,39.03684],[-122.45686,39.03691],[-122.45696,39.03693],[-122.45708,39.03692],[-122.45721,39.03687],[-122.45766,39.03657],[-122.4579,39.03645],[-122.458,39.03643],[-122.45828,39.03643],[-122.45836,39.03641],[-122.45869,39.03631],[-122.45881,39.0363],[-122.45889,39.03631],[-122.45903,39.03637],[-122.45919,39.03646],[-122.45936,39.03653],[-122.4595,39.03657],[-122.45993,39.0366],[-122.46004,39.03659],[-122.46018,39.03655],[-122.46055,39.03642],[-122.46067,39.0364],[-122.46086,39.03638],[-122.46103,39.03639],[-122.46165,39.03652],[-122.46186,39.03659],[-122.46201,39.03668],[-122.46208,39.0368],[-122.4621,39.03693],[-122.46202,39.03725],[-122.46202,39.03735],[-122.46207,39.03748],[-122.46216,39.03755],[-122.46224,39.0376],[-122.4624,39.03762],[-122.46286,39.03752],[-122.46317,39.03747],[-122.46329,39.03748],[-122.46338,39.0375],[-122.46353,39.03756],[-122.46398,39.03784],[-122.4642,39.03802],[-122.46427,39.03812],[-122.46432,39.03823],[-122.46433,39.03837],[-122.46429,39.03855],[-122.46429,39.03872],[-122.46427,39.03889],[-122.46424,39.03898],[-122.46418,39.03909],[-122.46401,39.03922],[-122.46384,39.03929],[-122.46371,39.03932],[-122.46358,39.03933],[-122.46322,39.0393],[-122.46282,39.03924],[-122.46273,39.03924],[-122.46262,39.03926],[-122.46245,39.03934],[-122.4623,39.03943],[-122.46222,39.03951],[-122.46217,39.03959],[-122.46213,39.03975],[-122.46214,39.03982],[-122.46219,39.03989],[-122.46234,39.04003],[-122.46319,39.04058],[-122.46352,39.04083],[-122.46381,39.04108],[-122.46398,39.04118],[-122.46422,39.04129],[-122.46503,39.04155],[-122.46569,39.04183],[-122.46619,39.04212],[-122.46667,39.04262],[-122.46691,39.04284],[-122.46701,39.0431],[-122.46697,39.04345],[-122.46686,39.04366],[-122.46672,39.04384],[-122.46666,39.04407],[-122.46662,39.04437],[-122.46673,39.04469],[-122.46696,39.04513],[-122.46701,39.04544],[-122.46689,39.04566],[-122.46681,39.04594],[-122.46672,39.04615],[-122.46673,39.04656],[-122.46692,39.04685],[-122.46713,39.04728],[-122.46716,39.04771],[-122.46728,39.04817],[-122.46754,39.0485],[-122.46813,39.04899],[-122.46839,39.04906],[-122.46863,39.04918],[-122.46896,39.04928],[-122.46929,39.04931],[-122.46969,39.0494],[-122.47033,39.04929],[-122.47096,39.04921],[-122.47133,39.04922],[-122.47142,39.04925],[-122.47146,39.04928],[-122.47152,39.04938],[-122.47168,39.04968],[-122.47179,39.04978],[-122.47195,39.04985],[-122.47226,39.04992],[-122.4724,39.04997],[-122.47262,39.05007],[-122.47281,39.05022],[-122.47301,39.05051],[-122.47321,39.05067],[-122.47331,39.05071],[-122.47342,39.05074],[-122.4737,39.05079],[-122.47438,39.05074],[-122.47465,39.05077],[-122.47485,39.05083],[-122.47521,39.05098],[-122.47581,39.05117],[-122.47644,39.0514],[-122.47664,39.05145],[-122.47682,39.05148],[-122.47724,39.05145],[-122.47737,39.05146],[-122.4775,39.05149],[-122.47776,39.0516],[-122.47904,39.05219],[-122.47933,39.0523],[-122.47963,39.05232],[-122.48055,39.0523],[-122.48082,39.05233],[-122.48109,39.05243],[-122.48142,39.05269],[-122.48159,39.05273],[-122.48167,39.05273],[-122.48182,39.0527],[-122.48241,39.0524],[-122.48258,39.05236],[-122.48342,39.05228],[-122.48361,39.05228],[-122.48411,39.05233],[-122.48477,39.05214],[-122.48497,39.05213],[-122.48595,39.0522],[-122.48614,39.05232],[-122.48626,39.0525],[-122.48639,39.05263],[-122.48681,39.05281],[-122.48704,39.05286],[-122.4881,39.05282],[-122.48885,39.0527],[-122.48928,39.05262],[-122.48945,39.05262],[-122.48966,39.05267],[-122.48987,39.05278],[-122.48994,39.05284],[-122.49001,39.0529],[-122.49026,39.05339],[-122.49039,39.05354],[-122.49051,39.05362],[-122.49096,39.05372],[-122.49116,39.05383],[-122.4914,39.054],[-122.49147,39.05401],[-122.49164,39.05404],[-122.49177,39.05403],[-122.49218,39.05395],[-122.49234,39.05395],[-122.49252,39.054],[-122.49268,39.05407],[-122.49284,39.05426],[-122.493,39.05452],[-122.49303,39.05469],[-122.49301,39.0551],[-122.49296,39.05539],[-122.49272,39.05588],[-122.49281,39.05623],[-122.49293,39.05638],[-122.493,39.05642],[-122.49356,39.05642],[-122.4938,39.05646],[-122.49395,39.05655],[-122.49407,39.05669],[-122.49408,39.05682],[-122.49404,39.057],[-122.49397,39.05715],[-122.49388,39.05725],[-122.49378,39.05759],[-122.49369,39.05771],[-122.49353,39.05781],[-122.49323,39.0579],[-122.49294,39.05797],[-122.49273,39.05805],[-122.49257,39.05816],[-122.49243,39.05837],[-122.49206,39.05906],[-122.49199,39.05912],[-122.49189,39.05917],[-122.4916,39.05927],[-122.49113,39.05937],[-122.49071,39.05944],[-122.49053,39.05943],[-122.49032,39.05938],[-122.49023,39.05933],[-122.49018,39.05927],[-122.49001,39.05898],[-122.48992,39.05891],[-122.48979,39.05887],[-122.48962,39.05886],[-122.48948,39.05888],[-122.48943,39.0589],[-122.48936,39.05897],[-122.48933,39.05905],[-122.48935,39.05914],[-122.48937,39.05921],[-122.48953,39.05941],[-122.48974,39.05964],[-122.48998,39.05983],[-122.49022,39.05994],[-122.4903,39.06],[-122.49047,39.06022],[-122.49056,39.06041],[-122.49054,39.06061],[-122.49047,39.0608],[-122.49013,39.06115],[-122.49006,39.06131],[-122.49006,39.06151],[-122.49029,39.06255],[-122.49033,39.06281],[-122.49019,39.06294],[-122.48968,39.06318],[-122.48935,39.06327],[-122.48894,39.06335],[-122.48867,39.06343],[-122.48853,39.0635],[-122.48848,39.06355],[-122.48843,39.06364],[-122.48814,39.06423],[-122.48807,39.06431],[-122.48796,39.06438],[-122.48781,39.06442],[-122.48768,39.06442],[-122.48749,39.0644],[-122.48731,39.06435],[-122.48717,39.06434],[-122.48701,39.06436],[-122.48686,39.06442],[-122.48677,39.06448],[-122.48673,39.06455],[-122.48669,39.06466],[-122.48667,39.06493],[-122.48645,39.06526],[-122.48601,39.06571],[-122.48588,39.06577],[-122.48568,39.06578],[-122.48494,39.0658],[-122.48475,39.06582],[-122.48455,39.06587],[-122.48438,39.06593],[-122.48427,39.06598],[-122.48405,39.0661],[-122.48345,39.06649],[-122.48287,39.067],[-122.48268,39.06714],[-122.48254,39.06719],[-122.48237,39.06722],[-122.48184,39.06725],[-122.48171,39.06728],[-122.4816,39.06735],[-122.48153,39.06742],[-122.48148,39.06752],[-122.48138,39.0678],[-122.4812,39.06841],[-122.48122,39.06856],[-122.48131,39.06883],[-122.48158,39.06927],[-122.48179,39.06952],[-122.48192,39.06966],[-122.48204,39.06974],[-122.48212,39.06977],[-122.48233,39.06981],[-122.4829,39.06981],[-122.48309,39.06988],[-122.48321,39.06996],[-122.48329,39.07004],[-122.48335,39.07014],[-122.48339,39.07027],[-122.48341,39.07047],[-122.48341,39.07071],[-122.48331,39.07117],[-122.48318,39.07156],[-122.48309,39.07182],[-122.48249,39.07316],[-122.48229,39.07371],[-122.48213,39.07397],[-122.48206,39.07405],[-122.482,39.0741],[-122.4819,39.07412],[-122.48179,39.0741],[-122.48166,39.07401],[-122.4813,39.07368],[-122.48122,39.07363],[-122.48102,39.07358],[-122.47939,39.07376],[-122.4792,39.07383],[-122.47908,39.07392],[-122.47903,39.07401],[-122.47902,39.07408],[-122.47906,39.07423],[-122.47941,39.07479],[-122.47956,39.07497],[-122.47996,39.07534],[-122.48024,39.07555],[-122.48039,39.07563],[-122.48081,39.07576],[-122.4809,39.0758],[-122.481,39.07589],[-122.48107,39.076],[-122.48111,39.0764],[-122.48109,39.07659],[-122.48098,39.07704],[-122.481,39.0776],[-122.48098,39.07773],[-122.48094,39.07786],[-122.48052,39.07838],[-122.48034,39.07855],[-122.4798,39.07882],[-122.47967,39.07891],[-122.47961,39.07899],[-122.47957,39.07908],[-122.47956,39.07921],[-122.4796,39.07934],[-122.47965,39.07943],[-122.47978,39.07958],[-122.47995,39.0797],[-122.48031,39.07988],[-122.48067,39.08008],[-122.48082,39.08021],[-122.48094,39.08039],[-122.48117,39.08082],[-122.48136,39.08135],[-122.48185,39.08248],[-122.4821,39.08309],[-122.48213,39.08322],[-122.48214,39.08335],[-122.48212,39.08351],[-122.48206,39.0844],[-122.48206,39.08469],[-122.48201,39.08572],[-122.48207,39.08591],[-122.48225,39.08614],[-122.48239,39.08626],[-122.48245,39.08628],[-122.48259,39.08629],[-122.48273,39.08626],[-122.48297,39.08615],[-122.48308,39.08612],[-122.48328,39.08614],[-122.48383,39.08646],[-122.48462,39.08696],[-122.48475,39.08707],[-122.48552,39.0879],[-122.48569,39.08813],[-122.48582,39.08836],[-122.48597,39.08855],[-122.48623,39.08875],[-122.48685,39.08913],[-122.48704,39.08927],[-122.48715,39.08936],[-122.48744,39.08975],[-122.48787,39.09011],[-122.48803,39.09025],[-122.48808,39.09033],[-122.48819,39.09055],[-122.48801,39.09073],[-122.48754,39.09107],[-122.48742,39.09125],[-122.48739,39.09146],[-122.48742,39.09208],[-122.48757,39.09306],[-122.48763,39.09328],[-122.48774,39.09345],[-122.48811,39.0938],[-122.48821,39.09392],[-122.48825,39.09403],[-122.48825,39.09409],[-122.48822,39.0944],[-122.48824,39.09457],[-122.48832,39.09472],[-122.48863,39.09514],[-122.48873,39.09534],[-122.48886,39.09567],[-122.48889,39.09592],[-122.48888,39.09664],[-122.48897,39.09713],[-122.48897,39.09732],[-122.48887,39.09775],[-122.48885,39.09801],[-122.4889,39.09825],[-122.48894,39.09834],[-122.48942,39.09884],[-122.48967,39.09918],[-122.48968,39.09938],[-122.48972,39.09954],[-122.48983,39.09968],[-122.49109,39.10067],[-122.49172,39.10113],[-122.49236,39.1017],[-122.49246,39.10182],[-122.49252,39.10192],[-122.49255,39.10202],[-122.49249,39.10216],[-122.49247,39.10219],[-122.49238,39.10225],[-122.49223,39.10224],[-122.49204,39.10217],[-122.49189,39.10206],[-122.49154,39.10168],[-122.49146,39.10164],[-122.49139,39.10162],[-122.49125,39.10163],[-122.49118,39.10166],[-122.49111,39.10172],[-122.49109,39.10178],[-122.49109,39.10187],[-122.49117,39.10203],[-122.49175,39.10282],[-122.49187,39.10307],[-122.49206,39.10371],[-122.49213,39.10418],[-122.49219,39.10434],[-122.49223,39.1044],[-122.49235,39.10448],[-122.49287,39.10458],[-122.49302,39.10464],[-122.49315,39.10474],[-122.49325,39.10486],[-122.49332,39.10497],[-122.49346,39.10554],[-122.49354,39.10567],[-122.49367,39.10577],[-122.49382,39.10584],[-122.49403,39.1059],[-122.49427,39.10602],[-122.49431,39.10616],[-122.49446,39.10636],[-122.49454,39.10641],[-122.49477,39.10654],[-122.49528,39.10673],[-122.49542,39.10682],[-122.49557,39.10696],[-122.49567,39.10716],[-122.49578,39.10734],[-122.49589,39.10743],[-122.49623,39.10762],[-122.49635,39.10771],[-122.49646,39.10781],[-122.49649,39.10796],[-122.49644,39.10856],[-122.49637,39.10911],[-122.49632,39.10925],[-122.49605,39.10954],[-122.49601,39.10968],[-122.49599,39.10991],[-122.49591,39.1101],[-122.49599,39.11028],[-122.49598,39.1108],[-122.49593,39.11105],[-122.49596,39.11114],[-122.49596,39.11133],[-122.49603,39.11167],[-122.49604,39.11186],[-122.49597,39.11213],[-122.49568,39.11248],[-122.49558,39.11272],[-122.49551,39.11299],[-122.4954,39.11313],[-122.49496,39.11354],[-122.49485,39.11374],[-122.4948,39.11393],[-122.49492,39.11453],[-122.49504,39.11484],[-122.49524,39.11509],[-122.49543,39.11523],[-122.49598,39.11557],[-122.49612,39.11563],[-122.49657,39.11589],[-122.49694,39.11615],[-122.49715,39.11633],[-122.49744,39.11665],[-122.49775,39.11706],[-122.49851,39.1183],[-122.49865,39.11848],[-122.49899,39.11905],[-122.49908,39.11917],[-122.49929,39.11935],[-122.49988,39.11977],[-122.49998,39.11987],[-122.50014,39.12012],[-122.5002,39.12035],[-122.50017,39.12053],[-122.50011,39.12068],[-122.4995,39.1217],[-122.49942,39.12187],[-122.49932,39.12214],[-122.49919,39.12269],[-122.49905,39.12304],[-122.49893,39.12319],[-122.49873,39.12338],[-122.49824,39.12373],[-122.4981,39.1238],[-122.49796,39.12384],[-122.49782,39.12385],[-122.49717,39.1238],[-122.49589,39.12368],[-122.49568,39.12368],[-122.4954,39.12374],[-122.49467,39.12398],[-122.49421,39.12418],[-122.49402,39.12431],[-122.49347,39.1249],[-122.49322,39.12524],[-122.49314,39.12537],[-122.49307,39.12556],[-122.49307,39.12569],[-122.49316,39.12584],[-122.49322,39.12591],[-122.49331,39.12596],[-122.49348,39.12601],[-122.49419,39.12615],[-122.4943,39.1262],[-122.49439,39.12627],[-122.49446,39.12635],[-122.4945,39.12644],[-122.4945,39.12659],[-122.49434,39.12709],[-122.49431,39.12729],[-122.4943,39.12749],[-122.49431,39.12763],[-122.49442,39.12823],[-122.49456,39.12952],[-122.49469,39.1302],[-122.4947,39.13034],[-122.49467,39.13043],[-122.49461,39.13052],[-122.49445,39.13068],[-122.49429,39.13077],[-122.49356,39.13113],[-122.49316,39.13138],[-122.49297,39.13152],[-122.49257,39.13193],[-122.49241,39.1322],[-122.49228,39.13249],[-122.49216,39.13278],[-122.492,39.13328],[-122.49178,39.13368],[-122.49174,39.13382],[-122.49175,39.13402],[-122.4919,39.13446],[-122.49195,39.13468],[-122.49195,39.13487],[-122.49192,39.135],[-122.49186,39.13513],[-122.4918,39.13521],[-122.49171,39.13528],[-122.49155,39.13536],[-122.4911,39.13553],[-122.49083,39.13565],[-122.49069,39.13576],[-122.49065,39.13583],[-122.49062,39.13595],[-122.49063,39.13604],[-122.49075,39.13631],[-122.49076,39.1364],[-122.49072,39.13653],[-122.49052,39.13669],[-122.48986,39.13692],[-122.48951,39.13714],[-122.48941,39.13725],[-122.489,39.13785],[-122.4886,39.13837],[-122.48845,39.13855],[-122.48825,39.13872],[-122.48808,39.13879],[-122.48792,39.13883],[-122.48715,39.13886],[-122.48695,39.13888],[-122.48676,39.13894],[-122.48595,39.13933],[-122.48569,39.13951],[-122.48521,39.13994],[-122.48512,39.13998],[-122.48504,39.13999],[-122.48489,39.13995],[-122.48467,39.13982],[-122.48402,39.13929],[-122.48393,39.13924],[-122.48379,39.13919],[-122.48368,39.13918],[-122.48315,39.1392],[-122.48296,39.13916],[-122.48276,39.13909],[-122.48247,39.13895],[-122.48135,39.13837],[-122.48116,39.13832],[-122.48097,39.13833],[-122.4809,39.13834],[-122.4808,39.1384],[-122.48075,39.13845],[-122.48067,39.13858],[-122.48056,39.13885],[-122.48048,39.13913],[-122.48039,39.1393],[-122.48029,39.1394],[-122.48008,39.13955],[-122.48003,39.13957],[-122.47984,39.13965],[-122.47947,39.13971],[-122.47925,39.13967],[-122.4788,39.13953],[-122.47869,39.13952],[-122.47848,39.13955],[-122.47835,39.13963],[-122.47828,39.1397],[-122.47823,39.13978],[-122.4782,39.13987],[-122.47822,39.14006],[-122.4783,39.14018],[-122.47842,39.14029],[-122.47875,39.14052],[-122.4788,39.14066],[-122.47878,39.14081],[-122.47865,39.14088],[-122.47851,39.14092],[-122.47803,39.14099],[-122.47788,39.14102],[-122.47768,39.1411],[-122.47758,39.14117],[-122.47745,39.14128],[-122.4771,39.1417],[-122.477,39.14212],[-122.4769,39.1423],[-122.47666,39.14248],[-122.47611,39.1428],[-122.47585,39.14297],[-122.47576,39.14308],[-122.47566,39.14335],[-122.47568,39.14394],[-122.47571,39.14421],[-122.47585,39.14464],[-122.47609,39.14525],[-122.47623,39.14592],[-122.47627,39.14626],[-122.47633,39.1464],[-122.4764,39.14649],[-122.47681,39.14687],[-122.47701,39.14709],[-122.47724,39.14763],[-122.47754,39.14822],[-122.47764,39.14848],[-122.47768,39.14861],[-122.47768,39.14869],[-122.47764,39.14883],[-122.47749,39.1491],[-122.4774,39.14939],[-122.4773,39.14959],[-122.47723,39.14976],[-122.47721,39.1499],[-122.47725,39.1501],[-122.47733,39.15033],[-122.47758,39.15074],[-122.4777,39.15126],[-122.47778,39.1514],[-122.47786,39.1515],[-122.47812,39.15172],[-122.47891,39.15228],[-122.47947,39.15256],[-122.4797,39.1527],[-122.47978,39.15282],[-122.47985,39.15298],[-122.47986,39.15311],[-122.4798,39.15329],[-122.47966,39.15348],[-122.47944,39.15368],[-122.47926,39.15381],[-122.47898,39.15407],[-122.47889,39.15418],[-122.47861,39.15486],[-122.47853,39.15512],[-122.47851,39.15526],[-122.47851,39.15557],[-122.47854,39.15575],[-122.47858,39.15585],[-122.47867,39.15595],[-122.47898,39.1562],[-122.47909,39.15631],[-122.47923,39.15653],[-122.47939,39.15711],[-122.47957,39.15765],[-122.4796,39.15784],[-122.47956,39.15807]]}},{"type":"Feature","properties":{"name":"Bear Valley Road","road_class":"unclassified","surface":"gravel","source":"Caltrans All Roads + OpenStreetMap explicit surface","source_detail":"osm way 10313840; Caltrans All Roads public-network geometry match","source_tile":"163/391","public_network_source":"Caltrans All Roads (ARNOLD/HPMS)","surface_source":"OpenStreetMap explicit surface tag","caltrans_match_coverage":1.0,"verified_length_m":13216},"geometry":{"type":"LineString","coordinates":[[-122.36028,39.01204],[-122.36035,39.01208],[-122.36044,39.01216],[-122.36058,39.01223],[-122.36078,39.01228],[-122.36114,39.01231],[-122.3618,39.01236],[-122.36211,39.01239],[-122.36257,39.01239],[-122.36293,39.01236],[-122.36327,39.01237],[-122.36397,39.01246],[-122.36461,39.01257],[-122.36487,39.01259],[-122.36519,39.01264],[-122.36568,39.01271],[-122.36603,39.01273],[-122.36637,39.01272],[-122.36698,39.0127],[-122.36978,39.01265],[-122.37051,39.01264],[-122.37112,39.01257],[-122.3713,39.01256],[-122.37154,39.01255],[-122.3717,39.01252],[-122.37184,39.01249],[-122.37209,39.01244],[-122.37235,39.01241],[-122.37262,39.01241],[-122.37305,39.01243],[-122.3732,39.01245],[-122.37336,39.01248],[-122.3735,39.01253],[-122.37361,39.01257],[-122.37377,39.01266],[-122.37393,39.01277],[-122.37417,39.01302],[-122.37426,39.01309],[-122.37437,39.01316],[-122.37448,39.01322],[-122.3746,39.01327],[-122.3747,39.0133],[-122.37544,39.01359],[-122.37589,39.01375],[-122.37661,39.01393],[-122.37731,39.01414],[-122.37779,39.01427],[-122.37787,39.0143],[-122.37801,39.01436],[-122.37815,39.01443],[-122.37827,39.01451],[-122.37838,39.01461],[-122.37848,39.0147],[-122.37852,39.01476],[-122.37857,39.01483],[-122.37863,39.01491],[-122.3787,39.01498],[-122.37878,39.01504],[-122.37887,39.0151],[-122.37896,39.01515],[-122.37917,39.01524],[-122.37945,39.0153],[-122.37959,39.01532],[-122.37972,39.01534],[-122.37991,39.01534],[-122.37997,39.01532],[-122.38004,39.01531],[-122.38018,39.01526],[-122.38025,39.01522],[-122.38032,39.01517],[-122.38046,39.01506],[-122.38056,39.01497],[-122.38068,39.01483],[-122.38075,39.01477],[-122.38084,39.01472],[-122.38089,39.01469],[-122.38099,39.01466],[-122.38112,39.01464],[-122.38123,39.01463],[-122.38135,39.01464],[-122.38145,39.01466],[-122.38153,39.01468],[-122.38163,39.0147],[-122.38176,39.01475],[-122.382,39.01482],[-122.3821,39.01484],[-122.38233,39.01487],[-122.38245,39.01488],[-122.38265,39.01489],[-122.38317,39.01486],[-122.38341,39.01485],[-122.38408,39.01487],[-122.38433,39.01485],[-122.3845,39.01482],[-122.38472,39.01477],[-122.38482,39.01476],[-122.38498,39.01475],[-122.38512,39.01475],[-122.38518,39.01475],[-122.3853,39.01478],[-122.38535,39.01479],[-122.38541,39.01482],[-122.3855,39.01487],[-122.38558,39.01495],[-122.38562,39.015],[-122.38572,39.01518],[-122.38577,39.01526],[-122.38583,39.01532],[-122.38596,39.01542],[-122.38603,39.01546],[-122.38611,39.01549],[-122.38618,39.01551],[-122.38626,39.01552],[-122.38637,39.01553],[-122.38669,39.01554],[-122.38689,39.01554],[-122.38706,39.01554],[-122.38715,39.01555],[-122.38733,39.01559],[-122.38766,39.0157],[-122.38775,39.01573],[-122.38793,39.01577],[-122.38806,39.01579],[-122.38818,39.0158],[-122.38833,39.01582],[-122.3886,39.01588],[-122.3887,39.01591],[-122.3888,39.01595],[-122.3889,39.01601],[-122.38895,39.01604],[-122.38907,39.01614],[-122.38928,39.01635],[-122.38939,39.01647],[-122.3895,39.01656],[-122.38963,39.01666],[-122.38972,39.01676],[-122.38976,39.0168],[-122.38978,39.01684],[-122.3898,39.01688],[-122.38982,39.01693],[-122.38985,39.01712],[-122.38988,39.01722],[-122.38994,39.01735],[-122.38999,39.01743],[-122.39008,39.01756],[-122.39011,39.01762],[-122.39012,39.01769],[-122.39012,39.01773],[-122.39011,39.01779],[-122.39005,39.018],[-122.39003,39.01807],[-122.39004,39.01822],[-122.39004,39.01829],[-122.39006,39.01838],[-122.3901,39.01851],[-122.39018,39.01874],[-122.3902,39.01884],[-122.3902,39.0189],[-122.3902,39.01898],[-122.39018,39.01904],[-122.39016,39.01911],[-122.39012,39.01919],[-122.38993,39.01952],[-122.38988,39.01964],[-122.38979,39.01987],[-122.38977,39.01994],[-122.38976,39.02001],[-122.38974,39.02026],[-122.38974,39.0206],[-122.38975,39.02067],[-122.38977,39.02077],[-122.3898,39.02083],[-122.38988,39.02094],[-122.38994,39.021],[-122.39002,39.02106],[-122.39011,39.02111],[-122.39021,39.02116],[-122.39029,39.0212],[-122.39037,39.02124],[-122.39047,39.02133],[-122.39058,39.02148],[-122.39066,39.02156],[-122.39072,39.0216],[-122.39081,39.02164],[-122.39106,39.02171],[-122.39117,39.02175],[-122.39144,39.02188],[-122.39159,39.022],[-122.39167,39.02206],[-122.39174,39.02213],[-122.3918,39.0222],[-122.39184,39.02228],[-122.39188,39.02236],[-122.39194,39.0226],[-122.39196,39.02264],[-122.392,39.02269],[-122.39203,39.02272],[-122.39207,39.02275],[-122.39212,39.02277],[-122.39257,39.02288],[-122.393,39.023],[-122.39385,39.02319],[-122.394,39.02321],[-122.39414,39.02322],[-122.39434,39.02321],[-122.39444,39.02322],[-122.39455,39.02323],[-122.39465,39.02326],[-122.39475,39.02329],[-122.39485,39.02333],[-122.39493,39.02338],[-122.39502,39.02343],[-122.39512,39.02353],[-122.39535,39.02379],[-122.39612,39.02492],[-122.39618,39.02499],[-122.39624,39.02504],[-122.39629,39.02507],[-122.39636,39.02511],[-122.39642,39.02513],[-122.39649,39.02516],[-122.39658,39.0252],[-122.39666,39.02526],[-122.39672,39.02533],[-122.39709,39.02595],[-122.39719,39.02611],[-122.39725,39.02621],[-122.39729,39.0263],[-122.39735,39.0264],[-122.39742,39.02646],[-122.39768,39.02668],[-122.39798,39.02691],[-122.39807,39.02699],[-122.39816,39.02708],[-122.39833,39.02725],[-122.39839,39.0273],[-122.39846,39.02733],[-122.39853,39.02735],[-122.39861,39.02736],[-122.39869,39.02735],[-122.39915,39.02725],[-122.39937,39.02721],[-122.39955,39.02718],[-122.39987,39.02718],[-122.39998,39.02716],[-122.40009,39.02714],[-122.40021,39.0271],[-122.40029,39.02707],[-122.4004,39.02706],[-122.4005,39.02705],[-122.4006,39.02705],[-122.40069,39.02707],[-122.40077,39.02709],[-122.40085,39.02713],[-122.40098,39.02726],[-122.40115,39.02751],[-122.40143,39.02788],[-122.4015,39.02795],[-122.40162,39.02806],[-122.40176,39.02814],[-122.40204,39.0283],[-122.40218,39.0284],[-122.40229,39.0285],[-122.40242,39.02866],[-122.40249,39.02877],[-122.40254,39.02888],[-122.40274,39.02937],[-122.40279,39.02948],[-122.40291,39.02965],[-122.40296,39.02972],[-122.40305,39.0298],[-122.40317,39.0299],[-122.40366,39.03025],[-122.40375,39.03032],[-122.40394,39.03042],[-122.40434,39.0306],[-122.40444,39.03065],[-122.40452,39.0307],[-122.4047,39.03084],[-122.40486,39.03099],[-122.4049,39.03105],[-122.40495,39.03111],[-122.40497,39.03116],[-122.40499,39.03126],[-122.40498,39.03135],[-122.40494,39.03153],[-122.40494,39.0316],[-122.40494,39.03191],[-122.40494,39.03256],[-122.40496,39.03273],[-122.40499,39.03286],[-122.40503,39.03297],[-122.40511,39.03329],[-122.40514,39.03353],[-122.40513,39.0337],[-122.40511,39.03381],[-122.40507,39.03398],[-122.40501,39.03434],[-122.405,39.03468],[-122.40501,39.03525],[-122.40502,39.03535],[-122.40505,39.03546],[-122.40513,39.03573],[-122.40527,39.03622],[-122.40532,39.03634],[-122.40539,39.0365],[-122.4062,39.03811],[-122.40622,39.03816],[-122.40636,39.03842],[-122.40652,39.03869],[-122.40664,39.03887],[-122.40712,39.03946],[-122.40729,39.03963],[-122.40741,39.03973],[-122.40751,39.0398],[-122.4076,39.03984],[-122.40769,39.03989],[-122.40784,39.03999],[-122.40799,39.04012],[-122.40816,39.0403],[-122.40822,39.0404],[-122.40826,39.04047],[-122.40828,39.04054],[-122.40844,39.04089],[-122.40865,39.0413],[-122.40867,39.04139],[-122.40869,39.04148],[-122.4087,39.0418],[-122.40872,39.04196],[-122.40875,39.04202],[-122.4088,39.04211],[-122.40892,39.04225],[-122.40949,39.04285],[-122.40962,39.043],[-122.40993,39.04338],[-122.41006,39.04352],[-122.41029,39.04375],[-122.41046,39.0439],[-122.41062,39.04402],[-122.41074,39.0441],[-122.41087,39.04418],[-122.41131,39.04446],[-122.41151,39.04458],[-122.41171,39.04474],[-122.41188,39.04489],[-122.41197,39.045],[-122.41202,39.04509],[-122.41206,39.04519],[-122.41209,39.04534],[-122.41211,39.04548],[-122.41209,39.04588],[-122.41205,39.04611],[-122.41204,39.04619],[-122.41201,39.04626],[-122.41197,39.04634],[-122.41192,39.04644],[-122.41177,39.04666],[-122.41165,39.0468],[-122.41154,39.04692],[-122.41131,39.04715],[-122.41114,39.04735],[-122.41097,39.0476],[-122.41085,39.04777],[-122.41058,39.04806],[-122.41033,39.04834],[-122.41021,39.04845],[-122.40998,39.04869],[-122.40965,39.04909],[-122.40959,39.04917],[-122.40953,39.04927],[-122.40948,39.04938],[-122.40943,39.04949],[-122.4093,39.04971],[-122.40924,39.04982],[-122.40915,39.05011],[-122.40909,39.05036],[-122.40906,39.05045],[-122.40892,39.05077],[-122.40887,39.05088],[-122.40886,39.05094],[-122.40886,39.05098],[-122.40888,39.05118],[-122.40889,39.05132],[-122.40889,39.0514],[-122.40886,39.05156],[-122.4088,39.05173],[-122.40879,39.05178],[-122.4088,39.05183],[-122.40883,39.05188],[-122.40887,39.05194],[-122.4089,39.05202],[-122.40893,39.05209],[-122.40897,39.05225],[-122.40901,39.05237],[-122.40906,39.05255],[-122.40909,39.05269],[-122.4091,39.05284],[-122.4091,39.05311],[-122.40904,39.05383],[-122.40904,39.05393],[-122.40907,39.05426],[-122.40914,39.05453],[-122.40921,39.05474],[-122.40929,39.05491],[-122.40935,39.05503],[-122.4095,39.0553],[-122.40956,39.05539],[-122.40962,39.05547],[-122.4097,39.05556],[-122.40985,39.05571],[-122.40994,39.05578],[-122.41006,39.05587],[-122.41021,39.05598],[-122.41055,39.05624],[-122.41067,39.05634],[-122.411,39.05666],[-122.41127,39.05692],[-122.41154,39.05722],[-122.41169,39.0574],[-122.41172,39.05745],[-122.41174,39.0575],[-122.41176,39.05755],[-122.41177,39.0576],[-122.41177,39.05765],[-122.41174,39.05788],[-122.41171,39.05796],[-122.41169,39.05806],[-122.41161,39.05829],[-122.41156,39.05839],[-122.41151,39.05848],[-122.41117,39.0589],[-122.41079,39.05942],[-122.41022,39.06032],[-122.41005,39.06063],[-122.40995,39.06084],[-122.4099,39.06101],[-122.40986,39.06105],[-122.40981,39.06109],[-122.40976,39.06111],[-122.40969,39.06112],[-122.40963,39.06114],[-122.40958,39.06117],[-122.40954,39.0612],[-122.40951,39.06124],[-122.40949,39.06128],[-122.40943,39.06146],[-122.40937,39.06173],[-122.40934,39.06196],[-122.40932,39.06216],[-122.40933,39.06243],[-122.40935,39.06261],[-122.4094,39.0629],[-122.40952,39.06335],[-122.40957,39.06361],[-122.40959,39.06376],[-122.40964,39.06411],[-122.40969,39.0645],[-122.40975,39.06472],[-122.40978,39.06482],[-122.40979,39.06491],[-122.40979,39.06502],[-122.40978,39.06517],[-122.40977,39.06533],[-122.40984,39.06583],[-122.40988,39.06614],[-122.40993,39.06631],[-122.41006,39.06666],[-122.4103,39.06738],[-122.41032,39.06744],[-122.41033,39.06751],[-122.41033,39.06757],[-122.41032,39.06764],[-122.41031,39.0677],[-122.41029,39.06776],[-122.41014,39.06804],[-122.41002,39.06831],[-122.40998,39.06847],[-122.40993,39.06866],[-122.40987,39.06888],[-122.40975,39.06923],[-122.40971,39.06933],[-122.40969,39.06942],[-122.40968,39.0695],[-122.40968,39.06972],[-122.40969,39.06982],[-122.40974,39.06998],[-122.40978,39.07008],[-122.40981,39.07019],[-122.40981,39.07026],[-122.40981,39.07032],[-122.40978,39.07047],[-122.40973,39.07064],[-122.40972,39.07069],[-122.40972,39.07074],[-122.40973,39.07079],[-122.40975,39.07085],[-122.40977,39.0709],[-122.4098,39.07094],[-122.40984,39.07099],[-122.4099,39.07105],[-122.4101,39.07123],[-122.41015,39.07129],[-122.41017,39.07137],[-122.41018,39.07144],[-122.41018,39.07148],[-122.41016,39.07156],[-122.40985,39.07212],[-122.40963,39.07246],[-122.40959,39.07257],[-122.40956,39.07268],[-122.40952,39.07323],[-122.40945,39.07366],[-122.40945,39.07379],[-122.40945,39.07387],[-122.40945,39.07431],[-122.40943,39.07525],[-122.40946,39.07607],[-122.40946,39.07674],[-122.40946,39.07759],[-122.40947,39.07824],[-122.40947,39.07893],[-122.40944,39.07986],[-122.40945,39.08008],[-122.40945,39.08035],[-122.40941,39.08126],[-122.40941,39.08285],[-122.40941,39.08435],[-122.40939,39.08583],[-122.40938,39.08678],[-122.40937,39.08724],[-122.40937,39.08779],[-122.40937,39.08863],[-122.40937,39.09079],[-122.40938,39.09224],[-122.40936,39.09295],[-122.40935,39.09375],[-122.40934,39.09486],[-122.40933,39.09513],[-122.40934,39.09527],[-122.40941,39.09539],[-122.40991,39.09607],[-122.41,39.09621],[-122.41005,39.09631],[-122.41007,39.09643],[-122.4101,39.09661],[-122.41017,39.0972],[-122.41019,39.09728],[-122.41022,39.09738],[-122.41026,39.09744],[-122.41032,39.09749],[-122.41039,39.09754],[-122.41048,39.09757],[-122.41056,39.09758],[-122.41237,39.09759],[-122.41328,39.0976]]}},{"type":"Feature","properties":{"name":"Wilbur Springs Road","road_class":"unclassified","surface":"gravel","source":"Caltrans All Roads + OpenStreetMap explicit surface","source_detail":"osm way 10313173; Caltrans All Roads public-network geometry match","source_tile":"163/391","public_network_source":"Caltrans All Roads (ARNOLD/HPMS)","surface_source":"OpenStreetMap explicit surface tag","caltrans_match_coverage":1.0,"verified_length_m":1900},"geometry":{"type":"LineString","coordinates":[[-122.42517,39.03831],[-122.42429,39.03881],[-122.42412,39.03889],[-122.424,39.03894],[-122.42378,39.03898],[-122.42358,39.03901],[-122.42341,39.03903],[-122.42282,39.03913],[-122.42271,39.03915],[-122.42261,39.03915],[-122.42253,39.03914],[-122.42244,39.03911],[-122.42196,39.03889],[-122.42176,39.03882],[-122.42151,39.03876],[-122.42128,39.03874],[-122.42113,39.03871],[-122.42109,39.0387],[-122.42086,39.03861],[-122.42077,39.0386],[-122.42058,39.03855],[-122.42045,39.03853],[-122.42039,39.03852],[-122.42033,39.03852],[-122.42026,39.03854],[-122.42016,39.0386],[-122.41993,39.03876],[-122.41977,39.03883],[-122.41957,39.03887],[-122.41942,39.03888],[-122.41919,39.03885],[-122.41904,39.03881],[-122.41879,39.03867],[-122.41867,39.03864],[-122.4184,39.03866],[-122.41828,39.03866],[-122.4182,39.03864],[-122.41791,39.0385],[-122.41778,39.03847],[-122.41755,39.03846],[-122.41717,39.03851],[-122.41686,39.03848],[-122.4165,39.03842],[-122.41641,39.03839],[-122.41633,39.03833],[-122.41626,39.03825],[-122.41621,39.03818],[-122.41617,39.03809],[-122.41619,39.03798],[-122.41627,39.0378],[-122.41629,39.03771],[-122.41625,39.03764],[-122.4162,39.03759],[-122.41607,39.03753],[-122.4159,39.03748],[-122.41579,39.03747],[-122.41549,39.03748],[-122.41489,39.03757],[-122.41421,39.03775],[-122.41375,39.03783],[-122.41337,39.03787],[-122.41292,39.03785],[-122.41261,39.03781],[-122.41246,39.03777],[-122.4123,39.0377],[-122.41205,39.03754],[-122.41187,39.03733],[-122.41161,39.03694],[-122.4115,39.03682],[-122.41139,39.03674],[-122.41127,39.03671],[-122.41111,39.0367],[-122.41099,39.03671],[-122.41075,39.03678],[-122.41059,39.03687],[-122.41048,39.03695],[-122.41036,39.03711],[-122.40999,39.03789],[-122.40982,39.03815],[-122.40972,39.03825],[-122.4095,39.0384],[-122.40907,39.03861],[-122.40897,39.03867],[-122.40885,39.03878],[-122.40874,39.03899],[-122.40872,39.03912],[-122.40877,39.03957],[-122.40877,39.03974],[-122.40873,39.03999],[-122.40868,39.04007],[-122.40864,39.04014]]}},{"type":"Feature","properties":{"name":"Wilbur Springs Road","road_class":"unclassified","surface":"gravel","source":"Caltrans All Roads + OpenStreetMap explicit surface","source_detail":"osm way 1157511930; Caltrans All Roads public-network geometry match","source_tile":"163/391","public_network_source":"Caltrans All Roads (ARNOLD/HPMS)","surface_source":"OpenStreetMap explicit surface tag","caltrans_match_coverage":1.0,"verified_length_m":981},"geometry":{"type":"LineString","coordinates":[[-122.43104,39.03217],[-122.43085,39.03228],[-122.43058,39.0324],[-122.43024,39.03255],[-122.43004,39.03261],[-122.42957,39.03279],[-122.42907,39.03285],[-122.42892,39.03293],[-122.42873,39.03312],[-122.42854,39.03325],[-122.42834,39.03334],[-122.42801,39.03345],[-122.42784,39.03349],[-122.42764,39.03353],[-122.42757,39.03354],[-122.42726,39.03361],[-122.42708,39.03368],[-122.42703,39.03374],[-122.42702,39.03382],[-122.42702,39.03392],[-122.42706,39.03417],[-122.42705,39.03429],[-122.42693,39.03461],[-122.42692,39.03467],[-122.42691,39.03479],[-122.42695,39.03493],[-122.42718,39.03531],[-122.42722,39.03541],[-122.42723,39.03554],[-122.42721,39.03559],[-122.42714,39.03565],[-122.4268,39.03578],[-122.42637,39.03602],[-122.42615,39.03619],[-122.42607,39.0363],[-122.42602,39.03645],[-122.42601,39.03654],[-122.42602,39.03668],[-122.42611,39.037],[-122.42614,39.03719],[-122.42613,39.03723],[-122.42612,39.03732],[-122.42608,39.03746],[-122.42602,39.03757],[-122.42594,39.03766],[-122.42564,39.03794],[-122.42538,39.03815],[-122.42524,39.03825]]}},{"type":"Feature","properties":{"name":"(unnamed public road)","road_class":"track","surface":"dirt","tracktype":"grade4","source":"Caltrans All Roads + OpenStreetMap explicit surface","source_detail":"osm way 1211515869; Caltrans All Roads public-network geometry match","source_tile":"163/391","public_network_source":"Caltrans All Roads (ARNOLD/HPMS)","surface_source":"OpenStreetMap explicit surface tag","caltrans_match_coverage":1.0,"verified_length_m":1293},"geometry":{"type":"LineString","coordinates":[[-122.58662,38.967],[-122.5869,38.96739],[-122.58706,38.96772],[-122.58719,38.96818],[-122.58727,38.96831],[-122.58737,38.96843],[-122.5878,38.96886],[-122.58792,38.96896],[-122.58827,38.96916],[-122.58873,38.96951],[-122.58905,38.96971],[-122.58964,38.96998],[-122.59006,38.97022],[-122.59023,38.97033],[-122.59057,38.97051],[-122.591,38.97087],[-122.59135,38.97109],[-122.5923,38.97187],[-122.59263,38.97219],[-122.59278,38.97244],[-122.59287,38.97255],[-122.59325,38.97278],[-122.59364,38.97308],[-122.59385,38.97328],[-122.59458,38.97374],[-122.59481,38.97387],[-122.59494,38.97393],[-122.59526,38.97402],[-122.59556,38.97418],[-122.59598,38.9743],[-122.59625,38.9744],[-122.59649,38.97443],[-122.59732,38.97447]]}},{"type":"Feature","properties":{"name":"(unnamed public road)","road_class":"track","surface":"compacted","tracktype":"grade4","source":"Caltrans All Roads + OpenStreetMap explicit surface","source_detail":"osm way 1211515873; Caltrans All Roads public-network geometry match","source_tile":"163/391","public_network_source":"Caltrans All Roads (ARNOLD/HPMS)","surface_source":"OpenStreetMap explicit surface tag","caltrans_match_coverage":1.0,"verified_length_m":711},"geometry":{"type":"LineString","coordinates":[[-122.58816,38.97966],[-122.58777,38.97983],[-122.58712,38.98047],[-122.58682,38.98063],[-122.58664,38.98074],[-122.58648,38.9808],[-122.58638,38.98082],[-122.5862,38.98082],[-122.58588,38.98079],[-122.5857,38.98075],[-122.58525,38.9806],[-122.58483,38.98052],[-122.58474,38.97999],[-122.58476,38.97991],[-122.58488,38.97962],[-122.58491,38.9794],[-122.58487,38.97928],[-122.58473,38.97899],[-122.58467,38.97881],[-122.58465,38.97857],[-122.58477,38.97849],[-122.58495,38.9784],[-122.58502,38.97834],[-122.58512,38.97786],[-122.58541,38.97746]]}}]}