{"type":"FeatureCollection","features":[{"type":"Feature","properties":{"name":"Golden Gate Road","road_class":"unclassified","surface":"unpaved","source":"Caltrans All Roads + OpenStreetMap explicit surface","source_detail":"osm way 425991547; Caltrans All Roads public-network geometry match","source_tile":"172/393","public_network_source":"Caltrans All Roads (ARNOLD/HPMS)","surface_source":"OpenStreetMap explicit surface tag","caltrans_match_coverage":1.0,"verified_length_m":7416},"geometry":{"type":"LineString","coordinates":[[-119.49887,38.53355],[-119.49927,38.53332],[-119.49932,38.53328],[-119.49942,38.53324],[-119.49953,38.53322],[-119.49963,38.53324],[-119.49985,38.53332],[-119.49999,38.53336],[-119.50014,38.53339],[-119.50029,38.53341],[-119.50056,38.53341],[-119.50074,38.53343],[-119.50092,38.53347],[-119.50181,38.5337],[-119.50274,38.5339],[-119.50292,38.53393],[-119.50326,38.53396],[-119.50354,38.53396],[-119.50369,38.53395],[-119.50397,38.53391],[-119.50433,38.53383],[-119.50626,38.53348],[-119.50754,38.53323],[-119.50795,38.53311],[-119.50838,38.53296],[-119.50901,38.53271],[-119.50943,38.53253],[-119.51012,38.53231],[-119.51064,38.5322],[-119.51112,38.53212],[-119.51175,38.53204],[-119.51259,38.53195],[-119.51623,38.5315],[-119.51704,38.53132],[-119.51812,38.53098],[-119.51861,38.53079],[-119.51921,38.53053],[-119.52086,38.52976],[-119.5211,38.52965],[-119.52445,38.5281],[-119.52535,38.52767],[-119.52583,38.52736],[-119.52626,38.52701],[-119.52654,38.52674],[-119.52677,38.52646],[-119.52696,38.52614],[-119.52712,38.52578],[-119.52722,38.52548],[-119.52729,38.52511],[-119.52732,38.52478],[-119.52729,38.52435],[-119.52722,38.52405],[-119.52712,38.52374],[-119.52706,38.52362],[-119.52697,38.52346],[-119.5266,38.52292],[-119.52652,38.52276],[-119.52649,38.52262],[-119.52642,38.52218],[-119.52637,38.52129],[-119.52629,38.52092],[-119.52624,38.52076],[-119.52616,38.52057],[-119.52599,38.52022],[-119.52566,38.51975],[-119.52555,38.51958],[-119.52545,38.51935],[-119.52542,38.51921],[-119.52541,38.51902],[-119.52541,38.51896],[-119.52547,38.5187],[-119.52558,38.51848],[-119.52573,38.51827],[-119.52592,38.51805],[-119.52616,38.51778],[-119.52625,38.51772],[-119.5266,38.51747],[-119.5268,38.51729],[-119.52697,38.51711],[-119.52718,38.51687],[-119.52728,38.51675],[-119.52745,38.51657],[-119.52768,38.5164],[-119.52809,38.51615],[-119.52933,38.51534],[-119.52973,38.515],[-119.52997,38.51485],[-119.53022,38.51471],[-119.53039,38.51464],[-119.53117,38.51434],[-119.53318,38.51311],[-119.53346,38.51292],[-119.53348,38.51291],[-119.53366,38.51277],[-119.53405,38.51237],[-119.5341,38.51232],[-119.53418,38.51222],[-119.53422,38.51214],[-119.53423,38.51205],[-119.53421,38.51193],[-119.53395,38.51156],[-119.53392,38.51148],[-119.53393,38.51141],[-119.53396,38.51134],[-119.53402,38.51128],[-119.5341,38.51123],[-119.5347,38.51112],[-119.53479,38.51111],[-119.5349,38.51112],[-119.53504,38.51116],[-119.53526,38.51128],[-119.53543,38.51134],[-119.53562,38.51137],[-119.53581,38.51137],[-119.5359,38.51136],[-119.53661,38.5112],[-119.53698,38.51113],[-119.53738,38.51112],[-119.53748,38.51112],[-119.53774,38.51114],[-119.53793,38.51118],[-119.53805,38.51122],[-119.53815,38.51129],[-119.53825,38.51136],[-119.5383,38.5114],[-119.53834,38.51143],[-119.53842,38.5115],[-119.53849,38.51158],[-119.53854,38.51167],[-119.53859,38.51176],[-119.53862,38.51186],[-119.53881,38.51201],[-119.53888,38.51225],[-119.53893,38.51238],[-119.53897,38.51248],[-119.53899,38.51256],[-119.53901,38.51266],[-119.53911,38.51274],[-119.53922,38.51281],[-119.54029,38.5133],[-119.54056,38.51334],[-119.54074,38.5134],[-119.54078,38.51354],[-119.54075,38.51377],[-119.54077,38.5139],[-119.54074,38.51467],[-119.54072,38.51481],[-119.54062,38.51505],[-119.5406,38.5151],[-119.54062,38.51519],[-119.54065,38.51529],[-119.54077,38.51551],[-119.54123,38.51619],[-119.54141,38.51654],[-119.54171,38.51707],[-119.54188,38.51745],[-119.54236,38.51891],[-119.54248,38.51917],[-119.54262,38.51937],[-119.54268,38.51946],[-119.54293,38.51972],[-119.54317,38.51994],[-119.54338,38.52014],[-119.54356,38.52042],[-119.54383,38.52087],[-119.54405,38.52132],[-119.54415,38.52158],[-119.54426,38.52173],[-119.54432,38.52181],[-119.5444,38.52187],[-119.54441,38.52188],[-119.54467,38.52206],[-119.54486,38.52218],[-119.54498,38.52226],[-119.54507,38.52236],[-119.54518,38.52256],[-119.54536,38.52293],[-119.54546,38.52331],[-119.54549,38.52343],[-119.54553,38.52354],[-119.54559,38.52366],[-119.54566,38.52377],[-119.54574,38.52387],[-119.54584,38.52396],[-119.54605,38.52412],[-119.54616,38.52423],[-119.54626,38.52435],[-119.54635,38.52448],[-119.54641,38.52461],[-119.54646,38.52475],[-119.54649,38.52489],[-119.54651,38.52503],[-119.5465,38.52518],[-119.54647,38.52532],[-119.54633,38.52578],[-119.54618,38.52614],[-119.54608,38.52631],[-119.54575,38.52665],[-119.5457,38.52673],[-119.54566,38.52682],[-119.54565,38.52691],[-119.5457,38.52714],[-119.54574,38.52725],[-119.54579,38.52736],[-119.54587,38.52747],[-119.54595,38.52757],[-119.54605,38.52766],[-119.54615,38.52774],[-119.54631,38.52784],[-119.54679,38.52808],[-119.54687,38.52811],[-119.54693,38.52813],[-119.54704,38.52816],[-119.54714,38.52822],[-119.54722,38.52829],[-119.54731,38.52841],[-119.5474,38.52848],[-119.54751,38.52852],[-119.54764,38.52854],[-119.54776,38.52852],[-119.54785,38.52849],[-119.54811,38.52833]]}},{"type":"Feature","properties":{"name":"Summit Meadow Road","road_class":"track","surface":"unpaved","source":"Caltrans All Roads + OpenStreetMap explicit surface","source_detail":"osm way 474101101; Caltrans All Roads public-network geometry match","source_tile":"172/393","public_network_source":"Caltrans All Roads (ARNOLD/HPMS)","surface_source":"OpenStreetMap explicit surface tag","caltrans_match_coverage":1.0,"verified_length_m":3226},"geometry":{"type":"LineString","coordinates":[[-119.5338,38.36199],[-119.53373,38.3618],[-119.53371,38.36166],[-119.53369,38.36146],[-119.53364,38.36107],[-119.53357,38.36099],[-119.53349,38.36094],[-119.53342,38.36092],[-119.53333,38.36091],[-119.5332,38.36094],[-119.53257,38.36119],[-119.53153,38.36174],[-119.53077,38.36212],[-119.53069,38.36218],[-119.5306,38.36225],[-119.53053,38.36232],[-119.53046,38.36243],[-119.53027,38.36277],[-119.53007,38.36317],[-119.52995,38.36343],[-119.52979,38.36369],[-119.52947,38.36384],[-119.5293,38.36392],[-119.52907,38.36425],[-119.52897,38.36435],[-119.52886,38.36447],[-119.52864,38.3646],[-119.52843,38.36467],[-119.52839,38.36469],[-119.52835,38.36463],[-119.52829,38.36449],[-119.52819,38.36411],[-119.52805,38.36377],[-119.5279,38.36346],[-119.52776,38.36281],[-119.5277,38.36271],[-119.5276,38.36263],[-119.52724,38.36247],[-119.52701,38.36239],[-119.52693,38.36236],[-119.52674,38.36233],[-119.52662,38.36233],[-119.52634,38.36234],[-119.52609,38.36237],[-119.52585,38.36243],[-119.52562,38.3625],[-119.52539,38.36259],[-119.52534,38.36262],[-119.52516,38.36271],[-119.52496,38.36276],[-119.52485,38.36277],[-119.52469,38.36278],[-119.52444,38.36274],[-119.52423,38.36269],[-119.52414,38.36266],[-119.52404,38.3626],[-119.52397,38.36252],[-119.52397,38.36245],[-119.52397,38.3624],[-119.52402,38.36229],[-119.52411,38.36213],[-119.52452,38.36184],[-119.5248,38.36161],[-119.52517,38.36128],[-119.52523,38.3612],[-119.52528,38.36112],[-119.52534,38.36098],[-119.52543,38.36086],[-119.52554,38.36076],[-119.52568,38.36068],[-119.52594,38.36058],[-119.52603,38.36053],[-119.52619,38.36042],[-119.52638,38.36027],[-119.52655,38.36002],[-119.52663,38.35991],[-119.52667,38.35979],[-119.5267,38.35961],[-119.52674,38.35952],[-119.5268,38.35943],[-119.527,38.35925],[-119.52729,38.3588],[-119.52732,38.35871],[-119.52732,38.35862],[-119.52727,38.35853],[-119.52721,38.35846],[-119.52714,38.35844],[-119.52704,38.35843],[-119.52698,38.35846],[-119.52691,38.35853],[-119.5267,38.35881],[-119.52658,38.3589],[-119.52643,38.35893],[-119.52625,38.35892],[-119.52607,38.3589],[-119.52582,38.35886],[-119.52544,38.35885],[-119.52532,38.35887],[-119.5252,38.35891],[-119.52497,38.35901],[-119.52458,38.35917],[-119.52441,38.35918],[-119.52428,38.3592],[-119.52416,38.3592],[-119.52383,38.35912],[-119.52371,38.35911],[-119.52361,38.35912],[-119.52354,38.35914],[-119.52339,38.35922],[-119.52306,38.35933],[-119.52292,38.35936],[-119.52277,38.35938],[-119.52253,38.35939],[-119.52245,38.35937],[-119.52229,38.35936],[-119.52213,38.35937],[-119.52198,38.35941],[-119.52169,38.35953],[-119.52144,38.35961],[-119.521,38.3597],[-119.52084,38.35976],[-119.5207,38.35984],[-119.52053,38.35998],[-119.52041,38.36006],[-119.52028,38.36012],[-119.51994,38.36027],[-119.51975,38.36033],[-119.51955,38.36037],[-119.51935,38.36039],[-119.51915,38.3604],[-119.51895,38.3604],[-119.51885,38.36039],[-119.51861,38.3603],[-119.51845,38.36028],[-119.51828,38.36028],[-119.51812,38.36031],[-119.51785,38.3604],[-119.51774,38.36042],[-119.51762,38.36044],[-119.51717,38.36045],[-119.51701,38.36044],[-119.51684,38.36042],[-119.51672,38.36039],[-119.51663,38.36036],[-119.5165,38.36029],[-119.51609,38.35999],[-119.51603,38.35994],[-119.51599,38.35988],[-119.51593,38.35977],[-119.51586,38.35956],[-119.51583,38.35938],[-119.51581,38.35925],[-119.5157,38.35902],[-119.51561,38.35889],[-119.51551,38.35877],[-119.51539,38.35866],[-119.51524,38.35855],[-119.51494,38.35837],[-119.51479,38.35826],[-119.51464,38.35811]]}},{"type":"Feature","properties":{"name":"32023","road_class":"track","surface":"unpaved","source":"Caltrans All Roads + OpenStreetMap explicit surface","source_detail":"osm way 314371204; Caltrans All Roads public-network geometry match","source_tile":"172/393","public_network_source":"Caltrans All Roads (ARNOLD/HPMS)","surface_source":"OpenStreetMap explicit surface tag","caltrans_match_coverage":1.0,"verified_length_m":4018},"geometry":{"type":"LineString","coordinates":[[-119.51081,38.38444],[-119.51072,38.38434],[-119.51059,38.38419],[-119.5105,38.38407],[-119.50998,38.38345],[-119.50978,38.38321],[-119.50971,38.38309],[-119.50961,38.38283],[-119.50958,38.38269],[-119.50944,38.38224],[-119.50942,38.38219],[-119.50934,38.38211],[-119.50924,38.38204],[-119.50917,38.38201],[-119.5089,38.38195],[-119.50869,38.38193],[-119.50847,38.38192],[-119.50812,38.38193],[-119.50769,38.38192],[-119.50726,38.38187],[-119.5064,38.3817],[-119.50562,38.38158],[-119.5051,38.38157],[-119.50444,38.3816],[-119.50367,38.38156],[-119.50198,38.38144],[-119.50183,38.38141],[-119.50169,38.38135],[-119.50158,38.38126],[-119.5013,38.38103],[-119.50099,38.38078],[-119.5008,38.3806],[-119.50046,38.3802],[-119.50012,38.37973],[-119.49998,38.3796],[-119.49983,38.37949],[-119.49966,38.37938],[-119.49934,38.37922],[-119.49921,38.37917],[-119.49907,38.37913],[-119.49893,38.37911],[-119.49879,38.37909],[-119.49864,38.37908],[-119.4985,38.37909],[-119.49835,38.37911],[-119.49814,38.37916],[-119.49801,38.37922],[-119.49779,38.37933],[-119.49746,38.37952],[-119.49703,38.37972],[-119.49595,38.38008],[-119.49513,38.38043],[-119.49433,38.38083],[-119.49344,38.38127],[-119.49327,38.38139],[-119.49299,38.38167],[-119.49242,38.3823],[-119.49234,38.38238],[-119.49227,38.38241],[-119.49189,38.3825],[-119.49161,38.38259],[-119.49131,38.38272],[-119.4912,38.38275],[-119.49108,38.38276],[-119.49096,38.38275],[-119.49084,38.38272],[-119.49063,38.38265],[-119.49045,38.38261],[-119.49027,38.38259],[-119.49008,38.38258],[-119.48985,38.3826],[-119.48969,38.3828],[-119.48975,38.383],[-119.49049,38.38429],[-119.4906,38.38445],[-119.49066,38.38455],[-119.49069,38.38466],[-119.49072,38.38477],[-119.49072,38.38488],[-119.49071,38.38634],[-119.49069,38.38656],[-119.49066,38.3867],[-119.49048,38.3872],[-119.49031,38.38755],[-119.48988,38.38832],[-119.48967,38.38902],[-119.48919,38.39015],[-119.4891,38.39056],[-119.48886,38.3909],[-119.48876,38.391],[-119.48873,38.39111],[-119.48871,38.39121],[-119.4887,38.39132],[-119.48874,38.39141],[-119.48876,38.39159],[-119.48874,38.39176],[-119.48867,38.39193],[-119.48856,38.39209],[-119.48846,38.39221],[-119.48838,38.39234],[-119.48831,38.39248],[-119.48826,38.39262],[-119.48824,38.39273],[-119.48822,38.39329],[-119.48823,38.39339],[-119.48825,38.39349],[-119.48834,38.39371],[-119.48836,38.39383],[-119.48834,38.39395],[-119.48832,38.39401],[-119.48773,38.3951],[-119.48769,38.39522],[-119.48765,38.39554],[-119.4876,38.39564],[-119.48753,38.39574],[-119.48744,38.39582],[-119.48678,38.39624],[-119.48663,38.39631],[-119.48645,38.39636],[-119.48627,38.39638],[-119.48608,38.39636],[-119.48519,38.39613]]}},{"type":"Feature","properties":{"name":"32023C","road_class":"track","surface":"unpaved","source":"Caltrans All Roads + OpenStreetMap explicit surface","source_detail":"osm way 425991548; Caltrans All Roads public-network geometry match","source_tile":"172/393","public_network_source":"Caltrans All Roads (ARNOLD/HPMS)","surface_source":"OpenStreetMap explicit surface tag","caltrans_match_coverage":1.0,"verified_length_m":877},"geometry":{"type":"LineString","coordinates":[[-119.52839,38.36469],[-119.52838,38.36478],[-119.52835,38.36488],[-119.52816,38.36529],[-119.52795,38.36571],[-119.52776,38.36595],[-119.52773,38.36603],[-119.52772,38.36612],[-119.52772,38.36621],[-119.52769,38.36634],[-119.5277,38.36651],[-119.52771,38.36664],[-119.52767,38.36677],[-119.52761,38.36689],[-119.52751,38.36699],[-119.52741,38.36711],[-119.52693,38.3675],[-119.52655,38.36784],[-119.52629,38.36812],[-119.52599,38.36848],[-119.52562,38.36883],[-119.52496,38.36942],[-119.52395,38.37041],[-119.52374,38.3706],[-119.52365,38.37068],[-119.52356,38.37073],[-119.52346,38.3708],[-119.52326,38.37088],[-119.52286,38.37094]]}},{"type":"Feature","properties":{"name":"32023","road_class":"track","surface":"unpaved","source":"Caltrans All Roads + OpenStreetMap explicit surface","source_detail":"osm way 474098642; Caltrans All Roads public-network geometry match","source_tile":"172/393","public_network_source":"Caltrans All Roads (ARNOLD/HPMS)","surface_source":"OpenStreetMap explicit surface tag","caltrans_match_coverage":1.0,"verified_length_m":1926},"geometry":{"type":"LineString","coordinates":[[-119.52286,38.37094],[-119.52287,38.37116],[-119.52272,38.3715],[-119.52253,38.37178],[-119.5223,38.37214],[-119.52223,38.37227],[-119.52218,38.37238],[-119.52209,38.37269],[-119.52203,38.37287],[-119.52157,38.37384],[-119.5213,38.37447],[-119.52118,38.37467],[-119.52086,38.37508],[-119.52063,38.37545],[-119.52029,38.37595],[-119.51976,38.37661],[-119.5194,38.37697],[-119.51887,38.3775],[-119.51836,38.37802],[-119.5183,38.3781],[-119.51825,38.37817],[-119.51818,38.37834],[-119.5181,38.3789],[-119.51806,38.37901],[-119.51802,38.37911],[-119.51796,38.3792],[-119.51789,38.37928],[-119.51781,38.37936],[-119.51774,38.37945],[-119.51762,38.37956],[-119.5175,38.37967],[-119.51735,38.37976],[-119.5172,38.37984],[-119.51704,38.37991],[-119.51697,38.37993],[-119.51668,38.38002],[-119.5161,38.38015],[-119.51565,38.38028],[-119.51489,38.38047],[-119.51467,38.38052],[-119.51454,38.38056],[-119.51442,38.3806],[-119.51431,38.38066],[-119.51421,38.38073],[-119.51411,38.38081],[-119.51385,38.38108],[-119.51339,38.38147],[-119.51307,38.38173],[-119.51244,38.38215],[-119.51236,38.38222],[-119.51229,38.3823],[-119.51223,38.38239],[-119.51218,38.38249],[-119.51214,38.38264],[-119.51202,38.38338],[-119.51198,38.38349],[-119.5119,38.38359],[-119.51178,38.38371],[-119.51143,38.38397],[-119.51105,38.38428],[-119.51081,38.38444]]}},{"type":"Feature","properties":{"name":"(unnamed public road)","road_class":"track","surface":"unpaved","source":"Caltrans All Roads + OpenStreetMap explicit surface","source_detail":"osm way 803534182; Caltrans All Roads public-network geometry match","source_tile":"172/393","public_network_source":"Caltrans All Roads (ARNOLD/HPMS)","surface_source":"OpenStreetMap explicit surface tag","caltrans_match_coverage":1.0,"verified_length_m":831},"geometry":{"type":"LineString","coordinates":[[-119.51474,38.36149],[-119.51468,38.36159],[-119.51408,38.36181],[-119.51336,38.36206],[-119.51299,38.36224],[-119.51295,38.36228],[-119.51295,38.36234],[-119.51298,38.36243],[-119.51312,38.36246],[-119.51355,38.36244],[-119.51422,38.36239],[-119.51452,38.36239],[-119.51467,38.36245],[-119.51473,38.36251],[-119.51475,38.36258],[-119.51474,38.36264],[-119.51467,38.36271],[-119.5146,38.36275],[-119.51425,38.36285],[-119.51413,38.3629],[-119.514,38.36297],[-119.51394,38.36303],[-119.51387,38.36314],[-119.51382,38.36324],[-119.51383,38.36347],[-119.51389,38.36354],[-119.514,38.36363],[-119.51418,38.36379],[-119.51426,38.36388],[-119.51434,38.36398],[-119.5144,38.36416],[-119.5144,38.36453],[-119.51431,38.36509],[-119.51425,38.36544],[-119.51425,38.36557],[-119.51427,38.36563],[-119.51434,38.36574],[-119.51448,38.36584],[-119.51455,38.36585],[-119.51491,38.3659]]}},{"type":"Feature","properties":{"name":"Buckeye Road","road_class":"unclassified","surface":"compacted","tracktype":"grade2","source":"Caltrans All Roads + OpenStreetMap explicit surface","source_detail":"osm way 746235252; Caltrans All Roads public-network geometry match","source_tile":"172/394","public_network_source":"Caltrans All Roads (ARNOLD/HPMS)","surface_source":"OpenStreetMap explicit surface tag","caltrans_match_coverage":1.0,"verified_length_m":8074},"geometry":{"type":"LineString","coordinates":[[-119.33158,38.23835],[-119.33171,38.23837],[-119.33187,38.23839],[-119.33205,38.23845],[-119.33216,38.23851],[-119.33222,38.23857],[-119.33226,38.23864],[-119.33228,38.23874],[-119.33226,38.23887],[-119.33223,38.23898],[-119.33218,38.23913],[-119.3321,38.23929],[-119.33199,38.23946],[-119.3319,38.23958],[-119.33174,38.23971],[-119.33153,38.23984],[-119.3313,38.23995],[-119.33106,38.24006],[-119.33089,38.24012],[-119.33076,38.24013],[-119.33064,38.24014],[-119.33054,38.24014],[-119.33045,38.24011],[-119.33038,38.24006],[-119.33022,38.23993],[-119.33013,38.2399],[-119.32971,38.23976],[-119.329,38.2395],[-119.32888,38.23947],[-119.32873,38.23945],[-119.32857,38.23945],[-119.32839,38.23947],[-119.32819,38.23951],[-119.328,38.23959],[-119.32776,38.2397],[-119.32752,38.23984],[-119.32738,38.23989],[-119.32718,38.23994],[-119.3269,38.23999],[-119.32666,38.24002],[-119.32627,38.24004],[-119.32601,38.24004],[-119.32594,38.24004],[-119.32574,38.24005],[-119.32557,38.24006],[-119.32514,38.2401],[-119.32433,38.2402],[-119.32411,38.24021],[-119.32391,38.2402],[-119.32372,38.24016],[-119.3235,38.24007],[-119.3232,38.23993],[-119.32305,38.23987],[-119.32286,38.23981],[-119.32263,38.23977],[-119.32237,38.23975],[-119.32208,38.23974],[-119.32143,38.23972],[-119.32126,38.23972],[-119.32113,38.23973],[-119.32098,38.23976],[-119.32066,38.23987],[-119.32051,38.2399],[-119.32034,38.23992],[-119.32019,38.23991],[-119.31941,38.2398],[-119.319,38.23976],[-119.31878,38.23975],[-119.31861,38.23977],[-119.31811,38.23989],[-119.31791,38.23995],[-119.31777,38.24002],[-119.31765,38.24009],[-119.31755,38.24019],[-119.31737,38.2404],[-119.31725,38.2405],[-119.31708,38.2406],[-119.31671,38.2408],[-119.31642,38.24095],[-119.31612,38.24109],[-119.31536,38.2414],[-119.31519,38.24148],[-119.31506,38.24157],[-119.31496,38.24166],[-119.31486,38.24178],[-119.31475,38.24194],[-119.31461,38.24226],[-119.31452,38.24245],[-119.31444,38.24257],[-119.31436,38.24268],[-119.31424,38.24279],[-119.31413,38.24289],[-119.31395,38.24309],[-119.31379,38.24327],[-119.31369,38.24335],[-119.31356,38.24341],[-119.31336,38.24349],[-119.31282,38.24366],[-119.31268,38.24373],[-119.31251,38.24383],[-119.3124,38.24391],[-119.31227,38.24402],[-119.31212,38.24419],[-119.31204,38.24428],[-119.31175,38.24453],[-119.31162,38.24467],[-119.31143,38.24494],[-119.3113,38.24509],[-119.31066,38.24562],[-119.3106,38.24571],[-119.31054,38.24581],[-119.31049,38.246],[-119.31047,38.24606],[-119.31043,38.24612],[-119.31028,38.24625],[-119.31023,38.24632],[-119.31017,38.24641],[-119.31013,38.24656],[-119.31009,38.24679],[-119.31007,38.24687],[-119.30989,38.2472],[-119.30983,38.2473],[-119.30977,38.24738],[-119.30945,38.24766],[-119.3094,38.24773],[-119.30927,38.24797],[-119.30915,38.2481],[-119.30908,38.24822],[-119.30892,38.24852],[-119.30886,38.24862],[-119.30877,38.24871],[-119.30835,38.24913],[-119.30825,38.24924],[-119.30815,38.24937],[-119.3081,38.24944],[-119.30807,38.24952],[-119.30806,38.24962],[-119.30807,38.2498],[-119.30808,38.25002],[-119.30807,38.25012],[-119.30805,38.25023],[-119.308,38.25032],[-119.30794,38.25043],[-119.30781,38.2506],[-119.30771,38.25074],[-119.30767,38.25079],[-119.3076,38.25084],[-119.30753,38.25089],[-119.30745,38.25098],[-119.30739,38.25106],[-119.30713,38.25129],[-119.3068,38.25162],[-119.30671,38.25174],[-119.30662,38.25188],[-119.30649,38.25208],[-119.30646,38.25216],[-119.30645,38.25223],[-119.30647,38.25229],[-119.30662,38.25248],[-119.30663,38.25254],[-119.30663,38.25258],[-119.30659,38.25262],[-119.3065,38.25265],[-119.30594,38.25275],[-119.30574,38.2528],[-119.30559,38.25282],[-119.30539,38.25284],[-119.30529,38.25286],[-119.30524,38.25289],[-119.3052,38.25293],[-119.30518,38.25298],[-119.30518,38.25318],[-119.30517,38.25329],[-119.30515,38.25336],[-119.30514,38.25345],[-119.30515,38.25353],[-119.30519,38.25359],[-119.3053,38.25371],[-119.30533,38.25376],[-119.30533,38.25382],[-119.3053,38.25387],[-119.30524,38.25391],[-119.30515,38.25394],[-119.30499,38.25396],[-119.30429,38.25406],[-119.30403,38.25411],[-119.3039,38.25416],[-119.30381,38.25423],[-119.30375,38.25433],[-119.30363,38.25457],[-119.30359,38.25468],[-119.30359,38.25486],[-119.30357,38.25491],[-119.30352,38.25495],[-119.30347,38.25498],[-119.30339,38.25498],[-119.30312,38.25493],[-119.30303,38.25492],[-119.30294,38.25494],[-119.30285,38.25498],[-119.30279,38.25505],[-119.3027,38.25518],[-119.30262,38.25531],[-119.30259,38.25538],[-119.30257,38.25556],[-119.30254,38.25563],[-119.30249,38.2557],[-119.30227,38.25587],[-119.3019,38.25618],[-119.30184,38.25625],[-119.3018,38.25633],[-119.30178,38.2564],[-119.30181,38.25651],[-119.30188,38.25663],[-119.30197,38.25676],[-119.30207,38.25685],[-119.30221,38.25694],[-119.30227,38.25699],[-119.3023,38.25704],[-119.30232,38.25709],[-119.30231,38.25716],[-119.30228,38.25721],[-119.30224,38.25728],[-119.30208,38.25753],[-119.30204,38.25763],[-119.302,38.25777],[-119.30198,38.25795],[-119.30187,38.25818],[-119.30168,38.25867],[-119.3016,38.25889],[-119.30158,38.25901],[-119.30159,38.2591],[-119.30161,38.25919],[-119.30166,38.25926],[-119.30175,38.25933],[-119.30183,38.25938],[-119.30192,38.25941],[-119.30207,38.25945],[-119.30214,38.25948],[-119.30219,38.25951],[-119.30227,38.2596],[-119.3024,38.2598],[-119.3025,38.25993],[-119.30263,38.26005],[-119.30269,38.26013],[-119.30273,38.2602],[-119.30274,38.26027],[-119.30273,38.26035],[-119.30268,38.26042],[-119.30261,38.26047],[-119.30251,38.26049],[-119.30223,38.26052],[-119.30207,38.26055],[-119.30195,38.26059],[-119.30151,38.2608],[-119.30142,38.26086],[-119.30135,38.26092],[-119.30128,38.26099],[-119.30123,38.26104],[-119.30116,38.26107],[-119.30107,38.26108],[-119.30079,38.26108],[-119.30061,38.26111],[-119.30047,38.26114],[-119.30031,38.26119],[-119.30021,38.26123],[-119.30014,38.26128],[-119.30009,38.26135],[-119.30009,38.2614],[-119.3001,38.26145],[-119.30019,38.2616],[-119.30022,38.26167],[-119.30021,38.26175],[-119.30016,38.26179],[-119.30007,38.26181],[-119.29998,38.26181],[-119.29984,38.26179],[-119.29964,38.26179],[-119.29945,38.26181],[-119.29931,38.26184],[-119.29916,38.2619],[-119.29904,38.26197],[-119.29894,38.26205],[-119.29888,38.26214],[-119.29878,38.26263],[-119.29872,38.26286],[-119.29858,38.26321],[-119.29857,38.26332],[-119.29854,38.26343],[-119.29845,38.26368],[-119.29826,38.26403],[-119.29819,38.26422],[-119.29814,38.26429],[-119.29807,38.26438],[-119.29796,38.26446],[-119.2977,38.26458],[-119.29763,38.26464],[-119.29756,38.26472],[-119.29752,38.2648],[-119.29749,38.26491],[-119.29748,38.265],[-119.29749,38.26506],[-119.29753,38.26512],[-119.29761,38.26518],[-119.29809,38.26551],[-119.29823,38.2656],[-119.29838,38.26567],[-119.29856,38.26575],[-119.29882,38.26587],[-119.29903,38.266],[-119.29928,38.26625],[-119.29935,38.26632],[-119.29944,38.26637],[-119.29955,38.26639],[-119.29966,38.2664],[-119.29981,38.2664],[-119.29994,38.26639],[-119.30013,38.26634],[-119.3003,38.2663],[-119.30037,38.2663],[-119.30042,38.26632],[-119.30046,38.26636],[-119.30049,38.26643],[-119.30052,38.26655],[-119.30055,38.26666],[-119.30058,38.26675],[-119.30063,38.26682],[-119.30069,38.26685],[-119.30077,38.26689],[-119.30136,38.26705],[-119.3019,38.26721],[-119.30202,38.26726],[-119.30213,38.26733],[-119.30222,38.26741],[-119.30232,38.26746],[-119.30259,38.26758],[-119.30271,38.26765],[-119.30279,38.26773],[-119.30285,38.26781],[-119.30289,38.26792],[-119.30289,38.26799],[-119.30288,38.26804],[-119.30283,38.2681],[-119.30275,38.26812],[-119.30268,38.26812],[-119.30261,38.26811],[-119.30256,38.26807],[-119.30243,38.26798],[-119.30234,38.26793],[-119.30221,38.26788],[-119.30186,38.26777],[-119.3017,38.26774],[-119.30152,38.26772],[-119.3013,38.26771],[-119.30108,38.26773],[-119.30086,38.26776],[-119.30074,38.26777],[-119.30028,38.26779],[-119.29999,38.26781],[-119.29986,38.26781],[-119.29974,38.2678],[-119.29963,38.26778],[-119.29947,38.26773],[-119.2993,38.26769],[-119.29891,38.26763],[-119.29873,38.26757],[-119.29856,38.26751],[-119.29837,38.26743],[-119.29824,38.26734],[-119.29808,38.26723],[-119.29797,38.26718],[-119.29779,38.26711],[-119.29753,38.26703],[-119.29739,38.267],[-119.29728,38.26699],[-119.29716,38.267],[-119.29705,38.26704],[-119.2969,38.26712],[-119.29678,38.26721],[-119.29651,38.26742],[-119.29636,38.26752],[-119.29616,38.26766],[-119.29604,38.26776],[-119.29593,38.26787],[-119.29583,38.26797],[-119.29566,38.26808],[-119.29539,38.26831],[-119.29528,38.26841],[-119.29517,38.26853],[-119.2951,38.26865],[-119.29506,38.26877],[-119.29506,38.26886],[-119.29507,38.26893],[-119.29506,38.269],[-119.29504,38.26906],[-119.29497,38.26914],[-119.29433,38.26959],[-119.29424,38.26966],[-119.29416,38.26975],[-119.29413,38.26982],[-119.29413,38.26991],[-119.29416,38.26998],[-119.29421,38.27005],[-119.29428,38.27012],[-119.29443,38.27025],[-119.29449,38.27031],[-119.29451,38.27038],[-119.2945,38.27045],[-119.29446,38.27057],[-119.29438,38.27083],[-119.29431,38.27104],[-119.29423,38.27117],[-119.29412,38.27129],[-119.294,38.27139],[-119.29376,38.27154],[-119.29367,38.27161],[-119.2936,38.27165],[-119.2935,38.27168],[-119.2934,38.2717],[-119.29306,38.27173],[-119.29273,38.27175],[-119.29258,38.27177],[-119.29223,38.27186],[-119.29154,38.27204],[-119.29134,38.27208],[-119.29111,38.2721],[-119.29062,38.27213],[-119.29017,38.27214],[-119.28998,38.27216],[-119.28925,38.27229],[-119.28912,38.27232],[-119.28904,38.27236],[-119.28901,38.27242],[-119.28903,38.27248],[-119.28907,38.27254],[-119.28978,38.27346],[-119.28989,38.27358],[-119.29023,38.27392],[-119.29038,38.27405],[-119.29052,38.27415],[-119.29073,38.27427],[-119.2908,38.27433],[-119.29084,38.2744],[-119.29085,38.27446],[-119.29083,38.27455],[-119.29077,38.27466],[-119.29057,38.27493],[-119.29045,38.27509],[-119.29034,38.27525],[-119.29023,38.27544],[-119.29015,38.27556],[-119.29011,38.27561],[-119.29004,38.27566],[-119.28972,38.27583],[-119.28921,38.27615],[-119.28916,38.27618]]}}]}