{"type":"FeatureCollection","features":[{"type":"Feature","properties":{"name":"(unnamed public road)","road_class":"track","surface":"unpaved","source":"Caltrans All Roads + OpenStreetMap explicit surface","source_detail":"osm way 10327022; Caltrans All Roads public-network geometry match","source_tile":"172/398","public_network_source":"Caltrans All Roads (ARNOLD/HPMS)","surface_source":"OpenStreetMap explicit surface tag","caltrans_match_coverage":1.0,"verified_length_m":1431},"geometry":{"type":"LineString","coordinates":[[-119.30596,37.15983],[-119.30586,37.15995],[-119.30555,37.16007],[-119.3052,37.1602],[-119.30493,37.16024],[-119.30464,37.16028],[-119.30377,37.16066],[-119.3034,37.16117],[-119.30316,37.16156],[-119.30304,37.16183],[-119.30294,37.16194],[-119.3024,37.16229],[-119.30187,37.16279],[-119.30168,37.16295],[-119.30118,37.16338],[-119.30078,37.16371],[-119.29976,37.16441],[-119.29954,37.16458],[-119.29935,37.16486],[-119.29933,37.16538],[-119.29889,37.16569],[-119.29873,37.16612],[-119.2986,37.16657],[-119.29858,37.16676],[-119.29846,37.16697],[-119.29823,37.16707],[-119.29797,37.16728],[-119.2976,37.16802],[-119.29725,37.16861],[-119.2972,37.16879],[-119.2972,37.16924],[-119.29701,37.16969]]}},{"type":"Feature","properties":{"name":"Dawn Road","road_class":"track","surface":"unpaved","source":"Caltrans All Roads + OpenStreetMap explicit surface","source_detail":"osm way 10343901; Caltrans All Roads public-network geometry match","source_tile":"172/398","public_network_source":"Caltrans All Roads (ARNOLD/HPMS)","surface_source":"OpenStreetMap explicit surface tag","caltrans_match_coverage":0.98,"verified_length_m":5220},"geometry":{"type":"LineString","coordinates":[[-119.30596,37.15983],[-119.30621,37.15977],[-119.30673,37.15964],[-119.30683,37.15961],[-119.30742,37.15944],[-119.3076,37.15939],[-119.30777,37.15935],[-119.308,37.15921],[-119.30826,37.1591],[-119.30845,37.15901],[-119.30859,37.15889],[-119.30885,37.15876],[-119.30903,37.15875],[-119.30922,37.15877],[-119.30924,37.15877],[-119.30952,37.15873],[-119.3096,37.15862],[-119.30972,37.15852],[-119.31037,37.1584],[-119.3108,37.15824],[-119.3109,37.1582],[-119.31127,37.15786],[-119.31147,37.15776],[-119.3116,37.15769],[-119.312,37.15735],[-119.31235,37.15726],[-119.3126,37.15729],[-119.31281,37.15729],[-119.31284,37.15729],[-119.31298,37.15724],[-119.31312,37.15717],[-119.31328,37.15714],[-119.31369,37.1571],[-119.31397,37.15701],[-119.31417,37.15702],[-119.31437,37.15707],[-119.31464,37.1571],[-119.31471,37.15706],[-119.31481,37.15702],[-119.31495,37.15686],[-119.31509,37.15675],[-119.31535,37.15673],[-119.31557,37.15679],[-119.31569,37.15698],[-119.31579,37.15719],[-119.3159,37.1574],[-119.31601,37.15768],[-119.31604,37.15783],[-119.316,37.15798],[-119.31604,37.15811],[-119.31614,37.15822],[-119.31621,37.15824],[-119.31628,37.15826],[-119.3164,37.15826],[-119.31652,37.15823],[-119.31671,37.15813],[-119.3169,37.15801],[-119.31703,37.15788],[-119.31718,37.15776],[-119.31737,37.15774],[-119.31755,37.15779],[-119.31769,37.15794],[-119.31773,37.15808],[-119.31773,37.15822],[-119.31775,37.15846],[-119.31784,37.15861],[-119.31793,37.15876],[-119.31808,37.159],[-119.31848,37.15919],[-119.31889,37.15944],[-119.31897,37.15953],[-119.31903,37.15964],[-119.31912,37.1599],[-119.31921,37.15994],[-119.31934,37.15993],[-119.31985,37.15999],[-119.32018,37.15996],[-119.32038,37.16004],[-119.32052,37.16017],[-119.32062,37.16033],[-119.32069,37.16051],[-119.32063,37.16072],[-119.32058,37.16087],[-119.32057,37.16091],[-119.32058,37.16112],[-119.32064,37.16131],[-119.32071,37.16141],[-119.32074,37.16146],[-119.32089,37.16153],[-119.32111,37.16153],[-119.32132,37.16145],[-119.32151,37.16142],[-119.32169,37.16145],[-119.3219,37.1616],[-119.32203,37.16172],[-119.32216,37.16186],[-119.32225,37.16209],[-119.3223,37.16229],[-119.32231,37.16236],[-119.32232,37.16254],[-119.32244,37.16285],[-119.32258,37.1632],[-119.32266,37.16357],[-119.32267,37.16372],[-119.32272,37.16427],[-119.32278,37.16455],[-119.32279,37.16458],[-119.32295,37.16484],[-119.32301,37.16496],[-119.32301,37.1651],[-119.32294,37.16531],[-119.32294,37.1654],[-119.32294,37.16546],[-119.32302,37.16561],[-119.32307,37.16574],[-119.32304,37.16588],[-119.323,37.16606],[-119.32302,37.16623],[-119.32304,37.16629],[-119.32305,37.16632],[-119.32307,37.16633],[-119.32315,37.16638],[-119.32327,37.1664],[-119.3233,37.16641],[-119.32344,37.16639],[-119.32371,37.16632],[-119.32398,37.16622],[-119.32421,37.16613],[-119.32446,37.16609],[-119.3247,37.16602],[-119.32496,37.16599],[-119.32504,37.16597],[-119.32514,37.16595],[-119.32522,37.16586],[-119.32524,37.16575],[-119.32533,37.16555],[-119.3257,37.1654],[-119.32611,37.16525],[-119.32633,37.16521],[-119.32657,37.16527],[-119.3268,37.16542],[-119.32693,37.16561],[-119.32694,37.16578],[-119.327,37.16596],[-119.32705,37.16601],[-119.32712,37.16604],[-119.32717,37.16606],[-119.3273,37.1661],[-119.32753,37.16616],[-119.32776,37.16616],[-119.32816,37.16622],[-119.32835,37.16625],[-119.32836,37.16625],[-119.32856,37.16622],[-119.32896,37.16611],[-119.32913,37.1661],[-119.32929,37.16612],[-119.32947,37.16621],[-119.32963,37.16639],[-119.32983,37.16654],[-119.32996,37.16657],[-119.33009,37.16659],[-119.33039,37.16655],[-119.3307,37.16652],[-119.33093,37.16655],[-119.33128,37.16662],[-119.33154,37.16667],[-119.3317,37.16668],[-119.33177,37.16668],[-119.33192,37.16665],[-119.33214,37.16656],[-119.33226,37.16649],[-119.33237,37.16644],[-119.33259,37.16642],[-119.33282,37.16645],[-119.33314,37.16651],[-119.33345,37.16662],[-119.33355,37.16663],[-119.33376,37.16659],[-119.33392,37.16656],[-119.33407,37.16657],[-119.33425,37.16662],[-119.33439,37.16671],[-119.33447,37.16687],[-119.33446,37.16696],[-119.3344,37.16705],[-119.33345,37.16789],[-119.33336,37.16804],[-119.33285,37.16895],[-119.33282,37.16921],[-119.33282,37.16922],[-119.33279,37.16952],[-119.33288,37.16966],[-119.33288,37.17057],[-119.33224,37.1716],[-119.33193,37.17211],[-119.33196,37.17229],[-119.33235,37.17254],[-119.3325,37.17263],[-119.33519,37.17318],[-119.33556,37.17328],[-119.33639,37.17352],[-119.33711,37.17387],[-119.33739,37.17414],[-119.33765,37.17455],[-119.33748,37.17485],[-119.33736,37.17497],[-119.33724,37.17506],[-119.33703,37.1753],[-119.3368,37.17573],[-119.33658,37.17609],[-119.33641,37.17624],[-119.33625,37.17637],[-119.3359,37.17648],[-119.33587,37.17653]]}},{"type":"Feature","properties":{"name":"Old Railroad Grade Road","road_class":"track","surface":"unpaved","source":"Caltrans All Roads + OpenStreetMap explicit surface","source_detail":"osm way 10344639; Caltrans All Roads public-network geometry match","source_tile":"172/398","public_network_source":"Caltrans All Roads (ARNOLD/HPMS)","surface_source":"OpenStreetMap explicit surface tag","caltrans_match_coverage":1.0,"verified_length_m":4433},"geometry":{"type":"LineString","coordinates":[[-119.3282,37.15744],[-119.32852,37.15759],[-119.32883,37.15782],[-119.32895,37.15793],[-119.32904,37.15805],[-119.32914,37.15823],[-119.3292,37.15831],[-119.32928,37.15839],[-119.32943,37.15845],[-119.3296,37.15849],[-119.32987,37.15851],[-119.33016,37.15855],[-119.33044,37.15859],[-119.33059,37.15866],[-119.33071,37.15872],[-119.3308,37.15882],[-119.33084,37.15892],[-119.33084,37.15898],[-119.33082,37.15906],[-119.33078,37.15912],[-119.33069,37.15917],[-119.33058,37.15922],[-119.33048,37.15926],[-119.33037,37.15928],[-119.33026,37.1593],[-119.32999,37.15933],[-119.32984,37.15935],[-119.32972,37.15939],[-119.32955,37.15947],[-119.32946,37.15952],[-119.32936,37.15959],[-119.32928,37.15967],[-119.32921,37.15977],[-119.32912,37.15988],[-119.32902,37.15997],[-119.32888,37.16008],[-119.32879,37.16013],[-119.32872,37.16016],[-119.32865,37.16018],[-119.32859,37.16021],[-119.32853,37.16025],[-119.32849,37.16033],[-119.32847,37.16039],[-119.32847,37.16044],[-119.32849,37.16049],[-119.32852,37.16055],[-119.32856,37.16059],[-119.32862,37.16063],[-119.3287,37.16066],[-119.3288,37.16068],[-119.32894,37.16069],[-119.32909,37.16071],[-119.32923,37.16075],[-119.32937,37.16079],[-119.32953,37.1608],[-119.32967,37.16078],[-119.32979,37.16073],[-119.3299,37.16068],[-119.33004,37.16064],[-119.33017,37.16063],[-119.33028,37.16064],[-119.3304,37.16065],[-119.33052,37.16068],[-119.3306,37.16072],[-119.33067,37.16077],[-119.33078,37.16083],[-119.33092,37.16087],[-119.33106,37.16091],[-119.33118,37.16096],[-119.33127,37.16102],[-119.33132,37.16112],[-119.33132,37.16123],[-119.33128,37.16132],[-119.33121,37.16145],[-119.33109,37.16158],[-119.33093,37.16168],[-119.33076,37.16175],[-119.33064,37.16182],[-119.33056,37.16191],[-119.33055,37.16198],[-119.33056,37.16207],[-119.33067,37.16228],[-119.3307,37.16237],[-119.33079,37.16249],[-119.33087,37.16254],[-119.33099,37.16258],[-119.33112,37.16258],[-119.3312,37.16257],[-119.33129,37.16254],[-119.33137,37.16252],[-119.33145,37.16251],[-119.33158,37.16252],[-119.33171,37.16255],[-119.33181,37.16256],[-119.3319,37.16256],[-119.33196,37.16254],[-119.33201,37.16251],[-119.33208,37.16244],[-119.33214,37.16237],[-119.33219,37.16232],[-119.3323,37.16226],[-119.33243,37.16224],[-119.33258,37.16223],[-119.33274,37.16225],[-119.33288,37.16228],[-119.33299,37.16235],[-119.33306,37.16243],[-119.33311,37.16251],[-119.33315,37.16255],[-119.33322,37.16258],[-119.33328,37.16259],[-119.33335,37.16259],[-119.33349,37.16258],[-119.33372,37.16254],[-119.33395,37.1625],[-119.33405,37.16247],[-119.33415,37.16243],[-119.33426,37.16239],[-119.33436,37.16235],[-119.33447,37.16232],[-119.33458,37.1623],[-119.33469,37.16228],[-119.3348,37.16228],[-119.33526,37.16228],[-119.33535,37.16228],[-119.33544,37.16227],[-119.33551,37.16226],[-119.33558,37.16224],[-119.33567,37.16218],[-119.33576,37.16213],[-119.33586,37.16209],[-119.33594,37.16207],[-119.33605,37.16205],[-119.33615,37.16203],[-119.33623,37.16201],[-119.3363,37.16199],[-119.33635,37.16198],[-119.33642,37.16198],[-119.33649,37.16199],[-119.33661,37.16204],[-119.33687,37.16217],[-119.33713,37.16234],[-119.33718,37.16237],[-119.33723,37.16239],[-119.33735,37.16243],[-119.33748,37.16247],[-119.33754,37.16248],[-119.3376,37.16251],[-119.33766,37.16255],[-119.33772,37.1626],[-119.33776,37.16263],[-119.33781,37.16269],[-119.33783,37.16273],[-119.33786,37.16278],[-119.33787,37.16282],[-119.33788,37.16286],[-119.33787,37.16292],[-119.33785,37.16299],[-119.33782,37.16304],[-119.33779,37.16309],[-119.33772,37.16318],[-119.33771,37.16324],[-119.33771,37.16329],[-119.33774,37.16336],[-119.33777,37.16343],[-119.33783,37.16349],[-119.33789,37.16354],[-119.33798,37.16362],[-119.33807,37.16371],[-119.33815,37.1638],[-119.33821,37.16391],[-119.33826,37.16402],[-119.3383,37.16416],[-119.3383,37.16422],[-119.33829,37.16429],[-119.33826,37.16436],[-119.33822,37.1644],[-119.33816,37.16448],[-119.33808,37.16455],[-119.33789,37.1647],[-119.3378,37.16479],[-119.33771,37.1649],[-119.33757,37.1651],[-119.3375,37.1652],[-119.33745,37.16531],[-119.33735,37.16556],[-119.33724,37.166],[-119.33713,37.1663],[-119.33712,37.16636],[-119.33711,37.16651],[-119.33713,37.16665],[-119.33712,37.16679],[-119.33705,37.16694],[-119.33696,37.16707],[-119.33692,37.16714],[-119.33691,37.16721],[-119.33693,37.16738],[-119.33691,37.16757],[-119.33689,37.16767],[-119.33682,37.16775],[-119.33671,37.16781],[-119.33654,37.16786],[-119.33638,37.16792],[-119.33579,37.16814],[-119.33572,37.16818],[-119.33567,37.16823],[-119.33557,37.16836],[-119.33547,37.16849],[-119.3354,37.16856],[-119.33532,37.16861],[-119.33508,37.1687],[-119.33499,37.16873],[-119.33492,37.16877],[-119.33486,37.16884],[-119.33483,37.16891],[-119.33481,37.16899],[-119.33481,37.16908],[-119.33482,37.16915],[-119.33481,37.16922],[-119.33478,37.16931],[-119.3347,37.16938],[-119.33458,37.16945],[-119.33447,37.16954],[-119.33443,37.16959],[-119.33442,37.16965],[-119.33442,37.16976],[-119.33443,37.16982],[-119.33461,37.17024],[-119.33477,37.17064],[-119.33476,37.17073],[-119.33472,37.1708],[-119.33462,37.17088],[-119.3345,37.17095],[-119.33436,37.17105],[-119.33427,37.17119],[-119.33423,37.17128],[-119.3342,37.17138],[-119.33419,37.17147],[-119.33415,37.17155],[-119.3341,37.1716],[-119.33402,37.17165],[-119.33393,37.17168],[-119.33382,37.17173],[-119.33372,37.17181],[-119.33367,37.17187],[-119.33366,37.17193],[-119.33367,37.172],[-119.3337,37.17205],[-119.33374,37.17209],[-119.33384,37.17214],[-119.33397,37.17217],[-119.33413,37.17219],[-119.33433,37.17224],[-119.33451,37.17229],[-119.33469,37.1723],[-119.33485,37.17229],[-119.33501,37.1723],[-119.33526,37.17241],[-119.33543,37.17253],[-119.33574,37.17277],[-119.33581,37.1728],[-119.33596,37.17282],[-119.33614,37.1728],[-119.33628,37.17281],[-119.33642,37.17283],[-119.33652,37.1729],[-119.33684,37.17317],[-119.33716,37.17338],[-119.33728,37.17343],[-119.3375,37.1735],[-119.33764,37.17353],[-119.33777,37.17359],[-119.3381,37.17375],[-119.33841,37.17387],[-119.33851,37.17392],[-119.33862,37.17398],[-119.33866,37.17406],[-119.33868,37.17415],[-119.33864,37.1743],[-119.33858,37.17437],[-119.33848,37.17441],[-119.33813,37.17452],[-119.33801,37.17461],[-119.3379,37.17473],[-119.33771,37.17503],[-119.33729,37.1754],[-119.33695,37.17575],[-119.33667,37.17615],[-119.33651,37.17632],[-119.33634,37.17643],[-119.33617,37.1765],[-119.33587,37.17653],[-119.33579,37.17655],[-119.33552,37.17663],[-119.33523,37.17674],[-119.33503,37.1768],[-119.33483,37.17685],[-119.33461,37.17683],[-119.33422,37.17682],[-119.33399,37.17689],[-119.33374,37.177],[-119.3333,37.17718],[-119.33296,37.17736],[-119.33282,37.17744],[-119.33262,37.17756],[-119.33225,37.17778],[-119.33206,37.17786],[-119.33194,37.17792],[-119.33185,37.17798],[-119.33182,37.17806],[-119.33181,37.17814],[-119.33183,37.17823],[-119.332,37.17843],[-119.33205,37.17857],[-119.33205,37.17877],[-119.33197,37.17897]]}},{"type":"Feature","properties":{"name":"Rock Creek Road","road_class":"track","surface":"dirt","tracktype":"grade1","source":"Caltrans All Roads + OpenStreetMap explicit surface","source_detail":"osm way 348904543; Caltrans All Roads public-network geometry match","source_tile":"173/398","public_network_source":"Caltrans All Roads (ARNOLD/HPMS)","surface_source":"OpenStreetMap explicit surface tag","caltrans_match_coverage":1.0,"verified_length_m":9204},"geometry":{"type":"LineString","coordinates":[[-119.16025,37.12527],[-119.16028,37.12533],[-119.16034,37.12538],[-119.16042,37.12541],[-119.16053,37.12542],[-119.16071,37.12531],[-119.16083,37.12511],[-119.16098,37.12476],[-119.16107,37.12461],[-119.16118,37.12448],[-119.16144,37.12431],[-119.16165,37.1242],[-119.16185,37.12411],[-119.16209,37.124],[-119.16227,37.12389],[-119.16251,37.1237],[-119.16307,37.12316],[-119.16319,37.12309],[-119.16335,37.12304],[-119.16347,37.12304],[-119.16359,37.12307],[-119.16371,37.12313],[-119.16383,37.12322],[-119.16397,37.12332],[-119.16439,37.12355],[-119.16455,37.12365],[-119.16462,37.12376],[-119.16466,37.1239],[-119.16468,37.12413],[-119.16475,37.12432],[-119.16481,37.12445],[-119.1649,37.12455],[-119.16511,37.1247],[-119.16529,37.12476],[-119.16547,37.12475],[-119.16568,37.1247],[-119.16594,37.12469],[-119.16618,37.12471],[-119.16712,37.12505],[-119.16734,37.12517],[-119.16756,37.12527],[-119.16799,37.12565],[-119.16817,37.12573],[-119.16833,37.12573],[-119.16855,37.12568],[-119.1694,37.12537],[-119.16965,37.1252],[-119.16995,37.12488],[-119.1702,37.1245],[-119.17041,37.12416],[-119.17054,37.12399],[-119.17072,37.12383],[-119.17091,37.12376],[-119.17108,37.12373],[-119.17129,37.12377],[-119.17151,37.12384],[-119.1722,37.12437],[-119.17242,37.1245],[-119.17267,37.12457],[-119.1733,37.12457],[-119.17385,37.12459],[-119.1741,37.12463],[-119.17428,37.12471],[-119.17446,37.12488],[-119.1747,37.12513],[-119.17487,37.12527],[-119.17497,37.12533],[-119.17511,37.12538],[-119.17529,37.1255],[-119.17539,37.12562],[-119.17543,37.12571],[-119.17545,37.12593],[-119.17552,37.12603],[-119.1757,37.12617],[-119.17597,37.12635],[-119.17616,37.12654],[-119.17636,37.12671],[-119.17654,37.12694],[-119.17661,37.12708],[-119.17666,37.12726],[-119.17666,37.12755],[-119.17668,37.12771],[-119.17674,37.12784],[-119.17689,37.12798],[-119.17719,37.12821],[-119.17728,37.12832],[-119.17731,37.12842],[-119.1773,37.12856],[-119.17722,37.1288],[-119.17708,37.1291],[-119.17699,37.12936],[-119.17687,37.12954],[-119.1767,37.1297],[-119.17633,37.13003],[-119.17623,37.13013],[-119.17616,37.13027],[-119.17615,37.1304],[-119.17602,37.1308],[-119.17594,37.13094],[-119.17581,37.13115],[-119.17571,37.13134],[-119.17551,37.13166],[-119.17546,37.1318],[-119.17542,37.13199],[-119.17542,37.13248],[-119.17545,37.13281],[-119.17552,37.13304],[-119.1756,37.13324],[-119.17591,37.13398],[-119.1761,37.13471],[-119.1761,37.13489],[-119.17606,37.13504],[-119.17598,37.13515],[-119.17586,37.13524],[-119.17567,37.13535],[-119.17537,37.1355],[-119.17507,37.13569],[-119.17468,37.13596],[-119.17454,37.13609],[-119.17372,37.13665],[-119.17358,37.13682],[-119.17342,37.13703],[-119.17334,37.13719],[-119.17307,37.13749],[-119.17275,37.13771],[-119.17238,37.13788],[-119.17191,37.13811],[-119.17172,37.1382],[-119.17159,37.13832],[-119.17144,37.13848],[-119.17128,37.13881],[-119.17113,37.13899],[-119.17098,37.13914],[-119.17077,37.13932],[-119.17066,37.13949],[-119.17065,37.13983],[-119.17069,37.14025],[-119.17069,37.14067],[-119.17062,37.14099],[-119.17061,37.14135],[-119.17084,37.14263],[-119.17095,37.14307],[-119.17092,37.14393],[-119.17116,37.14438],[-119.17133,37.14484],[-119.17157,37.1452],[-119.17195,37.14556],[-119.17223,37.14566],[-119.17252,37.14567],[-119.17294,37.14574],[-119.17414,37.14611],[-119.1745,37.14626],[-119.17465,37.1464],[-119.17473,37.14653],[-119.17478,37.14672],[-119.17475,37.14711],[-119.17478,37.14729],[-119.17486,37.14752],[-119.17491,37.14763],[-119.17501,37.14772],[-119.17517,37.14783],[-119.17537,37.14786],[-119.176,37.14787],[-119.17684,37.14785],[-119.17765,37.14784],[-119.17804,37.14787],[-119.17854,37.14787],[-119.17885,37.14784],[-119.17907,37.14781],[-119.17924,37.14772],[-119.17937,37.14761],[-119.17948,37.14748],[-119.17952,37.14734],[-119.17958,37.14719],[-119.17979,37.14703],[-119.17995,37.14695],[-119.1802,37.14685],[-119.18051,37.14676],[-119.18079,37.14671],[-119.18226,37.14668],[-119.18265,37.14669],[-119.18285,37.14672],[-119.18303,37.14677],[-119.18313,37.14681],[-119.18323,37.14689],[-119.18328,37.14697],[-119.18331,37.14707],[-119.18334,37.14719],[-119.18338,37.1473],[-119.18347,37.14737],[-119.18361,37.14743],[-119.18377,37.14745],[-119.18395,37.14746],[-119.18409,37.14746],[-119.18436,37.14742],[-119.18445,37.14739],[-119.18454,37.14735],[-119.18478,37.14715],[-119.18509,37.14675],[-119.18516,37.14669],[-119.18527,37.14662],[-119.18537,37.14659],[-119.18551,37.1466],[-119.18566,37.14663],[-119.18587,37.14674],[-119.18594,37.14681],[-119.18599,37.14687],[-119.18604,37.14696],[-119.18608,37.14712],[-119.18608,37.14723],[-119.18607,37.1474],[-119.18597,37.14768],[-119.18594,37.14785],[-119.18592,37.14808],[-119.18591,37.14826],[-119.18598,37.14853],[-119.18603,37.14862],[-119.18611,37.14869],[-119.1862,37.14875],[-119.18629,37.1488],[-119.18639,37.14883],[-119.1865,37.14884],[-119.18663,37.14884],[-119.18678,37.14882],[-119.18692,37.14877],[-119.18719,37.14863],[-119.18738,37.14848],[-119.18794,37.14804],[-119.18838,37.14773],[-119.18945,37.14705],[-119.18956,37.14696],[-119.18965,37.14676],[-119.18967,37.1463],[-119.18971,37.14611],[-119.18973,37.14599],[-119.18979,37.14566],[-119.18982,37.14553],[-119.18991,37.14537],[-119.18998,37.1453],[-119.19006,37.14524],[-119.19016,37.1452],[-119.19028,37.14516],[-119.19038,37.14514],[-119.19061,37.14515],[-119.19073,37.14518],[-119.1909,37.14525],[-119.19117,37.14543],[-119.19144,37.14555],[-119.19155,37.14559],[-119.19184,37.14559],[-119.19201,37.14555],[-119.1922,37.14547],[-119.19238,37.14538],[-119.19257,37.14527],[-119.19283,37.14508],[-119.19297,37.14499],[-119.19318,37.14491],[-119.19335,37.14485],[-119.19354,37.14483],[-119.19388,37.14479],[-119.19472,37.14482],[-119.19488,37.14484],[-119.19511,37.14491],[-119.19534,37.145],[-119.1959,37.14526],[-119.19608,37.14536],[-119.19621,37.14543],[-119.19627,37.14549],[-119.19632,37.14557],[-119.19634,37.14569],[-119.19632,37.14593],[-119.19628,37.14602],[-119.19609,37.14633],[-119.19598,37.14647],[-119.19591,37.14665],[-119.19585,37.14677],[-119.19583,37.14687],[-119.19583,37.14696],[-119.19587,37.14703],[-119.19592,37.14709],[-119.19598,37.14713],[-119.19609,37.14718],[-119.19622,37.14721],[-119.19644,37.14722],[-119.19672,37.14722],[-119.19683,37.14718],[-119.19693,37.14712],[-119.19703,37.14705],[-119.19713,37.14693],[-119.19732,37.14678],[-119.19742,37.14673],[-119.19752,37.14671],[-119.19762,37.1467],[-119.19772,37.1467],[-119.19783,37.14671],[-119.19819,37.14681],[-119.1983,37.14683],[-119.19851,37.14684],[-119.19861,37.14682],[-119.1987,37.14678],[-119.1988,37.14672],[-119.19886,37.14667],[-119.19892,37.14659],[-119.19911,37.14628],[-119.19922,37.14619],[-119.19927,37.14617],[-119.19935,37.14616],[-119.19982,37.14621],[-119.20007,37.14622],[-119.20052,37.1462],[-119.20066,37.14618],[-119.20103,37.14605],[-119.20149,37.14591],[-119.20163,37.14587],[-119.20182,37.14584],[-119.20244,37.14584],[-119.20258,37.14585],[-119.20266,37.14589],[-119.20272,37.14593],[-119.20274,37.14598],[-119.20275,37.14603],[-119.20273,37.1461],[-119.20271,37.14616],[-119.20267,37.14621],[-119.20237,37.14645],[-119.20197,37.14684],[-119.20178,37.14704],[-119.20163,37.14717],[-119.20145,37.14728],[-119.20118,37.14743],[-119.201,37.14758],[-119.20087,37.14773],[-119.19985,37.1488],[-119.19965,37.14908],[-119.19958,37.14926],[-119.19944,37.14956],[-119.19939,37.14971],[-119.19937,37.14981],[-119.19939,37.14995],[-119.19944,37.15004],[-119.19952,37.15013],[-119.19972,37.15027],[-119.19996,37.1503],[-119.20012,37.1503],[-119.20029,37.15025],[-119.20054,37.15016],[-119.20081,37.15004],[-119.20104,37.14993],[-119.20119,37.14989],[-119.20133,37.14989],[-119.20144,37.14993],[-119.20151,37.14998],[-119.20157,37.15006],[-119.20166,37.15032],[-119.20168,37.15046],[-119.20167,37.15063],[-119.20164,37.15082],[-119.20157,37.151],[-119.20152,37.15126],[-119.20144,37.15148],[-119.20135,37.15172],[-119.20121,37.15211],[-119.20119,37.15227]]}},{"type":"Feature","properties":{"name":"Rock Creek Road","road_class":"track","surface":"dirt","tracktype":"grade1","source":"Caltrans All Roads + OpenStreetMap explicit surface","source_detail":"osm way 1243581937; Caltrans All Roads public-network geometry match","source_tile":"172/398","public_network_source":"Caltrans All Roads (ARNOLD/HPMS)","surface_source":"OpenStreetMap explicit surface tag","caltrans_match_coverage":1.0,"verified_length_m":1383},"geometry":{"type":"LineString","coordinates":[[-119.20119,37.15227],[-119.2012,37.15251],[-119.20125,37.15273],[-119.20128,37.15305],[-119.20128,37.15334],[-119.20125,37.15353],[-119.20119,37.15375],[-119.20091,37.15444],[-119.20083,37.1547],[-119.20082,37.15498],[-119.20084,37.15536],[-119.2009,37.1559],[-119.20099,37.15625],[-119.20099,37.15647],[-119.20097,37.1566],[-119.20088,37.15672],[-119.20076,37.15682],[-119.20062,37.15691],[-119.20045,37.157],[-119.20019,37.15714],[-119.19911,37.15766],[-119.19871,37.15786],[-119.19847,37.15801],[-119.19832,37.15814],[-119.19816,37.15834],[-119.19807,37.15847],[-119.19801,37.1586],[-119.198,37.15872],[-119.198,37.15892],[-119.19815,37.15974],[-119.1983,37.16014],[-119.19838,37.16045],[-119.19852,37.16067],[-119.1986,37.16076],[-119.19875,37.16087],[-119.19922,37.16118],[-119.19951,37.16135],[-119.20032,37.16162],[-119.20049,37.16171],[-119.20084,37.162],[-119.20111,37.16218],[-119.20132,37.16231]]}},{"type":"Feature","properties":{"name":"Old Railroad Grade Road","road_class":"unclassified","surface":"gravel","source":"Caltrans All Roads + OpenStreetMap explicit surface","source_detail":"osm way 10344638; Caltrans All Roads public-network geometry match","source_tile":"172/398","public_network_source":"Caltrans All Roads (ARNOLD/HPMS)","surface_source":"OpenStreetMap explicit surface tag","caltrans_match_coverage":1.0,"verified_length_m":9843},"geometry":{"type":"LineString","coordinates":[[-119.37121,37.12555],[-119.37097,37.12572],[-119.37088,37.12581],[-119.37084,37.12588],[-119.37081,37.12592],[-119.37071,37.126],[-119.37068,37.12603],[-119.37057,37.12612],[-119.37019,37.12642],[-119.37013,37.12647],[-119.36982,37.12673],[-119.36959,37.12685],[-119.36947,37.1269],[-119.36936,37.12692],[-119.36926,37.12693],[-119.36914,37.12691],[-119.36891,37.12686],[-119.36878,37.12686],[-119.36866,37.12689],[-119.36857,37.12695],[-119.36855,37.12696],[-119.3685,37.12701],[-119.36843,37.12714],[-119.3684,37.12726],[-119.36841,37.12735],[-119.36843,37.12744],[-119.36844,37.12753],[-119.36844,37.12763],[-119.36843,37.1277],[-119.3684,37.12777],[-119.36835,37.12782],[-119.3683,37.12789],[-119.36823,37.12793],[-119.36817,37.12798],[-119.36813,37.12802],[-119.3681,37.12807],[-119.36806,37.12816],[-119.36806,37.12821],[-119.36806,37.12828],[-119.36808,37.12833],[-119.36811,37.12839],[-119.36814,37.12843],[-119.36817,37.12847],[-119.36822,37.12853],[-119.36825,37.12855],[-119.36828,37.12858],[-119.3684,37.12863],[-119.3685,37.12867],[-119.36863,37.1287],[-119.36873,37.12873],[-119.36881,37.12874],[-119.36882,37.12874],[-119.36892,37.12873],[-119.36906,37.1287],[-119.3692,37.12864],[-119.36934,37.12861],[-119.36948,37.1286],[-119.36958,37.12861],[-119.36968,37.12864],[-119.36972,37.12866],[-119.36975,37.1287],[-119.36979,37.12874],[-119.36982,37.12879],[-119.36983,37.12884],[-119.36983,37.1289],[-119.36982,37.12895],[-119.3698,37.12899],[-119.36977,37.12903],[-119.36972,37.12908],[-119.36956,37.12915],[-119.36896,37.12941],[-119.36833,37.1297],[-119.36821,37.12972],[-119.36811,37.12972],[-119.368,37.1297],[-119.36789,37.12966],[-119.3678,37.1296],[-119.36773,37.12954],[-119.36768,37.12947],[-119.36763,37.12943],[-119.36757,37.12938],[-119.36753,37.12937],[-119.3675,37.12936],[-119.36742,37.12935],[-119.36734,37.12936],[-119.36719,37.1294],[-119.36704,37.12946],[-119.36633,37.12969],[-119.36618,37.12972],[-119.36602,37.12973],[-119.36584,37.12971],[-119.36574,37.12969],[-119.36567,37.12966],[-119.36555,37.12961],[-119.36551,37.12958],[-119.36549,37.12957],[-119.36543,37.12953],[-119.36537,37.12946],[-119.36525,37.1293],[-119.36518,37.12921],[-119.36512,37.12917],[-119.36506,37.12915],[-119.36498,37.12913],[-119.3649,37.12912],[-119.36481,37.12913],[-119.36474,37.12915],[-119.36467,37.12918],[-119.36458,37.12923],[-119.3644,37.12935],[-119.36436,37.12938],[-119.36427,37.12944],[-119.36413,37.12953],[-119.36401,37.12962],[-119.36394,37.12968],[-119.36391,37.12973],[-119.36389,37.12979],[-119.36387,37.12987],[-119.36388,37.12994],[-119.36391,37.13003],[-119.36397,37.13018],[-119.36399,37.13021],[-119.36402,37.13025],[-119.36409,37.13032],[-119.36419,37.13038],[-119.36429,37.13042],[-119.36441,37.13043],[-119.36453,37.13042],[-119.36466,37.13042],[-119.36474,37.13045],[-119.3648,37.13048],[-119.36485,37.13054],[-119.36489,37.13061],[-119.36489,37.1307],[-119.36485,37.1308],[-119.3648,37.13088],[-119.36471,37.13095],[-119.36447,37.13109],[-119.36403,37.13136],[-119.36391,37.13142],[-119.36376,37.13147],[-119.36351,37.13152],[-119.36319,37.13158],[-119.3631,37.13159],[-119.36277,37.13164],[-119.36264,37.13166],[-119.36252,37.13163],[-119.36234,37.13159],[-119.36223,37.13157],[-119.36213,37.13158],[-119.36205,37.13161],[-119.36199,37.13165],[-119.36197,37.13167],[-119.36194,37.13171],[-119.36192,37.13175],[-119.3619,37.13179],[-119.3619,37.13188],[-119.36194,37.13219],[-119.36194,37.13225],[-119.3619,37.13234],[-119.36179,37.13249],[-119.36171,37.1326],[-119.3617,37.13268],[-119.36171,37.13271],[-119.36172,37.13274],[-119.36176,37.13279],[-119.36178,37.13282],[-119.36186,37.1329],[-119.36195,37.13298],[-119.36208,37.13312],[-119.36213,37.1332],[-119.36218,37.1333],[-119.3622,37.13337],[-119.36221,37.13345],[-119.36221,37.13353],[-119.36219,37.13361],[-119.36213,37.13369],[-119.36205,37.13378],[-119.36189,37.13391],[-119.36179,37.134],[-119.36172,37.13405],[-119.36168,37.13407],[-119.36155,37.13412],[-119.36122,37.13422],[-119.36092,37.13435],[-119.36083,37.13437],[-119.36072,37.13438],[-119.3604,37.13437],[-119.36034,37.13438],[-119.36027,37.13439],[-119.36022,37.13442],[-119.36017,37.13445],[-119.36016,37.13446],[-119.3601,37.13455],[-119.36004,37.13461],[-119.35995,37.13467],[-119.35981,37.13472],[-119.35965,37.13477],[-119.35925,37.13487],[-119.35912,37.13489],[-119.35894,37.13488],[-119.35884,37.13488],[-119.35877,37.1349],[-119.35876,37.1349],[-119.3585,37.13508],[-119.35804,37.13523],[-119.35762,37.13537],[-119.3571,37.1356],[-119.35666,37.13559],[-119.3564,37.13546],[-119.35605,37.13547],[-119.35597,37.13551],[-119.35586,37.13556],[-119.35587,37.13576],[-119.35596,37.13608],[-119.35603,37.13636],[-119.35604,37.13651],[-119.35596,37.13666],[-119.3559,37.13672],[-119.35583,37.13676],[-119.35546,37.137],[-119.35522,37.13729],[-119.35516,37.13736],[-119.35511,37.13744],[-119.3551,37.13752],[-119.35512,37.1376],[-119.35523,37.13775],[-119.35527,37.13779],[-119.35535,37.13786],[-119.35566,37.13809],[-119.35577,37.13814],[-119.35588,37.13818],[-119.35599,37.1382],[-119.35603,37.13819],[-119.35609,37.13819],[-119.35617,37.13817],[-119.35623,37.13813],[-119.35639,37.13802],[-119.35657,37.13796],[-119.35676,37.13791],[-119.35689,37.13791],[-119.35702,37.13793],[-119.35709,37.13799],[-119.35715,37.13807],[-119.35718,37.13823],[-119.35723,37.1384],[-119.35728,37.13846],[-119.35735,37.1385],[-119.35743,37.1385],[-119.35744,37.1385],[-119.35749,37.13849],[-119.35756,37.13846],[-119.35761,37.13842],[-119.35768,37.13838],[-119.35775,37.13835],[-119.35785,37.13832],[-119.35795,37.13831],[-119.35818,37.1383],[-119.35827,37.13831],[-119.35836,37.13833],[-119.35843,37.13836],[-119.35851,37.13839],[-119.35859,37.13843],[-119.35865,37.13848],[-119.35875,37.13859],[-119.35877,37.13863],[-119.35881,37.13866],[-119.35886,37.13868],[-119.35894,37.13871],[-119.35898,37.1387],[-119.35903,37.13869],[-119.35909,37.13868],[-119.35918,37.13867],[-119.35927,37.13868],[-119.35939,37.13871],[-119.35951,37.13873],[-119.35963,37.13874],[-119.35974,37.13876],[-119.3598,37.13879],[-119.35986,37.13883],[-119.35992,37.13888],[-119.35997,37.13894],[-119.36004,37.13907],[-119.36009,37.13922],[-119.3602,37.1394],[-119.36028,37.13951],[-119.36029,37.13952],[-119.36048,37.13973],[-119.36051,37.13979],[-119.36052,37.13986],[-119.36052,37.13994],[-119.36053,37.14003],[-119.36057,37.1401],[-119.3606,37.14012],[-119.36066,37.14016],[-119.36078,37.1402],[-119.36084,37.14024],[-119.36089,37.14027],[-119.36097,37.14031],[-119.36105,37.14035],[-119.36117,37.14036],[-119.36128,37.14037],[-119.36141,37.14038],[-119.36152,37.14038],[-119.36156,37.14039],[-119.36161,37.1404],[-119.36164,37.14042],[-119.36169,37.14046],[-119.36171,37.14049],[-119.36174,37.14053],[-119.36178,37.14062],[-119.36184,37.14067],[-119.36191,37.14072],[-119.36199,37.14077],[-119.36207,37.14083],[-119.36212,37.14086],[-119.36214,37.14087],[-119.36217,37.14088],[-119.36221,37.14089],[-119.36227,37.14089],[-119.36236,37.14088],[-119.36246,37.14088],[-119.36255,37.14089],[-119.36262,37.14091],[-119.36269,37.14094],[-119.36274,37.14097],[-119.36279,37.14101],[-119.36282,37.14109],[-119.36283,37.14117],[-119.36284,37.14124],[-119.36285,37.14132],[-119.36288,37.14139],[-119.36292,37.14147],[-119.36301,37.14161],[-119.36307,37.14176],[-119.36311,37.14183],[-119.36316,37.14189],[-119.36323,37.14195],[-119.36329,37.14201],[-119.36336,37.14209],[-119.36338,37.14215],[-119.36341,37.1422],[-119.36349,37.14231],[-119.36355,37.14242],[-119.36357,37.14256],[-119.36357,37.14263],[-119.36358,37.14269],[-119.36362,37.14273],[-119.36366,37.14276],[-119.36382,37.14287],[-119.3639,37.14294],[-119.36398,37.14301],[-119.36409,37.14318],[-119.36437,37.14355],[-119.36441,37.14361],[-119.36443,37.14367],[-119.36444,37.14373],[-119.36443,37.14378],[-119.36441,37.14384],[-119.36439,37.14389],[-119.36434,37.14395],[-119.36425,37.14399],[-119.36413,37.14401],[-119.36402,37.14401],[-119.36333,37.144],[-119.36319,37.14399],[-119.36307,37.14399],[-119.36302,37.144],[-119.36299,37.14402],[-119.36293,37.14407],[-119.36289,37.14411],[-119.36271,37.14429],[-119.36267,37.14437],[-119.36266,37.14445],[-119.36267,37.14451],[-119.36271,37.14457],[-119.36275,37.14462],[-119.3628,37.14467],[-119.36285,37.14472],[-119.36288,37.14476],[-119.3629,37.14482],[-119.36291,37.14487],[-119.36293,37.14499],[-119.36292,37.14506],[-119.3629,37.14512],[-119.36284,37.14519],[-119.36278,37.14525],[-119.36276,37.14528],[-119.36275,37.14533],[-119.36275,37.14539],[-119.36276,37.14546],[-119.36281,37.14552],[-119.36287,37.14557],[-119.36297,37.14562],[-119.36308,37.1457],[-119.36313,37.14575],[-119.36317,37.14582],[-119.36318,37.14588],[-119.36319,37.14596],[-119.36319,37.14606],[-119.36317,37.14614],[-119.36314,37.14627],[-119.36315,37.14632],[-119.36316,37.14637],[-119.36319,37.14643],[-119.36325,37.14648],[-119.36345,37.14659],[-119.36363,37.14673],[-119.36371,37.14677],[-119.36378,37.1468],[-119.36387,37.1468],[-119.36402,37.14679],[-119.36409,37.14678],[-119.36417,37.14679],[-119.36424,37.14681],[-119.36431,37.14684],[-119.36436,37.14688],[-119.3644,37.14695],[-119.36442,37.14701],[-119.36442,37.14707],[-119.3644,37.14713],[-119.36438,37.14716],[-119.36435,37.14719],[-119.36427,37.14723],[-119.36421,37.14724],[-119.36414,37.14725],[-119.36404,37.14727],[-119.36394,37.1473],[-119.36374,37.14736],[-119.36355,37.14744],[-119.36349,37.14747],[-119.36344,37.14751],[-119.3634,37.14755],[-119.36337,37.1476],[-119.36336,37.14767],[-119.36336,37.14771],[-119.36337,37.14774],[-119.36344,37.14783],[-119.36348,37.14786],[-119.36353,37.14789],[-119.36362,37.14791],[-119.36372,37.14791],[-119.36381,37.14791],[-119.36389,37.14791],[-119.36396,37.14793],[-119.36403,37.14796],[-119.36411,37.14802],[-119.36414,37.14807],[-119.36416,37.14812],[-119.36417,37.14818],[-119.36416,37.14825],[-119.36415,37.14833],[-119.36415,37.14842],[-119.36417,37.14851],[-119.36421,37.14862],[-119.36426,37.14874],[-119.36428,37.1488],[-119.36428,37.14888],[-119.36426,37.14895],[-119.36424,37.149],[-119.36418,37.14914],[-119.36404,37.14941],[-119.36401,37.14952],[-119.364,37.1496],[-119.36402,37.14971],[-119.36404,37.14977],[-119.36404,37.14983],[-119.36402,37.14988],[-119.36398,37.14994],[-119.36386,37.15008],[-119.36376,37.15018],[-119.36355,37.15036],[-119.36335,37.15052],[-119.36298,37.15076],[-119.36272,37.15093],[-119.3625,37.15108],[-119.36237,37.15114],[-119.36222,37.15121],[-119.36213,37.1513],[-119.36206,37.15141],[-119.36202,37.15146],[-119.36194,37.15157],[-119.36192,37.15166],[-119.36192,37.15176],[-119.36196,37.15183],[-119.36203,37.15196],[-119.36204,37.15206],[-119.36201,37.15222],[-119.36192,37.15243],[-119.36183,37.15265],[-119.36181,37.15275],[-119.36181,37.1529],[-119.36179,37.15298],[-119.36173,37.15307],[-119.36161,37.15314],[-119.36151,37.1532],[-119.36142,37.15328],[-119.36134,37.15341],[-119.3613,37.15351],[-119.36128,37.15361],[-119.36111,37.154],[-119.36104,37.15408],[-119.36055,37.15444],[-119.36047,37.15451],[-119.36044,37.15458],[-119.36041,37.15466],[-119.36033,37.15472],[-119.36025,37.15474],[-119.36018,37.15476],[-119.36014,37.15478],[-119.3601,37.15482],[-119.36006,37.15492],[-119.36003,37.15501],[-119.36,37.15522],[-119.35983,37.15541],[-119.35966,37.1556],[-119.35948,37.15576],[-119.35934,37.15595],[-119.35923,37.15615],[-119.35915,37.15626],[-119.35906,37.15635],[-119.35889,37.15647],[-119.35867,37.15659],[-119.35836,37.15668],[-119.3581,37.15676],[-119.35803,37.1568],[-119.35795,37.15685],[-119.35788,37.15692],[-119.35786,37.15695],[-119.35778,37.15706],[-119.35767,37.15718],[-119.35755,37.15726],[-119.3574,37.15732],[-119.35717,37.15738],[-119.35704,37.15742],[-119.35697,37.15746],[-119.35692,37.15751],[-119.35688,37.15755],[-119.3568,37.15764],[-119.35669,37.15771],[-119.35647,37.15781],[-119.35624,37.15792],[-119.35591,37.15802],[-119.35581,37.15808],[-119.35576,37.15815],[-119.3557,37.15826],[-119.35564,37.15831],[-119.35556,37.15835],[-119.35548,37.15838],[-119.35539,37.15839],[-119.35529,37.15838],[-119.35519,37.15835],[-119.35508,37.1583],[-119.35492,37.15825],[-119.35452,37.15825],[-119.35438,37.15823],[-119.3541,37.15818],[-119.35392,37.15819],[-119.3537,37.15821],[-119.35358,37.15819],[-119.35343,37.15813],[-119.35328,37.15805],[-119.35296,37.15786],[-119.3529,37.15779],[-119.35282,37.15768],[-119.35275,37.15754],[-119.35265,37.1574],[-119.35258,37.15734],[-119.35247,37.1573],[-119.35235,37.15728],[-119.35222,37.15728],[-119.35213,37.15728],[-119.35204,37.15731],[-119.35195,37.1574],[-119.35185,37.15749],[-119.35172,37.1576],[-119.35163,37.15765],[-119.35145,37.15771],[-119.35107,37.1578],[-119.35095,37.15782],[-119.35085,37.15783],[-119.35072,37.1578],[-119.35054,37.15772],[-119.35032,37.15763],[-119.35009,37.15753],[-119.34987,37.1574],[-119.34977,37.15735],[-119.34964,37.15732],[-119.34951,37.15733],[-119.34937,37.15736],[-119.34925,37.15737],[-119.34911,37.15734],[-119.34899,37.1573],[-119.34867,37.1571],[-119.34854,37.15696],[-119.34844,37.15681],[-119.34838,37.15676],[-119.34832,37.15672],[-119.34822,37.1567],[-119.34814,37.1567],[-119.34805,37.15671],[-119.34796,37.15675],[-119.34788,37.15684],[-119.34783,37.15694],[-119.34775,37.15705],[-119.34769,37.1571],[-119.34759,37.15713],[-119.34745,37.15714],[-119.34733,37.15713],[-119.34719,37.1571],[-119.34707,37.15702],[-119.34696,37.15694],[-119.34684,37.15687],[-119.34659,37.15679],[-119.34626,37.15663],[-119.34591,37.15651],[-119.34567,37.15639],[-119.34538,37.1563],[-119.34519,37.15622],[-119.34478,37.1559],[-119.34433,37.15568],[-119.34422,37.15564],[-119.3441,37.15564],[-119.34397,37.15567],[-119.34383,37.15573],[-119.34368,37.1558],[-119.34356,37.15583],[-119.34331,37.1558],[-119.34317,37.15578],[-119.34306,37.15578],[-119.34268,37.15586],[-119.34253,37.15586],[-119.34237,37.15583],[-119.34198,37.1557],[-119.34175,37.15566],[-119.34162,37.15561],[-119.3415,37.15556],[-119.34126,37.15534],[-119.34119,37.1553],[-119.34073,37.15518],[-119.34038,37.15518],[-119.34005,37.15519],[-119.33968,37.15517],[-119.33948,37.15518],[-119.33926,37.1553],[-119.33915,37.15542],[-119.33903,37.15553],[-119.33878,37.15567],[-119.33861,37.15577],[-119.33852,37.15584],[-119.33845,37.15593],[-119.33839,37.15613],[-119.33827,37.15625],[-119.33813,37.15634],[-119.33802,37.15639],[-119.33788,37.15642],[-119.33774,37.15641],[-119.33761,37.15633],[-119.33731,37.15616],[-119.33706,37.15593],[-119.33694,37.15577],[-119.33679,37.15563],[-119.33665,37.15558],[-119.3365,37.15555],[-119.33642,37.15555],[-119.33633,37.15556],[-119.33625,37.15561],[-119.33621,37.15565],[-119.33612,37.15578],[-119.33607,37.15587],[-119.33604,37.15591],[-119.336,37.15596],[-119.33591,37.15598],[-119.33584,37.15598],[-119.33571,37.15597],[-119.33551,37.15591],[-119.33535,37.15589],[-119.33526,37.15589],[-119.33518,37.15591],[-119.33478,37.15605],[-119.33471,37.15606],[-119.33463,37.15606],[-119.33448,37.15604],[-119.33394,37.15587],[-119.33335,37.15576],[-119.33304,37.15575],[-119.33267,37.15576],[-119.33248,37.15579],[-119.33228,37.15587],[-119.33205,37.15594],[-119.33174,37.15598],[-119.33154,37.15599],[-119.33135,37.15595],[-119.33123,37.15591],[-119.33111,37.15585],[-119.33092,37.15562],[-119.33085,37.15555],[-119.33077,37.15547],[-119.33057,37.15538],[-119.33038,37.1553],[-119.33025,37.15525],[-119.33014,37.15522],[-119.32998,37.15524],[-119.32984,37.15525],[-119.32968,37.15525],[-119.32955,37.15527],[-119.32931,37.15532],[-119.32918,37.15533],[-119.32905,37.15532],[-119.32891,37.1553],[-119.32873,37.15527],[-119.32843,37.15525],[-119.32829,37.15522],[-119.32817,37.15516],[-119.32791,37.15496],[-119.3277,37.15478],[-119.32757,37.1547],[-119.32742,37.15464],[-119.3272,37.15457],[-119.32697,37.15453],[-119.32675,37.15451],[-119.32661,37.15453],[-119.32653,37.15455],[-119.32647,37.1546],[-119.32631,37.15474],[-119.32622,37.15485],[-119.32619,37.15495],[-119.32619,37.15508],[-119.32624,37.15523],[-119.32629,37.15532],[-119.32635,37.15541],[-119.32648,37.15552],[-119.32668,37.15563],[-119.32695,37.15579],[-119.32704,37.15592],[-119.3273,37.15637],[-119.32746,37.15666],[-119.32763,37.15692],[-119.32777,37.15708],[-119.328,37.1573],[-119.3282,37.15744]]}},{"type":"Feature","properties":{"name":"(unnamed public road)","road_class":"track","surface":"unpaved","source":"Caltrans All Roads + OpenStreetMap explicit surface","source_detail":"osm way 357196458; Caltrans All Roads public-network geometry match","source_tile":"172/398","public_network_source":"Caltrans All Roads (ARNOLD/HPMS)","surface_source":"OpenStreetMap explicit surface tag","caltrans_match_coverage":1.0,"verified_length_m":798},"geometry":{"type":"LineString","coordinates":[[-119.49918,37.0909],[-119.49976,37.09079],[-119.50004,37.09072],[-119.50049,37.09057],[-119.50069,37.09046],[-119.50084,37.09041],[-119.50127,37.09038],[-119.50172,37.09028],[-119.5019,37.09028],[-119.50216,37.09028],[-119.50242,37.09024],[-119.50275,37.09013],[-119.5029,37.0901],[-119.50302,37.09009],[-119.50339,37.09015],[-119.50408,37.09018],[-119.50417,37.09018],[-119.50432,37.09012],[-119.50459,37.08992],[-119.50467,37.08989],[-119.505,37.08986],[-119.5051,37.08988],[-119.50517,37.08996],[-119.50535,37.09045],[-119.50544,37.09062],[-119.5055,37.09075],[-119.50553,37.09141],[-119.50552,37.0915],[-119.50548,37.09167],[-119.50538,37.09202]]}}]}