{"type":"FeatureCollection","features":[{"type":"Feature","properties":{"name":"Avenue 380","road_class":"track","surface":"gravel","source":"Caltrans All Roads + OpenStreetMap explicit surface","source_detail":"osm way 797347649; Caltrans All Roads public-network geometry match","source_tile":"173/400","public_network_source":"Caltrans All Roads (ARNOLD/HPMS)","surface_source":"OpenStreetMap explicit surface tag","caltrans_match_coverage":1.0,"verified_length_m":797},"geometry":{"type":"LineString","coordinates":[[-119.17901,36.47868],[-119.18791,36.47874]]}},{"type":"Feature","properties":{"name":"Road 89","road_class":"unclassified","surface":"unpaved","source":"Caltrans All Roads + OpenStreetMap explicit surface","source_detail":"osm way 10677505; Caltrans All Roads public-network geometry match","source_tile":"172/400","public_network_source":"Caltrans All Roads (ARNOLD/HPMS)","surface_source":"OpenStreetMap explicit surface tag","caltrans_match_coverage":1.0,"verified_length_m":1669},"geometry":{"type":"LineString","coordinates":[[-119.37681,36.35644],[-119.37682,36.35816],[-119.37681,36.35827],[-119.37673,36.35838],[-119.37654,36.35843],[-119.3759,36.35858],[-119.37578,36.35863],[-119.37569,36.35869],[-119.37563,36.35875],[-119.3756,36.35883],[-119.37557,36.35898],[-119.37555,36.35988],[-119.37549,36.36233],[-119.3754,36.36468],[-119.37538,36.36599],[-119.37534,36.36772],[-119.37533,36.36835],[-119.37528,36.3709]]}},{"type":"Feature","properties":{"name":"1st Avenue","road_class":"unclassified","surface":"unpaved","source":"Caltrans All Roads + OpenStreetMap explicit surface","source_detail":"osm way 211428717; Caltrans All Roads public-network geometry match","source_tile":"172/400","public_network_source":"Caltrans All Roads (ARNOLD/HPMS)","surface_source":"OpenStreetMap explicit surface tag","caltrans_match_coverage":1.0,"verified_length_m":802},"geometry":{"type":"LineString","coordinates":[[-119.47548,36.34183],[-119.47547,36.34187],[-119.47545,36.34195],[-119.47543,36.34536],[-119.47542,36.34546],[-119.47538,36.34902],[-119.47538,36.34908]]}},{"type":"Feature","properties":{"name":"Road 176","road_class":"unclassified","surface":"compacted","source":"Caltrans All Roads + OpenStreetMap explicit surface","source_detail":"osm way 1040353742; Caltrans All Roads public-network geometry match","source_tile":"173/400","public_network_source":"Caltrans All Roads (ARNOLD/HPMS)","surface_source":"OpenStreetMap explicit surface tag","caltrans_match_coverage":1.0,"verified_length_m":1599},"geometry":{"type":"LineString","coordinates":[[-119.17964,36.39939],[-119.17961,36.40474],[-119.17969,36.4102],[-119.17971,36.41198],[-119.17974,36.41379],[-119.17973,36.41385]]}}]}