{"type":"FeatureCollection","features":[{"type":"Feature","properties":{"name":"Hall Canyon Road","road_class":"track","surface":"dirt","motor_vehicle":"permissive","access":"permissive","source":"Caltrans All Roads + OpenStreetMap explicit surface","source_detail":"osm way 467641321; Caltrans All Roads public-network geometry match","source_tile":"172/408","public_network_source":"Caltrans All Roads (ARNOLD/HPMS)","surface_source":"OpenStreetMap explicit surface tag","caltrans_match_coverage":1.0,"verified_length_m":2829},"geometry":{"type":"LineString","coordinates":[[-119.25793,34.28383],[-119.25775,34.28419],[-119.25766,34.28455],[-119.25757,34.28479],[-119.25749,34.28487],[-119.25739,34.28494],[-119.25728,34.28497],[-119.25718,34.285],[-119.25692,34.285],[-119.25667,34.285],[-119.25658,34.28503],[-119.2565,34.28507],[-119.25643,34.28512],[-119.25639,34.28517],[-119.25637,34.28522],[-119.25636,34.28527],[-119.25637,34.28535],[-119.2564,34.28542],[-119.25649,34.28552],[-119.25662,34.28563],[-119.2568,34.28585],[-119.25694,34.2861],[-119.25699,34.28644],[-119.25697,34.28682],[-119.25697,34.28695],[-119.257,34.28717],[-119.25706,34.2873],[-119.25733,34.28789],[-119.25737,34.28802],[-119.25729,34.28817],[-119.25706,34.28848],[-119.25688,34.28884],[-119.25677,34.28917],[-119.25678,34.28966],[-119.25675,34.29059],[-119.25672,34.29071],[-119.25664,34.29098],[-119.25655,34.29132],[-119.25652,34.2915],[-119.25657,34.29164],[-119.25693,34.29221],[-119.25732,34.29277],[-119.25761,34.29311],[-119.25785,34.29343],[-119.25796,34.29367],[-119.258,34.2939],[-119.25804,34.29419],[-119.25815,34.29455],[-119.25818,34.29469],[-119.25846,34.29583],[-119.25849,34.29599],[-119.25851,34.29619],[-119.25848,34.29639],[-119.2584,34.29683],[-119.2584,34.29725],[-119.25834,34.29778],[-119.25834,34.29822],[-119.25836,34.29838],[-119.25808,34.29891],[-119.25793,34.29931],[-119.25779,34.29983],[-119.2576,34.30037],[-119.25732,34.30095],[-119.25701,34.30135],[-119.25681,34.30158],[-119.25657,34.30177],[-119.25645,34.30193],[-119.25624,34.30239],[-119.25605,34.30267],[-119.25592,34.30281],[-119.25569,34.303],[-119.2554,34.30325],[-119.25522,34.30352],[-119.25516,34.30378],[-119.25501,34.30441],[-119.25484,34.30471],[-119.25481,34.30489],[-119.25446,34.30534],[-119.25419,34.30567],[-119.25412,34.30576],[-119.25411,34.30583],[-119.25416,34.30671],[-119.25415,34.30694],[-119.25413,34.30698]]}}]}