{"type":"FeatureCollection","features":[{"type":"Feature","properties":{"name":"Carbon Ridge Road","road_class":"track","source":"OpenStreetMap","source_detail":"osm way 7486667","source_tile":"177/409","surface_inferred":true},"geometry":{"type":"LineString","coordinates":[[-117.76986,33.94415],[-117.77085,33.94447],[-117.77213,33.94428],[-117.77235,33.94414],[-117.77311,33.94324],[-117.77389,33.94236],[-117.77481,33.9419],[-117.77576,33.9411]]}},{"type":"Feature","properties":{"name":"Soquel Canyon Road","road_class":"track","source":"OpenStreetMap","source_detail":"osm way 175005375","source_tile":"177/409","surface_inferred":true},"geometry":{"type":"LineString","coordinates":[[-117.77548,33.93438],[-117.77496,33.93427],[-117.77481,33.93428],[-117.77444,33.93431],[-117.77349,33.93441],[-117.77328,33.93445],[-117.77307,33.93444],[-117.77273,33.93436],[-117.7723,33.93437],[-117.77187,33.93453],[-117.77138,33.93486],[-117.77086,33.93513],[-117.77053,33.93526],[-117.77019,33.93531],[-117.76983,33.93534],[-117.76943,33.93532],[-117.76913,33.93532],[-117.76878,33.93538],[-117.76831,33.93575]]}},{"type":"Feature","properties":{"name":"Telephone Line Road","road_class":"track","source":"OpenStreetMap","source_detail":"osm way 175005376","source_tile":"177/409","surface_inferred":true},"geometry":{"type":"LineString","coordinates":[[-117.75885,33.93618],[-117.75872,33.93676],[-117.75794,33.9372],[-117.75812,33.93847],[-117.76003,33.93792],[-117.76157,33.93957],[-117.76208,33.94002],[-117.76294,33.94033],[-117.76364,33.94103],[-117.76447,33.94198],[-117.76378,33.94352],[-117.76462,33.94415],[-117.7661,33.94454],[-117.76722,33.94588],[-117.76785,33.94779],[-117.76896,33.94835],[-117.76956,33.9492],[-117.7706,33.94996],[-117.77148,33.9503],[-117.77204,33.95052],[-117.77288,33.95084],[-117.77315,33.95198],[-117.77365,33.95259],[-117.7744,33.95276]]}},{"type":"Feature","properties":{"name":"Schabarum-Skyline Trail South Avenida Alipaz Connector","road_class":"track","surface":"compacted","source":"OpenStreetMap","source_detail":"osm way 197711767","source_tile":"176/409"},"geometry":{"type":"LineString","coordinates":[[-117.86594,34.01079],[-117.86602,34.01088],[-117.86609,34.01096]]}},{"type":"Feature","properties":{"name":"(unnamed public road)","road_class":"track","surface":"compacted","source":"OpenStreetMap","source_detail":"osm way 197711768","source_tile":"176/409"},"geometry":{"type":"LineString","coordinates":[[-117.86602,34.01088],[-117.86637,34.01066],[-117.86642,34.01063],[-117.86646,34.0106]]}},{"type":"Feature","properties":{"name":"(unnamed public road)","road_class":"track","surface":"compacted","tracktype":"grade2","source":"OpenStreetMap","source_detail":"osm way 197711771","source_tile":"176/409"},"geometry":{"type":"LineString","coordinates":[[-117.86638,34.0092],[-117.86624,34.0093],[-117.86617,34.00934],[-117.86613,34.00944],[-117.8661,34.00955],[-117.86612,34.00965],[-117.86572,34.00985],[-117.86568,34.00987],[-117.86642,34.01063],[-117.86731,34.01156],[-117.86791,34.01156],[-117.87037,34.01157],[-117.87127,34.01156]]}},{"type":"Feature","properties":{"name":"(unnamed public road)","road_class":"track","source":"OpenStreetMap","source_detail":"osm way 863025710","source_tile":"176/409","surface_inferred":true},"geometry":{"type":"LineString","coordinates":[[-117.77749,34.01527],[-117.77736,34.01527],[-117.77719,34.01525],[-117.77703,34.01522],[-117.77678,34.01516],[-117.77666,34.01513],[-117.77656,34.01511],[-117.77646,34.01509],[-117.77637,34.01508],[-117.77629,34.01508],[-117.77619,34.01508],[-117.77612,34.01509],[-117.77603,34.01511],[-117.77589,34.01514],[-117.7758,34.01515],[-117.77574,34.01516],[-117.77567,34.01516],[-117.77561,34.01515],[-117.77556,34.01514],[-117.7755,34.01511],[-117.77545,34.01508],[-117.77536,34.015],[-117.77528,34.01492]]}},{"type":"Feature","properties":{"name":"(unnamed public road)","road_class":"track","surface":"unpaved","source":"OpenStreetMap","source_detail":"osm way 908470425","source_tile":"177/409"},"geometry":{"type":"LineString","coordinates":[[-117.77167,33.82644],[-117.77167,33.82658],[-117.77172,33.82672],[-117.77185,33.82688],[-117.77202,33.82699],[-117.7722,33.82707],[-117.77242,33.82714],[-117.77277,33.82718],[-117.77293,33.8272],[-117.77305,33.82718],[-117.77371,33.82728],[-117.77482,33.82758],[-117.77533,33.82764],[-117.77592,33.82777],[-117.77629,33.8279],[-117.77669,33.82791],[-117.77711,33.82774],[-117.77749,33.82764],[-117.77814,33.82774],[-117.77854,33.82795],[-117.7788,33.82829],[-117.77892,33.82882],[-117.77887,33.82916],[-117.77879,33.82945],[-117.77868,33.82957],[-117.77848,33.82967],[-117.77831,33.82979],[-117.77812,33.82974],[-117.77781,33.82907],[-117.77777,33.82888],[-117.77764,33.82887],[-117.7775,33.82909],[-117.77735,33.8293],[-117.77693,33.82946],[-117.77678,33.82968],[-117.77673,33.82984],[-117.77678,33.8301],[-117.77732,33.83066],[-117.77727,33.83073]]}},{"type":"Feature","properties":{"name":"(unnamed public road)","road_class":"track","source":"OpenStreetMap","source_detail":"osm way 1315401585","source_tile":"177/409","surface_inferred":true},"geometry":{"type":"LineString","coordinates":[[-117.77421,33.93682],[-117.77362,33.93702],[-117.77333,33.93707],[-117.77284,33.93741],[-117.77284,33.93757],[-117.77302,33.93802],[-117.77259,33.93832],[-117.77248,33.93879],[-117.77274,33.93949],[-117.77285,33.94007],[-117.77245,33.9406],[-117.77251,33.94094],[-117.77282,33.94127],[-117.77317,33.94167],[-117.7732,33.94189],[-117.77298,33.94234],[-117.77296,33.94265],[-117.77295,33.94298],[-117.77311,33.94324],[-117.77319,33.94325],[-117.77346,33.9433],[-117.77406,33.94324],[-117.77448,33.9433],[-117.77466,33.94332],[-117.77525,33.94376],[-117.77564,33.9439],[-117.77582,33.94394],[-117.77626,33.9436],[-117.77632,33.94342],[-117.77636,33.94332],[-117.7765,33.94326],[-117.77683,33.94311]]}},{"type":"Feature","properties":{"name":"Schabarum-Skyline Trail South Avenida Alipaz Connector","road_class":"track","surface":"compacted","source":"OpenStreetMap","source_detail":"osm way 1455258264","source_tile":"176/409"},"geometry":{"type":"LineString","coordinates":[[-117.86494,34.01153],[-117.86602,34.01088]]}}]}