{"type":"FeatureCollection","features":[{"type":"Feature","properties":{"name":"Unnamed BLM route","source":"Bureau of Land Management","source_detail":"BLM GTLF OBJECTID 153907","source_id":"{59C703B9-E6DA-4974-92ED-B3C5126E6DB5}","road_class":"transportation_system_-_primitive_road","surface":"natural","vehicle_class":"4wd_low","allowed_mode":"all_moto_veh","access_restriction":"none","seasonal_restriction":"not_listed","gis_miles":0.08279319},"geometry":{"type":"LineString","coordinates":[[-116.75424,34.46205],[-116.75389,34.46172],[-116.75345,34.46136],[-116.75322,34.4612]]}},{"type":"Feature","properties":{"name":"Unnamed BLM route","source":"Bureau of Land Management","source_detail":"BLM GTLF OBJECTID 158973","source_id":"{415A5D83-DE99-4E40-962C-744E46F847B6}","road_class":"transportation_system_-_primitive_road","surface":"natural","vehicle_class":"4wd_high_clearance_specialized","allowed_mode":"unk","access_restriction":"unknown","seasonal_restriction":"not_listed","gis_miles":0.17157399},"geometry":{"type":"LineString","coordinates":[[-116.8013,34.46618],[-116.80094,34.4663],[-116.80068,34.46648],[-116.80054,34.46666],[-116.80046,34.46671],[-116.80037,34.46674],[-116.80027,34.46678],[-116.80009,34.4669],[-116.79994,34.46701],[-116.79965,34.46721],[-116.79956,34.46723],[-116.79942,34.46734],[-116.7993,34.46744],[-116.79912,34.46753],[-116.79898,34.46757],[-116.7989,34.46756]]}},{"type":"Feature","properties":{"name":"Unnamed BLM route","source":"Bureau of Land Management","source_detail":"BLM GTLF OBJECTID 159803","source_id":"{B77E534B-BDD0-402B-85EF-C6EBA30989C7}","road_class":"transportation_system_-_primitive_road","surface":"natural","vehicle_class":"4wd_low","allowed_mode":"unk","access_restriction":"unknown","seasonal_restriction":"not_listed","gis_miles":0.1893865},"geometry":{"type":"LineString","coordinates":[[-116.832,34.50144],[-116.83192,34.5013],[-116.83168,34.501],[-116.83157,34.50084],[-116.8314,34.50063],[-116.83119,34.5004],[-116.83088,34.50008],[-116.83037,34.49963],[-116.82993,34.49932]]}}]}