{"type":"FeatureCollection","features":[{"type":"Feature","properties":{"name":"Service Road","road_class":"track","surface":"unpaved","motor_vehicle":"designated","access":"designated","source":"Caltrans All Roads + OpenStreetMap explicit surface","source_detail":"osm way 10452452; Caltrans All Roads public-network geometry match","source_tile":"166/402","public_network_source":"Caltrans All Roads (ARNOLD/HPMS)","surface_source":"OpenStreetMap explicit surface tag","caltrans_match_coverage":0.952,"verified_length_m":2707},"geometry":{"type":"LineString","coordinates":[[-121.29804,36.03437],[-121.29841,36.0342],[-121.2988,36.03417],[-121.29902,36.03397],[-121.29988,36.03392],[-121.30004,36.0335],[-121.30071,36.03274],[-121.30094,36.03263],[-121.3015,36.03178],[-121.30203,36.03171],[-121.30278,36.03182],[-121.30342,36.03139],[-121.30481,36.03106],[-121.30582,36.03046],[-121.30652,36.02975],[-121.30745,36.02823],[-121.30835,36.02775],[-121.30915,36.02765],[-121.30975,36.02733],[-121.31033,36.02683],[-121.3109,36.02674],[-121.31137,36.02646],[-121.31169,36.02659],[-121.31207,36.02654],[-121.31309,36.02669],[-121.31425,36.02563],[-121.31595,36.02506],[-121.31758,36.02571],[-121.31737,36.02625],[-121.31773,36.02656],[-121.31785,36.027],[-121.31796,36.02718],[-121.31873,36.02748],[-121.3195,36.02744],[-121.32094,36.02765]]}},{"type":"Feature","properties":{"name":"Alms Ridge Road","road_class":"track","surface":"dirt","tracktype":"grade3","source":"Caltrans All Roads + OpenStreetMap explicit surface","source_detail":"osm way 10448873; Caltrans All Roads public-network geometry match","source_tile":"166/402","public_network_source":"Caltrans All Roads (ARNOLD/HPMS)","surface_source":"OpenStreetMap explicit surface tag","caltrans_match_coverage":1.0,"verified_length_m":847},"geometry":{"type":"LineString","coordinates":[[-121.46795,35.98431],[-121.46813,35.98457],[-121.46824,35.98461],[-121.46836,35.98463],[-121.46845,35.98461],[-121.46851,35.98454],[-121.4685,35.98443],[-121.4684,35.98433],[-121.46834,35.98423],[-121.46834,35.98414],[-121.46837,35.98409],[-121.46845,35.98407],[-121.46852,35.98409],[-121.46869,35.9842],[-121.46902,35.98434],[-121.46907,35.98442],[-121.46908,35.98451],[-121.4691,35.98458],[-121.46915,35.98463],[-121.46927,35.98464],[-121.46942,35.98463],[-121.46954,35.98458],[-121.46967,35.98453],[-121.46982,35.98442],[-121.46989,35.98431],[-121.46988,35.9842],[-121.46982,35.98413],[-121.46958,35.984],[-121.46941,35.98391],[-121.46936,35.98382],[-121.46938,35.98374],[-121.46947,35.98365],[-121.46958,35.9836],[-121.47016,35.98347],[-121.47039,35.98339],[-121.47054,35.98331],[-121.47062,35.9832],[-121.47074,35.98293],[-121.47076,35.98279],[-121.47069,35.98272],[-121.47044,35.98264],[-121.47024,35.98254],[-121.46999,35.98239],[-121.46979,35.98234],[-121.46942,35.98232],[-121.46916,35.98228],[-121.46842,35.9821],[-121.46833,35.98203],[-121.46824,35.98189],[-121.4682,35.98177]]}},{"type":"Feature","properties":{"name":"South Coast Ridge Road","road_class":"track","surface":"unpaved","tracktype":"grade2","source":"Caltrans All Roads + OpenStreetMap explicit surface","source_detail":"osm way 10449133; Caltrans All Roads public-network geometry match","source_tile":"166/402","public_network_source":"Caltrans All Roads (ARNOLD/HPMS)","surface_source":"OpenStreetMap explicit surface tag","caltrans_match_coverage":1.0,"verified_length_m":6806},"geometry":{"type":"LineString","coordinates":[[-121.33201,35.86042],[-121.3322,35.86052],[-121.33298,35.86136],[-121.33323,35.86171],[-121.33322,35.86182],[-121.33329,35.86195],[-121.33333,35.86205],[-121.33365,35.86204],[-121.33393,35.86219],[-121.33414,35.86222],[-121.33434,35.86221],[-121.33469,35.86206],[-121.33498,35.86202],[-121.33514,35.86202],[-121.33531,35.86203],[-121.3357,35.86217],[-121.33604,35.86243],[-121.33644,35.86248],[-121.33676,35.86263],[-121.33708,35.86251],[-121.33764,35.86257],[-121.33775,35.8628],[-121.33792,35.86296],[-121.33818,35.86309],[-121.33829,35.86328],[-121.33842,35.86337],[-121.33861,35.86341],[-121.33882,35.86351],[-121.33911,35.86375],[-121.33901,35.86419],[-121.33929,35.86441],[-121.33929,35.86517],[-121.33977,35.8655],[-121.3399,35.86594],[-121.34008,35.8661],[-121.34113,35.86607],[-121.34143,35.8662],[-121.34223,35.86655],[-121.34253,35.86681],[-121.34274,35.8671],[-121.34314,35.86709],[-121.34367,35.86757],[-121.34419,35.86765],[-121.3453,35.86743],[-121.34556,35.86758],[-121.3463,35.8676],[-121.34654,35.86753],[-121.34704,35.86778],[-121.34776,35.86752],[-121.34838,35.86766],[-121.34876,35.86757],[-121.34915,35.86765],[-121.34948,35.8675],[-121.34996,35.86756],[-121.35122,35.86746],[-121.35187,35.86758],[-121.35212,35.86779],[-121.35303,35.86802],[-121.35328,35.86823],[-121.35334,35.86836],[-121.35364,35.86855],[-121.35407,35.86869],[-121.35525,35.86971],[-121.35534,35.86993],[-121.35556,35.87003],[-121.35562,35.87044],[-121.35602,35.87056],[-121.35655,35.87046],[-121.35688,35.87062],[-121.35711,35.87083],[-121.35741,35.87096],[-121.35769,35.87107],[-121.35788,35.87125],[-121.35827,35.87137],[-121.35922,35.87147],[-121.3598,35.87182],[-121.36032,35.87243],[-121.36061,35.87254],[-121.36098,35.87284],[-121.3616,35.87367],[-121.36184,35.87383],[-121.36225,35.87448],[-121.36247,35.87453],[-121.36275,35.87457],[-121.3629,35.8747],[-121.36312,35.87478],[-121.36337,35.87485],[-121.36343,35.87502],[-121.36357,35.87515],[-121.36371,35.87515],[-121.364,35.87502],[-121.36447,35.87528],[-121.36475,35.87505],[-121.36498,35.87505],[-121.3651,35.8754],[-121.36531,35.87548],[-121.36531,35.87576],[-121.36558,35.87624],[-121.36602,35.87666],[-121.36635,35.87724],[-121.36625,35.87771],[-121.36661,35.87823],[-121.36679,35.87863],[-121.36761,35.87897],[-121.36803,35.87904],[-121.3682,35.87906],[-121.36925,35.87885],[-121.36996,35.87885],[-121.37004,35.87905],[-121.36986,35.87921],[-121.37,35.87948],[-121.37001,35.87983],[-121.37012,35.87998],[-121.37038,35.88006],[-121.37055,35.88001],[-121.37064,35.88001],[-121.3707,35.88007],[-121.37068,35.88013],[-121.3704,35.88045],[-121.37005,35.88078],[-121.37032,35.88089],[-121.37055,35.88105],[-121.37062,35.88152],[-121.37098,35.88169],[-121.3706,35.88223],[-121.37128,35.88261],[-121.37167,35.88301],[-121.37192,35.88343],[-121.37305,35.88356],[-121.37317,35.88381],[-121.37322,35.88401],[-121.37334,35.88423],[-121.37356,35.88439],[-121.3732,35.885],[-121.37285,35.88503],[-121.37207,35.88591],[-121.37255,35.88643],[-121.37231,35.88704],[-121.37249,35.88715],[-121.37244,35.88742],[-121.37281,35.88745],[-121.3728,35.8877],[-121.37223,35.88792],[-121.37225,35.8883],[-121.37182,35.88841],[-121.37184,35.88863],[-121.37228,35.88882],[-121.37276,35.88935],[-121.37346,35.88943],[-121.37388,35.88957],[-121.37381,35.89002],[-121.37352,35.8903],[-121.3737,35.89082],[-121.37325,35.89132],[-121.3739,35.89147],[-121.37453,35.89136],[-121.37481,35.89185]]}},{"type":"Feature","properties":{"name":"South Coast Ridge Road","road_class":"track","surface":"gravel","tracktype":"grade2","source":"Caltrans All Roads + OpenStreetMap explicit surface","source_detail":"osm way 10458413; Caltrans All Roads public-network geometry match","source_tile":"166/402","public_network_source":"Caltrans All Roads (ARNOLD/HPMS)","surface_source":"OpenStreetMap explicit surface tag","caltrans_match_coverage":0.998,"verified_length_m":12273},"geometry":{"type":"LineString","coordinates":[[-121.4152,35.94921],[-121.41481,35.94924],[-121.41443,35.94935],[-121.41361,35.94969],[-121.41286,35.94929],[-121.4125,35.94922],[-121.412,35.94925],[-121.4113,35.94916],[-121.41094,35.94905],[-121.41054,35.9487],[-121.40943,35.94862],[-121.40832,35.94838],[-121.40782,35.94808],[-121.40785,35.94774],[-121.40806,35.94744],[-121.40771,35.94693],[-121.40745,35.94669],[-121.40746,35.94637],[-121.40722,35.94604],[-121.4055,35.94543],[-121.40406,35.94528],[-121.40363,35.94562],[-121.40341,35.94576],[-121.4032,35.94595],[-121.4028,35.94614],[-121.40256,35.9466],[-121.40138,35.94724],[-121.40062,35.94733],[-121.3997,35.94774],[-121.39868,35.94764],[-121.39743,35.94768],[-121.39718,35.94751],[-121.39692,35.94731],[-121.39665,35.94729],[-121.3964,35.94742],[-121.39616,35.94754],[-121.39582,35.94762],[-121.39545,35.94782],[-121.39515,35.94787],[-121.3948,35.94798],[-121.39451,35.94794],[-121.39414,35.94776],[-121.3935,35.9476],[-121.39287,35.94779],[-121.39261,35.9478],[-121.39251,35.94775],[-121.39254,35.94762],[-121.39263,35.94749],[-121.39286,35.94743],[-121.39312,35.94735],[-121.39363,35.94689],[-121.39375,35.94684],[-121.39414,35.94706],[-121.39435,35.94705],[-121.39436,35.94689],[-121.39465,35.94657],[-121.39465,35.94639],[-121.3948,35.94622],[-121.39475,35.94604],[-121.39424,35.94581],[-121.39389,35.94581],[-121.39364,35.94569],[-121.39342,35.94547],[-121.39308,35.9454],[-121.39294,35.94525],[-121.3929,35.94476],[-121.39304,35.94413],[-121.39313,35.94382],[-121.39281,35.94352],[-121.39277,35.9429],[-121.39302,35.94228],[-121.39291,35.94221],[-121.39266,35.94219],[-121.39237,35.94199],[-121.39192,35.94185],[-121.39137,35.94173],[-121.39074,35.94165],[-121.39056,35.94149],[-121.39122,35.94113],[-121.39127,35.94093],[-121.39112,35.94069],[-121.39081,35.94044],[-121.38992,35.94031],[-121.38932,35.94013],[-121.38862,35.94005],[-121.38818,35.93975],[-121.38791,35.93977],[-121.38765,35.93983],[-121.38739,35.93978],[-121.38713,35.93935],[-121.38684,35.93919],[-121.38689,35.93872],[-121.38682,35.93855],[-121.38693,35.93834],[-121.38725,35.93811],[-121.38737,35.93788],[-121.3874,35.93767],[-121.3873,35.93725],[-121.38763,35.93708],[-121.38778,35.93695],[-121.38774,35.93655],[-121.38719,35.9363],[-121.38706,35.93605],[-121.387,35.93567],[-121.38679,35.93552],[-121.38687,35.93525],[-121.38705,35.93499],[-121.38708,35.93478],[-121.38668,35.9344],[-121.38668,35.93373],[-121.38638,35.93333],[-121.3864,35.93266],[-121.38621,35.93205],[-121.386,35.93161],[-121.38481,35.93102],[-121.38462,35.93064],[-121.38463,35.93034],[-121.38406,35.93008],[-121.38396,35.9295],[-121.38353,35.92919],[-121.38236,35.92909],[-121.38192,35.92886],[-121.38138,35.92819],[-121.38102,35.92768],[-121.38073,35.92737],[-121.38063,35.92662],[-121.37984,35.92711],[-121.37937,35.9265],[-121.37928,35.92549],[-121.37884,35.92533],[-121.37838,35.92532],[-121.37823,35.92527],[-121.37771,35.9251],[-121.37746,35.92471],[-121.37697,35.92461],[-121.37661,35.92413],[-121.37637,35.92406],[-121.37614,35.92399],[-121.37589,35.92355],[-121.37518,35.92339],[-121.37454,35.92311],[-121.37402,35.92256],[-121.37335,35.92245],[-121.37281,35.92221],[-121.37188,35.92264],[-121.37115,35.92212],[-121.37063,35.92222],[-121.37002,35.92192],[-121.37007,35.92174],[-121.36987,35.92154],[-121.36956,35.92122],[-121.36916,35.92131],[-121.36877,35.92104],[-121.36868,35.92076],[-121.36887,35.92053],[-121.36858,35.91992],[-121.36856,35.91963],[-121.36892,35.91923],[-121.36881,35.91895],[-121.36836,35.91887],[-121.36791,35.91859],[-121.36749,35.918],[-121.36755,35.91753],[-121.36739,35.91723],[-121.36714,35.91682],[-121.3673,35.91645],[-121.36746,35.91637],[-121.36744,35.91615],[-121.36725,35.91604],[-121.36691,35.91585],[-121.36653,35.91541],[-121.36619,35.91521],[-121.36577,35.9148],[-121.36509,35.91462],[-121.3647,35.91432],[-121.36461,35.91399],[-121.36425,35.9137],[-121.36342,35.91391],[-121.36303,35.9136],[-121.36255,35.91376],[-121.36234,35.91373],[-121.36214,35.91362],[-121.36172,35.91323],[-121.36119,35.91271],[-121.36119,35.91238],[-121.36155,35.91215],[-121.36189,35.91211],[-121.36247,35.91183],[-121.36281,35.91182],[-121.36294,35.91166],[-121.36296,35.9113],[-121.36316,35.91115],[-121.36321,35.91109],[-121.36328,35.91075],[-121.36349,35.91047],[-121.36357,35.9101],[-121.36378,35.90988],[-121.36399,35.9098],[-121.3642,35.90966],[-121.36462,35.90923],[-121.36477,35.90886],[-121.36496,35.90824],[-121.3644,35.90757],[-121.36412,35.90744],[-121.3641,35.90697],[-121.36434,35.90654],[-121.36413,35.90604],[-121.3647,35.90533],[-121.36465,35.90411],[-121.36433,35.90349],[-121.36498,35.90307],[-121.36552,35.90284],[-121.36565,35.90173],[-121.36581,35.90148],[-121.36557,35.89945],[-121.36599,35.89834],[-121.36627,35.89773],[-121.36735,35.89716],[-121.3671,35.89657],[-121.36676,35.89632],[-121.36648,35.89619],[-121.36603,35.89631],[-121.36573,35.89613],[-121.36568,35.896],[-121.36569,35.89593],[-121.36616,35.89593],[-121.36667,35.8955],[-121.36746,35.89558],[-121.36787,35.89553],[-121.36838,35.89541],[-121.36885,35.89517],[-121.36924,35.89503],[-121.36936,35.8949],[-121.36937,35.89448],[-121.36945,35.89436],[-121.36947,35.89417],[-121.36944,35.89396],[-121.36954,35.89373],[-121.36978,35.89351],[-121.36984,35.89329],[-121.36997,35.89306],[-121.37017,35.89292],[-121.37038,35.89269],[-121.37086,35.89255],[-121.3711,35.89203],[-121.37132,35.89189],[-121.37163,35.89177],[-121.37236,35.89184],[-121.3729,35.89169],[-121.37339,35.89176],[-121.37377,35.89209],[-121.37408,35.89216],[-121.37439,35.89218],[-121.37453,35.89199],[-121.37481,35.89185]]}},{"type":"Feature","properties":{"name":"Los Burros Road","road_class":"track","surface":"dirt","tracktype":"grade2","source":"Caltrans All Roads + OpenStreetMap explicit surface","source_detail":"osm way 10465832; Caltrans All Roads public-network geometry match","source_tile":"166/402","public_network_source":"Caltrans All Roads (ARNOLD/HPMS)","surface_source":"OpenStreetMap explicit surface tag","caltrans_match_coverage":0.991,"verified_length_m":3960},"geometry":{"type":"LineString","coordinates":[[-121.45872,35.88558],[-121.4586,35.88577],[-121.45883,35.88592],[-121.45911,35.88614],[-121.4593,35.88643],[-121.45936,35.88658],[-121.45937,35.88674],[-121.45927,35.88697],[-121.45929,35.88705],[-121.45948,35.88713],[-121.4597,35.88728],[-121.45987,35.88744],[-121.45998,35.88761],[-121.46,35.88772],[-121.45998,35.88779],[-121.4599,35.88785],[-121.45975,35.88789],[-121.45958,35.88797],[-121.45922,35.88822],[-121.45911,35.88837],[-121.45909,35.88851],[-121.45914,35.88867],[-121.45933,35.8889],[-121.45958,35.88913],[-121.45986,35.88937],[-121.45995,35.88948],[-121.45998,35.88959],[-121.45995,35.88972],[-121.45983,35.88993],[-121.4596,35.89022],[-121.4595,35.89031],[-121.45938,35.89038],[-121.45931,35.8904],[-121.45911,35.89044],[-121.45899,35.89045],[-121.45889,35.89047],[-121.45884,35.89052],[-121.45873,35.89072],[-121.4587,35.89083],[-121.45869,35.89097],[-121.45866,35.89111],[-121.45858,35.89124],[-121.4584,35.89142],[-121.45817,35.89166],[-121.45809,35.8917],[-121.45796,35.89173],[-121.4578,35.89175],[-121.45767,35.89178],[-121.45736,35.89196],[-121.45726,35.892],[-121.45716,35.89202],[-121.45706,35.892],[-121.45691,35.89195],[-121.45665,35.8918],[-121.45645,35.89173],[-121.45633,35.89166],[-121.45614,35.8915],[-121.45604,35.89144],[-121.45589,35.89126],[-121.45584,35.89116],[-121.4557,35.89081],[-121.4554,35.89028],[-121.45535,35.89022],[-121.45528,35.89018],[-121.45519,35.89015],[-121.45509,35.89014],[-121.45474,35.89017],[-121.45389,35.89024],[-121.45381,35.89027],[-121.45373,35.89033],[-121.45365,35.89043],[-121.45359,35.89047],[-121.45352,35.89048],[-121.45325,35.89045],[-121.45309,35.8904],[-121.45298,35.89034],[-121.45281,35.89019],[-121.45266,35.89012],[-121.4525,35.89007],[-121.452,35.88995],[-121.45175,35.88991],[-121.45153,35.8899],[-121.45118,35.8899],[-121.45096,35.88989],[-121.45077,35.88986],[-121.45062,35.88985],[-121.4503,35.88985],[-121.44984,35.88983],[-121.44971,35.88984],[-121.44963,35.88988],[-121.44958,35.88993],[-121.44947,35.89015],[-121.44941,35.89022],[-121.44932,35.89027],[-121.44885,35.89041],[-121.44876,35.89043],[-121.44866,35.89042],[-121.44852,35.89038],[-121.44833,35.8903],[-121.44814,35.89021],[-121.44796,35.89015],[-121.44774,35.89009],[-121.44757,35.89005],[-121.44742,35.89004],[-121.44707,35.89004],[-121.44695,35.89002],[-121.4468,35.88997],[-121.44665,35.88992],[-121.44656,35.8899],[-121.44647,35.8899],[-121.44639,35.88992],[-121.44618,35.89003],[-121.44605,35.89007],[-121.44588,35.89009],[-121.44559,35.89011],[-121.44551,35.8901],[-121.44536,35.89007],[-121.44523,35.89006],[-121.44513,35.89006],[-121.44504,35.89009],[-121.44483,35.89021],[-121.44473,35.89023],[-121.44463,35.89024],[-121.44451,35.89023],[-121.44415,35.89014],[-121.44373,35.89006],[-121.44348,35.88996],[-121.44317,35.88986],[-121.44287,35.88979],[-121.44263,35.88971],[-121.44224,35.88956],[-121.44193,35.88936],[-121.44159,35.88898],[-121.44106,35.88813],[-121.44075,35.88771],[-121.4405,35.88741],[-121.44044,35.88739],[-121.44039,35.88744],[-121.44039,35.88776],[-121.44042,35.88812],[-121.4404,35.88856],[-121.44029,35.8893],[-121.44023,35.88949],[-121.44022,35.88964],[-121.44024,35.88976],[-121.44031,35.88994],[-121.44043,35.89009],[-121.44047,35.89021],[-121.44054,35.89031],[-121.44071,35.89051],[-121.44075,35.89061],[-121.44075,35.89074],[-121.44066,35.89099],[-121.44069,35.89108],[-121.44079,35.89117],[-121.4412,35.89149],[-121.44131,35.89174],[-121.44156,35.89187],[-121.44171,35.89209],[-121.44198,35.89226],[-121.44222,35.89237],[-121.44229,35.89245],[-121.44229,35.89249],[-121.44223,35.89253],[-121.44215,35.89252],[-121.44123,35.89224],[-121.44098,35.89213],[-121.44066,35.89204],[-121.44024,35.89181],[-121.43995,35.89166],[-121.43967,35.89123],[-121.43934,35.89064],[-121.43925,35.89056],[-121.4392,35.89016],[-121.4391,35.89],[-121.43893,35.88992],[-121.43844,35.88973]]}},{"type":"Feature","properties":{"name":"Plaskett Ridge Road","road_class":"unclassified","surface":"unpaved","source":"Caltrans All Roads + OpenStreetMap explicit surface","source_detail":"osm way 10466770; Caltrans All Roads public-network geometry match","source_tile":"166/402","public_network_source":"Caltrans All Roads (ARNOLD/HPMS)","surface_source":"OpenStreetMap explicit surface tag","caltrans_match_coverage":0.99,"verified_length_m":7673},"geometry":{"type":"LineString","coordinates":[[-121.43204,35.93199],[-121.43118,35.93138],[-121.43008,35.93081],[-121.42995,35.93064],[-121.42993,35.93045],[-121.43024,35.93005],[-121.4303,35.92999],[-121.43043,35.93006],[-121.43052,35.93028],[-121.43065,35.9303],[-121.43079,35.93022],[-121.43084,35.92994],[-121.43087,35.9293],[-121.43118,35.92921],[-121.43111,35.92872],[-121.43131,35.92864],[-121.43157,35.92868],[-121.43177,35.92852],[-121.43195,35.9283],[-121.43215,35.9283],[-121.43249,35.92822],[-121.43269,35.92775],[-121.43274,35.92763],[-121.43281,35.92678],[-121.43311,35.92599],[-121.43335,35.92569],[-121.43342,35.92534],[-121.43339,35.92501],[-121.43315,35.92474],[-121.43295,35.92436],[-121.43267,35.92401],[-121.43255,35.92365],[-121.43257,35.92334],[-121.433,35.92308],[-121.43277,35.9228],[-121.43271,35.92266],[-121.4328,35.92235],[-121.43301,35.92221],[-121.43307,35.92192],[-121.43273,35.92163],[-121.43295,35.92117],[-121.43329,35.92096],[-121.4335,35.92082],[-121.43367,35.92063],[-121.43386,35.92033],[-121.43401,35.91984],[-121.43412,35.91965],[-121.43435,35.91951],[-121.43443,35.91907],[-121.43484,35.91852],[-121.43494,35.91802],[-121.43522,35.91786],[-121.43543,35.91761],[-121.4354,35.91742],[-121.43514,35.91691],[-121.43513,35.91669],[-121.43533,35.91607],[-121.43546,35.91572],[-121.43551,35.91562],[-121.43569,35.91551],[-121.43579,35.9152],[-121.43591,35.9151],[-121.43611,35.91501],[-121.4367,35.9149],[-121.43809,35.91484],[-121.4383,35.91486],[-121.43877,35.91446],[-121.43915,35.91416],[-121.43926,35.91398],[-121.43927,35.91391],[-121.43929,35.91382],[-121.43928,35.91373],[-121.43925,35.91367],[-121.4392,35.91364],[-121.43914,35.91358],[-121.43913,35.91355],[-121.43914,35.91351],[-121.43918,35.91346],[-121.43926,35.91343],[-121.43937,35.91343],[-121.43944,35.91344],[-121.43948,35.91347],[-121.43953,35.91351],[-121.43956,35.91358],[-121.43959,35.91382],[-121.43969,35.91385],[-121.44006,35.91382],[-121.44029,35.91386],[-121.44065,35.91405],[-121.44062,35.91427],[-121.44059,35.91448],[-121.44057,35.91473],[-121.44056,35.91481],[-121.44044,35.91496],[-121.44012,35.91517],[-121.44008,35.91546],[-121.4401,35.91586],[-121.44018,35.91625],[-121.44046,35.91642],[-121.44118,35.91662],[-121.44168,35.91667],[-121.44177,35.9166],[-121.4419,35.91663],[-121.44192,35.91677],[-121.44205,35.91692],[-121.44233,35.91706],[-121.44268,35.91711],[-121.44271,35.91727],[-121.44239,35.91736],[-121.44234,35.91754],[-121.44318,35.9177],[-121.44382,35.91795],[-121.44424,35.91818],[-121.4445,35.91827],[-121.44464,35.91824],[-121.44478,35.91796],[-121.44496,35.91777],[-121.44519,35.91766],[-121.4456,35.91758],[-121.44595,35.91745],[-121.44628,35.91732],[-121.44661,35.91694],[-121.44683,35.91662],[-121.44697,35.91638],[-121.44723,35.91623],[-121.4475,35.91627],[-121.44777,35.91649],[-121.44802,35.91674],[-121.44925,35.91745],[-121.44968,35.91773],[-121.44988,35.91774],[-121.45013,35.91783],[-121.45037,35.91804],[-121.45076,35.91808],[-121.45125,35.91832],[-121.45133,35.91821],[-121.45125,35.91787],[-121.45148,35.9174],[-121.45151,35.91736],[-121.45189,35.91703],[-121.45216,35.9169],[-121.45255,35.91659],[-121.45276,35.91656],[-121.45297,35.91643],[-121.45361,35.91653],[-121.45396,35.91639],[-121.45419,35.91622],[-121.45436,35.91612],[-121.45451,35.91598],[-121.45456,35.91595],[-121.45477,35.9158],[-121.45493,35.9158],[-121.45503,35.91584],[-121.4552,35.9159],[-121.45537,35.91587],[-121.45554,35.91587],[-121.45568,35.91588],[-121.45584,35.91591],[-121.45598,35.91591],[-121.45617,35.91587],[-121.45626,35.91589],[-121.45635,35.9159],[-121.45645,35.9159],[-121.45667,35.91586],[-121.45695,35.91578],[-121.45715,35.91575],[-121.4573,35.91576],[-121.45742,35.91585],[-121.45748,35.91596],[-121.45756,35.91608],[-121.45768,35.91615],[-121.45779,35.91619],[-121.45798,35.91619],[-121.45822,35.91606],[-121.45836,35.91591],[-121.45835,35.91574],[-121.45828,35.91558],[-121.45819,35.91543],[-121.45805,35.91528],[-121.45795,35.91516],[-121.4577,35.91475],[-121.45735,35.91455],[-121.45713,35.91432],[-121.45718,35.91398],[-121.4575,35.9138],[-121.45815,35.91358],[-121.45832,35.91335],[-121.45835,35.91323],[-121.45839,35.91295],[-121.45849,35.91271],[-121.45843,35.91238],[-121.45851,35.91239],[-121.45895,35.91266],[-121.45936,35.91268],[-121.45948,35.9125],[-121.45899,35.91208],[-121.45919,35.912],[-121.45953,35.91209],[-121.45992,35.91213],[-121.46019,35.91218],[-121.46037,35.91261],[-121.46078,35.91293],[-121.4607,35.91307],[-121.46044,35.91331],[-121.46041,35.91356],[-121.46048,35.9136],[-121.46108,35.91333],[-121.46143,35.91342],[-121.46172,35.91338],[-121.46188,35.91319],[-121.46199,35.91316],[-121.46214,35.91313],[-121.46262,35.91336],[-121.46292,35.91341],[-121.46323,35.91359],[-121.46365,35.91372],[-121.46385,35.9142],[-121.46391,35.91432],[-121.46426,35.9144],[-121.4644,35.91438],[-121.46467,35.91403],[-121.46501,35.91395],[-121.46539,35.91377],[-121.4659,35.91408],[-121.4664,35.91429],[-121.46686,35.91445],[-121.46758,35.91483],[-121.4677,35.91493],[-121.46766,35.91507],[-121.46747,35.91511],[-121.46706,35.9151],[-121.46664,35.91498],[-121.46634,35.91505],[-121.46642,35.91526],[-121.46668,35.91539],[-121.46758,35.91571],[-121.4678,35.91587],[-121.4682,35.91631],[-121.46846,35.91648],[-121.4686,35.91661],[-121.46861,35.91663],[-121.46866,35.91673],[-121.46867,35.91689],[-121.46868,35.91719],[-121.46877,35.91732]]}},{"type":"Feature","properties":{"name":"(unnamed public road)","road_class":"track","surface":"dirt","tracktype":"grade3","source":"Caltrans All Roads + OpenStreetMap explicit surface","source_detail":"osm way 205858875; Caltrans All Roads public-network geometry match","source_tile":"166/402","public_network_source":"Caltrans All Roads (ARNOLD/HPMS)","surface_source":"OpenStreetMap explicit surface tag","caltrans_match_coverage":0.965,"verified_length_m":818},"geometry":{"type":"LineString","coordinates":[[-121.46615,35.98101],[-121.46617,35.98095],[-121.46617,35.98082],[-121.46615,35.98077],[-121.46603,35.98061],[-121.46606,35.98056],[-121.46611,35.98053],[-121.46619,35.98052],[-121.46647,35.98056],[-121.46659,35.98053],[-121.46676,35.98042],[-121.46691,35.98034],[-121.46708,35.98013],[-121.46715,35.98007],[-121.46722,35.98005],[-121.4673,35.98006],[-121.46741,35.9802],[-121.4675,35.98021],[-121.46757,35.9802],[-121.4677,35.98011],[-121.46773,35.98002],[-121.46769,35.97987],[-121.4676,35.97973],[-121.46749,35.97964],[-121.46739,35.97959],[-121.46727,35.97958],[-121.46707,35.97964],[-121.467,35.97964],[-121.46684,35.97962],[-121.46669,35.97963],[-121.46661,35.97955],[-121.46642,35.97952],[-121.4663,35.97939],[-121.46611,35.9791],[-121.46603,35.97904],[-121.4659,35.97901],[-121.46552,35.97896],[-121.46548,35.97893],[-121.46546,35.97888],[-121.4655,35.97876],[-121.46554,35.97865],[-121.4656,35.97853],[-121.46571,35.97839],[-121.46582,35.9783],[-121.46586,35.97822],[-121.46583,35.97817],[-121.46572,35.97809],[-121.46572,35.97804],[-121.46584,35.97787],[-121.46587,35.97777],[-121.4658,35.97748],[-121.46568,35.97737],[-121.46548,35.97721],[-121.46542,35.97719],[-121.46536,35.97719],[-121.46532,35.97721],[-121.46533,35.97726],[-121.46541,35.97748],[-121.46543,35.97761],[-121.46543,35.9777],[-121.4654,35.97778]]}},{"type":"Feature","properties":{"name":"Los Burros Road","road_class":"track","surface":"gravel","tracktype":"grade2","source":"Caltrans All Roads + OpenStreetMap explicit surface","source_detail":"osm way 560633764; Caltrans All Roads public-network geometry match","source_tile":"166/402","public_network_source":"Caltrans All Roads (ARNOLD/HPMS)","surface_source":"OpenStreetMap explicit surface tag","caltrans_match_coverage":0.969,"verified_length_m":2623},"geometry":{"type":"LineString","coordinates":[[-121.3972,35.88527],[-121.3971,35.88523],[-121.3969,35.88514],[-121.39671,35.88505],[-121.39663,35.885],[-121.39654,35.88495],[-121.39645,35.88493],[-121.39634,35.88494],[-121.39602,35.88515],[-121.39583,35.8853],[-121.39567,35.88602],[-121.3953,35.88599],[-121.39519,35.88607],[-121.39526,35.88641],[-121.39527,35.8865],[-121.39512,35.88654],[-121.39489,35.88663],[-121.39475,35.88687],[-121.39469,35.88701],[-121.39423,35.88714],[-121.39398,35.88725],[-121.39351,35.88756],[-121.39328,35.88784],[-121.39307,35.88788],[-121.39253,35.8879],[-121.39233,35.88806],[-121.39208,35.88808],[-121.39189,35.888],[-121.39167,35.88715],[-121.39159,35.88702],[-121.39143,35.88704],[-121.39117,35.88762],[-121.39072,35.88794],[-121.38992,35.88806],[-121.38952,35.8884],[-121.38919,35.88876],[-121.38887,35.88921],[-121.38871,35.88929],[-121.38828,35.88926],[-121.38807,35.88913],[-121.38755,35.88932],[-121.38709,35.88932],[-121.38679,35.88966],[-121.38632,35.88991],[-121.38606,35.88991],[-121.38558,35.88991],[-121.38501,35.89],[-121.38467,35.89016],[-121.38447,35.89046],[-121.38431,35.89063],[-121.38398,35.8908],[-121.38363,35.89077],[-121.38353,35.89053],[-121.38328,35.89057],[-121.38299,35.89095],[-121.38276,35.89108],[-121.3824,35.89119],[-121.38154,35.89114],[-121.3808,35.89097],[-121.37986,35.89085],[-121.37936,35.89096],[-121.37874,35.89097],[-121.37807,35.89091],[-121.37765,35.89099],[-121.3773,35.89128],[-121.37714,35.89142],[-121.37692,35.89143],[-121.37642,35.89132],[-121.3759,35.8915],[-121.37552,35.89158],[-121.37513,35.89173],[-121.37481,35.89185]]}},{"type":"Feature","properties":{"name":"Los Burros Road","road_class":"track","surface":"dirt","tracktype":"grade2","source":"Caltrans All Roads + OpenStreetMap explicit surface","source_detail":"osm way 908492105; Caltrans All Roads public-network geometry match","source_tile":"166/402","public_network_source":"Caltrans All Roads (ARNOLD/HPMS)","surface_source":"OpenStreetMap explicit surface tag","caltrans_match_coverage":1.0,"verified_length_m":5699},"geometry":{"type":"LineString","coordinates":[[-121.43844,35.88973],[-121.43839,35.88971],[-121.43796,35.88965],[-121.43786,35.88962],[-121.43782,35.88953],[-121.43782,35.88946],[-121.43791,35.88939],[-121.43794,35.88929],[-121.43793,35.88918],[-121.43777,35.88906],[-121.43763,35.88899],[-121.43734,35.889],[-121.43707,35.889],[-121.43685,35.88909],[-121.43656,35.88934],[-121.4364,35.88949],[-121.43628,35.88955],[-121.43618,35.88955],[-121.43611,35.88953],[-121.43602,35.88936],[-121.43597,35.8892],[-121.43574,35.88893],[-121.43545,35.88861],[-121.43537,35.8885],[-121.43523,35.88834],[-121.4351,35.88828],[-121.4349,35.88835],[-121.43482,35.88842],[-121.43478,35.88886],[-121.4347,35.88904],[-121.4346,35.88917],[-121.4345,35.88927],[-121.43441,35.88931],[-121.43433,35.88932],[-121.43428,35.88924],[-121.43432,35.88917],[-121.43433,35.88911],[-121.43428,35.88903],[-121.43414,35.88907],[-121.43407,35.88934],[-121.43404,35.88959],[-121.43396,35.88972],[-121.4337,35.88998],[-121.43344,35.89029],[-121.43338,35.89033],[-121.4333,35.89034],[-121.43323,35.8903],[-121.43319,35.89024],[-121.43324,35.89016],[-121.43331,35.89007],[-121.43328,35.88996],[-121.43288,35.88941],[-121.43316,35.88912],[-121.43298,35.88894],[-121.43254,35.88897],[-121.43227,35.88934],[-121.43214,35.88941],[-121.43199,35.88945],[-121.43177,35.88945],[-121.43152,35.88943],[-121.43138,35.88941],[-121.4313,35.88941],[-121.43125,35.88943],[-121.43121,35.88947],[-121.43125,35.88976],[-121.43124,35.88981],[-121.43119,35.88985],[-121.43113,35.88988],[-121.43101,35.88987],[-121.43081,35.88982],[-121.43066,35.88975],[-121.4305,35.88968],[-121.43034,35.88957],[-121.43026,35.88949],[-121.43016,35.88934],[-121.43012,35.88931],[-121.43007,35.88931],[-121.43003,35.88933],[-121.42991,35.88943],[-121.42985,35.88947],[-121.42976,35.88949],[-121.4297,35.88949],[-121.42961,35.88947],[-121.42951,35.88947],[-121.42923,35.88959],[-121.42901,35.88963],[-121.42874,35.88961],[-121.42867,35.8896],[-121.42865,35.88956],[-121.42865,35.88951],[-121.42868,35.88946],[-121.42883,35.8894],[-121.42891,35.88934],[-121.42893,35.88928],[-121.42892,35.88923],[-121.42888,35.88917],[-121.42882,35.88916],[-121.42873,35.88918],[-121.42847,35.88931],[-121.42837,35.88934],[-121.42788,35.88934],[-121.42775,35.88936],[-121.42758,35.8894],[-121.42741,35.88944],[-121.42732,35.88945],[-121.42726,35.88944],[-121.4272,35.88941],[-121.42713,35.88935],[-121.4271,35.88927],[-121.42712,35.8892],[-121.42722,35.88911],[-121.42738,35.88902],[-121.42777,35.88887],[-121.42793,35.88878],[-121.42806,35.88867],[-121.42813,35.88857],[-121.42818,35.88845],[-121.42831,35.88834],[-121.42837,35.88827],[-121.42845,35.88815],[-121.42853,35.88791],[-121.42853,35.88779],[-121.4285,35.88764],[-121.42848,35.88751],[-121.42862,35.88718],[-121.42862,35.88704],[-121.42853,35.88688],[-121.42855,35.88663],[-121.42868,35.88649],[-121.42885,35.88634],[-121.42893,35.8861],[-121.42908,35.88599],[-121.4293,35.88586],[-121.42949,35.88569],[-121.42955,35.88553],[-121.42962,35.88538],[-121.42965,35.88523],[-121.42963,35.88511],[-121.42955,35.88504],[-121.42944,35.88499],[-121.4291,35.88481],[-121.42893,35.8847],[-121.42868,35.88464],[-121.42846,35.88461],[-121.4278,35.88456],[-121.42758,35.88458],[-121.4269,35.88475],[-121.42679,35.88476],[-121.42662,35.88476],[-121.42629,35.8847],[-121.42586,35.88466],[-121.42537,35.88466],[-121.42502,35.88467],[-121.42491,35.88466],[-121.42481,35.88467],[-121.42475,35.8847],[-121.42469,35.88474],[-121.42463,35.88477],[-121.4245,35.88476],[-121.42422,35.88465],[-121.42383,35.88458],[-121.42351,35.88454],[-121.42315,35.88448],[-121.42306,35.88449],[-121.42295,35.88455],[-121.42269,35.88465],[-121.42244,35.88473],[-121.42219,35.88477],[-121.42184,35.88478],[-121.42162,35.88481],[-121.42147,35.8848],[-121.42135,35.88475],[-121.42113,35.88465],[-121.42094,35.8845],[-121.42079,35.88439],[-121.4205,35.88429],[-121.41926,35.88399],[-121.41858,35.88393],[-121.41758,35.88403],[-121.41682,35.88433],[-121.41657,35.88452],[-121.4163,35.88463],[-121.41594,35.88485],[-121.41566,35.88507],[-121.4154,35.88506],[-121.41515,35.8849],[-121.41497,35.88482],[-121.41407,35.88466],[-121.41377,35.88456],[-121.41348,35.88453],[-121.41302,35.88466],[-121.41243,35.88474],[-121.41221,35.88482],[-121.41211,35.88494],[-121.41194,35.88502],[-121.41179,35.88507],[-121.41107,35.88515],[-121.41067,35.88529],[-121.40984,35.88534],[-121.40905,35.88558],[-121.4089,35.88574],[-121.40887,35.88587],[-121.40887,35.88605],[-121.40901,35.88629],[-121.40899,35.88646],[-121.40895,35.88665],[-121.40876,35.88678],[-121.40823,35.88692],[-121.40788,35.88698],[-121.40701,35.88687],[-121.40665,35.88701],[-121.40652,35.88714],[-121.40639,35.88741],[-121.40627,35.88753],[-121.40597,35.8876],[-121.40564,35.88766],[-121.40522,35.88771],[-121.4049,35.8878],[-121.40438,35.88789],[-121.40359,35.88785],[-121.40264,35.88765],[-121.40171,35.88743],[-121.40121,35.88739],[-121.40095,35.88735],[-121.40078,35.88719],[-121.40055,35.88702],[-121.4003,35.88696],[-121.40001,35.88683],[-121.3997,35.88672],[-121.3995,35.88666],[-121.39937,35.88666],[-121.39925,35.8867],[-121.39913,35.88687],[-121.39889,35.88697],[-121.3986,35.88699],[-121.39839,35.88697],[-121.3981,35.88671],[-121.39787,35.88615],[-121.3978,35.88606],[-121.39738,35.88542],[-121.39728,35.88531],[-121.3972,35.88527]]}},{"type":"Feature","properties":{"name":"South Coast Ridge Road","road_class":"track","surface":"compacted","tracktype":"grade2","source":"Caltrans All Roads + OpenStreetMap explicit surface","source_detail":"osm way 908492107; Caltrans All Roads public-network geometry match","source_tile":"166/402","public_network_source":"Caltrans All Roads (ARNOLD/HPMS)","surface_source":"OpenStreetMap explicit surface tag","caltrans_match_coverage":1.0,"verified_length_m":11289},"geometry":{"type":"LineString","coordinates":[[-121.45241,36.00987],[-121.45256,36.00961],[-121.45265,36.00938],[-121.45269,36.00912],[-121.45269,36.00906],[-121.45267,36.00897],[-121.45258,36.0089],[-121.45245,36.00886],[-121.45215,36.00877],[-121.45196,36.00869],[-121.45177,36.00853],[-121.45166,36.00848],[-121.45129,36.00841],[-121.45115,36.00836],[-121.45095,36.00824],[-121.4509,36.00818],[-121.45085,36.00806],[-121.45081,36.00779],[-121.45086,36.0077],[-121.45116,36.00748],[-121.45149,36.00738],[-121.45153,36.00732],[-121.45153,36.00728],[-121.4515,36.00721],[-121.45138,36.00715],[-121.45123,36.00714],[-121.45049,36.00709],[-121.45024,36.00702],[-121.4499,36.00688],[-121.44977,36.00683],[-121.44957,36.00683],[-121.44937,36.00692],[-121.44922,36.00692],[-121.44912,36.00688],[-121.44906,36.00682],[-121.44902,36.00675],[-121.44894,36.00647],[-121.44889,36.00635],[-121.4488,36.00625],[-121.44866,36.00609],[-121.4484,36.00595],[-121.44824,36.00591],[-121.44799,36.0059],[-121.44783,36.00588],[-121.44765,36.00584],[-121.44746,36.00577],[-121.44724,36.00576],[-121.44711,36.00579],[-121.44701,36.00578],[-121.44685,36.00575],[-121.44671,36.00576],[-121.44649,36.00584],[-121.44639,36.00584],[-121.44621,36.00577],[-121.44588,36.00579],[-121.44562,36.00572],[-121.44542,36.00572],[-121.44534,36.0057],[-121.44518,36.00557],[-121.44504,36.00554],[-121.44483,36.00555],[-121.44446,36.00567],[-121.44434,36.00566],[-121.44425,36.00563],[-121.44398,36.00547],[-121.44388,36.00542],[-121.44363,36.00538],[-121.44347,36.00539],[-121.44339,36.00542],[-121.4432,36.00554],[-121.44293,36.00563],[-121.44266,36.00576],[-121.44258,36.00577],[-121.44245,36.00577],[-121.44218,36.00574],[-121.44195,36.00573],[-121.44179,36.00577],[-121.44167,36.00584],[-121.44153,36.00597],[-121.44143,36.00602],[-121.44128,36.00603],[-121.44107,36.00607],[-121.44091,36.00607],[-121.44081,36.00605],[-121.44069,36.00599],[-121.44069,36.0059],[-121.44081,36.00575],[-121.4409,36.00553],[-121.44103,36.00541],[-121.44105,36.00532],[-121.44104,36.00523],[-121.44097,36.00504],[-121.44091,36.00492],[-121.44082,36.00479],[-121.44055,36.0046],[-121.44048,36.00452],[-121.44047,36.00439],[-121.44047,36.00425],[-121.44043,36.00417],[-121.44022,36.004],[-121.44013,36.0039],[-121.44011,36.00382],[-121.44012,36.00378],[-121.44029,36.00356],[-121.44034,36.00347],[-121.44036,36.00335],[-121.44036,36.00317],[-121.44035,36.00308],[-121.44028,36.00304],[-121.44017,36.00303],[-121.43982,36.00315],[-121.43972,36.00315],[-121.43961,36.00309],[-121.43944,36.00309],[-121.43936,36.00305],[-121.43932,36.00297],[-121.43922,36.00258],[-121.43917,36.00242],[-121.43909,36.00228],[-121.43901,36.00224],[-121.43893,36.00224],[-121.43866,36.00226],[-121.43857,36.00226],[-121.43852,36.00222],[-121.43848,36.00212],[-121.43846,36.00198],[-121.43836,36.00185],[-121.43821,36.00178],[-121.43798,36.00177],[-121.43787,36.00178],[-121.4376,36.00191],[-121.43752,36.00195],[-121.43743,36.00194],[-121.43733,36.00191],[-121.43724,36.00182],[-121.4371,36.00162],[-121.43694,36.00145],[-121.43676,36.00136],[-121.43662,36.00121],[-121.43639,36.00117],[-121.43625,36.00112],[-121.43587,36.00095],[-121.4357,36.00087],[-121.43532,36.00056],[-121.43506,36.00042],[-121.43487,36.00028],[-121.43483,36.00021],[-121.43479,36.00008],[-121.43482,35.99994],[-121.43492,35.99972],[-121.43507,35.99954],[-121.43512,35.99945],[-121.4351,35.99938],[-121.43506,35.99932],[-121.43498,35.99926],[-121.43471,35.9992],[-121.43447,35.99903],[-121.43419,35.99888],[-121.43393,35.99866],[-121.43381,35.99861],[-121.43373,35.9986],[-121.43351,35.99863],[-121.43344,35.99862],[-121.43335,35.9986],[-121.43327,35.99855],[-121.43307,35.99826],[-121.4329,35.9979],[-121.43283,35.99781],[-121.43261,35.99766],[-121.43255,35.99758],[-121.43252,35.99751],[-121.43252,35.99737],[-121.43265,35.99715],[-121.43265,35.99704],[-121.43262,35.99694],[-121.43252,35.9968],[-121.43243,35.99662],[-121.43206,35.99635],[-121.43193,35.9962],[-121.43189,35.99614],[-121.43187,35.99605],[-121.43193,35.99592],[-121.43192,35.99582],[-121.43184,35.9957],[-121.43168,35.99564],[-121.43159,35.99557],[-121.43152,35.99543],[-121.43148,35.99525],[-121.43149,35.99517],[-121.43161,35.99471],[-121.43171,35.99457],[-121.43202,35.99441],[-121.43208,35.99435],[-121.43218,35.99422],[-121.43218,35.99414],[-121.43215,35.99403],[-121.43201,35.99377],[-121.43195,35.99364],[-121.43193,35.99348],[-121.4321,35.99307],[-121.43216,35.99287],[-121.43222,35.9928],[-121.43235,35.99273],[-121.43253,35.99269],[-121.43291,35.9927],[-121.43311,35.99267],[-121.43335,35.99261],[-121.43349,35.99255],[-121.43362,35.99241],[-121.43366,35.99231],[-121.43368,35.99206],[-121.43375,35.99187],[-121.43377,35.99177],[-121.43371,35.99168],[-121.43308,35.99133],[-121.43272,35.99115],[-121.43256,35.99103],[-121.4325,35.9909],[-121.43248,35.99068],[-121.43243,35.99049],[-121.43232,35.99023],[-121.43226,35.99016],[-121.43215,35.99007],[-121.43197,35.98998],[-121.43182,35.98989],[-121.43177,35.98983],[-121.43174,35.98976],[-121.43174,35.98964],[-121.43179,35.98955],[-121.43188,35.98944],[-121.43194,35.98934],[-121.43194,35.98922],[-121.43187,35.98891],[-121.43189,35.98867],[-121.43187,35.98835],[-121.43192,35.98818],[-121.43204,35.98807],[-121.43225,35.98795],[-121.43243,35.98784],[-121.43259,35.98765],[-121.43274,35.98752],[-121.43276,35.98744],[-121.4327,35.98734],[-121.43253,35.98723],[-121.43248,35.98712],[-121.43248,35.98677],[-121.43246,35.9867],[-121.43241,35.98663],[-121.43232,35.98654],[-121.43229,35.98646],[-121.4323,35.98639],[-121.43239,35.98628],[-121.43241,35.98613],[-121.43237,35.98587],[-121.43238,35.9858],[-121.43242,35.98574],[-121.4325,35.98567],[-121.43259,35.98564],[-121.43326,35.98555],[-121.43332,35.98551],[-121.43335,35.98545],[-121.43334,35.98535],[-121.43326,35.9852],[-121.4332,35.98496],[-121.43315,35.98478],[-121.43311,35.98465],[-121.43297,35.98453],[-121.43265,35.98425],[-121.43249,35.98407],[-121.43236,35.98386],[-121.43226,35.98376],[-121.43195,35.98357],[-121.43189,35.98347],[-121.43188,35.98332],[-121.43184,35.9832],[-121.43143,35.98282],[-121.43139,35.98274],[-121.43138,35.98268],[-121.43142,35.98257],[-121.43149,35.98248],[-121.43157,35.98242],[-121.43167,35.98237],[-121.43212,35.98228],[-121.43236,35.98221],[-121.43251,35.98213],[-121.43257,35.98209],[-121.43263,35.98199],[-121.43266,35.98188],[-121.43266,35.9818],[-121.43252,35.98141],[-121.43253,35.98136],[-121.43257,35.9813],[-121.43263,35.98126],[-121.43274,35.98121],[-121.43293,35.98121],[-121.43322,35.98123],[-121.43356,35.98118],[-121.43376,35.98118],[-121.43403,35.98113],[-121.43431,35.98104],[-121.43503,35.98074],[-121.43508,35.9807],[-121.43512,35.98062],[-121.43514,35.98042],[-121.4352,35.98035],[-121.43538,35.98024],[-121.43547,35.98013],[-121.43553,35.97995],[-121.43558,35.97988],[-121.43567,35.97982],[-121.43588,35.9797],[-121.43609,35.9796],[-121.43628,35.97957],[-121.43674,35.97958],[-121.43709,35.97963],[-121.43717,35.97963],[-121.43728,35.9796],[-121.43734,35.97956],[-121.43756,35.97928],[-121.4376,35.97916],[-121.4376,35.97887],[-121.4376,35.97876],[-121.43754,35.97857],[-121.43754,35.97847],[-121.43758,35.97835],[-121.43764,35.97829],[-121.43796,35.9781],[-121.43808,35.97799],[-121.43819,35.97793],[-121.43835,35.97793],[-121.43847,35.97794],[-121.43886,35.97808],[-121.43898,35.9781],[-121.4391,35.97811],[-121.43928,35.97808],[-121.43939,35.97805],[-121.43948,35.97799],[-121.43996,35.97745],[-121.44012,35.97712],[-121.44022,35.97703],[-121.44038,35.97698],[-121.44046,35.97694],[-121.44054,35.97686],[-121.44057,35.9767],[-121.44069,35.97633],[-121.44075,35.97623],[-121.44091,35.97605],[-121.44109,35.97585],[-121.44113,35.97576],[-121.44111,35.97563],[-121.44115,35.97555],[-121.44131,35.97545],[-121.44137,35.97536],[-121.44137,35.97526],[-121.44129,35.97496],[-121.44124,35.97478],[-121.44124,35.97469],[-121.44126,35.97461],[-121.44134,35.97458],[-121.44146,35.97459],[-121.44154,35.97458],[-121.44161,35.97454],[-121.44168,35.97432],[-121.44177,35.974],[-121.44178,35.97388],[-121.44177,35.97374],[-121.4417,35.97357],[-121.44158,35.97338],[-121.44151,35.97317],[-121.44142,35.97294],[-121.4414,35.97279],[-121.4414,35.97268],[-121.4415,35.97238],[-121.44153,35.9722],[-121.44147,35.97212],[-121.44118,35.97188],[-121.4411,35.97162],[-121.44107,35.97152],[-121.44112,35.97148],[-121.4412,35.97149],[-121.44159,35.97159],[-121.44172,35.97159],[-121.44179,35.97156],[-121.4418,35.97149],[-121.44175,35.9714],[-121.4415,35.97114],[-121.44142,35.97102],[-121.44129,35.97083],[-121.44129,35.97067],[-121.44134,35.97056],[-121.44137,35.97039],[-121.44135,35.97023],[-121.4413,35.97013],[-121.44103,35.96985],[-121.4409,35.96979],[-121.44078,35.96978],[-121.44056,35.96979],[-121.44041,35.96972],[-121.44011,35.96971],[-121.43991,35.96977],[-121.43953,35.96982],[-121.43915,35.96983],[-121.43882,35.96981],[-121.4386,35.96977],[-121.43852,35.96973],[-121.43842,35.96966],[-121.43837,35.96961],[-121.43831,35.96949],[-121.4382,35.96919],[-121.4381,35.96911],[-121.4379,35.969],[-121.43769,35.96885],[-121.43738,35.96869],[-121.43726,35.96861],[-121.43705,35.96841],[-121.43698,35.96836],[-121.43684,35.96829],[-121.4361,35.96801],[-121.43548,35.9678],[-121.43526,35.96762],[-121.435,35.96746],[-121.43459,35.96729],[-121.43433,35.96726],[-121.43419,35.96722],[-121.43381,35.96698],[-121.43338,35.96677],[-121.4332,35.96663],[-121.43307,35.96658],[-121.43288,35.96652],[-121.43271,35.96644],[-121.43261,35.96636],[-121.43238,35.96605],[-121.43223,35.96563],[-121.43214,35.96551],[-121.43154,35.96514],[-121.43137,35.96511],[-121.43107,35.96511],[-121.43096,35.96508],[-121.43083,35.965],[-121.43066,35.96481],[-121.43057,35.96474],[-121.43041,35.96473],[-121.43026,35.96474],[-121.43013,35.9648],[-121.43001,35.96482],[-121.42994,35.9648],[-121.42988,35.96474],[-121.42984,35.96465],[-121.4298,35.9645],[-121.42969,35.96444],[-121.4295,35.96444],[-121.42947,35.96429],[-121.42939,35.96413],[-121.42928,35.96404],[-121.42925,35.96398],[-121.42929,35.96388],[-121.42948,35.96371],[-121.42954,35.96361],[-121.42954,35.96351],[-121.42948,35.96342],[-121.4293,35.96327],[-121.42917,35.96311],[-121.42904,35.963],[-121.4287,35.96284],[-121.4286,35.96276],[-121.42855,35.96271],[-121.42842,35.96248],[-121.42834,35.96241],[-121.42814,35.96231],[-121.42795,35.96217],[-121.4276,35.96199],[-121.42737,35.96182],[-121.42721,35.96181],[-121.42703,35.96182],[-121.42643,35.96183],[-121.42634,35.96179],[-121.42632,35.96169],[-121.42641,35.96151],[-121.42646,35.96117],[-121.42654,35.96104],[-121.42657,35.96085],[-121.42644,35.96045],[-121.42623,35.96003],[-121.4262,35.9597],[-121.42627,35.95936],[-121.42631,35.95915],[-121.42623,35.95886],[-121.42612,35.95865],[-121.42594,35.95824],[-121.42577,35.95809],[-121.4257,35.95792],[-121.42571,35.95755],[-121.42565,35.95739],[-121.42554,35.95728],[-121.4253,35.95703],[-121.42519,35.95658],[-121.42504,35.95633],[-121.42495,35.95607],[-121.42479,35.9559],[-121.42473,35.95572],[-121.42468,35.95546],[-121.42462,35.95507],[-121.42457,35.955],[-121.42444,35.955],[-121.42428,35.95513],[-121.42392,35.95527],[-121.42356,35.95547],[-121.42337,35.95549],[-121.42321,35.95546],[-121.42289,35.95525],[-121.42272,35.95512],[-121.42259,35.95494],[-121.42248,35.95469],[-121.4225,35.95453],[-121.42258,35.95444],[-121.42284,35.95427],[-121.42288,35.95413],[-121.42316,35.95394],[-121.42319,35.95381],[-121.42307,35.95364],[-121.42275,35.95332],[-121.42267,35.95306],[-121.42254,35.95279],[-121.4222,35.95249],[-121.42192,35.95184],[-121.42192,35.95156],[-121.42181,35.95128],[-121.42186,35.95097],[-121.42174,35.95074],[-121.42148,35.95049],[-121.42125,35.95039],[-121.42111,35.95041],[-121.42072,35.95057],[-121.42019,35.95061],[-121.41996,35.9506],[-121.41976,35.9505],[-121.41952,35.95017],[-121.41917,35.94984],[-121.41847,35.94943],[-121.41771,35.94947],[-121.41701,35.94921],[-121.4161,35.94921],[-121.4152,35.94921]]}}]}