{"type":"FeatureCollection","features":[{"type":"Feature","properties":{"name":"(unnamed public road)","road_class":"track","surface":"gravel","source":"Caltrans All Roads + OpenStreetMap explicit surface","source_detail":"osm way 1315800794; Caltrans All Roads public-network geometry match","source_tile":"159/388","public_network_source":"Caltrans All Roads (ARNOLD/HPMS)","surface_source":"OpenStreetMap explicit surface tag","caltrans_match_coverage":0.994,"verified_length_m":5315},"geometry":{"type":"LineString","coordinates":[[-123.83519,39.93393],[-123.83518,39.93376],[-123.83516,39.93366],[-123.83509,39.93361],[-123.83499,39.93356],[-123.8349,39.93354],[-123.83481,39.93353],[-123.83459,39.93353],[-123.8345,39.93352],[-123.83438,39.93349],[-123.83428,39.93344],[-123.83387,39.93325],[-123.83375,39.93318],[-123.83357,39.93302],[-123.83343,39.93292],[-123.83326,39.93284],[-123.8329,39.93272],[-123.83257,39.93259],[-123.83244,39.93256],[-123.83215,39.93247],[-123.83181,39.9324],[-123.83166,39.93236],[-123.83146,39.93227],[-123.83137,39.9322],[-123.83125,39.93208],[-123.83109,39.93188],[-123.83106,39.93176],[-123.83101,39.9315],[-123.831,39.9313],[-123.83096,39.93116],[-123.83088,39.93076],[-123.83082,39.93063],[-123.83079,39.93051],[-123.83078,39.93038],[-123.83082,39.93022],[-123.83089,39.9298],[-123.83092,39.9297],[-123.83099,39.92957],[-123.83116,39.92937],[-123.83135,39.9292],[-123.83139,39.92917],[-123.83144,39.92911],[-123.83145,39.92904],[-123.83142,39.92897],[-123.83143,39.92877],[-123.83143,39.92868],[-123.83146,39.92859],[-123.83153,39.92851],[-123.8316,39.92849],[-123.83169,39.92844],[-123.83176,39.92837],[-123.83188,39.9282],[-123.83192,39.92812],[-123.83197,39.92797],[-123.83197,39.92778],[-123.83201,39.92772],[-123.83208,39.92769],[-123.83217,39.92768],[-123.83259,39.92784],[-123.83308,39.92797],[-123.83327,39.928],[-123.83336,39.92799],[-123.83343,39.92796],[-123.83348,39.92791],[-123.8335,39.92782],[-123.83348,39.92775],[-123.83344,39.92768],[-123.83337,39.92763],[-123.83313,39.92753],[-123.83289,39.92738],[-123.8328,39.92731],[-123.83273,39.92722],[-123.83269,39.92712],[-123.83268,39.92701],[-123.83271,39.92674],[-123.83276,39.92653],[-123.83283,39.92637],[-123.83287,39.92623],[-123.83293,39.92606],[-123.83298,39.926],[-123.83306,39.92594],[-123.83315,39.92589],[-123.83332,39.92584],[-123.83357,39.92581],[-123.83373,39.92578],[-123.83388,39.92574],[-123.83393,39.92566],[-123.834,39.92561],[-123.83408,39.92558],[-123.83426,39.92556],[-123.83433,39.92554],[-123.83437,39.92549],[-123.83439,39.92543],[-123.83436,39.92532],[-123.83436,39.92523],[-123.8344,39.92511],[-123.83449,39.92501],[-123.83473,39.92484],[-123.83504,39.9247],[-123.83518,39.92463],[-123.83533,39.92457],[-123.83565,39.92443],[-123.83571,39.9244],[-123.83586,39.92433],[-123.83602,39.9243],[-123.83615,39.9243],[-123.83628,39.92434],[-123.83638,39.9244],[-123.83655,39.92461],[-123.8367,39.92475],[-123.83678,39.9248],[-123.83688,39.92482],[-123.83698,39.92481],[-123.83707,39.92479],[-123.83722,39.92471],[-123.83732,39.92462],[-123.83738,39.92455],[-123.83743,39.92451],[-123.83748,39.92442],[-123.83749,39.92435],[-123.83745,39.92427],[-123.83739,39.92421],[-123.83707,39.92387],[-123.83683,39.92374],[-123.83657,39.92362],[-123.83632,39.92345],[-123.83629,39.9234],[-123.83629,39.92334],[-123.83632,39.92328],[-123.83638,39.92324],[-123.83645,39.92318],[-123.83663,39.92309],[-123.83679,39.92302],[-123.83691,39.92296],[-123.83704,39.92288],[-123.83713,39.92281],[-123.83725,39.92274],[-123.83754,39.92261],[-123.8376,39.92257],[-123.83767,39.92255],[-123.83773,39.92255],[-123.83779,39.92252],[-123.83795,39.9223],[-123.83813,39.92212],[-123.83823,39.92203],[-123.83836,39.92188],[-123.83843,39.92182],[-123.83854,39.92174],[-123.83877,39.92156],[-123.83896,39.92136],[-123.83903,39.92128],[-123.83909,39.92119],[-123.83914,39.92113],[-123.83921,39.92109],[-123.83927,39.92099],[-123.83932,39.92089],[-123.83948,39.92067],[-123.83953,39.92057],[-123.8396,39.92051],[-123.83979,39.92037],[-123.84002,39.92023],[-123.84011,39.92015],[-123.84023,39.92],[-123.84037,39.91979],[-123.84039,39.91968],[-123.84039,39.91956],[-123.84044,39.91948],[-123.84052,39.91942],[-123.84062,39.91938],[-123.84077,39.91926],[-123.84095,39.91906],[-123.84122,39.91881],[-123.84132,39.91869],[-123.84142,39.91846],[-123.84147,39.91833],[-123.8415,39.91796],[-123.84149,39.91783],[-123.84153,39.91768],[-123.84155,39.91753],[-123.84165,39.91746],[-123.8417,39.91739],[-123.84172,39.91731],[-123.84169,39.91713],[-123.84164,39.91699],[-123.84157,39.91685],[-123.84148,39.91671],[-123.84148,39.91663],[-123.84151,39.91655],[-123.84157,39.91648],[-123.84164,39.91643],[-123.84185,39.91637],[-123.84199,39.91634],[-123.84213,39.91632],[-123.84228,39.91632],[-123.84236,39.91634],[-123.84243,39.91633],[-123.84252,39.91631],[-123.84258,39.91625],[-123.84266,39.91609],[-123.84269,39.91595],[-123.84267,39.91584],[-123.84263,39.91582],[-123.84254,39.9158],[-123.84245,39.9158],[-123.84234,39.91584],[-123.84228,39.91589],[-123.84224,39.91595],[-123.84216,39.91604],[-123.84203,39.91612],[-123.84193,39.91615],[-123.84176,39.91617],[-123.84159,39.91614],[-123.84141,39.91608],[-123.84124,39.91598],[-123.84116,39.91592],[-123.84105,39.91578],[-123.84079,39.91542],[-123.84062,39.91524],[-123.84043,39.91499],[-123.84036,39.91488],[-123.84026,39.91465],[-123.8402,39.91441],[-123.84017,39.91432],[-123.84017,39.91429],[-123.84014,39.91419],[-123.84007,39.91412],[-123.83999,39.91406],[-123.83988,39.91396],[-123.83981,39.91388],[-123.83976,39.91379],[-123.83971,39.9137],[-123.83968,39.91359],[-123.83959,39.91338],[-123.83952,39.91316],[-123.83946,39.91281],[-123.83946,39.91261],[-123.83948,39.91253],[-123.83952,39.91248],[-123.83961,39.9124],[-123.83971,39.91235],[-123.83988,39.91229],[-123.83999,39.91227],[-123.8401,39.91227],[-123.8402,39.91224],[-123.84026,39.91219],[-123.84031,39.91212],[-123.84041,39.91204],[-123.84065,39.91184],[-123.84081,39.91172],[-123.84098,39.91161],[-123.8411,39.91152],[-123.84127,39.91142],[-123.84141,39.91132],[-123.84175,39.91111],[-123.84178,39.91105],[-123.84176,39.91101],[-123.84169,39.91099],[-123.84158,39.91098],[-123.84146,39.91099],[-123.84136,39.91102],[-123.84113,39.91112],[-123.84099,39.9112],[-123.84086,39.91125],[-123.84065,39.91131],[-123.8405,39.91138],[-123.84032,39.91142],[-123.84018,39.91152],[-123.84003,39.91159],[-123.83977,39.91175],[-123.83964,39.91179],[-123.83935,39.91183],[-123.83916,39.91181],[-123.83903,39.91175],[-123.83902,39.91167],[-123.83898,39.9115],[-123.839,39.91104],[-123.83898,39.91087],[-123.83896,39.91078],[-123.83881,39.9105],[-123.83879,39.91043],[-123.83879,39.91038],[-123.83886,39.91012],[-123.83886,39.90998],[-123.8389,39.90984],[-123.83904,39.90963],[-123.83918,39.90945],[-123.83925,39.90934],[-123.83934,39.90924],[-123.8394,39.90919],[-123.8395,39.90914],[-123.83975,39.90907],[-123.83987,39.90905],[-123.84008,39.90903],[-123.84012,39.90902],[-123.84017,39.90896],[-123.84018,39.90892],[-123.84009,39.90859],[-123.84007,39.90851],[-123.84008,39.90841],[-123.84012,39.90811],[-123.84016,39.90758],[-123.84018,39.90742],[-123.84019,39.90736],[-123.84029,39.90718],[-123.84034,39.9071],[-123.84042,39.90704],[-123.84055,39.90698],[-123.84067,39.90695],[-123.84112,39.90689],[-123.84128,39.90684],[-123.84134,39.9068],[-123.84145,39.90669],[-123.84153,39.90666],[-123.84162,39.90664],[-123.84229,39.90669],[-123.84235,39.90667],[-123.84243,39.90661],[-123.84244,39.90657],[-123.8423,39.90613],[-123.84228,39.90601],[-123.84229,39.90588],[-123.84233,39.9057],[-123.84236,39.90562],[-123.84242,39.90553],[-123.84263,39.90526],[-123.84267,39.90517],[-123.84271,39.90506],[-123.84277,39.90477],[-123.8428,39.90451],[-123.84277,39.90426],[-123.8428,39.90405],[-123.84291,39.9039],[-123.84293,39.90369],[-123.84289,39.90355]]}}]}