{"type":"FeatureCollection","features":[{"type":"Feature","properties":{"name":"Unnamed BLM route","source":"Bureau of Land Management","source_detail":"BLM GTLF OBJECTID 154637","source_id":"{4D78B175-9C06-4F28-A090-5F2F23FA78B0}","road_class":"transportation_system_-_primitive_road","surface":"natural","vehicle_class":"4wd_high_clearance_specialized","allowed_mode":"unk","access_restriction":"unknown","seasonal_restriction":"not_listed","gis_miles":0.08216988},"geometry":{"type":"LineString","coordinates":[[-117.57393,34.71864],[-117.57381,34.71832],[-117.57366,34.71803],[-117.57345,34.71774],[-117.57329,34.71758]]}},{"type":"Feature","properties":{"name":"Unnamed BLM route","source":"Bureau of Land Management","source_detail":"BLM GTLF OBJECTID 154814","source_id":"{14D64D15-CA4D-49D9-BE88-2469DE7302EE}","road_class":"transportation_system_-_primitive_road","surface":"natural","vehicle_class":"4wd_high_clearance_specialized","allowed_mode":"unk","access_restriction":"unknown","seasonal_restriction":"not_listed","gis_miles":0.01656518},"geometry":{"type":"LineString","coordinates":[[-117.53209,34.6854],[-117.5322,34.68539]]}},{"type":"Feature","properties":{"name":"Unnamed BLM route","source":"Bureau of Land Management","source_detail":"BLM GTLF OBJECTID 155171","source_id":"{FE3680C6-4C8B-4BDE-BB92-B60C3AA06BE3}","road_class":"transportation_system_-_primitive_road","surface":"natural","vehicle_class":"4wd_high_clearance_specialized","allowed_mode":"unk","access_restriction":"unknown","seasonal_restriction":"not_listed","gis_miles":0.19374158},"geometry":{"type":"LineString","coordinates":[[-117.56142,34.71575],[-117.56143,34.71629],[-117.56144,34.71715],[-117.56143,34.7174],[-117.56146,34.71758],[-117.56145,34.71785],[-117.5614,34.71805],[-117.56136,34.71821],[-117.56136,34.71832],[-117.56139,34.71855]]}},{"type":"Feature","properties":{"name":"Unnamed BLM route","source":"Bureau of Land Management","source_detail":"BLM GTLF OBJECTID 155323","source_id":"{DCA8E374-45F6-44EC-BBD8-79DB8F77D55E}","road_class":"transportation_system_-_primitive_road","surface":"natural","vehicle_class":"4wd_high_clearance_specialized","allowed_mode":"unk","access_restriction":"unknown","seasonal_restriction":"not_listed","gis_miles":0.07353137},"geometry":{"type":"LineString","coordinates":[[-117.57782,34.71764],[-117.57781,34.71805],[-117.57772,34.71829],[-117.57754,34.71866]]}},{"type":"Feature","properties":{"name":"Unnamed BLM route","source":"Bureau of Land Management","source_detail":"BLM GTLF OBJECTID 155388","source_id":"{C625E656-6A2B-42DD-894C-6916C168D96B}","road_class":"transportation_system_-_primitive_road","surface":"natural","vehicle_class":"4wd_high_clearance_specialized","allowed_mode":"unk","access_restriction":"unknown","seasonal_restriction":"not_listed","gis_miles":0.07938197},"geometry":{"type":"LineString","coordinates":[[-117.57379,34.71864],[-117.57336,34.71819],[-117.57287,34.71777]]}},{"type":"Feature","properties":{"name":"Unnamed BLM route","source":"Bureau of Land Management","source_detail":"BLM GTLF OBJECTID 155472","source_id":"{0F40FA7D-7F6B-476E-A24C-CE179B81C944}","road_class":"transportation_system_-_primitive_road","surface":"natural","vehicle_class":"4wd_high_clearance_specialized","allowed_mode":"unk","access_restriction":"unknown","seasonal_restriction":"not_listed","gis_miles":0.25405569},"geometry":{"type":"LineString","coordinates":[[-117.55431,34.71498],[-117.55451,34.71524],[-117.55459,34.71544],[-117.55462,34.71563],[-117.55463,34.7158],[-117.55467,34.71595],[-117.5548,34.71614],[-117.5549,34.71632],[-117.55498,34.71659],[-117.55518,34.71705],[-117.55531,34.71748],[-117.55536,34.71772],[-117.55543,34.7179],[-117.55551,34.71824],[-117.55548,34.71848],[-117.55548,34.71848]]}},{"type":"Feature","properties":{"name":"Unnamed BLM route","source":"Bureau of Land Management","source_detail":"BLM GTLF OBJECTID 155614","source_id":"{142924BA-FFF5-4DF1-B04A-31A4BE4633B0}","road_class":"transportation_system_-_primitive_road","surface":"natural","vehicle_class":"4wd_high_clearance_specialized","allowed_mode":"unk","access_restriction":"unknown","seasonal_restriction":"not_listed","gis_miles":0.03694978},"geometry":{"type":"LineString","coordinates":[[-117.57725,34.71866],[-117.57743,34.71849],[-117.57772,34.71829]]}},{"type":"Feature","properties":{"name":"Unnamed BLM route","source":"Bureau of Land Management","source_detail":"BLM GTLF OBJECTID 155715","source_id":"{701E6D58-B1DD-4DD8-84D8-FC468EBF230E}","road_class":"transportation_system_-_primitive_road","surface":"natural","vehicle_class":"4wd_high_clearance_specialized","allowed_mode":"unk","access_restriction":"unknown","seasonal_restriction":"not_listed","gis_miles":0.50973641},"geometry":{"type":"MultiLineString","coordinates":[[[-117.53628,34.68902],[-117.53628,34.68888],[-117.53629,34.68877],[-117.53629,34.68871],[-117.53624,34.68865],[-117.53622,34.6886],[-117.53615,34.68851],[-117.53622,34.6883],[-117.53622,34.6881],[-117.53609,34.68789],[-117.53601,34.68775],[-117.53589,34.68763],[-117.53574,34.68746],[-117.53555,34.68733],[-117.53542,34.68723],[-117.5352,34.68718],[-117.53512,34.68712],[-117.53492,34.68704],[-117.53478,34.68695],[-117.53451,34.68688],[-117.53419,34.68681],[-117.53407,34.6868]],[[-117.53127,34.68473],[-117.53126,34.68471],[-117.5312,34.68466],[-117.5312,34.68466]],[[-117.53062,34.68411],[-117.53061,34.68409]]]}},{"type":"Feature","properties":{"name":"Unnamed BLM route","source":"Bureau of Land Management","source_detail":"BLM GTLF OBJECTID 155751","source_id":"{A4747494-22CB-4F61-84ED-3662F6A74BF9}","road_class":"transportation_system_-_primitive_road","surface":"natural","vehicle_class":"4wd_high_clearance_specialized","allowed_mode":"unk","access_restriction":"unknown","seasonal_restriction":"not_listed","gis_miles":0.07376943},"geometry":{"type":"LineString","coordinates":[[-117.54411,34.69524],[-117.5439,34.69531],[-117.54367,34.69541],[-117.54342,34.69548],[-117.54323,34.69553],[-117.54315,34.69554],[-117.54288,34.69556]]}},{"type":"Feature","properties":{"name":"Unnamed BLM route","source":"Bureau of Land Management","source_detail":"BLM GTLF OBJECTID 156030","source_id":"{21C731D7-F395-4ED6-A793-4FD86C2450D4}","road_class":"transportation_system_-_primitive_road","surface":"natural","vehicle_class":"4wd_high_clearance_specialized","allowed_mode":"unk","access_restriction":"unknown","seasonal_restriction":"not_listed","gis_miles":0.1239323},"geometry":{"type":"LineString","coordinates":[[-117.56783,34.7186],[-117.56806,34.71808],[-117.56824,34.71768],[-117.5683,34.71739],[-117.56835,34.7172],[-117.56831,34.71701],[-117.56824,34.71688]]}},{"type":"Feature","properties":{"name":"CANYON ROAD","source":"Bureau of Land Management","source_detail":"BLM GTLF OBJECTID 156553","source_id":"{023FF943-453A-4BE3-B9AA-95FDD267DAA2}","road_class":"transportation_system_-_road","surface":"natural_improved","vehicle_class":"2wd_low","allowed_mode":"unk","access_restriction":"unknown","seasonal_restriction":"not_listed","gis_miles":1.52150862},"geometry":{"type":"LineString","coordinates":[[-117.54294,34.67449],[-117.54292,34.67452],[-117.54291,34.67453],[-117.54289,34.67458],[-117.54286,34.67462],[-117.54282,34.6747],[-117.54275,34.67484],[-117.54269,34.67501],[-117.54263,34.67519],[-117.54261,34.67526],[-117.54258,34.67536],[-117.54251,34.6755],[-117.54243,34.67566],[-117.54234,34.67582],[-117.54224,34.67598],[-117.54216,34.67615],[-117.54211,34.67633],[-117.5421,34.67651],[-117.54212,34.67671],[-117.54217,34.67691],[-117.54222,34.67709],[-117.54222,34.6771],[-117.54228,34.67729],[-117.5423,34.67734],[-117.54234,34.6775],[-117.54241,34.67772],[-117.54248,34.67793],[-117.54255,34.67814],[-117.54261,34.67835],[-117.54266,34.67856],[-117.54273,34.67876],[-117.54279,34.67896],[-117.54286,34.67915],[-117.54295,34.67934],[-117.54302,34.67951],[-117.5431,34.67968],[-117.54318,34.67986],[-117.54326,34.68003],[-117.54333,34.68017],[-117.54339,34.68028],[-117.54343,34.68037],[-117.54348,34.68047],[-117.54353,34.68057],[-117.54359,34.68069],[-117.54366,34.68083],[-117.54373,34.68099],[-117.54381,34.68117],[-117.54391,34.68135],[-117.54402,34.68153],[-117.54413,34.68171],[-117.54422,34.68189],[-117.5443,34.68206],[-117.54435,34.68223],[-117.54441,34.68241],[-117.54446,34.68259],[-117.54453,34.68278],[-117.54458,34.68299],[-117.54464,34.68319],[-117.5447,34.68337],[-117.5448,34.68354],[-117.54494,34.6837],[-117.54501,34.68376],[-117.54512,34.68386],[-117.54532,34.68404],[-117.54552,34.68422],[-117.54571,34.6844],[-117.5459,34.68457],[-117.54607,34.68473],[-117.54624,34.68489],[-117.54642,34.68507],[-117.54662,34.68525],[-117.54679,34.68543],[-117.54696,34.68561],[-117.54712,34.68577],[-117.54727,34.68593],[-117.54741,34.68609],[-117.54756,34.68626],[-117.54771,34.68644],[-117.54786,34.68661],[-117.54802,34.68678],[-117.5482,34.68697],[-117.54838,34.68716],[-117.54846,34.68725],[-117.54855,34.68735],[-117.5487,34.68752],[-117.5488,34.68765],[-117.54883,34.6877],[-117.54895,34.6879],[-117.54906,34.68807],[-117.54917,34.68824],[-117.54928,34.68842],[-117.54941,34.6886],[-117.54954,34.68878],[-117.54967,34.68897],[-117.54981,34.68916],[-117.54995,34.68933],[-117.5501,34.68948],[-117.55025,34.68963],[-117.55041,34.68978],[-117.5506,34.68995],[-117.55081,34.6901],[-117.55105,34.69026],[-117.55131,34.69041],[-117.55158,34.69056],[-117.55184,34.69067],[-117.55212,34.69078],[-117.5524,34.6909],[-117.55265,34.69102],[-117.55291,34.69112],[-117.55317,34.69123],[-117.5534,34.69132],[-117.55359,34.69142],[-117.55378,34.69152],[-117.55395,34.69162],[-117.55398,34.69164],[-117.55409,34.69171],[-117.55419,34.6918],[-117.55424,34.69183],[-117.55429,34.69188],[-117.5544,34.69197],[-117.55448,34.69205],[-117.55451,34.69207],[-117.55463,34.69217],[-117.55474,34.69228],[-117.55485,34.69238],[-117.55493,34.69247],[-117.55499,34.69252]]}},{"type":"Feature","properties":{"name":"MOUNTAIN VIEW ROAD","source":"Bureau of Land Management","source_detail":"BLM GTLF OBJECTID 156670","source_id":"{8D9673CB-4D09-4B22-BDEB-D6879377185C}","road_class":"transportation_system_-_road","surface":"natural_improved","vehicle_class":"2wd_low","allowed_mode":"unk","access_restriction":"unknown","seasonal_restriction":"not_listed","gis_miles":2.98839548},"geometry":{"type":"MultiLineString","coordinates":[[[-117.5431,34.63117],[-117.5431,34.63124],[-117.54311,34.63133],[-117.54313,34.63144],[-117.54315,34.63157],[-117.54316,34.6317],[-117.54316,34.63184],[-117.54317,34.63196],[-117.54318,34.63208],[-117.54319,34.63221],[-117.54319,34.63235],[-117.5432,34.63245],[-117.5432,34.63246],[-117.5432,34.63255],[-117.5432,34.63264],[-117.5432,34.63273],[-117.5432,34.63283],[-117.5432,34.63296],[-117.5432,34.6331],[-117.5432,34.63326],[-117.54321,34.6334],[-117.54321,34.63351],[-117.54322,34.63362],[-117.54322,34.63376],[-117.54322,34.63388],[-117.54322,34.63399],[-117.54323,34.6341],[-117.54323,34.6342],[-117.54323,34.6343],[-117.54323,34.63442],[-117.54323,34.63451],[-117.54324,34.63459],[-117.54324,34.63468],[-117.54324,34.6348],[-117.54324,34.63492],[-117.54324,34.63505],[-117.54325,34.63518],[-117.54325,34.6353],[-117.54325,34.6354],[-117.54326,34.63552],[-117.54326,34.63565],[-117.54326,34.6358],[-117.54327,34.63595],[-117.54327,34.63609],[-117.54327,34.63622],[-117.54328,34.63635],[-117.54327,34.63647],[-117.54328,34.63659],[-117.54328,34.63671],[-117.54328,34.63682],[-117.54328,34.63695],[-117.54328,34.63707],[-117.54328,34.63716],[-117.54328,34.63721],[-117.54328,34.63724],[-117.54328,34.63729],[-117.54328,34.63734],[-117.54328,34.6374],[-117.54328,34.63747],[-117.54328,34.63754],[-117.54328,34.63762],[-117.54328,34.6377],[-117.54328,34.63777],[-117.54328,34.63784],[-117.54328,34.63793],[-117.54329,34.63802],[-117.54329,34.63812],[-117.54329,34.63815],[-117.54329,34.63824],[-117.54329,34.63837],[-117.5433,34.63851],[-117.5433,34.63866],[-117.5433,34.6388],[-117.5433,34.63891],[-117.5433,34.63901],[-117.5433,34.63911],[-117.5433,34.6392],[-117.5433,34.6393],[-117.5433,34.63939],[-117.54331,34.63948],[-117.54331,34.63957],[-117.54331,34.63966],[-117.54331,34.63978],[-117.54331,34.6399],[-117.54331,34.64],[-117.54331,34.64009],[-117.54332,34.6402],[-117.54332,34.64032],[-117.54332,34.64044],[-117.54333,34.64058],[-117.54332,34.64074],[-117.54332,34.64091],[-117.54332,34.64108],[-117.54333,34.64123],[-117.54333,34.64134],[-117.54332,34.64145],[-117.54332,34.64155],[-117.54332,34.64167],[-117.54332,34.64183],[-117.54333,34.64199],[-117.54333,34.64212],[-117.54333,34.64221],[-117.54333,34.64229],[-117.54334,34.64237],[-117.54334,34.64248],[-117.54334,34.64258],[-117.54334,34.64268],[-117.54335,34.64279],[-117.54335,34.64292],[-117.54335,34.64306],[-117.54336,34.6432],[-117.54336,34.64333],[-117.54336,34.64348],[-117.54336,34.64364],[-117.54337,34.64382],[-117.54337,34.644],[-117.54337,34.64415],[-117.54337,34.64428],[-117.54338,34.64441],[-117.54338,34.64455],[-117.54339,34.64472],[-117.54339,34.64489],[-117.54339,34.64504],[-117.54339,34.6452],[-117.54339,34.64525],[-117.54339,34.64535],[-117.5434,34.64549],[-117.5434,34.64562],[-117.5434,34.64565]],[[-117.5434,34.64565],[-117.5434,34.64569],[-117.5434,34.6457],[-117.5434,34.64573],[-117.5434,34.64585],[-117.54339,34.64596],[-117.54339,34.64606],[-117.54339,34.64617],[-117.54339,34.64626],[-117.54338,34.64636],[-117.54338,34.64647],[-117.54337,34.6466],[-117.54337,34.64673],[-117.54336,34.64687],[-117.54336,34.64704],[-117.54336,34.64704],[-117.54335,34.64719],[-117.54335,34.64731],[-117.54335,34.64735],[-117.54335,34.64748],[-117.54335,34.64762],[-117.54335,34.64774],[-117.54335,34.64786],[-117.54334,34.64798],[-117.54334,34.64811],[-117.54334,34.64826],[-117.54334,34.64841],[-117.54334,34.64856],[-117.54333,34.6487],[-117.54332,34.64884],[-117.54332,34.649],[-117.54331,34.64911],[-117.54331,34.64915],[-117.54331,34.64932],[-117.5433,34.64947],[-117.5433,34.64961],[-117.5433,34.64975],[-117.54329,34.6499],[-117.54328,34.65007],[-117.54328,34.65024],[-117.54327,34.65042],[-117.54327,34.65061],[-117.54326,34.6508],[-117.54326,34.65098],[-117.54325,34.65105],[-117.54325,34.65115],[-117.54324,34.65128],[-117.54324,34.65141],[-117.54324,34.65153],[-117.54323,34.65165],[-117.54323,34.65179],[-117.54322,34.65193],[-117.54322,34.65208],[-117.54322,34.65226],[-117.54321,34.65245],[-117.54321,34.65263],[-117.54321,34.65279],[-117.54321,34.65285],[-117.54321,34.65297],[-117.5432,34.65314],[-117.5432,34.65316],[-117.5432,34.65331],[-117.54319,34.65348],[-117.54318,34.65363],[-117.54318,34.6538],[-117.54317,34.65397],[-117.54317,34.65415],[-117.54316,34.6543],[-117.54315,34.65445],[-117.54315,34.65458],[-117.54315,34.6547],[-117.54314,34.65482],[-117.54314,34.65484],[-117.54315,34.65496],[-117.54315,34.65509],[-117.54314,34.65522],[-117.54314,34.65536],[-117.54314,34.6555],[-117.54313,34.65562],[-117.54313,34.65571],[-117.54313,34.65579],[-117.54312,34.65588],[-117.54312,34.656],[-117.54311,34.65613],[-117.54311,34.65626],[-117.54311,34.65641],[-117.5431,34.65644],[-117.5431,34.65657],[-117.5431,34.65673],[-117.54309,34.65687],[-117.54309,34.65703],[-117.54309,34.65719],[-117.54309,34.65734],[-117.54308,34.65749],[-117.54307,34.65764],[-117.54307,34.6578],[-117.54307,34.65796],[-117.54306,34.65811],[-117.54306,34.65828],[-117.54306,34.6583],[-117.54305,34.65844],[-117.54305,34.6586],[-117.54304,34.65875],[-117.54304,34.6589],[-117.54304,34.65905],[-117.54303,34.6592],[-117.54302,34.65935],[-117.54301,34.6595],[-117.54298,34.65964],[-117.54295,34.65977],[-117.54294,34.65983]],[[-117.54293,34.65984],[-117.54293,34.65985],[-117.54292,34.65992],[-117.5429,34.66006],[-117.5429,34.66009],[-117.54289,34.66019],[-117.54289,34.66019],[-117.54289,34.66032],[-117.54289,34.66046],[-117.54288,34.66061],[-117.54288,34.66076],[-117.54288,34.66091],[-117.54288,34.66108],[-117.54288,34.66123],[-117.54288,34.66136],[-117.54288,34.6615],[-117.54288,34.66164],[-117.54288,34.6618],[-117.54288,34.66197],[-117.54288,34.66215],[-117.54288,34.66233],[-117.54289,34.66251],[-117.54289,34.66269],[-117.54289,34.66287],[-117.54289,34.66304],[-117.5429,34.6632],[-117.5429,34.66334],[-117.54289,34.66349],[-117.54289,34.66364],[-117.54289,34.6637],[-117.54289,34.66378],[-117.54289,34.66394],[-117.54289,34.66411],[-117.54289,34.66427],[-117.54289,34.66441],[-117.5429,34.66457],[-117.5429,34.66475],[-117.5429,34.66494],[-117.5429,34.66515],[-117.5429,34.66536],[-117.54291,34.66558],[-117.54291,34.66579],[-117.54291,34.66601],[-117.54291,34.66622],[-117.54291,34.66642],[-117.54291,34.66659],[-117.54292,34.66674],[-117.54292,34.66689],[-117.54292,34.66704],[-117.54292,34.6672],[-117.54292,34.66727],[-117.54292,34.66735],[-117.54292,34.66751],[-117.54292,34.66768],[-117.54292,34.66784],[-117.54292,34.66799],[-117.54292,34.66814],[-117.54293,34.66831],[-117.54294,34.66848],[-117.54294,34.66867],[-117.54294,34.66885],[-117.54294,34.66904],[-117.54294,34.66923],[-117.54294,34.66943],[-117.54294,34.66963],[-117.54293,34.66982],[-117.54293,34.67001],[-117.54292,34.67021],[-117.54292,34.67041],[-117.54292,34.67061],[-117.54293,34.6708],[-117.54293,34.67092],[-117.54293,34.671],[-117.54293,34.6712],[-117.54293,34.67138],[-117.54293,34.67157],[-117.54293,34.67175],[-117.54293,34.67193],[-117.54294,34.67211],[-117.54294,34.67228],[-117.54294,34.67245],[-117.54294,34.67259],[-117.54294,34.67272],[-117.54294,34.67285],[-117.54295,34.67297],[-117.54295,34.6731],[-117.54295,34.67324],[-117.54295,34.67339],[-117.54295,34.67355],[-117.54295,34.6737],[-117.54296,34.67385],[-117.54297,34.67399],[-117.54297,34.67411],[-117.54298,34.67422],[-117.54297,34.6743],[-117.54297,34.67437],[-117.54296,34.67442],[-117.54295,34.67446],[-117.54294,34.67448],[-117.54294,34.67449]]]}},{"type":"Feature","properties":{"name":"Unnamed BLM route","source":"Bureau of Land Management","source_detail":"BLM GTLF OBJECTID 156740","source_id":"{F49BD1FA-B5F7-44D3-A398-52FA434C1601}","road_class":"transportation_system_-_primitive_road","surface":"natural","vehicle_class":"4wd_high_clearance_specialized","allowed_mode":"unk","access_restriction":"unknown","seasonal_restriction":"not_listed","gis_miles":0.05540435},"geometry":{"type":"LineString","coordinates":[[-117.57633,34.71785],[-117.57631,34.71825],[-117.57628,34.71865]]}},{"type":"Feature","properties":{"name":"Unnamed BLM route","source":"Bureau of Land Management","source_detail":"BLM GTLF OBJECTID 156798","source_id":"{955DE657-C98D-4B5C-A1B2-90EEA18CCF06}","road_class":"transportation_system_-_primitive_road","surface":"natural","vehicle_class":"4wd_high_clearance_specialized","allowed_mode":"unk","access_restriction":"unknown","seasonal_restriction":"not_listed","gis_miles":0.03873428},"geometry":{"type":"LineString","coordinates":[[-117.5398,34.69212],[-117.53974,34.69221],[-117.53977,34.69237],[-117.53979,34.69245],[-117.53985,34.69255],[-117.53986,34.69266]]}},{"type":"Feature","properties":{"name":"Unnamed BLM route","source":"Bureau of Land Management","source_detail":"BLM GTLF OBJECTID 157822","source_id":"{8FCAA8C8-41B5-4D54-9503-49E105B3E59C}","road_class":"transportation_system_-_primitive_road","surface":"natural","vehicle_class":"4wd_high_clearance_specialized","allowed_mode":"unk","access_restriction":"unknown","seasonal_restriction":"not_listed","gis_miles":0.09527154},"geometry":{"type":"LineString","coordinates":[[-117.56917,34.7186],[-117.56923,34.71826],[-117.56926,34.71801],[-117.56926,34.71777],[-117.56926,34.71756],[-117.56922,34.71739],[-117.56917,34.71724]]}},{"type":"Feature","properties":{"name":"Unnamed BLM route","source":"Bureau of Land Management","source_detail":"BLM GTLF OBJECTID 158438","source_id":"{F960249A-D5C8-4631-9524-FE6A653215A6}","road_class":"transportation_system_-_primitive_road","surface":"natural","vehicle_class":"4wd_high_clearance_specialized","allowed_mode":"unk","access_restriction":"unknown","seasonal_restriction":"not_listed","gis_miles":0.06126626},"geometry":{"type":"LineString","coordinates":[[-117.57599,34.71865],[-117.57611,34.71845],[-117.57612,34.71824],[-117.57613,34.71804],[-117.5762,34.71779]]}},{"type":"Feature","properties":{"name":"Unnamed BLM route","source":"Bureau of Land Management","source_detail":"BLM GTLF OBJECTID 158581","source_id":"{20995001-8065-4FE6-88FD-A10EB8ED218A}","road_class":"transportation_system_-_primitive_road","surface":"natural","vehicle_class":"4wd_high_clearance_specialized","allowed_mode":"unk","access_restriction":"unknown","seasonal_restriction":"not_listed","gis_miles":0.02123334},"geometry":{"type":"LineString","coordinates":[[-117.53196,34.68531],[-117.53209,34.68532]]}},{"type":"Feature","properties":{"name":"Unnamed BLM route","source":"Bureau of Land Management","source_detail":"BLM GTLF OBJECTID 158629","source_id":"{F1DBF2D5-4EBA-449B-AFD1-BE78E349B12C}","road_class":"transportation_system_-_primitive_road","surface":"natural","vehicle_class":"4wd_high_clearance_specialized","allowed_mode":"unk","access_restriction":"unknown","seasonal_restriction":"not_listed","gis_miles":0.07450467},"geometry":{"type":"LineString","coordinates":[[-117.53478,34.68695],[-117.53488,34.68728],[-117.53492,34.68745],[-117.53494,34.68763],[-117.53505,34.6878],[-117.53519,34.68796]]}},{"type":"Feature","properties":{"name":"Unnamed BLM route","source":"Bureau of Land Management","source_detail":"BLM GTLF OBJECTID 158977","source_id":"{86EA5876-938B-4C77-B68F-A94404EC750B}","road_class":"transportation_system_-_primitive_road","surface":"natural","vehicle_class":"4wd_high_clearance_specialized","allowed_mode":"unk","access_restriction":"unknown","seasonal_restriction":"not_listed","gis_miles":0.01209022},"geometry":{"type":"LineString","coordinates":[[-117.53202,34.68536],[-117.53209,34.68532]]}},{"type":"Feature","properties":{"name":"Unnamed BLM route","source":"Bureau of Land Management","source_detail":"BLM GTLF OBJECTID 159327","source_id":"{0217A049-4E2D-4388-BD78-5C2A9CDF963A}","road_class":"transportation_system_-_primitive_road","surface":"natural","vehicle_class":"4wd_high_clearance_specialized","allowed_mode":"unk","access_restriction":"unknown","seasonal_restriction":"not_listed","gis_miles":0.19089761},"geometry":{"type":"LineString","coordinates":[[-117.53492,34.68704],[-117.53504,34.68749],[-117.53519,34.68796],[-117.53528,34.68809],[-117.53549,34.68821],[-117.53563,34.68833],[-117.53578,34.68845],[-117.53598,34.68849],[-117.53615,34.68851],[-117.5363,34.68853],[-117.5364,34.68855],[-117.53655,34.68863],[-117.53663,34.68869],[-117.53673,34.68882],[-117.53682,34.68902]]}},{"type":"Feature","properties":{"name":"Unnamed BLM route","source":"Bureau of Land Management","source_detail":"BLM GTLF OBJECTID 159576","source_id":"{951123B0-0CC2-4235-94DD-3AE0FB446971}","road_class":"transportation_system_-_primitive_road","surface":"natural","vehicle_class":"4wd_high_clearance_specialized","allowed_mode":"unk","access_restriction":"unknown","seasonal_restriction":"not_listed","gis_miles":0.16367522},"geometry":{"type":"LineString","coordinates":[[-117.53484,34.68778],[-117.53486,34.68776],[-117.53494,34.68763],[-117.53504,34.68749],[-117.53511,34.68735],[-117.53517,34.68727],[-117.5352,34.68718],[-117.53528,34.68708],[-117.53532,34.68687]]}},{"type":"Feature","properties":{"name":"Unnamed BLM route","source":"Bureau of Land Management","source_detail":"BLM GTLF OBJECTID 159615","source_id":"{812ACA61-7ECD-4542-A0BB-C7529E2CFE80}","road_class":"transportation_system_-_primitive_road","surface":"natural","vehicle_class":"4wd_high_clearance_specialized","allowed_mode":"unk","access_restriction":"unknown","seasonal_restriction":"not_listed","gis_miles":0.02637582},"geometry":{"type":"LineString","coordinates":[[-117.53334,34.68628],[-117.53335,34.68627],[-117.53345,34.68612],[-117.53347,34.68608]]}},{"type":"Feature","properties":{"name":"Unnamed BLM route","source":"Bureau of Land Management","source_detail":"BLM GTLF OBJECTID 160318","source_id":"{87179B37-EB74-4AF6-A441-8F51DF9FB3EF}","road_class":"transportation_system_-_primitive_road","surface":"natural","vehicle_class":"4wd_high_clearance_specialized","allowed_mode":"unk","access_restriction":"unknown","seasonal_restriction":"not_listed","gis_miles":0.45816722},"geometry":{"type":"LineString","coordinates":[[-117.54736,34.71839],[-117.54781,34.71829],[-117.54813,34.71815],[-117.54836,34.71801],[-117.5487,34.71776],[-117.54893,34.71769],[-117.54926,34.71771],[-117.54951,34.71763],[-117.54973,34.71748],[-117.5501,34.71727],[-117.55043,34.71713],[-117.55084,34.717],[-117.55127,34.7169],[-117.55165,34.71679],[-117.55197,34.71667],[-117.55229,34.71659],[-117.55251,34.71653],[-117.5527,34.71641],[-117.55296,34.71631],[-117.55314,34.71626],[-117.55357,34.71608],[-117.55384,34.71596],[-117.55415,34.71593],[-117.55448,34.71586],[-117.55463,34.7158]]}},{"type":"Feature","properties":{"name":"Unnamed BLM route","source":"Bureau of Land Management","source_detail":"BLM GTLF OBJECTID 161636","source_id":"{49D46D44-A695-40DD-84C3-C746A000384B}","road_class":"transportation_system_-_primitive_road","surface":"natural","vehicle_class":"4wd_high_clearance_specialized","allowed_mode":"unk","access_restriction":"unknown","seasonal_restriction":"not_listed","gis_miles":0.0656671},"geometry":{"type":"LineString","coordinates":[[-117.57353,34.71865],[-117.57352,34.71863],[-117.57311,34.7183],[-117.57268,34.71798]]}}]}