{"type":"FeatureCollection","features":[{"type":"Feature","properties":{"name":"(unnamed public road)","road_class":"track","source":"OpenStreetMap","source_detail":"osm way 5141118","source_tile":"172/380","surface_inferred":true},"geometry":{"type":"LineString","coordinates":[[-119.52146,41.99565],[-119.52147,41.99594],[-119.52183,41.99655],[-119.52193,41.99703],[-119.52211,41.99735],[-119.52309,41.9983],[-119.52385,41.99925],[-119.52455,41.99989],[-119.52486,42.0009],[-119.5251,42.0017],[-119.52535,42.00216],[-119.52568,42.00247],[-119.52573,42.00255],[-119.5262,42.00332],[-119.52752,42.00467],[-119.52994,42.00696],[-119.53034,42.00746],[-119.53089,42.00824],[-119.53086,42.00833],[-119.53123,42.00879],[-119.53184,42.00927],[-119.53252,42.01004],[-119.53279,42.01078],[-119.53301,42.0111],[-119.53344,42.01222],[-119.53481,42.0138],[-119.53537,42.01492],[-119.53549,42.01528],[-119.53647,42.01654],[-119.53723,42.01777],[-119.53723,42.01791],[-119.53736,42.01803],[-119.53754,42.01855],[-119.53772,42.0188],[-119.53834,42.02111],[-119.53843,42.02123],[-119.53892,42.02486],[-119.53923,42.02633],[-119.53938,42.02665],[-119.5395,42.02722],[-119.53959,42.02724],[-119.53962,42.02772],[-119.53972,42.02779],[-119.5399,42.02982],[-119.54023,42.03079],[-119.54051,42.03243],[-119.54051,42.03506],[-119.54057,42.03513]]}},{"type":"Feature","properties":{"name":"(unnamed public road)","road_class":"track","source":"OpenStreetMap","source_detail":"osm way 5138265","source_tile":"172/380","surface_inferred":true},"geometry":{"type":"LineString","coordinates":[[-119.44652,42.02842],[-119.44726,42.02882],[-119.44815,42.02934],[-119.44867,42.02963],[-119.44919,42.02999],[-119.44982,42.03043],[-119.4506,42.03102],[-119.45131,42.03154],[-119.45171,42.0318],[-119.45192,42.03191],[-119.45208,42.03197],[-119.45263,42.03213],[-119.45338,42.03237],[-119.45379,42.03251],[-119.45418,42.03265],[-119.45462,42.03276],[-119.45498,42.03287],[-119.45515,42.03293],[-119.45529,42.033]]}},{"type":"Feature","properties":{"name":"(unnamed public road)","road_class":"track","source":"OpenStreetMap","source_detail":"osm way 5146401","source_tile":"172/380","surface_inferred":true},"geometry":{"type":"LineString","coordinates":[[-119.39706,42.00176],[-119.39702,42.00192],[-119.39699,42.00203],[-119.39698,42.00211],[-119.39698,42.00224],[-119.39696,42.00243],[-119.39696,42.0025],[-119.39696,42.00254],[-119.39697,42.00259],[-119.39698,42.00264],[-119.39707,42.00278],[-119.39722,42.00302],[-119.39732,42.00316],[-119.39748,42.00333],[-119.39761,42.0035],[-119.39765,42.00356],[-119.3977,42.00365],[-119.39776,42.00379],[-119.39781,42.00387],[-119.39785,42.00393],[-119.39792,42.004],[-119.39819,42.00424],[-119.39839,42.00439],[-119.39851,42.00451],[-119.39861,42.00465],[-119.39872,42.00477],[-119.39891,42.0049],[-119.39931,42.00515],[-119.39944,42.00526],[-119.3996,42.00544],[-119.39981,42.00569],[-119.39995,42.0059],[-119.40013,42.00622],[-119.40021,42.00636],[-119.40035,42.00653],[-119.40052,42.00671],[-119.40071,42.00688],[-119.401,42.00709],[-119.4012,42.00722],[-119.40132,42.00731],[-119.40145,42.00744],[-119.40165,42.00767],[-119.40182,42.00784],[-119.4021,42.00802],[-119.4024,42.00821],[-119.4025,42.00828],[-119.40256,42.00833],[-119.40265,42.00846],[-119.40272,42.00858],[-119.40278,42.00865],[-119.4029,42.00877],[-119.403,42.00886],[-119.4032,42.00906],[-119.40326,42.00912],[-119.40334,42.00916],[-119.40343,42.00918],[-119.40352,42.00919],[-119.4036,42.00917],[-119.4037,42.00915],[-119.40379,42.00914],[-119.40386,42.00916],[-119.40394,42.00918],[-119.40399,42.00921],[-119.40406,42.00927],[-119.40409,42.00931],[-119.40411,42.00937],[-119.40413,42.00948],[-119.40417,42.0096],[-119.4043,42.00988],[-119.40433,42.00996],[-119.40437,42.01002],[-119.40468,42.01028],[-119.40476,42.01034],[-119.4049,42.0105],[-119.40504,42.01066],[-119.40512,42.01075],[-119.40517,42.01083],[-119.40519,42.01088],[-119.40522,42.01098],[-119.40525,42.01105],[-119.40529,42.01112],[-119.40541,42.01125],[-119.40557,42.01139],[-119.40578,42.01155],[-119.40595,42.01167],[-119.40615,42.01182],[-119.40632,42.01197],[-119.40645,42.01208],[-119.40652,42.01217],[-119.40658,42.01223],[-119.40665,42.01228],[-119.40676,42.01235],[-119.4069,42.01246],[-119.40707,42.0126],[-119.40717,42.01267],[-119.40734,42.01274],[-119.40755,42.01281],[-119.40773,42.01285],[-119.40789,42.01288],[-119.408,42.0129],[-119.40806,42.01292],[-119.40815,42.013],[-119.40834,42.01314],[-119.40841,42.0132],[-119.40846,42.01327],[-119.40852,42.0134],[-119.40859,42.0136],[-119.40865,42.01377],[-119.40883,42.01403],[-119.40934,42.01457],[-119.40963,42.01484],[-119.40976,42.01497],[-119.40981,42.01502],[-119.40985,42.01507],[-119.40991,42.01517],[-119.41005,42.01545],[-119.41013,42.01561],[-119.41021,42.01571],[-119.4103,42.01578],[-119.41039,42.01584],[-119.41047,42.0159],[-119.41055,42.01598],[-119.41097,42.01649],[-119.41104,42.01659],[-119.41109,42.01673],[-119.41116,42.01684],[-119.41122,42.01693],[-119.41153,42.01727],[-119.41192,42.01767],[-119.41228,42.01801],[-119.41233,42.01807],[-119.41237,42.01812],[-119.41241,42.01823],[-119.41247,42.01836],[-119.41257,42.0185],[-119.41267,42.01865],[-119.41277,42.01878],[-119.41289,42.01896],[-119.41303,42.01918],[-119.4131,42.01929],[-119.41319,42.01947],[-119.41329,42.01976],[-119.41338,42.01994],[-119.41353,42.02018],[-119.41412,42.0211],[-119.41427,42.02137],[-119.41432,42.0215],[-119.41435,42.02164],[-119.41438,42.02176],[-119.41443,42.02184],[-119.4145,42.02194],[-119.41464,42.02207],[-119.41476,42.0222],[-119.415,42.02246],[-119.41525,42.0228],[-119.41535,42.02295],[-119.41551,42.02311],[-119.41565,42.02322],[-119.41581,42.02333],[-119.41592,42.02344],[-119.41606,42.02363],[-119.41626,42.02387],[-119.41641,42.02403],[-119.4166,42.02419],[-119.4169,42.02455],[-119.41708,42.0248],[-119.41719,42.02497],[-119.4173,42.02506],[-119.41747,42.02516],[-119.41762,42.02522],[-119.41778,42.02525],[-119.41793,42.02529],[-119.418,42.02534],[-119.41809,42.02542],[-119.41818,42.0255],[-119.41842,42.02564],[-119.41882,42.02587],[-119.41905,42.02599],[-119.41917,42.02608],[-119.41928,42.02618],[-119.41943,42.02632],[-119.41953,42.02641],[-119.41959,42.02649],[-119.41968,42.02667],[-119.41976,42.02684],[-119.42009,42.0274],[-119.42046,42.02789],[-119.42074,42.02817],[-119.42097,42.02838],[-119.42113,42.02853],[-119.42123,42.02866],[-119.42163,42.02907],[-119.42183,42.02923],[-119.42214,42.02952],[-119.42286,42.03014],[-119.42345,42.03068],[-119.42374,42.03093],[-119.42402,42.03112],[-119.42451,42.03143],[-119.42517,42.03189],[-119.42585,42.03239],[-119.42654,42.03287],[-119.42664,42.03295],[-119.42685,42.03308],[-119.42729,42.0333],[-119.42767,42.03351],[-119.42822,42.03382],[-119.42849,42.034],[-119.42871,42.03417],[-119.42877,42.03425]]}},{"type":"Feature","properties":{"name":"(unnamed public road)","road_class":"track","source":"OpenStreetMap","source_detail":"osm way 5370107","source_tile":"172/380","surface_inferred":true},"geometry":{"type":"LineString","coordinates":[[-119.20461,41.99361],[-119.20482,41.9937],[-119.20496,41.99376],[-119.20505,41.99381],[-119.20512,41.99389],[-119.20528,41.99411],[-119.20538,41.99424],[-119.20549,41.99436],[-119.20566,41.99451],[-119.20639,41.99504],[-119.20652,41.99515],[-119.20673,41.99539],[-119.20689,41.99553],[-119.20705,41.99563],[-119.20718,41.99571],[-119.20735,41.99584],[-119.20752,41.99602],[-119.20792,41.99628],[-119.20819,41.99647],[-119.20831,41.99657],[-119.20845,41.99665],[-119.20901,41.9969],[-119.20916,41.99693],[-119.20924,41.99697],[-119.20934,41.99704],[-119.20996,41.99758],[-119.21018,41.99771],[-119.21038,41.9978],[-119.21065,41.99789],[-119.21093,41.99794],[-119.21138,41.99796],[-119.21167,41.998],[-119.21209,41.99804],[-119.21219,41.99805],[-119.21264,41.99804],[-119.21281,41.99806],[-119.2129,41.99808],[-119.2131,41.99816],[-119.21327,41.99826],[-119.2138,41.99859],[-119.2143,41.99894],[-119.21461,41.99913],[-119.21471,41.99918],[-119.21484,41.99922],[-119.21524,41.99932],[-119.21542,41.99939],[-119.21596,41.99975],[-119.21624,41.99989],[-119.21652,42.00001],[-119.21672,42.00008],[-119.21683,42.00015],[-119.21688,42.00021],[-119.21704,42.00053],[-119.21708,42.00056],[-119.21724,42.00065],[-119.21752,42.00073],[-119.2179,42.00092],[-119.21819,42.00103],[-119.21856,42.0012],[-119.21883,42.0013],[-119.21917,42.00146],[-119.21945,42.00159],[-119.21998,42.0018],[-119.22047,42.00196],[-119.22066,42.00204],[-119.22077,42.0021],[-119.22089,42.00221],[-119.22141,42.00259],[-119.2218,42.00292],[-119.22207,42.00326],[-119.22223,42.00339],[-119.22263,42.00367],[-119.22308,42.00408],[-119.22322,42.00416],[-119.22361,42.00435],[-119.2238,42.0045],[-119.22411,42.00486],[-119.22449,42.00518],[-119.2246,42.00533],[-119.22474,42.00552],[-119.22478,42.00556],[-119.22484,42.00561],[-119.22516,42.00578],[-119.22541,42.00601],[-119.22552,42.00608],[-119.22583,42.00617],[-119.22616,42.0063],[-119.22637,42.00633],[-119.22673,42.00637],[-119.22711,42.00645],[-119.22723,42.00646],[-119.2277,42.00651],[-119.22778,42.00654],[-119.22792,42.00661],[-119.22815,42.00675],[-119.22845,42.00702],[-119.2289,42.00739],[-119.22936,42.00771],[-119.22952,42.00783],[-119.22996,42.00826],[-119.2304,42.00872],[-119.23098,42.00907],[-119.23115,42.00925],[-119.23136,42.00948],[-119.23156,42.00967],[-119.23176,42.00979],[-119.23203,42.01001],[-119.23302,42.01085],[-119.23323,42.011],[-119.23343,42.01116],[-119.23419,42.01158],[-119.23445,42.01173],[-119.23506,42.01206],[-119.23538,42.01226],[-119.23602,42.01255],[-119.23658,42.01271],[-119.23669,42.01277],[-119.23679,42.01287],[-119.23704,42.01318],[-119.2374,42.01361],[-119.2379,42.0139],[-119.23818,42.01412],[-119.2385,42.01433],[-119.23869,42.01443],[-119.2389,42.01454],[-119.23899,42.01461],[-119.23927,42.01481],[-119.23952,42.01498],[-119.24002,42.01533],[-119.24044,42.01564],[-119.24056,42.01572],[-119.2407,42.01578],[-119.24086,42.01582],[-119.24095,42.01584],[-119.24103,42.01585],[-119.24114,42.01588],[-119.24123,42.01592],[-119.24132,42.01598],[-119.24143,42.01609],[-119.24161,42.01629],[-119.24185,42.0165],[-119.24197,42.01664],[-119.24203,42.01674],[-119.24206,42.01686],[-119.24207,42.01707],[-119.2421,42.01725],[-119.24212,42.01738],[-119.24212,42.01752],[-119.24205,42.01786],[-119.24201,42.01807],[-119.242,42.01818],[-119.24203,42.01837],[-119.24206,42.01863],[-119.24211,42.0188],[-119.24214,42.01889],[-119.24215,42.01895],[-119.24214,42.01902],[-119.2421,42.01913],[-119.24202,42.01929],[-119.242,42.01937],[-119.242,42.01945],[-119.24205,42.01958],[-119.24219,42.0198],[-119.2424,42.02005],[-119.24263,42.02029],[-119.24275,42.02042],[-119.24286,42.02051],[-119.24322,42.02073],[-119.24367,42.02099],[-119.24383,42.02108],[-119.24401,42.02122],[-119.24415,42.02132],[-119.24428,42.02139],[-119.24449,42.02148],[-119.2446,42.02152],[-119.2447,42.02158],[-119.24483,42.0217],[-119.24495,42.02181],[-119.24512,42.02195],[-119.24521,42.02202],[-119.24535,42.02218],[-119.24546,42.02231],[-119.24565,42.0225],[-119.24587,42.02271],[-119.24635,42.02305],[-119.24667,42.02329],[-119.24697,42.0235],[-119.24734,42.02372],[-119.24776,42.02394],[-119.24792,42.02405],[-119.24818,42.02424],[-119.24833,42.02434],[-119.2486,42.0245],[-119.24879,42.02459],[-119.24904,42.02468],[-119.2493,42.02477],[-119.24947,42.02484],[-119.24962,42.02492],[-119.24977,42.02502],[-119.24996,42.02521],[-119.25017,42.02536],[-119.25062,42.02566],[-119.25096,42.02583],[-119.25122,42.02593],[-119.25149,42.02602],[-119.25165,42.02607],[-119.25179,42.02613],[-119.25199,42.02622],[-119.25226,42.02632],[-119.25249,42.02638],[-119.25265,42.02641],[-119.2529,42.02645],[-119.25314,42.02651],[-119.25342,42.0266],[-119.25389,42.0268],[-119.25422,42.02695],[-119.25505,42.02725],[-119.2553,42.02734],[-119.25552,42.0274],[-119.25582,42.02746],[-119.25597,42.0275],[-119.25633,42.02765],[-119.25688,42.02789],[-119.2572,42.02802],[-119.25737,42.02808],[-119.25757,42.02818],[-119.25796,42.02841],[-119.25817,42.02853],[-119.25843,42.02865],[-119.25886,42.02886],[-119.2592,42.02904],[-119.25945,42.02914],[-119.25971,42.02922],[-119.25998,42.0293],[-119.26037,42.02945],[-119.26076,42.02964],[-119.26093,42.02976],[-119.26107,42.02989],[-119.2612,42.02997],[-119.26141,42.03006],[-119.2616,42.03013],[-119.26189,42.0302],[-119.26224,42.03026],[-119.26255,42.03034],[-119.26312,42.03052],[-119.26341,42.03064],[-119.26385,42.03089],[-119.26417,42.03107],[-119.26435,42.03118],[-119.26461,42.03127],[-119.26494,42.03135],[-119.2654,42.03144],[-119.26588,42.0315],[-119.2662,42.03155],[-119.26645,42.0316],[-119.2667,42.03166],[-119.26693,42.0317],[-119.26747,42.03173],[-119.2684,42.03179],[-119.2688,42.03184],[-119.26922,42.03187],[-119.26943,42.03189],[-119.26958,42.03191],[-119.26981,42.032],[-119.27002,42.03207],[-119.27017,42.03212],[-119.27027,42.03213],[-119.27044,42.03214],[-119.27061,42.03211],[-119.27081,42.03211],[-119.27098,42.03212],[-119.27111,42.03213],[-119.27127,42.03212],[-119.27139,42.03209],[-119.27151,42.03207],[-119.27162,42.03207],[-119.27175,42.03208],[-119.27188,42.03213],[-119.27198,42.03214],[-119.27214,42.03214],[-119.27264,42.03213],[-119.27285,42.03214],[-119.273,42.03216],[-119.27314,42.03219],[-119.27323,42.0322],[-119.27341,42.03219],[-119.27371,42.03216],[-119.27394,42.03215],[-119.27414,42.03218],[-119.27431,42.0322],[-119.27441,42.03224],[-119.27456,42.03231],[-119.27477,42.03236],[-119.27511,42.0324],[-119.27535,42.03242],[-119.27565,42.03242],[-119.27612,42.0324],[-119.27663,42.03239],[-119.27726,42.03242],[-119.27844,42.03241],[-119.27975,42.03246],[-119.28007,42.03245],[-119.28053,42.03243],[-119.28114,42.03243],[-119.28166,42.03245],[-119.28197,42.03247],[-119.28242,42.03245],[-119.2845,42.03233],[-119.28489,42.03231],[-119.28519,42.03228],[-119.28554,42.03225],[-119.28592,42.03224],[-119.28607,42.03222],[-119.2863,42.03218],[-119.28668,42.03207],[-119.28693,42.03201],[-119.28713,42.03197],[-119.28736,42.03196],[-119.28755,42.03197],[-119.28774,42.03197],[-119.28903,42.0318],[-119.28928,42.0318],[-119.2895,42.0318],[-119.28968,42.03179],[-119.28987,42.03177],[-119.29023,42.03173],[-119.29041,42.03173],[-119.29054,42.03173],[-119.29108,42.03166],[-119.29124,42.03165],[-119.29138,42.03167],[-119.29149,42.03172],[-119.29164,42.03181],[-119.29192,42.03193],[-119.29259,42.03227],[-119.29302,42.03249],[-119.29334,42.03267],[-119.29387,42.03294],[-119.29469,42.03328],[-119.29617,42.0339],[-119.29677,42.03414],[-119.29736,42.03433],[-119.29814,42.03456],[-119.29875,42.03474],[-119.29938,42.03488],[-119.30005,42.03501],[-119.30059,42.03513],[-119.30104,42.03527],[-119.30134,42.03537],[-119.30161,42.03543],[-119.30194,42.0355],[-119.30225,42.03556],[-119.30258,42.03564],[-119.30289,42.03575],[-119.3034,42.03589],[-119.3044,42.0362],[-119.30496,42.03643],[-119.30557,42.03665],[-119.30639,42.03689],[-119.30676,42.037],[-119.30703,42.03708],[-119.30724,42.03717],[-119.30749,42.03725],[-119.3079,42.03734],[-119.30812,42.03738],[-119.30838,42.03741],[-119.30876,42.03742],[-119.30895,42.03741],[-119.30906,42.03739],[-119.30924,42.03731],[-119.30997,42.03704],[-119.31031,42.0369],[-119.31063,42.03674],[-119.31082,42.03666]]}},{"type":"Feature","properties":{"name":"(unnamed public road)","road_class":"track","source":"OpenStreetMap","source_detail":"osm way 5371166","source_tile":"172/380","surface_inferred":true},"geometry":{"type":"LineString","coordinates":[[-119.26435,42.03118],[-119.26442,42.03128],[-119.26457,42.03171],[-119.26477,42.0322],[-119.26502,42.03272],[-119.26515,42.03297],[-119.26521,42.03307],[-119.26531,42.03332],[-119.26546,42.03365],[-119.266,42.03497],[-119.26659,42.0364],[-119.2668,42.03694],[-119.26723,42.03797],[-119.26755,42.03876],[-119.26776,42.03925],[-119.26791,42.0396],[-119.26804,42.03993],[-119.26816,42.04022],[-119.26826,42.04049],[-119.26831,42.04072],[-119.26838,42.04123],[-119.26856,42.04221],[-119.26863,42.04261],[-119.26872,42.04291],[-119.26881,42.04303],[-119.26894,42.04311],[-119.26917,42.04324],[-119.2701,42.04365],[-119.27065,42.04389],[-119.27109,42.04412],[-119.2715,42.04433],[-119.27162,42.04439],[-119.27174,42.04448],[-119.27183,42.04457],[-119.27194,42.04471],[-119.2722,42.04506],[-119.27251,42.04547],[-119.27268,42.04571],[-119.27279,42.04588],[-119.27285,42.04602],[-119.27289,42.04616],[-119.2729,42.0463],[-119.27289,42.04644],[-119.27282,42.04658],[-119.27275,42.04665],[-119.27266,42.04671],[-119.27252,42.04676],[-119.27194,42.04695],[-119.27163,42.04706],[-119.27141,42.04717],[-119.27093,42.04745],[-119.27038,42.0478],[-119.27013,42.04796],[-119.26988,42.0481],[-119.26972,42.0482],[-119.26962,42.04828],[-119.2695,42.04843]]}},{"type":"Feature","properties":{"name":"(unnamed public road)","road_class":"track","source":"OpenStreetMap","source_detail":"osm way 5371178","source_tile":"172/380","surface_inferred":true},"geometry":{"type":"LineString","coordinates":[[-119.34456,42.02347],[-119.34478,42.02362],[-119.34491,42.02373],[-119.34499,42.02381],[-119.34501,42.02387],[-119.34502,42.02394],[-119.34501,42.02405],[-119.34503,42.02413],[-119.34504,42.02422],[-119.34502,42.02428],[-119.34495,42.02436],[-119.3449,42.02444],[-119.34486,42.02453],[-119.34481,42.02463],[-119.34474,42.02472],[-119.34463,42.02485],[-119.34427,42.02521],[-119.34397,42.02557],[-119.34355,42.02615],[-119.3433,42.02645],[-119.34321,42.02659],[-119.34299,42.02689],[-119.34285,42.02707],[-119.34261,42.02742],[-119.34231,42.0278],[-119.3421,42.02817],[-119.34191,42.02852],[-119.34177,42.02876],[-119.34165,42.02892],[-119.34148,42.02913],[-119.34141,42.02925],[-119.34136,42.02939],[-119.34127,42.02961],[-119.3411,42.02991],[-119.34102,42.03016],[-119.3409,42.03048],[-119.3408,42.03071],[-119.3406,42.0311],[-119.34043,42.03143],[-119.34037,42.03162],[-119.34034,42.03178],[-119.34031,42.03198],[-119.34027,42.03216],[-119.34023,42.03231],[-119.34016,42.0325],[-119.34013,42.03268],[-119.34009,42.0329],[-119.34005,42.03315],[-119.34,42.03338],[-119.33996,42.03372],[-119.33988,42.03435],[-119.33975,42.03497],[-119.33971,42.03525],[-119.3397,42.03547],[-119.33979,42.03577],[-119.33979,42.03702],[-119.34065,42.03943],[-119.34111,42.04073],[-119.34123,42.04171],[-119.34133,42.0418],[-119.34145,42.04301],[-119.34154,42.04462],[-119.3417,42.04592],[-119.342,42.04633],[-119.34203,42.04656],[-119.3424,42.04734],[-119.34253,42.04738],[-119.3432,42.04875],[-119.34394,42.05172],[-119.34413,42.05234],[-119.34544,42.05392],[-119.34658,42.05499],[-119.34692,42.05534],[-119.34704,42.05563],[-119.3483,42.05678],[-119.34857,42.05698],[-119.35109,42.05893],[-119.35205,42.06032],[-119.35217,42.06053],[-119.35214,42.06069],[-119.35254,42.06117],[-119.35257,42.06135],[-119.35266,42.06139],[-119.3534,42.06338],[-119.35407,42.06496],[-119.35417,42.06501],[-119.35447,42.06585],[-119.35478,42.06642],[-119.35622,42.06846],[-119.35712,42.07095],[-119.35739,42.07132],[-119.35761,42.07191],[-119.35868,42.07321],[-119.35868,42.07335],[-119.35954,42.07446]]}},{"type":"Feature","properties":{"name":"Ackley Camp Road","road_class":"track","surface":"unpaved","source":"OpenStreetMap","source_detail":"osm way 5387311","source_tile":"172/380"},"geometry":{"type":"LineString","coordinates":[[-119.34456,42.02347],[-119.34444,42.02341],[-119.34434,42.02339],[-119.34422,42.0234],[-119.34408,42.02342],[-119.34372,42.02352],[-119.34355,42.02354],[-119.34339,42.02356],[-119.3432,42.02356],[-119.34296,42.02358],[-119.34271,42.02362],[-119.3421,42.02372],[-119.34131,42.02387],[-119.34056,42.02402],[-119.34006,42.02412],[-119.33974,42.0242],[-119.33944,42.02431],[-119.33903,42.02448],[-119.33874,42.02459],[-119.33862,42.02462],[-119.33849,42.02465],[-119.3383,42.0247],[-119.33808,42.02475],[-119.33642,42.02517],[-119.33493,42.02551],[-119.33379,42.02577],[-119.33355,42.02582],[-119.33334,42.02588],[-119.33317,42.02594],[-119.33279,42.02609],[-119.33245,42.02622],[-119.33218,42.0263],[-119.3319,42.02641],[-119.33154,42.02653],[-119.33128,42.02664],[-119.33111,42.02674],[-119.33081,42.02693],[-119.33062,42.02703],[-119.3304,42.02712],[-119.33005,42.02724],[-119.32962,42.02738],[-119.32887,42.02769],[-119.32815,42.02798],[-119.32773,42.02812],[-119.32716,42.02829],[-119.32667,42.02846],[-119.32594,42.0287],[-119.32566,42.02878],[-119.32529,42.02887],[-119.32374,42.02918],[-119.32275,42.0294],[-119.32177,42.02961],[-119.32133,42.02967],[-119.3207,42.02977],[-119.31992,42.02992],[-119.31954,42.03],[-119.31932,42.03007],[-119.31911,42.03017],[-119.3189,42.03028],[-119.31876,42.03034],[-119.31859,42.03038],[-119.3183,42.03045],[-119.31764,42.03059],[-119.3167,42.03078],[-119.31591,42.03098],[-119.31561,42.03105],[-119.31534,42.03108],[-119.31501,42.03116],[-119.31467,42.03126],[-119.31444,42.03136],[-119.31429,42.03145],[-119.31409,42.0316],[-119.31391,42.03175],[-119.31379,42.03185],[-119.31366,42.03194],[-119.31345,42.03204],[-119.31325,42.03215],[-119.31314,42.03225],[-119.31304,42.03235],[-119.31284,42.0326],[-119.31264,42.03291],[-119.31256,42.03303],[-119.31247,42.03312],[-119.31238,42.03327],[-119.31231,42.03344],[-119.31221,42.03382],[-119.31212,42.03416],[-119.31207,42.03434],[-119.3119,42.03475],[-119.31181,42.03493],[-119.31163,42.03536],[-119.31152,42.03556]]}}]}