{"type":"FeatureCollection","features":[{"type":"Feature","properties":{"name":"6S27","road_class":"track","surface":"unpaved","source":"Caltrans All Roads + OpenStreetMap explicit surface","source_detail":"osm way 400360330; Caltrans All Roads public-network geometry match","source_tile":"173/397","public_network_source":"Caltrans All Roads (ARNOLD/HPMS)","surface_source":"OpenStreetMap explicit surface tag","caltrans_match_coverage":1.0,"verified_length_m":11455},"geometry":{"type":"LineString","coordinates":[[-119.24333,37.3616],[-119.24317,37.36161],[-119.24306,37.36167],[-119.24299,37.36175],[-119.24287,37.36194],[-119.24279,37.362],[-119.2427,37.36204],[-119.24262,37.36206],[-119.2425,37.36206],[-119.24238,37.36203],[-119.24193,37.36168],[-119.24183,37.36165],[-119.24162,37.36161],[-119.24089,37.36161],[-119.24035,37.3616],[-119.24017,37.36157],[-119.23997,37.36153],[-119.23975,37.36146],[-119.23956,37.36138],[-119.23898,37.36102],[-119.23857,37.36075],[-119.23838,37.36067],[-119.2382,37.36064],[-119.23803,37.36068],[-119.2379,37.36075],[-119.23784,37.3608],[-119.23762,37.36108],[-119.23744,37.36116],[-119.23736,37.36116],[-119.23725,37.36114],[-119.23715,37.36109],[-119.23705,37.36103],[-119.23695,37.36093],[-119.23678,37.36072],[-119.23663,37.36063],[-119.23647,37.36057],[-119.23614,37.36052],[-119.23592,37.36056],[-119.23582,37.36061],[-119.23559,37.36078],[-119.23537,37.36112],[-119.23506,37.36165],[-119.23495,37.36207],[-119.23469,37.36248],[-119.23438,37.36282],[-119.23424,37.36289],[-119.23412,37.3629],[-119.23397,37.36287],[-119.23386,37.36279],[-119.23383,37.36274],[-119.23381,37.36257],[-119.2338,37.36218],[-119.23374,37.36202],[-119.23367,37.36192],[-119.23359,37.36186],[-119.23348,37.36185],[-119.23344,37.36186],[-119.23296,37.36208],[-119.23286,37.36211],[-119.23272,37.36208],[-119.23264,37.36204],[-119.23258,37.36196],[-119.23238,37.36145],[-119.23227,37.36134],[-119.23212,37.36125],[-119.2318,37.36116],[-119.23156,37.36116],[-119.2314,37.36115],[-119.23121,37.36105],[-119.23111,37.36096],[-119.23096,37.3608],[-119.23083,37.36062],[-119.23072,37.36055],[-119.23055,37.36053],[-119.23048,37.36055],[-119.23032,37.36064],[-119.2302,37.36074],[-119.23007,37.36099],[-119.22994,37.36108],[-119.22977,37.36114],[-119.22962,37.36115],[-119.22943,37.36106],[-119.22934,37.36088],[-119.2292,37.36069],[-119.22904,37.36056],[-119.2289,37.36051],[-119.22863,37.36047],[-119.22822,37.3605],[-119.22744,37.36066],[-119.22695,37.36095],[-119.22662,37.36102],[-119.22633,37.3611],[-119.22618,37.3612],[-119.22609,37.36134],[-119.22599,37.36152],[-119.22592,37.3617],[-119.22578,37.36184],[-119.2256,37.36189],[-119.22542,37.36187],[-119.22533,37.36182],[-119.22514,37.3617],[-119.22421,37.36095],[-119.22403,37.36065],[-119.2239,37.36046],[-119.22378,37.36035],[-119.2236,37.36028],[-119.22283,37.36005],[-119.22256,37.35993],[-119.22241,37.35985],[-119.22232,37.35977],[-119.22225,37.35939],[-119.22214,37.35922],[-119.22192,37.35885],[-119.22171,37.35843],[-119.2216,37.35827],[-119.22148,37.35816],[-119.22119,37.35812],[-119.22085,37.35821],[-119.21942,37.35876],[-119.21928,37.35875],[-119.21905,37.35867],[-119.21871,37.35842],[-119.21822,37.35817],[-119.21771,37.35801],[-119.21757,37.35791],[-119.21691,37.35698],[-119.21668,37.35681],[-119.21646,37.35671],[-119.21615,37.35668],[-119.21596,37.35671],[-119.21578,37.35678],[-119.21432,37.35766],[-119.2138,37.35791],[-119.21328,37.35803],[-119.21237,37.35821],[-119.21187,37.35845],[-119.21146,37.35868],[-119.21126,37.35886],[-119.21118,37.35902],[-119.21112,37.35921],[-119.21107,37.35949],[-119.211,37.35986],[-119.21102,37.36047],[-119.2109,37.36177],[-119.21064,37.36264],[-119.21026,37.36335],[-119.21022,37.36357],[-119.2103,37.36391],[-119.21026,37.36414],[-119.20993,37.36514],[-119.20993,37.36531],[-119.20964,37.36617],[-119.20971,37.36629],[-119.20985,37.36659],[-119.2098,37.36673],[-119.20967,37.36688],[-119.20928,37.36718],[-119.2092,37.36734],[-119.20889,37.36811],[-119.20878,37.36823],[-119.20858,37.36835],[-119.20837,37.36852],[-119.20826,37.36885],[-119.20798,37.36976],[-119.20781,37.37026],[-119.2078,37.37056],[-119.2077,37.37074],[-119.20753,37.37102],[-119.20726,37.37154],[-119.20718,37.37215],[-119.20713,37.37232],[-119.20684,37.37271],[-119.20671,37.37288],[-119.20666,37.37314],[-119.20658,37.37401],[-119.20649,37.37418],[-119.20631,37.37418],[-119.20612,37.37416],[-119.20602,37.37409],[-119.20578,37.37379],[-119.20564,37.37374],[-119.20541,37.37373],[-119.2053,37.37377],[-119.20508,37.37387],[-119.20465,37.37434],[-119.20423,37.37454],[-119.20374,37.37502],[-119.20314,37.37528],[-119.20293,37.37542],[-119.20276,37.37568],[-119.20274,37.37585],[-119.20252,37.3764],[-119.20239,37.37651],[-119.20224,37.37656],[-119.20209,37.37652],[-119.20193,37.37642],[-119.20185,37.37631],[-119.20148,37.37546],[-119.20145,37.37528],[-119.2015,37.37509],[-119.20203,37.3741],[-119.20205,37.37395],[-119.20194,37.37368],[-119.20174,37.37354],[-119.20162,37.37337],[-119.20166,37.37321],[-119.20194,37.37296],[-119.20199,37.3728],[-119.20201,37.37265],[-119.20181,37.37239],[-119.20163,37.37175],[-119.20163,37.37127],[-119.20171,37.37086],[-119.20169,37.37062],[-119.20149,37.37033],[-119.20142,37.37018],[-119.20145,37.36992],[-119.20145,37.36968],[-119.20128,37.36939],[-119.20125,37.3692],[-119.20132,37.36891],[-119.20156,37.36856],[-119.20157,37.36839],[-119.20142,37.36812],[-119.20142,37.368],[-119.20149,37.36792],[-119.20174,37.36757],[-119.2017,37.36729],[-119.20165,37.36714],[-119.20163,37.36696],[-119.2017,37.36673],[-119.20173,37.36657],[-119.20172,37.36587],[-119.20179,37.36566],[-119.20204,37.36514],[-119.20205,37.36487],[-119.20196,37.36452],[-119.20191,37.36406],[-119.20179,37.3638],[-119.20097,37.36273],[-119.20076,37.36261],[-119.20056,37.36261],[-119.20045,37.36266],[-119.19995,37.36294],[-119.19905,37.36371],[-119.19867,37.36443],[-119.19846,37.3646],[-119.19818,37.36469],[-119.19792,37.36463],[-119.19781,37.36452],[-119.19756,37.36406],[-119.19757,37.36333],[-119.19746,37.36295],[-119.19746,37.36282],[-119.19758,37.36264],[-119.19776,37.36245],[-119.19776,37.3624],[-119.19774,37.36225],[-119.19747,37.36172],[-119.19737,37.36165],[-119.19672,37.36166],[-119.19657,37.36159],[-119.19639,37.36136],[-119.19614,37.36094],[-119.19601,37.36082],[-119.19467,37.36058],[-119.19446,37.36052],[-119.19422,37.36025],[-119.19388,37.35955],[-119.19374,37.35943],[-119.19323,37.35906],[-119.19311,37.3589],[-119.19311,37.35863],[-119.1932,37.35828],[-119.19317,37.35804],[-119.19307,37.35783],[-119.19288,37.35762],[-119.19244,37.35741],[-119.19101,37.35674],[-119.19068,37.35666],[-119.19037,37.35664],[-119.19009,37.35675],[-119.18998,37.35683],[-119.18979,37.35701],[-119.18918,37.35801],[-119.1891,37.35837],[-119.18903,37.35846],[-119.18792,37.35942],[-119.18779,37.35949],[-119.18767,37.35951],[-119.18755,37.35949],[-119.18744,37.3594],[-119.18637,37.3585],[-119.18597,37.35839],[-119.18488,37.35818],[-119.18432,37.35825],[-119.18416,37.35824],[-119.18406,37.35819],[-119.18384,37.35796],[-119.18361,37.35748],[-119.18332,37.35717],[-119.18315,37.35707],[-119.1826,37.35699],[-119.18176,37.35695],[-119.18129,37.35708],[-119.18052,37.35739],[-119.18033,37.35744],[-119.17976,37.35736],[-119.17906,37.35733],[-119.17822,37.35743],[-119.1774,37.35749],[-119.17718,37.35744],[-119.17712,37.35734],[-119.1771,37.35716],[-119.17704,37.35643],[-119.17685,37.35586],[-119.1764,37.35506],[-119.17613,37.35463],[-119.1761,37.35442],[-119.17629,37.35393],[-119.17623,37.35381],[-119.17608,37.35369],[-119.17584,37.35362]]}},{"type":"Feature","properties":{"name":"Half Corral Trail","road_class":"track","surface":"unpaved","source":"Caltrans All Roads + OpenStreetMap explicit surface","source_detail":"osm way 400361010; Caltrans All Roads public-network geometry match","source_tile":"173/397","public_network_source":"Caltrans All Roads (ARNOLD/HPMS)","surface_source":"OpenStreetMap explicit surface tag","caltrans_match_coverage":1.0,"verified_length_m":3444},"geometry":{"type":"LineString","coordinates":[[-119.18008,37.38996],[-119.17877,37.38957],[-119.17839,37.38956],[-119.17818,37.38951],[-119.17716,37.38887],[-119.17697,37.38883],[-119.17557,37.38892],[-119.17455,37.38916],[-119.17423,37.38913],[-119.17353,37.3891],[-119.17343,37.38916],[-119.17341,37.38933],[-119.17373,37.39003],[-119.17391,37.39024],[-119.17404,37.3907],[-119.17405,37.39092],[-119.17399,37.39111],[-119.17375,37.39125],[-119.17326,37.39136],[-119.1729,37.39134],[-119.17152,37.39172],[-119.17121,37.3917],[-119.17056,37.39173],[-119.17047,37.39167],[-119.17042,37.39157],[-119.17041,37.39144],[-119.17054,37.39115],[-119.17079,37.39092],[-119.17075,37.39082],[-119.17063,37.39073],[-119.17041,37.39069],[-119.17036,37.39066],[-119.1704,37.39042],[-119.17047,37.38994],[-119.17036,37.38971],[-119.16998,37.38943],[-119.16975,37.38913],[-119.16963,37.38896],[-119.1694,37.38887],[-119.16925,37.3887],[-119.16917,37.38846],[-119.16871,37.38815],[-119.16841,37.38771],[-119.16813,37.38667],[-119.16811,37.38532],[-119.16782,37.38434],[-119.16711,37.38368],[-119.16703,37.383],[-119.16769,37.38092],[-119.1673,37.38043],[-119.16633,37.37969],[-119.16621,37.37888],[-119.16617,37.37866],[-119.16625,37.37839],[-119.1668,37.37857],[-119.16727,37.37869],[-119.16766,37.37869],[-119.16785,37.37826],[-119.16758,37.37718],[-119.16716,37.37638],[-119.16647,37.376],[-119.16609,37.37578],[-119.16527,37.37531]]}},{"type":"Feature","properties":{"name":"Edison Lake Road","road_class":"unclassified","surface":"gravel","source":"Caltrans All Roads + OpenStreetMap explicit surface","source_detail":"osm way 10337057; Caltrans All Roads public-network geometry match","source_tile":"173/397","public_network_source":"Caltrans All Roads (ARNOLD/HPMS)","surface_source":"OpenStreetMap explicit surface tag","caltrans_match_coverage":1.0,"verified_length_m":4180},"geometry":{"type":"LineString","coordinates":[[-118.98365,37.36753],[-118.98372,37.36761],[-118.98398,37.36812],[-118.98401,37.3682],[-118.98444,37.36872],[-118.98934,37.36959],[-118.99101,37.36986],[-118.99103,37.36975],[-118.99107,37.36956],[-118.9912,37.36914],[-118.99139,37.3688],[-118.99155,37.36863],[-118.99165,37.36857],[-118.99202,37.36846],[-118.99219,37.36838],[-118.99244,37.36814],[-118.99251,37.36804],[-118.99265,37.36769],[-118.99266,37.3674],[-118.99272,37.36728],[-118.99283,37.36719],[-118.99293,37.36714],[-118.99303,37.36713],[-118.99361,37.36733],[-118.99378,37.36733],[-118.99424,37.36728],[-118.99449,37.36726],[-118.99461,37.36721],[-118.99492,37.36701],[-118.99507,37.36699],[-118.99514,37.36702],[-118.99521,37.36706],[-118.99524,37.36711],[-118.99525,37.36718],[-118.9952,37.36766],[-118.99524,37.3678],[-118.99547,37.36816],[-118.99553,37.3682],[-118.99606,37.36834],[-118.99626,37.36845],[-118.99635,37.36852],[-118.99651,37.36858],[-118.99685,37.36864],[-118.99727,37.36878],[-118.99759,37.36888],[-118.99781,37.36898],[-118.99866,37.36938],[-118.99907,37.36963],[-118.99955,37.36978],[-118.9997,37.36986],[-119.00063,37.37024],[-119.00163,37.3705],[-119.00191,37.37059],[-119.00208,37.37073],[-119.00235,37.37088],[-119.00257,37.37105],[-119.0028,37.3713],[-119.00286,37.3714],[-119.0032,37.37172],[-119.00344,37.37191],[-119.00369,37.37221],[-119.00405,37.3725],[-119.00422,37.37257],[-119.00453,37.37266],[-119.00516,37.3727],[-119.00543,37.37275],[-119.0059,37.37288],[-119.00651,37.37283],[-119.00706,37.37276],[-119.00733,37.37282],[-119.00772,37.37295],[-119.00791,37.37297],[-119.00806,37.37303],[-119.00832,37.37337],[-119.00845,37.37349],[-119.00854,37.37355],[-119.00864,37.37356],[-119.00887,37.37355],[-119.009,37.37358],[-119.01021,37.37423],[-119.01031,37.37427],[-119.01047,37.37429],[-119.01187,37.37499],[-119.01282,37.37576],[-119.01305,37.3759],[-119.01345,37.37613],[-119.01366,37.37635],[-119.01383,37.37653],[-119.0139,37.3767],[-119.01396,37.37711],[-119.014,37.37732],[-119.01398,37.3775],[-119.01393,37.37765],[-119.01393,37.37783],[-119.01397,37.37797],[-119.01411,37.37815],[-119.01482,37.37865],[-119.01519,37.37875],[-119.01548,37.37886],[-119.01584,37.37911],[-119.0159,37.37918],[-119.0159,37.37928],[-119.01581,37.37935],[-119.01566,37.37941],[-119.01554,37.37944],[-119.01535,37.37944],[-119.01487,37.37971],[-119.0148,37.3798],[-119.01477,37.37989],[-119.0148,37.37997],[-119.01487,37.38002],[-119.01501,37.38002],[-119.01515,37.37999],[-119.01529,37.38001],[-119.01543,37.38008],[-119.01547,37.38016],[-119.01538,37.38042],[-119.01529,37.38053],[-119.01515,37.38065],[-119.0146,37.38103],[-119.01449,37.38114],[-119.01441,37.38142]]}},{"type":"Feature","properties":{"name":"Stump Springs Road","road_class":"unclassified","surface":"gravel","motor_vehicle":"yes","source":"Caltrans All Roads + OpenStreetMap explicit surface","source_detail":"osm way 400360043; Caltrans All Roads public-network geometry match","source_tile":"173/397","public_network_source":"Caltrans All Roads (ARNOLD/HPMS)","surface_source":"OpenStreetMap explicit surface tag","caltrans_match_coverage":1.0,"verified_length_m":10465},"geometry":{"type":"LineString","coordinates":[[-119.1151,37.3116],[-119.11527,37.31163],[-119.11549,37.31161],[-119.11573,37.31164],[-119.11599,37.31171],[-119.11618,37.31193],[-119.11665,37.3124],[-119.11679,37.31263],[-119.11671,37.31296],[-119.11669,37.31307],[-119.11677,37.31341],[-119.11682,37.31356],[-119.11686,37.31363],[-119.11694,37.31376],[-119.11704,37.31388],[-119.11719,37.314],[-119.11746,37.31411],[-119.11764,37.31416],[-119.11785,37.31427],[-119.11791,37.31427],[-119.118,37.31429],[-119.11808,37.3143],[-119.11817,37.31428],[-119.11833,37.31423],[-119.11881,37.31399],[-119.11895,37.3139],[-119.1191,37.31384],[-119.11925,37.31375],[-119.11936,37.31366],[-119.11944,37.31354],[-119.11959,37.31327],[-119.11963,37.31319],[-119.11969,37.31312],[-119.11976,37.31306],[-119.11988,37.31299],[-119.12025,37.31282],[-119.12042,37.31279],[-119.12061,37.31278],[-119.12078,37.31276],[-119.12091,37.31274],[-119.12106,37.31269],[-119.12128,37.31264],[-119.12145,37.31258],[-119.12157,37.31251],[-119.12165,37.31249],[-119.12178,37.31251],[-119.12194,37.31255],[-119.12212,37.31262],[-119.12226,37.31268],[-119.12239,37.31281],[-119.12252,37.3129],[-119.12262,37.313],[-119.12276,37.3131],[-119.12302,37.3132],[-119.12329,37.31338],[-119.12343,37.31344],[-119.12364,37.31346],[-119.12381,37.31349],[-119.12417,37.31354],[-119.12429,37.31357],[-119.12448,37.31364],[-119.12463,37.31377],[-119.12484,37.31391],[-119.12505,37.31403],[-119.12522,37.31413],[-119.12535,37.31421],[-119.12558,37.31446],[-119.12579,37.3147],[-119.12593,37.31488],[-119.12599,37.31497],[-119.12608,37.31503],[-119.12618,37.31508],[-119.12644,37.31519],[-119.12663,37.31523],[-119.12679,37.31527],[-119.12691,37.31533],[-119.12707,37.31542],[-119.12713,37.31547],[-119.12721,37.31556],[-119.12755,37.31582],[-119.12771,37.31591],[-119.12779,37.31599],[-119.12791,37.31614],[-119.128,37.31625],[-119.12814,37.31653],[-119.12825,37.31662],[-119.12836,37.31673],[-119.12859,37.31683],[-119.12888,37.31695],[-119.12899,37.31698],[-119.12908,37.31703],[-119.12921,37.31715],[-119.12964,37.31765],[-119.12973,37.31778],[-119.12988,37.31797],[-119.13041,37.31829],[-119.1306,37.31837],[-119.13086,37.31852],[-119.13102,37.31866],[-119.13115,37.31877],[-119.1313,37.31892],[-119.13152,37.31906],[-119.13187,37.31923],[-119.13208,37.3193],[-119.13229,37.31935],[-119.13253,37.31935],[-119.13269,37.31932],[-119.13291,37.31926],[-119.13302,37.31921],[-119.13325,37.31913],[-119.13334,37.31908],[-119.13346,37.31898],[-119.13356,37.31891],[-119.13367,37.31884],[-119.13386,37.31877],[-119.13424,37.31864],[-119.13452,37.31849],[-119.13478,37.31837],[-119.13506,37.31827],[-119.13518,37.31823],[-119.13532,37.31823],[-119.13554,37.31817],[-119.13574,37.31811],[-119.13603,37.31805],[-119.13628,37.31808],[-119.13651,37.31818],[-119.13678,37.31838],[-119.13694,37.3186],[-119.13717,37.31882],[-119.13723,37.31892],[-119.13728,37.31904],[-119.13736,37.31922],[-119.13741,37.31928],[-119.13756,37.3194],[-119.13761,37.31945],[-119.13764,37.31951],[-119.13767,37.31961],[-119.13771,37.31979],[-119.13773,37.32019],[-119.13775,37.32032],[-119.1378,37.32047],[-119.13784,37.32058],[-119.13788,37.3207],[-119.1379,37.32083],[-119.13789,37.32095],[-119.13792,37.32116],[-119.13795,37.32127],[-119.13804,37.32144],[-119.13815,37.32161],[-119.13828,37.32185],[-119.13841,37.32209],[-119.1385,37.32225],[-119.1386,37.32241],[-119.13874,37.32259],[-119.13897,37.32281],[-119.13906,37.32295],[-119.13923,37.3232],[-119.13936,37.32333],[-119.13959,37.32349],[-119.13977,37.3236],[-119.13993,37.32372],[-119.1403,37.32413],[-119.14041,37.32433],[-119.14049,37.32442],[-119.14149,37.32572],[-119.14168,37.32586],[-119.14208,37.32607],[-119.14236,37.32617],[-119.14254,37.32617],[-119.14269,37.32615],[-119.14316,37.32599],[-119.14339,37.32592],[-119.14352,37.32589],[-119.1436,37.32585],[-119.1437,37.32582],[-119.14382,37.32583],[-119.14403,37.32591],[-119.14426,37.32607],[-119.14452,37.32629],[-119.14461,37.32639],[-119.1448,37.32682],[-119.14487,37.32694],[-119.14496,37.32706],[-119.14503,37.32713],[-119.14516,37.32734],[-119.14525,37.3275],[-119.14535,37.32761],[-119.14546,37.32768],[-119.14563,37.32772],[-119.1458,37.32779],[-119.14592,37.32787],[-119.14652,37.32849],[-119.14659,37.32859],[-119.14667,37.32877],[-119.147,37.32934],[-119.1471,37.32941],[-119.14716,37.32942],[-119.14737,37.32941],[-119.1476,37.32945],[-119.14799,37.32962],[-119.14841,37.32991],[-119.14888,37.33016],[-119.14958,37.33056],[-119.15026,37.33097],[-119.1509,37.3315],[-119.15129,37.33177],[-119.15137,37.33191],[-119.15144,37.33207],[-119.15144,37.33216],[-119.15133,37.33245],[-119.15114,37.33311],[-119.15123,37.33425],[-119.15125,37.3349],[-119.1512,37.33511],[-119.15125,37.33524],[-119.15225,37.33658],[-119.1525,37.33693],[-119.1525,37.33706],[-119.15253,37.33725],[-119.15268,37.33742],[-119.15424,37.33785],[-119.15493,37.33807],[-119.15528,37.33821],[-119.15549,37.3384],[-119.15568,37.33879],[-119.15623,37.33967],[-119.15653,37.33995],[-119.15689,37.3402],[-119.15761,37.34053],[-119.15825,37.34064],[-119.16105,37.34071],[-119.16173,37.3408],[-119.16209,37.34093],[-119.16257,37.34129],[-119.16386,37.3426],[-119.16414,37.34291],[-119.1642,37.34307],[-119.16455,37.34477],[-119.1648,37.34551],[-119.16498,37.34596],[-119.1652,37.3464],[-119.16534,37.34667],[-119.16568,37.34699],[-119.16652,37.34733],[-119.16693,37.3475],[-119.16711,37.34768],[-119.16743,37.34828],[-119.16752,37.34856],[-119.16737,37.34929],[-119.16737,37.34948],[-119.16751,37.34983],[-119.16886,37.35195],[-119.16911,37.35223],[-119.17021,37.3531],[-119.17082,37.35383],[-119.17116,37.35436],[-119.17165,37.35611],[-119.17172,37.35639],[-119.17169,37.35663],[-119.17153,37.35698],[-119.17029,37.35834],[-119.16988,37.35887],[-119.16969,37.35922],[-119.16961,37.35975],[-119.16962,37.36017],[-119.16972,37.36045],[-119.16999,37.36097],[-119.17007,37.36108],[-119.17051,37.36148],[-119.17086,37.36171],[-119.17165,37.36203],[-119.172,37.36211],[-119.17242,37.36214],[-119.17307,37.36211],[-119.1735,37.36201],[-119.17413,37.36175],[-119.17459,37.36148],[-119.1749,37.3612],[-119.17504,37.36105],[-119.17532,37.36055],[-119.1755,37.36009],[-119.17551,37.35984],[-119.17548,37.35958],[-119.17537,37.35919],[-119.17498,37.35831],[-119.17494,37.35817],[-119.17491,37.35787],[-119.17493,37.35764],[-119.17539,37.35567],[-119.17575,37.35408],[-119.17584,37.35362],[-119.17606,37.35265],[-119.17608,37.35249],[-119.17605,37.35238],[-119.17584,37.35194],[-119.1758,37.35184]]}},{"type":"Feature","properties":{"name":"(unnamed public road)","road_class":"track","surface":"unpaved","tracktype":"grade2","motor_vehicle":"yes","access":"yes","source":"Caltrans All Roads + OpenStreetMap explicit surface","source_detail":"osm way 400361754; Caltrans All Roads public-network geometry match","source_tile":"173/397","public_network_source":"Caltrans All Roads (ARNOLD/HPMS)","surface_source":"OpenStreetMap explicit surface tag","caltrans_match_coverage":1.0,"verified_length_m":926},"geometry":{"type":"LineString","coordinates":[[-119.15868,37.33473],[-119.1576,37.33502],[-119.15745,37.3351],[-119.15729,37.33527],[-119.15719,37.33545],[-119.15713,37.33562],[-119.15702,37.3357],[-119.15675,37.33578],[-119.15635,37.33582],[-119.15627,37.33583],[-119.15608,37.3358],[-119.15597,37.33582],[-119.15585,37.33586],[-119.15573,37.33586],[-119.15565,37.33583],[-119.15557,37.33573],[-119.15547,37.33555],[-119.15528,37.33545],[-119.15514,37.33542],[-119.15494,37.3354],[-119.15486,37.33534],[-119.1548,37.33526],[-119.15475,37.33507],[-119.15474,37.33497],[-119.15465,37.33489],[-119.1544,37.3348],[-119.15425,37.3347],[-119.15415,37.33446],[-119.1541,37.33411],[-119.15414,37.33381],[-119.1541,37.33372],[-119.15398,37.33363],[-119.15375,37.33358],[-119.15362,37.33354],[-119.15356,37.33347],[-119.15346,37.3333],[-119.15338,37.33316],[-119.15329,37.33313],[-119.15303,37.33305],[-119.1528,37.33308],[-119.15274,37.33309],[-119.15265,37.33309],[-119.15253,37.33304],[-119.15234,37.33291],[-119.15214,37.33276],[-119.15181,37.3327],[-119.15168,37.33264],[-119.15158,37.33252],[-119.15133,37.33245]]}},{"type":"Feature","properties":{"name":"(unnamed public road)","road_class":"track","surface":"gravel","tracktype":"grade2","source":"Caltrans All Roads + OpenStreetMap explicit surface","source_detail":"osm way 1205585280; Caltrans All Roads public-network geometry match","source_tile":"173/397","public_network_source":"Caltrans All Roads (ARNOLD/HPMS)","surface_source":"OpenStreetMap explicit surface tag","caltrans_match_coverage":1.0,"verified_length_m":1982},"geometry":{"type":"LineString","coordinates":[[-119.15985,37.2481],[-119.15955,37.248],[-119.15929,37.24798],[-119.15913,37.24804],[-119.15899,37.24815],[-119.15895,37.2482],[-119.15856,37.24868],[-119.15826,37.24888],[-119.15797,37.24899],[-119.1577,37.24905],[-119.15728,37.24911],[-119.157,37.24916],[-119.15675,37.24924],[-119.15653,37.24936],[-119.15624,37.24956],[-119.15587,37.24991],[-119.15549,37.25019],[-119.15452,37.25082],[-119.15404,37.25123],[-119.15372,37.25141],[-119.15333,37.2515],[-119.1529,37.25154],[-119.15273,37.25152],[-119.15263,37.25146],[-119.15266,37.2513],[-119.15274,37.25124],[-119.15288,37.25112],[-119.15332,37.2509],[-119.15351,37.25074],[-119.15368,37.25041],[-119.15379,37.25004],[-119.154,37.24966],[-119.15418,37.24924],[-119.15438,37.24906],[-119.15457,37.2488],[-119.15511,37.24824],[-119.15542,37.24784],[-119.15581,37.2475],[-119.15617,37.24728],[-119.15622,37.24718],[-119.15623,37.24714],[-119.15623,37.24711],[-119.15619,37.24707],[-119.15612,37.24704],[-119.15591,37.24705],[-119.15541,37.24707],[-119.15524,37.24709],[-119.15514,37.24713],[-119.15443,37.2475],[-119.15278,37.24778],[-119.15245,37.24787],[-119.15176,37.24821],[-119.15127,37.24855],[-119.15091,37.24869],[-119.15067,37.24873],[-119.15042,37.24885],[-119.1502,37.24903]]}}]}