{"type":"FeatureCollection","features":[{"type":"Feature","properties":{"name":"Avenue 380","road_class":"track","surface":"gravel","source":"Caltrans All Roads + OpenStreetMap explicit surface","source_detail":"osm way 797347649; Caltrans All Roads public-network geometry match","source_tile":"173/400","public_network_source":"Caltrans All Roads (ARNOLD/HPMS)","surface_source":"OpenStreetMap explicit surface tag","caltrans_match_coverage":1.0,"verified_length_m":797},"geometry":{"type":"LineString","coordinates":[[-119.17901,36.47868],[-119.18791,36.47874]]}},{"type":"Feature","properties":{"name":"Road 176","road_class":"unclassified","surface":"compacted","source":"Caltrans All Roads + OpenStreetMap explicit surface","source_detail":"osm way 1040353742; Caltrans All Roads public-network geometry match","source_tile":"173/400","public_network_source":"Caltrans All Roads (ARNOLD/HPMS)","surface_source":"OpenStreetMap explicit surface tag","caltrans_match_coverage":1.0,"verified_length_m":1599},"geometry":{"type":"LineString","coordinates":[[-119.17964,36.39939],[-119.17961,36.40474],[-119.17969,36.4102],[-119.17971,36.41198],[-119.17974,36.41379],[-119.17973,36.41385]]}},{"type":"Feature","properties":{"name":"(unnamed public road)","road_class":"track","surface":"unpaved","tracktype":"grade3","source":"Caltrans All Roads + OpenStreetMap explicit surface","source_detail":"osm way 10651849; Caltrans All Roads public-network geometry match","source_tile":"173/400","public_network_source":"Caltrans All Roads (ARNOLD/HPMS)","surface_source":"OpenStreetMap explicit surface tag","caltrans_match_coverage":1.0,"verified_length_m":5649},"geometry":{"type":"LineString","coordinates":[[-118.8721,36.50519],[-118.87216,36.5052],[-118.87221,36.50523],[-118.87226,36.50528],[-118.87236,36.50532],[-118.87243,36.50531],[-118.87264,36.50524],[-118.87274,36.50523],[-118.87283,36.50526],[-118.87286,36.50529],[-118.87299,36.50551],[-118.87307,36.50566],[-118.87308,36.50578],[-118.87306,36.5061],[-118.87307,36.50614],[-118.87312,36.50619],[-118.87322,36.50621],[-118.87365,36.50608],[-118.87396,36.50604],[-118.87443,36.50601],[-118.87462,36.50606],[-118.87468,36.50607],[-118.87486,36.50603],[-118.87493,36.50602],[-118.87502,36.50604],[-118.8752,36.50609],[-118.87526,36.50612],[-118.87538,36.50627],[-118.87546,36.50631],[-118.87552,36.50632],[-118.87569,36.50628],[-118.87577,36.50628],[-118.87583,36.50628],[-118.87589,36.50631],[-118.87596,36.50636],[-118.87598,36.50639],[-118.876,36.50653],[-118.87608,36.50669],[-118.8761,36.50675],[-118.87608,36.50692],[-118.87608,36.50713],[-118.87598,36.50751],[-118.87591,36.50762],[-118.8758,36.50773],[-118.87565,36.50784],[-118.87556,36.50788],[-118.8754,36.50798],[-118.87519,36.50815],[-118.87511,36.50818],[-118.87483,36.50838],[-118.87477,36.5084],[-118.87466,36.50842],[-118.87452,36.50842],[-118.87445,36.50845],[-118.8743,36.50855],[-118.87425,36.50856],[-118.8741,36.50857],[-118.87383,36.50862],[-118.87364,36.5086],[-118.87334,36.50861],[-118.87327,36.50865],[-118.87325,36.50875],[-118.87321,36.50883],[-118.87318,36.50886],[-118.87309,36.5089],[-118.87294,36.50891],[-118.87273,36.50886],[-118.87265,36.50885],[-118.87253,36.50888],[-118.8725,36.5089],[-118.87247,36.50893],[-118.87245,36.50897],[-118.87246,36.5091],[-118.87249,36.50917],[-118.87266,36.50943],[-118.87277,36.5095],[-118.87301,36.50962],[-118.87309,36.50963],[-118.87327,36.50963],[-118.87363,36.50976],[-118.87369,36.50979],[-118.87375,36.50983],[-118.87379,36.50989],[-118.87382,36.50993],[-118.87385,36.51008],[-118.87384,36.51021],[-118.87373,36.51035],[-118.87366,36.5105],[-118.8736,36.51056],[-118.87345,36.51064],[-118.87343,36.5107],[-118.87343,36.51074],[-118.87345,36.51078],[-118.87351,36.51082],[-118.87365,36.51086],[-118.87376,36.51087],[-118.87385,36.51085],[-118.87412,36.51072],[-118.87419,36.51072],[-118.87444,36.51075],[-118.87452,36.51073],[-118.87495,36.51053],[-118.87517,36.51046],[-118.87528,36.51047],[-118.87533,36.51049],[-118.87543,36.51057],[-118.87553,36.5107],[-118.87561,36.51094],[-118.8757,36.51104],[-118.87575,36.51114],[-118.87576,36.51128],[-118.87572,36.51141],[-118.87572,36.5115],[-118.87583,36.51164],[-118.87585,36.51168],[-118.87584,36.51172],[-118.87582,36.51175],[-118.87576,36.51179],[-118.87532,36.51191],[-118.87526,36.51195],[-118.87523,36.51198],[-118.87522,36.51204],[-118.87522,36.51207],[-118.87525,36.51209],[-118.87548,36.51217],[-118.87568,36.51228],[-118.87574,36.51228],[-118.87596,36.51225],[-118.87603,36.51225],[-118.87611,36.51226],[-118.87628,36.5123],[-118.87641,36.5123],[-118.87685,36.51222],[-118.87717,36.5122],[-118.87731,36.51224],[-118.87744,36.51232],[-118.87748,36.51241],[-118.87746,36.51253],[-118.87741,36.51268],[-118.87735,36.51279],[-118.87721,36.51299],[-118.87699,36.51335],[-118.87677,36.51357],[-118.87654,36.51377],[-118.87632,36.51398],[-118.87629,36.51404],[-118.87633,36.51411],[-118.87638,36.51413],[-118.87657,36.51415],[-118.87711,36.51416],[-118.8773,36.51408],[-118.87771,36.51398],[-118.87784,36.51394],[-118.87797,36.51386],[-118.87814,36.51373],[-118.87821,36.5137],[-118.87847,36.51362],[-118.87853,36.51357],[-118.87865,36.51347],[-118.87873,36.51342],[-118.87887,36.51338],[-118.87902,36.51336],[-118.87919,36.51326],[-118.87939,36.51319],[-118.87974,36.51311],[-118.87994,36.51304],[-118.88003,36.51303],[-118.88031,36.51315],[-118.88057,36.51321],[-118.88075,36.51329],[-118.88091,36.51345],[-118.88101,36.51358],[-118.88116,36.5137],[-118.88128,36.51385],[-118.88143,36.51402],[-118.88147,36.5141],[-118.88147,36.51415],[-118.88146,36.51457],[-118.88144,36.51465],[-118.88137,36.51477],[-118.88109,36.51504],[-118.88102,36.51509],[-118.88087,36.51518],[-118.88061,36.51527],[-118.88055,36.51535],[-118.88049,36.5155],[-118.88043,36.51559],[-118.88008,36.51583],[-118.87989,36.51605],[-118.87989,36.51612],[-118.87991,36.51615],[-118.88,36.5162],[-118.88008,36.51626],[-118.88008,36.5163],[-118.88006,36.51641],[-118.88007,36.51649],[-118.8801,36.51652],[-118.88018,36.51655],[-118.88027,36.51658],[-118.88034,36.51658],[-118.88043,36.51657],[-118.88071,36.5165],[-118.8809,36.5165],[-118.88097,36.51651],[-118.88104,36.51653],[-118.8811,36.51656],[-118.88121,36.51665],[-118.88125,36.5167],[-118.8813,36.51681],[-118.88137,36.51687],[-118.88141,36.51688],[-118.88146,36.51687],[-118.88163,36.51681],[-118.88171,36.51681],[-118.8818,36.51684],[-118.88217,36.51697],[-118.88262,36.51719],[-118.8827,36.51727],[-118.88273,36.51731],[-118.88274,36.51736],[-118.88274,36.51749],[-118.88273,36.51756],[-118.88259,36.51775],[-118.88241,36.51795],[-118.8823,36.51805],[-118.88217,36.51816],[-118.88208,36.51821],[-118.88201,36.51824],[-118.88194,36.51825],[-118.88164,36.51825],[-118.88159,36.51829],[-118.88158,36.51833],[-118.88161,36.5184],[-118.88179,36.51854],[-118.88181,36.51858],[-118.88181,36.5187],[-118.88176,36.5188],[-118.88177,36.51883],[-118.8818,36.51887],[-118.88185,36.51889],[-118.88193,36.5189],[-118.88215,36.51888],[-118.88237,36.51884],[-118.88242,36.51884],[-118.88246,36.51885],[-118.88253,36.5189],[-118.88255,36.51894],[-118.88257,36.519],[-118.88257,36.51918],[-118.88259,36.51923],[-118.88263,36.51926],[-118.88269,36.51928],[-118.88299,36.51934],[-118.88317,36.51936],[-118.88321,36.51937],[-118.88327,36.51942],[-118.88329,36.51944],[-118.8833,36.51952],[-118.88329,36.51959],[-118.88324,36.51968],[-118.88315,36.51978],[-118.88311,36.51981],[-118.88286,36.51993],[-118.88282,36.51997],[-118.8828,36.52],[-118.8828,36.52005],[-118.88282,36.52008],[-118.88287,36.52014],[-118.88298,36.52018],[-118.8833,36.5202],[-118.88347,36.52023],[-118.8838,36.52036],[-118.88406,36.52043],[-118.88411,36.52046],[-118.88419,36.52052],[-118.88423,36.52058],[-118.88425,36.52067],[-118.88424,36.52071],[-118.88421,36.52076],[-118.88403,36.52099],[-118.88397,36.52103],[-118.88385,36.52109],[-118.88377,36.52115],[-118.88376,36.52117],[-118.88377,36.52122],[-118.88381,36.52127],[-118.88389,36.52132],[-118.884,36.52139],[-118.88417,36.52157],[-118.88423,36.52161],[-118.88444,36.52168],[-118.88453,36.52174],[-118.88455,36.52181],[-118.88456,36.52191],[-118.88461,36.52198],[-118.88471,36.52201],[-118.8849,36.52203],[-118.88503,36.52211],[-118.8851,36.52213],[-118.88526,36.52214],[-118.88532,36.52215],[-118.88544,36.52219],[-118.88551,36.52225],[-118.88556,36.52228],[-118.88559,36.52233],[-118.8856,36.52238],[-118.88558,36.52247],[-118.88552,36.52258],[-118.88552,36.52262],[-118.88557,36.52267],[-118.88563,36.52268],[-118.88581,36.52267],[-118.88613,36.52274],[-118.8863,36.52275],[-118.88653,36.52286],[-118.8866,36.52291],[-118.88666,36.52299],[-118.88667,36.52306],[-118.88665,36.52309],[-118.88648,36.52327],[-118.88641,36.52333],[-118.88608,36.52353],[-118.88606,36.52356],[-118.8861,36.52369],[-118.88625,36.52388],[-118.88629,36.52403],[-118.8863,36.52411],[-118.8863,36.52424],[-118.88635,36.5245],[-118.88633,36.52458],[-118.88629,36.52461],[-118.88624,36.52463],[-118.88616,36.52463],[-118.88606,36.52462],[-118.88586,36.52457],[-118.88575,36.5245],[-118.88563,36.52441],[-118.88556,36.52437],[-118.88513,36.52422],[-118.88508,36.52421],[-118.88501,36.52423],[-118.88498,36.52425],[-118.88496,36.52429],[-118.88499,36.52435],[-118.88512,36.52444],[-118.88525,36.52456],[-118.88545,36.52481],[-118.88562,36.52505],[-118.88582,36.52523],[-118.88591,36.52535],[-118.88617,36.5256],[-118.8864,36.52584],[-118.88648,36.52592],[-118.88673,36.52605],[-118.88682,36.52613],[-118.88689,36.52621],[-118.88692,36.52629],[-118.8869,36.52644],[-118.88679,36.52653],[-118.88672,36.52666],[-118.88672,36.5267],[-118.88673,36.52675],[-118.88676,36.5268],[-118.88679,36.52682],[-118.88684,36.52683],[-118.88704,36.52683],[-118.88709,36.52684],[-118.88712,36.52686],[-118.88717,36.52694],[-118.88716,36.52699],[-118.88711,36.5271],[-118.88709,36.52721],[-118.88712,36.52724],[-118.88716,36.52725],[-118.88721,36.52724],[-118.8873,36.52719],[-118.88787,36.52672],[-118.88803,36.52664],[-118.88851,36.52647],[-118.88858,36.52642],[-118.88886,36.52626],[-118.88928,36.52613],[-118.88944,36.52611],[-118.88955,36.52612],[-118.88965,36.52615],[-118.88984,36.52623],[-118.88997,36.52623],[-118.89005,36.52622],[-118.89008,36.52615],[-118.89007,36.52611],[-118.89001,36.52603],[-118.8899,36.52595],[-118.88967,36.52586],[-118.88963,36.52583],[-118.88949,36.52567],[-118.88947,36.52563],[-118.88948,36.52561],[-118.88951,36.52556],[-118.88953,36.52555],[-118.88965,36.52553],[-118.89005,36.52557],[-118.89055,36.5256]]}},{"type":"Feature","properties":{"name":"Avenue 296","road_class":"unclassified","surface":"unpaved","source":"Caltrans All Roads + OpenStreetMap explicit surface","source_detail":"osm way 10674851; Caltrans All Roads public-network geometry match","source_tile":"173/400","public_network_source":"Caltrans All Roads (ARNOLD/HPMS)","surface_source":"OpenStreetMap explicit surface tag","caltrans_match_coverage":1.0,"verified_length_m":595},"geometry":{"type":"LineString","coordinates":[[-119.06991,36.32531],[-119.07211,36.32533],[-119.07604,36.32541],[-119.07619,36.32539],[-119.07633,36.32536],[-119.07644,36.32531],[-119.07649,36.32526]]}},{"type":"Feature","properties":{"name":"Avenue 386","road_class":"unclassified","surface":"unpaved","source":"Caltrans All Roads + OpenStreetMap explicit surface","source_detail":"osm way 10675122; Caltrans All Roads public-network geometry match","source_tile":"173/400","public_network_source":"Caltrans All Roads (ARNOLD/HPMS)","surface_source":"OpenStreetMap explicit surface tag","caltrans_match_coverage":1.0,"verified_length_m":801},"geometry":{"type":"LineString","coordinates":[[-119.1694,36.48902],[-119.17835,36.48916]]}},{"type":"Feature","properties":{"name":"Avenue 342","road_class":"unclassified","surface":"dirt","source":"Caltrans All Roads + OpenStreetMap explicit surface","source_detail":"osm way 10675524; Caltrans All Roads public-network geometry match","source_tile":"173/400","public_network_source":"Caltrans All Roads (ARNOLD/HPMS)","surface_source":"OpenStreetMap explicit surface tag","caltrans_match_coverage":1.0,"verified_length_m":1204},"geometry":{"type":"LineString","coordinates":[[-119.07637,36.40973],[-119.07627,36.40973],[-119.07579,36.40965],[-119.07562,36.40964],[-119.0742,36.40965],[-119.06294,36.40978]]}},{"type":"Feature","properties":{"name":"Road 180","road_class":"unclassified","surface":"unpaved","source":"Caltrans All Roads + OpenStreetMap explicit surface","source_detail":"osm way 10677924; Caltrans All Roads public-network geometry match","source_tile":"173/400","public_network_source":"Caltrans All Roads (ARNOLD/HPMS)","surface_source":"OpenStreetMap explicit surface tag","caltrans_match_coverage":1.0,"verified_length_m":804},"geometry":{"type":"LineString","coordinates":[[-119.16939,36.4854],[-119.1694,36.48902],[-119.16937,36.49267]]}},{"type":"Feature","properties":{"name":"Grouse Valley Road","road_class":"unclassified","surface":"compacted","tracktype":"grade2","source":"Caltrans All Roads + OpenStreetMap explicit surface","source_detail":"osm way 10680187; Caltrans All Roads public-network geometry match","source_tile":"173/400","public_network_source":"Caltrans All Roads (ARNOLD/HPMS)","surface_source":"OpenStreetMap explicit surface tag","caltrans_match_coverage":1.0,"verified_length_m":6406},"geometry":{"type":"LineString","coordinates":[[-118.83799,36.36403],[-118.83808,36.36396],[-118.83833,36.3638],[-118.83849,36.36373],[-118.83891,36.36361],[-118.84049,36.36292],[-118.84062,36.36281],[-118.8407,36.36265],[-118.8408,36.36258],[-118.84104,36.3625],[-118.84118,36.36241],[-118.84136,36.36219],[-118.84143,36.36216],[-118.84152,36.36218],[-118.84163,36.36224],[-118.84178,36.36236],[-118.842,36.36243],[-118.84246,36.36248],[-118.84274,36.36255],[-118.84302,36.36259],[-118.8434,36.36257],[-118.84353,36.36259],[-118.8439,36.36269],[-118.84406,36.36272],[-118.84424,36.36271],[-118.84437,36.36265],[-118.84464,36.36249],[-118.84496,36.36236],[-118.84516,36.36223],[-118.84527,36.36208],[-118.84547,36.36182],[-118.84551,36.36161],[-118.8455,36.36145],[-118.8455,36.36123],[-118.84541,36.361],[-118.84543,36.36089],[-118.84555,36.36072],[-118.84571,36.36036],[-118.84576,36.36019],[-118.8458,36.35989],[-118.84581,36.35974],[-118.84576,36.35963],[-118.84568,36.35954],[-118.84555,36.35945],[-118.84548,36.35935],[-118.84542,36.35919],[-118.84527,36.35903],[-118.84522,36.35893],[-118.84523,36.35878],[-118.84527,36.35848],[-118.84525,36.35834],[-118.84521,36.3582],[-118.84515,36.35812],[-118.84504,36.35802],[-118.84502,36.35793],[-118.84505,36.35778],[-118.84505,36.35765],[-118.84501,36.35749],[-118.84502,36.3574],[-118.84518,36.35701],[-118.84519,36.35686],[-118.84515,36.35673],[-118.84515,36.35666],[-118.84522,36.35647],[-118.84524,36.3562],[-118.84544,36.35591],[-118.84575,36.35553],[-118.84601,36.35515],[-118.84625,36.35504],[-118.84637,36.35492],[-118.84642,36.3548],[-118.8465,36.35455],[-118.84672,36.35433],[-118.84691,36.35417],[-118.847,36.35401],[-118.84707,36.3537],[-118.84717,36.35347],[-118.84719,36.35337],[-118.84717,36.35326],[-118.84698,36.35292],[-118.84696,36.35282],[-118.84697,36.35269],[-118.84693,36.35253],[-118.84677,36.35228],[-118.84673,36.35208],[-118.84674,36.35195],[-118.84679,36.35191],[-118.84687,36.35191],[-118.84698,36.35196],[-118.8471,36.35195],[-118.84724,36.35184],[-118.84733,36.35172],[-118.84737,36.35157],[-118.84739,36.3514],[-118.84736,36.35104],[-118.8473,36.3509],[-118.8472,36.35075],[-118.84718,36.35069],[-118.84717,36.35062],[-118.84725,36.35057],[-118.84737,36.35054],[-118.84747,36.35049],[-118.84754,36.35036],[-118.84752,36.35013],[-118.84744,36.3499],[-118.84737,36.34968],[-118.84729,36.34959],[-118.84685,36.34934],[-118.84681,36.34928],[-118.84683,36.3492],[-118.84692,36.34908],[-118.84697,36.34888],[-118.84701,36.34866],[-118.84707,36.34856],[-118.84715,36.34849],[-118.84718,36.34842],[-118.84716,36.34832],[-118.84708,36.34824],[-118.84691,36.34814],[-118.84662,36.34803],[-118.84652,36.34798],[-118.84647,36.34792],[-118.8465,36.34787],[-118.84656,36.34783],[-118.84666,36.34781],[-118.84677,36.34773],[-118.8468,36.34761],[-118.84674,36.34752],[-118.84664,36.34739],[-118.84658,36.34729],[-118.84659,36.34719],[-118.84668,36.34708],[-118.84678,36.34684],[-118.84683,36.34662],[-118.84681,36.3465],[-118.84682,36.34644],[-118.84687,36.34636],[-118.84702,36.34629],[-118.84714,36.34622],[-118.84724,36.34612],[-118.84727,36.346],[-118.84725,36.34589],[-118.84718,36.34577],[-118.84714,36.34565],[-118.84717,36.34552],[-118.84723,36.34533],[-118.84724,36.34509],[-118.8473,36.34494],[-118.84745,36.34483],[-118.84768,36.34464],[-118.84776,36.34452],[-118.84788,36.34433],[-118.84802,36.34416],[-118.84806,36.34401],[-118.84805,36.34387],[-118.848,36.34376],[-118.84793,36.34368],[-118.84791,36.34363],[-118.84794,36.34356],[-118.84801,36.34351],[-118.84808,36.34341],[-118.84823,36.34307],[-118.84825,36.34274],[-118.84824,36.34256],[-118.84816,36.34234],[-118.84817,36.34228],[-118.8482,36.34222],[-118.8483,36.34215],[-118.84842,36.34207],[-118.84847,36.34202],[-118.84849,36.34196],[-118.84847,36.34191],[-118.84841,36.34188],[-118.84831,36.34191],[-118.8482,36.34199],[-118.84803,36.34209],[-118.84794,36.34213],[-118.84788,36.34219],[-118.84787,36.34228],[-118.84787,36.34244],[-118.84781,36.3426],[-118.8477,36.34274],[-118.84756,36.34281],[-118.84741,36.34283],[-118.84732,36.34282],[-118.84721,36.34285],[-118.84712,36.34293],[-118.84689,36.34315],[-118.84681,36.34323],[-118.84664,36.34332],[-118.84659,36.34338],[-118.84659,36.34351],[-118.84658,36.34365],[-118.84655,36.34372],[-118.84648,36.34377],[-118.8464,36.34376],[-118.84639,36.34369],[-118.84642,36.34356],[-118.84641,36.34344],[-118.84642,36.34333],[-118.84651,36.34317],[-118.84663,36.34295],[-118.84667,36.34284],[-118.84669,36.34268],[-118.84674,36.34257],[-118.84681,36.34249],[-118.8469,36.34232],[-118.84698,36.34226],[-118.84706,36.34222],[-118.84712,36.34217],[-118.84715,36.3421],[-118.8472,36.34176],[-118.84724,36.34169],[-118.84734,36.3416],[-118.84745,36.34149],[-118.84753,36.34137],[-118.84758,36.34123],[-118.84759,36.34109],[-118.84753,36.34077],[-118.84751,36.34068],[-118.84755,36.3406],[-118.84762,36.34054],[-118.84775,36.34046],[-118.84788,36.34038],[-118.84797,36.34031],[-118.84802,36.34022],[-118.84805,36.34008],[-118.84803,36.33996],[-118.84803,36.33988],[-118.84807,36.33975],[-118.84808,36.33967],[-118.84805,36.33957],[-118.848,36.33946],[-118.84791,36.33931],[-118.84779,36.33917],[-118.84773,36.33904],[-118.84765,36.33882],[-118.84758,36.3387],[-118.84748,36.33855],[-118.84737,36.33846],[-118.84722,36.33836],[-118.84707,36.33823],[-118.84696,36.3381],[-118.84686,36.33797],[-118.84678,36.33791],[-118.8467,36.33787],[-118.84654,36.33786],[-118.84631,36.33788],[-118.84603,36.33789],[-118.84586,36.33789],[-118.84526,36.33798],[-118.84491,36.33809],[-118.84462,36.3381],[-118.84428,36.33817],[-118.84413,36.33816],[-118.84388,36.33812],[-118.84372,36.33812],[-118.84353,36.33813],[-118.84322,36.3382],[-118.84293,36.33825],[-118.84262,36.33826],[-118.84221,36.33824],[-118.84184,36.33824],[-118.84168,36.33821],[-118.84153,36.33814],[-118.84146,36.33805],[-118.84146,36.33797],[-118.84152,36.3379],[-118.8416,36.33786],[-118.84179,36.33778],[-118.84218,36.3376],[-118.8424,36.3376],[-118.84252,36.33754],[-118.84265,36.3374],[-118.84283,36.33726],[-118.84294,36.33714],[-118.84308,36.33684],[-118.84324,36.33636],[-118.84332,36.33613],[-118.84336,36.33599],[-118.84334,36.33581],[-118.84324,36.33568],[-118.84306,36.33557],[-118.84277,36.33546],[-118.84263,36.3354],[-118.84253,36.33531],[-118.84251,36.33522],[-118.84256,36.33511],[-118.84265,36.335],[-118.84277,36.33485],[-118.84291,36.33478],[-118.843,36.33469],[-118.84308,36.33455],[-118.84314,36.33435],[-118.84318,36.33427],[-118.84329,36.33419],[-118.84346,36.3341],[-118.84355,36.33401],[-118.84374,36.33379],[-118.84381,36.33365],[-118.84384,36.33355],[-118.84383,36.33342],[-118.84382,36.33327],[-118.84383,36.33297],[-118.84388,36.3328],[-118.84397,36.33263],[-118.84399,36.33252],[-118.84402,36.33239],[-118.84405,36.33231],[-118.84412,36.33222],[-118.84426,36.3321],[-118.84446,36.33196],[-118.84453,36.33189],[-118.84458,36.33181],[-118.8446,36.33172],[-118.84466,36.33128],[-118.84475,36.3308],[-118.84477,36.33068],[-118.84476,36.33051],[-118.84475,36.33032],[-118.84479,36.33001],[-118.84478,36.32992],[-118.84475,36.3298],[-118.84468,36.32968],[-118.84448,36.32939],[-118.84423,36.32905],[-118.84402,36.32876],[-118.84386,36.3285],[-118.84379,36.32816],[-118.84382,36.32799],[-118.84383,36.32785],[-118.84377,36.32769],[-118.84363,36.32745],[-118.84359,36.32735],[-118.84367,36.32714],[-118.84391,36.32686],[-118.84409,36.32658],[-118.84421,36.32646],[-118.84432,36.32641],[-118.84445,36.32636],[-118.84455,36.32625]]}},{"type":"Feature","properties":{"name":"Avenue 356","road_class":"unclassified","surface":"dirt","source":"Caltrans All Roads + OpenStreetMap explicit surface","source_detail":"osm way 526052210; Caltrans All Roads public-network geometry match","source_tile":"173/400","public_network_source":"Caltrans All Roads (ARNOLD/HPMS)","surface_source":"OpenStreetMap explicit surface tag","caltrans_match_coverage":1.0,"verified_length_m":812},"geometry":{"type":"LineString","coordinates":[[-119.1617,36.43561],[-119.17077,36.43566]]}},{"type":"Feature","properties":{"name":"Upper Grouse Valley Road","road_class":"track","surface":"dirt","tracktype":"grade3","source":"Caltrans All Roads + OpenStreetMap explicit surface","source_detail":"osm way 809187095; Caltrans All Roads public-network geometry match","source_tile":"173/400","public_network_source":"Caltrans All Roads (ARNOLD/HPMS)","surface_source":"OpenStreetMap explicit surface tag","caltrans_match_coverage":1.0,"verified_length_m":556},"geometry":{"type":"LineString","coordinates":[[-118.84219,36.32439],[-118.84229,36.32423],[-118.84231,36.32405],[-118.84226,36.32365],[-118.84224,36.32348],[-118.84217,36.32331],[-118.84201,36.32311],[-118.84159,36.32275],[-118.84143,36.32264],[-118.84127,36.32258],[-118.84107,36.32255],[-118.84088,36.32251],[-118.84079,36.32246],[-118.84073,36.32239],[-118.84069,36.3223],[-118.84064,36.32209],[-118.8406,36.32201],[-118.84052,36.32191],[-118.84037,36.32186],[-118.84025,36.32185],[-118.83997,36.32186],[-118.83965,36.32193],[-118.83951,36.32193],[-118.83935,36.32189],[-118.83907,36.32166],[-118.83874,36.32141],[-118.83854,36.32131]]}},{"type":"Feature","properties":{"name":"(unnamed public road)","road_class":"track","surface":"unpaved","tracktype":"grade2","source":"Caltrans All Roads + OpenStreetMap explicit surface","source_detail":"osm way 946538089; Caltrans All Roads public-network geometry match","source_tile":"173/400","public_network_source":"Caltrans All Roads (ARNOLD/HPMS)","surface_source":"OpenStreetMap explicit surface tag","caltrans_match_coverage":1.0,"verified_length_m":3534},"geometry":{"type":"LineString","coordinates":[[-118.85125,36.49494],[-118.85131,36.49495],[-118.85136,36.49493],[-118.8514,36.4949],[-118.85143,36.49485],[-118.85155,36.49435],[-118.85161,36.49418],[-118.85163,36.49402],[-118.85166,36.49397],[-118.85172,36.49393],[-118.85176,36.49392],[-118.85188,36.49393],[-118.85199,36.49397],[-118.8521,36.49398],[-118.85238,36.49396],[-118.85305,36.49402],[-118.85314,36.49401],[-118.85319,36.49399],[-118.85327,36.49392],[-118.85331,36.49376],[-118.85332,36.49373],[-118.85337,36.49369],[-118.85346,36.49367],[-118.85357,36.49375],[-118.85367,36.49379],[-118.85372,36.49379],[-118.85379,36.49376],[-118.85391,36.49363],[-118.854,36.4936],[-118.85415,36.49362],[-118.85429,36.49368],[-118.8546,36.49393],[-118.85468,36.49395],[-118.85478,36.49393],[-118.85487,36.49383],[-118.855,36.49377],[-118.85507,36.49376],[-118.85528,36.49378],[-118.85536,36.49376],[-118.85538,36.49374],[-118.85539,36.49367],[-118.8552,36.49332],[-118.85516,36.49319],[-118.85517,36.49314],[-118.85518,36.49311],[-118.85527,36.49305],[-118.85534,36.49302],[-118.85563,36.49297],[-118.85569,36.49294],[-118.85591,36.49276],[-118.85603,36.49272],[-118.85629,36.49266],[-118.85633,36.49262],[-118.85638,36.49252],[-118.85642,36.49247],[-118.85669,36.49228],[-118.85689,36.49222],[-118.85703,36.49221],[-118.85716,36.49216],[-118.85722,36.49215],[-118.85739,36.49218],[-118.85743,36.49218],[-118.85767,36.49208],[-118.85773,36.49209],[-118.85785,36.49214],[-118.85792,36.49214],[-118.85804,36.49208],[-118.85833,36.4919],[-118.85842,36.49187],[-118.8585,36.49187],[-118.85855,36.49188],[-118.85863,36.49193],[-118.85877,36.49202],[-118.85888,36.49207],[-118.85911,36.49213],[-118.8595,36.49216],[-118.85972,36.49214],[-118.85977,36.49215],[-118.85981,36.49217],[-118.85998,36.4923],[-118.8601,36.49243],[-118.86021,36.49248],[-118.86026,36.49252],[-118.8603,36.49258],[-118.86042,36.49286],[-118.86043,36.49303],[-118.86045,36.49309],[-118.86067,36.4933],[-118.86072,36.49339],[-118.86074,36.49341],[-118.86078,36.49343],[-118.86085,36.49342],[-118.86097,36.49333],[-118.86107,36.4933],[-118.86112,36.4933],[-118.86135,36.49335],[-118.86169,36.49334],[-118.86175,36.49335],[-118.86183,36.49339],[-118.86187,36.49343],[-118.8619,36.49348],[-118.86194,36.49357],[-118.86198,36.49373],[-118.862,36.49382],[-118.86201,36.49416],[-118.86207,36.49441],[-118.86206,36.49453],[-118.86202,36.49464],[-118.86183,36.49483],[-118.86162,36.49509],[-118.86151,36.49529],[-118.86137,36.49546],[-118.86137,36.4955],[-118.86138,36.49558],[-118.86143,36.49565],[-118.86149,36.4957],[-118.86161,36.49579],[-118.862,36.49603],[-118.86217,36.49618],[-118.86223,36.49625],[-118.86227,36.49637],[-118.86227,36.49649],[-118.86224,36.4966],[-118.86218,36.49671],[-118.86205,36.49688],[-118.86204,36.49696],[-118.86208,36.49701],[-118.86224,36.49714],[-118.86227,36.49718],[-118.8623,36.49724],[-118.86235,36.49743],[-118.86237,36.4976],[-118.86233,36.49774],[-118.86226,36.4979],[-118.86209,36.49821],[-118.86202,36.49831],[-118.86193,36.4984],[-118.86191,36.49845],[-118.86191,36.4985],[-118.86193,36.49854],[-118.86196,36.49857],[-118.86199,36.49859],[-118.86205,36.49859],[-118.86214,36.49857],[-118.86222,36.49854],[-118.8624,36.49849],[-118.86277,36.49841],[-118.86298,36.49835],[-118.86305,36.49834],[-118.86312,36.49836],[-118.86319,36.49844],[-118.86322,36.49854],[-118.86316,36.49878],[-118.86315,36.499],[-118.86316,36.49905],[-118.86319,36.49911],[-118.86333,36.49935],[-118.8634,36.49958],[-118.86344,36.49995],[-118.86342,36.50029],[-118.86343,36.50034],[-118.86356,36.5005],[-118.86358,36.50057],[-118.86359,36.5008],[-118.86361,36.50084],[-118.86364,36.50087],[-118.86368,36.50088],[-118.86371,36.50087],[-118.86384,36.50075],[-118.86394,36.50068],[-118.864,36.50065],[-118.86411,36.50063],[-118.86418,36.50065],[-118.86422,36.50068],[-118.86426,36.50074],[-118.86445,36.50106],[-118.8645,36.5011],[-118.86459,36.50116],[-118.86465,36.50117],[-118.86473,36.50114],[-118.86478,36.50106],[-118.8648,36.50098],[-118.86485,36.50093],[-118.8649,36.50091],[-118.86496,36.5009],[-118.86509,36.50092],[-118.86528,36.50098],[-118.86538,36.50104],[-118.86543,36.50107],[-118.8655,36.50115],[-118.8657,36.50152],[-118.86575,36.50158],[-118.86584,36.50161],[-118.86599,36.50158],[-118.86607,36.50158],[-118.86612,36.50159],[-118.8662,36.50163],[-118.86627,36.50172],[-118.86633,36.50175],[-118.86637,36.50175],[-118.86654,36.50171],[-118.8666,36.5017],[-118.8667,36.50173],[-118.86713,36.50205],[-118.86732,36.50223],[-118.86745,36.50233],[-118.86774,36.50249],[-118.8679,36.50256],[-118.86799,36.50265],[-118.86805,36.50278],[-118.86808,36.50281],[-118.86815,36.50283],[-118.8682,36.50282],[-118.86835,36.50275],[-118.86843,36.50274],[-118.86853,36.50276],[-118.86861,36.50282],[-118.86878,36.50305],[-118.86887,36.50313],[-118.86897,36.50316],[-118.8691,36.50316],[-118.86917,36.50316],[-118.86925,36.50318],[-118.86945,36.50332],[-118.86962,36.5034],[-118.86981,36.50351],[-118.86987,36.50359],[-118.86988,36.50368],[-118.86983,36.50383],[-118.86983,36.50391],[-118.86991,36.50402],[-118.86995,36.50413],[-118.86998,36.50415],[-118.87003,36.50417],[-118.8703,36.50416],[-118.87067,36.50417],[-118.87073,36.50419],[-118.87076,36.50422],[-118.87088,36.50433],[-118.87094,36.50453],[-118.87104,36.50463],[-118.87106,36.50466],[-118.87107,36.50474],[-118.87105,36.50479],[-118.87103,36.50482],[-118.87098,36.50485],[-118.87094,36.50491],[-118.87094,36.50496],[-118.87097,36.505],[-118.87105,36.50502],[-118.8712,36.50501],[-118.87128,36.50499],[-118.87139,36.50493],[-118.87143,36.50493],[-118.8715,36.50493],[-118.87153,36.50495],[-118.87156,36.50497],[-118.87157,36.50502],[-118.87152,36.50515],[-118.87153,36.50527],[-118.87156,36.50531],[-118.87163,36.50531],[-118.87171,36.50525],[-118.8718,36.50521],[-118.87194,36.50519],[-118.87204,36.50518],[-118.8721,36.50519]]}},{"type":"Feature","properties":{"name":"Upper Grouse Valley Road","road_class":"track","surface":"dirt","tracktype":"grade3","source":"Caltrans All Roads + OpenStreetMap explicit surface","source_detail":"osm way 809187096; Caltrans All Roads public-network geometry match","source_tile":"174/400","public_network_source":"Caltrans All Roads (ARNOLD/HPMS)","surface_source":"OpenStreetMap explicit surface tag","caltrans_match_coverage":0.986,"verified_length_m":4713},"geometry":{"type":"LineString","coordinates":[[-118.83854,36.32131],[-118.83806,36.32116],[-118.83787,36.32114],[-118.83735,36.3212],[-118.83708,36.32119],[-118.83663,36.32113],[-118.83652,36.32107],[-118.8364,36.32095],[-118.8363,36.32088],[-118.83613,36.32084],[-118.83595,36.32077],[-118.83581,36.32067],[-118.83572,36.32056],[-118.83569,36.32046],[-118.83569,36.32026],[-118.83568,36.32018],[-118.83562,36.32007],[-118.83553,36.32],[-118.83536,36.31992],[-118.83518,36.31987],[-118.83505,36.31985],[-118.83488,36.31989],[-118.83453,36.32017],[-118.83445,36.32028],[-118.83434,36.32054],[-118.83425,36.32064],[-118.83411,36.32071],[-118.83389,36.32076],[-118.8336,36.32079],[-118.83333,36.32086],[-118.83287,36.32103],[-118.83271,36.32111],[-118.83252,36.32115],[-118.83235,36.3211],[-118.83221,36.321],[-118.83206,36.32089],[-118.83195,36.32083],[-118.83183,36.32084],[-118.8317,36.3209],[-118.83152,36.32117],[-118.8312,36.32171],[-118.83093,36.32208],[-118.83088,36.32222],[-118.83085,36.32245],[-118.83081,36.32257],[-118.83063,36.32288],[-118.83053,36.32298],[-118.83039,36.32298],[-118.83024,36.32286],[-118.83021,36.32269],[-118.83026,36.32252],[-118.83027,36.32244],[-118.83019,36.32227],[-118.82995,36.32212],[-118.82989,36.32205],[-118.82987,36.32191],[-118.82988,36.32176],[-118.82983,36.32161],[-118.82971,36.32152],[-118.82946,36.32134],[-118.8294,36.32125],[-118.82938,36.32113],[-118.82942,36.32098],[-118.82954,36.32077],[-118.82959,36.32065],[-118.82957,36.32051],[-118.82949,36.3204],[-118.82938,36.32034],[-118.82927,36.32032],[-118.8291,36.32036],[-118.82883,36.32049],[-118.82867,36.32054],[-118.82842,36.32061],[-118.82823,36.3207],[-118.82789,36.32095],[-118.82742,36.32125],[-118.82722,36.32137],[-118.82704,36.32143],[-118.82691,36.32143],[-118.82679,36.32138],[-118.8267,36.32132],[-118.82652,36.32111],[-118.82643,36.32106],[-118.82632,36.32102],[-118.82619,36.32102],[-118.82591,36.32113],[-118.82575,36.32113],[-118.82559,36.3211],[-118.82544,36.32107],[-118.82525,36.32109],[-118.82498,36.32114],[-118.82457,36.32122],[-118.82442,36.32129],[-118.82437,36.32138],[-118.82432,36.32155],[-118.82426,36.32162],[-118.82406,36.32169],[-118.82376,36.32177],[-118.82357,36.32182],[-118.82341,36.32188],[-118.82325,36.32195],[-118.82313,36.32196],[-118.82298,36.32194],[-118.82238,36.32184],[-118.82214,36.32182],[-118.82189,36.32181],[-118.82167,36.32177],[-118.82154,36.3217],[-118.82146,36.32163],[-118.8214,36.32155],[-118.82139,36.32141],[-118.8214,36.32123],[-118.82141,36.32107],[-118.8214,36.32098],[-118.82135,36.3209],[-118.82126,36.32085],[-118.82114,36.32082],[-118.82098,36.32082],[-118.82082,36.32083],[-118.82073,36.32082],[-118.82068,36.32078],[-118.82067,36.32071],[-118.8207,36.32063],[-118.82079,36.32047],[-118.82081,36.32037],[-118.82079,36.32028],[-118.82071,36.32017],[-118.82042,36.31991],[-118.82022,36.31971],[-118.8201,36.31965],[-118.81993,36.3196],[-118.8197,36.31958],[-118.81947,36.31959],[-118.81926,36.31966],[-118.81891,36.31987],[-118.8188,36.31991],[-118.81861,36.31991],[-118.81839,36.31979],[-118.81821,36.31975],[-118.81798,36.31977],[-118.81741,36.31991],[-118.81719,36.3199],[-118.81706,36.31986],[-118.81703,36.31978],[-118.81704,36.31971],[-118.81726,36.31967],[-118.8174,36.31958],[-118.81753,36.31939],[-118.81768,36.31924],[-118.81768,36.31911],[-118.81763,36.31904],[-118.81752,36.31898],[-118.81735,36.31893],[-118.81728,36.31887],[-118.81726,36.31876],[-118.81731,36.31865],[-118.81745,36.31839],[-118.81759,36.318],[-118.81764,36.31778],[-118.81777,36.31763],[-118.81784,36.31753],[-118.81787,36.31744],[-118.81785,36.3173],[-118.81777,36.31716],[-118.81767,36.31698],[-118.81745,36.31679],[-118.81728,36.31662],[-118.81714,36.31654],[-118.81702,36.3165],[-118.81684,36.3165],[-118.81664,36.31656],[-118.81596,36.31695],[-118.81584,36.31708],[-118.81573,36.31719],[-118.81561,36.31736],[-118.81554,36.31745],[-118.81546,36.31753],[-118.81536,36.31758],[-118.81524,36.31759],[-118.81509,36.31756],[-118.81493,36.31751],[-118.81479,36.3175],[-118.81455,36.3175],[-118.81407,36.31754],[-118.81354,36.31763],[-118.81348,36.31771],[-118.81347,36.31778],[-118.81354,36.31785],[-118.81395,36.31801],[-118.81404,36.31809],[-118.81407,36.31824],[-118.81405,36.31835],[-118.81397,36.3185],[-118.81376,36.31882],[-118.81367,36.31889],[-118.81345,36.31903],[-118.81318,36.31929],[-118.81297,36.31954],[-118.81292,36.31963],[-118.81293,36.31975],[-118.81311,36.32003],[-118.81312,36.32012],[-118.81308,36.32023],[-118.81301,36.32031],[-118.81285,36.32043],[-118.81261,36.32052],[-118.81217,36.32064],[-118.81203,36.32072],[-118.81196,36.32079],[-118.81197,36.32088],[-118.81204,36.32092],[-118.81218,36.32097],[-118.81225,36.32105],[-118.81224,36.32115],[-118.81218,36.32123],[-118.81199,36.32132],[-118.8118,36.32136],[-118.81164,36.32136],[-118.81152,36.3213],[-118.81145,36.32122],[-118.81141,36.32112],[-118.81141,36.32102],[-118.81148,36.32084],[-118.81151,36.32071],[-118.81157,36.32044],[-118.81168,36.32028],[-118.8118,36.32009],[-118.81186,36.31993],[-118.81195,36.31959],[-118.81204,36.31938],[-118.81215,36.31917],[-118.81216,36.31907],[-118.81211,36.31898],[-118.812,36.31891],[-118.81182,36.31886],[-118.81165,36.31885],[-118.81152,36.31888],[-118.81128,36.31903],[-118.81108,36.31913],[-118.81093,36.31918],[-118.81071,36.31922],[-118.81053,36.31917],[-118.81036,36.31908],[-118.81027,36.31898],[-118.81017,36.31882],[-118.81009,36.31867]]}},{"type":"Feature","properties":{"name":"(unnamed public road)","road_class":"unclassified","surface":"unpaved","source":"Caltrans All Roads + OpenStreetMap explicit surface","source_detail":"osm way 1169338164; Caltrans All Roads public-network geometry match","source_tile":"174/400","public_network_source":"Caltrans All Roads (ARNOLD/HPMS)","surface_source":"OpenStreetMap explicit surface tag","caltrans_match_coverage":1.0,"verified_length_m":11199},"geometry":{"type":"LineString","coordinates":[[-118.81204,36.36156],[-118.81205,36.36158],[-118.81216,36.36178],[-118.81226,36.3619],[-118.81233,36.36203],[-118.8124,36.36213],[-118.81248,36.36231],[-118.81253,36.36238],[-118.81255,36.36242],[-118.81257,36.36253],[-118.81257,36.36257],[-118.81255,36.36262],[-118.81247,36.36269],[-118.81237,36.36274],[-118.81219,36.36276],[-118.81213,36.36278],[-118.81209,36.36283],[-118.81209,36.36287],[-118.81213,36.36292],[-118.8122,36.36298],[-118.81233,36.36303],[-118.81239,36.36306],[-118.8125,36.36315],[-118.81253,36.36319],[-118.81259,36.36326],[-118.81265,36.36344],[-118.81266,36.36348],[-118.81276,36.36371],[-118.81295,36.364],[-118.81298,36.36401],[-118.81305,36.3641],[-118.81313,36.36415],[-118.81316,36.36416],[-118.81327,36.36416],[-118.81331,36.36415],[-118.81337,36.36415],[-118.81346,36.36417],[-118.81354,36.36422],[-118.8136,36.36427],[-118.81362,36.36435],[-118.81364,36.36447],[-118.81363,36.36449],[-118.81363,36.36476],[-118.81361,36.36481],[-118.81356,36.3649],[-118.81357,36.36498],[-118.81362,36.36503],[-118.81379,36.3651],[-118.8139,36.36516],[-118.81395,36.36526],[-118.81397,36.36535],[-118.81398,36.36542],[-118.81399,36.36546],[-118.81401,36.3655],[-118.81407,36.36554],[-118.81436,36.36557],[-118.81446,36.3656],[-118.8145,36.36563],[-118.81459,36.36574],[-118.8146,36.36577],[-118.81464,36.36582],[-118.81471,36.36597],[-118.8148,36.3661],[-118.81487,36.36619],[-118.81494,36.36625],[-118.81525,36.36635],[-118.81536,36.36642],[-118.81545,36.3665],[-118.81557,36.36665],[-118.81562,36.36675],[-118.81562,36.36686],[-118.81548,36.36712],[-118.81545,36.36722],[-118.81545,36.36727],[-118.81546,36.36756],[-118.81545,36.36759],[-118.81545,36.36763],[-118.81551,36.3679],[-118.81551,36.36804],[-118.8155,36.3681],[-118.81542,36.36825],[-118.81542,36.36833],[-118.81544,36.36837],[-118.81548,36.36842],[-118.81554,36.36846],[-118.81562,36.36847],[-118.81571,36.36846],[-118.81581,36.36844],[-118.81594,36.36842],[-118.81599,36.36839],[-118.81602,36.36836],[-118.81607,36.36827],[-118.81624,36.36803],[-118.8164,36.36794],[-118.81645,36.36793],[-118.81654,36.36793],[-118.8166,36.36797],[-118.81663,36.368],[-118.81667,36.36808],[-118.8167,36.36816],[-118.81671,36.36822],[-118.81674,36.36828],[-118.81676,36.3683],[-118.8168,36.36831],[-118.81689,36.36838],[-118.81694,36.36843],[-118.81702,36.36852],[-118.81705,36.3686],[-118.81706,36.36866],[-118.81706,36.36891],[-118.81707,36.36921],[-118.81709,36.36929],[-118.81712,36.36934],[-118.81726,36.3694],[-118.81738,36.36943],[-118.81745,36.36946],[-118.81749,36.36949],[-118.81752,36.36952],[-118.81753,36.36956],[-118.81751,36.36959],[-118.81749,36.3696],[-118.81741,36.3696],[-118.81726,36.36955],[-118.81695,36.36946],[-118.8169,36.36942],[-118.8168,36.36926],[-118.81671,36.36909],[-118.81668,36.36907],[-118.81663,36.36906],[-118.8166,36.36908],[-118.81659,36.36909],[-118.81659,36.36914],[-118.81667,36.36929],[-118.81669,36.36941],[-118.8167,36.36958],[-118.8167,36.3696],[-118.81673,36.36964],[-118.81677,36.36968],[-118.81691,36.36973],[-118.81703,36.36981],[-118.81728,36.37002],[-118.8174,36.37015],[-118.81748,36.37034],[-118.81753,36.37039],[-118.81757,36.37044],[-118.81763,36.37048],[-118.81773,36.37054],[-118.81777,36.37058],[-118.81784,36.37061],[-118.81791,36.37066],[-118.81792,36.37068],[-118.81793,36.37072],[-118.81792,36.37074],[-118.81791,36.37075],[-118.81784,36.37076],[-118.81769,36.37071],[-118.81752,36.37062],[-118.81737,36.37057],[-118.81727,36.3705],[-118.81714,36.37038],[-118.81705,36.37033],[-118.81696,36.37031],[-118.81694,36.37031],[-118.81681,36.37028],[-118.81654,36.37029],[-118.81638,36.37023],[-118.81629,36.37018],[-118.81619,36.37018],[-118.81617,36.37019],[-118.81613,36.37021],[-118.8161,36.37024],[-118.81606,36.37041],[-118.81603,36.37046],[-118.81594,36.37053],[-118.81587,36.37061],[-118.81585,36.37066],[-118.81571,36.37089],[-118.81569,36.37094],[-118.81567,36.37098],[-118.8156,36.37103],[-118.81543,36.37107],[-118.81535,36.37108],[-118.81529,36.37111],[-118.81523,36.37115],[-118.81515,36.37129],[-118.81507,36.37134],[-118.81503,36.37135],[-118.81495,36.37132],[-118.81486,36.37125],[-118.81474,36.37111],[-118.81457,36.37087],[-118.81448,36.37078],[-118.81444,36.37077],[-118.81437,36.37076],[-118.81433,36.37076],[-118.8143,36.37078],[-118.81427,36.37082],[-118.81427,36.37086],[-118.8143,36.37093],[-118.81442,36.37106],[-118.81449,36.37116],[-118.81456,36.37136],[-118.81463,36.37147],[-118.81475,36.37157],[-118.81481,36.37163],[-118.81482,36.37167],[-118.81481,36.37169],[-118.81477,36.37171],[-118.81471,36.37171],[-118.81467,36.3717],[-118.81463,36.37168],[-118.81451,36.37158],[-118.81437,36.37148],[-118.81429,36.37146],[-118.81421,36.37144],[-118.81413,36.37145],[-118.81406,36.37149],[-118.81401,36.37153],[-118.81398,36.3716],[-118.81398,36.3717],[-118.81401,36.37182],[-118.81407,36.37193],[-118.8141,36.37208],[-118.81411,36.37219],[-118.81409,36.37226],[-118.81404,36.37233],[-118.814,36.37235],[-118.81392,36.37237],[-118.81381,36.37237],[-118.81371,36.37242],[-118.81363,36.37256],[-118.81358,36.37262],[-118.81353,36.37263],[-118.81345,36.37263],[-118.81335,36.37259],[-118.8132,36.37251],[-118.81316,36.3725],[-118.81297,36.37251],[-118.81287,36.37249],[-118.81274,36.37244],[-118.81266,36.3724],[-118.81246,36.37222],[-118.8124,36.37219],[-118.81233,36.37217],[-118.81225,36.37216],[-118.81216,36.37216],[-118.81198,36.3722],[-118.81181,36.37225],[-118.81173,36.37228],[-118.81162,36.37236],[-118.81158,36.3724],[-118.81147,36.37247],[-118.8114,36.37254],[-118.81138,36.37258],[-118.81126,36.37272],[-118.81122,36.37279],[-118.81115,36.37289],[-118.81112,36.37291],[-118.81106,36.37294],[-118.81102,36.37295],[-118.81099,36.37294],[-118.81091,36.3729],[-118.81074,36.37272],[-118.81071,36.37271],[-118.81065,36.37272],[-118.81061,36.37275],[-118.81062,36.3728],[-118.8107,36.37293],[-118.81083,36.37306],[-118.81088,36.3731],[-118.81093,36.37312],[-118.81098,36.37314],[-118.81106,36.37314],[-118.81117,36.3731],[-118.81129,36.37304],[-118.8114,36.37296],[-118.81147,36.37288],[-118.81152,36.37284],[-118.81155,36.37281],[-118.81164,36.37274],[-118.81168,36.37272],[-118.81176,36.37271],[-118.81187,36.37271],[-118.81194,36.37274],[-118.81202,36.37282],[-118.81209,36.37297],[-118.81215,36.37306],[-118.81226,36.37317],[-118.81242,36.3733],[-118.81255,36.37337],[-118.81289,36.37357],[-118.81308,36.3737],[-118.81314,36.37376],[-118.81327,36.37395],[-118.81329,36.37401],[-118.81347,36.37428],[-118.81349,36.37432],[-118.81349,36.37438],[-118.81346,36.37443],[-118.81341,36.37449],[-118.81305,36.37477],[-118.81299,36.3748],[-118.81283,36.37486],[-118.81261,36.37488],[-118.81252,36.3749],[-118.81243,36.37494],[-118.81237,36.37499],[-118.81236,36.37503],[-118.81236,36.37511],[-118.81237,36.37515],[-118.81249,36.37541],[-118.81251,36.37553],[-118.81249,36.37567],[-118.81243,36.37581],[-118.81236,36.37591],[-118.81236,36.37597],[-118.81239,36.37603],[-118.81247,36.37615],[-118.81261,36.37632],[-118.81268,36.37645],[-118.8127,36.37653],[-118.81273,36.3767],[-118.81273,36.37684],[-118.81274,36.37689],[-118.81279,36.37696],[-118.81283,36.37707],[-118.81286,36.37718],[-118.81288,36.37737],[-118.81288,36.3775],[-118.81279,36.37771],[-118.81275,36.37782],[-118.81274,36.37788],[-118.81272,36.37792],[-118.81269,36.37799],[-118.81263,36.37808],[-118.81264,36.37813],[-118.81266,36.37819],[-118.81273,36.37827],[-118.81278,36.37832],[-118.81285,36.3784],[-118.81289,36.37849],[-118.81289,36.37859],[-118.81286,36.37871],[-118.81283,36.37884],[-118.81283,36.37902],[-118.81279,36.37912],[-118.81276,36.37915],[-118.81269,36.3792],[-118.81264,36.37922],[-118.81258,36.37922],[-118.81247,36.37921],[-118.81228,36.37917],[-118.81225,36.37917],[-118.81216,36.37921],[-118.81211,36.37926],[-118.8121,36.37931],[-118.81208,36.37933],[-118.81206,36.37943],[-118.81198,36.37958],[-118.81192,36.37964],[-118.81187,36.37967],[-118.81181,36.37969],[-118.81172,36.37969],[-118.81162,36.37966],[-118.81153,36.37959],[-118.81142,36.37948],[-118.81137,36.37945],[-118.81128,36.37942],[-118.811,36.37942],[-118.81087,36.37941],[-118.81066,36.37933],[-118.81054,36.3793],[-118.81004,36.37934],[-118.80987,36.37933],[-118.80973,36.37931],[-118.80965,36.3793],[-118.80958,36.37934],[-118.80954,36.37937],[-118.80952,36.37945],[-118.80952,36.37948],[-118.80956,36.37962],[-118.80961,36.3798],[-118.80969,36.37991],[-118.80977,36.37996],[-118.80984,36.38002],[-118.80987,36.38008],[-118.8099,36.38016],[-118.80992,36.38023],[-118.80992,36.38033],[-118.80991,36.38035],[-118.8099,36.38045],[-118.80991,36.38051],[-118.80995,36.38066],[-118.80995,36.38072],[-118.80991,36.38079],[-118.8099,36.38084],[-118.80992,36.38091],[-118.80995,36.38094],[-118.81016,36.38105],[-118.81027,36.38116],[-118.8103,36.38122],[-118.81034,36.38138],[-118.81037,36.38143],[-118.81049,36.38156],[-118.81056,36.3817],[-118.81057,36.38175],[-118.81063,36.38191],[-118.81065,36.38207],[-118.81065,36.38215],[-118.81064,36.38222],[-118.81059,36.38231],[-118.81055,36.38235],[-118.81043,36.38243],[-118.81029,36.38248],[-118.81022,36.38249],[-118.80994,36.38248],[-118.80987,36.3825],[-118.80981,36.38255],[-118.80973,36.38258],[-118.80963,36.38259],[-118.80941,36.38256],[-118.80921,36.38251],[-118.80913,36.38252],[-118.80909,36.38253],[-118.80904,36.38257],[-118.80901,36.38264],[-118.80894,36.38289],[-118.80892,36.383],[-118.80893,36.38306],[-118.80898,36.38319],[-118.80913,36.38335],[-118.80916,36.38342],[-118.80916,36.38349],[-118.80915,36.38355],[-118.80906,36.38368],[-118.80893,36.38382],[-118.80881,36.3839],[-118.80866,36.38405],[-118.80865,36.38411],[-118.80866,36.38412],[-118.8087,36.38415],[-118.80876,36.38417],[-118.80887,36.38419],[-118.80905,36.38419],[-118.80912,36.38418],[-118.80934,36.38408],[-118.80948,36.38405],[-118.80953,36.38405],[-118.80961,36.38405],[-118.80969,36.3841],[-118.80973,36.38415],[-118.80973,36.38421],[-118.80971,36.38435],[-118.80974,36.38441],[-118.80983,36.38445],[-118.80991,36.38446],[-118.81008,36.3845],[-118.81024,36.38461],[-118.81033,36.3847],[-118.81036,36.38478],[-118.81037,36.38486],[-118.81032,36.38497],[-118.81028,36.38509],[-118.81016,36.38531],[-118.81016,36.38539],[-118.8102,36.38547],[-118.81033,36.38559],[-118.81037,36.38561],[-118.81041,36.38564],[-118.81062,36.38574],[-118.81067,36.38575],[-118.81081,36.38575],[-118.811,36.38572],[-118.81105,36.38573],[-118.81109,36.38576],[-118.81112,36.38579],[-118.81114,36.38591],[-118.81118,36.38598],[-118.81122,36.386],[-118.81128,36.386],[-118.81136,36.38597],[-118.81148,36.3859],[-118.81168,36.38589],[-118.81173,36.3859],[-118.81182,36.38593],[-118.81186,36.38595],[-118.81189,36.38599],[-118.81198,36.38603],[-118.81208,36.38617],[-118.81212,36.38629],[-118.81214,36.38633],[-118.81218,36.38636],[-118.81226,36.3864],[-118.81239,36.3864],[-118.81256,36.38634],[-118.81271,36.38634],[-118.81295,36.38641],[-118.81302,36.38646],[-118.81305,36.3865],[-118.8131,36.38657],[-118.81313,36.38661],[-118.81337,36.38681],[-118.81342,36.38684],[-118.81352,36.38686],[-118.81365,36.38693],[-118.81373,36.38699],[-118.81398,36.38729],[-118.81413,36.38749],[-118.81417,36.38765],[-118.81418,36.38786],[-118.81423,36.38799],[-118.81423,36.38808],[-118.81427,36.38815],[-118.81435,36.38819],[-118.81441,36.38819],[-118.8145,36.38817],[-118.81459,36.38813],[-118.81472,36.38807],[-118.81475,36.38804],[-118.81487,36.38798],[-118.81493,36.38797],[-118.81497,36.38796],[-118.81513,36.38797],[-118.81517,36.388],[-118.8152,36.38803],[-118.8152,36.38807],[-118.81518,36.38813],[-118.81512,36.3882],[-118.81508,36.38827],[-118.81502,36.38837],[-118.81496,36.38851],[-118.81488,36.38859],[-118.81486,36.38863],[-118.81482,36.38875],[-118.81482,36.38879],[-118.81485,36.38883],[-118.81495,36.38885],[-118.815,36.38884],[-118.81507,36.38874],[-118.81523,36.38865],[-118.81528,36.38863],[-118.81554,36.38858],[-118.81564,36.38857],[-118.81589,36.38857],[-118.8161,36.38856],[-118.8162,36.38855],[-118.81625,36.38853],[-118.81643,36.38852],[-118.81661,36.38846],[-118.81676,36.38845],[-118.81696,36.38842],[-118.81714,36.38837],[-118.81731,36.38835],[-118.81735,36.38834],[-118.8176,36.38834],[-118.81769,36.38836],[-118.81777,36.3884],[-118.81782,36.38847],[-118.81786,36.38855],[-118.81787,36.38863],[-118.81786,36.38872],[-118.81784,36.38875],[-118.81776,36.38883],[-118.81764,36.38889],[-118.81731,36.38903],[-118.81709,36.3891],[-118.81702,36.38914],[-118.81693,36.38917],[-118.81693,36.38918],[-118.81677,36.38926],[-118.8167,36.38932],[-118.81655,36.38942],[-118.81635,36.38961],[-118.81633,36.38965],[-118.81615,36.38988],[-118.816,36.39001],[-118.81598,36.39005],[-118.81598,36.39013],[-118.81603,36.39017],[-118.8161,36.39018],[-118.81625,36.39018],[-118.81634,36.3902],[-118.8165,36.39021],[-118.81656,36.3902],[-118.81671,36.39014],[-118.81682,36.39013],[-118.81689,36.39014],[-118.81698,36.39017],[-118.81703,36.39018],[-118.8171,36.39019],[-118.81727,36.39021],[-118.81758,36.3902],[-118.8179,36.39022],[-118.81808,36.39027],[-118.81828,36.39031],[-118.81837,36.39035],[-118.8184,36.39037],[-118.81856,36.39042],[-118.81871,36.39042],[-118.81875,36.39043],[-118.81883,36.39043],[-118.81909,36.39049],[-118.81915,36.39049],[-118.81923,36.39052],[-118.81944,36.39053],[-118.81956,36.39055],[-118.81965,36.3906],[-118.81972,36.39066],[-118.81982,36.39079],[-118.81992,36.39084],[-118.82013,36.39084],[-118.82033,36.39086],[-118.82045,36.3909],[-118.82052,36.39095],[-118.82059,36.391],[-118.8208,36.39123],[-118.82093,36.39138],[-118.82096,36.39144],[-118.82104,36.39152],[-118.82106,36.39153],[-118.82115,36.39155],[-118.8213,36.39162],[-118.82146,36.39176],[-118.82157,36.39182],[-118.8217,36.39191],[-118.82194,36.39216],[-118.82201,36.39223],[-118.82208,36.39231],[-118.82217,36.39246],[-118.8222,36.39254],[-118.82221,36.39265],[-118.82223,36.39278],[-118.82224,36.39303],[-118.82226,36.39311],[-118.82232,36.39322],[-118.82232,36.39331],[-118.82235,36.39343],[-118.82235,36.39351],[-118.82237,36.39355],[-118.82236,36.39377],[-118.82232,36.39386],[-118.8223,36.39396],[-118.82231,36.39405],[-118.82243,36.39418],[-118.82247,36.3942],[-118.82252,36.39426],[-118.8226,36.39436],[-118.82262,36.3944],[-118.82262,36.39455],[-118.8226,36.39464],[-118.82257,36.3947],[-118.82252,36.39477],[-118.82242,36.39484],[-118.8224,36.39487],[-118.82236,36.39489],[-118.82228,36.39493],[-118.82189,36.39508],[-118.82185,36.39511],[-118.82184,36.39514],[-118.82186,36.39518],[-118.8219,36.39522],[-118.82224,36.39541],[-118.82237,36.3955],[-118.82246,36.39566],[-118.82252,36.39583],[-118.82253,36.39602],[-118.82252,36.3961],[-118.8225,36.39615],[-118.82244,36.39621],[-118.82243,36.39623],[-118.82243,36.39629],[-118.82244,36.39633],[-118.82249,36.39638],[-118.82254,36.39642],[-118.8227,36.39657],[-118.82272,36.39671],[-118.82272,36.39703],[-118.82276,36.39723],[-118.8228,36.39731],[-118.82286,36.39746],[-118.82288,36.39756],[-118.82293,36.39773],[-118.82294,36.39781],[-118.82309,36.39812],[-118.82318,36.39843],[-118.82323,36.39857],[-118.82328,36.39874],[-118.82334,36.39892],[-118.8234,36.39899],[-118.82353,36.3992],[-118.82357,36.39935],[-118.82365,36.39945],[-118.82365,36.39946],[-118.82372,36.3995],[-118.82377,36.39951],[-118.82387,36.3995],[-118.82391,36.39948],[-118.82409,36.39935],[-118.82413,36.39929],[-118.82433,36.39911],[-118.8245,36.39885],[-118.82454,36.39883],[-118.82461,36.39876],[-118.82468,36.39871],[-118.82479,36.3986],[-118.82485,36.39852],[-118.82492,36.3983],[-118.82496,36.39822],[-118.82498,36.3981],[-118.82507,36.39791],[-118.82508,36.39788],[-118.82512,36.39779],[-118.82527,36.39755],[-118.82536,36.39746],[-118.82544,36.39742],[-118.82559,36.39731],[-118.82564,36.39719],[-118.82564,36.39715],[-118.82563,36.39712],[-118.82557,36.39702],[-118.82552,36.39697],[-118.82551,36.39693],[-118.82551,36.39688],[-118.82553,36.39681],[-118.82561,36.39673],[-118.82564,36.3967],[-118.82614,36.39634],[-118.82623,36.3963],[-118.8263,36.39628],[-118.82653,36.39626],[-118.82699,36.39625],[-118.82713,36.3963],[-118.82719,36.39634],[-118.82726,36.3964],[-118.82728,36.39644],[-118.82729,36.39648],[-118.82729,36.39652],[-118.82726,36.39655],[-118.82718,36.39658],[-118.82713,36.39658],[-118.82696,36.39648],[-118.82689,36.39647],[-118.82673,36.39647],[-118.82663,36.39651],[-118.82656,36.39655],[-118.82653,36.39661],[-118.82651,36.39671],[-118.8265,36.39677],[-118.82651,36.39683],[-118.82656,36.39697],[-118.8266,36.39706],[-118.82677,36.39727],[-118.82682,36.39737],[-118.82685,36.39749],[-118.82683,36.39755],[-118.82675,36.39776],[-118.82672,36.39782],[-118.82668,36.39787],[-118.82664,36.3979],[-118.82648,36.39798],[-118.8264,36.39801],[-118.82626,36.3981],[-118.82615,36.39823],[-118.82612,36.39836],[-118.82611,36.39854],[-118.82611,36.39862],[-118.82613,36.39868],[-118.82616,36.39872],[-118.82625,36.39891],[-118.82631,36.39898],[-118.82635,36.39902],[-118.82637,36.39914],[-118.82632,36.39931],[-118.82632,36.39935],[-118.82633,36.39941],[-118.82637,36.39944],[-118.82641,36.39947],[-118.82644,36.3995],[-118.82661,36.39961],[-118.82667,36.39969],[-118.8267,36.39976],[-118.82666,36.39983],[-118.8266,36.39986],[-118.82651,36.39987],[-118.82636,36.39993],[-118.82633,36.39997],[-118.82628,36.40016],[-118.82623,36.40031],[-118.82602,36.40048],[-118.82589,36.40061],[-118.82587,36.40065],[-118.82586,36.40079],[-118.82588,36.40086],[-118.8259,36.40103],[-118.82593,36.4011],[-118.82597,36.40116],[-118.826,36.40122],[-118.82596,36.40138],[-118.82593,36.40146],[-118.82589,36.40152],[-118.82589,36.4016],[-118.82607,36.40204],[-118.82609,36.40217],[-118.82608,36.40226],[-118.82604,36.40236],[-118.82601,36.40242],[-118.82596,36.40256],[-118.82595,36.40264],[-118.82589,36.40271],[-118.82582,36.40275],[-118.82573,36.40278],[-118.82564,36.40277],[-118.82548,36.4027],[-118.82542,36.40266],[-118.82531,36.40263],[-118.82523,36.40268],[-118.82515,36.40274],[-118.82512,36.4028],[-118.82509,36.40288],[-118.82506,36.40291],[-118.825,36.40308],[-118.825,36.40321],[-118.82508,36.40339],[-118.82508,36.40344],[-118.82504,36.40353],[-118.82502,36.4036],[-118.82502,36.40383],[-118.82501,36.40387],[-118.825,36.40408],[-118.82498,36.40417],[-118.82492,36.40422],[-118.82481,36.40426],[-118.82474,36.40426],[-118.82461,36.40425],[-118.82438,36.40425],[-118.82434,36.40426],[-118.82429,36.40428],[-118.82423,36.40431],[-118.82421,36.40434],[-118.82421,36.40436],[-118.82423,36.4044],[-118.82426,36.40442],[-118.82428,36.40442],[-118.82454,36.40436],[-118.82499,36.40435],[-118.82511,36.40433],[-118.82515,36.40431],[-118.8252,36.40427],[-118.82522,36.40419],[-118.82527,36.4039],[-118.82532,36.4038],[-118.82539,36.40374],[-118.82549,36.40369],[-118.82552,36.40368],[-118.82561,36.40358],[-118.82569,36.40339],[-118.82571,36.40337],[-118.82577,36.40334],[-118.82586,36.40331],[-118.82599,36.40329],[-118.82611,36.40328],[-118.82624,36.40333],[-118.82639,36.40343],[-118.82646,36.40344],[-118.82652,36.40344],[-118.82656,36.40342],[-118.82659,36.40338],[-118.82663,36.40324],[-118.82667,36.40317],[-118.82668,36.40316],[-118.82673,36.40314],[-118.82683,36.40306],[-118.82688,36.403],[-118.82687,36.40283],[-118.82693,36.4027],[-118.82696,36.40265],[-118.82697,36.40261],[-118.82718,36.40237],[-118.82723,36.4023],[-118.82725,36.40226],[-118.82727,36.40214],[-118.82728,36.40205],[-118.82729,36.40195],[-118.82726,36.40178],[-118.82726,36.40171],[-118.82735,36.40149],[-118.82737,36.40143],[-118.8274,36.40134],[-118.82748,36.40124],[-118.82752,36.40121],[-118.82758,36.4012],[-118.82764,36.40121],[-118.82766,36.40122],[-118.82767,36.40126],[-118.82768,36.40135],[-118.82759,36.40152],[-118.82752,36.40175],[-118.8275,36.40225],[-118.82747,36.4024],[-118.82745,36.4025],[-118.82743,36.40271],[-118.82742,36.40275],[-118.82742,36.40289],[-118.8274,36.40293],[-118.82742,36.40313],[-118.8274,36.40318],[-118.82734,36.40326],[-118.82733,36.40332],[-118.82733,36.40334],[-118.82737,36.40339],[-118.82738,36.40345],[-118.82736,36.40355],[-118.82737,36.40361],[-118.82747,36.40372],[-118.82747,36.40377],[-118.82743,36.40383],[-118.82742,36.40391],[-118.82746,36.40397],[-118.82762,36.40413],[-118.82766,36.40423],[-118.82765,36.40431],[-118.82761,36.40435],[-118.82757,36.40436],[-118.82733,36.40437],[-118.82715,36.40441],[-118.82703,36.40445],[-118.82694,36.40447],[-118.82682,36.40453],[-118.82677,36.40456],[-118.82675,36.40459],[-118.82674,36.40467],[-118.82678,36.40477],[-118.82686,36.40486],[-118.82695,36.40494],[-118.82706,36.40502],[-118.82714,36.40506],[-118.82723,36.40508],[-118.82735,36.4051],[-118.82745,36.40511],[-118.82758,36.40509],[-118.82763,36.4051],[-118.82766,36.40512],[-118.82769,36.40517],[-118.82771,36.40522],[-118.8277,36.40527],[-118.82765,36.40533],[-118.82758,36.40538],[-118.82747,36.40545],[-118.82744,36.40548],[-118.82741,36.40558],[-118.82742,36.40568],[-118.82745,36.40576],[-118.8275,36.40586],[-118.82761,36.40604],[-118.82766,36.40625],[-118.8277,36.40635],[-118.82774,36.4064],[-118.8278,36.40643],[-118.828,36.40648],[-118.82804,36.40653],[-118.82805,36.40655],[-118.82802,36.40662],[-118.82796,36.4067],[-118.82791,36.40679],[-118.82789,36.40686],[-118.82789,36.4069],[-118.82793,36.40701],[-118.82803,36.4072],[-118.82812,36.4073],[-118.82827,36.40742],[-118.82829,36.40746],[-118.8283,36.40748],[-118.82829,36.40751],[-118.82826,36.40758],[-118.82818,36.40772]]}}]}