{"type":"FeatureCollection","features":[{"type":"Feature","properties":{"name":"Imperial Road","road_class":"unclassified","surface":"unpaved","source":"Caltrans All Roads + OpenStreetMap explicit surface","source_detail":"osm way 10431902; Caltrans All Roads public-network geometry match","source_tile":"173/404","public_network_source":"Caltrans All Roads (ARNOLD/HPMS)","surface_source":"OpenStreetMap explicit surface tag","caltrans_match_coverage":1.0,"verified_length_m":1599},"geometry":{"type":"LineString","coordinates":[[-119.10048,35.4704],[-119.10051,35.46933],[-119.10062,35.4691],[-119.10067,35.46318],[-119.10062,35.45595]]}},{"type":"Feature","properties":{"name":"Snow Road","road_class":"track","surface":"unpaved","source":"Caltrans All Roads + OpenStreetMap explicit surface","source_detail":"osm way 160419951; Caltrans All Roads public-network geometry match","source_tile":"173/404","public_network_source":"Caltrans All Roads (ARNOLD/HPMS)","surface_source":"OpenStreetMap explicit surface tag","caltrans_match_coverage":1.0,"verified_length_m":2360},"geometry":{"type":"LineString","coordinates":[[-119.15439,35.427],[-119.15886,35.42701],[-119.16331,35.42702],[-119.16774,35.42703],[-119.17208,35.42705],[-119.18041,35.42705]]}},{"type":"Feature","properties":{"name":"Imperial Avenue","road_class":"unclassified","surface":"unpaved","source":"Caltrans All Roads + OpenStreetMap explicit surface","source_detail":"osm way 10410107; Caltrans All Roads public-network geometry match","source_tile":"173/404","public_network_source":"Caltrans All Roads (ARNOLD/HPMS)","surface_source":"OpenStreetMap explicit surface tag","caltrans_match_coverage":1.0,"verified_length_m":1632},"geometry":{"type":"LineString","coordinates":[[-119.10062,35.45595],[-119.10046,35.45595],[-119.09844,35.45593],[-119.09822,35.45592],[-119.09821,35.45592],[-119.09603,35.45592],[-119.09387,35.45593],[-119.09166,35.4559],[-119.08979,35.45588],[-119.08939,35.45588],[-119.08716,35.45588],[-119.08495,35.45587],[-119.0827,35.45588],[-119.08262,35.45587]]}},{"type":"Feature","properties":{"name":"Sherman Road","road_class":"track","surface":"dirt","tracktype":"grade4","source":"Caltrans All Roads + OpenStreetMap explicit surface","source_detail":"osm way 10411184; Caltrans All Roads public-network geometry match","source_tile":"173/404","public_network_source":"Caltrans All Roads (ARNOLD/HPMS)","surface_source":"OpenStreetMap explicit surface tag","caltrans_match_coverage":1.0,"verified_length_m":545},"geometry":{"type":"LineString","coordinates":[[-118.90983,35.28651],[-118.90981,35.28352],[-118.90977,35.2834],[-118.90977,35.28158]]}},{"type":"Feature","properties":{"name":"Malaga Road","road_class":"track","surface":"unpaved","source":"Caltrans All Roads + OpenStreetMap explicit surface","source_detail":"osm way 10414235; Caltrans All Roads public-network geometry match","source_tile":"173/404","public_network_source":"Caltrans All Roads (ARNOLD/HPMS)","surface_source":"OpenStreetMap explicit surface tag","caltrans_match_coverage":1.0,"verified_length_m":3223},"geometry":{"type":"LineString","coordinates":[[-118.86022,35.1798],[-118.86024,35.1811],[-118.86013,35.18708],[-118.86007,35.19436],[-118.86016,35.20896]]}},{"type":"Feature","properties":{"name":"South Allen Road","road_class":"track","surface":"ground","source":"Caltrans All Roads + OpenStreetMap explicit surface","source_detail":"osm way 10420520; Caltrans All Roads public-network geometry match","source_tile":"173/404","public_network_source":"Caltrans All Roads (ARNOLD/HPMS)","surface_source":"OpenStreetMap explicit surface tag","caltrans_match_coverage":1.0,"verified_length_m":821},"geometry":{"type":"LineString","coordinates":[[-119.14587,35.29622],[-119.14592,35.28879]]}},{"type":"Feature","properties":{"name":"Renfro Road","road_class":"track","surface":"unpaved","tracktype":"grade4","source":"Caltrans All Roads + OpenStreetMap explicit surface","source_detail":"osm way 10433960; Caltrans All Roads public-network geometry match","source_tile":"173/404","public_network_source":"Caltrans All Roads (ARNOLD/HPMS)","surface_source":"OpenStreetMap explicit surface tag","caltrans_match_coverage":1.0,"verified_length_m":907},"geometry":{"type":"LineString","coordinates":[[-119.15408,35.43512],[-119.15435,35.43486],[-119.15436,35.43423],[-119.15444,35.42719],[-119.15439,35.427]]}},{"type":"Feature","properties":{"name":"Habecker Road","road_class":"track","surface":"unpaved","source":"Caltrans All Roads + OpenStreetMap explicit surface","source_detail":"osm way 10441554; Caltrans All Roads public-network geometry match","source_tile":"173/404","public_network_source":"Caltrans All Roads (ARNOLD/HPMS)","surface_source":"OpenStreetMap explicit surface tag","caltrans_match_coverage":1.0,"verified_length_m":756},"geometry":{"type":"LineString","coordinates":[[-118.9053,35.28844],[-118.90534,35.2816]]}},{"type":"Feature","properties":{"name":"Casa Loma Drive","road_class":"track","surface":"unpaved","source":"Caltrans All Roads + OpenStreetMap explicit surface","source_detail":"osm way 185395178; Caltrans All Roads public-network geometry match","source_tile":"173/404","public_network_source":"Caltrans All Roads (ARNOLD/HPMS)","surface_source":"OpenStreetMap explicit surface tag","caltrans_match_coverage":1.0,"verified_length_m":818},"geometry":{"type":"LineString","coordinates":[[-118.9855,35.33948],[-118.98107,35.33952],[-118.98086,35.33943],[-118.98069,35.33933],[-118.98059,35.33932],[-118.98048,35.33934],[-118.97925,35.33938],[-118.97855,35.33939],[-118.97798,35.33945],[-118.97744,35.33939],[-118.97719,35.33943],[-118.97703,35.33946],[-118.97685,35.33946],[-118.9766,35.33939]]}},{"type":"Feature","properties":{"name":"(unnamed public road)","road_class":"track","surface":"compacted","source":"Caltrans All Roads + OpenStreetMap explicit surface","source_detail":"osm way 1150273101; Caltrans All Roads public-network geometry match","source_tile":"173/404","public_network_source":"Caltrans All Roads (ARNOLD/HPMS)","surface_source":"OpenStreetMap explicit surface tag","caltrans_match_coverage":0.907,"verified_length_m":795},"geometry":{"type":"LineString","coordinates":[[-118.85594,35.34004],[-118.85594,35.34102],[-118.85599,35.34108],[-118.85918,35.34186],[-118.86058,35.34216],[-118.86067,35.34215],[-118.86074,35.34207],[-118.86075,35.34003]]}},{"type":"Feature","properties":{"name":"Habecker Road","road_class":"track","surface":"unpaved","source":"Caltrans All Roads + OpenStreetMap explicit surface","source_detail":"osm way 1447490174; Caltrans All Roads public-network geometry match","source_tile":"173/404","public_network_source":"Caltrans All Roads (ARNOLD/HPMS)","surface_source":"OpenStreetMap explicit surface tag","caltrans_match_coverage":1.0,"verified_length_m":816},"geometry":{"type":"LineString","coordinates":[[-118.90536,35.27436],[-118.90537,35.27068],[-118.90538,35.26716],[-118.90529,35.26699]]}}]}