{"type":"FeatureCollection","features":[{"type":"Feature","properties":{"name":"Houser Avenue","road_class":"track","surface":"gravel","source":"Caltrans All Roads + OpenStreetMap explicit surface","source_detail":"osm way 10424898; Caltrans All Roads public-network geometry match","source_tile":"173/406","public_network_source":"Caltrans All Roads (ARNOLD/HPMS)","surface_source":"OpenStreetMap explicit surface tag","caltrans_match_coverage":1.0,"verified_length_m":1066},"geometry":{"type":"LineString","coordinates":[[-118.88362,34.82918],[-118.88318,34.8292],[-118.88286,34.8291],[-118.88273,34.82893],[-118.88266,34.82865],[-118.88256,34.8286],[-118.88243,34.82863],[-118.88234,34.82892],[-118.88224,34.82937],[-118.88215,34.82944],[-118.88202,34.82939],[-118.88152,34.82913],[-118.88059,34.82916],[-118.88052,34.82908],[-118.8805,34.8287],[-118.88038,34.8286],[-118.87855,34.82859],[-118.87705,34.82853],[-118.87622,34.82857],[-118.87387,34.82857],[-118.87382,34.82853]]}},{"type":"Feature","properties":{"name":"Burbank Road","road_class":"track","surface":"unpaved","tracktype":"grade2","source":"Caltrans All Roads + OpenStreetMap explicit surface","source_detail":"osm way 10434082; Caltrans All Roads public-network geometry match","source_tile":"173/406","public_network_source":"Caltrans All Roads (ARNOLD/HPMS)","surface_source":"OpenStreetMap explicit surface tag","caltrans_match_coverage":1.0,"verified_length_m":1276},"geometry":{"type":"LineString","coordinates":[[-119.08315,34.83189],[-119.08303,34.83184],[-119.08291,34.83175],[-119.08275,34.83167],[-119.08265,34.83165],[-119.08249,34.83165],[-119.08178,34.83173],[-119.08171,34.83173],[-119.08165,34.8317],[-119.08162,34.83168],[-119.08161,34.83162],[-119.08162,34.83158],[-119.08166,34.8315],[-119.08174,34.83141],[-119.08181,34.83135],[-119.0819,34.83131],[-119.082,34.83127],[-119.0821,34.83124],[-119.08218,34.83119],[-119.08224,34.83115],[-119.08228,34.8311],[-119.08229,34.83104],[-119.08229,34.83097],[-119.08226,34.83091],[-119.08221,34.83085],[-119.08216,34.8308],[-119.08153,34.83033],[-119.08145,34.83025],[-119.08143,34.8302],[-119.08144,34.83014],[-119.0815,34.83007],[-119.08159,34.83],[-119.08169,34.82996],[-119.08185,34.82989],[-119.08199,34.82985],[-119.08208,34.82985],[-119.08234,34.82984],[-119.08242,34.82983],[-119.08248,34.82981],[-119.08254,34.82976],[-119.08258,34.82971],[-119.0826,34.82965],[-119.08261,34.82959],[-119.08259,34.82951],[-119.08255,34.82942],[-119.08249,34.82933],[-119.08242,34.82925],[-119.08228,34.82916],[-119.08208,34.82901],[-119.08199,34.82896],[-119.08187,34.82892],[-119.08163,34.82887],[-119.08134,34.82879],[-119.0813,34.82878],[-119.08111,34.82869],[-119.0807,34.82846],[-119.08061,34.8284],[-119.08046,34.82829],[-119.0803,34.82819],[-119.08021,34.82814],[-119.08006,34.8281],[-119.07992,34.8281],[-119.07982,34.82812],[-119.07974,34.82815],[-119.07952,34.82828],[-119.07917,34.82855],[-119.07898,34.82869],[-119.07877,34.82883],[-119.07852,34.82899],[-119.07801,34.82934],[-119.07771,34.82959],[-119.07745,34.82978],[-119.07721,34.82996],[-119.07701,34.83005],[-119.07658,34.83027],[-119.07598,34.8305]]}},{"type":"Feature","properties":{"name":"FR 9N01","road_class":"track","surface":"unpaved","source":"Caltrans All Roads + OpenStreetMap explicit surface","source_detail":"osm way 10437247; Caltrans All Roads public-network geometry match","source_tile":"173/406","public_network_source":"Caltrans All Roads (ARNOLD/HPMS)","surface_source":"OpenStreetMap explicit surface tag","caltrans_match_coverage":1.0,"verified_length_m":1812},"geometry":{"type":"LineString","coordinates":[[-118.94028,34.82389],[-118.93998,34.82385],[-118.93962,34.82384],[-118.93832,34.82386],[-118.93782,34.82395],[-118.93749,34.82405],[-118.93689,34.82417],[-118.93675,34.8241],[-118.93654,34.82384],[-118.93616,34.82354],[-118.93569,34.82296],[-118.93546,34.82286],[-118.93533,34.82285],[-118.93508,34.82303],[-118.93487,34.82317],[-118.93452,34.82316],[-118.93441,34.82325],[-118.93437,34.82338],[-118.93432,34.82363],[-118.93427,34.8239],[-118.93444,34.82408],[-118.93451,34.82426],[-118.93467,34.82443],[-118.9347,34.82456],[-118.93466,34.82468],[-118.93476,34.82494],[-118.93469,34.82517],[-118.93482,34.82561],[-118.93516,34.82612],[-118.93525,34.82647],[-118.93514,34.82664],[-118.93483,34.82677],[-118.93475,34.82687],[-118.93475,34.82701],[-118.93487,34.82727],[-118.93483,34.82739],[-118.93469,34.82755],[-118.93472,34.8277],[-118.93504,34.82802],[-118.9351,34.8283],[-118.93524,34.82842],[-118.93549,34.82846],[-118.93559,34.82853],[-118.93601,34.82905],[-118.936,34.82964],[-118.93587,34.82993],[-118.93522,34.83043],[-118.9352,34.83064],[-118.93525,34.83074],[-118.93542,34.831],[-118.93547,34.83118],[-118.93544,34.83136],[-118.93465,34.83255]]}},{"type":"Feature","properties":{"name":"Cougar Trail","road_class":"track","surface":"unpaved","tracktype":"grade3","motor_vehicle":"yes","source":"Caltrans All Roads + OpenStreetMap explicit surface","source_detail":"osm way 10714864; Caltrans All Roads public-network geometry match","source_tile":"173/406","public_network_source":"Caltrans All Roads (ARNOLD/HPMS)","surface_source":"OpenStreetMap explicit surface tag","caltrans_match_coverage":1.0,"verified_length_m":616},"geometry":{"type":"LineString","coordinates":[[-118.88374,34.73289],[-118.88376,34.73294],[-118.88379,34.73299],[-118.8839,34.73347],[-118.88401,34.73366],[-118.8843,34.73436],[-118.88433,34.73444],[-118.88442,34.73456],[-118.88463,34.73477],[-118.88467,34.7348],[-118.88472,34.73483],[-118.88491,34.73489],[-118.8851,34.73497],[-118.88531,34.73507],[-118.8855,34.73518],[-118.88555,34.73521],[-118.88584,34.73548],[-118.88588,34.7355],[-118.88643,34.73569],[-118.88711,34.736],[-118.88716,34.73605],[-118.8872,34.73611],[-118.88728,34.7363],[-118.88732,34.73635],[-118.88739,34.7364],[-118.88749,34.73644],[-118.88755,34.73646],[-118.88773,34.73648],[-118.88778,34.73651],[-118.88806,34.73668]]}},{"type":"Feature","properties":{"name":"(unnamed public road)","road_class":"track","surface":"unpaved","source":"Caltrans All Roads + OpenStreetMap explicit surface","source_detail":"osm way 10715940; Caltrans All Roads public-network geometry match","source_tile":"173/406","public_network_source":"Caltrans All Roads (ARNOLD/HPMS)","surface_source":"OpenStreetMap explicit surface tag","caltrans_match_coverage":1.0,"verified_length_m":1105},"geometry":{"type":"LineString","coordinates":[[-119.05287,34.77004],[-119.05284,34.76954],[-119.05285,34.76943],[-119.05293,34.76902],[-119.05297,34.76893],[-119.05298,34.76889],[-119.05298,34.76878],[-119.05297,34.76866],[-119.05295,34.7685],[-119.05291,34.76826],[-119.05288,34.76817],[-119.05282,34.76814],[-119.0528,34.76808],[-119.05277,34.76799],[-119.05271,34.76786],[-119.05268,34.76777],[-119.05262,34.76737],[-119.05258,34.76719],[-119.05257,34.76708],[-119.05256,34.76651],[-119.05254,34.76646],[-119.0524,34.76622],[-119.05233,34.76612],[-119.05215,34.76591],[-119.05204,34.76579],[-119.05203,34.76577],[-119.052,34.76554],[-119.05206,34.76552],[-119.05184,34.7654],[-119.0518,34.76539],[-119.05177,34.7654],[-119.05171,34.76542],[-119.05169,34.76545],[-119.05168,34.76548],[-119.0517,34.76666],[-119.05171,34.76672],[-119.05174,34.76691],[-119.05177,34.76709],[-119.05178,34.76738],[-119.05177,34.76763],[-119.05176,34.76808],[-119.05164,34.76852],[-119.05162,34.76868],[-119.05161,34.76882],[-119.05161,34.76893],[-119.05163,34.76917],[-119.05165,34.76931],[-119.05167,34.76943],[-119.05169,34.76957],[-119.05169,34.76971],[-119.05168,34.76982],[-119.05164,34.77002],[-119.05155,34.77029]]}},{"type":"Feature","properties":{"name":"Dos Pinos Trail","road_class":"unclassified","surface":"unpaved","source":"Caltrans All Roads + OpenStreetMap explicit surface","source_detail":"osm way 10715967; Caltrans All Roads public-network geometry match","source_tile":"173/406","public_network_source":"Caltrans All Roads (ARNOLD/HPMS)","surface_source":"OpenStreetMap explicit surface tag","caltrans_match_coverage":1.0,"verified_length_m":618},"geometry":{"type":"LineString","coordinates":[[-119.06071,34.76811],[-119.0607,34.768],[-119.06069,34.76781],[-119.06068,34.76746],[-119.06067,34.76727],[-119.06067,34.76709],[-119.06068,34.76671],[-119.06069,34.76639],[-119.06068,34.76623],[-119.06068,34.76555],[-119.06069,34.76462],[-119.0607,34.76443],[-119.0607,34.76401],[-119.06071,34.76351],[-119.06071,34.76252]]}},{"type":"Feature","properties":{"name":"(unnamed public road)","road_class":"track","surface":"dirt","source":"Caltrans All Roads + OpenStreetMap explicit surface","source_detail":"osm way 10719655; Caltrans All Roads public-network geometry match","source_tile":"173/406","public_network_source":"Caltrans All Roads (ARNOLD/HPMS)","surface_source":"OpenStreetMap explicit surface tag","caltrans_match_coverage":1.0,"verified_length_m":627},"geometry":{"type":"LineString","coordinates":[[-119.07075,34.76259],[-119.07075,34.76281],[-119.07077,34.76296],[-119.0708,34.76301],[-119.07082,34.76305],[-119.07086,34.76309],[-119.07096,34.76317],[-119.07142,34.76352],[-119.07156,34.76365],[-119.07165,34.76374],[-119.07175,34.76389],[-119.0718,34.76396],[-119.07183,34.76399],[-119.07188,34.76402],[-119.07207,34.76419],[-119.07244,34.7645],[-119.07253,34.76458],[-119.07264,34.7647],[-119.07268,34.76475],[-119.07272,34.76487],[-119.07274,34.76494],[-119.07275,34.76499],[-119.07279,34.76533],[-119.07289,34.76575],[-119.0729,34.76583],[-119.07288,34.76594],[-119.07286,34.76601],[-119.07271,34.76628],[-119.07266,34.76636],[-119.07265,34.76639],[-119.07258,34.76658],[-119.07255,34.76672],[-119.07255,34.76673],[-119.07253,34.76684],[-119.07254,34.76697],[-119.07255,34.76713],[-119.07255,34.76716],[-119.07247,34.76724],[-119.07243,34.76727],[-119.07238,34.76732],[-119.07226,34.76742],[-119.07221,34.76744],[-119.07219,34.76745]]}},{"type":"Feature","properties":{"name":"Miller Jeep OHV Trail #129","road_class":"track","surface":"dirt","tracktype":"grade4","motor_vehicle":"yes","source":"Caltrans All Roads + OpenStreetMap explicit surface","source_detail":"osm way 10721842; Caltrans All Roads public-network geometry match","source_tile":"173/406","public_network_source":"Caltrans All Roads (ARNOLD/HPMS)","surface_source":"OpenStreetMap explicit surface tag","caltrans_match_coverage":0.997,"verified_length_m":4455},"geometry":{"type":"LineString","coordinates":[[-118.97776,34.67623],[-118.97781,34.67619],[-118.97791,34.67612],[-118.97802,34.67608],[-118.97817,34.67602],[-118.97828,34.67592],[-118.97843,34.67591],[-118.97853,34.67591],[-118.9786,34.67594],[-118.97866,34.67605],[-118.97883,34.67619],[-118.97895,34.67624],[-118.979,34.67625],[-118.97905,34.67628],[-118.97933,34.6764],[-118.97968,34.67652],[-118.97978,34.67658],[-118.97987,34.67664],[-118.97995,34.67672],[-118.9801,34.67688],[-118.98033,34.67705],[-118.9806,34.67717],[-118.98072,34.67729],[-118.98083,34.67736],[-118.98104,34.67752],[-118.98116,34.67766],[-118.9814,34.67782],[-118.9816,34.67788],[-118.98183,34.67795],[-118.98194,34.67795],[-118.98223,34.678],[-118.98237,34.67807],[-118.98248,34.67805],[-118.98267,34.6781],[-118.98282,34.67807],[-118.98302,34.67803],[-118.98316,34.67803],[-118.98331,34.67803],[-118.98338,34.67805],[-118.98344,34.6781],[-118.98352,34.67829],[-118.98366,34.6785],[-118.98373,34.6786],[-118.98374,34.67868],[-118.98375,34.67873],[-118.98379,34.67875],[-118.98384,34.67874],[-118.98388,34.67868],[-118.98393,34.67863],[-118.98397,34.6786],[-118.98411,34.67861],[-118.98422,34.67858],[-118.98439,34.67849],[-118.98458,34.67844],[-118.98478,34.67831],[-118.9849,34.67824],[-118.98496,34.67816],[-118.98503,34.67813],[-118.98528,34.67812],[-118.98535,34.67811],[-118.98544,34.67808],[-118.98553,34.67808],[-118.98557,34.67811],[-118.98561,34.67822],[-118.98561,34.6783],[-118.98553,34.67857],[-118.98552,34.67863],[-118.98555,34.67867],[-118.98563,34.6787],[-118.98571,34.67872],[-118.98584,34.67878],[-118.98597,34.67882],[-118.98619,34.67885],[-118.98647,34.67889],[-118.98686,34.67895],[-118.98703,34.67899],[-118.98717,34.67899],[-118.98729,34.67897],[-118.98743,34.67891],[-118.98766,34.67876],[-118.98777,34.6787],[-118.98782,34.67872],[-118.98784,34.67879],[-118.98784,34.67898],[-118.98781,34.67912],[-118.98775,34.67918],[-118.98768,34.67925],[-118.98767,34.67931],[-118.98772,34.67935],[-118.98785,34.67936],[-118.98793,34.67937],[-118.98809,34.67939],[-118.98834,34.67948],[-118.98851,34.67953],[-118.98868,34.6796],[-118.98885,34.67973],[-118.98905,34.67986],[-118.98913,34.67998],[-118.98934,34.68012],[-118.98946,34.68023],[-118.98961,34.68045],[-118.98973,34.68054],[-118.9898,34.68064],[-118.98983,34.68076],[-118.98982,34.68088],[-118.9898,34.68097],[-118.98982,34.68102],[-118.9899,34.68109],[-118.99007,34.68117],[-118.9905,34.68127],[-118.99061,34.6813],[-118.99077,34.68136],[-118.99082,34.68141],[-118.99082,34.68146],[-118.99071,34.68161],[-118.99062,34.68173],[-118.99052,34.68178],[-118.99039,34.68182],[-118.9902,34.68186],[-118.99007,34.68185],[-118.98975,34.68177],[-118.98963,34.68176],[-118.98943,34.68173],[-118.98925,34.68168],[-118.98903,34.68167],[-118.98891,34.68168],[-118.98886,34.68171],[-118.98886,34.68177],[-118.98887,34.68181],[-118.98894,34.68186],[-118.98915,34.68193],[-118.9893,34.68198],[-118.98951,34.68209],[-118.98962,34.68217],[-118.98971,34.68229],[-118.98978,34.68241],[-118.98985,34.68256],[-118.98986,34.68266],[-118.98992,34.68288],[-118.99,34.68308],[-118.99013,34.68325],[-118.99021,34.68337],[-118.99039,34.68348],[-118.99051,34.68355],[-118.99057,34.68361],[-118.99063,34.68372],[-118.99071,34.68396],[-118.99072,34.68411],[-118.99076,34.68419],[-118.99086,34.68427],[-118.99099,34.68433],[-118.99105,34.68436],[-118.9911,34.68442],[-118.9911,34.68455],[-118.99114,34.68463],[-118.99121,34.68474],[-118.9913,34.68484],[-118.99135,34.68492],[-118.99134,34.68501],[-118.99127,34.68517],[-118.9912,34.68536],[-118.9912,34.6855],[-118.99117,34.68566],[-118.99118,34.68579],[-118.99123,34.68595],[-118.99122,34.68618],[-118.99114,34.68634],[-118.99113,34.68644],[-118.99116,34.68652],[-118.99122,34.68663],[-118.99152,34.68697],[-118.99181,34.68725],[-118.99185,34.68732],[-118.99183,34.68744],[-118.99179,34.68774],[-118.99181,34.68794],[-118.99189,34.68811],[-118.9921,34.68843],[-118.99223,34.68865],[-118.99232,34.6888],[-118.99245,34.68887],[-118.99268,34.6892],[-118.99283,34.68934],[-118.9929,34.6894],[-118.99294,34.68951],[-118.99297,34.68967],[-118.99299,34.6898],[-118.99307,34.68988],[-118.99314,34.69001],[-118.99317,34.69015],[-118.99318,34.69024],[-118.99323,34.69029],[-118.9934,34.69034],[-118.99363,34.69041],[-118.99373,34.69039],[-118.9938,34.69042],[-118.9939,34.69054],[-118.9941,34.69067],[-118.99424,34.69075],[-118.99434,34.69078],[-118.99441,34.69082],[-118.99444,34.69088],[-118.99449,34.69098],[-118.99461,34.69112],[-118.99477,34.69124],[-118.99488,34.69136],[-118.99493,34.69145],[-118.99495,34.69162],[-118.99495,34.69171],[-118.99502,34.69181],[-118.99503,34.69196],[-118.995,34.69212],[-118.995,34.69219],[-118.99503,34.69226],[-118.99514,34.69233],[-118.99519,34.69245],[-118.99536,34.69266],[-118.99541,34.69278],[-118.99549,34.69306],[-118.99551,34.69319],[-118.99556,34.69331],[-118.99558,34.69348],[-118.99561,34.6936],[-118.99566,34.69366],[-118.99588,34.69373],[-118.99597,34.69384],[-118.99613,34.69398],[-118.99624,34.69408],[-118.99635,34.6941],[-118.99645,34.69415],[-118.99662,34.69425],[-118.99671,34.69435],[-118.99675,34.69443],[-118.99675,34.69454],[-118.9967,34.69463],[-118.9967,34.69468],[-118.99675,34.69477],[-118.99696,34.69494],[-118.99701,34.69501],[-118.99702,34.69512],[-118.99706,34.69523],[-118.99712,34.69532],[-118.9975,34.69566],[-118.99764,34.69576],[-118.9977,34.69583],[-118.99774,34.69589],[-118.99776,34.69602],[-118.99786,34.69613],[-118.99796,34.69626],[-118.99801,34.69638],[-118.99803,34.6965],[-118.99804,34.69658],[-118.99809,34.69666],[-118.99817,34.69673],[-118.99826,34.69679],[-118.99834,34.69681],[-118.99843,34.69682],[-118.99851,34.69681],[-118.99863,34.69673],[-118.9987,34.69665],[-118.99874,34.69662],[-118.99882,34.69663],[-118.99888,34.69669],[-118.99893,34.69676],[-118.99913,34.69689],[-118.99927,34.69696],[-118.9995,34.69716],[-118.99958,34.69725],[-118.99972,34.69729],[-118.99988,34.69734],[-118.99998,34.69739],[-119.00006,34.69745],[-119.00009,34.69755],[-119.00007,34.69768],[-119.0,34.6978],[-118.9999,34.69785],[-118.99983,34.6979],[-118.9998,34.69795],[-118.99957,34.69813],[-118.99953,34.6982],[-118.99952,34.6983],[-118.99952,34.69839],[-118.99949,34.69848],[-118.99959,34.69861],[-118.99972,34.6987],[-118.99978,34.69881],[-118.99991,34.69893],[-119.00019,34.699],[-119.00042,34.69905],[-119.00046,34.69912],[-119.00043,34.69919],[-119.00035,34.69929],[-119.00031,34.69946],[-119.00032,34.69955],[-119.00032,34.69965],[-119.00036,34.69974],[-119.00032,34.69984],[-119.00034,34.69991],[-119.00041,34.69997]]}},{"type":"Feature","properties":{"name":"Mutau OHV Road","road_class":"unclassified","surface":"gravel","motor_vehicle":"yes","source":"Caltrans All Roads + OpenStreetMap explicit surface","source_detail":"osm way 10723786; Caltrans All Roads public-network geometry match","source_tile":"173/406","public_network_source":"Caltrans All Roads (ARNOLD/HPMS)","surface_source":"OpenStreetMap explicit surface tag","caltrans_match_coverage":0.929,"verified_length_m":9557},"geometry":{"type":"LineString","coordinates":[[-119.12191,34.70397],[-119.12181,34.70378],[-119.1218,34.70366],[-119.12183,34.70356],[-119.12197,34.70339],[-119.122,34.70328],[-119.12197,34.70317],[-119.1219,34.70306],[-119.12171,34.70295],[-119.12124,34.70271],[-119.12113,34.70264],[-119.12106,34.70255],[-119.12089,34.70224],[-119.12083,34.70196],[-119.12076,34.70169],[-119.12063,34.70146],[-119.12041,34.70107],[-119.12038,34.70087],[-119.12032,34.70076],[-119.12008,34.70055],[-119.11998,34.70042],[-119.11998,34.70034],[-119.12005,34.70008],[-119.12001,34.69993],[-119.11993,34.69977],[-119.11966,34.69947],[-119.1192,34.69917],[-119.11897,34.69896],[-119.11886,34.69882],[-119.11857,34.69812],[-119.11853,34.69788],[-119.11853,34.69753],[-119.11858,34.69719],[-119.11857,34.69656],[-119.11849,34.69637],[-119.1183,34.6961],[-119.11826,34.69594],[-119.11833,34.69564],[-119.11834,34.69535],[-119.11822,34.69497],[-119.11826,34.69475],[-119.11846,34.69404],[-119.11856,34.6939],[-119.1187,34.69382],[-119.11888,34.69376],[-119.11899,34.69368],[-119.11907,34.69356],[-119.11911,34.69344],[-119.11911,34.69323],[-119.11904,34.69292],[-119.11895,34.69276],[-119.11882,34.69267],[-119.11854,34.69254],[-119.11808,34.69221],[-119.11802,34.69214],[-119.11799,34.69204],[-119.11802,34.69195],[-119.11809,34.69186],[-119.11818,34.6918],[-119.11833,34.69176],[-119.11869,34.69176],[-119.11885,34.69168],[-119.11893,34.69159],[-119.11909,34.69127],[-119.11918,34.69101],[-119.11923,34.6908],[-119.11921,34.69065],[-119.11917,34.69053],[-119.11893,34.69002],[-119.11889,34.68988],[-119.1189,34.68963],[-119.11892,34.68948],[-119.11884,34.68907],[-119.11884,34.68897],[-119.11887,34.68879],[-119.11885,34.68863],[-119.11882,34.68816],[-119.11877,34.68775],[-119.11862,34.68718],[-119.11863,34.68691],[-119.11872,34.68553],[-119.11874,34.68501],[-119.11884,34.68451],[-119.11876,34.68405],[-119.11857,34.68346],[-119.1183,34.68319],[-119.11809,34.68298],[-119.11808,34.68285],[-119.11814,34.68247],[-119.11809,34.68189],[-119.11796,34.68151],[-119.11794,34.68131],[-119.11803,34.68098],[-119.11802,34.68077],[-119.11798,34.68047],[-119.11796,34.67991],[-119.11801,34.67974],[-119.1184,34.67933],[-119.11876,34.6789],[-119.11895,34.67871],[-119.11914,34.67828],[-119.11932,34.67759],[-119.11949,34.67719],[-119.11954,34.67702],[-119.1195,34.67688],[-119.11946,34.67677],[-119.11949,34.67672],[-119.11965,34.67662],[-119.11993,34.67654],[-119.12006,34.67653],[-119.12015,34.67656],[-119.12023,34.67668],[-119.12027,34.67688],[-119.12035,34.677],[-119.12048,34.67707],[-119.12058,34.67711],[-119.1207,34.6771],[-119.12079,34.67706],[-119.12083,34.67696],[-119.12085,34.67679],[-119.12089,34.67666],[-119.12099,34.67657],[-119.12112,34.67654],[-119.12118,34.67648],[-119.12117,34.67643],[-119.12114,34.67636],[-119.12105,34.67629],[-119.12094,34.67628],[-119.12079,34.67632],[-119.12065,34.67642],[-119.12058,34.67644],[-119.12049,34.67643],[-119.12041,34.67638],[-119.12037,34.67629],[-119.12032,34.67616],[-119.11998,34.67594],[-119.11986,34.67591],[-119.11967,34.67591],[-119.11945,34.67595],[-119.11936,34.67599],[-119.11933,34.67609],[-119.11934,34.67628],[-119.1193,34.67634],[-119.11917,34.67635],[-119.11894,34.67632],[-119.11885,34.67635],[-119.11875,34.67646],[-119.11873,34.67655],[-119.1187,34.67677],[-119.11862,34.67685],[-119.1184,34.67688],[-119.11832,34.67692],[-119.11828,34.67702],[-119.11825,34.67726],[-119.11821,34.67734],[-119.11814,34.6774],[-119.11801,34.67742],[-119.11777,34.67741],[-119.11756,34.67753],[-119.11745,34.67766],[-119.11727,34.67773],[-119.11702,34.67788],[-119.11645,34.67797],[-119.11619,34.67798],[-119.116,34.67795],[-119.11588,34.6779],[-119.11572,34.67776],[-119.1156,34.67774],[-119.1155,34.67775],[-119.11519,34.6779],[-119.11501,34.67795],[-119.11485,34.67793],[-119.11421,34.67781],[-119.11398,34.67773],[-119.11389,34.67768],[-119.11382,34.67763],[-119.11382,34.67757],[-119.11386,34.67744],[-119.11408,34.67697],[-119.11446,34.67633],[-119.11465,34.67609],[-119.11493,34.67582],[-119.11503,34.67569],[-119.11535,34.67509],[-119.11565,34.67455],[-119.11593,34.67406],[-119.11631,34.67343],[-119.11652,34.67316],[-119.11668,34.67297],[-119.11676,34.67282],[-119.11681,34.67264],[-119.11691,34.6717],[-119.11695,34.67156],[-119.1171,34.67126],[-119.11744,34.6702],[-119.11756,34.66988],[-119.11767,34.66933],[-119.1178,34.66836],[-119.11788,34.66764],[-119.11803,34.66665],[-119.11806,34.66643],[-119.11815,34.66622],[-119.1182,34.66613],[-119.11821,34.66599],[-119.11816,34.66566],[-119.11803,34.665],[-119.11779,34.66375],[-119.11747,34.66249],[-119.11743,34.66215],[-119.11736,34.6616],[-119.11653,34.65992],[-119.11621,34.65921],[-119.11605,34.65887],[-119.1159,34.65864],[-119.11568,34.65845],[-119.11547,34.65832],[-119.11524,34.65823],[-119.11475,34.65801],[-119.11386,34.65771],[-119.11364,34.6576],[-119.11349,34.65753],[-119.11338,34.65751],[-119.11321,34.65753],[-119.11292,34.65753],[-119.11271,34.65748],[-119.11178,34.65703],[-119.11156,34.65689],[-119.11099,34.6563],[-119.1107,34.65604],[-119.11056,34.6559],[-119.11044,34.65582],[-119.11032,34.65572],[-119.10886,34.65488],[-119.10851,34.65464],[-119.10817,34.65441],[-119.10787,34.65418],[-119.10759,34.65397],[-119.10671,34.65324],[-119.10602,34.65248],[-119.10556,34.65207],[-119.10513,34.65149],[-119.10437,34.65057],[-119.10427,34.65042],[-119.10413,34.65016],[-119.10407,34.64993],[-119.10399,34.64965],[-119.10366,34.64919],[-119.10361,34.64904],[-119.1038,34.64843],[-119.1038,34.6483],[-119.1036,34.64765],[-119.1036,34.64727],[-119.10357,34.64703],[-119.10346,34.64661],[-119.10345,34.64641],[-119.10335,34.64593],[-119.10332,34.6456],[-119.10338,34.64507],[-119.10359,34.64451],[-119.10381,34.64415],[-119.10385,34.64404],[-119.10383,34.64389],[-119.10381,34.64379],[-119.10375,34.64367],[-119.1035,34.64324],[-119.10334,34.64291],[-119.10326,34.64277],[-119.10306,34.64255],[-119.10226,34.6419],[-119.10213,34.64171],[-119.10212,34.64152],[-119.10217,34.64133],[-119.10244,34.6409],[-119.10245,34.64083],[-119.1024,34.64076],[-119.10234,34.64072],[-119.10223,34.64068],[-119.10187,34.64067],[-119.10157,34.64061],[-119.1013,34.64059],[-119.10098,34.64056],[-119.10077,34.6405],[-119.10067,34.64043],[-119.10059,34.64034],[-119.10048,34.6403],[-119.10029,34.6403],[-119.10002,34.64036],[-119.09997,34.64033],[-119.09992,34.64025],[-119.09991,34.64013],[-119.09994,34.64001]]}},{"type":"Feature","properties":{"name":"Schmidt Ranch Road","road_class":"track","surface":"dirt","tracktype":"grade3","source":"Caltrans All Roads + OpenStreetMap explicit surface","source_detail":"osm way 10724101; Caltrans All Roads public-network geometry match","source_tile":"173/406","public_network_source":"Caltrans All Roads (ARNOLD/HPMS)","surface_source":"OpenStreetMap explicit surface tag","caltrans_match_coverage":1.0,"verified_length_m":2382},"geometry":{"type":"LineString","coordinates":[[-118.88972,34.72714],[-118.88981,34.72735],[-118.88987,34.72746],[-118.88999,34.72765],[-118.89014,34.72813],[-118.89021,34.7285],[-118.89024,34.7289],[-118.89027,34.72912],[-118.89034,34.72957],[-118.89037,34.72985],[-118.89079,34.73042],[-118.89083,34.73052],[-118.89085,34.73061],[-118.89087,34.7307],[-118.8908,34.73098],[-118.89079,34.73109],[-118.89083,34.73132],[-118.8908,34.73155],[-118.89084,34.73179],[-118.89079,34.73196],[-118.89067,34.73213],[-118.89064,34.73232],[-118.89061,34.73277],[-118.89051,34.73307],[-118.89042,34.73321],[-118.89024,34.73342],[-118.88999,34.73377],[-118.88985,34.73388],[-118.8897,34.734],[-118.88948,34.73425],[-118.88922,34.73459],[-118.88916,34.73471],[-118.88908,34.73496],[-118.88899,34.73512],[-118.88883,34.73539],[-118.8887,34.73567],[-118.88862,34.73587],[-118.88861,34.73597],[-118.88861,34.73606],[-118.8886,34.73618],[-118.88856,34.73628],[-118.88844,34.73642],[-118.88831,34.73652],[-118.88817,34.73663],[-118.88806,34.73668],[-118.88783,34.73678],[-118.88764,34.73681],[-118.88758,34.73682],[-118.88719,34.73694],[-118.88699,34.73707],[-118.88685,34.73718],[-118.88622,34.73762],[-118.88526,34.73818],[-118.88468,34.73853],[-118.88408,34.73893],[-118.88297,34.7396],[-118.88273,34.73976],[-118.88239,34.74007],[-118.88211,34.74028],[-118.88195,34.74042],[-118.88182,34.74051],[-118.88157,34.74066],[-118.88128,34.74084],[-118.88123,34.74089],[-118.88117,34.74096],[-118.88112,34.74103],[-118.88106,34.74112],[-118.88088,34.74137],[-118.88054,34.74188],[-118.88022,34.74239],[-118.87903,34.74419],[-118.8789,34.74443]]}},{"type":"Feature","properties":{"name":"(unnamed public road)","road_class":"track","surface":"unpaved","source":"Caltrans All Roads + OpenStreetMap explicit surface","source_detail":"osm way 10726454; Caltrans All Roads public-network geometry match","source_tile":"173/406","public_network_source":"Caltrans All Roads (ARNOLD/HPMS)","surface_source":"OpenStreetMap explicit surface tag","caltrans_match_coverage":1.0,"verified_length_m":1482},"geometry":{"type":"LineString","coordinates":[[-119.1153,34.72799],[-119.11533,34.72817],[-119.11537,34.72831],[-119.11551,34.7285],[-119.11572,34.7288],[-119.11586,34.72907],[-119.11599,34.72944],[-119.116,34.72972],[-119.11597,34.73004],[-119.11584,34.73027],[-119.11577,34.73046],[-119.11582,34.73098],[-119.11586,34.73116],[-119.11587,34.73132],[-119.11587,34.7316],[-119.11585,34.73171],[-119.11584,34.7318],[-119.11581,34.73187],[-119.11575,34.73203],[-119.11571,34.73208],[-119.11553,34.73227],[-119.11544,34.73234],[-119.11539,34.73242],[-119.11532,34.73253],[-119.11528,34.73261],[-119.11523,34.73277],[-119.11509,34.73309],[-119.11505,34.73316],[-119.11499,34.73336],[-119.11496,34.7335],[-119.11495,34.73356],[-119.11491,34.73395],[-119.11488,34.73408],[-119.11486,34.73421],[-119.11474,34.73446],[-119.11469,34.73452],[-119.11461,34.7346],[-119.11442,34.7347],[-119.11423,34.73473],[-119.11401,34.73465],[-119.11272,34.73397],[-119.11247,34.73395],[-119.1122,34.73399],[-119.11206,34.7341],[-119.11206,34.73429],[-119.11208,34.73438],[-119.11207,34.73605],[-119.11201,34.73619],[-119.11185,34.73626],[-119.1116,34.73624],[-119.11134,34.73625],[-119.11068,34.73633],[-119.1104,34.73631],[-119.11001,34.73622],[-119.10978,34.7362]]}},{"type":"Feature","properties":{"name":"Chuchupate Trail","road_class":"unclassified","surface":"unpaved","source":"Caltrans All Roads + OpenStreetMap explicit surface","source_detail":"osm way 10727683; Caltrans All Roads public-network geometry match","source_tile":"173/406","public_network_source":"Caltrans All Roads (ARNOLD/HPMS)","surface_source":"OpenStreetMap explicit surface tag","caltrans_match_coverage":1.0,"verified_length_m":889},"geometry":{"type":"LineString","coordinates":[[-119.06071,34.76252],[-119.06106,34.76252],[-119.0618,34.76253],[-119.06229,34.76254],[-119.06281,34.76255],[-119.06335,34.76257],[-119.06337,34.76257],[-119.06391,34.76254],[-119.06454,34.76253],[-119.06569,34.76253],[-119.06598,34.76254],[-119.06609,34.76254],[-119.06689,34.76256],[-119.06745,34.76256],[-119.06812,34.76256],[-119.06848,34.76257],[-119.06868,34.76257],[-119.06988,34.76256],[-119.06994,34.76256],[-119.07043,34.76257]]}},{"type":"Feature","properties":{"name":"Green Leaf Springs Road","road_class":"unclassified","surface":"unpaved","source":"Caltrans All Roads + OpenStreetMap explicit surface","source_detail":"osm way 10727880; Caltrans All Roads public-network geometry match","source_tile":"173/406","public_network_source":"Caltrans All Roads (ARNOLD/HPMS)","surface_source":"OpenStreetMap explicit surface tag","caltrans_match_coverage":1.0,"verified_length_m":592},"geometry":{"type":"LineString","coordinates":[[-119.08529,34.7463],[-119.08532,34.74639],[-119.08534,34.74648],[-119.08533,34.74765],[-119.08533,34.74797],[-119.08533,34.748],[-119.08535,34.74802],[-119.08538,34.74803],[-119.08543,34.74804],[-119.08623,34.74805],[-119.08653,34.74807],[-119.087,34.74807],[-119.08752,34.74808],[-119.08783,34.74805],[-119.08972,34.74809]]}},{"type":"Feature","properties":{"name":"Maple Trail","road_class":"track","surface":"unpaved","source":"Caltrans All Roads + OpenStreetMap explicit surface","source_detail":"osm way 10732693; Caltrans All Roads public-network geometry match","source_tile":"173/406","public_network_source":"Caltrans All Roads (ARNOLD/HPMS)","surface_source":"OpenStreetMap explicit surface tag","caltrans_match_coverage":0.999,"verified_length_m":552},"geometry":{"type":"LineString","coordinates":[[-119.06321,34.77875],[-119.06316,34.77897],[-119.06315,34.77916],[-119.06331,34.7792],[-119.06355,34.77917],[-119.06376,34.77924],[-119.06424,34.77946],[-119.06477,34.78011],[-119.06491,34.78024],[-119.06522,34.78043],[-119.06538,34.78057],[-119.06555,34.78084],[-119.06564,34.78121],[-119.06634,34.78185],[-119.0665,34.78215],[-119.06651,34.78241]]}},{"type":"Feature","properties":{"name":"Curtis Trail","road_class":"unclassified","surface":"unpaved","source":"Caltrans All Roads + OpenStreetMap explicit surface","source_detail":"osm way 10733910; Caltrans All Roads public-network geometry match","source_tile":"173/406","public_network_source":"Caltrans All Roads (ARNOLD/HPMS)","surface_source":"OpenStreetMap explicit surface tag","caltrans_match_coverage":1.0,"verified_length_m":1282},"geometry":{"type":"LineString","coordinates":[[-119.06741,34.76434],[-119.06758,34.76435],[-119.06835,34.76435],[-119.06934,34.76436],[-119.06952,34.76436],[-119.06972,34.76436],[-119.06996,34.76436],[-119.0703,34.76437],[-119.07065,34.7644],[-119.0709,34.76441],[-119.07122,34.76439],[-119.07132,34.76439],[-119.07162,34.76443],[-119.07198,34.76447],[-119.07216,34.76449],[-119.07244,34.7645],[-119.07263,34.76449],[-119.07269,34.76449],[-119.07333,34.76447],[-119.07487,34.76449],[-119.07506,34.76449],[-119.07637,34.76451],[-119.07717,34.76452],[-119.07817,34.76452],[-119.07921,34.76453],[-119.0795,34.76454],[-119.07962,34.76456],[-119.0799,34.76456],[-119.08064,34.76456],[-119.08141,34.76457]]}},{"type":"Feature","properties":{"name":"Seymour Canyon Road","road_class":"unclassified","surface":"unpaved","source":"Caltrans All Roads + OpenStreetMap explicit surface","source_detail":"osm way 10734803; Caltrans All Roads public-network geometry match","source_tile":"173/406","public_network_source":"Caltrans All Roads (ARNOLD/HPMS)","surface_source":"OpenStreetMap explicit surface tag","caltrans_match_coverage":1.0,"verified_length_m":3131},"geometry":{"type":"LineString","coordinates":[[-119.07421,34.7829],[-119.07412,34.78287],[-119.07399,34.78277],[-119.07383,34.78233],[-119.07364,34.78213],[-119.07281,34.78173],[-119.07161,34.78076],[-119.07157,34.78069],[-119.0715,34.78058],[-119.07135,34.78002],[-119.07105,34.77981],[-119.07077,34.77974],[-119.07043,34.77973],[-119.06908,34.7793],[-119.06792,34.77904],[-119.0673,34.7789],[-119.06551,34.77877],[-119.0644,34.7788],[-119.06321,34.77875],[-119.06242,34.77878],[-119.062,34.77869],[-119.06168,34.77863],[-119.05881,34.77835],[-119.05802,34.77813],[-119.05713,34.77812],[-119.05614,34.77765],[-119.05363,34.77701],[-119.05313,34.77672],[-119.0525,34.77593],[-119.05223,34.77574],[-119.052,34.77551],[-119.05188,34.77524],[-119.05184,34.77431],[-119.05174,34.77402],[-119.05171,34.77344],[-119.05155,34.7732],[-119.05143,34.77313],[-119.05124,34.77309],[-119.05094,34.77313],[-119.0508,34.77315],[-119.05047,34.77329],[-119.05029,34.77343],[-119.04952,34.7743],[-119.04923,34.77461],[-119.0486,34.77522],[-119.04843,34.77538],[-119.04824,34.77559],[-119.04792,34.77608],[-119.04778,34.77629],[-119.04769,34.77639]]}},{"type":"Feature","properties":{"name":"Dos Pinos Trail","road_class":"track","surface":"dirt","source":"Caltrans All Roads + OpenStreetMap explicit surface","source_detail":"osm way 10737422; Caltrans All Roads public-network geometry match","source_tile":"173/406","public_network_source":"Caltrans All Roads (ARNOLD/HPMS)","surface_source":"OpenStreetMap explicit surface tag","caltrans_match_coverage":1.0,"verified_length_m":796},"geometry":{"type":"LineString","coordinates":[[-119.07075,34.76259],[-119.07152,34.76259],[-119.07178,34.76259],[-119.07232,34.76259],[-119.07317,34.76259],[-119.07373,34.76261],[-119.07408,34.76263],[-119.07508,34.76259],[-119.07527,34.76263],[-119.07618,34.76263],[-119.07646,34.76262],[-119.07678,34.76262],[-119.07707,34.76262],[-119.07736,34.76261],[-119.07791,34.7626],[-119.07832,34.76264],[-119.07844,34.76265],[-119.07858,34.76266],[-119.07869,34.76266],[-119.07932,34.76265],[-119.07944,34.76266]]}},{"type":"Feature","properties":{"name":"Alamo Mountain OHV Road","road_class":"track","surface":"ground","tracktype":"grade3","motor_vehicle":"yes","source":"Caltrans All Roads + OpenStreetMap explicit surface","source_detail":"osm way 10739836; Caltrans All Roads public-network geometry match","source_tile":"173/406","public_network_source":"Caltrans All Roads (ARNOLD/HPMS)","surface_source":"OpenStreetMap explicit surface tag","caltrans_match_coverage":1.0,"verified_length_m":7110},"geometry":{"type":"LineString","coordinates":[[-118.94877,34.66959],[-118.94873,34.66967],[-118.9487,34.66974],[-118.9487,34.66981],[-118.94871,34.66985],[-118.94874,34.66996],[-118.94881,34.67],[-118.9489,34.67005],[-118.94904,34.67009],[-118.94908,34.6701],[-118.94912,34.6701],[-118.94922,34.67015],[-118.94926,34.67022],[-118.9493,34.67035],[-118.94932,34.67041],[-118.94937,34.67047],[-118.94945,34.6705],[-118.94961,34.67053],[-118.94975,34.67055],[-118.94981,34.67058],[-118.94988,34.67062],[-118.94997,34.67073],[-118.95011,34.67115],[-118.95016,34.67119],[-118.95028,34.67126],[-118.95035,34.6713],[-118.95037,34.67134],[-118.95041,34.67148],[-118.95043,34.67157],[-118.95048,34.67172],[-118.95051,34.67177],[-118.95055,34.67182],[-118.95061,34.67187],[-118.95077,34.67199],[-118.95095,34.67217],[-118.95131,34.67239],[-118.95146,34.67254],[-118.9516,34.67265],[-118.95166,34.67271],[-118.9517,34.6728],[-118.9517,34.67286],[-118.95168,34.67294],[-118.95159,34.67302],[-118.95139,34.67309],[-118.95094,34.67329],[-118.95072,34.67341],[-118.95059,34.67351],[-118.95054,34.67355],[-118.95047,34.67364],[-118.95042,34.67375],[-118.95038,34.67383],[-118.95036,34.67391],[-118.95038,34.67402],[-118.95039,34.67406],[-118.95045,34.67411],[-118.95056,34.6742],[-118.95072,34.67427],[-118.95096,34.67434],[-118.95108,34.67437],[-118.95115,34.67442],[-118.95119,34.67449],[-118.95119,34.67458],[-118.95119,34.67462],[-118.95116,34.67467],[-118.9511,34.67473],[-118.95098,34.67479],[-118.95083,34.67485],[-118.95076,34.67491],[-118.95071,34.67498],[-118.95069,34.67504],[-118.95069,34.67507],[-118.95071,34.67514],[-118.95073,34.67518],[-118.95077,34.67522],[-118.9509,34.67528],[-118.95094,34.67531],[-118.95097,34.67537],[-118.95101,34.67559],[-118.95104,34.6757],[-118.9511,34.67583],[-118.95119,34.67596],[-118.95127,34.67602],[-118.95134,34.67605],[-118.9514,34.67609],[-118.95151,34.67618],[-118.95169,34.67639],[-118.95179,34.67648],[-118.95192,34.67658],[-118.95211,34.67671],[-118.95241,34.6768],[-118.95245,34.67682],[-118.95247,34.67685],[-118.95249,34.6769],[-118.9525,34.67695],[-118.9525,34.67699],[-118.95239,34.67723],[-118.95229,34.67761],[-118.9523,34.67768],[-118.95236,34.67776],[-118.95244,34.67782],[-118.95279,34.67801],[-118.95291,34.67804],[-118.95301,34.67806],[-118.95328,34.67804],[-118.95342,34.67804],[-118.95351,34.67811],[-118.95355,34.67816],[-118.95354,34.67823],[-118.95353,34.67838],[-118.95354,34.67854],[-118.95352,34.67865],[-118.95346,34.6789],[-118.95342,34.67895],[-118.95324,34.67909],[-118.95316,34.67918],[-118.95312,34.67924],[-118.95311,34.67928],[-118.9531,34.67932],[-118.95312,34.67941],[-118.95319,34.67957],[-118.9533,34.67974],[-118.95335,34.67979],[-118.95347,34.67988],[-118.95377,34.68003],[-118.95387,34.68013],[-118.95389,34.68017],[-118.95389,34.68023],[-118.95387,34.68028],[-118.95384,34.68031],[-118.95367,34.68042],[-118.95359,34.68049],[-118.95347,34.68063],[-118.95344,34.68071],[-118.95338,34.68093],[-118.95328,34.6811],[-118.95325,34.68122],[-118.95325,34.68133],[-118.95327,34.68156],[-118.95326,34.6816],[-118.95323,34.68165],[-118.95317,34.68169],[-118.95308,34.68172],[-118.95293,34.68181],[-118.95286,34.68186],[-118.95283,34.6819],[-118.9528,34.68195],[-118.9528,34.68207],[-118.95283,34.68214],[-118.95285,34.68226],[-118.95292,34.68243],[-118.95297,34.68251],[-118.95304,34.68258],[-118.9531,34.68262],[-118.95316,34.68262],[-118.95324,34.68261],[-118.95347,34.68251],[-118.95354,34.6825],[-118.95359,34.68252],[-118.95362,34.68254],[-118.95368,34.68263],[-118.95379,34.68268],[-118.95387,34.68271],[-118.95395,34.68275],[-118.954,34.68281],[-118.95402,34.68287],[-118.95399,34.68297],[-118.95396,34.68306],[-118.95392,34.68318],[-118.9539,34.68327],[-118.95391,34.68337],[-118.95396,34.68345],[-118.95402,34.68354],[-118.95409,34.68361],[-118.95416,34.68364],[-118.95424,34.68366],[-118.95433,34.68368],[-118.9546,34.68366],[-118.95483,34.68364],[-118.95531,34.68349],[-118.95547,34.68347],[-118.95565,34.68347],[-118.95578,34.6835],[-118.95585,34.68354],[-118.95589,34.68358],[-118.95588,34.68366],[-118.95586,34.68373],[-118.95579,34.68381],[-118.95574,34.68383],[-118.95563,34.68385],[-118.95526,34.68386],[-118.95515,34.68388],[-118.95501,34.68391],[-118.9548,34.68396],[-118.95472,34.684],[-118.95462,34.68405],[-118.95454,34.68411],[-118.95435,34.68421],[-118.95419,34.68429],[-118.954,34.68438],[-118.95377,34.68452],[-118.95353,34.68479],[-118.95342,34.68488],[-118.9532,34.68504],[-118.9531,34.68512],[-118.95296,34.68515],[-118.95289,34.68513],[-118.95284,34.68507],[-118.95275,34.68494],[-118.9527,34.68483],[-118.95265,34.68462],[-118.95263,34.68454],[-118.95257,34.68449],[-118.95244,34.68448],[-118.95235,34.68448],[-118.95224,34.6845],[-118.95215,34.68452],[-118.9521,34.68456],[-118.95209,34.68461],[-118.95208,34.68497],[-118.95205,34.6851],[-118.95201,34.68524],[-118.95197,34.68535],[-118.95192,34.68555],[-118.95185,34.6857],[-118.9518,34.68577],[-118.95177,34.68581],[-118.95168,34.68586],[-118.95161,34.68589],[-118.95152,34.68588],[-118.9514,34.68586],[-118.95128,34.68581],[-118.95118,34.68572],[-118.95101,34.68553],[-118.9508,34.68527],[-118.95073,34.68522],[-118.95067,34.6852],[-118.95056,34.68521],[-118.95025,34.68531],[-118.95008,34.68535],[-118.94978,34.68534],[-118.94971,34.68538],[-118.94953,34.68554],[-118.94924,34.68571],[-118.94895,34.68592],[-118.94875,34.68603],[-118.94859,34.68606],[-118.94841,34.68612],[-118.94831,34.68614],[-118.94809,34.68614],[-118.94786,34.68612],[-118.94743,34.68602],[-118.94709,34.68594],[-118.94689,34.68595],[-118.94677,34.68597],[-118.9467,34.68602],[-118.94661,34.68608],[-118.94654,34.68609],[-118.94646,34.68608],[-118.94632,34.68603],[-118.94621,34.68595],[-118.94617,34.68589],[-118.94615,34.68583],[-118.94614,34.68578],[-118.94614,34.68572],[-118.94616,34.68565],[-118.9463,34.68542],[-118.94634,34.68532],[-118.94633,34.68526],[-118.9463,34.68517],[-118.94622,34.6851],[-118.94614,34.68506],[-118.9461,34.68505],[-118.946,34.68505],[-118.94589,34.68502],[-118.94579,34.68497],[-118.94569,34.68486],[-118.94561,34.68482],[-118.94553,34.68481],[-118.94534,34.68483],[-118.94522,34.6848],[-118.94504,34.68464],[-118.94483,34.68438],[-118.94476,34.68434],[-118.94457,34.68429],[-118.94446,34.68422],[-118.9444,34.68417],[-118.94432,34.68411],[-118.94423,34.68402],[-118.94411,34.68394],[-118.94397,34.68385],[-118.94382,34.68379],[-118.94342,34.6837],[-118.9432,34.68364],[-118.94308,34.68356],[-118.94293,34.68343],[-118.9428,34.6833],[-118.94277,34.68322],[-118.94276,34.68311],[-118.94278,34.68303],[-118.94287,34.68294],[-118.94301,34.68286],[-118.94309,34.68283],[-118.94315,34.68277],[-118.94319,34.68272],[-118.94321,34.68263],[-118.94321,34.68253],[-118.94321,34.68242],[-118.94318,34.68233],[-118.94314,34.68223],[-118.9431,34.68216],[-118.943,34.68211],[-118.9429,34.68211],[-118.94281,34.68214],[-118.94274,34.68221],[-118.94262,34.68238],[-118.94252,34.6825],[-118.94241,34.68268],[-118.94234,34.68278],[-118.94225,34.68281],[-118.94207,34.68284],[-118.94194,34.6829],[-118.94188,34.68299],[-118.94184,34.68306],[-118.94182,34.68318],[-118.94181,34.68327],[-118.94182,34.68337],[-118.94189,34.6835],[-118.942,34.68367],[-118.9421,34.68383],[-118.94216,34.68402],[-118.94219,34.68417],[-118.94226,34.68423],[-118.94232,34.68426],[-118.9424,34.68426],[-118.94255,34.68422],[-118.9427,34.68419],[-118.9428,34.68421],[-118.94289,34.68422],[-118.94295,34.68428],[-118.94298,34.68435],[-118.94298,34.6844],[-118.94293,34.68446],[-118.94285,34.68454],[-118.94246,34.6847],[-118.94206,34.68483],[-118.94191,34.68482],[-118.94184,34.6848],[-118.94177,34.68475],[-118.94157,34.68458],[-118.94138,34.68446],[-118.94132,34.68434],[-118.9413,34.68427],[-118.94132,34.68417],[-118.94126,34.68406],[-118.94117,34.684],[-118.94097,34.68392],[-118.94076,34.68383],[-118.94062,34.68372],[-118.94051,34.6837],[-118.94041,34.68371],[-118.94026,34.68378],[-118.94006,34.68388],[-118.93984,34.68403],[-118.93974,34.68409],[-118.93964,34.68412],[-118.93954,34.68412],[-118.93943,34.68412],[-118.93933,34.68409],[-118.93906,34.684],[-118.93893,34.68399],[-118.93883,34.68401],[-118.93869,34.68412],[-118.93861,34.68422],[-118.93843,34.68449],[-118.93831,34.6847],[-118.93819,34.68495],[-118.93814,34.68513],[-118.93807,34.68524],[-118.938,34.68533],[-118.93782,34.68546],[-118.93762,34.68554],[-118.93751,34.68558],[-118.9374,34.68559],[-118.93726,34.68557],[-118.93717,34.68556],[-118.93695,34.68546],[-118.9368,34.68539],[-118.93661,34.68524],[-118.93641,34.68517],[-118.93622,34.6851],[-118.93611,34.68504],[-118.93604,34.68497],[-118.936,34.68486],[-118.936,34.68474],[-118.93599,34.68465],[-118.93596,34.68459],[-118.93589,34.68454],[-118.9358,34.68448],[-118.93574,34.6844],[-118.93569,34.68435],[-118.93565,34.68425],[-118.93565,34.6841],[-118.93572,34.68377],[-118.9357,34.68363],[-118.93567,34.68359],[-118.93563,34.68356],[-118.93541,34.68351],[-118.93528,34.68346],[-118.93515,34.68341],[-118.93507,34.68337],[-118.93505,34.68332],[-118.93503,34.68323],[-118.93504,34.68314],[-118.93506,34.68304],[-118.93506,34.68284],[-118.93507,34.68275],[-118.93515,34.68262],[-118.93528,34.6825],[-118.93531,34.68241],[-118.93529,34.68213],[-118.93526,34.68197],[-118.93525,34.6818],[-118.93523,34.68172],[-118.93519,34.68165],[-118.93509,34.68156],[-118.93502,34.68152],[-118.93489,34.68148],[-118.93482,34.68148],[-118.93471,34.68148],[-118.93461,34.68149],[-118.93442,34.68156],[-118.93433,34.68162],[-118.93428,34.68168],[-118.93425,34.68177],[-118.93425,34.68188],[-118.93425,34.68197],[-118.93414,34.68208],[-118.93401,34.68211],[-118.93368,34.68209],[-118.93337,34.68203],[-118.93321,34.68205],[-118.93312,34.68209],[-118.93305,34.6822],[-118.93301,34.6823],[-118.93296,34.68238],[-118.93285,34.68249],[-118.93272,34.68263],[-118.93258,34.6828],[-118.93249,34.68296],[-118.93242,34.68303],[-118.93232,34.68307],[-118.93223,34.6831],[-118.93213,34.68316],[-118.93203,34.68322],[-118.93197,34.6833],[-118.93188,34.68337],[-118.93178,34.68341],[-118.93152,34.68347],[-118.93142,34.68352],[-118.93136,34.68357],[-118.93134,34.68362],[-118.93137,34.68369],[-118.93144,34.68374],[-118.93159,34.68376],[-118.93191,34.68377],[-118.93209,34.68375],[-118.93223,34.68376],[-118.93241,34.68371],[-118.93249,34.68367],[-118.93255,34.6836],[-118.93262,34.68354],[-118.93273,34.68348],[-118.93283,34.68347],[-118.93289,34.68349],[-118.93296,34.6835],[-118.93305,34.68355],[-118.9331,34.68363],[-118.93307,34.68373],[-118.93299,34.68383],[-118.93281,34.68407],[-118.93262,34.68425],[-118.9325,34.68433],[-118.93245,34.6844],[-118.93242,34.68449],[-118.93246,34.6847],[-118.93242,34.68477],[-118.93239,34.68483],[-118.93241,34.68489],[-118.93266,34.68508],[-118.93273,34.68514],[-118.93273,34.68522],[-118.9327,34.68528],[-118.93261,34.68536],[-118.9325,34.68547],[-118.93211,34.68563],[-118.932,34.6857],[-118.93192,34.6858],[-118.93188,34.68586],[-118.93188,34.68592],[-118.9319,34.68596],[-118.93196,34.68602],[-118.93215,34.68609],[-118.93236,34.6862],[-118.93246,34.6863],[-118.93254,34.68637],[-118.9327,34.68644],[-118.93281,34.68647],[-118.93288,34.68651],[-118.93292,34.68654],[-118.93293,34.68658],[-118.93294,34.68665],[-118.93293,34.68677],[-118.93293,34.68686],[-118.93295,34.68694],[-118.93301,34.68703],[-118.9331,34.68709],[-118.9333,34.68717],[-118.93351,34.68723],[-118.93359,34.68729],[-118.93362,34.68738],[-118.93363,34.6878]]}},{"type":"Feature","properties":{"name":"Mountain Lilac Trial","road_class":"unclassified","surface":"unpaved","source":"Caltrans All Roads + OpenStreetMap explicit surface","source_detail":"osm way 10739858; Caltrans All Roads public-network geometry match","source_tile":"173/406","public_network_source":"Caltrans All Roads (ARNOLD/HPMS)","surface_source":"OpenStreetMap explicit surface tag","caltrans_match_coverage":1.0,"verified_length_m":511},"geometry":{"type":"LineString","coordinates":[[-119.0807,34.75904],[-119.08058,34.75903],[-119.08041,34.75903],[-119.08011,34.75901],[-119.07955,34.75899],[-119.07883,34.759],[-119.07736,34.75898],[-119.07732,34.75898],[-119.07628,34.75897],[-119.07512,34.75896]]}},{"type":"Feature","properties":{"name":"Adams Trail","road_class":"unclassified","surface":"unpaved","source":"Caltrans All Roads + OpenStreetMap explicit surface","source_detail":"osm way 10740700; Caltrans All Roads public-network geometry match","source_tile":"173/406","public_network_source":"Caltrans All Roads (ARNOLD/HPMS)","surface_source":"OpenStreetMap explicit surface tag","caltrans_match_coverage":1.0,"verified_length_m":1412},"geometry":{"type":"LineString","coordinates":[[-119.06753,34.7543],[-119.06758,34.75441],[-119.06753,34.75624],[-119.06752,34.75709],[-119.06752,34.7582],[-119.0675,34.75892],[-119.06749,34.76021],[-119.06748,34.76095],[-119.06743,34.76205],[-119.06745,34.76256],[-119.06742,34.76341],[-119.06741,34.76418],[-119.06741,34.76424],[-119.06741,34.76434],[-119.06743,34.76522],[-119.06744,34.76599],[-119.06745,34.76626],[-119.06745,34.7669],[-119.06744,34.76706]]}},{"type":"Feature","properties":{"name":"Powerline Road","road_class":"track","surface":"unpaved","motor_vehicle":"yes","source":"Caltrans All Roads + OpenStreetMap explicit surface","source_detail":"osm way 34424022; Caltrans All Roads public-network geometry match","source_tile":"173/406","public_network_source":"Caltrans All Roads (ARNOLD/HPMS)","surface_source":"OpenStreetMap explicit surface tag","caltrans_match_coverage":1.0,"verified_length_m":1637},"geometry":{"type":"LineString","coordinates":[[-118.88166,34.77889],[-118.88178,34.77887],[-118.88188,34.77885],[-118.88199,34.77884],[-118.8821,34.77885],[-118.88225,34.77889],[-118.88252,34.77896],[-118.88279,34.77906],[-118.88315,34.77917],[-118.88348,34.77926],[-118.88368,34.77932],[-118.88375,34.77937],[-118.8838,34.77941],[-118.88387,34.77951],[-118.88402,34.77977],[-118.88416,34.78003],[-118.88429,34.78024],[-118.88435,34.7804],[-118.88439,34.78054],[-118.88442,34.78069],[-118.88443,34.78083],[-118.88446,34.78095],[-118.88449,34.78102],[-118.88455,34.78109],[-118.88465,34.78113],[-118.88485,34.78118],[-118.88508,34.78125],[-118.8853,34.78135],[-118.88553,34.78147],[-118.88562,34.78153],[-118.8857,34.7816],[-118.88574,34.78167],[-118.88578,34.78176],[-118.88582,34.78186],[-118.88588,34.78195],[-118.88597,34.78201],[-118.88612,34.78208],[-118.88626,34.78215],[-118.88641,34.78225],[-118.88655,34.78238],[-118.88671,34.7825],[-118.8868,34.78257],[-118.88686,34.78262],[-118.8869,34.78268],[-118.88695,34.78276],[-118.88695,34.78283],[-118.88695,34.78293],[-118.88695,34.78306],[-118.88695,34.78323],[-118.88695,34.78335],[-118.88694,34.78345],[-118.88693,34.78355],[-118.88695,34.78364],[-118.88699,34.78372],[-118.88706,34.78379],[-118.88711,34.78387],[-118.88712,34.78395],[-118.8871,34.78398],[-118.88705,34.784],[-118.88698,34.784],[-118.88691,34.78397],[-118.88685,34.78393],[-118.88677,34.78388],[-118.88669,34.78384],[-118.88662,34.78379],[-118.88656,34.78374],[-118.8865,34.78367],[-118.88646,34.78356],[-118.88641,34.78345],[-118.88638,34.7834],[-118.88633,34.78336],[-118.88626,34.78332],[-118.8862,34.78333],[-118.88615,34.78334],[-118.88611,34.78337],[-118.8861,34.78342],[-118.8861,34.78348],[-118.88614,34.78359],[-118.88622,34.78376],[-118.88633,34.784],[-118.88645,34.78419],[-118.88659,34.78438],[-118.88683,34.78469],[-118.88701,34.78494],[-118.88714,34.78512],[-118.88726,34.78522],[-118.88744,34.78534],[-118.88757,34.78544],[-118.88766,34.78554],[-118.88774,34.78565],[-118.88785,34.78576],[-118.88796,34.78584],[-118.88812,34.78591],[-118.88833,34.78598],[-118.88871,34.7861],[-118.88896,34.78618],[-118.88912,34.78622],[-118.88926,34.78623],[-118.88941,34.78623],[-118.88963,34.7862],[-118.88994,34.78615],[-118.89029,34.78606],[-118.89053,34.78602],[-118.89077,34.78601],[-118.89103,34.78599],[-118.89119,34.78601],[-118.89131,34.78603],[-118.89144,34.78611]]}},{"type":"Feature","properties":{"name":"West End Drive","road_class":"track","surface":"dirt","tracktype":"grade4","source":"Caltrans All Roads + OpenStreetMap explicit surface","source_detail":"osm way 84963504; Caltrans All Roads public-network geometry match","source_tile":"173/406","public_network_source":"Caltrans All Roads (ARNOLD/HPMS)","surface_source":"OpenStreetMap explicit surface tag","caltrans_match_coverage":1.0,"verified_length_m":649},"geometry":{"type":"LineString","coordinates":[[-118.96582,34.82862],[-118.9658,34.82854],[-118.96575,34.82844],[-118.96565,34.82835],[-118.96552,34.82827],[-118.96541,34.82814],[-118.96488,34.8274],[-118.96463,34.82706],[-118.96433,34.82674],[-118.96391,34.82628],[-118.96353,34.8259],[-118.96341,34.82575],[-118.96318,34.82541],[-118.96267,34.8245],[-118.96248,34.82416],[-118.96238,34.82398],[-118.96218,34.82363]]}},{"type":"Feature","properties":{"name":"Piano Box Loop OHV Road","road_class":"track","surface":"ground","tracktype":"grade2","source":"Caltrans All Roads + OpenStreetMap explicit surface","source_detail":"osm way 138662224; Caltrans All Roads public-network geometry match","source_tile":"173/406","public_network_source":"Caltrans All Roads (ARNOLD/HPMS)","surface_source":"OpenStreetMap explicit surface tag","caltrans_match_coverage":1.0,"verified_length_m":1534},"geometry":{"type":"LineString","coordinates":[[-119.1189,34.68963],[-119.1188,34.68962],[-119.11868,34.68962],[-119.11848,34.68958],[-119.1179,34.6895],[-119.11751,34.68943],[-119.11732,34.68942],[-119.11718,34.68943],[-119.1171,34.68946],[-119.117,34.68949],[-119.11682,34.6896],[-119.11642,34.68981],[-119.11617,34.6899],[-119.11604,34.68994],[-119.11592,34.69],[-119.11584,34.69007],[-119.11574,34.69019],[-119.11569,34.69029],[-119.11556,34.6904],[-119.11535,34.69056],[-119.1152,34.69067],[-119.11499,34.69076],[-119.11487,34.69081],[-119.11471,34.69084],[-119.11457,34.69083],[-119.11434,34.69083],[-119.11393,34.69088],[-119.11347,34.69092],[-119.11328,34.69097],[-119.11316,34.69102],[-119.11298,34.69108],[-119.11279,34.69112],[-119.1126,34.69113],[-119.1124,34.69112],[-119.1122,34.6911],[-119.11187,34.69112],[-119.11133,34.69123],[-119.11098,34.69133],[-119.11077,34.69136],[-119.11027,34.69145],[-119.11017,34.69148],[-119.10982,34.69148],[-119.10971,34.69151],[-119.10963,34.69154],[-119.10952,34.69162],[-119.10939,34.69169],[-119.10917,34.6918],[-119.10897,34.69188],[-119.10887,34.69193],[-119.10873,34.69215],[-119.10867,34.69221],[-119.10857,34.69225],[-119.10841,34.6923],[-119.10836,34.69233],[-119.10824,34.69238],[-119.10818,34.69242],[-119.10785,34.6926],[-119.1075,34.69272],[-119.10725,34.69277],[-119.10601,34.69262],[-119.10574,34.69261],[-119.10541,34.69263],[-119.10528,34.69266],[-119.10505,34.69273],[-119.1049,34.69285],[-119.10473,34.69298],[-119.10458,34.69307],[-119.10414,34.69322],[-119.10407,34.69326],[-119.10402,34.69333],[-119.10403,34.69341],[-119.10413,34.69359]]}},{"type":"Feature","properties":{"name":"Piano Box Loop OHV Road","road_class":"track","surface":"ground","tracktype":"grade2","source":"Caltrans All Roads + OpenStreetMap explicit surface","source_detail":"osm way 138662258; Caltrans All Roads public-network geometry match","source_tile":"173/406","public_network_source":"Caltrans All Roads (ARNOLD/HPMS)","surface_source":"OpenStreetMap explicit surface tag","caltrans_match_coverage":1.0,"verified_length_m":1432},"geometry":{"type":"LineString","coordinates":[[-119.11826,34.69594],[-119.11817,34.6958],[-119.11815,34.69561],[-119.11807,34.69543],[-119.11786,34.6952],[-119.11769,34.69509],[-119.11741,34.69503],[-119.1171,34.69501],[-119.11694,34.69494],[-119.11654,34.69487],[-119.11626,34.69479],[-119.1161,34.69475],[-119.11574,34.69477],[-119.11538,34.69482],[-119.11502,34.69498],[-119.11479,34.69494],[-119.11457,34.69493],[-119.11423,34.69477],[-119.11398,34.69473],[-119.11381,34.69467],[-119.11361,34.69447],[-119.11328,34.69423],[-119.11297,34.69425],[-119.1128,34.69422],[-119.11263,34.69414],[-119.11243,34.6941],[-119.11189,34.69418],[-119.11167,34.69412],[-119.11145,34.69405],[-119.11113,34.69403],[-119.11078,34.69391],[-119.11054,34.69385],[-119.11033,34.69396],[-119.11027,34.69404],[-119.11011,34.69405],[-119.11003,34.69402],[-119.10991,34.69404],[-119.10976,34.69409],[-119.1096,34.69406],[-119.10937,34.69393],[-119.1087,34.69389],[-119.1084,34.69393],[-119.10814,34.69387],[-119.10767,34.69389],[-119.10696,34.69396],[-119.10626,34.69403],[-119.10585,34.69402],[-119.10558,34.69394],[-119.10542,34.69388],[-119.10527,34.69384],[-119.1051,34.69379],[-119.10495,34.69371],[-119.10475,34.69358],[-119.10459,34.69354],[-119.10439,34.69356],[-119.10413,34.69359]]}},{"type":"Feature","properties":{"name":"Frazier Mountain Road","road_class":"track","surface":"unpaved","tracktype":"grade2","source":"Caltrans All Roads + OpenStreetMap explicit surface","source_detail":"osm way 253558655; Caltrans All Roads public-network geometry match","source_tile":"173/406","public_network_source":"Caltrans All Roads (ARNOLD/HPMS)","surface_source":"OpenStreetMap explicit surface tag","caltrans_match_coverage":1.0,"verified_length_m":10225},"geometry":{"type":"LineString","coordinates":[[-119.00852,34.80245],[-119.00805,34.80186],[-119.00776,34.80142],[-119.00767,34.80123],[-119.00745,34.80072],[-119.00728,34.80043],[-119.00688,34.80003],[-119.0065,34.79974],[-119.00594,34.79941],[-119.00532,34.7991],[-119.00473,34.7989],[-119.00451,34.79876],[-119.00387,34.79818],[-119.00364,34.798],[-119.00323,34.79783],[-119.00299,34.79767],[-119.00267,34.79733],[-119.00248,34.79717],[-119.00173,34.79672],[-119.00149,34.79662],[-119.00132,34.79661],[-119.00105,34.79659],[-119.00088,34.79653],[-119.00079,34.79645],[-119.00074,34.79637],[-119.0007,34.79614],[-119.00061,34.79604],[-119.00047,34.79599],[-119.0003,34.796],[-118.99995,34.79607],[-118.99978,34.79613],[-118.99945,34.79631],[-118.99899,34.79646],[-118.99876,34.79657],[-118.99863,34.79658],[-118.99853,34.79657],[-118.99819,34.79645],[-118.99769,34.79639],[-118.99721,34.79625],[-118.99705,34.79621],[-118.99653,34.79612],[-118.99647,34.79606],[-118.99647,34.79602],[-118.99648,34.79598],[-118.99656,34.79595],[-118.99789,34.79608],[-118.99805,34.79606],[-118.99823,34.79599],[-118.9984,34.79587],[-118.9989,34.79536],[-118.99916,34.79501],[-118.99927,34.79483],[-118.9993,34.79469],[-118.99929,34.79452],[-118.99924,34.79437],[-118.99906,34.79414],[-118.99903,34.79407],[-118.99908,34.79383],[-118.99908,34.79374],[-118.99904,34.79365],[-118.99891,34.7935],[-118.99884,34.7934],[-118.99881,34.79326],[-118.99881,34.79314],[-118.99884,34.79307],[-118.99902,34.79285],[-118.99905,34.79276],[-118.99903,34.79266],[-118.99886,34.79226],[-118.99878,34.79202],[-118.99871,34.79142],[-118.9986,34.79117],[-118.99854,34.79109],[-118.99844,34.79103],[-118.99822,34.79095],[-118.99788,34.79085],[-118.99776,34.79078],[-118.99769,34.79067],[-118.99768,34.79054],[-118.99775,34.79032],[-118.99783,34.79019],[-118.99803,34.79001],[-118.99837,34.78981],[-118.99851,34.78958],[-118.99872,34.78945],[-118.9988,34.78939],[-118.99887,34.78926],[-118.99888,34.78902],[-118.9989,34.78892],[-118.99906,34.7885],[-118.99911,34.78844],[-118.9992,34.78841],[-118.99953,34.78848],[-119.0,34.78854],[-119.00019,34.78855],[-119.00081,34.78852],[-119.00101,34.78849],[-119.00123,34.78842],[-119.00138,34.78833],[-119.00161,34.78811],[-119.00178,34.788],[-119.00187,34.78792],[-119.00193,34.78781],[-119.00194,34.78769],[-119.00191,34.78755],[-119.00174,34.78732],[-119.00172,34.78717],[-119.00176,34.78689],[-119.00176,34.78665],[-119.00179,34.78648],[-119.00192,34.78621],[-119.00215,34.78598],[-119.0022,34.78587],[-119.00224,34.78561],[-119.00238,34.78528],[-119.0025,34.78511],[-119.00276,34.78488],[-119.00293,34.78469],[-119.00305,34.78449],[-119.00313,34.78424],[-119.00323,34.78413],[-119.00346,34.784],[-119.0035,34.78391],[-119.00347,34.78384],[-119.00334,34.78376],[-119.00249,34.78382],[-119.0022,34.78391],[-119.00183,34.78411],[-119.00149,34.78416],[-119.00101,34.78403],[-119.00082,34.78382],[-119.00067,34.78352],[-119.00056,34.78342],[-119.0004,34.78345],[-119.00016,34.7835],[-118.99984,34.78347],[-118.99949,34.78364],[-118.99928,34.78385],[-118.99883,34.78479],[-118.99863,34.78498],[-118.99824,34.78511],[-118.99812,34.78523],[-118.9981,34.78545],[-118.99795,34.78558],[-118.99724,34.78592],[-118.9971,34.78647],[-118.99694,34.78663],[-118.99677,34.7867],[-118.9965,34.78676],[-118.99622,34.78674],[-118.99577,34.78669],[-118.99532,34.78659],[-118.99496,34.78645],[-118.99449,34.78599],[-118.99422,34.78587],[-118.99399,34.78589],[-118.99386,34.78597],[-118.99382,34.78634],[-118.99372,34.78645],[-118.99357,34.7865],[-118.99337,34.78651],[-118.9931,34.78645],[-118.99287,34.78645],[-118.99251,34.78651],[-118.9919,34.78657],[-118.99166,34.78663],[-118.99151,34.78674],[-118.99137,34.78675],[-118.99132,34.78668],[-118.99136,34.78657],[-118.9919,34.78629],[-118.99211,34.78615],[-118.99231,34.78595],[-118.99263,34.78576],[-118.99267,34.78562],[-118.99266,34.78548],[-118.99223,34.78497],[-118.99224,34.78483],[-118.99233,34.78478],[-118.99247,34.78477],[-118.99292,34.78457],[-118.99363,34.78445],[-118.99435,34.78419],[-118.99454,34.78408],[-118.99501,34.78371],[-118.99504,34.7835],[-118.99492,34.78321],[-118.99458,34.78263],[-118.99456,34.78252],[-118.99463,34.78241],[-118.99516,34.78205],[-118.9956,34.78207],[-118.99586,34.78205],[-118.99621,34.78191],[-118.99654,34.78173],[-118.99659,34.78163],[-118.99659,34.78151],[-118.99646,34.7813],[-118.9965,34.78098],[-118.99663,34.78054],[-118.99661,34.78016],[-118.99646,34.77983],[-118.99634,34.77976],[-118.9962,34.77982],[-118.99618,34.77991],[-118.99618,34.78026],[-118.99593,34.78056],[-118.99435,34.78094],[-118.99385,34.78127],[-118.99286,34.78169],[-118.99267,34.78186],[-118.99243,34.78214],[-118.992,34.7825],[-118.99175,34.7826],[-118.99136,34.7826],[-118.99081,34.78234],[-118.99052,34.78228],[-118.99004,34.78225],[-118.98956,34.78229],[-118.98943,34.78224],[-118.98918,34.7819],[-118.98916,34.7818],[-118.98929,34.78172],[-118.99001,34.78178],[-118.99054,34.78175],[-118.99101,34.78157],[-118.99117,34.78142],[-118.99118,34.78123],[-118.99099,34.78114],[-118.99076,34.78114],[-118.99023,34.78119],[-118.9897,34.78118],[-118.98905,34.78088],[-118.98885,34.78086],[-118.98848,34.78091],[-118.98778,34.78129],[-118.98735,34.78134],[-118.9871,34.78127],[-118.9868,34.78089],[-118.98669,34.78087],[-118.98656,34.78088],[-118.98616,34.78114],[-118.98586,34.78143],[-118.98534,34.78217],[-118.98493,34.78258],[-118.98454,34.78286],[-118.98435,34.78292],[-118.98416,34.78293],[-118.98385,34.78287],[-118.98342,34.7826],[-118.98318,34.78249],[-118.98247,34.78238],[-118.98201,34.78213],[-118.98186,34.78198],[-118.98143,34.78176],[-118.981,34.78158],[-118.98047,34.78151],[-118.9792,34.78156],[-118.9791,34.78155],[-118.97901,34.7815],[-118.97898,34.78118],[-118.97907,34.78076],[-118.97905,34.7804],[-118.97889,34.78018],[-118.9786,34.77976],[-118.97853,34.77959],[-118.97863,34.77952],[-118.97927,34.77942],[-118.97944,34.77927],[-118.97966,34.77895],[-118.97997,34.77887],[-118.98018,34.77881],[-118.98034,34.77864],[-118.98045,34.77838],[-118.98043,34.77818],[-118.98033,34.77803],[-118.97989,34.77763],[-118.97948,34.77738],[-118.97894,34.77678],[-118.97857,34.77606],[-118.97815,34.77543],[-118.97798,34.77524],[-118.97769,34.77501],[-118.9774,34.77485],[-118.97719,34.77455],[-118.97665,34.77382],[-118.97598,34.77361],[-118.97583,34.77358],[-118.97543,34.77367],[-118.97491,34.77385],[-118.97429,34.77367],[-118.97379,34.77365],[-118.97191,34.77367],[-118.9713,34.77372],[-118.97092,34.77387],[-118.97069,34.77405],[-118.97037,34.77467],[-118.97004,34.77517],[-118.96968,34.77545]]}},{"type":"Feature","properties":{"name":"(unnamed public road)","road_class":"track","surface":"unpaved","source":"Caltrans All Roads + OpenStreetMap explicit surface","source_detail":"osm way 392843904; Caltrans All Roads public-network geometry match","source_tile":"173/406","public_network_source":"Caltrans All Roads (ARNOLD/HPMS)","surface_source":"OpenStreetMap explicit surface tag","caltrans_match_coverage":1.0,"verified_length_m":1694},"geometry":{"type":"LineString","coordinates":[[-119.11037,34.78024],[-119.10986,34.78044],[-119.10967,34.78048],[-119.10917,34.78035],[-119.10875,34.78031],[-119.10837,34.78031],[-119.10791,34.78013],[-119.10758,34.78006],[-119.10741,34.78014],[-119.10721,34.78006],[-119.10722,34.77998],[-119.10727,34.77991],[-119.10741,34.77972],[-119.10682,34.7794],[-119.10643,34.7793],[-119.10616,34.77911],[-119.10599,34.77909],[-119.1058,34.77896],[-119.10555,34.77863],[-119.10528,34.77836],[-119.1052,34.7783],[-119.10525,34.77816],[-119.10527,34.77792],[-119.10535,34.77767],[-119.1054,34.77762],[-119.10537,34.77753],[-119.10543,34.77743],[-119.10555,34.77731],[-119.10567,34.77724],[-119.10566,34.77717],[-119.10557,34.77714],[-119.10542,34.77711],[-119.10531,34.77702],[-119.10512,34.77708],[-119.10492,34.77722],[-119.10482,34.77721],[-119.10479,34.77714],[-119.10467,34.77707],[-119.10421,34.77703],[-119.10383,34.77682],[-119.10367,34.77683],[-119.10341,34.77696],[-119.10261,34.77771],[-119.10245,34.77795],[-119.10246,34.77852],[-119.1024,34.77867],[-119.10209,34.77907],[-119.10168,34.77961],[-119.10127,34.77993],[-119.10111,34.77998],[-119.10094,34.77998],[-119.10065,34.77997],[-119.10044,34.78006],[-119.10016,34.78037],[-119.09981,34.78067],[-119.09924,34.78095],[-119.09856,34.78139]]}},{"type":"Feature","properties":{"name":"Forest Route 9N01","road_class":"track","surface":"unpaved","source":"Caltrans All Roads + OpenStreetMap explicit surface","source_detail":"osm way 400895020; Caltrans All Roads public-network geometry match","source_tile":"173/406","public_network_source":"Caltrans All Roads (ARNOLD/HPMS)","surface_source":"OpenStreetMap explicit surface tag","caltrans_match_coverage":1.0,"verified_length_m":3993},"geometry":{"type":"LineString","coordinates":[[-118.93103,34.83374],[-118.93076,34.8336],[-118.93065,34.83348],[-118.93055,34.83338],[-118.93048,34.83315],[-118.93051,34.83302],[-118.9305,34.83291],[-118.93044,34.83281],[-118.93036,34.83269],[-118.93027,34.83264],[-118.93019,34.83258],[-118.93009,34.83252],[-118.92998,34.8325],[-118.92989,34.83249],[-118.92978,34.83247],[-118.92968,34.83243],[-118.92963,34.83237],[-118.92956,34.83223],[-118.92947,34.83207],[-118.92939,34.83194],[-118.92928,34.83187],[-118.92911,34.83176],[-118.92891,34.83168],[-118.92869,34.83162],[-118.92855,34.83159],[-118.92848,34.83155],[-118.9283,34.8314],[-118.92803,34.83128],[-118.92797,34.83122],[-118.92785,34.83102],[-118.92765,34.83087],[-118.92761,34.83081],[-118.92768,34.83071],[-118.92772,34.83057],[-118.92781,34.83047],[-118.928,34.83032],[-118.92821,34.83018],[-118.9283,34.83012],[-118.92832,34.83005],[-118.92835,34.82991],[-118.92838,34.82963],[-118.92836,34.82948],[-118.92821,34.82931],[-118.92811,34.82913],[-118.92799,34.82899],[-118.92787,34.82887],[-118.92772,34.82884],[-118.92748,34.82885],[-118.92729,34.82878],[-118.92721,34.82874],[-118.92716,34.82865],[-118.92712,34.82836],[-118.92705,34.82828],[-118.92694,34.82823],[-118.92674,34.82828],[-118.92664,34.82838],[-118.92658,34.82849],[-118.92654,34.82861],[-118.9265,34.82881],[-118.92646,34.82901],[-118.92646,34.8291],[-118.92653,34.82931],[-118.92649,34.8296],[-118.92644,34.82971],[-118.92638,34.82974],[-118.92632,34.82985],[-118.92632,34.82997],[-118.92634,34.83015],[-118.92638,34.8304],[-118.92637,34.83055],[-118.92632,34.83069],[-118.92629,34.83087],[-118.92631,34.831],[-118.92632,34.83104],[-118.92641,34.83113],[-118.92673,34.8314],[-118.9268,34.83149],[-118.92681,34.83154],[-118.92698,34.83227],[-118.92699,34.83239],[-118.92694,34.83253],[-118.92679,34.83277],[-118.92657,34.83308],[-118.92638,34.8333],[-118.92635,34.83335],[-118.92632,34.83346],[-118.92628,34.83364],[-118.92622,34.83377],[-118.92621,34.83385],[-118.92622,34.83416],[-118.92622,34.83427],[-118.92618,34.83436],[-118.92612,34.83442],[-118.92605,34.83447],[-118.92582,34.83458],[-118.92575,34.83457],[-118.92552,34.83437],[-118.92544,34.83433],[-118.92533,34.83431],[-118.9252,34.83432],[-118.92504,34.83437],[-118.92442,34.83454],[-118.92432,34.83454],[-118.92429,34.83454],[-118.92409,34.83441],[-118.92398,34.8344],[-118.92364,34.8344],[-118.92354,34.83438],[-118.92325,34.83427],[-118.92287,34.83412],[-118.92279,34.83411],[-118.92263,34.83413],[-118.92224,34.83427],[-118.92213,34.83429],[-118.9208,34.83431],[-118.92069,34.83429],[-118.92066,34.83428],[-118.92059,34.83423],[-118.92046,34.83412],[-118.9202,34.83402],[-118.92014,34.83398],[-118.92011,34.83393],[-118.9201,34.83391],[-118.92011,34.83381],[-118.91996,34.83369],[-118.91994,34.83365],[-118.91992,34.83353],[-118.91986,34.83339],[-118.91981,34.83287],[-118.91978,34.83283],[-118.91976,34.83281],[-118.91967,34.83279],[-118.91937,34.83278],[-118.91887,34.83281],[-118.91872,34.83285],[-118.91861,34.83291],[-118.9185,34.83299],[-118.91843,34.83308],[-118.91838,34.83318],[-118.91825,34.83348],[-118.91804,34.83375],[-118.91794,34.83385],[-118.91743,34.83415],[-118.9174,34.83422],[-118.91742,34.83437],[-118.91749,34.83461],[-118.91752,34.83475],[-118.9176,34.83535],[-118.9177,34.83552],[-118.91796,34.83583],[-118.9183,34.83616],[-118.91875,34.83648],[-118.91878,34.83652],[-118.91879,34.8367],[-118.91884,34.83675],[-118.91896,34.83684],[-118.91904,34.83689],[-118.91915,34.83693],[-118.91922,34.83696],[-118.91926,34.83696],[-118.91946,34.83694],[-118.91951,34.83694],[-118.91961,34.83696],[-118.92008,34.83701],[-118.92017,34.83704],[-118.92023,34.83707],[-118.92037,34.8372],[-118.92044,34.83727],[-118.92049,34.83735],[-118.92049,34.83752],[-118.92052,34.8376],[-118.92063,34.83784],[-118.92072,34.83797],[-118.92081,34.83806],[-118.92089,34.83811],[-118.92132,34.83831],[-118.92136,34.83834],[-118.9214,34.83838],[-118.92143,34.83845],[-118.92144,34.83849],[-118.92141,34.83863],[-118.92128,34.83891],[-118.92128,34.83895],[-118.92131,34.83899],[-118.92151,34.83911],[-118.92167,34.83915],[-118.92181,34.83923],[-118.9219,34.83933],[-118.92239,34.83967],[-118.92251,34.83977],[-118.92258,34.83988],[-118.9226,34.83992],[-118.92262,34.84004],[-118.92261,34.84011],[-118.92259,34.84019],[-118.92253,34.84032],[-118.9225,34.84037],[-118.92244,34.84042],[-118.92225,34.84054],[-118.92194,34.84071],[-118.92179,34.84076],[-118.92154,34.8408],[-118.92139,34.84086],[-118.92114,34.84088],[-118.92091,34.84089],[-118.92053,34.84088],[-118.92034,34.84085],[-118.91977,34.84085],[-118.91968,34.84085],[-118.91958,34.84082],[-118.91929,34.84077],[-118.91898,34.84077],[-118.91862,34.8408],[-118.91816,34.84091]]}},{"type":"Feature","properties":{"name":"Half Moon OHV Trail #132","road_class":"track","surface":"dirt","tracktype":"grade3","motor_vehicle":"yes","source":"Caltrans All Roads + OpenStreetMap explicit surface","source_detail":"osm way 405080459; Caltrans All Roads public-network geometry match","source_tile":"173/406","public_network_source":"Caltrans All Roads (ARNOLD/HPMS)","surface_source":"OpenStreetMap explicit surface tag","caltrans_match_coverage":1.0,"verified_length_m":547},"geometry":{"type":"LineString","coordinates":[[-119.06747,34.6513],[-119.06751,34.65098],[-119.06766,34.6506],[-119.06775,34.65038],[-119.06783,34.65021],[-119.06796,34.65],[-119.06802,34.64985],[-119.06806,34.64974],[-119.06812,34.64962],[-119.06819,34.64947],[-119.06826,34.64934],[-119.06859,34.64907],[-119.06875,34.64894],[-119.06916,34.6487],[-119.06944,34.64854],[-119.06964,34.6484],[-119.06985,34.64832],[-119.07003,34.6482],[-119.07008,34.64805],[-119.07017,34.64785],[-119.07025,34.64772],[-119.07032,34.64758],[-119.07041,34.64744],[-119.07056,34.64731]]}},{"type":"Feature","properties":{"name":"Mountain Lilac Trial","road_class":"unclassified","surface":"unpaved","source":"Caltrans All Roads + OpenStreetMap explicit surface","source_detail":"osm way 425189001; Caltrans All Roads public-network geometry match","source_tile":"173/406","public_network_source":"Caltrans All Roads (ARNOLD/HPMS)","surface_source":"OpenStreetMap explicit surface tag","caltrans_match_coverage":1.0,"verified_length_m":697},"geometry":{"type":"LineString","coordinates":[[-119.07512,34.75896],[-119.07306,34.75894],[-119.07178,34.75894],[-119.07112,34.75893],[-119.07077,34.75894],[-119.07075,34.75894],[-119.07037,34.75893],[-119.06989,34.75893],[-119.0696,34.75893],[-119.0675,34.75892]]}},{"type":"Feature","properties":{"name":"Mile High Trail","road_class":"track","surface":"dirt","source":"Caltrans All Roads + OpenStreetMap explicit surface","source_detail":"osm way 425189002; Caltrans All Roads public-network geometry match","source_tile":"173/406","public_network_source":"Caltrans All Roads (ARNOLD/HPMS)","surface_source":"OpenStreetMap explicit surface tag","caltrans_match_coverage":1.0,"verified_length_m":612},"geometry":{"type":"LineString","coordinates":[[-119.07512,34.75896],[-119.07515,34.75966],[-119.07508,34.76259],[-119.07513,34.76291],[-119.07506,34.76449]]}},{"type":"Feature","properties":{"name":"(unnamed public road)","road_class":"track","surface":"unpaved","source":"Caltrans All Roads + OpenStreetMap explicit surface","source_detail":"osm way 443131017; Caltrans All Roads public-network geometry match","source_tile":"173/406","public_network_source":"Caltrans All Roads (ARNOLD/HPMS)","surface_source":"OpenStreetMap explicit surface tag","caltrans_match_coverage":0.871,"verified_length_m":836},"geometry":{"type":"LineString","coordinates":[[-119.09715,34.83789],[-119.09739,34.83785],[-119.09755,34.83782],[-119.09767,34.83786],[-119.09763,34.83795],[-119.09749,34.838],[-119.09737,34.83795],[-119.09715,34.83789],[-119.09692,34.83782],[-119.09639,34.83783],[-119.09601,34.83779],[-119.09593,34.83782],[-119.09589,34.83787],[-119.09586,34.83792],[-119.09583,34.838],[-119.09587,34.83805],[-119.0959,34.83817],[-119.0959,34.83828],[-119.09583,34.83837],[-119.09569,34.83842],[-119.0955,34.83848],[-119.09525,34.83859],[-119.0951,34.83859],[-119.09492,34.83859],[-119.09486,34.8386],[-119.09481,34.83863],[-119.09471,34.83873],[-119.09469,34.8388],[-119.09468,34.83886],[-119.0947,34.8389],[-119.09482,34.83903],[-119.09486,34.83908],[-119.09502,34.83929],[-119.09513,34.83952],[-119.09517,34.83972],[-119.09517,34.83987],[-119.09512,34.83997],[-119.09503,34.84],[-119.09491,34.83998],[-119.09466,34.83983],[-119.09447,34.83976],[-119.09425,34.83971],[-119.09383,34.83964],[-119.09339,34.83961],[-119.09328,34.83963],[-119.09306,34.83965],[-119.09283,34.83973],[-119.09282,34.83982],[-119.09286,34.83994],[-119.09283,34.84008],[-119.09262,34.84022]]}},{"type":"Feature","properties":{"name":"Mutau OHV Road","road_class":"unclassified","surface":"dirt","motor_vehicle":"yes","source":"Caltrans All Roads + OpenStreetMap explicit surface","source_detail":"osm way 967487587; Caltrans All Roads public-network geometry match","source_tile":"173/406","public_network_source":"Caltrans All Roads (ARNOLD/HPMS)","surface_source":"OpenStreetMap explicit surface tag","caltrans_match_coverage":1.0,"verified_length_m":4010},"geometry":{"type":"LineString","coordinates":[[-119.10002,34.63977],[-119.10006,34.63943],[-119.10009,34.63935],[-119.10015,34.63927],[-119.10029,34.63914],[-119.10043,34.63894],[-119.10046,34.63883],[-119.1007,34.63855],[-119.10075,34.63842],[-119.10077,34.63828],[-119.10077,34.63803],[-119.10074,34.63784],[-119.1006,34.63767],[-119.10029,34.63742],[-119.10008,34.6373],[-119.09948,34.63716],[-119.09926,34.63719],[-119.09897,34.63728],[-119.09872,34.63739],[-119.09851,34.6375],[-119.09832,34.63768],[-119.09821,34.63786],[-119.09798,34.63809],[-119.09772,34.63824],[-119.09729,34.63872],[-119.09714,34.63905],[-119.09698,34.63931],[-119.09675,34.63958],[-119.09647,34.63985],[-119.09624,34.63995],[-119.09607,34.63998],[-119.09568,34.63998],[-119.09541,34.64006],[-119.09523,34.64015],[-119.09499,34.64037],[-119.09479,34.64052],[-119.09455,34.64062],[-119.09436,34.64076],[-119.09422,34.64092],[-119.09388,34.64153],[-119.09354,34.64195],[-119.09308,34.64231],[-119.09273,34.64253],[-119.09244,34.6427],[-119.09199,34.64289],[-119.0906,34.64316],[-119.08969,34.64322],[-119.08867,34.6434],[-119.08775,34.64354],[-119.08743,34.64355],[-119.08719,34.64353],[-119.08699,34.64347],[-119.08606,34.64285],[-119.0858,34.64263],[-119.08568,34.64245],[-119.08556,34.64222],[-119.08527,34.64149],[-119.08519,34.64118],[-119.08511,34.64098],[-119.08499,34.64081],[-119.08481,34.64062],[-119.08459,34.64043],[-119.0844,34.64035],[-119.0842,34.64033],[-119.08399,34.64032],[-119.08374,34.64037],[-119.08356,34.64046],[-119.08342,34.64055],[-119.08331,34.64066],[-119.08313,34.64088],[-119.08283,34.64122],[-119.08276,34.64127],[-119.08262,34.64131],[-119.08238,34.64135],[-119.08219,34.64145],[-119.0819,34.6416],[-119.08178,34.64168],[-119.08166,34.64186],[-119.08159,34.6419],[-119.08144,34.64192],[-119.0811,34.64189],[-119.08093,34.64185],[-119.08076,34.64176],[-119.08067,34.64173],[-119.08052,34.64175],[-119.08039,34.64183],[-119.08029,34.64192],[-119.08023,34.64203],[-119.08019,34.64223],[-119.08013,34.64297],[-119.08002,34.64342],[-119.07953,34.64407],[-119.07932,34.64429],[-119.07904,34.64447],[-119.0788,34.64461],[-119.07859,34.64471],[-119.07832,34.64475],[-119.07793,34.6448],[-119.07726,34.64491],[-119.07685,34.64495],[-119.07669,34.64499],[-119.07643,34.64495],[-119.07597,34.6448],[-119.07541,34.64443],[-119.07521,34.64432],[-119.07487,34.6442],[-119.07472,34.6442],[-119.07452,34.64422],[-119.07436,34.64431],[-119.07419,34.64444],[-119.07411,34.64453],[-119.07365,34.64488],[-119.07351,34.64508],[-119.07338,34.64536],[-119.07338,34.64579],[-119.07334,34.64631],[-119.07326,34.64658],[-119.07297,34.64721],[-119.07275,34.6475],[-119.07262,34.64761],[-119.07228,34.64787],[-119.07211,34.64793],[-119.07197,34.64793],[-119.07183,34.64791],[-119.07169,34.64786]]}},{"type":"Feature","properties":{"name":"Mutau OHV Road","road_class":"unclassified","surface":"dirt","motor_vehicle":"yes","source":"Caltrans All Roads + OpenStreetMap explicit surface","source_detail":"osm way 967487609; Caltrans All Roads public-network geometry match","source_tile":"173/406","public_network_source":"Caltrans All Roads (ARNOLD/HPMS)","surface_source":"OpenStreetMap explicit surface tag","caltrans_match_coverage":1.0,"verified_length_m":2554},"geometry":{"type":"LineString","coordinates":[[-119.07134,34.64765],[-119.07106,34.6475],[-119.07083,34.64739],[-119.07056,34.64731],[-119.0701,34.64714],[-119.06981,34.64694],[-119.06966,34.64693],[-119.06943,34.64695],[-119.06917,34.64698],[-119.06869,34.64695],[-119.06802,34.64687],[-119.06784,34.64687],[-119.06761,34.64696],[-119.06666,34.64751],[-119.06642,34.64771],[-119.06626,34.64785],[-119.06618,34.64789],[-119.06606,34.64789],[-119.06595,34.64788],[-119.0658,34.64782],[-119.06537,34.64756],[-119.06527,34.64752],[-119.06508,34.6475],[-119.06474,34.64745],[-119.06428,34.64736],[-119.06408,34.64729],[-119.06389,34.64717],[-119.06371,34.647],[-119.06348,34.64667],[-119.06336,34.64655],[-119.06313,34.64641],[-119.0622,34.64597],[-119.06194,34.64581],[-119.06185,34.64567],[-119.06108,34.64499],[-119.06082,34.64478],[-119.06056,34.64448],[-119.06024,34.6442],[-119.05982,34.64395],[-119.05961,34.64359],[-119.05913,34.64304],[-119.05902,34.6429],[-119.0588,34.6428],[-119.05848,34.64275],[-119.05829,34.64267],[-119.05804,34.64255],[-119.05763,34.64236],[-119.05725,34.64202],[-119.05708,34.64198],[-119.057,34.64203],[-119.05688,34.64204],[-119.05663,34.6419],[-119.05635,34.64184],[-119.0559,34.64181],[-119.05558,34.64186],[-119.05543,34.64193],[-119.05526,34.64204],[-119.05509,34.64225],[-119.05497,34.64233],[-119.05491,34.64235],[-119.05483,34.64234],[-119.0548,34.64226],[-119.05479,34.64213],[-119.05485,34.64193],[-119.05484,34.64184],[-119.05479,34.64176],[-119.0546,34.64163],[-119.05448,34.6416],[-119.05436,34.64159],[-119.05421,34.64155],[-119.05407,34.64146],[-119.0539,34.64139],[-119.05364,34.64132],[-119.05341,34.64125],[-119.05323,34.64124],[-119.05306,34.64122],[-119.05293,34.64116],[-119.05278,34.64105],[-119.05258,34.64099],[-119.05244,34.64099],[-119.05219,34.64116],[-119.05212,34.64119],[-119.05204,34.64121],[-119.05199,34.64119],[-119.05193,34.64115],[-119.05183,34.64095],[-119.05171,34.64076],[-119.05143,34.64044],[-119.05128,34.64017],[-119.05122,34.64],[-119.05109,34.63947],[-119.05093,34.639],[-119.05078,34.63874],[-119.05061,34.63856],[-119.05055,34.63849]]}},{"type":"Feature","properties":{"name":"Ridge Route Drive","road_class":"track","surface":"dirt","tracktype":"grade4","source":"Caltrans All Roads + OpenStreetMap explicit surface","source_detail":"osm way 1529433174; Caltrans All Roads public-network geometry match","source_tile":"173/406","public_network_source":"Caltrans All Roads (ARNOLD/HPMS)","surface_source":"OpenStreetMap explicit surface tag","caltrans_match_coverage":1.0,"verified_length_m":1052},"geometry":{"type":"LineString","coordinates":[[-118.86945,34.83706],[-118.86838,34.83711],[-118.86823,34.8371],[-118.86788,34.83712],[-118.86759,34.83708],[-118.8673,34.83714],[-118.8668,34.83729],[-118.8664,34.83766],[-118.86612,34.83797],[-118.86586,34.83821],[-118.86583,34.83841],[-118.8658,34.83874],[-118.86576,34.83891],[-118.86569,34.83895],[-118.86555,34.83898],[-118.86533,34.83891],[-118.86507,34.83884],[-118.86502,34.83876],[-118.86503,34.83869],[-118.86512,34.83862],[-118.86518,34.8385],[-118.86534,34.8384],[-118.86543,34.83827],[-118.8655,34.83817],[-118.86559,34.83806],[-118.86561,34.83791],[-118.86552,34.83779],[-118.86549,34.83768],[-118.86554,34.83761],[-118.86566,34.83752],[-118.86566,34.83742],[-118.86567,34.83729],[-118.86572,34.83715],[-118.86561,34.83699],[-118.86546,34.83676],[-118.86538,34.83654],[-118.86545,34.83642],[-118.86566,34.83636],[-118.86578,34.83624],[-118.86588,34.83606],[-118.86594,34.83583],[-118.86595,34.83569],[-118.8659,34.83562],[-118.86578,34.83552],[-118.8656,34.83544],[-118.86543,34.83543],[-118.86527,34.83544],[-118.86478,34.83532]]}}]}