{"type":"FeatureCollection","features":[{"type":"Feature","properties":{"name":"(unnamed public road)","road_class":"track","surface":"dirt","source":"Caltrans All Roads + OpenStreetMap explicit surface","source_detail":"osm way 10714824; Caltrans All Roads public-network geometry match","source_tile":"173/407","public_network_source":"Caltrans All Roads (ARNOLD/HPMS)","surface_source":"OpenStreetMap explicit surface tag","caltrans_match_coverage":1.0,"verified_length_m":579},"geometry":{"type":"LineString","coordinates":[[-118.87776,34.47995],[-118.87775,34.47989],[-118.87777,34.47981],[-118.87779,34.47973],[-118.87784,34.47962],[-118.87797,34.47949],[-118.87805,34.47942],[-118.87814,34.47933],[-118.8782,34.47925],[-118.87822,34.47918],[-118.87826,34.47904],[-118.8783,34.47897],[-118.87836,34.47893],[-118.87843,34.47893],[-118.87846,34.47893],[-118.8785,34.47897],[-118.87852,34.47902],[-118.87845,34.47922],[-118.8784,34.47945],[-118.87828,34.47979],[-118.87826,34.47988],[-118.87828,34.47996],[-118.87832,34.48004],[-118.87839,34.48006],[-118.87845,34.48006],[-118.8785,34.48004],[-118.87873,34.47979],[-118.87887,34.47966],[-118.87895,34.47961],[-118.87906,34.47957],[-118.87917,34.47955],[-118.87931,34.47955],[-118.87943,34.47957],[-118.87957,34.47961],[-118.87974,34.47966],[-118.8798,34.47969],[-118.87991,34.47971],[-118.88,34.47971],[-118.88011,34.47971],[-118.8802,34.47968],[-118.88026,34.47964],[-118.88038,34.47957],[-118.88043,34.47952],[-118.88045,34.47946],[-118.88044,34.47939],[-118.8804,34.47928],[-118.88032,34.47912],[-118.88033,34.47906],[-118.88037,34.47903],[-118.88052,34.47899],[-118.88064,34.47901]]}},{"type":"Feature","properties":{"name":"(unnamed public road)","road_class":"track","surface":"dirt","source":"Caltrans All Roads + OpenStreetMap explicit surface","source_detail":"osm way 10718154; Caltrans All Roads public-network geometry match","source_tile":"173/407","public_network_source":"Caltrans All Roads (ARNOLD/HPMS)","surface_source":"OpenStreetMap explicit surface tag","caltrans_match_coverage":0.982,"verified_length_m":1842},"geometry":{"type":"LineString","coordinates":[[-118.87128,34.46601],[-118.87119,34.46632],[-118.87119,34.46649],[-118.87119,34.46658],[-118.87121,34.46665],[-118.87124,34.4667],[-118.87127,34.46674],[-118.87131,34.46677],[-118.87133,34.46677],[-118.87136,34.46678],[-118.87142,34.46678],[-118.87147,34.46677],[-118.87151,34.46675],[-118.87155,34.46672],[-118.87158,34.46668],[-118.87162,34.4666],[-118.87164,34.46651],[-118.87167,34.46647],[-118.87175,34.46641],[-118.87187,34.46637],[-118.87199,34.46631],[-118.87205,34.46626],[-118.87215,34.4662],[-118.87222,34.46618],[-118.87233,34.46616],[-118.8724,34.46616],[-118.87268,34.46619],[-118.87275,34.46621],[-118.87278,34.46623],[-118.8728,34.46625],[-118.87281,34.46627],[-118.8728,34.46632],[-118.87275,34.46635],[-118.87266,34.46635],[-118.87254,34.46635],[-118.87248,34.46636],[-118.87244,34.46637],[-118.87237,34.46643],[-118.87232,34.46648],[-118.8723,34.4665],[-118.87229,34.46658],[-118.87228,34.46665],[-118.87229,34.46671],[-118.87234,34.46697],[-118.87234,34.46709],[-118.8723,34.4672],[-118.87227,34.46728],[-118.87224,34.46735],[-118.87222,34.4674],[-118.87215,34.46744],[-118.87208,34.46748],[-118.872,34.46753],[-118.87195,34.46756],[-118.87194,34.46759],[-118.87194,34.46763],[-118.87196,34.46766],[-118.872,34.46767],[-118.87209,34.46766],[-118.8722,34.46763],[-118.87233,34.46757],[-118.8725,34.46748],[-118.87263,34.46742],[-118.87283,34.46736],[-118.87308,34.46729],[-118.87314,34.46727],[-118.87321,34.46723],[-118.87328,34.46718],[-118.87346,34.46711],[-118.87354,34.46709],[-118.87363,34.46707],[-118.8737,34.46707],[-118.87379,34.46707],[-118.87385,34.46709],[-118.8739,34.4671],[-118.87394,34.46713],[-118.87395,34.46716],[-118.87396,34.46721],[-118.87396,34.46723],[-118.87394,34.46727],[-118.87391,34.46732],[-118.87378,34.46746],[-118.87371,34.46749],[-118.87349,34.46756],[-118.87339,34.4676],[-118.87335,34.46763],[-118.87332,34.46766],[-118.87333,34.4677],[-118.87336,34.46773],[-118.8734,34.46776],[-118.87345,34.46778],[-118.87356,34.4678],[-118.87363,34.46779],[-118.87394,34.4677],[-118.87408,34.46768],[-118.87427,34.4677],[-118.87432,34.46771],[-118.87472,34.46786],[-118.87483,34.4679],[-118.87507,34.46802],[-118.87514,34.46806],[-118.87518,34.46809],[-118.87525,34.46812],[-118.87532,34.46814],[-118.87538,34.46814],[-118.87543,34.46813],[-118.87547,34.46812],[-118.8755,34.46809],[-118.87554,34.46803],[-118.87555,34.46791],[-118.87558,34.46787],[-118.87562,34.46786],[-118.87569,34.46784],[-118.87579,34.46783],[-118.87589,34.46781],[-118.87597,34.46778],[-118.87619,34.46766],[-118.87637,34.46754],[-118.87645,34.4675],[-118.87654,34.46746],[-118.87663,34.46741],[-118.8767,34.46739],[-118.87679,34.4674],[-118.87684,34.46743],[-118.87689,34.46746],[-118.87691,34.46749],[-118.87692,34.46753],[-118.8769,34.46758],[-118.87688,34.46761],[-118.87683,34.46764],[-118.87677,34.46768],[-118.87669,34.46769],[-118.87651,34.46777],[-118.8764,34.46783],[-118.87634,34.46787],[-118.87626,34.46793],[-118.87608,34.46814],[-118.87604,34.46821],[-118.87596,34.46835],[-118.87591,34.46845],[-118.87588,34.46854],[-118.87587,34.4686],[-118.87589,34.46871],[-118.87591,34.46874],[-118.87593,34.46877],[-118.87595,34.46879],[-118.87598,34.46881],[-118.87602,34.46882],[-118.8761,34.46882],[-118.87615,34.46881],[-118.87619,34.46879],[-118.87624,34.46875],[-118.87629,34.46865],[-118.87632,34.46857],[-118.87636,34.46848],[-118.87639,34.46839],[-118.87643,34.46835],[-118.87647,34.46832],[-118.87649,34.4683],[-118.87653,34.46829],[-118.87657,34.46829],[-118.87661,34.46831],[-118.87663,34.46834],[-118.87664,34.46837],[-118.87663,34.46841],[-118.87662,34.46854],[-118.87664,34.46865],[-118.87669,34.46884],[-118.87671,34.46906],[-118.87671,34.4692],[-118.8767,34.46948],[-118.87665,34.46967],[-118.87647,34.47023],[-118.87642,34.47032],[-118.87633,34.4704],[-118.87621,34.47046],[-118.87591,34.47053],[-118.87573,34.47055],[-118.87557,34.47058],[-118.87548,34.47061],[-118.87546,34.47065],[-118.87547,34.4707],[-118.87552,34.47073],[-118.87559,34.47073],[-118.87583,34.47067],[-118.87603,34.47063],[-118.87621,34.4706],[-118.87631,34.47062]]}},{"type":"Feature","properties":{"name":"(unnamed public road)","road_class":"track","surface":"dirt","source":"Caltrans All Roads + OpenStreetMap explicit surface","source_detail":"osm way 10720901; Caltrans All Roads public-network geometry match","source_tile":"173/407","public_network_source":"Caltrans All Roads (ARNOLD/HPMS)","surface_source":"OpenStreetMap explicit surface tag","caltrans_match_coverage":1.0,"verified_length_m":725},"geometry":{"type":"LineString","coordinates":[[-118.87603,34.47083],[-118.87608,34.47086],[-118.87614,34.47087],[-118.87627,34.4709],[-118.87638,34.47091],[-118.87648,34.47091],[-118.87658,34.47088],[-118.87665,34.47085],[-118.87671,34.4708],[-118.87677,34.47075],[-118.87689,34.47067],[-118.877,34.47062],[-118.87713,34.47058],[-118.87726,34.47055],[-118.87738,34.47053],[-118.8775,34.47052],[-118.8776,34.47051],[-118.8777,34.47053],[-118.87787,34.47058],[-118.87805,34.47064],[-118.87815,34.47066],[-118.87824,34.47066],[-118.87861,34.4706],[-118.87874,34.47057],[-118.87882,34.47055],[-118.87897,34.47054],[-118.87918,34.47056],[-118.87933,34.47053],[-118.87936,34.47053],[-118.87937,34.47055],[-118.87936,34.47057],[-118.8792,34.47064],[-118.87914,34.47065],[-118.87901,34.47066],[-118.87894,34.47067],[-118.8787,34.47077],[-118.87851,34.47083],[-118.87842,34.47086],[-118.87835,34.47087],[-118.87827,34.47089],[-118.87813,34.47089],[-118.87804,34.47089],[-118.87782,34.47086],[-118.87767,34.47086],[-118.87755,34.47087],[-118.87745,34.47089],[-118.87742,34.4709],[-118.87729,34.47098],[-118.87724,34.47103],[-118.87722,34.47106],[-118.87719,34.47112],[-118.87718,34.47115],[-118.8772,34.47117],[-118.87722,34.47118],[-118.87726,34.47117],[-118.87736,34.47114],[-118.87748,34.47107],[-118.87753,34.47105],[-118.87757,34.47104],[-118.87762,34.47105],[-118.87772,34.47107],[-118.87828,34.47122],[-118.87833,34.47122],[-118.87839,34.47121],[-118.87856,34.47118],[-118.87868,34.47115],[-118.87875,34.47113],[-118.87897,34.47112]]}},{"type":"Feature","properties":{"name":"(unnamed public road)","road_class":"track","surface":"dirt","source":"Caltrans All Roads + OpenStreetMap explicit surface","source_detail":"osm way 10721538; Caltrans All Roads public-network geometry match","source_tile":"173/407","public_network_source":"Caltrans All Roads (ARNOLD/HPMS)","surface_source":"OpenStreetMap explicit surface tag","caltrans_match_coverage":1.0,"verified_length_m":1044},"geometry":{"type":"LineString","coordinates":[[-118.92004,34.43952],[-118.92003,34.43999],[-118.92002,34.4404],[-118.91989,34.44094],[-118.9199,34.44118],[-118.91994,34.4415],[-118.9199,34.44171],[-118.9199,34.44187],[-118.91988,34.44205],[-118.91985,34.44211],[-118.9198,34.44215],[-118.91963,34.44221],[-118.91952,34.44221],[-118.91925,34.44219],[-118.91908,34.44217],[-118.91892,34.44216],[-118.91875,34.44212],[-118.91856,34.44207],[-118.91838,34.44201],[-118.91808,34.44196],[-118.91795,34.4419],[-118.91783,34.44183],[-118.91768,34.44172],[-118.91702,34.4413],[-118.91692,34.44125],[-118.91674,34.44122],[-118.91647,34.44115],[-118.91631,34.44112],[-118.91606,34.44107],[-118.91592,34.44104],[-118.91578,34.441],[-118.91568,34.44096],[-118.91559,34.44088],[-118.91548,34.44074],[-118.91542,34.44071],[-118.91532,34.44068],[-118.91504,34.44063],[-118.91496,34.4406],[-118.91478,34.44046],[-118.91471,34.44043],[-118.91466,34.44042],[-118.91447,34.44042],[-118.91443,34.44041],[-118.9144,34.44039],[-118.91441,34.44035],[-118.91449,34.44032],[-118.91457,34.44031],[-118.91471,34.44029],[-118.91482,34.44023],[-118.91496,34.44009],[-118.91505,34.44001],[-118.91512,34.43996],[-118.91525,34.43995],[-118.91535,34.43993],[-118.91548,34.43987],[-118.9156,34.43986],[-118.91587,34.43984],[-118.91607,34.43983],[-118.91628,34.43983]]}},{"type":"Feature","properties":{"name":"(unnamed public road)","road_class":"track","surface":"dirt","tracktype":"grade5","source":"Caltrans All Roads + OpenStreetMap explicit surface","source_detail":"osm way 10722640; Caltrans All Roads public-network geometry match","source_tile":"173/407","public_network_source":"Caltrans All Roads (ARNOLD/HPMS)","surface_source":"OpenStreetMap explicit surface tag","caltrans_match_coverage":0.936,"verified_length_m":699},"geometry":{"type":"LineString","coordinates":[[-118.88099,34.45104],[-118.88116,34.45099],[-118.88125,34.45095],[-118.88132,34.45094],[-118.8814,34.4509],[-118.88147,34.45086],[-118.88156,34.45083],[-118.88168,34.4508],[-118.8818,34.45077],[-118.88188,34.45074],[-118.88194,34.45068],[-118.88199,34.45061],[-118.88206,34.45052],[-118.88212,34.45046],[-118.8822,34.45042],[-118.8824,34.45041],[-118.88252,34.45041],[-118.88263,34.45044],[-118.8828,34.45048],[-118.88286,34.45051],[-118.88292,34.45055],[-118.88308,34.45063],[-118.88319,34.45067],[-118.88331,34.4507],[-118.88346,34.45069],[-118.88354,34.45067],[-118.88358,34.45065],[-118.88359,34.45061],[-118.88354,34.45058],[-118.88347,34.45054],[-118.88339,34.45051],[-118.88325,34.45044],[-118.88321,34.45041],[-118.88309,34.45021],[-118.88306,34.45018],[-118.88307,34.45015],[-118.8831,34.45015],[-118.88312,34.45016],[-118.88319,34.45018],[-118.88325,34.45022],[-118.8833,34.45024],[-118.88335,34.45025],[-118.88341,34.45025],[-118.88348,34.45025],[-118.88358,34.45025],[-118.88365,34.45026],[-118.8837,34.4503],[-118.8838,34.45034],[-118.88385,34.45035],[-118.88389,34.45035],[-118.88393,34.45033],[-118.88394,34.45025],[-118.88396,34.45015],[-118.88401,34.45008],[-118.88413,34.44994],[-118.88415,34.44989],[-118.88415,34.44975],[-118.88419,34.44969],[-118.88426,34.44962],[-118.88436,34.44957],[-118.88446,34.44953],[-118.88454,34.4495],[-118.88458,34.44947],[-118.88465,34.44941],[-118.8847,34.44934],[-118.88478,34.44929],[-118.88487,34.44928],[-118.88496,34.44927],[-118.88505,34.44927],[-118.88513,34.44925],[-118.88523,34.4492],[-118.88533,34.44917],[-118.88553,34.44915],[-118.88572,34.4491],[-118.88578,34.44904],[-118.88579,34.44899],[-118.88578,34.44888]]}},{"type":"Feature","properties":{"name":"(unnamed public road)","road_class":"track","surface":"unpaved","source":"Caltrans All Roads + OpenStreetMap explicit surface","source_detail":"osm way 10724958; Caltrans All Roads public-network geometry match","source_tile":"173/407","public_network_source":"Caltrans All Roads (ARNOLD/HPMS)","surface_source":"OpenStreetMap explicit surface tag","caltrans_match_coverage":1.0,"verified_length_m":955},"geometry":{"type":"LineString","coordinates":[[-118.89809,34.47174],[-118.89766,34.47188],[-118.89758,34.47191],[-118.89726,34.47208],[-118.8972,34.47213],[-118.89716,34.47217],[-118.89714,34.47225],[-118.89716,34.47232],[-118.8972,34.47238],[-118.89727,34.47244],[-118.89753,34.47261],[-118.89757,34.47267],[-118.89758,34.47272],[-118.89758,34.47279],[-118.89756,34.47285],[-118.89754,34.47291],[-118.89751,34.47296],[-118.89738,34.47308],[-118.8973,34.47314],[-118.89724,34.47317],[-118.89705,34.47321],[-118.89682,34.47327],[-118.89673,34.47328],[-118.8967,34.47329],[-118.89666,34.47329],[-118.89659,34.4733],[-118.89654,34.47333],[-118.89648,34.47335],[-118.89642,34.47338],[-118.89639,34.47341],[-118.89638,34.47346],[-118.89639,34.47349],[-118.89644,34.47355],[-118.89658,34.47374],[-118.89661,34.47381],[-118.8966,34.47387],[-118.89656,34.47395],[-118.89653,34.474],[-118.8965,34.47405],[-118.89648,34.47412],[-118.89647,34.47417],[-118.89647,34.47421],[-118.89648,34.47425],[-118.8965,34.47431],[-118.89655,34.47436],[-118.8966,34.47439],[-118.89667,34.47449],[-118.89672,34.47455],[-118.89678,34.47458],[-118.89685,34.4746],[-118.89693,34.4746],[-118.89701,34.47459],[-118.8971,34.47459],[-118.8972,34.47463],[-118.89727,34.47465],[-118.89733,34.47465],[-118.89741,34.47464],[-118.89748,34.47461],[-118.89756,34.47457],[-118.89764,34.47451],[-118.89768,34.47446],[-118.89775,34.47437],[-118.89801,34.47422],[-118.89822,34.47404],[-118.89843,34.47391],[-118.89852,34.47383],[-118.8986,34.47379],[-118.89872,34.47374],[-118.89895,34.47366],[-118.89909,34.47362],[-118.89923,34.47359],[-118.89934,34.47359],[-118.89948,34.47359],[-118.89959,34.4736],[-118.89979,34.47362],[-118.89984,34.47362],[-118.89988,34.47361],[-118.89994,34.47359],[-118.89999,34.47356],[-118.90006,34.47351],[-118.90012,34.47344],[-118.90023,34.47332],[-118.90028,34.47327],[-118.90033,34.47324],[-118.9004,34.47319],[-118.90048,34.47316],[-118.90056,34.47314],[-118.90067,34.47313],[-118.90074,34.47312],[-118.90083,34.4731],[-118.90092,34.47308],[-118.90104,34.47302],[-118.90126,34.47292],[-118.90129,34.47295]]}},{"type":"Feature","properties":{"name":"(unnamed public road)","road_class":"track","surface":"dirt","source":"Caltrans All Roads + OpenStreetMap explicit surface","source_detail":"osm way 10726905; Caltrans All Roads public-network geometry match","source_tile":"173/407","public_network_source":"Caltrans All Roads (ARNOLD/HPMS)","surface_source":"OpenStreetMap explicit surface tag","caltrans_match_coverage":1.0,"verified_length_m":702},"geometry":{"type":"LineString","coordinates":[[-118.89289,34.49458],[-118.89284,34.49462],[-118.89278,34.4947],[-118.89271,34.49475],[-118.89267,34.49478],[-118.89251,34.49481],[-118.89235,34.49483],[-118.89203,34.49481],[-118.89174,34.49482],[-118.89161,34.49483],[-118.89151,34.49489],[-118.89131,34.49504],[-118.8909,34.49521],[-118.89075,34.49534],[-118.89058,34.4954],[-118.89043,34.49549],[-118.89035,34.49563],[-118.89033,34.4957],[-118.89029,34.49577],[-118.89019,34.49582],[-118.88997,34.49592],[-118.88981,34.49597],[-118.88971,34.49601],[-118.88958,34.49611],[-118.88949,34.49619],[-118.88938,34.49628],[-118.88927,34.49632],[-118.88915,34.49634],[-118.88905,34.49633],[-118.88888,34.49632],[-118.8888,34.49629],[-118.88872,34.49624],[-118.88868,34.49613],[-118.88862,34.49604],[-118.88851,34.4958],[-118.88845,34.49574],[-118.88839,34.49571],[-118.88833,34.49571],[-118.88825,34.49572],[-118.88815,34.49578],[-118.88809,34.49588],[-118.88803,34.49599],[-118.88795,34.49609],[-118.88787,34.49616],[-118.8878,34.4962],[-118.88764,34.49626],[-118.88743,34.49631],[-118.88721,34.49636],[-118.8869,34.49656]]}},{"type":"Feature","properties":{"name":"Converse Road","road_class":"track","surface":"unpaved","source":"Caltrans All Roads + OpenStreetMap explicit surface","source_detail":"osm way 10731328; Caltrans All Roads public-network geometry match","source_tile":"173/407","public_network_source":"Caltrans All Roads (ARNOLD/HPMS)","surface_source":"OpenStreetMap explicit surface tag","caltrans_match_coverage":1.0,"verified_length_m":1112},"geometry":{"type":"LineString","coordinates":[[-119.06682,34.3187],[-119.06681,34.31878],[-119.06683,34.31887],[-119.06691,34.31896],[-119.06697,34.31906],[-119.06702,34.31911],[-119.06708,34.31917],[-119.06736,34.31946],[-119.06747,34.31952],[-119.06756,34.31954],[-119.0677,34.31953],[-119.06781,34.31952],[-119.06792,34.3195],[-119.06804,34.31944],[-119.06816,34.31938],[-119.06827,34.31931],[-119.06836,34.31924],[-119.06846,34.31914],[-119.06857,34.31903],[-119.06866,34.31897],[-119.06876,34.31893],[-119.06886,34.31889],[-119.06898,34.31884],[-119.06905,34.31879],[-119.06909,34.31875],[-119.06914,34.3187],[-119.06919,34.31862],[-119.06922,34.31855],[-119.06926,34.3184],[-119.06926,34.31831],[-119.06926,34.31818],[-119.06925,34.31807],[-119.06924,34.31792],[-119.06922,34.31778],[-119.06917,34.31765],[-119.06909,34.31755],[-119.06903,34.31751],[-119.06889,34.31746],[-119.06886,34.31744],[-119.06884,34.31741],[-119.06884,34.31737],[-119.06885,34.31734],[-119.0689,34.31733],[-119.06896,34.31734],[-119.06905,34.31737],[-119.06915,34.3174],[-119.0693,34.31747],[-119.06934,34.3175],[-119.06954,34.31769],[-119.06971,34.31794],[-119.06996,34.31812],[-119.07012,34.31822],[-119.07056,34.31842],[-119.07073,34.31857],[-119.07094,34.3186],[-119.07108,34.31854],[-119.07118,34.31848],[-119.07145,34.31837],[-119.0717,34.31828],[-119.07202,34.31814],[-119.0721,34.31812],[-119.07217,34.31811],[-119.07252,34.3181],[-119.0726,34.31809],[-119.07268,34.31807],[-119.07275,34.31804],[-119.07281,34.318],[-119.07286,34.31794],[-119.07304,34.31774],[-119.07309,34.31769],[-119.07327,34.31755],[-119.07353,34.31739],[-119.07359,34.31735],[-119.07361,34.31732],[-119.07364,34.31724],[-119.07378,34.31703],[-119.07384,34.31693],[-119.07386,34.31686],[-119.07388,34.31678],[-119.07391,34.31665],[-119.07393,34.31661],[-119.07398,34.31654],[-119.07406,34.31648]]}},{"type":"Feature","properties":{"name":"Sisar Canyon Road","road_class":"unclassified","surface":"dirt","motor_vehicle":"yes","source":"Caltrans All Roads + OpenStreetMap explicit surface","source_detail":"osm way 10734503; Caltrans All Roads public-network geometry match","source_tile":"173/407","public_network_source":"Caltrans All Roads (ARNOLD/HPMS)","surface_source":"OpenStreetMap explicit surface tag","caltrans_match_coverage":1.0,"verified_length_m":533},"geometry":{"type":"LineString","coordinates":[[-119.13573,34.44335],[-119.13549,34.44351],[-119.13537,34.44359],[-119.13531,34.44364],[-119.13525,34.44369],[-119.1352,34.44375],[-119.13515,34.44383],[-119.13511,34.44394],[-119.13509,34.44401],[-119.13507,34.4441],[-119.13505,34.44419],[-119.13502,34.44427],[-119.13498,34.44435],[-119.13493,34.4444],[-119.13488,34.44448],[-119.13485,34.44454],[-119.13483,34.44461],[-119.13479,34.44474],[-119.13474,34.44485],[-119.1347,34.44493],[-119.13465,34.44523],[-119.13458,34.44533],[-119.13456,34.4454],[-119.13455,34.4455],[-119.13454,34.44559],[-119.13453,34.44566],[-119.13451,34.44572],[-119.13446,34.44586],[-119.1344,34.44598],[-119.13431,34.44611],[-119.13422,34.44622],[-119.13414,34.44633],[-119.13408,34.44651],[-119.13401,34.44673],[-119.13392,34.44699],[-119.13387,34.44711],[-119.13382,34.44724],[-119.1338,34.44738],[-119.13377,34.44775]]}},{"type":"Feature","properties":{"name":"Kahus Flat Road","road_class":"unclassified","surface":"gravel","source":"Caltrans All Roads + OpenStreetMap explicit surface","source_detail":"osm way 10738698; Caltrans All Roads public-network geometry match","source_tile":"173/407","public_network_source":"Caltrans All Roads (ARNOLD/HPMS)","surface_source":"OpenStreetMap explicit surface tag","caltrans_match_coverage":1.0,"verified_length_m":11168},"geometry":{"type":"LineString","coordinates":[[-118.90821,34.47096],[-118.90842,34.47113],[-118.90846,34.47115],[-118.90855,34.47117],[-118.90866,34.47121],[-118.90877,34.47127],[-118.90886,34.47133],[-118.90893,34.4714],[-118.90904,34.47151],[-118.90909,34.47154],[-118.90913,34.47156],[-118.90918,34.47157],[-118.90933,34.47159],[-118.90938,34.47161],[-118.90941,34.47163],[-118.90947,34.47168],[-118.90954,34.47171],[-118.90976,34.47178],[-118.90987,34.47181],[-118.90996,34.47184],[-118.91064,34.47215],[-118.91085,34.47226],[-118.91091,34.47227],[-118.91097,34.47226],[-118.91099,34.47226],[-118.91107,34.47223],[-118.91118,34.47221],[-118.91128,34.47223],[-118.91136,34.47228],[-118.91141,34.47234],[-118.91146,34.47243],[-118.91152,34.47267],[-118.91157,34.4728],[-118.91162,34.47286],[-118.91168,34.47291],[-118.91188,34.47301],[-118.91248,34.4732],[-118.91255,34.47323],[-118.91274,34.47339],[-118.91289,34.47349],[-118.91297,34.47356],[-118.91303,34.47362],[-118.91314,34.47395],[-118.9132,34.47404],[-118.91329,34.47408],[-118.91366,34.47422],[-118.91406,34.47441],[-118.91415,34.47446],[-118.91421,34.47451],[-118.91423,34.47457],[-118.91425,34.47476],[-118.91429,34.47482],[-118.91435,34.47486],[-118.91455,34.47494],[-118.91469,34.47497],[-118.9148,34.47501],[-118.91494,34.47507],[-118.91506,34.47514],[-118.91516,34.47521],[-118.91524,34.47531],[-118.91534,34.47541],[-118.91537,34.47547],[-118.91542,34.47553],[-118.91548,34.47556],[-118.91557,34.47557],[-118.91565,34.47555],[-118.91571,34.47552],[-118.91577,34.47547],[-118.91589,34.47536],[-118.91596,34.47533],[-118.91602,34.47531],[-118.9161,34.47532],[-118.91618,34.47532],[-118.91628,34.47535],[-118.9164,34.47538],[-118.91652,34.47541],[-118.91673,34.47543],[-118.91687,34.47541],[-118.91696,34.47539],[-118.91711,34.47527],[-118.9172,34.47523],[-118.91732,34.47521],[-118.91739,34.47519],[-118.91746,34.47519],[-118.91753,34.47523],[-118.91757,34.47529],[-118.9176,34.47536],[-118.91761,34.47542],[-118.91758,34.47551],[-118.9176,34.47556],[-118.91763,34.47561],[-118.91762,34.47566],[-118.9176,34.47569],[-118.91759,34.47572],[-118.91756,34.47578],[-118.91753,34.47586],[-118.91751,34.47593],[-118.91748,34.47595],[-118.91744,34.47597],[-118.91741,34.47603],[-118.91734,34.47607],[-118.91727,34.47608],[-118.91723,34.47611],[-118.9172,34.47615],[-118.91712,34.47626],[-118.9171,34.47635],[-118.91711,34.47643],[-118.91717,34.47648],[-118.91725,34.47655],[-118.91739,34.47662],[-118.91748,34.47664],[-118.91754,34.47663],[-118.91756,34.47663],[-118.91763,34.47659],[-118.9177,34.47653],[-118.9178,34.47648],[-118.91792,34.47641],[-118.91805,34.47636],[-118.91816,34.47632],[-118.9183,34.47629],[-118.91843,34.47627],[-118.91852,34.47627],[-118.91875,34.47635],[-118.91886,34.47641],[-118.91895,34.47641],[-118.91902,34.47639],[-118.91936,34.47593],[-118.91944,34.47586],[-118.91952,34.47583],[-118.91961,34.47581],[-118.91971,34.47577],[-118.9198,34.47571],[-118.91987,34.47565],[-118.91994,34.47557],[-118.92,34.47543],[-118.92017,34.47513],[-118.9202,34.4751],[-118.92029,34.47508],[-118.92036,34.4751],[-118.92045,34.47514],[-118.92052,34.47517],[-118.92057,34.47523],[-118.92061,34.47531],[-118.92043,34.47559],[-118.92035,34.47578],[-118.92019,34.47608],[-118.92004,34.47665],[-118.92,34.47691],[-118.91997,34.47703],[-118.91988,34.47715],[-118.91978,34.4773],[-118.91967,34.4775],[-118.91938,34.47798],[-118.91925,34.47826],[-118.91918,34.47837],[-118.91911,34.47844],[-118.91902,34.4785],[-118.91885,34.47877],[-118.91873,34.47901],[-118.91864,34.47915],[-118.9185,34.4793],[-118.91847,34.47939],[-118.91837,34.47956],[-118.9183,34.47967],[-118.91823,34.47974],[-118.91812,34.47984],[-118.91787,34.48006],[-118.9177,34.48016],[-118.91759,34.48021],[-118.91735,34.48025],[-118.91729,34.48023],[-118.91722,34.48022],[-118.91713,34.4802],[-118.91707,34.48017],[-118.917,34.48015],[-118.91691,34.48011],[-118.9168,34.48007],[-118.91665,34.48005],[-118.91654,34.48006],[-118.91646,34.48007],[-118.91639,34.48009],[-118.91631,34.48012],[-118.91623,34.48018],[-118.91613,34.48024],[-118.91603,34.48032],[-118.91594,34.48037],[-118.91582,34.48042],[-118.91568,34.48046],[-118.91556,34.48048],[-118.9154,34.48048],[-118.91527,34.48049],[-118.91515,34.48048],[-118.91504,34.48047],[-118.91493,34.48042],[-118.91489,34.4804],[-118.91484,34.48039],[-118.91478,34.4804],[-118.91471,34.48044],[-118.91467,34.48051],[-118.91468,34.48065],[-118.91478,34.48087],[-118.91484,34.48096],[-118.91488,34.48102],[-118.91489,34.48108],[-118.91488,34.48114],[-118.91486,34.4812],[-118.91481,34.48123],[-118.91469,34.48124],[-118.9145,34.48126],[-118.91443,34.48128],[-118.9144,34.4813],[-118.91439,34.48136],[-118.91443,34.48146],[-118.91452,34.48164],[-118.91458,34.48172],[-118.91468,34.48183],[-118.91474,34.48189],[-118.91476,34.48194],[-118.91473,34.48206],[-118.91465,34.48212],[-118.91452,34.48216],[-118.91407,34.48232],[-118.91397,34.48235],[-118.91382,34.48242],[-118.91376,34.48247],[-118.91366,34.48264],[-118.91357,34.48281],[-118.91352,34.48296],[-118.9135,34.48306],[-118.91349,34.48319],[-118.91351,34.48333],[-118.91356,34.48344],[-118.9136,34.48351],[-118.91367,34.48357],[-118.91383,34.48365],[-118.91389,34.48372],[-118.91398,34.48383],[-118.91413,34.48411],[-118.91416,34.48418],[-118.91417,34.48424],[-118.91416,34.4843],[-118.91406,34.48441],[-118.914,34.48449],[-118.91394,34.48453],[-118.91388,34.48457],[-118.91381,34.48459],[-118.91373,34.48461],[-118.91367,34.48462],[-118.91363,34.48465],[-118.91357,34.48472],[-118.91352,34.48481],[-118.91351,34.48493],[-118.91351,34.48504],[-118.91348,34.48518],[-118.91344,34.48533],[-118.91339,34.48542],[-118.91327,34.48556],[-118.91322,34.48572],[-118.91316,34.48584],[-118.91308,34.48593],[-118.91298,34.48601],[-118.91289,34.48604],[-118.91278,34.48604],[-118.91268,34.48604],[-118.91262,34.48603],[-118.91243,34.48591],[-118.91225,34.48586],[-118.9121,34.48585],[-118.91204,34.48585],[-118.91196,34.48587],[-118.91187,34.4859],[-118.91176,34.48595],[-118.91164,34.48603],[-118.91129,34.48627],[-118.91118,34.48638],[-118.91108,34.48647],[-118.91101,34.48653],[-118.91086,34.4866],[-118.91077,34.4866],[-118.91065,34.48659],[-118.91058,34.48658],[-118.91051,34.48657],[-118.91045,34.48659],[-118.91039,34.48663],[-118.9103,34.48673],[-118.91024,34.48676],[-118.91016,34.48678],[-118.91001,34.48682],[-118.90993,34.48686],[-118.90972,34.48694],[-118.90967,34.48694],[-118.90962,34.48693],[-118.90956,34.48691],[-118.90951,34.48684],[-118.90947,34.48676],[-118.90939,34.48671],[-118.90934,34.48665],[-118.90927,34.48654],[-118.90919,34.48644],[-118.90918,34.48629],[-118.90916,34.48622],[-118.90914,34.48617],[-118.90909,34.48615],[-118.90903,34.48613],[-118.90896,34.48613],[-118.90873,34.48613],[-118.90867,34.48613],[-118.90861,34.48616],[-118.90854,34.48622],[-118.90848,34.48629],[-118.90843,34.48635],[-118.90837,34.48638],[-118.9083,34.4864],[-118.90824,34.48641],[-118.90818,34.48642],[-118.90815,34.48648],[-118.90812,34.48658],[-118.90812,34.48665],[-118.90812,34.48677],[-118.90811,34.48688],[-118.90808,34.48699],[-118.90805,34.48706],[-118.908,34.4871],[-118.90791,34.48713],[-118.90781,34.48712],[-118.90756,34.48706],[-118.90745,34.48702],[-118.90707,34.48692],[-118.90698,34.48687],[-118.90686,34.48677],[-118.90679,34.48674],[-118.90671,34.48673],[-118.90665,34.48674],[-118.90657,34.48676],[-118.90651,34.4868],[-118.90639,34.48694],[-118.90631,34.48707],[-118.90625,34.48712],[-118.90619,34.48715],[-118.90611,34.48716],[-118.90588,34.48714],[-118.90557,34.48709],[-118.90545,34.48705],[-118.90536,34.48703],[-118.90527,34.48704],[-118.90515,34.48708],[-118.9049,34.48715],[-118.90482,34.48723],[-118.90474,34.48727],[-118.90469,34.48731],[-118.90463,34.48739],[-118.90456,34.48746],[-118.90448,34.48751],[-118.90437,34.48754],[-118.90431,34.48756],[-118.90422,34.48757],[-118.9041,34.48755],[-118.904,34.48752],[-118.90389,34.48746],[-118.90379,34.48739],[-118.90358,34.48727],[-118.90344,34.48719],[-118.90331,34.48714],[-118.90319,34.48711],[-118.90302,34.48711],[-118.90292,34.48712],[-118.9028,34.48715],[-118.90261,34.48719],[-118.90232,34.48725],[-118.90215,34.48725],[-118.90208,34.48723],[-118.90192,34.48719],[-118.90183,34.48716],[-118.90176,34.48716],[-118.90165,34.48716],[-118.90152,34.48717],[-118.90145,34.48716],[-118.90135,34.48715],[-118.90126,34.48711],[-118.90117,34.48706],[-118.90103,34.48697],[-118.90069,34.48674],[-118.90035,34.48653],[-118.90025,34.48646],[-118.90009,34.48639],[-118.89992,34.48635],[-118.8998,34.48635],[-118.89972,34.48636],[-118.89963,34.48637],[-118.89949,34.48638],[-118.89949,34.4865],[-118.89949,34.4866],[-118.89952,34.48667],[-118.89961,34.48676],[-118.89971,34.48684],[-118.89976,34.48692],[-118.8998,34.48703],[-118.89979,34.4871],[-118.89974,34.48718],[-118.89955,34.48735],[-118.89949,34.48744],[-118.89942,34.4875],[-118.89934,34.48756],[-118.89924,34.48761],[-118.89914,34.48768],[-118.89911,34.48775],[-118.89908,34.48783],[-118.89902,34.48794],[-118.89895,34.48802],[-118.89891,34.48807],[-118.89889,34.48812],[-118.89888,34.4882],[-118.89886,34.48825],[-118.89883,34.48829],[-118.89878,34.48832],[-118.89862,34.48843],[-118.89856,34.48848],[-118.89851,34.48854],[-118.89845,34.4886],[-118.8984,34.48865],[-118.89828,34.48873],[-118.89813,34.4888],[-118.89792,34.48885],[-118.89778,34.48892],[-118.89768,34.48894],[-118.89753,34.48899],[-118.89743,34.48905],[-118.89726,34.48919],[-118.89723,34.48926],[-118.89707,34.48938],[-118.89704,34.48945],[-118.89704,34.48954],[-118.89707,34.48962],[-118.89711,34.48967],[-118.89719,34.48969],[-118.89727,34.48968],[-118.89739,34.48964],[-118.89752,34.48954],[-118.89763,34.48943],[-118.89772,34.4894],[-118.8978,34.48937],[-118.89829,34.48933],[-118.89846,34.48931],[-118.89855,34.48928],[-118.89863,34.48925],[-118.89873,34.48924],[-118.89882,34.48926],[-118.89905,34.48939],[-118.89912,34.48941],[-118.89917,34.48942],[-118.89921,34.48941],[-118.89926,34.4894],[-118.89931,34.48937],[-118.89938,34.48932],[-118.89945,34.48925],[-118.89957,34.4891],[-118.89964,34.48893],[-118.89972,34.48886],[-118.89977,34.48884],[-118.89982,34.48881],[-118.89987,34.4888],[-118.89993,34.48879],[-118.89998,34.4888],[-118.90004,34.48881],[-118.90013,34.48883],[-118.90024,34.4889],[-118.90032,34.48898],[-118.90039,34.48908],[-118.90043,34.4892],[-118.90048,34.48926],[-118.90056,34.48932],[-118.90067,34.48935],[-118.90088,34.48939],[-118.90109,34.48941],[-118.90118,34.4894],[-118.9013,34.4894],[-118.90134,34.48941],[-118.90139,34.48943],[-118.90148,34.48949],[-118.90163,34.48972],[-118.90168,34.48978],[-118.90175,34.48982],[-118.90181,34.48983],[-118.90188,34.48982],[-118.90193,34.48978],[-118.90197,34.48973],[-118.90199,34.48967],[-118.90202,34.48961],[-118.90209,34.48954],[-118.90221,34.4895],[-118.90237,34.48947],[-118.90249,34.48948],[-118.90259,34.48952],[-118.90281,34.48966],[-118.90307,34.48982],[-118.90314,34.48995],[-118.90333,34.49023],[-118.9034,34.49035],[-118.90345,34.49046],[-118.90346,34.49052],[-118.90345,34.49056],[-118.90344,34.4906],[-118.90333,34.49069],[-118.90321,34.49083],[-118.90314,34.49092],[-118.90311,34.49101],[-118.90309,34.49113],[-118.90307,34.49116],[-118.90304,34.4912],[-118.9029,34.49128],[-118.90288,34.49132],[-118.90282,34.49142],[-118.90279,34.49144],[-118.9026,34.49153],[-118.90257,34.49156],[-118.90255,34.49162],[-118.90255,34.49165],[-118.90261,34.49187],[-118.90261,34.49192],[-118.9026,34.49195],[-118.90258,34.49197],[-118.90238,34.4921],[-118.90235,34.49213],[-118.90227,34.49223],[-118.90223,34.49226],[-118.90213,34.49233],[-118.90209,34.49239],[-118.90207,34.49248],[-118.90199,34.49271],[-118.90193,34.49295],[-118.9019,34.49309],[-118.9019,34.49329],[-118.90191,34.49341],[-118.9019,34.49349],[-118.90188,34.49353],[-118.90169,34.49367],[-118.90166,34.4937],[-118.90164,34.49373],[-118.90158,34.49384],[-118.90156,34.49391],[-118.90141,34.49414],[-118.90132,34.49437],[-118.9013,34.49441],[-118.90127,34.49444],[-118.90124,34.49447],[-118.90113,34.49456],[-118.90076,34.49482],[-118.90071,34.49489],[-118.90068,34.49498],[-118.90062,34.49525],[-118.90059,34.4953],[-118.90057,34.49534],[-118.90054,34.49537],[-118.90052,34.4954],[-118.90026,34.4955],[-118.90019,34.49552],[-118.90015,34.49555],[-118.90012,34.49558],[-118.90009,34.49561],[-118.90008,34.49565],[-118.90007,34.49568],[-118.90007,34.49573],[-118.90009,34.49585],[-118.9001,34.49592],[-118.90009,34.49597],[-118.90007,34.49601],[-118.90004,34.49604],[-118.90001,34.49607],[-118.89997,34.49608],[-118.89988,34.4961],[-118.89985,34.4961],[-118.89982,34.4961],[-118.89979,34.49609],[-118.89959,34.49599],[-118.89953,34.49594],[-118.89938,34.49585],[-118.89933,34.49583],[-118.89927,34.49581],[-118.89924,34.49581],[-118.89919,34.49582],[-118.89916,34.49583],[-118.89914,34.49585],[-118.89909,34.49589],[-118.89901,34.49601],[-118.89897,34.49604],[-118.89893,34.49606],[-118.89856,34.49617],[-118.89845,34.49619],[-118.89837,34.4962],[-118.89829,34.49619],[-118.8982,34.49617],[-118.89807,34.49611],[-118.89786,34.496],[-118.89745,34.49577],[-118.89721,34.49569],[-118.89706,34.49564],[-118.89692,34.49554],[-118.89682,34.49548],[-118.89674,34.4954],[-118.89668,34.49534],[-118.89656,34.49514],[-118.89649,34.4951],[-118.89636,34.4951],[-118.89626,34.49511],[-118.89609,34.49512],[-118.89603,34.49512],[-118.89588,34.49512],[-118.89554,34.49509],[-118.89533,34.49509],[-118.89524,34.4951],[-118.89517,34.49511],[-118.89513,34.49514],[-118.89509,34.49517],[-118.89505,34.49521],[-118.89502,34.49526],[-118.89494,34.49548],[-118.89477,34.49598],[-118.89471,34.49618],[-118.89468,34.49627],[-118.89459,34.49642],[-118.89457,34.4965],[-118.89455,34.4966],[-118.89454,34.4967],[-118.89454,34.49683],[-118.89454,34.49692],[-118.89453,34.49698],[-118.8945,34.49702],[-118.89443,34.49707],[-118.8944,34.49711],[-118.89439,34.49712],[-118.89437,34.49717],[-118.89436,34.49722],[-118.89435,34.49729],[-118.89436,34.49735],[-118.89437,34.49741],[-118.89439,34.49747],[-118.89449,34.49764],[-118.89451,34.49769],[-118.89452,34.49773],[-118.89453,34.49778],[-118.89454,34.49783],[-118.89453,34.49788],[-118.89452,34.49793],[-118.8945,34.498],[-118.89438,34.49824],[-118.89429,34.49839],[-118.89405,34.49881],[-118.89404,34.49883],[-118.89404,34.49889],[-118.89405,34.49895],[-118.89408,34.499],[-118.89408,34.49905],[-118.89406,34.4991],[-118.89401,34.4992],[-118.89395,34.49933],[-118.89392,34.49941],[-118.89392,34.49947],[-118.89393,34.49954],[-118.89396,34.49961],[-118.89401,34.49966],[-118.89404,34.49969],[-118.89412,34.49974],[-118.89422,34.49977],[-118.89427,34.49979],[-118.89437,34.49979],[-118.89448,34.49978],[-118.89452,34.49978],[-118.89457,34.4998],[-118.89462,34.49983],[-118.89464,34.49986],[-118.89467,34.4999],[-118.89468,34.49994],[-118.89471,34.50002],[-118.89471,34.50006],[-118.8947,34.50014],[-118.89456,34.50054],[-118.89452,34.50059],[-118.89448,34.50063],[-118.89443,34.50066],[-118.89436,34.50069],[-118.89417,34.50074],[-118.89393,34.50084],[-118.89378,34.50088],[-118.89371,34.50089],[-118.89357,34.50089],[-118.89352,34.5009],[-118.89345,34.50093],[-118.89341,34.50096],[-118.89335,34.50103],[-118.89331,34.50107],[-118.89327,34.5011],[-118.89323,34.50113],[-118.89318,34.50116],[-118.893,34.50124],[-118.89293,34.50128],[-118.89289,34.50138],[-118.89289,34.50144],[-118.89291,34.5015],[-118.89303,34.50167],[-118.8931,34.50177],[-118.89315,34.50194],[-118.8932,34.50213],[-118.89326,34.50232],[-118.89348,34.50278],[-118.89356,34.50291],[-118.8936,34.50302],[-118.89372,34.50325],[-118.89399,34.5036],[-118.89407,34.5037],[-118.89412,34.50378],[-118.89416,34.50386],[-118.89418,34.50395],[-118.8942,34.50416],[-118.8942,34.50439],[-118.89419,34.50444],[-118.89416,34.50449],[-118.89411,34.50455],[-118.89388,34.50469],[-118.89373,34.50479],[-118.89365,34.50483],[-118.89357,34.50488],[-118.89356,34.50491],[-118.89356,34.50494],[-118.89358,34.50497],[-118.89361,34.50499],[-118.89397,34.50505],[-118.89401,34.50506],[-118.89408,34.50509],[-118.89414,34.50514],[-118.89419,34.50519],[-118.89422,34.50525],[-118.89424,34.50532],[-118.89425,34.50552],[-118.89422,34.5057],[-118.89421,34.50574],[-118.89418,34.50579],[-118.89416,34.50583],[-118.89406,34.50596],[-118.89404,34.50603],[-118.89403,34.50611],[-118.89403,34.50616],[-118.89405,34.50624],[-118.89414,34.50641],[-118.89427,34.50666],[-118.89428,34.5067],[-118.89429,34.50675],[-118.89429,34.5068],[-118.89426,34.50707],[-118.89427,34.50715],[-118.89429,34.50723],[-118.89435,34.50732],[-118.89451,34.5075],[-118.89489,34.50786],[-118.89506,34.50803],[-118.8953,34.50829],[-118.89577,34.50879],[-118.89585,34.50888],[-118.89592,34.509],[-118.89598,34.50911],[-118.89608,34.50924],[-118.89619,34.50934],[-118.89646,34.50968],[-118.89656,34.50981],[-118.89677,34.51015],[-118.89706,34.51055],[-118.89741,34.51106],[-118.89762,34.51131],[-118.89786,34.5116],[-118.89855,34.51245],[-118.89867,34.51258],[-118.89888,34.51279],[-118.89897,34.51289],[-118.89899,34.51293],[-118.899,34.51301],[-118.89904,34.51361],[-118.89905,34.5137],[-118.89907,34.51379],[-118.89909,34.51385],[-118.89915,34.51397],[-118.89925,34.5142],[-118.89949,34.51461],[-118.89962,34.51484],[-118.89976,34.51517],[-118.89976,34.51523],[-118.89974,34.51529],[-118.89973,34.51531],[-118.8997,34.51536],[-118.89963,34.51542],[-118.89953,34.51548],[-118.89945,34.51552],[-118.89937,34.51556],[-118.89926,34.51563],[-118.89919,34.51572],[-118.89917,34.5158],[-118.89919,34.51585],[-118.89923,34.51591],[-118.89932,34.51597],[-118.8994,34.51603],[-118.89943,34.51608],[-118.89945,34.51615],[-118.89944,34.51624],[-118.8994,34.51632],[-118.89935,34.5164],[-118.89928,34.51649],[-118.89916,34.51659],[-118.89887,34.51678],[-118.89868,34.51691],[-118.89849,34.51701],[-118.89839,34.51708],[-118.89834,34.51713],[-118.89832,34.51719],[-118.89832,34.51726],[-118.89835,34.51731],[-118.8984,34.51738],[-118.89844,34.51747],[-118.89846,34.51756],[-118.89852,34.51776],[-118.89856,34.51787],[-118.8986,34.51794],[-118.89864,34.518],[-118.89871,34.51806],[-118.89874,34.5181],[-118.89875,34.51817],[-118.89875,34.51822],[-118.89874,34.51827],[-118.8987,34.51834],[-118.8986,34.51842],[-118.8982,34.51863],[-118.89811,34.51868],[-118.89807,34.51874],[-118.89806,34.51879],[-118.89805,34.51893],[-118.89804,34.519],[-118.89801,34.51905],[-118.89782,34.51934],[-118.89756,34.51972],[-118.89742,34.51993],[-118.89739,34.52],[-118.89741,34.52022],[-118.89741,34.52027],[-118.89738,34.52031],[-118.89735,34.52036],[-118.89727,34.52039],[-118.8972,34.52039],[-118.89713,34.52037],[-118.89707,34.52032],[-118.89699,34.52024],[-118.89694,34.5202],[-118.89688,34.52016],[-118.89684,34.52016],[-118.8968,34.52018],[-118.89675,34.52022],[-118.89672,34.5203],[-118.89671,34.52044],[-118.8967,34.52058],[-118.89665,34.52068],[-118.89658,34.5208],[-118.89651,34.52091],[-118.89637,34.52104],[-118.89625,34.5211],[-118.89615,34.52111],[-118.89608,34.52111],[-118.89599,34.52109],[-118.89577,34.52107],[-118.89571,34.52108],[-118.89564,34.52111],[-118.89558,34.52115],[-118.89547,34.52121],[-118.89536,34.52131],[-118.8953,34.5214],[-118.89517,34.52158],[-118.89513,34.52165],[-118.89513,34.52172],[-118.89516,34.52176],[-118.89525,34.52182],[-118.89533,34.52188],[-118.89535,34.52195],[-118.89536,34.52209],[-118.89535,34.52223]]}},{"type":"Feature","properties":{"name":"Boulder Creek Road","road_class":"track","surface":"dirt","source":"Caltrans All Roads + OpenStreetMap explicit surface","source_detail":"osm way 10742903; Caltrans All Roads public-network geometry match","source_tile":"173/407","public_network_source":"Caltrans All Roads (ARNOLD/HPMS)","surface_source":"OpenStreetMap explicit surface tag","caltrans_match_coverage":1.0,"verified_length_m":749},"geometry":{"type":"LineString","coordinates":[[-118.97034,34.40216],[-118.97036,34.40211],[-118.97039,34.40192],[-118.97041,34.40188],[-118.97045,34.40171],[-118.97046,34.40161],[-118.97045,34.40151],[-118.97036,34.40133],[-118.97032,34.40122],[-118.97031,34.40111],[-118.97033,34.40099],[-118.97035,34.40089],[-118.97039,34.4008],[-118.97047,34.40067],[-118.9705,34.40059],[-118.97051,34.4005],[-118.9705,34.40036],[-118.97045,34.40017],[-118.97043,34.40006],[-118.97048,34.39968],[-118.9705,34.39961],[-118.97051,34.39952],[-118.97052,34.39941],[-118.97052,34.39936],[-118.97084,34.39895],[-118.97098,34.39871],[-118.9713,34.39831],[-118.97133,34.39826],[-118.97141,34.39799],[-118.97145,34.39789],[-118.97155,34.39772],[-118.97157,34.39763],[-118.97159,34.39746],[-118.9716,34.39713],[-118.9716,34.39709],[-118.97161,34.39705],[-118.97165,34.39697],[-118.97173,34.39686],[-118.97177,34.39682],[-118.97181,34.39678],[-118.97197,34.39668],[-118.97201,34.39665],[-118.97203,34.39661],[-118.97205,34.39657],[-118.97205,34.39652],[-118.97203,34.39647],[-118.972,34.39639],[-118.97196,34.3963],[-118.97189,34.39609],[-118.9718,34.39585]]}},{"type":"Feature","properties":{"name":"John Cox Drive","road_class":"track","surface":"dirt","source":"Caltrans All Roads + OpenStreetMap explicit surface","source_detail":"osm way 825094778; Caltrans All Roads public-network geometry match","source_tile":"173/407","public_network_source":"Caltrans All Roads (ARNOLD/HPMS)","surface_source":"OpenStreetMap explicit surface tag","caltrans_match_coverage":1.0,"verified_length_m":955},"geometry":{"type":"LineString","coordinates":[[-118.97935,34.39663],[-118.97942,34.39667],[-118.97954,34.39671],[-118.97971,34.39675],[-118.97991,34.39679],[-118.98,34.39683],[-118.9801,34.39689],[-118.98026,34.39696],[-118.98039,34.39701],[-118.98076,34.39721],[-118.98089,34.39726],[-118.98102,34.39732],[-118.98107,34.39735],[-118.9811,34.39737],[-118.98114,34.39744],[-118.98117,34.39752],[-118.98121,34.39761],[-118.98125,34.3977],[-118.98146,34.39804],[-118.98153,34.39814],[-118.98168,34.39842],[-118.98171,34.39846],[-118.98174,34.3985],[-118.98184,34.39859],[-118.9819,34.39863],[-118.98196,34.3987],[-118.98197,34.39874],[-118.98198,34.39892],[-118.98194,34.39972],[-118.98195,34.40057],[-118.98194,34.40065],[-118.98191,34.40072],[-118.98188,34.40075],[-118.98185,34.40076],[-118.98181,34.40077],[-118.98176,34.40077],[-118.98046,34.40078],[-118.97808,34.40076],[-118.97779,34.40078]]}},{"type":"Feature","properties":{"name":"Boulder Creek Road","road_class":"track","surface":"dirt","source":"Caltrans All Roads + OpenStreetMap explicit surface","source_detail":"osm way 1351767070; Caltrans All Roads public-network geometry match","source_tile":"173/407","public_network_source":"Caltrans All Roads (ARNOLD/HPMS)","surface_source":"OpenStreetMap explicit surface tag","caltrans_match_coverage":1.0,"verified_length_m":686},"geometry":{"type":"LineString","coordinates":[[-118.97197,34.40789],[-118.97195,34.40784],[-118.97191,34.40774],[-118.97188,34.4077],[-118.97186,34.40762],[-118.97183,34.40748],[-118.97182,34.40736],[-118.97179,34.40709],[-118.97175,34.40692],[-118.97171,34.40678],[-118.97169,34.40669],[-118.97168,34.40664],[-118.97172,34.4066],[-118.97164,34.40649],[-118.97142,34.40607],[-118.97141,34.40603],[-118.97139,34.40593],[-118.97139,34.40581],[-118.97137,34.40569],[-118.97136,34.40564],[-118.97084,34.40464],[-118.97062,34.40437],[-118.97055,34.40429],[-118.97054,34.40425],[-118.97053,34.40417],[-118.97051,34.40413],[-118.97049,34.40409],[-118.97039,34.40398],[-118.97034,34.4039],[-118.97026,34.40377],[-118.97003,34.40318],[-118.97,34.40309],[-118.96997,34.40302],[-118.96994,34.40289],[-118.96993,34.40281],[-118.96997,34.40273],[-118.97002,34.4027],[-118.97009,34.40265],[-118.97015,34.4026],[-118.97021,34.40252],[-118.97024,34.40246],[-118.97026,34.40239],[-118.97028,34.40233],[-118.9703,34.40228],[-118.97031,34.40224],[-118.97034,34.40216]]}},{"type":"Feature","properties":{"name":"(unnamed public road)","road_class":"track","surface":"dirt","source":"Caltrans All Roads + OpenStreetMap explicit surface","source_detail":"osm way 1421483779; Caltrans All Roads public-network geometry match","source_tile":"173/407","public_network_source":"Caltrans All Roads (ARNOLD/HPMS)","surface_source":"OpenStreetMap explicit surface tag","caltrans_match_coverage":1.0,"verified_length_m":1266},"geometry":{"type":"LineString","coordinates":[[-118.88073,34.46751],[-118.88089,34.46751],[-118.88115,34.46749],[-118.88123,34.46745],[-118.88128,34.4674],[-118.88134,34.46734],[-118.88144,34.4673],[-118.88166,34.46725],[-118.88189,34.46724],[-118.8821,34.46726],[-118.88266,34.46735],[-118.88292,34.4674],[-118.88323,34.46753],[-118.88345,34.46759],[-118.8836,34.4676],[-118.88374,34.46761],[-118.88393,34.46771],[-118.88403,34.46774],[-118.8843,34.46777],[-118.88441,34.46781],[-118.88457,34.4679],[-118.88483,34.46798],[-118.88536,34.46801],[-118.88547,34.46797],[-118.88554,34.46792],[-118.8856,34.46785],[-118.88562,34.4678],[-118.88561,34.46774],[-118.88557,34.46767],[-118.88555,34.46759],[-118.88553,34.46751],[-118.88553,34.46743],[-118.88554,34.46735],[-118.88557,34.46723],[-118.88578,34.46673],[-118.88582,34.46664],[-118.88586,34.46658],[-118.88591,34.46654],[-118.88597,34.46651],[-118.88606,34.46648],[-118.88618,34.46646],[-118.88633,34.46641],[-118.88643,34.46637],[-118.88655,34.46629],[-118.88662,34.46624],[-118.88674,34.46613],[-118.88681,34.46607],[-118.88687,34.46604],[-118.88696,34.466],[-118.88724,34.46589],[-118.88728,34.46585],[-118.88738,34.46576],[-118.88761,34.46556],[-118.88783,34.46543],[-118.88795,34.46538],[-118.88801,34.46536],[-118.88809,34.46537],[-118.88815,34.46539],[-118.8882,34.46544],[-118.88829,34.46551],[-118.88851,34.46564],[-118.88883,34.46582],[-118.88896,34.46587],[-118.88914,34.46592],[-118.88921,34.46594],[-118.88927,34.46594],[-118.88932,34.46592],[-118.88939,34.46589],[-118.88946,34.46584],[-118.88955,34.46576],[-118.8897,34.4657],[-118.88984,34.46569],[-118.89,34.4657],[-118.89017,34.46568],[-118.8903,34.46563],[-118.89043,34.46552],[-118.89051,34.46544],[-118.89061,34.46535],[-118.89067,34.46529],[-118.89077,34.46517],[-118.89083,34.46509],[-118.8909,34.46502],[-118.89095,34.46496],[-118.89098,34.4649],[-118.89102,34.46479],[-118.89102,34.46467],[-118.891,34.46456],[-118.89102,34.46447],[-118.89104,34.46442]]}},{"type":"Feature","properties":{"name":"(unnamed public road)","road_class":"track","surface":"dirt","source":"Caltrans All Roads + OpenStreetMap explicit surface","source_detail":"osm way 1421483781; Caltrans All Roads public-network geometry match","source_tile":"173/407","public_network_source":"Caltrans All Roads (ARNOLD/HPMS)","surface_source":"OpenStreetMap explicit surface tag","caltrans_match_coverage":1.0,"verified_length_m":801},"geometry":{"type":"LineString","coordinates":[[-118.87667,34.47026],[-118.8767,34.47016],[-118.87677,34.46999],[-118.87683,34.46985],[-118.87687,34.46967],[-118.87691,34.46944],[-118.87695,34.46914],[-118.87696,34.46879],[-118.87698,34.46867],[-118.87702,34.4686],[-118.87713,34.46852],[-118.87726,34.46846],[-118.87732,34.46842],[-118.87741,34.46833],[-118.87753,34.46818],[-118.87763,34.46801],[-118.87775,34.46785],[-118.87798,34.46747],[-118.87808,34.46729],[-118.87812,34.46718],[-118.87809,34.46704],[-118.87807,34.46697],[-118.87807,34.4669],[-118.8781,34.46683],[-118.87815,34.46675],[-118.87822,34.4667],[-118.87836,34.46663],[-118.87857,34.46654],[-118.87871,34.46651],[-118.87887,34.46649],[-118.87906,34.46649],[-118.87934,34.4665],[-118.87947,34.46649],[-118.87958,34.46647],[-118.87973,34.46643],[-118.87998,34.46636],[-118.88012,34.46634],[-118.8803,34.46635],[-118.8805,34.46638],[-118.88068,34.46641],[-118.88072,34.46646],[-118.88074,34.46653],[-118.88072,34.46665],[-118.88068,34.46678],[-118.88061,34.46689],[-118.88054,34.46703],[-118.88053,34.4671],[-118.88056,34.46719],[-118.88064,34.46739],[-118.88067,34.46745],[-118.88073,34.46751]]}},{"type":"Feature","properties":{"name":"Forest Route 4N14","road_class":"track","surface":"dirt","tracktype":"grade5","source":"Caltrans All Roads + OpenStreetMap explicit surface","source_detail":"osm way 1421483799; Caltrans All Roads public-network geometry match","source_tile":"173/407","public_network_source":"Caltrans All Roads (ARNOLD/HPMS)","surface_source":"OpenStreetMap explicit surface tag","caltrans_match_coverage":1.0,"verified_length_m":1198},"geometry":{"type":"LineString","coordinates":[[-118.89544,34.42084],[-118.89539,34.42092],[-118.89524,34.42123],[-118.89508,34.42153],[-118.89484,34.42208],[-118.89482,34.42218],[-118.89483,34.42226],[-118.89487,34.42237],[-118.89507,34.42278],[-118.89516,34.42296],[-118.89524,34.42308],[-118.89535,34.42319],[-118.89552,34.42341],[-118.89555,34.4235],[-118.89562,34.42358],[-118.89576,34.42366],[-118.89589,34.4237],[-118.89605,34.42374],[-118.89622,34.42379],[-118.89629,34.42386],[-118.89634,34.42395],[-118.89637,34.42406],[-118.89639,34.42419],[-118.89636,34.42434],[-118.89631,34.42448],[-118.8963,34.42457],[-118.89635,34.42464],[-118.89642,34.42469],[-118.89651,34.42473],[-118.89661,34.42475],[-118.89676,34.42477],[-118.89703,34.42485],[-118.89718,34.42489],[-118.8977,34.42501],[-118.89798,34.42508],[-118.89813,34.42509],[-118.89823,34.42511],[-118.89832,34.42515],[-118.89843,34.42524],[-118.89854,34.42532],[-118.89863,34.42539],[-118.89874,34.42549],[-118.89882,34.42561],[-118.89889,34.42577],[-118.89892,34.42589],[-118.89892,34.42602],[-118.89891,34.42614],[-118.89886,34.42624],[-118.89887,34.42636],[-118.89889,34.42653],[-118.89893,34.42669],[-118.89901,34.42681],[-118.89905,34.4269],[-118.89906,34.42698],[-118.89907,34.42706],[-118.89906,34.4271],[-118.89901,34.42716],[-118.89894,34.42722],[-118.8988,34.42725],[-118.89865,34.42728],[-118.89853,34.42733],[-118.89841,34.42739],[-118.89838,34.42743],[-118.89836,34.42748],[-118.89835,34.42755],[-118.89838,34.42766],[-118.89847,34.42776],[-118.8986,34.42784],[-118.89876,34.42786],[-118.89888,34.42786],[-118.89908,34.4279],[-118.89915,34.42792],[-118.89917,34.42794],[-118.89922,34.42798],[-118.89924,34.42802],[-118.89926,34.42804],[-118.89926,34.42807],[-118.89926,34.42809],[-118.89924,34.42811],[-118.89921,34.42812],[-118.89917,34.42813],[-118.89914,34.42812],[-118.89908,34.42811],[-118.89901,34.42811],[-118.89895,34.42812],[-118.8989,34.42814],[-118.89885,34.42815],[-118.89879,34.4282],[-118.89872,34.42825],[-118.89863,34.42831],[-118.89861,34.42835]]}},{"type":"Feature","properties":{"name":"(unnamed public road)","road_class":"track","surface":"dirt","source":"Caltrans All Roads + OpenStreetMap explicit surface","source_detail":"osm way 1421684201; Caltrans All Roads public-network geometry match","source_tile":"173/407","public_network_source":"Caltrans All Roads (ARNOLD/HPMS)","surface_source":"OpenStreetMap explicit surface tag","caltrans_match_coverage":0.872,"verified_length_m":567},"geometry":{"type":"LineString","coordinates":[[-118.89833,34.4791],[-118.89844,34.47892],[-118.89848,34.47882],[-118.8985,34.47876],[-118.8985,34.47869],[-118.8985,34.47867],[-118.89851,34.47862],[-118.89861,34.47842],[-118.89869,34.47833],[-118.89889,34.47816],[-118.89896,34.4781],[-118.89918,34.4778],[-118.89925,34.47774],[-118.89949,34.47757],[-118.89973,34.47732],[-118.89977,34.47728],[-118.89981,34.47721],[-118.89994,34.47694],[-118.90002,34.47688],[-118.90007,34.47682],[-118.90023,34.47671],[-118.90029,34.47666],[-118.90035,34.4766],[-118.90039,34.47656],[-118.90041,34.47651],[-118.90042,34.47644],[-118.90042,34.47638],[-118.9004,34.47629],[-118.90038,34.47619],[-118.90032,34.47598],[-118.90029,34.47585],[-118.90033,34.47577],[-118.90039,34.47571],[-118.90048,34.47567],[-118.90054,34.47566],[-118.90075,34.47559],[-118.90094,34.47553],[-118.90113,34.47546],[-118.90137,34.47534],[-118.9015,34.47523],[-118.90153,34.47518]]}}]}