{"type":"FeatureCollection","features":[{"type":"Feature","properties":{"name":"Unnamed BLM route","source":"Bureau of Land Management","source_detail":"BLM GTLF OBJECTID 154790","source_id":"{B4D73974-8D69-4048-B197-C341B206C298}","road_class":"transportation_system_-_primitive_road","surface":"natural","vehicle_class":"4wd_low","allowed_mode":"unk","access_restriction":"unknown","seasonal_restriction":"not_listed","gis_miles":0.38459248},"geometry":{"type":"LineString","coordinates":[[-116.65133,34.6204],[-116.65115,34.62015],[-116.65074,34.61937],[-116.65055,34.61905],[-116.65045,34.61888],[-116.64979,34.61742],[-116.6494,34.617],[-116.64882,34.61624],[-116.64832,34.61543]]}},{"type":"Feature","properties":{"name":"Unnamed BLM route","source":"Bureau of Land Management","source_detail":"BLM GTLF OBJECTID 156006","source_id":"{A6DD816B-8737-4671-AFCD-DCCB5F673452}","road_class":"transportation_system_-_primitive_road","surface":"natural","vehicle_class":"4wd_low","allowed_mode":"unk","access_restriction":"unknown","seasonal_restriction":"not_listed","gis_miles":1.90022627},"geometry":{"type":"LineString","coordinates":[[-116.65133,34.6204],[-116.65195,34.62065],[-116.65262,34.62091],[-116.65326,34.62116],[-116.65373,34.62144],[-116.65411,34.62162],[-116.65446,34.62176],[-116.65501,34.62213],[-116.65539,34.62258],[-116.6556,34.62287],[-116.65588,34.62337],[-116.65611,34.62387],[-116.65655,34.62424],[-116.65658,34.62426],[-116.65692,34.62453],[-116.65744,34.62513],[-116.65783,34.62553],[-116.65818,34.62582],[-116.65825,34.62585],[-116.65853,34.62598],[-116.65874,34.62612],[-116.65893,34.62637],[-116.65921,34.62675],[-116.6594,34.62689],[-116.65942,34.62699],[-116.66,34.62746],[-116.66013,34.62768],[-116.66014,34.62769],[-116.66046,34.62806],[-116.66064,34.62827],[-116.66093,34.6286],[-116.66119,34.62898],[-116.66145,34.62932],[-116.66159,34.62947],[-116.66166,34.62954],[-116.66213,34.62981],[-116.66248,34.63014],[-116.66279,34.63033],[-116.66298,34.63057],[-116.66321,34.631],[-116.66339,34.63129],[-116.66338,34.6317],[-116.66341,34.63185],[-116.66345,34.63201],[-116.66349,34.6322],[-116.66372,34.63253],[-116.66409,34.63299],[-116.66447,34.63344],[-116.66465,34.63354],[-116.66492,34.63369],[-116.66528,34.634],[-116.66571,34.63437],[-116.66595,34.63463],[-116.66602,34.63474],[-116.6664,34.63515],[-116.66647,34.63524],[-116.66693,34.63579],[-116.66724,34.63617],[-116.66745,34.63655],[-116.66794,34.63735],[-116.66821,34.63793],[-116.6686,34.63867],[-116.66883,34.63912],[-116.66913,34.63959],[-116.6695,34.64014],[-116.66984,34.64061],[-116.67005,34.64098],[-116.67037,34.64167],[-116.67056,34.64193]]}},{"type":"Feature","properties":{"name":"Unnamed BLM route","source":"Bureau of Land Management","source_detail":"BLM GTLF OBJECTID 156992","source_id":"{C69DEAA4-47CC-4766-B16C-44AF1768101D}","road_class":"transportation_system_-_primitive_road","surface":"natural","vehicle_class":"4wd_low","allowed_mode":"unk","access_restriction":"none","seasonal_restriction":"not_listed","gis_miles":0.6077452},"geometry":{"type":"LineString","coordinates":[[-116.6804,34.65958],[-116.6804,34.65933],[-116.68042,34.65905],[-116.68043,34.65874],[-116.68043,34.65842],[-116.68044,34.65824],[-116.68045,34.65727],[-116.68045,34.65639],[-116.68046,34.65567],[-116.68045,34.65524]]}},{"type":"Feature","properties":{"name":"Unnamed BLM route","source":"Bureau of Land Management","source_detail":"BLM GTLF OBJECTID 157973","source_id":"{095D6DDC-50FA-432E-83DB-1885C3E0C98F}","road_class":"transportation_system_-_road","surface":"natural_improved","vehicle_class":"2wd_low","allowed_mode":"unk","access_restriction":"unknown","seasonal_restriction":"not_listed","gis_miles":0.85834428},"geometry":{"type":"LineString","coordinates":[[-116.69799,34.66595],[-116.69858,34.66574],[-116.69963,34.66534],[-116.69971,34.66531],[-116.70017,34.66515],[-116.70089,34.66493],[-116.7013,34.66485],[-116.70191,34.66477],[-116.70202,34.66475],[-116.70229,34.66469],[-116.70242,34.66465],[-116.70246,34.66464],[-116.70291,34.66449],[-116.70405,34.66411],[-116.70451,34.66394],[-116.70512,34.66372],[-116.70567,34.6635],[-116.70571,34.66349],[-116.70633,34.66316],[-116.70687,34.66285],[-116.70733,34.66251],[-116.70797,34.66213],[-116.70837,34.66198],[-116.70865,34.66187],[-116.70948,34.66153],[-116.70968,34.66153],[-116.70992,34.66153],[-116.71013,34.66153],[-116.71031,34.66153],[-116.71074,34.66158],[-116.71085,34.66157],[-116.71109,34.66154],[-116.71118,34.66151],[-116.71135,34.66147],[-116.71149,34.66141],[-116.71168,34.66132],[-116.71171,34.6613]]}},{"type":"Feature","properties":{"name":"Camp Rock Rd","source":"Bureau of Land Management","source_detail":"BLM GTLF OBJECTID 161633","source_id":"{51A5432C-8E8D-44CF-8472-F940F09A0C44}","road_class":"transportation_system_-_primitive_road","surface":"natural","vehicle_class":"4wd_low","allowed_mode":"unk","access_restriction":"none","seasonal_restriction":"not_listed","gis_miles":1.34808804},"geometry":{"type":"LineString","coordinates":[[-116.67296,34.64574],[-116.67297,34.64575],[-116.67319,34.64605],[-116.6735,34.64648],[-116.67386,34.64707],[-116.67397,34.64728],[-116.67421,34.64767],[-116.67432,34.64786],[-116.67468,34.64837],[-116.67524,34.64905],[-116.67558,34.64944],[-116.67619,34.65023],[-116.67674,34.65087],[-116.67706,34.65119],[-116.67731,34.65149],[-116.67788,34.65218],[-116.678,34.65232],[-116.67898,34.65356],[-116.67939,34.65411],[-116.67966,34.65436],[-116.6799,34.65459],[-116.68036,34.65512],[-116.68045,34.65524],[-116.68073,34.65561],[-116.68123,34.65624],[-116.6815,34.65658],[-116.68193,34.65719],[-116.68239,34.65783],[-116.68275,34.65828],[-116.68285,34.6584],[-116.68302,34.65864],[-116.68324,34.65897],[-116.68341,34.65917]]}},{"type":"Feature","properties":{"name":"Unnamed BLM route","source":"Bureau of Land Management","source_detail":"BLM GTLF OBJECTID 161637","source_id":"{0A0A60D7-B7AA-4AFE-97E1-D2E80AB47526}","road_class":"transportation_system_-_road","surface":"natural_improved","vehicle_class":"2wd_low","allowed_mode":"unk","access_restriction":"unknown","seasonal_restriction":"not_listed","gis_miles":0.03983492},"geometry":{"type":"LineString","coordinates":[[-116.71171,34.6613],[-116.71193,34.66116],[-116.71193,34.66116],[-116.71214,34.66101],[-116.71225,34.66094]]}}]}