{"type":"FeatureCollection","features":[{"type":"Feature","properties":{"name":"Unnamed BLM route","source":"Bureau of Land Management","source_detail":"BLM GTLF OBJECTID 155489","source_id":"{8ABB1620-7FDD-4062-A4BA-A4DD1B3A8786}","road_class":"transportation_system_-_primitive_road","surface":"natural","vehicle_class":"4wd_high_clearance_specialized","allowed_mode":"unk","access_restriction":"unknown","seasonal_restriction":"not_listed","gis_miles":0.2078688},"geometry":{"type":"LineString","coordinates":[[-116.37967,34.29548],[-116.37973,34.29566],[-116.37976,34.29583],[-116.37973,34.29601],[-116.37966,34.29624],[-116.37963,34.29646],[-116.37961,34.29667],[-116.37954,34.29697],[-116.37954,34.29715],[-116.37953,34.29731],[-116.37953,34.29742],[-116.37958,34.29774],[-116.3796,34.29801],[-116.37959,34.29817],[-116.37952,34.2983],[-116.37944,34.29844]]}},{"type":"Feature","properties":{"name":"Unnamed BLM route","source":"Bureau of Land Management","source_detail":"BLM GTLF OBJECTID 155982","source_id":"{16265DE2-CCDE-4764-B024-25257ED6887E}","road_class":"transportation_system_-_primitive_road","surface":"natural","vehicle_class":"4wd_low","allowed_mode":"unk","access_restriction":"unknown","seasonal_restriction":"not_listed","gis_miles":0.04592615},"geometry":{"type":"LineString","coordinates":[[-116.37896,34.29739],[-116.37858,34.2973],[-116.37819,34.2972]]}}]}