{"type":"FeatureCollection","features":[{"type":"Feature","properties":{"name":"Unnamed BLM route","source":"Bureau of Land Management","source_detail":"BLM GTLF OBJECTID 153972","source_id":"{0CD35E40-FA3E-4725-AD6F-E8BC7780B223}","road_class":"transportation_system_-_primitive_road","surface":"natural","vehicle_class":"4wd_low","allowed_mode":"unk","access_restriction":"not_listed","seasonal_restriction":"not_listed","gis_miles":0.83796008},"geometry":{"type":"LineString","coordinates":[[-116.45202,32.98168],[-116.45193,32.98168],[-116.45184,32.98167],[-116.45173,32.98159],[-116.45166,32.98144],[-116.45155,32.98132],[-116.45148,32.98112],[-116.4513,32.98043],[-116.45126,32.98016],[-116.45121,32.97981],[-116.45112,32.97949],[-116.45114,32.9793],[-116.45111,32.97923],[-116.45103,32.97893],[-116.45081,32.97867],[-116.45073,32.97853],[-116.45062,32.9784],[-116.45019,32.97823],[-116.44988,32.97814],[-116.44975,32.97803],[-116.44962,32.97784],[-116.4495,32.97762],[-116.44931,32.97756],[-116.44917,32.97745],[-116.44908,32.97732],[-116.44901,32.9772],[-116.44886,32.97708],[-116.44847,32.97681],[-116.44814,32.97662],[-116.44794,32.97647],[-116.44766,32.97624],[-116.44762,32.97611],[-116.44764,32.97595],[-116.44765,32.97583],[-116.44763,32.97534],[-116.44756,32.97479],[-116.44757,32.97428],[-116.44755,32.9737],[-116.4475,32.97321],[-116.44744,32.97308],[-116.44724,32.97275],[-116.44711,32.97275],[-116.4469,32.97277],[-116.44669,32.97276],[-116.44618,32.97262],[-116.44582,32.97253],[-116.44544,32.97248]]}},{"type":"Feature","properties":{"name":"Unnamed BLM route","source":"Bureau of Land Management","source_detail":"BLM GTLF OBJECTID 154020","source_id":"{F335AFE1-67EC-468C-9613-D453C46CAE63}","road_class":"transportation_system_-_primitive_road","surface":"natural","vehicle_class":"4wd_high_clearance_specialized","allowed_mode":"unk","access_restriction":"not_listed","seasonal_restriction":"not_listed","gis_miles":0.25888975},"geometry":{"type":"LineString","coordinates":[[-116.57523,33.08482],[-116.57533,33.08477],[-116.57561,33.08471],[-116.57578,33.08466],[-116.57611,33.08463],[-116.57623,33.08464],[-116.57631,33.0847],[-116.57641,33.08473],[-116.57649,33.0847],[-116.57655,33.08465],[-116.57645,33.08455],[-116.57639,33.08444],[-116.5764,33.08437],[-116.57643,33.08428],[-116.57649,33.08422],[-116.57649,33.08415],[-116.57642,33.08413],[-116.57632,33.08417],[-116.57623,33.08418],[-116.57612,33.08414],[-116.57593,33.08412],[-116.5757,33.084],[-116.57562,33.08393],[-116.57559,33.08382],[-116.57553,33.08342],[-116.57546,33.08329],[-116.57532,33.08321],[-116.57525,33.08311],[-116.57506,33.08304],[-116.57499,33.08298]]}},{"type":"Feature","properties":{"name":"Unnamed BLM route","source":"Bureau of Land Management","source_detail":"BLM GTLF OBJECTID 154074","source_id":"{1F06402D-418D-45F4-984B-9CB94D9770AF}","road_class":"transportation_system_-_primitive_road","surface":"natural","vehicle_class":"4wd_high_clearance_specialized","allowed_mode":"unk","access_restriction":"not_listed","seasonal_restriction":"not_listed","gis_miles":0.2106781},"geometry":{"type":"LineString","coordinates":[[-116.45945,32.97289],[-116.45948,32.97296],[-116.45965,32.97306],[-116.45989,32.9733],[-116.46006,32.97337],[-116.46027,32.97349],[-116.46051,32.97368],[-116.46084,32.97396],[-116.46111,32.97417],[-116.46137,32.9743],[-116.46164,32.97445],[-116.4618,32.97451],[-116.46181,32.97466],[-116.46196,32.9748],[-116.462,32.97492]]}},{"type":"Feature","properties":{"name":"Unnamed BLM route","source":"Bureau of Land Management","source_detail":"BLM GTLF OBJECTID 154089","source_id":"{C9B0F026-C4E5-414F-89E5-59D1DD8682D9}","road_class":"transportation_system_-_primitive_road","surface":"natural","vehicle_class":"4wd_high_clearance_specialized","allowed_mode":"unk","access_restriction":"not_listed","seasonal_restriction":"not_listed","gis_miles":0.39242854},"geometry":{"type":"LineString","coordinates":[[-116.49757,32.97958],[-116.49668,32.97932],[-116.49633,32.97923],[-116.49614,32.9792],[-116.49591,32.97917],[-116.49559,32.97918],[-116.49485,32.97926],[-116.49467,32.97926],[-116.49455,32.97924],[-116.49447,32.97916],[-116.49437,32.97909],[-116.49426,32.97907],[-116.4941,32.97906],[-116.49386,32.97894],[-116.49371,32.97875],[-116.4935,32.97869],[-116.49322,32.97837],[-116.49309,32.97824],[-116.49246,32.97782],[-116.49234,32.97772],[-116.49228,32.97765],[-116.49206,32.97772],[-116.49185,32.97778],[-116.49184,32.97778],[-116.4917,32.97777]]}},{"type":"Feature","properties":{"name":"Unnamed BLM route","source":"Bureau of Land Management","source_detail":"BLM GTLF OBJECTID 154356","source_id":"{C33BA70C-62B0-48E1-9C91-0EEA530BE753}","road_class":"transportation_system_-_primitive_road","surface":"natural","vehicle_class":"4wd_high_clearance_specialized","allowed_mode":"unk","access_restriction":"not_listed","seasonal_restriction":"not_listed","gis_miles":0.44762636},"geometry":{"type":"MultiLineString","coordinates":[[[-116.49857,32.96425],[-116.49851,32.96413],[-116.49853,32.96401]],[[-116.49853,32.96401],[-116.49842,32.96399],[-116.49833,32.96385],[-116.49807,32.96366],[-116.49789,32.96357],[-116.49763,32.96333],[-116.49739,32.96307],[-116.49729,32.96291],[-116.49726,32.96277],[-116.49681,32.96252],[-116.49661,32.96246],[-116.49649,32.96239],[-116.49636,32.96227],[-116.49616,32.96202],[-116.49584,32.96172],[-116.49577,32.96144],[-116.49561,32.9611],[-116.49547,32.96092],[-116.49527,32.96066],[-116.49499,32.96043],[-116.4949,32.96019],[-116.49485,32.96],[-116.49484,32.9597],[-116.49477,32.95938],[-116.49481,32.95927]],[[-116.49853,32.96401],[-116.49871,32.96386],[-116.49872,32.96385]]]}},{"type":"Feature","properties":{"name":"Unnamed BLM route","source":"Bureau of Land Management","source_detail":"BLM GTLF OBJECTID 154906","source_id":"{500C5524-7CA8-4030-8455-7796C10E5DEC}","road_class":"transportation_system_-_primitive_road","surface":"natural","vehicle_class":"4wd_low","allowed_mode":"unk","access_restriction":"not_listed","seasonal_restriction":"not_listed","gis_miles":0.04246677},"geometry":{"type":"LineString","coordinates":[[-116.54282,33.05503],[-116.54284,33.05487],[-116.54286,33.05442]]}},{"type":"Feature","properties":{"name":"Unnamed BLM route","source":"Bureau of Land Management","source_detail":"BLM GTLF OBJECTID 154907","source_id":"{454D7903-A8CC-46A0-84AA-1D81CD24238E}","road_class":"transportation_system_-_primitive_road","surface":"natural","vehicle_class":"4wd_high_clearance_specialized","allowed_mode":"unk","access_restriction":"not_listed","seasonal_restriction":"not_listed","gis_miles":0.06387146},"geometry":{"type":"LineString","coordinates":[[-116.57734,33.08473],[-116.57715,33.08456],[-116.57703,33.0845],[-116.57689,33.0845],[-116.57671,33.0845],[-116.57655,33.08448],[-116.57648,33.08443],[-116.5764,33.08437]]}},{"type":"Feature","properties":{"name":"Unnamed BLM route","source":"Bureau of Land Management","source_detail":"BLM GTLF OBJECTID 154943","source_id":"{B7951689-AE8F-4380-B76E-1CCC310CF72F}","road_class":"transportation_system_-_primitive_road","surface":"natural","vehicle_class":"4wd_high_clearance_specialized","allowed_mode":"unk","access_restriction":"not_listed","seasonal_restriction":"not_listed","gis_miles":2.5243317},"geometry":{"type":"LineString","coordinates":[[-116.44066,32.98194],[-116.44076,32.98186],[-116.4407,32.98163],[-116.4407,32.98158],[-116.44071,32.9813],[-116.4408,32.98101],[-116.44081,32.98091],[-116.4408,32.98053],[-116.44083,32.98031],[-116.44091,32.98008],[-116.44102,32.9799],[-116.44109,32.97975],[-116.44114,32.9796],[-116.44114,32.97943],[-116.44114,32.97931],[-116.44121,32.97913],[-116.44127,32.97901],[-116.44135,32.97892],[-116.44153,32.9784],[-116.44193,32.97764],[-116.442,32.97755],[-116.44213,32.97736],[-116.44231,32.97703],[-116.44246,32.97662],[-116.44258,32.97643],[-116.44269,32.97623],[-116.44281,32.976],[-116.44288,32.97573],[-116.44293,32.97549],[-116.443,32.97535],[-116.44312,32.97516],[-116.44329,32.97496],[-116.44349,32.97458],[-116.44382,32.97405],[-116.44401,32.97379],[-116.44409,32.97363],[-116.44414,32.97323],[-116.4442,32.97306],[-116.44432,32.97295],[-116.44461,32.97283],[-116.44485,32.97275],[-116.44504,32.97267],[-116.44544,32.97248],[-116.4457,32.97235],[-116.44584,32.97229],[-116.44604,32.97226],[-116.44636,32.97224],[-116.44667,32.97225],[-116.44709,32.97222],[-116.44765,32.97221],[-116.44778,32.97219],[-116.44791,32.97212],[-116.44861,32.97172],[-116.44894,32.97156],[-116.44919,32.97144],[-116.44932,32.97139],[-116.44983,32.97107],[-116.44993,32.97097],[-116.45022,32.97079],[-116.4504,32.97067],[-116.45064,32.97048],[-116.45083,32.97041],[-116.45102,32.97037],[-116.4512,32.97037],[-116.45141,32.97033],[-116.45157,32.97022],[-116.45188,32.97005],[-116.45199,32.96997],[-116.45209,32.96996],[-116.45222,32.96995],[-116.45236,32.96991],[-116.45271,32.96978],[-116.45291,32.96967],[-116.45304,32.96956],[-116.45332,32.96935],[-116.45347,32.96925],[-116.45372,32.96913],[-116.45388,32.96901],[-116.45417,32.96877],[-116.45452,32.96866],[-116.45491,32.96848],[-116.45508,32.96843],[-116.45532,32.96835],[-116.45555,32.96825],[-116.4557,32.96814],[-116.45581,32.96802],[-116.45591,32.96785],[-116.45603,32.96772],[-116.45613,32.96767],[-116.45638,32.96756],[-116.45655,32.96746],[-116.45665,32.96738],[-116.4568,32.96725],[-116.45681,32.96715],[-116.45736,32.96652],[-116.45796,32.96619],[-116.45841,32.96596],[-116.45889,32.96567],[-116.45916,32.96544],[-116.45944,32.96518],[-116.45984,32.9648],[-116.46,32.96461],[-116.46006,32.96452],[-116.46008,32.96433],[-116.46005,32.96423],[-116.46002,32.96413],[-116.46003,32.96399],[-116.4601,32.96368],[-116.46017,32.96357],[-116.46019,32.96343],[-116.4602,32.96324],[-116.46017,32.96306],[-116.46012,32.96298],[-116.46003,32.96284],[-116.45997,32.96261],[-116.45994,32.96234],[-116.46001,32.96222],[-116.46005,32.96202],[-116.46007,32.96186],[-116.46005,32.96174],[-116.46,32.96165],[-116.45988,32.96162],[-116.45979,32.96159],[-116.45974,32.96152],[-116.45968,32.96101],[-116.45965,32.9609],[-116.45959,32.96065],[-116.45961,32.96055],[-116.45968,32.96036],[-116.45966,32.96025],[-116.45963,32.96012],[-116.45959,32.96],[-116.45959,32.9599],[-116.45966,32.95978],[-116.45971,32.95908],[-116.45976,32.95899],[-116.45983,32.95886],[-116.4599,32.95868],[-116.45994,32.95848],[-116.46001,32.95819],[-116.46004,32.95792],[-116.4601,32.95778],[-116.46024,32.95768],[-116.46039,32.95756],[-116.46058,32.95747],[-116.4609,32.95747],[-116.46103,32.95745],[-116.46111,32.95741],[-116.4612,32.95735],[-116.46138,32.95726],[-116.4616,32.95726],[-116.46184,32.9573],[-116.46204,32.95735],[-116.46226,32.95745],[-116.46246,32.95749],[-116.46258,32.95754],[-116.46278,32.95763],[-116.46291,32.95769],[-116.46302,32.95769],[-116.46317,32.95766],[-116.46334,32.95768],[-116.46349,32.95776],[-116.46359,32.9578],[-116.46381,32.95783],[-116.46387,32.95789],[-116.46392,32.95797]]}},{"type":"Feature","properties":{"name":"Chariot Canyon Rd","source":"Bureau of Land Management","source_detail":"BLM GTLF OBJECTID 154981","source_id":"{D6C0D03D-3E5E-455B-9EF5-4AB20EDE7A1F}","road_class":"transportation_system_-_primitive_road","surface":"natural_improved","vehicle_class":"4wd_low","allowed_mode":"unk","access_restriction":"not_listed","seasonal_restriction":"not_listed","gis_miles":4.25149089},"geometry":{"type":"LineString","coordinates":[[-116.54773,33.06755],[-116.54722,33.0673],[-116.54711,33.06717],[-116.54699,33.06711],[-116.54685,33.06711],[-116.54674,33.06721],[-116.54665,33.0673],[-116.54658,33.06736],[-116.54645,33.06738],[-116.54629,33.06734],[-116.54614,33.06727],[-116.54599,33.06723],[-116.54581,33.06723],[-116.54552,33.06728],[-116.54524,33.06731],[-116.54493,33.06729],[-116.54481,33.06724],[-116.54486,33.06715],[-116.54519,33.06709],[-116.54543,33.06691],[-116.54566,33.06668],[-116.54584,33.06646],[-116.54591,33.06633],[-116.54592,33.06612],[-116.54595,33.06592],[-116.54604,33.06582],[-116.5462,33.06581],[-116.54644,33.06585],[-116.54658,33.06583],[-116.54674,33.06565],[-116.54685,33.06543],[-116.54681,33.06526],[-116.54679,33.06512],[-116.54686,33.06501],[-116.54687,33.06489],[-116.5468,33.06475],[-116.54677,33.06465],[-116.54681,33.06453],[-116.54712,33.06439],[-116.54724,33.06433],[-116.54733,33.06416],[-116.54737,33.064],[-116.54737,33.06385],[-116.54735,33.0637],[-116.54757,33.06359],[-116.5476,33.06347],[-116.54753,33.06334],[-116.5473,33.06315],[-116.54727,33.06306],[-116.54728,33.06292],[-116.54722,33.0628],[-116.54728,33.06264],[-116.54728,33.06253],[-116.54724,33.06243],[-116.54712,33.06233],[-116.54696,33.06229],[-116.54669,33.06229],[-116.54659,33.06222],[-116.54664,33.06213],[-116.54688,33.06207],[-116.54704,33.06202],[-116.54712,33.06188],[-116.547,33.06163],[-116.54695,33.06138],[-116.54679,33.06129],[-116.54673,33.06118],[-116.54681,33.0611],[-116.54695,33.06099],[-116.54698,33.06079],[-116.54695,33.06058],[-116.54685,33.06035],[-116.54654,33.06008],[-116.54642,33.05998],[-116.54599,33.05981],[-116.54579,33.05974],[-116.54545,33.05929],[-116.54537,33.0592],[-116.54506,33.05902],[-116.54508,33.05877],[-116.54496,33.05855],[-116.54496,33.05851],[-116.54496,33.05843],[-116.5449,33.05835],[-116.54486,33.05804],[-116.54462,33.05768],[-116.54427,33.05753],[-116.54414,33.05728],[-116.54397,33.05696],[-116.54381,33.05675],[-116.54363,33.05636],[-116.54347,33.05569],[-116.54338,33.05532],[-116.54304,33.05465],[-116.5429,33.05444],[-116.54287,33.05432],[-116.54287,33.05431],[-116.54278,33.05415],[-116.54265,33.05407],[-116.54234,33.05395],[-116.54228,33.05384],[-116.54233,33.05374],[-116.54239,33.05364],[-116.54242,33.05354],[-116.54241,33.05343],[-116.54233,33.05323],[-116.5419,33.05243],[-116.54189,33.05232],[-116.54188,33.05199],[-116.54186,33.05193],[-116.5418,33.05189],[-116.54128,33.0516],[-116.54117,33.05156],[-116.54106,33.05158],[-116.54097,33.05163],[-116.54088,33.05161],[-116.54077,33.05151],[-116.54058,33.05125],[-116.54046,33.05115],[-116.54043,33.05105],[-116.54045,33.05095],[-116.54052,33.05087],[-116.54064,33.05084],[-116.54076,33.05081],[-116.54079,33.05078],[-116.54084,33.05074],[-116.54077,33.05063],[-116.54054,33.05055],[-116.54016,33.05049],[-116.54001,33.05048],[-116.5399,33.05045],[-116.53972,33.05038],[-116.53952,33.05039],[-116.53925,33.05044],[-116.53901,33.05049],[-116.53889,33.05047],[-116.5387,33.05042],[-116.53854,33.05031],[-116.53838,33.05016],[-116.53834,33.05007],[-116.53838,33.04998],[-116.53853,33.04989],[-116.53866,33.04977],[-116.53871,33.04965],[-116.53877,33.04943],[-116.53882,33.04931],[-116.53882,33.04918],[-116.53878,33.04903],[-116.53871,33.04888],[-116.53863,33.04873],[-116.53865,33.04866],[-116.53874,33.04861],[-116.53891,33.0486],[-116.53906,33.04854],[-116.53915,33.04848],[-116.53927,33.04835],[-116.53934,33.04819],[-116.5394,33.04792],[-116.53943,33.04756],[-116.5394,33.04739],[-116.53936,33.04721],[-116.53934,33.04706],[-116.53935,33.04703],[-116.53939,33.04692],[-116.53947,33.04681],[-116.53959,33.04671],[-116.53979,33.04663],[-116.53993,33.04658],[-116.54001,33.04654],[-116.54005,33.04645],[-116.54011,33.04638],[-116.54023,33.04632],[-116.54029,33.04626],[-116.54032,33.04617],[-116.54032,33.04608],[-116.54021,33.04572],[-116.54015,33.04549],[-116.54014,33.04535],[-116.54017,33.04519],[-116.54023,33.04503],[-116.54023,33.04493],[-116.54017,33.04482],[-116.54,33.04472],[-116.53955,33.04453],[-116.53945,33.04446],[-116.53938,33.04435],[-116.53926,33.04419],[-116.53901,33.04396],[-116.53881,33.04359],[-116.5388,33.04349],[-116.53886,33.04341],[-116.53899,33.04331],[-116.53906,33.04319],[-116.53913,33.04302],[-116.53918,33.04286],[-116.53917,33.04277],[-116.5391,33.04268],[-116.53898,33.04264],[-116.53884,33.04265],[-116.5385,33.04271],[-116.5384,33.04271],[-116.53833,33.04265],[-116.53836,33.04257],[-116.53845,33.0425],[-116.53855,33.04239],[-116.53863,33.04227],[-116.53862,33.04214],[-116.53855,33.04204],[-116.53845,33.04199],[-116.53828,33.04195],[-116.5382,33.04191],[-116.5382,33.04184],[-116.53823,33.04176],[-116.53828,33.04162],[-116.53822,33.04151],[-116.53815,33.04145],[-116.53802,33.04138],[-116.53797,33.0413],[-116.5379,33.04115],[-116.53778,33.04109],[-116.53765,33.04106],[-116.53749,33.04104],[-116.53743,33.041],[-116.53741,33.04092],[-116.53744,33.04084],[-116.53747,33.04077],[-116.53748,33.0407],[-116.53747,33.04059],[-116.53748,33.04052],[-116.53755,33.04047],[-116.53766,33.04044],[-116.5378,33.04038],[-116.53787,33.04033],[-116.53789,33.04024],[-116.5379,33.04015],[-116.53788,33.04002],[-116.53786,33.03986],[-116.53787,33.03976],[-116.5379,33.03965],[-116.53792,33.03957],[-116.5379,33.03948],[-116.53774,33.03916],[-116.5377,33.03903],[-116.53753,33.03892],[-116.53741,33.03879],[-116.53726,33.0387],[-116.53719,33.03864],[-116.53719,33.03853],[-116.53722,33.03839],[-116.53729,33.03831],[-116.53731,33.03824],[-116.5373,33.03815],[-116.53724,33.03809],[-116.53713,33.03807],[-116.53702,33.03808],[-116.53694,33.03807],[-116.53679,33.03801],[-116.5366,33.03796],[-116.53658,33.03789],[-116.53663,33.03778],[-116.53668,33.03768],[-116.5367,33.03757],[-116.53669,33.03746],[-116.53667,33.03736],[-116.53661,33.03706],[-116.53656,33.03688],[-116.53649,33.0367],[-116.53643,33.03654],[-116.53639,33.03639],[-116.53635,33.03619],[-116.53632,33.03607],[-116.53623,33.03594],[-116.53614,33.03576],[-116.53605,33.03545],[-116.53593,33.03525],[-116.53584,33.03516],[-116.53575,33.03501],[-116.53562,33.03471],[-116.53549,33.03436],[-116.53541,33.03418],[-116.53522,33.03395],[-116.53512,33.03374],[-116.53505,33.03363],[-116.53486,33.03351],[-116.53471,33.03336],[-116.53448,33.0331],[-116.53437,33.03298],[-116.53427,33.03279],[-116.53414,33.03268],[-116.53397,33.03255],[-116.53385,33.03239],[-116.53379,33.03226],[-116.53375,33.03206],[-116.53368,33.03192],[-116.53347,33.03161],[-116.53323,33.03131],[-116.53315,33.03114],[-116.5331,33.03101],[-116.53308,33.03087],[-116.53306,33.03075],[-116.53289,33.03052],[-116.53281,33.03046],[-116.53272,33.03038],[-116.53232,33.02979],[-116.53214,33.0296],[-116.53209,33.02945],[-116.53189,33.02884],[-116.53181,33.0287],[-116.53169,33.02858],[-116.53147,33.02845],[-116.53128,33.02837],[-116.53118,33.02824],[-116.53103,33.02785],[-116.53095,33.02755],[-116.5309,33.02743],[-116.53079,33.02724],[-116.53073,33.02703],[-116.53069,33.02688],[-116.5307,33.02663],[-116.53069,33.02649],[-116.53066,33.02636],[-116.53058,33.02627],[-116.53045,33.0262],[-116.53026,33.02609],[-116.53013,33.02597],[-116.53009,33.02588],[-116.53011,33.02581],[-116.53021,33.02575],[-116.53028,33.0257],[-116.53032,33.02562],[-116.53032,33.02554],[-116.53023,33.02523],[-116.53019,33.02512],[-116.53016,33.02485],[-116.53002,33.02467],[-116.52998,33.02457],[-116.53003,33.02444],[-116.53008,33.02425],[-116.53009,33.02407],[-116.53007,33.02391],[-116.53001,33.0238],[-116.52994,33.02365],[-116.52987,33.02354],[-116.52965,33.02334],[-116.5296,33.02319],[-116.52953,33.02308],[-116.52936,33.02294],[-116.52911,33.02278],[-116.52902,33.02265],[-116.52897,33.02249],[-116.52889,33.02235],[-116.52886,33.02222],[-116.52869,33.02191],[-116.52859,33.02175],[-116.52858,33.02151],[-116.52855,33.0214],[-116.52849,33.02126],[-116.52837,33.02114],[-116.5283,33.02109]]}},{"type":"Feature","properties":{"name":"Unnamed BLM route","source":"Bureau of Land Management","source_detail":"BLM GTLF OBJECTID 156716","source_id":"{8D0E2742-7A44-4457-ADEC-14548FDA5072}","road_class":"transportation_system_-_primitive_road","surface":"natural","vehicle_class":"4wd_high_clearance_specialized","allowed_mode":"unk","access_restriction":"not_listed","seasonal_restriction":"not_listed","gis_miles":2.0591057},"geometry":{"type":"LineString","coordinates":[[-116.49947,32.98936],[-116.49913,32.98932],[-116.49894,32.98933],[-116.49882,32.98935],[-116.49874,32.98924],[-116.49868,32.98908],[-116.49861,32.98892],[-116.49868,32.98869],[-116.49868,32.98861],[-116.49861,32.98852],[-116.49862,32.98834],[-116.49866,32.98822],[-116.49875,32.98814],[-116.49878,32.98799],[-116.49882,32.98789],[-116.49881,32.98773],[-116.49886,32.9876],[-116.49894,32.98745],[-116.49907,32.9874],[-116.4992,32.98734],[-116.4993,32.98731],[-116.49934,32.98725],[-116.4993,32.98714],[-116.49923,32.98701],[-116.49923,32.98686],[-116.4992,32.98654],[-116.49913,32.98596],[-116.49913,32.98573],[-116.49914,32.98555],[-116.49915,32.98525],[-116.49913,32.98514],[-116.49908,32.98506],[-116.4991,32.98449],[-116.49917,32.98439],[-116.49911,32.98418],[-116.49906,32.98398],[-116.49905,32.98389],[-116.49904,32.98386],[-116.49903,32.98376],[-116.49889,32.9836],[-116.49882,32.98348],[-116.49875,32.98337],[-116.4986,32.98305],[-116.49859,32.98292],[-116.49858,32.98259],[-116.49857,32.98248],[-116.49847,32.98234],[-116.49839,32.98224],[-116.49816,32.98215],[-116.49795,32.98207],[-116.49769,32.98199],[-116.49754,32.98179],[-116.49723,32.98105],[-116.49716,32.98079],[-116.49715,32.9804],[-116.49717,32.98028],[-116.49733,32.9802],[-116.49745,32.97996],[-116.49751,32.97976],[-116.49757,32.97958],[-116.49771,32.9793],[-116.49798,32.97913],[-116.4983,32.97902],[-116.49848,32.9789],[-116.4987,32.97875],[-116.49888,32.9786],[-116.49902,32.97856],[-116.4994,32.97828],[-116.5,32.97797],[-116.50008,32.97789],[-116.50018,32.97778],[-116.50036,32.97765],[-116.50066,32.97751],[-116.501,32.97735],[-116.50113,32.97727],[-116.50122,32.97715],[-116.5014,32.97697],[-116.50158,32.97688],[-116.50179,32.9768],[-116.50191,32.97674],[-116.50218,32.97643],[-116.50227,32.97626],[-116.50241,32.97591],[-116.50247,32.97562],[-116.5025,32.97544],[-116.50247,32.9753],[-116.50239,32.97505],[-116.50227,32.97489],[-116.50217,32.97462],[-116.50205,32.97441],[-116.50193,32.97421],[-116.50171,32.97397],[-116.50139,32.9736],[-116.50138,32.97348],[-116.50135,32.97347],[-116.50124,32.97341],[-116.50114,32.97328],[-116.50086,32.97298],[-116.50065,32.97278],[-116.50059,32.97269],[-116.50059,32.97255],[-116.50059,32.97236],[-116.50058,32.9722],[-116.50053,32.972],[-116.50043,32.97171],[-116.50032,32.97137],[-116.50017,32.971],[-116.50006,32.97089],[-116.49987,32.9708],[-116.49993,32.97055],[-116.50006,32.97043],[-116.5001,32.97028],[-116.50017,32.96974],[-116.50008,32.96962],[-116.49991,32.96943],[-116.49989,32.96934],[-116.49986,32.96897],[-116.49983,32.96882],[-116.49976,32.96824],[-116.49979,32.96803],[-116.49982,32.96787],[-116.4999,32.96768],[-116.49993,32.96751],[-116.49999,32.96737],[-116.50002,32.96723],[-116.50001,32.96707],[-116.49992,32.96686],[-116.49991,32.96677],[-116.49994,32.96663],[-116.49993,32.96647],[-116.4999,32.96629],[-116.49982,32.96608],[-116.49962,32.9657],[-116.49963,32.96552],[-116.49961,32.96534],[-116.49954,32.96519],[-116.49939,32.96511],[-116.49921,32.96508],[-116.49904,32.96508],[-116.49886,32.96512],[-116.49876,32.96512],[-116.49866,32.96508],[-116.49844,32.96494],[-116.49844,32.96494],[-116.49843,32.96493],[-116.49834,32.96485],[-116.49832,32.96484]]}},{"type":"Feature","properties":{"name":"Unnamed BLM route","source":"Bureau of Land Management","source_detail":"BLM GTLF OBJECTID 156899","source_id":"{1416505F-F0F6-4819-A1A2-13D4ACA220D3}","road_class":"transportation_system_-_primitive_road","surface":"natural","vehicle_class":"4wd_high_clearance_specialized","allowed_mode":"unk","access_restriction":"not_listed","seasonal_restriction":"not_listed","gis_miles":0.22299593},"geometry":{"type":"LineString","coordinates":[[-116.49161,32.97082],[-116.49161,32.97082],[-116.49169,32.97085],[-116.49191,32.97111],[-116.49202,32.97129],[-116.49212,32.97136],[-116.49226,32.9714],[-116.49238,32.97165],[-116.49233,32.97179],[-116.49242,32.97194],[-116.49254,32.97209],[-116.49266,32.97236],[-116.49284,32.97253],[-116.49332,32.97299],[-116.49369,32.9734]]}},{"type":"Feature","properties":{"name":"Unnamed BLM route","source":"Bureau of Land Management","source_detail":"BLM GTLF OBJECTID 157475","source_id":"{716A3D9A-2D5F-45EB-8388-5FFA3CC1CD2B}","road_class":"transportation_system_-_primitive_road","surface":"natural","vehicle_class":"4wd_low","allowed_mode":"unk","access_restriction":"not_listed","seasonal_restriction":"not_listed","gis_miles":1.49497007},"geometry":{"type":"LineString","coordinates":[[-116.4531,32.98356],[-116.45303,32.98345],[-116.45292,32.98333],[-116.45279,32.98318],[-116.45267,32.98304],[-116.45245,32.98272],[-116.45227,32.98248],[-116.45214,32.98229],[-116.45208,32.98216],[-116.45204,32.98204],[-116.45203,32.98188],[-116.45202,32.98168],[-116.45203,32.9809],[-116.45207,32.98052],[-116.45209,32.98034],[-116.45207,32.97975],[-116.45206,32.97901],[-116.45208,32.97884],[-116.45206,32.97863],[-116.45206,32.97841],[-116.45209,32.97752],[-116.45207,32.97741],[-116.45202,32.97679],[-116.45203,32.97626],[-116.45205,32.97601],[-116.45205,32.97522],[-116.45207,32.97506],[-116.4521,32.97492],[-116.45208,32.97468],[-116.45208,32.97433],[-116.45209,32.97422],[-116.45209,32.97365],[-116.45211,32.97347],[-116.45215,32.97334],[-116.45213,32.97287],[-116.45207,32.97254],[-116.45207,32.97233],[-116.45209,32.97204],[-116.45209,32.97182],[-116.45209,32.97159],[-116.45202,32.97115],[-116.45194,32.97093],[-116.45174,32.97054],[-116.45157,32.97022],[-116.45149,32.97011],[-116.45148,32.97004],[-116.45145,32.96987],[-116.45142,32.9697],[-116.45142,32.96961],[-116.45146,32.96955],[-116.45168,32.96945],[-116.45177,32.96939],[-116.45177,32.96925],[-116.45189,32.96909],[-116.45191,32.96899],[-116.45187,32.96885],[-116.45181,32.96863],[-116.45174,32.96842],[-116.45162,32.96823],[-116.4516,32.96807],[-116.45165,32.9679],[-116.45174,32.96778],[-116.45175,32.96766],[-116.4517,32.96758],[-116.45159,32.96749],[-116.45147,32.96741],[-116.45131,32.96734],[-116.451,32.9673],[-116.45085,32.96726],[-116.45058,32.96717],[-116.45033,32.96707],[-116.45009,32.96696],[-116.44973,32.96684],[-116.44952,32.9668],[-116.44937,32.96673],[-116.44931,32.96666],[-116.44919,32.96652],[-116.44907,32.96643],[-116.44883,32.96636],[-116.44874,32.96627],[-116.44862,32.96623],[-116.4484,32.96616],[-116.44813,32.96609],[-116.44803,32.96603],[-116.44774,32.96582],[-116.4475,32.96569],[-116.44721,32.96566],[-116.44697,32.96566],[-116.44679,32.96564],[-116.44665,32.96559],[-116.4466,32.96548],[-116.44657,32.96535]]}},{"type":"Feature","properties":{"name":"Unnamed BLM route","source":"Bureau of Land Management","source_detail":"BLM GTLF OBJECTID 157492","source_id":"{ED8A9B3D-2A5D-43B6-BB4F-004104ACAD96}","road_class":"transportation_system_-_primitive_road","surface":"natural","vehicle_class":"4wd_high_clearance_specialized","allowed_mode":"unk","access_restriction":"not_listed","seasonal_restriction":"not_listed","gis_miles":0.0649782},"geometry":{"type":"LineString","coordinates":[[-116.49584,32.96172],[-116.49562,32.96172],[-116.49541,32.96163],[-116.49541,32.96149],[-116.49545,32.96141],[-116.4955,32.96129],[-116.49561,32.9611]]}},{"type":"Feature","properties":{"name":"Unnamed BLM route","source":"Bureau of Land Management","source_detail":"BLM GTLF OBJECTID 158101","source_id":"{C2B833D3-41AA-4793-B248-D25EFBB812E1}","road_class":"transportation_system_-_primitive_road","surface":"natural","vehicle_class":"4wd_low","allowed_mode":"unk","access_restriction":"not_listed","seasonal_restriction":"not_listed","gis_miles":0.05554965},"geometry":{"type":"LineString","coordinates":[[-116.50241,32.97591],[-116.50257,32.97587],[-116.50273,32.97584],[-116.50286,32.97577],[-116.503,32.97574],[-116.50332,32.9757]]}},{"type":"Feature","properties":{"name":"Unnamed BLM route","source":"Bureau of Land Management","source_detail":"BLM GTLF OBJECTID 158244","source_id":"{97B78451-2C65-45CB-AADB-16749C5312E8}","road_class":"transportation_system_-_primitive_road","surface":"natural","vehicle_class":"4wd_high_clearance_specialized","allowed_mode":"unk","access_restriction":"not_listed","seasonal_restriction":"not_listed","gis_miles":0.44857027},"geometry":{"type":"LineString","coordinates":[[-116.45641,32.96917],[-116.45658,32.96994],[-116.4566,32.97008],[-116.45666,32.97023],[-116.4568,32.97058],[-116.45692,32.97091],[-116.45709,32.97117],[-116.45747,32.97141],[-116.45771,32.97165],[-116.45796,32.97193],[-116.45829,32.97246],[-116.45856,32.97256],[-116.45876,32.97268],[-116.45897,32.97275],[-116.45923,32.97282],[-116.45937,32.97287],[-116.45945,32.97289],[-116.45962,32.9729],[-116.46022,32.97283],[-116.4607,32.97278],[-116.46096,32.9728],[-116.46118,32.97283],[-116.46143,32.97282]]}},{"type":"Feature","properties":{"name":"Unnamed BLM route","source":"Bureau of Land Management","source_detail":"BLM GTLF OBJECTID 158303","source_id":"{49ADF650-DE96-4A21-8669-5F8DF87DC498}","road_class":"transportation_system_-_primitive_road","surface":"natural","vehicle_class":"4wd_low","allowed_mode":"unk","access_restriction":"not_listed","seasonal_restriction":"not_listed","gis_miles":0.35892504},"geometry":{"type":"LineString","coordinates":[[-116.51633,33.04461],[-116.5164,33.04451],[-116.51642,33.04442],[-116.51643,33.04434],[-116.51652,33.04429],[-116.51665,33.04423],[-116.51687,33.04412],[-116.51708,33.04408],[-116.51721,33.04404],[-116.5173,33.04399],[-116.51733,33.04393],[-116.51739,33.04387],[-116.51751,33.04386],[-116.51751,33.04378],[-116.51751,33.04372],[-116.5176,33.04366],[-116.51767,33.0436],[-116.51768,33.04349],[-116.51762,33.04339],[-116.5176,33.04328],[-116.51767,33.04319],[-116.51779,33.04315],[-116.51795,33.04314],[-116.51854,33.04322],[-116.51872,33.04327],[-116.51887,33.04332],[-116.51905,33.04331],[-116.51926,33.04332],[-116.51952,33.04323],[-116.51957,33.04314],[-116.51956,33.04299],[-116.51944,33.0429],[-116.51934,33.04286],[-116.51922,33.04277],[-116.5192,33.04272],[-116.51925,33.04264],[-116.51934,33.04258],[-116.51936,33.04245],[-116.51937,33.04224],[-116.51937,33.04203],[-116.51934,33.04195]]}},{"type":"Feature","properties":{"name":"Unnamed BLM route","source":"Bureau of Land Management","source_detail":"BLM GTLF OBJECTID 159409","source_id":"{10536B6F-75C6-41D8-97E6-F5B4AF3C6118}","road_class":"transportation_system_-_primitive_road","surface":"natural","vehicle_class":"4wd_high_clearance_specialized","allowed_mode":"unk","access_restriction":"not_listed","seasonal_restriction":"not_listed","gis_miles":0.08458673},"geometry":{"type":"LineString","coordinates":[[-116.57401,33.08508],[-116.57422,33.08501],[-116.57432,33.08497],[-116.57447,33.08501],[-116.57457,33.08501],[-116.57471,33.08496],[-116.57483,33.08488],[-116.575,33.08486],[-116.57507,33.08478],[-116.57514,33.08467],[-116.5752,33.08457]]}},{"type":"Feature","properties":{"name":"Unnamed BLM route","source":"Bureau of Land Management","source_detail":"BLM GTLF OBJECTID 159486","source_id":"{851964E7-11C8-4143-8776-9BC240A4C380}","road_class":"transportation_system_-_primitive_road","surface":"natural","vehicle_class":"4wd_high_clearance_specialized","allowed_mode":"unk","access_restriction":"not_listed","seasonal_restriction":"not_listed","gis_miles":0.64209704},"geometry":{"type":"LineString","coordinates":[[-116.4568,32.96725],[-116.45687,32.9673],[-116.45693,32.96744],[-116.45688,32.96754],[-116.45684,32.96786],[-116.45684,32.96805],[-116.4568,32.96828],[-116.45674,32.96842],[-116.45668,32.96854],[-116.4566,32.96864],[-116.45655,32.9688],[-116.45652,32.969],[-116.45641,32.96917],[-116.45603,32.9696],[-116.45581,32.96985],[-116.45558,32.97012],[-116.45527,32.97053],[-116.45511,32.97072],[-116.45496,32.97087],[-116.45486,32.97101],[-116.45483,32.9711],[-116.45458,32.97117],[-116.45442,32.9712],[-116.45434,32.97131],[-116.45419,32.97159],[-116.45392,32.97183],[-116.45365,32.97202],[-116.45333,32.97261],[-116.45307,32.97343],[-116.45299,32.97365],[-116.45274,32.97403],[-116.45264,32.97424],[-116.45255,32.97449],[-116.45245,32.97481],[-116.45224,32.97504],[-116.45205,32.97522]]}},{"type":"Feature","properties":{"name":"Unnamed BLM route","source":"Bureau of Land Management","source_detail":"BLM GTLF OBJECTID 160043","source_id":"{ECA10511-7277-4698-91B9-330010274952}","road_class":"transportation_system_-_primitive_road","surface":"natural","vehicle_class":"4wd_high_clearance_specialized","allowed_mode":"unk","access_restriction":"not_listed","seasonal_restriction":"not_listed","gis_miles":0.22597368},"geometry":{"type":"LineString","coordinates":[[-116.49672,32.96477],[-116.49626,32.96463],[-116.49603,32.96466],[-116.49587,32.96463],[-116.49574,32.96457],[-116.49553,32.96422],[-116.4953,32.96396],[-116.49528,32.96379],[-116.49517,32.96373],[-116.49493,32.96338],[-116.49487,32.96325],[-116.49492,32.96279],[-116.49495,32.96266],[-116.49503,32.96256],[-116.49521,32.96252]]}},{"type":"Feature","properties":{"name":"Unnamed BLM route","source":"Bureau of Land Management","source_detail":"BLM GTLF OBJECTID 160127","source_id":"{56492ECD-7E8A-4F35-997A-ACFDB5E8DA12}","road_class":"transportation_system_-_primitive_road","surface":"natural","vehicle_class":"4wd_low","allowed_mode":"unk","access_restriction":"not_listed","seasonal_restriction":"not_listed","gis_miles":0.04534781},"geometry":{"type":"LineString","coordinates":[[-116.5195,33.04682],[-116.51963,33.04657],[-116.5197,33.04639],[-116.51973,33.0462]]}}]}