{"type":"FeatureCollection","features":[{"type":"Feature","properties":{"name":"Mud Lake Road","road_class":"unclassified","surface":"dirt","source":"Caltrans All Roads + OpenStreetMap explicit surface","source_detail":"osm way 10282838; Caltrans All Roads public-network geometry match","source_tile":"171/392","public_network_source":"Caltrans All Roads (ARNOLD/HPMS)","surface_source":"OpenStreetMap explicit surface tag","caltrans_match_coverage":1.0,"verified_length_m":3745},"geometry":{"type":"LineString","coordinates":[[-119.74888,38.79745],[-119.74882,38.79764],[-119.74869,38.79802],[-119.74871,38.79976],[-119.74855,38.80106],[-119.74886,38.80224],[-119.7492,38.80337],[-119.7493,38.80413],[-119.74953,38.80515],[-119.74975,38.80595],[-119.74993,38.80719],[-119.75017,38.80802],[-119.75028,38.80858],[-119.75029,38.80883],[-119.7503,38.80908],[-119.75023,38.8095],[-119.74984,38.81089],[-119.74985,38.81115],[-119.75003,38.81163],[-119.7501,38.81218],[-119.75031,38.8142],[-119.75032,38.81477],[-119.7503,38.81558],[-119.75024,38.81745],[-119.75042,38.81821],[-119.75046,38.81843],[-119.75032,38.81904],[-119.75012,38.82041],[-119.74992,38.82138],[-119.74994,38.82161],[-119.75017,38.82225],[-119.75043,38.82284],[-119.75064,38.82352],[-119.75101,38.82452],[-119.75129,38.82511],[-119.75158,38.8254],[-119.75176,38.82559],[-119.75198,38.82571],[-119.75213,38.82583],[-119.75245,38.82595],[-119.7528,38.82602],[-119.75308,38.82612],[-119.75331,38.82631],[-119.75346,38.82651],[-119.75377,38.82705],[-119.75392,38.82728],[-119.75415,38.82801],[-119.75418,38.82812],[-119.7542,38.8282],[-119.75428,38.82865],[-119.75424,38.82899],[-119.75393,38.82987]]}}]}