{"type":"FeatureCollection","features":[{"type":"Feature","properties":{"name":"(unnamed public road)","road_class":"track","surface":"unpaved","source":"Caltrans All Roads + OpenStreetMap explicit surface","source_detail":"osm way 221551959; Caltrans All Roads public-network geometry match","source_tile":"171/397","public_network_source":"Caltrans All Roads (ARNOLD/HPMS)","surface_source":"OpenStreetMap explicit surface tag","caltrans_match_coverage":0.991,"verified_length_m":14921},"geometry":{"type":"LineString","coordinates":[[-119.70101,37.50647],[-119.70091,37.50641],[-119.70079,37.50639],[-119.70048,37.50635],[-119.70032,37.50628],[-119.70019,37.50621],[-119.7,37.50606],[-119.69984,37.50584],[-119.6998,37.50577],[-119.69975,37.50558],[-119.69976,37.50547],[-119.7,37.50512],[-119.70061,37.50394],[-119.70069,37.50377],[-119.70076,37.5036],[-119.70085,37.50346],[-119.70087,37.50335],[-119.70085,37.50317],[-119.7008,37.50304],[-119.70068,37.50276],[-119.70051,37.5023],[-119.70046,37.5022],[-119.70018,37.50179],[-119.69991,37.50131],[-119.69958,37.50077],[-119.69946,37.50062],[-119.69938,37.50046],[-119.69936,37.50029],[-119.69936,37.50024],[-119.69939,37.50019],[-119.69948,37.50007],[-119.69957,37.49999],[-119.69966,37.49993],[-119.6999,37.4999],[-119.69996,37.49985],[-119.70009,37.49967],[-119.70015,37.49957],[-119.70018,37.49949],[-119.70019,37.49938],[-119.70021,37.49931],[-119.70038,37.49891],[-119.70039,37.49882],[-119.70037,37.49875],[-119.70033,37.49868],[-119.70005,37.49831],[-119.69986,37.49811],[-119.69975,37.49804],[-119.69963,37.498],[-119.69946,37.49796],[-119.69938,37.49796],[-119.69909,37.49796],[-119.69876,37.49799],[-119.69864,37.49801],[-119.69853,37.49803],[-119.69844,37.49806],[-119.69805,37.49826],[-119.69793,37.49829],[-119.69779,37.49829],[-119.69773,37.49828],[-119.69763,37.49824],[-119.69753,37.49817],[-119.69741,37.498],[-119.69729,37.49761],[-119.69721,37.49744],[-119.69711,37.49729],[-119.6968,37.49689],[-119.69664,37.49665],[-119.6966,37.49656],[-119.69656,37.49644],[-119.69655,37.49635],[-119.69656,37.49627],[-119.6966,37.49615],[-119.69666,37.49605],[-119.69671,37.49598],[-119.69681,37.49589],[-119.69688,37.49585],[-119.69701,37.49579],[-119.69718,37.49575],[-119.69743,37.49576],[-119.69767,37.4957],[-119.69776,37.49566],[-119.69783,37.49558],[-119.69787,37.49551],[-119.69791,37.49542],[-119.69793,37.4953],[-119.69792,37.49515],[-119.69789,37.495],[-119.69768,37.49445],[-119.69767,37.49439],[-119.69768,37.49423],[-119.69772,37.4941],[-119.69778,37.49385],[-119.69777,37.49375],[-119.69774,37.49368],[-119.69771,37.49365],[-119.69768,37.49363],[-119.69763,37.49359],[-119.69757,37.49354],[-119.69754,37.49344],[-119.69741,37.49312],[-119.69739,37.49299],[-119.69749,37.49282],[-119.69754,37.4927],[-119.69755,37.49252],[-119.69753,37.49239],[-119.69754,37.49225],[-119.69756,37.49215],[-119.69765,37.49191],[-119.69772,37.49178],[-119.69779,37.49172],[-119.69788,37.49166],[-119.69801,37.49162],[-119.69811,37.49157],[-119.69819,37.4915],[-119.69826,37.49139],[-119.69834,37.49123],[-119.69837,37.49111],[-119.69837,37.49097],[-119.69833,37.49082],[-119.69823,37.49065],[-119.69813,37.49052],[-119.69802,37.4904],[-119.69781,37.49021],[-119.69773,37.49013],[-119.6977,37.49007],[-119.69767,37.48997],[-119.69768,37.48992],[-119.69773,37.48974],[-119.6977,37.48965],[-119.69763,37.48955],[-119.69761,37.48952],[-119.69761,37.48944],[-119.69765,37.48932],[-119.69779,37.48913],[-119.69786,37.48898],[-119.69789,37.48888],[-119.69788,37.48877],[-119.69789,37.4887],[-119.69795,37.4886],[-119.69796,37.4885],[-119.698,37.48841],[-119.69809,37.48834],[-119.69815,37.48826],[-119.69822,37.48815],[-119.69826,37.48796],[-119.69829,37.48789],[-119.69833,37.48786],[-119.6984,37.48783],[-119.69877,37.48775],[-119.69889,37.4877],[-119.69892,37.48767],[-119.69895,37.48761],[-119.69897,37.48749],[-119.69892,37.4873],[-119.69888,37.48704],[-119.69889,37.48686],[-119.69891,37.48675],[-119.69895,37.48666],[-119.69902,37.48657],[-119.69911,37.48649],[-119.6992,37.48644],[-119.69934,37.48641],[-119.69939,37.48638],[-119.69949,37.48632],[-119.69957,37.48623],[-119.69961,37.48606],[-119.6996,37.48597],[-119.69955,37.48586],[-119.69953,37.48577],[-119.69954,37.48564],[-119.69956,37.4856],[-119.69969,37.48541],[-119.69975,37.48528],[-119.69973,37.48472],[-119.69976,37.48426],[-119.69975,37.48418],[-119.69974,37.48411],[-119.6997,37.48401],[-119.6996,37.48388],[-119.69933,37.48366],[-119.69921,37.48354],[-119.69895,37.48325],[-119.6988,37.483],[-119.69857,37.4826],[-119.69852,37.48244],[-119.69846,37.48233],[-119.69844,37.48231],[-119.69833,37.48229],[-119.69829,37.48225],[-119.69828,37.48221],[-119.69827,37.48208],[-119.69825,37.48202],[-119.69818,37.48195],[-119.69809,37.48183],[-119.69806,37.48171],[-119.69808,37.48165],[-119.69813,37.48157],[-119.69815,37.48152],[-119.6982,37.48138],[-119.69822,37.48135],[-119.69825,37.48131],[-119.6983,37.48127],[-119.69885,37.48098],[-119.69891,37.48092],[-119.69903,37.48063],[-119.69906,37.48059],[-119.69918,37.48047],[-119.69935,37.48037],[-119.69967,37.48022],[-119.69987,37.48015],[-119.69999,37.48009],[-119.7001,37.48003],[-119.70023,37.4799],[-119.70031,37.47978],[-119.70034,37.47973],[-119.70035,37.47965],[-119.70036,37.47953],[-119.70034,37.4794],[-119.70031,37.47925],[-119.70029,37.47911],[-119.70029,37.47902],[-119.70032,37.47895],[-119.70037,37.47891],[-119.70043,37.47886],[-119.70054,37.47881],[-119.70071,37.47871],[-119.70087,37.47859],[-119.70123,37.47824],[-119.70127,37.47814],[-119.70129,37.47804],[-119.7013,37.47788],[-119.70129,37.47765],[-119.70125,37.47725],[-119.70121,37.47711],[-119.70117,37.47704],[-119.70098,37.47687],[-119.70094,37.47678],[-119.7009,37.47664],[-119.70092,37.47633],[-119.70089,37.47615],[-119.70081,37.47595],[-119.70074,37.47559],[-119.70071,37.47553],[-119.70064,37.47542],[-119.70045,37.47526],[-119.70031,37.4752],[-119.6996,37.47505],[-119.69943,37.47501],[-119.69936,37.47495],[-119.69934,37.47491],[-119.69931,37.47482],[-119.69931,37.47475],[-119.69937,37.47437],[-119.69957,37.47388],[-119.69971,37.4735],[-119.69985,37.47303],[-119.69988,37.47287],[-119.69989,37.47249],[-119.69993,37.47228],[-119.7,37.47208],[-119.70011,37.47192],[-119.70015,37.47183],[-119.70018,37.47174],[-119.70018,37.47164],[-119.70017,37.47154],[-119.70013,37.47139],[-119.70004,37.47113],[-119.69982,37.47061],[-119.69975,37.47035],[-119.6997,37.47008],[-119.69964,37.46992],[-119.6996,37.46982],[-119.69955,37.46975],[-119.69949,37.46968],[-119.6994,37.46962],[-119.69904,37.46944],[-119.69872,37.46934],[-119.6984,37.46926],[-119.69831,37.46922],[-119.69824,37.46915],[-119.69821,37.46909],[-119.6982,37.46903],[-119.69825,37.46882],[-119.69825,37.46862],[-119.69827,37.46848],[-119.6983,37.46838],[-119.69847,37.46804],[-119.69848,37.46793],[-119.69847,37.46789],[-119.69841,37.46777],[-119.69837,37.46772],[-119.6981,37.46748],[-119.69795,37.46738],[-119.69783,37.46731],[-119.69764,37.46725],[-119.69755,37.46724],[-119.69697,37.46723],[-119.69665,37.46719],[-119.69647,37.46714],[-119.69637,37.46707],[-119.69611,37.4668],[-119.69599,37.46665],[-119.69595,37.46655],[-119.69593,37.46649],[-119.69593,37.46628],[-119.6959,37.4662],[-119.69575,37.46608],[-119.69555,37.46594],[-119.69507,37.46566],[-119.69486,37.46555],[-119.69476,37.46552],[-119.6947,37.4655],[-119.69456,37.4655],[-119.69447,37.46548],[-119.69429,37.46538],[-119.69415,37.46532],[-119.69395,37.46527],[-119.69374,37.46524],[-119.69361,37.46523],[-119.69348,37.46523],[-119.69339,37.46522],[-119.69306,37.46495],[-119.69292,37.46486],[-119.69277,37.46482],[-119.69263,37.46475],[-119.69245,37.46461],[-119.69222,37.46447],[-119.69203,37.46444],[-119.69148,37.46443],[-119.69128,37.46438],[-119.69114,37.46434],[-119.69097,37.46426],[-119.69084,37.46423],[-119.6906,37.46419],[-119.68954,37.46419],[-119.68903,37.46415],[-119.68895,37.46413],[-119.68888,37.4641],[-119.68883,37.46406],[-119.68879,37.46401],[-119.68878,37.46395],[-119.68879,37.46384],[-119.68882,37.46379],[-119.68919,37.46337],[-119.68923,37.4633],[-119.68925,37.46324],[-119.68924,37.46319],[-119.68923,37.46312],[-119.68917,37.46299],[-119.68904,37.46274],[-119.68894,37.46261],[-119.68886,37.46256],[-119.68878,37.46252],[-119.68865,37.46247],[-119.68833,37.46238],[-119.68827,37.46235],[-119.68824,37.46232],[-119.68821,37.46226],[-119.6882,37.46215],[-119.68821,37.46209],[-119.6883,37.462],[-119.68843,37.46185],[-119.68847,37.46178],[-119.68861,37.46137],[-119.68868,37.46122],[-119.68876,37.46108],[-119.68886,37.46095],[-119.68897,37.46085],[-119.68907,37.46079],[-119.68925,37.46071],[-119.68931,37.46067],[-119.68937,37.46061],[-119.6894,37.46055],[-119.68951,37.46024],[-119.68968,37.45996],[-119.68977,37.45985],[-119.6898,37.45979],[-119.68984,37.45967],[-119.69,37.45849],[-119.68998,37.45834],[-119.68994,37.45828],[-119.68989,37.45822],[-119.68973,37.45814],[-119.68966,37.45812],[-119.68954,37.4581],[-119.68947,37.45811],[-119.68936,37.45813],[-119.6893,37.45818],[-119.68922,37.45823],[-119.6891,37.45828],[-119.68887,37.45833],[-119.68865,37.45834],[-119.68836,37.45831],[-119.68775,37.45823],[-119.68743,37.4582],[-119.68734,37.45821],[-119.68716,37.45824],[-119.68697,37.45831],[-119.68686,37.45837],[-119.68666,37.45851],[-119.68634,37.4588],[-119.6862,37.45891],[-119.68591,37.45906],[-119.68557,37.45922],[-119.68538,37.45929],[-119.68515,37.45939],[-119.68501,37.45951],[-119.6849,37.45969],[-119.68475,37.4599],[-119.68461,37.46001],[-119.68337,37.46061],[-119.68324,37.4607],[-119.68315,37.46079],[-119.68288,37.461],[-119.6828,37.46104],[-119.68268,37.46111],[-119.68253,37.46113],[-119.68241,37.46111],[-119.6823,37.46107],[-119.6822,37.46102],[-119.68174,37.46071],[-119.68151,37.46059],[-119.6812,37.4604],[-119.68104,37.46029],[-119.68091,37.46018],[-119.68082,37.46008],[-119.68077,37.45997],[-119.68076,37.45977],[-119.68081,37.45958],[-119.68084,37.45941],[-119.68085,37.4593],[-119.68084,37.45917],[-119.6808,37.45899],[-119.68074,37.4588],[-119.68071,37.45869],[-119.68072,37.4586],[-119.68081,37.45829],[-119.68082,37.45822],[-119.68081,37.45816],[-119.68079,37.45812],[-119.68071,37.45802],[-119.68059,37.45794],[-119.68042,37.45788],[-119.68032,37.45787],[-119.6802,37.45786],[-119.67993,37.45792],[-119.67981,37.45793],[-119.67973,37.45792],[-119.67969,37.45791],[-119.67965,37.45788],[-119.67959,37.45783],[-119.67944,37.4577],[-119.67926,37.45762],[-119.67916,37.45756],[-119.67909,37.45751],[-119.67904,37.45745],[-119.67877,37.45706],[-119.67867,37.45697],[-119.67853,37.45689],[-119.67823,37.4568],[-119.67809,37.45679],[-119.67791,37.45682],[-119.67778,37.45689],[-119.67772,37.45696],[-119.67765,37.45705],[-119.67746,37.45749],[-119.67741,37.45766],[-119.67738,37.45769],[-119.6773,37.45775],[-119.67709,37.45795],[-119.67664,37.45837],[-119.67659,37.45841],[-119.67654,37.45848],[-119.67653,37.45851],[-119.67653,37.45867],[-119.67656,37.45897],[-119.67655,37.45913],[-119.67651,37.45925],[-119.67645,37.45935],[-119.67637,37.45946],[-119.67604,37.45982],[-119.67561,37.46011],[-119.67533,37.46026],[-119.67495,37.4604],[-119.6748,37.46047],[-119.67473,37.46052],[-119.67468,37.46057],[-119.6746,37.46069],[-119.67454,37.46086],[-119.67451,37.46108],[-119.67452,37.4612],[-119.67451,37.46128],[-119.67449,37.46136],[-119.67445,37.46142],[-119.67419,37.46174],[-119.6741,37.4619],[-119.67404,37.46203],[-119.67402,37.46213],[-119.67401,37.46223],[-119.67402,37.46243],[-119.67407,37.46266],[-119.67413,37.46279],[-119.67419,37.46292],[-119.67427,37.46304],[-119.67428,37.46308],[-119.67428,37.46322],[-119.67423,37.46338],[-119.67419,37.46344],[-119.67415,37.46348],[-119.67405,37.46354],[-119.67393,37.46358],[-119.67378,37.4636],[-119.6736,37.46358],[-119.67351,37.46356],[-119.67343,37.46353],[-119.67339,37.46349],[-119.67335,37.46343],[-119.67334,37.46336],[-119.67333,37.46328],[-119.67336,37.46311],[-119.67336,37.46302],[-119.67332,37.46292],[-119.67325,37.46279],[-119.67301,37.46246],[-119.67284,37.46227],[-119.67264,37.46209],[-119.67248,37.46196],[-119.67233,37.46188],[-119.67216,37.46184],[-119.67204,37.4618],[-119.67199,37.46177],[-119.67193,37.46171],[-119.67181,37.46157],[-119.67174,37.46151],[-119.67163,37.46144],[-119.67156,37.46142],[-119.67138,37.46137],[-119.67103,37.46133],[-119.67092,37.4613],[-119.67087,37.46126],[-119.6708,37.46117],[-119.67078,37.46113],[-119.67075,37.46099],[-119.67076,37.46079],[-119.67073,37.46071],[-119.67059,37.46053],[-119.67024,37.46024],[-119.67003,37.46011],[-119.66983,37.46002],[-119.66968,37.45999],[-119.66959,37.45999],[-119.66916,37.46002],[-119.66905,37.46002],[-119.669,37.46],[-119.66881,37.45994],[-119.66873,37.45992],[-119.66867,37.45993],[-119.66847,37.45996],[-119.66821,37.46003],[-119.66809,37.46008],[-119.66798,37.46014],[-119.66792,37.46016],[-119.66785,37.46017],[-119.6676,37.46019],[-119.66722,37.46029],[-119.66705,37.46032],[-119.66699,37.46031],[-119.66695,37.46029],[-119.66691,37.46026],[-119.6669,37.46023],[-119.66689,37.46014],[-119.66693,37.46005],[-119.66703,37.45991],[-119.66712,37.45981],[-119.66729,37.45969],[-119.66733,37.45963],[-119.6674,37.45946],[-119.66743,37.45941],[-119.66748,37.45935],[-119.66758,37.45928],[-119.6678,37.45917],[-119.66793,37.45906],[-119.668,37.45897],[-119.66809,37.45885],[-119.66813,37.45881],[-119.66828,37.4587],[-119.66853,37.45854],[-119.66885,37.45837],[-119.66918,37.4583],[-119.6693,37.45826],[-119.66942,37.45818],[-119.66951,37.4581],[-119.66953,37.45805],[-119.66954,37.4579],[-119.66951,37.45776],[-119.66946,37.45765],[-119.6693,37.45744],[-119.6692,37.45735],[-119.6691,37.45727],[-119.6689,37.45718],[-119.66869,37.4571],[-119.66864,37.45705],[-119.66862,37.457],[-119.66864,37.45694],[-119.66868,37.45688],[-119.66872,37.45685],[-119.6688,37.45682],[-119.66889,37.45679],[-119.66901,37.45677],[-119.66932,37.45669],[-119.66954,37.45659],[-119.66966,37.45652],[-119.66975,37.45643],[-119.6699,37.45623],[-119.66994,37.45614],[-119.67005,37.45587],[-119.67008,37.4557],[-119.67009,37.45556],[-119.67007,37.45548],[-119.67002,37.45539],[-119.66995,37.45535],[-119.66976,37.45524],[-119.66969,37.45522],[-119.66959,37.45521],[-119.66948,37.4552],[-119.66939,37.45519],[-119.66898,37.45498],[-119.66874,37.45484],[-119.66856,37.45468],[-119.6685,37.45464],[-119.66839,37.45461],[-119.66832,37.45461],[-119.66828,37.45462],[-119.66816,37.45469],[-119.66803,37.45471],[-119.6679,37.4547],[-119.66776,37.45467],[-119.66768,37.45463],[-119.6672,37.45434],[-119.66717,37.4543],[-119.66713,37.45422],[-119.66713,37.45415],[-119.66715,37.45408],[-119.66722,37.45402],[-119.66736,37.45395],[-119.66819,37.4537],[-119.66835,37.45363],[-119.66863,37.45346],[-119.66898,37.45321],[-119.66909,37.45315],[-119.66915,37.45309],[-119.66918,37.45296],[-119.66917,37.45287],[-119.66906,37.45267],[-119.6688,37.45241],[-119.66877,37.45231],[-119.66877,37.45225],[-119.66881,37.45217],[-119.66892,37.45204],[-119.66913,37.45187],[-119.66945,37.45163],[-119.66953,37.45155],[-119.66958,37.45147],[-119.66958,37.45142],[-119.66958,37.45121],[-119.6696,37.45109],[-119.66964,37.451],[-119.66975,37.45076],[-119.66993,37.45054],[-119.67014,37.4503],[-119.6703,37.4501],[-119.67041,37.44994],[-119.67051,37.44972],[-119.67054,37.44959],[-119.67053,37.44947],[-119.67046,37.44931],[-119.6704,37.44924],[-119.6703,37.44916],[-119.67019,37.44911],[-119.66995,37.44908],[-119.66971,37.44908],[-119.66952,37.44911],[-119.66924,37.44923],[-119.66905,37.44928],[-119.66893,37.44929],[-119.66874,37.44926],[-119.66854,37.4492],[-119.66839,37.44914],[-119.66825,37.44907],[-119.6681,37.44897],[-119.66797,37.44887],[-119.66791,37.44877],[-119.6679,37.44869],[-119.66794,37.44855],[-119.66811,37.44826],[-119.66812,37.44817],[-119.6681,37.4481],[-119.66803,37.44794],[-119.66792,37.44774],[-119.66788,37.44767],[-119.66787,37.44761],[-119.66782,37.44726],[-119.6678,37.4471],[-119.66774,37.44686],[-119.66767,37.4467],[-119.66763,37.44664],[-119.66756,37.44658],[-119.66739,37.44651],[-119.6671,37.44643],[-119.66696,37.44637],[-119.66686,37.44631],[-119.66679,37.44623],[-119.66671,37.44608],[-119.66664,37.4458],[-119.6666,37.44573],[-119.66656,37.4457],[-119.66644,37.44563],[-119.66638,37.44561],[-119.66618,37.4456],[-119.66594,37.44559],[-119.66561,37.44557],[-119.66552,37.44555],[-119.66542,37.4455],[-119.66538,37.44546],[-119.66531,37.44533],[-119.66526,37.44487],[-119.66519,37.4446],[-119.66514,37.44446],[-119.66504,37.44433],[-119.66498,37.4443],[-119.66492,37.44428],[-119.66486,37.44428],[-119.66477,37.44429],[-119.66471,37.44433],[-119.66464,37.44445],[-119.66457,37.44456],[-119.66453,37.44458],[-119.66415,37.44464],[-119.66406,37.44465],[-119.66392,37.44462],[-119.66385,37.44458],[-119.66348,37.4443],[-119.66331,37.4442],[-119.66316,37.44408],[-119.66307,37.44396],[-119.66303,37.44387],[-119.66294,37.4436],[-119.66291,37.44342],[-119.66285,37.44333],[-119.66275,37.44326],[-119.66236,37.4431],[-119.66222,37.44303],[-119.66209,37.44294],[-119.66204,37.44288],[-119.66186,37.44272],[-119.66182,37.44265],[-119.66176,37.44243],[-119.66175,37.44233],[-119.66176,37.44223],[-119.66188,37.442],[-119.66193,37.44186],[-119.66195,37.44175],[-119.66193,37.4416],[-119.6619,37.44154],[-119.66181,37.44144],[-119.66171,37.44136],[-119.66147,37.44128],[-119.66139,37.44124],[-119.66123,37.44113],[-119.66109,37.44093],[-119.661,37.44082],[-119.66072,37.44053],[-119.66065,37.44049],[-119.66055,37.44046],[-119.66036,37.44041],[-119.66016,37.44034],[-119.65996,37.44024],[-119.65975,37.44008],[-119.65944,37.43988],[-119.65928,37.43973],[-119.65913,37.43957],[-119.65906,37.43947],[-119.65902,37.43939],[-119.65899,37.43929],[-119.65898,37.43899],[-119.659,37.43887],[-119.65908,37.43871],[-119.6592,37.43855],[-119.6593,37.43842],[-119.65941,37.43837],[-119.65966,37.43831],[-119.65981,37.43821],[-119.65986,37.43808],[-119.65987,37.43793],[-119.65983,37.43784],[-119.65968,37.43744],[-119.65958,37.43723],[-119.65948,37.43714],[-119.65938,37.43706],[-119.65901,37.43684],[-119.65879,37.43672],[-119.65868,37.43668],[-119.65838,37.43665],[-119.65819,37.43672],[-119.65801,37.43684],[-119.65788,37.43689],[-119.6577,37.43695],[-119.65751,37.43706],[-119.65737,37.43716],[-119.65724,37.43728],[-119.65716,37.4374],[-119.65704,37.43751],[-119.65697,37.43766],[-119.65689,37.43776],[-119.65684,37.43796],[-119.65682,37.4381],[-119.65681,37.43824],[-119.65668,37.43843],[-119.65632,37.43885],[-119.65596,37.43917],[-119.65575,37.43926],[-119.65566,37.43937],[-119.65566,37.43946],[-119.65562,37.43958],[-119.65561,37.43987],[-119.65569,37.44056],[-119.65566,37.44089],[-119.65556,37.44114],[-119.65552,37.44129],[-119.65537,37.44137]]}},{"type":"Feature","properties":{"name":"6S20","road_class":"track","surface":"unpaved","source":"Caltrans All Roads + OpenStreetMap explicit surface","source_detail":"osm way 399871447; Caltrans All Roads public-network geometry match","source_tile":"171/397","public_network_source":"Caltrans All Roads (ARNOLD/HPMS)","surface_source":"OpenStreetMap explicit surface tag","caltrans_match_coverage":0.852,"verified_length_m":2602},"geometry":{"type":"LineString","coordinates":[[-119.55258,37.45091],[-119.55226,37.45079],[-119.55205,37.45074],[-119.5519,37.45074],[-119.55163,37.45081],[-119.55138,37.45093],[-119.55084,37.45104],[-119.55069,37.4511],[-119.55055,37.45112],[-119.5504,37.45112],[-119.55029,37.45108],[-119.55011,37.45105],[-119.54962,37.45105],[-119.54938,37.45103],[-119.54921,37.45098],[-119.54913,37.45094],[-119.54907,37.45089],[-119.54901,37.45075],[-119.549,37.4506],[-119.54908,37.45042],[-119.5492,37.45026],[-119.54936,37.45012],[-119.54968,37.44999],[-119.54982,37.44983],[-119.55007,37.44966],[-119.55046,37.44944],[-119.55074,37.44932],[-119.55081,37.44927],[-119.55093,37.4491],[-119.55119,37.44884],[-119.55135,37.44855],[-119.55137,37.44844],[-119.55135,37.44837],[-119.55132,37.44834],[-119.55122,37.44834],[-119.55117,37.44836],[-119.55096,37.44859],[-119.55089,37.44865],[-119.55078,37.44871],[-119.55047,37.44879],[-119.55029,37.44882],[-119.55005,37.44883],[-119.54996,37.44882],[-119.54963,37.44871],[-119.54929,37.44848],[-119.54907,37.44842],[-119.54888,37.4484],[-119.54852,37.44822],[-119.54825,37.4482],[-119.54793,37.44825],[-119.54748,37.44825],[-119.54735,37.44821],[-119.54733,37.44814],[-119.54734,37.4481],[-119.54747,37.44798],[-119.5476,37.44792],[-119.54771,37.44783],[-119.54784,37.44776],[-119.54826,37.44766],[-119.54842,37.44757],[-119.54852,37.44749],[-119.54858,37.44742],[-119.54857,37.44735],[-119.54852,37.4473],[-119.54824,37.44729],[-119.54812,37.44724],[-119.54805,37.44715],[-119.54802,37.44701],[-119.54812,37.44681],[-119.54817,37.44663],[-119.54818,37.44655],[-119.54807,37.44629],[-119.54807,37.44607],[-119.54809,37.44599],[-119.54819,37.44582],[-119.54858,37.44529],[-119.54865,37.44492],[-119.54863,37.44482],[-119.54854,37.44465],[-119.54828,37.44445],[-119.54807,37.44424],[-119.54788,37.44415],[-119.54712,37.44391],[-119.54675,37.44378],[-119.54649,37.44363],[-119.54636,37.44352],[-119.54601,37.4433],[-119.5458,37.44321],[-119.54566,37.44311],[-119.54557,37.44303],[-119.54552,37.44293],[-119.54549,37.44282],[-119.54548,37.44254],[-119.54543,37.44244],[-119.54535,37.44232],[-119.54506,37.44205],[-119.545,37.44195],[-119.54499,37.44187],[-119.54499,37.44168],[-119.54509,37.44149],[-119.54517,37.44141],[-119.54541,37.44123],[-119.54551,37.44109],[-119.54553,37.44105],[-119.54553,37.44095],[-119.54546,37.4408],[-119.54535,37.4407],[-119.54508,37.44057],[-119.54391,37.44017],[-119.54378,37.44007],[-119.54371,37.43998],[-119.54361,37.43956],[-119.54344,37.43925],[-119.54333,37.43913],[-119.54309,37.43897],[-119.54293,37.43888],[-119.54268,37.43864],[-119.54254,37.43855],[-119.54249,37.43854],[-119.54231,37.43859]]}},{"type":"Feature","properties":{"name":"6S40X","road_class":"track","surface":"unpaved","source":"Caltrans All Roads + OpenStreetMap explicit surface","source_detail":"osm way 239791358; Caltrans All Roads public-network geometry match","source_tile":"172/397","public_network_source":"Caltrans All Roads (ARNOLD/HPMS)","surface_source":"OpenStreetMap explicit surface tag","caltrans_match_coverage":0.891,"verified_length_m":5824},"geometry":{"type":"LineString","coordinates":[[-119.52302,37.38902],[-119.52304,37.38932],[-119.52292,37.38962],[-119.52276,37.39003],[-119.5228,37.3904],[-119.52344,37.39158],[-119.52347,37.39206],[-119.52361,37.39233],[-119.52415,37.39241],[-119.52517,37.39199],[-119.52597,37.39172],[-119.52654,37.39188],[-119.52767,37.39254],[-119.52783,37.39299],[-119.52837,37.39348],[-119.52926,37.39382],[-119.52958,37.39412],[-119.52955,37.39462],[-119.52935,37.39531],[-119.52951,37.3954],[-119.5298,37.39556],[-119.53054,37.39572],[-119.53089,37.39604],[-119.53097,37.39629],[-119.53071,37.39672],[-119.53068,37.39695],[-119.5308,37.39704],[-119.5318,37.39723],[-119.53209,37.39748],[-119.53226,37.3981],[-119.53229,37.39874],[-119.53252,37.39906],[-119.53289,37.39892],[-119.53304,37.39856],[-119.53338,37.39808],[-119.53367,37.39787],[-119.53424,37.39796],[-119.53464,37.39824],[-119.53496,37.39874],[-119.5351,37.39876],[-119.53542,37.3986],[-119.53573,37.39826],[-119.53582,37.39796],[-119.53565,37.39723],[-119.53568,37.3967],[-119.53602,37.39597],[-119.53609,37.3954],[-119.5362,37.39485],[-119.5364,37.39453],[-119.53669,37.39432],[-119.53738,37.39444],[-119.53786,37.39474],[-119.53818,37.39467],[-119.53835,37.39453],[-119.53847,37.39382],[-119.53863,37.39306],[-119.53935,37.3923],[-119.53946,37.39176],[-119.53915,37.39095],[-119.53943,37.39006],[-119.53966,37.38947],[-119.54015,37.38924],[-119.5409,37.38912],[-119.54296,37.38949],[-119.54329,37.38954],[-119.54365,37.38948],[-119.54466,37.38886],[-119.54497,37.38912],[-119.5454,37.38963],[-119.54568,37.3906],[-119.546,37.39059],[-119.54795,37.39059],[-119.54882,37.39076],[-119.54888,37.39112],[-119.54877,37.39121],[-119.54853,37.39144],[-119.54845,37.39158],[-119.54845,37.39167],[-119.54859,37.39211],[-119.54865,37.3925],[-119.54977,37.39394],[-119.55007,37.39484],[-119.55003,37.3954],[-119.55031,37.39561],[-119.55066,37.39561],[-119.55149,37.3954],[-119.55173,37.39524],[-119.55204,37.39513],[-119.55219,37.3951],[-119.55233,37.39511],[-119.55251,37.39518],[-119.55277,37.39524],[-119.55318,37.39537],[-119.55336,37.3954],[-119.55344,37.39539],[-119.5535,37.39536],[-119.55357,37.39528],[-119.55372,37.39498],[-119.55379,37.39488],[-119.55401,37.39472],[-119.55424,37.39458],[-119.55441,37.39452],[-119.5546,37.39449],[-119.55503,37.39449],[-119.55526,37.3945],[-119.55586,37.39459],[-119.55621,37.39471],[-119.5566,37.3949],[-119.55721,37.39527],[-119.55731,37.39535],[-119.55741,37.39546],[-119.55772,37.39615],[-119.55789,37.39632]]}},{"type":"Feature","properties":{"name":"Grey's Mountain Road","road_class":"track","surface":"unpaved","source":"Caltrans All Roads + OpenStreetMap explicit surface","source_detail":"osm way 399831526; Caltrans All Roads public-network geometry match","source_tile":"172/397","public_network_source":"Caltrans All Roads (ARNOLD/HPMS)","surface_source":"OpenStreetMap explicit surface tag","caltrans_match_coverage":1.0,"verified_length_m":6323},"geometry":{"type":"LineString","coordinates":[[-119.51793,37.40921],[-119.51835,37.40935],[-119.51891,37.40942],[-119.51943,37.40949],[-119.52111,37.40973],[-119.52223,37.41023],[-119.52357,37.4111],[-119.52486,37.4119],[-119.52517,37.41229],[-119.52532,37.41252],[-119.52557,37.41324],[-119.52573,37.41343],[-119.52593,37.41355],[-119.52664,37.41394],[-119.52717,37.41408],[-119.52754,37.4141],[-119.52797,37.41399],[-119.52876,37.41392],[-119.52886,37.41393],[-119.52904,37.41402],[-119.52956,37.41431],[-119.5298,37.41431],[-119.53029,37.41438],[-119.53055,37.41443],[-119.53161,37.41463],[-119.5318,37.41467],[-119.53203,37.41469],[-119.53223,37.41462],[-119.53287,37.41416],[-119.53344,37.41386],[-119.53359,37.41366],[-119.5337,37.4135],[-119.53374,37.41327],[-119.53372,37.4131],[-119.53356,37.41275],[-119.53344,37.41264],[-119.53239,37.41187],[-119.53217,37.41161],[-119.53217,37.41147],[-119.53227,37.4114],[-119.53243,37.41134],[-119.53504,37.41089],[-119.53529,37.41078],[-119.5355,37.4106],[-119.53556,37.41041],[-119.53552,37.41028],[-119.53543,37.41001],[-119.53547,37.40985],[-119.53576,37.40963],[-119.53634,37.4088],[-119.53648,37.40878],[-119.53662,37.40883],[-119.53709,37.4091],[-119.53718,37.40923],[-119.5375,37.41037],[-119.53738,37.41149],[-119.53743,37.41183],[-119.53762,37.41217],[-119.53771,37.41224],[-119.5379,37.41226],[-119.53806,37.4122],[-119.53825,37.41205],[-119.53853,37.4117],[-119.53924,37.41071],[-119.53942,37.41022],[-119.53951,37.40994],[-119.53968,37.40982],[-119.53987,37.4098],[-119.5404,37.40971],[-119.54102,37.40951],[-119.5431,37.40883],[-119.544,37.40844],[-119.54563,37.40776],[-119.54596,37.40766],[-119.5462,37.40762],[-119.54666,37.40767],[-119.548,37.40788],[-119.54817,37.40785],[-119.54868,37.40764],[-119.54944,37.40726],[-119.54961,37.40703],[-119.54962,37.40674],[-119.54972,37.4066],[-119.54995,37.40653],[-119.55091,37.4067],[-119.55178,37.40679],[-119.55352,37.40683],[-119.55373,37.40684],[-119.55406,37.40677],[-119.5543,37.40658],[-119.55457,37.40633],[-119.55481,37.40611],[-119.55523,37.40591],[-119.55538,37.40576],[-119.55568,37.40518],[-119.55597,37.40501],[-119.55626,37.40494],[-119.55665,37.40486],[-119.55768,37.40465],[-119.55889,37.40442],[-119.55913,37.40427],[-119.56052,37.40341],[-119.56091,37.40318],[-119.56108,37.403],[-119.56139,37.40251],[-119.5618,37.40238],[-119.56241,37.4022],[-119.56272,37.40197],[-119.56343,37.40141],[-119.56423,37.40115],[-119.5651,37.40078],[-119.56554,37.40049],[-119.56572,37.40027],[-119.5657,37.40016],[-119.56535,37.39947],[-119.5652,37.39916],[-119.56505,37.39874],[-119.56471,37.39837],[-119.56459,37.39802],[-119.56459,37.39772],[-119.56471,37.39747]]}},{"type":"Feature","properties":{"name":"Beaver Creek Road","road_class":"track","surface":"unpaved","source":"Caltrans All Roads + OpenStreetMap explicit surface","source_detail":"osm way 10410655; Caltrans All Roads public-network geometry match","source_tile":"171/398","public_network_source":"Caltrans All Roads (ARNOLD/HPMS)","surface_source":"OpenStreetMap explicit surface tag","caltrans_match_coverage":1.0,"verified_length_m":2688},"geometry":{"type":"LineString","coordinates":[[-119.74498,37.15877],[-119.74484,37.15907],[-119.74482,37.15931],[-119.74486,37.15955],[-119.74488,37.15964],[-119.74484,37.15976],[-119.74446,37.16011],[-119.74454,37.16034],[-119.74502,37.16057],[-119.74505,37.16092],[-119.74498,37.1613],[-119.74503,37.16171],[-119.74443,37.16198],[-119.74426,37.16214],[-119.74354,37.1619],[-119.74361,37.16159],[-119.74347,37.16138],[-119.74319,37.16135],[-119.74297,37.1616],[-119.74212,37.16181],[-119.74179,37.16183],[-119.74157,37.1622],[-119.74126,37.16238],[-119.74125,37.1626],[-119.74135,37.1628],[-119.74129,37.16314],[-119.7419,37.16349],[-119.74233,37.16367],[-119.74247,37.16416],[-119.74276,37.16444],[-119.7427,37.165],[-119.74228,37.1661],[-119.74221,37.16654],[-119.74233,37.16677],[-119.7426,37.1671],[-119.74275,37.16743],[-119.74291,37.16749],[-119.74322,37.16757],[-119.74338,37.16775],[-119.74351,37.16796],[-119.74358,37.16826],[-119.7438,37.16843],[-119.74406,37.16872],[-119.74438,37.16899],[-119.74447,37.1693],[-119.74476,37.16952],[-119.74453,37.17018],[-119.74431,37.17052],[-119.74405,37.17064],[-119.74383,37.17071],[-119.74371,37.17086],[-119.74384,37.17126],[-119.74382,37.17163],[-119.74386,37.17184],[-119.74398,37.17205],[-119.74433,37.17258],[-119.74464,37.17306],[-119.74487,37.17355],[-119.74484,37.1738],[-119.74466,37.17404],[-119.74408,37.17434],[-119.74375,37.1744],[-119.74352,37.17439],[-119.74303,37.17442],[-119.74269,37.17421],[-119.74227,37.17409],[-119.7421,37.1742],[-119.74203,37.17456],[-119.7419,37.17482],[-119.7419,37.17506]]}},{"type":"Feature","properties":{"name":"6S47Y","road_class":"unclassified","surface":"unpaved","source":"Caltrans All Roads + OpenStreetMap explicit surface","source_detail":"osm way 10410728; Caltrans All Roads public-network geometry match","source_tile":"171/397","public_network_source":"Caltrans All Roads (ARNOLD/HPMS)","surface_source":"OpenStreetMap explicit surface tag","caltrans_match_coverage":1.0,"verified_length_m":2022},"geometry":{"type":"LineString","coordinates":[[-119.58491,37.41196],[-119.58504,37.4122],[-119.58494,37.41241],[-119.58442,37.4129],[-119.58426,37.41315],[-119.5842,37.41333],[-119.5842,37.41346],[-119.58425,37.41362],[-119.58433,37.41377],[-119.5845,37.41401],[-119.58454,37.41412],[-119.58454,37.41421],[-119.58423,37.41483],[-119.58384,37.41526],[-119.58379,37.41545],[-119.58377,37.41592],[-119.58389,37.4161],[-119.58424,37.41636],[-119.58437,37.41639],[-119.58454,37.41641],[-119.58469,37.41634],[-119.58482,37.41618],[-119.58595,37.41516],[-119.58611,37.41511],[-119.58621,37.41511],[-119.58636,37.41516],[-119.58671,37.4154],[-119.58685,37.41544],[-119.58794,37.41546],[-119.58852,37.41564],[-119.58926,37.41584],[-119.58943,37.41597],[-119.58965,37.41613],[-119.59023,37.41627],[-119.59047,37.41635],[-119.59057,37.41645],[-119.59067,37.41667],[-119.59075,37.4173],[-119.59073,37.41761],[-119.5908,37.41772],[-119.59097,37.4178],[-119.59135,37.41796],[-119.59144,37.41808],[-119.59145,37.41826],[-119.59142,37.41839],[-119.59113,37.41889],[-119.59112,37.41914],[-119.59106,37.41962],[-119.59094,37.41982],[-119.59079,37.41994],[-119.59057,37.42003],[-119.59028,37.42012],[-119.5902,37.42022],[-119.59018,37.42038],[-119.59012,37.42058],[-119.5899,37.42093],[-119.58976,37.42105],[-119.58961,37.42119],[-119.5891,37.42153],[-119.58887,37.42161],[-119.58861,37.42164],[-119.58799,37.42168],[-119.58773,37.42182]]}},{"type":"Feature","properties":{"name":"Usona Road","road_class":"unclassified","surface":"unpaved","tracktype":"grade2","source":"Caltrans All Roads + OpenStreetMap explicit surface","source_detail":"osm way 10424423; Caltrans All Roads public-network geometry match","source_tile":"171/397","public_network_source":"Caltrans All Roads (ARNOLD/HPMS)","surface_source":"OpenStreetMap explicit surface tag","caltrans_match_coverage":1.0,"verified_length_m":2660},"geometry":{"type":"LineString","coordinates":[[-119.83119,37.36213],[-119.83123,37.36225],[-119.83126,37.36234],[-119.83139,37.36254],[-119.83145,37.36259],[-119.83155,37.36262],[-119.832,37.36261],[-119.83215,37.36262],[-119.83235,37.36266],[-119.83258,37.36272],[-119.83272,37.36279],[-119.83282,37.36286],[-119.83287,37.36293],[-119.83301,37.36322],[-119.83303,37.36335],[-119.83301,37.36343],[-119.83295,37.3635],[-119.83266,37.36372],[-119.8324,37.36402],[-119.83235,37.36411],[-119.83235,37.36417],[-119.83237,37.36425],[-119.8324,37.3643],[-119.83245,37.36436],[-119.83252,37.36442],[-119.83268,37.36454],[-119.83272,37.3646],[-119.83274,37.36467],[-119.83274,37.36476],[-119.83271,37.36484],[-119.83256,37.36518],[-119.8325,37.36534],[-119.8325,37.36552],[-119.83253,37.36561],[-119.83255,37.36563],[-119.83262,37.36567],[-119.83277,37.36569],[-119.83307,37.36569],[-119.83328,37.3657],[-119.83336,37.36572],[-119.83341,37.36577],[-119.83344,37.36583],[-119.83344,37.36615],[-119.83347,37.36632],[-119.83355,37.36639],[-119.83364,37.36643],[-119.8337,37.36644],[-119.83382,37.36642],[-119.83393,37.36639],[-119.8342,37.36636],[-119.83438,37.36636],[-119.83454,37.36637],[-119.83466,37.36641],[-119.83478,37.36646],[-119.835,37.36658],[-119.83519,37.36673],[-119.83537,37.36684],[-119.83576,37.36703],[-119.83617,37.3672],[-119.83665,37.36745],[-119.8369,37.36757],[-119.83717,37.36767],[-119.83754,37.36778],[-119.83764,37.36781],[-119.83775,37.36789],[-119.83779,37.36794],[-119.83784,37.36807],[-119.83788,37.36824],[-119.83793,37.36834],[-119.83805,37.36854],[-119.8381,37.36869],[-119.8381,37.36876],[-119.83809,37.3688],[-119.83806,37.3689],[-119.83805,37.36897],[-119.83819,37.36953],[-119.83822,37.36969],[-119.83822,37.36983],[-119.8382,37.36989],[-119.83813,37.36998],[-119.83811,37.37005],[-119.83811,37.37017],[-119.83814,37.37027],[-119.83819,37.37037],[-119.83831,37.37052],[-119.83839,37.37061],[-119.83854,37.3708],[-119.83872,37.37118],[-119.83875,37.3713],[-119.83869,37.37177],[-119.83862,37.37209],[-119.83856,37.37225],[-119.83845,37.37237],[-119.83837,37.37244],[-119.83827,37.37248],[-119.83759,37.37273],[-119.83743,37.37276],[-119.83712,37.37279],[-119.83701,37.37283],[-119.83691,37.37288],[-119.83688,37.37292],[-119.8368,37.37317],[-119.83676,37.37321],[-119.83667,37.37327],[-119.83649,37.37342],[-119.8362,37.37387],[-119.8361,37.37399],[-119.83608,37.37407],[-119.8361,37.37417],[-119.83624,37.37451],[-119.83629,37.37469],[-119.8363,37.37484],[-119.83629,37.37494],[-119.83624,37.37506],[-119.83621,37.37512],[-119.83607,37.37528],[-119.83601,37.37535],[-119.83601,37.37542],[-119.83603,37.37549],[-119.83625,37.37577],[-119.83628,37.37586],[-119.8363,37.37595],[-119.83631,37.3768],[-119.83633,37.37688],[-119.83637,37.37698],[-119.83646,37.37711],[-119.83647,37.37714],[-119.83648,37.37725],[-119.83652,37.37761],[-119.83653,37.37787],[-119.83652,37.37797],[-119.83648,37.37805],[-119.83641,37.37811],[-119.83633,37.37814],[-119.83616,37.37819],[-119.836,37.37821],[-119.83593,37.37823],[-119.83584,37.37829],[-119.83578,37.37835],[-119.83571,37.37849],[-119.83568,37.37866],[-119.83571,37.37884],[-119.83567,37.37906],[-119.83562,37.37921],[-119.83547,37.37944],[-119.83523,37.37975],[-119.83506,37.37996]]}},{"type":"Feature","properties":{"name":"Soquel Meadow Road","road_class":"track","surface":"unpaved","source":"Caltrans All Roads + OpenStreetMap explicit surface","source_detail":"osm way 399827711; Caltrans All Roads public-network geometry match","source_tile":"171/397","public_network_source":"Caltrans All Roads (ARNOLD/HPMS)","surface_source":"OpenStreetMap explicit surface tag","caltrans_match_coverage":1.0,"verified_length_m":2391},"geometry":{"type":"LineString","coordinates":[[-119.56574,37.39747],[-119.56592,37.39751],[-119.56614,37.39764],[-119.56642,37.39784],[-119.56659,37.39797],[-119.56723,37.39833],[-119.56763,37.39888],[-119.56763,37.39948],[-119.56783,37.40121],[-119.56768,37.40152],[-119.56691,37.40191],[-119.56609,37.40215],[-119.56479,37.40253],[-119.56431,37.40287],[-119.56406,37.40327],[-119.56379,37.40366],[-119.56247,37.40426],[-119.56241,37.40447],[-119.56249,37.40494],[-119.5626,37.40528],[-119.56285,37.40579],[-119.56324,37.40628],[-119.56364,37.4066],[-119.56393,37.40722],[-119.56421,37.40789],[-119.56442,37.40812],[-119.56452,37.40824],[-119.56489,37.40867],[-119.56502,37.40881],[-119.56487,37.40958],[-119.56482,37.40974],[-119.56506,37.40992],[-119.56526,37.41004],[-119.5656,37.41011],[-119.56607,37.41009],[-119.56623,37.41018],[-119.56614,37.4104],[-119.56606,37.41057],[-119.56556,37.41284],[-119.56547,37.41347],[-119.5658,37.4137],[-119.56613,37.41382],[-119.56657,37.41387]]}},{"type":"Feature","properties":{"name":"6S90","road_class":"unclassified","surface":"unpaved","source":"Caltrans All Roads + OpenStreetMap explicit surface","source_detail":"osm way 399828214; Caltrans All Roads public-network geometry match","source_tile":"171/397","public_network_source":"Caltrans All Roads (ARNOLD/HPMS)","surface_source":"OpenStreetMap explicit surface tag","caltrans_match_coverage":1.0,"verified_length_m":1199},"geometry":{"type":"LineString","coordinates":[[-119.58773,37.42182],[-119.58753,37.4218],[-119.58737,37.42183],[-119.58721,37.42194],[-119.58679,37.42228],[-119.5864,37.42265],[-119.58631,37.42279],[-119.58624,37.42297],[-119.58623,37.4232],[-119.58626,37.42336],[-119.58632,37.4235],[-119.58642,37.42363],[-119.58655,37.42377],[-119.58696,37.42408],[-119.58705,37.42417],[-119.58709,37.42426],[-119.58708,37.42444],[-119.58702,37.4246],[-119.5869,37.42479],[-119.58687,37.42492],[-119.58687,37.42503],[-119.58691,37.42519],[-119.58699,37.42538],[-119.58714,37.42591],[-119.58721,37.42615],[-119.58734,37.4264],[-119.58756,37.42672],[-119.5876,37.4269],[-119.58755,37.42698],[-119.58751,37.42704],[-119.58742,37.4271],[-119.58729,37.42714],[-119.58717,37.42716],[-119.58696,37.42712],[-119.58685,37.42708],[-119.5866,37.42692],[-119.58649,37.42688],[-119.58634,37.42687],[-119.58619,37.42689],[-119.58601,37.42694],[-119.58583,37.42702],[-119.58569,37.42711],[-119.58562,37.42719],[-119.58553,37.42734],[-119.58549,37.42744],[-119.5853,37.42762],[-119.58521,37.42778],[-119.58514,37.42783],[-119.58511,37.42784],[-119.58503,37.42785],[-119.58496,37.42783],[-119.58484,37.42777],[-119.5848,37.4277],[-119.58477,37.42759],[-119.58481,37.42738],[-119.58475,37.42707],[-119.58486,37.42694],[-119.58489,37.42686],[-119.58489,37.42678],[-119.58486,37.4267],[-119.58473,37.42656],[-119.58462,37.42649],[-119.58415,37.42622]]}},{"type":"Feature","properties":{"name":"Sivels Ranch Road","road_class":"track","surface":"unpaved","source":"Caltrans All Roads + OpenStreetMap explicit surface","source_detail":"osm way 399831002; Caltrans All Roads public-network geometry match","source_tile":"171/397","public_network_source":"Caltrans All Roads (ARNOLD/HPMS)","surface_source":"OpenStreetMap explicit surface tag","caltrans_match_coverage":1.0,"verified_length_m":1980},"geometry":{"type":"LineString","coordinates":[[-119.57139,37.40374],[-119.57127,37.40357],[-119.57101,37.40312],[-119.57095,37.40292],[-119.57098,37.40231],[-119.57101,37.40166],[-119.571,37.40158],[-119.57092,37.40146],[-119.57054,37.40108],[-119.57004,37.40085],[-119.56989,37.40077],[-119.56979,37.40062],[-119.56971,37.40043],[-119.56965,37.40007],[-119.56976,37.39987],[-119.57039,37.39854],[-119.57054,37.39835],[-119.57055,37.39822],[-119.5705,37.39811],[-119.56997,37.3976],[-119.56949,37.39726],[-119.56935,37.39712],[-119.56917,37.3969],[-119.56902,37.39682],[-119.5689,37.3968],[-119.5685,37.39684],[-119.56836,37.39684],[-119.56818,37.39676],[-119.56809,37.39663],[-119.56792,37.39628],[-119.56773,37.39608],[-119.56764,37.39593],[-119.56763,37.39562],[-119.56773,37.39506],[-119.56769,37.39481],[-119.56775,37.39461],[-119.56799,37.39365],[-119.56808,37.39351],[-119.56823,37.39334],[-119.56826,37.39324],[-119.56822,37.39314],[-119.5681,37.39304],[-119.56782,37.3929],[-119.56698,37.39261],[-119.56693,37.39256],[-119.5667,37.39219],[-119.5665,37.39178],[-119.56641,37.39167],[-119.56603,37.39148],[-119.56593,37.39135],[-119.56543,37.39043],[-119.56542,37.39022],[-119.56554,37.38993],[-119.56592,37.38951],[-119.5664,37.38908]]}},{"type":"Feature","properties":{"name":"(unnamed public road)","road_class":"track","surface":"unpaved","source":"Caltrans All Roads + OpenStreetMap explicit surface","source_detail":"osm way 399831733; Caltrans All Roads public-network geometry match","source_tile":"171/397","public_network_source":"Caltrans All Roads (ARNOLD/HPMS)","surface_source":"OpenStreetMap explicit surface tag","caltrans_match_coverage":1.0,"verified_length_m":1521},"geometry":{"type":"LineString","coordinates":[[-119.55665,37.40486],[-119.55665,37.40492],[-119.55661,37.40504],[-119.55658,37.40512],[-119.55651,37.40521],[-119.5563,37.40535],[-119.55619,37.40543],[-119.55617,37.40546],[-119.5561,37.40562],[-119.556,37.40578],[-119.55591,37.40596],[-119.55587,37.40608],[-119.55584,37.40622],[-119.55582,37.40626],[-119.55581,37.40634],[-119.55584,37.40645],[-119.55589,37.40657],[-119.55593,37.40669],[-119.55598,37.40677],[-119.55602,37.40685],[-119.55608,37.40701],[-119.55615,37.40711],[-119.55619,37.4072],[-119.55625,37.4074],[-119.5563,37.40767],[-119.55633,37.40775],[-119.55632,37.40789],[-119.5563,37.40797],[-119.55619,37.40819],[-119.55618,37.40833],[-119.55608,37.4085],[-119.55597,37.40872],[-119.55592,37.4088],[-119.55587,37.40886],[-119.55582,37.40894],[-119.55578,37.40908],[-119.55578,37.40922],[-119.5558,37.4093],[-119.55582,37.40934],[-119.5559,37.40957],[-119.55591,37.40965],[-119.55586,37.4097],[-119.55581,37.40995],[-119.55598,37.41017],[-119.5567,37.41052],[-119.55732,37.41074],[-119.55757,37.41087],[-119.55777,37.41095],[-119.55774,37.41128],[-119.55744,37.41145],[-119.55693,37.41186],[-119.55678,37.41226],[-119.55667,37.41251],[-119.55644,37.41264],[-119.55636,37.41269],[-119.55612,37.41273],[-119.55561,37.41263],[-119.55438,37.41243],[-119.55399,37.4122],[-119.55369,37.41222],[-119.55356,37.41261],[-119.55352,37.4127],[-119.55345,37.41284],[-119.5534,37.41303],[-119.55345,37.4132],[-119.55352,37.41329],[-119.55361,37.41332],[-119.55383,37.41336],[-119.55408,37.41336],[-119.55441,37.4134],[-119.55453,37.41336]]}},{"type":"Feature","properties":{"name":"Soquel Meadow Road","road_class":"track","surface":"unpaved","source":"Caltrans All Roads + OpenStreetMap explicit surface","source_detail":"osm way 399841647; Caltrans All Roads public-network geometry match","source_tile":"171/397","public_network_source":"Caltrans All Roads (ARNOLD/HPMS)","surface_source":"OpenStreetMap explicit surface tag","caltrans_match_coverage":1.0,"verified_length_m":5171},"geometry":{"type":"LineString","coordinates":[[-119.53718,37.37494],[-119.53665,37.37546],[-119.53657,37.37571],[-119.53656,37.37625],[-119.53657,37.37673],[-119.53677,37.37718],[-119.53673,37.37742],[-119.53649,37.37774],[-119.5366,37.37804],[-119.53694,37.37825],[-119.53698,37.37831],[-119.53689,37.37881],[-119.53689,37.37897],[-119.5372,37.37925],[-119.53725,37.37933],[-119.53734,37.37947],[-119.53739,37.37967],[-119.53735,37.37991],[-119.5372,37.38009],[-119.53692,37.38023],[-119.53688,37.38046],[-119.53691,37.38067],[-119.5373,37.38154],[-119.5372,37.38174],[-119.53687,37.38222],[-119.53687,37.38238],[-119.53691,37.38255],[-119.53704,37.38262],[-119.53718,37.38263],[-119.53733,37.38252],[-119.53733,37.38233],[-119.53756,37.38201],[-119.5378,37.38175],[-119.53861,37.3808],[-119.53885,37.38065],[-119.539,37.38048],[-119.53913,37.37994],[-119.53932,37.3798],[-119.53957,37.37972],[-119.54001,37.37975],[-119.54033,37.38024],[-119.5405,37.3804],[-119.54069,37.38043],[-119.54115,37.38038],[-119.54152,37.38045],[-119.5419,37.38043],[-119.5422,37.38044],[-119.54285,37.38053],[-119.54308,37.38053],[-119.54339,37.38043],[-119.54407,37.38046],[-119.54455,37.38059],[-119.54511,37.38072],[-119.54532,37.38067],[-119.54584,37.38052],[-119.546,37.38047],[-119.54633,37.3805],[-119.54749,37.38093],[-119.54773,37.38107],[-119.54859,37.38159],[-119.54942,37.38183],[-119.54974,37.38218],[-119.54985,37.3823],[-119.55005,37.38232],[-119.55052,37.38216],[-119.55113,37.38231],[-119.55133,37.38245],[-119.55149,37.38242],[-119.55173,37.382],[-119.5521,37.38182],[-119.55276,37.38175],[-119.55295,37.38181],[-119.55364,37.38221],[-119.55383,37.38239],[-119.55376,37.38266],[-119.55367,37.38279],[-119.55349,37.38287],[-119.55328,37.38293],[-119.55314,37.38307],[-119.55314,37.38318],[-119.55327,37.38332],[-119.55358,37.3834],[-119.55375,37.38349],[-119.55387,37.38359],[-119.55407,37.38395],[-119.5542,37.38402],[-119.5548,37.38426],[-119.55539,37.38447],[-119.5561,37.38502],[-119.55741,37.3857],[-119.55785,37.386],[-119.55823,37.38659],[-119.55842,37.38674],[-119.55877,37.38684],[-119.55927,37.38699],[-119.55949,37.3871],[-119.55957,37.38719],[-119.55961,37.38737],[-119.55964,37.38762],[-119.55962,37.38782],[-119.55941,37.38847],[-119.55928,37.3901],[-119.55929,37.39062],[-119.55928,37.39081],[-119.55927,37.3909],[-119.55906,37.39121],[-119.55907,37.39137],[-119.55913,37.39153],[-119.5592,37.39161],[-119.55956,37.39188],[-119.55974,37.39201],[-119.55994,37.39251],[-119.56057,37.3934],[-119.56086,37.39361],[-119.56109,37.39374],[-119.56116,37.39382],[-119.56117,37.39409],[-119.56119,37.39425],[-119.5612,37.3943],[-119.56127,37.39432],[-119.56134,37.3943],[-119.56142,37.3942],[-119.56153,37.39407],[-119.5618,37.39392],[-119.56229,37.39383],[-119.56269,37.39393],[-119.56289,37.39406],[-119.5632,37.39457],[-119.56365,37.39611],[-119.56387,37.39666],[-119.56388,37.39688],[-119.56393,37.39699],[-119.56432,37.39726],[-119.56444,37.39735],[-119.56466,37.39745],[-119.56471,37.39747],[-119.56508,37.39747]]}},{"type":"Feature","properties":{"name":"Bailey Flats Road","road_class":"unclassified","surface":"unpaved","tracktype":"grade2","source":"Caltrans All Roads + OpenStreetMap explicit surface","source_detail":"osm way 461209011; Caltrans All Roads public-network geometry match","source_tile":"171/397","public_network_source":"Caltrans All Roads (ARNOLD/HPMS)","surface_source":"OpenStreetMap explicit surface tag","caltrans_match_coverage":1.0,"verified_length_m":1677},"geometry":{"type":"LineString","coordinates":[[-119.86877,37.28872],[-119.86861,37.28923],[-119.86852,37.28953],[-119.86839,37.2898],[-119.86825,37.29001],[-119.8681,37.29016],[-119.86785,37.29035],[-119.86744,37.29056],[-119.86659,37.291],[-119.86637,37.29111],[-119.8661,37.29126],[-119.86595,37.29132],[-119.86582,37.29144],[-119.86573,37.29158],[-119.8657,37.29172],[-119.8657,37.29187],[-119.86572,37.29251],[-119.86571,37.29262],[-119.86565,37.29271],[-119.86559,37.2928],[-119.86556,37.2929],[-119.86557,37.29301],[-119.86561,37.29311],[-119.86569,37.29323],[-119.86586,37.29346],[-119.86607,37.29373],[-119.86617,37.29385],[-119.8663,37.29397],[-119.86651,37.2941],[-119.86661,37.29419],[-119.86665,37.29425],[-119.86668,37.29435],[-119.8667,37.29447],[-119.86673,37.29455],[-119.86676,37.29461],[-119.86688,37.2948],[-119.86697,37.29492],[-119.86707,37.295],[-119.86723,37.29512],[-119.86738,37.29526],[-119.86752,37.29554],[-119.86761,37.29564],[-119.86771,37.29572],[-119.86791,37.29582],[-119.86802,37.29586],[-119.86814,37.29588],[-119.86842,37.2959],[-119.86857,37.29593],[-119.86874,37.29598],[-119.86885,37.29604],[-119.869,37.29619],[-119.86907,37.2963],[-119.8691,37.29637],[-119.86917,37.29651],[-119.86932,37.29668],[-119.8694,37.29675],[-119.86952,37.29681],[-119.86961,37.29683],[-119.8697,37.29684],[-119.86982,37.29682],[-119.86994,37.29677],[-119.87007,37.29671],[-119.87017,37.2967],[-119.87026,37.29673],[-119.87033,37.29677],[-119.87046,37.29689],[-119.8706,37.29699],[-119.87093,37.29721],[-119.871,37.29728],[-119.87108,37.29735],[-119.87114,37.29743],[-119.87125,37.29765],[-119.87133,37.2978],[-119.87141,37.29787],[-119.87143,37.29789],[-119.87152,37.29794],[-119.87175,37.29796],[-119.87197,37.29796],[-119.87216,37.29799],[-119.87227,37.29807],[-119.87241,37.29824],[-119.8725,37.29837],[-119.87279,37.29864],[-119.87305,37.29891],[-119.87318,37.29905],[-119.87326,37.29919],[-119.87332,37.29935],[-119.87336,37.29945],[-119.87336,37.29947]]}},{"type":"Feature","properties":{"name":"Road 620","road_class":"unclassified","surface":"unpaved","source":"Caltrans All Roads + OpenStreetMap explicit surface","source_detail":"osm way 470185428; Caltrans All Roads public-network geometry match","source_tile":"171/397","public_network_source":"Caltrans All Roads (ARNOLD/HPMS)","surface_source":"OpenStreetMap explicit surface tag","caltrans_match_coverage":0.949,"verified_length_m":1704},"geometry":{"type":"LineString","coordinates":[[-119.68864,37.3868],[-119.68943,37.38731],[-119.69023,37.38731],[-119.69064,37.38765],[-119.69104,37.38802],[-119.69136,37.38833],[-119.69152,37.38864],[-119.69161,37.38885],[-119.69175,37.38916],[-119.69179,37.38963],[-119.69159,37.38998],[-119.69133,37.39019],[-119.69107,37.3906],[-119.69041,37.39106],[-119.68954,37.3913],[-119.68927,37.39152],[-119.6892,37.39186],[-119.68939,37.39238],[-119.68957,37.39293],[-119.68992,37.39318],[-119.69026,37.3935],[-119.69069,37.39387],[-119.69104,37.39408],[-119.69135,37.3941],[-119.69165,37.3942],[-119.69185,37.39438],[-119.69188,37.39483],[-119.69216,37.39516],[-119.69246,37.39533],[-119.69325,37.3954],[-119.69385,37.39542],[-119.69403,37.39553],[-119.69412,37.3957],[-119.69422,37.39578],[-119.69433,37.39587],[-119.69448,37.3959],[-119.69487,37.39591],[-119.69518,37.39589],[-119.69537,37.39593],[-119.69557,37.39597],[-119.69569,37.39597],[-119.69606,37.3962],[-119.69625,37.39624]]}},{"type":"Feature","properties":{"name":"Falcon View Road","road_class":"track","surface":"unpaved","source":"Caltrans All Roads + OpenStreetMap explicit surface","source_detail":"osm way 485559714; Caltrans All Roads public-network geometry match","source_tile":"171/397","public_network_source":"Caltrans All Roads (ARNOLD/HPMS)","surface_source":"OpenStreetMap explicit surface tag","caltrans_match_coverage":0.981,"verified_length_m":3603},"geometry":{"type":"LineString","coordinates":[[-119.62269,37.28667],[-119.62252,37.28657],[-119.62237,37.28651],[-119.62191,37.28656],[-119.6217,37.28651],[-119.62133,37.2864],[-119.62121,37.28637],[-119.62107,37.28637],[-119.62071,37.28646],[-119.62041,37.28643],[-119.61972,37.28678],[-119.61932,37.28669],[-119.61894,37.28656],[-119.6183,37.28674],[-119.61792,37.2865],[-119.6174,37.28674],[-119.61724,37.28672],[-119.617,37.2866],[-119.61636,37.28681],[-119.61531,37.28673],[-119.61513,37.28697],[-119.6149,37.28736],[-119.6145,37.28766],[-119.61416,37.2877],[-119.6139,37.28771],[-119.61384,37.28775],[-119.61372,37.28806],[-119.61329,37.2882],[-119.61311,37.28825],[-119.61294,37.28817],[-119.61287,37.28805],[-119.61273,37.28796],[-119.61237,37.28815],[-119.61223,37.28819],[-119.61197,37.28819],[-119.6118,37.28818],[-119.61088,37.28873],[-119.61055,37.28868],[-119.61015,37.28892],[-119.60993,37.28897],[-119.60953,37.2889],[-119.60916,37.289],[-119.60878,37.289],[-119.60845,37.28887],[-119.60792,37.28845],[-119.60703,37.28838],[-119.60626,37.28856],[-119.60193,37.28795],[-119.59927,37.28795],[-119.59887,37.28813],[-119.59758,37.28813],[-119.59721,37.28864],[-119.59698,37.28861],[-119.59646,37.28813],[-119.59592,37.288],[-119.59555,37.28807],[-119.59477,37.28841],[-119.5942,37.28848],[-119.59409,37.28857],[-119.59391,37.28894],[-119.59223,37.28958],[-119.59197,37.28978],[-119.59188,37.28999],[-119.59203,37.29084],[-119.59237,37.29138],[-119.59243,37.29175],[-119.59231,37.29186],[-119.59206,37.29184],[-119.59168,37.29154],[-119.5914,37.29145],[-119.59088,37.29152],[-119.59065,37.29177],[-119.59065,37.29269]]}},{"type":"Feature","properties":{"name":"Bailey Flats Road","road_class":"unclassified","surface":"unpaved","tracktype":"grade2","source":"Caltrans All Roads + OpenStreetMap explicit surface","source_detail":"osm way 685033914; Caltrans All Roads public-network geometry match","source_tile":"171/397","public_network_source":"Caltrans All Roads (ARNOLD/HPMS)","surface_source":"OpenStreetMap explicit surface tag","caltrans_match_coverage":1.0,"verified_length_m":6239},"geometry":{"type":"LineString","coordinates":[[-119.83096,37.33085],[-119.83087,37.33087],[-119.83079,37.33086],[-119.83069,37.3308],[-119.83047,37.33051],[-119.83033,37.33041],[-119.83021,37.33033],[-119.83006,37.33029],[-119.82995,37.33028],[-119.82979,37.33028],[-119.82962,37.33029],[-119.82951,37.33032],[-119.82935,37.33038],[-119.82922,37.33045],[-119.8291,37.33054],[-119.82885,37.33083],[-119.82865,37.33116],[-119.82859,37.33124],[-119.82839,37.33148],[-119.82824,37.33172],[-119.82807,37.33204],[-119.82799,37.33209],[-119.82791,37.33215],[-119.82782,37.33221],[-119.82772,37.33228],[-119.82769,37.33235],[-119.82767,37.3326],[-119.82765,37.33283],[-119.82765,37.333],[-119.82766,37.33311],[-119.82763,37.33316],[-119.82759,37.3332],[-119.82752,37.33323],[-119.82738,37.33325],[-119.82699,37.3333],[-119.82685,37.33331],[-119.82675,37.33337],[-119.82664,37.33341],[-119.82651,37.33343],[-119.82615,37.33352],[-119.82595,37.33359],[-119.82579,37.33373],[-119.82568,37.33392],[-119.82559,37.33405],[-119.82545,37.33414],[-119.82499,37.33445],[-119.82474,37.33466],[-119.8247,37.33471],[-119.82466,37.33481],[-119.82468,37.33515],[-119.82468,37.33531],[-119.82466,37.33535],[-119.82461,37.3354],[-119.82455,37.33543],[-119.82447,37.33547],[-119.82398,37.33563],[-119.82388,37.33568],[-119.82372,37.33578],[-119.82337,37.33601],[-119.82322,37.33604],[-119.8231,37.33605],[-119.82295,37.33605],[-119.82269,37.336],[-119.82232,37.33588],[-119.82217,37.33584],[-119.82204,37.33582],[-119.82194,37.33583],[-119.82185,37.3359],[-119.82175,37.33602],[-119.82167,37.33613],[-119.82163,37.33623],[-119.82163,37.33629],[-119.82163,37.33661],[-119.82161,37.33677],[-119.82156,37.33685],[-119.82146,37.33693],[-119.82131,37.33699],[-119.82114,37.33701],[-119.82088,37.33703],[-119.82068,37.33702],[-119.82042,37.33698],[-119.82014,37.33691],[-119.8197,37.3368],[-119.81943,37.33673],[-119.81925,37.33668],[-119.8192,37.33666],[-119.81891,37.33645],[-119.81879,37.33642],[-119.81837,37.33633],[-119.81812,37.33631],[-119.81765,37.33632],[-119.81752,37.3363],[-119.81735,37.33626],[-119.81713,37.33617],[-119.81702,37.33615],[-119.81689,37.33613],[-119.81681,37.33613],[-119.8167,37.33615],[-119.81658,37.33619],[-119.81647,37.33624],[-119.81619,37.33639],[-119.81581,37.33659],[-119.81552,37.33673],[-119.81541,37.33677],[-119.81496,37.33692],[-119.81478,37.337],[-119.81441,37.3372],[-119.81427,37.33729],[-119.81421,37.33736],[-119.81413,37.33749],[-119.81409,37.33762],[-119.81408,37.33773],[-119.81408,37.33786],[-119.81418,37.33829],[-119.8142,37.33846],[-119.81419,37.33856],[-119.81416,37.33863],[-119.81411,37.3387],[-119.814,37.33881],[-119.81397,37.33884],[-119.81373,37.3391],[-119.81331,37.33965],[-119.81316,37.33981],[-119.81304,37.33993],[-119.81261,37.34023],[-119.81231,37.34048],[-119.81201,37.34078],[-119.81185,37.34103],[-119.81179,37.34116],[-119.81172,37.34147],[-119.81174,37.34161],[-119.81177,37.34179],[-119.81186,37.34202],[-119.81205,37.34232],[-119.8122,37.34261],[-119.81228,37.34278],[-119.81224,37.34288],[-119.81216,37.34293],[-119.81222,37.3431],[-119.81221,37.34324],[-119.81215,37.34343],[-119.81213,37.34358],[-119.81215,37.34374],[-119.81223,37.34388],[-119.81253,37.34416],[-119.81266,37.34427],[-119.81282,37.34438],[-119.81291,37.34444],[-119.81315,37.34447],[-119.81324,37.34446],[-119.81339,37.34443],[-119.81353,37.34443],[-119.81365,37.34446],[-119.81377,37.34451],[-119.81394,37.34458],[-119.81404,37.34463],[-119.8142,37.34473],[-119.81437,37.34485],[-119.81455,37.34498],[-119.81468,37.3451],[-119.81474,37.3452],[-119.81489,37.34542],[-119.81535,37.34595],[-119.81553,37.34618],[-119.81573,37.34633],[-119.81598,37.34641],[-119.81647,37.34641],[-119.81691,37.34645],[-119.81731,37.34647],[-119.81791,37.34659],[-119.81831,37.34664],[-119.81865,37.34667],[-119.81896,37.34665],[-119.81916,37.34665],[-119.81998,37.34669],[-119.82109,37.34671],[-119.82162,37.34674],[-119.82265,37.34685],[-119.82312,37.34692],[-119.82329,37.34697],[-119.82354,37.34698],[-119.82375,37.34693],[-119.824,37.34693],[-119.82421,37.34695],[-119.82443,37.34698],[-119.82472,37.34708],[-119.82487,37.3471],[-119.82504,37.34712],[-119.8252,37.34719],[-119.82535,37.34742],[-119.82546,37.34769],[-119.82548,37.34788],[-119.82546,37.34798],[-119.82541,37.34806],[-119.8253,37.34813],[-119.82514,37.34825],[-119.82512,37.34834],[-119.82513,37.34842],[-119.82518,37.3485],[-119.82525,37.34856],[-119.82596,37.34921],[-119.82605,37.34934],[-119.82608,37.34944],[-119.82593,37.34981],[-119.8259,37.34993],[-119.82588,37.35003],[-119.8258,37.35019],[-119.82566,37.35033],[-119.82557,37.35053],[-119.82552,37.35082],[-119.8255,37.35091],[-119.82553,37.35107],[-119.82571,37.35165],[-119.8259,37.35224],[-119.82593,37.35247],[-119.82594,37.35268],[-119.82592,37.35356],[-119.8259,37.3537],[-119.82587,37.3538],[-119.82574,37.35391],[-119.82553,37.35406],[-119.82543,37.35415],[-119.8254,37.35434],[-119.82539,37.35451],[-119.8254,37.35509],[-119.82536,37.35529],[-119.82531,37.35551],[-119.82528,37.35584],[-119.82532,37.35595],[-119.82542,37.35603],[-119.8255,37.35607],[-119.82563,37.3561],[-119.82591,37.35611],[-119.82613,37.35611],[-119.82628,37.35615],[-119.82635,37.3562],[-119.82637,37.35628],[-119.82632,37.35639],[-119.82631,37.3565],[-119.82641,37.35675],[-119.82642,37.35691],[-119.82641,37.35714],[-119.82642,37.35731],[-119.82643,37.35754],[-119.82643,37.35764],[-119.82641,37.35773],[-119.8263,37.35782],[-119.82618,37.35795],[-119.82615,37.35809],[-119.82615,37.35817],[-119.82621,37.35828],[-119.82631,37.35839],[-119.82643,37.35844],[-119.82669,37.35845],[-119.82683,37.35846],[-119.82704,37.35847],[-119.82721,37.35852],[-119.82733,37.35858],[-119.8274,37.35865],[-119.82746,37.35882],[-119.82758,37.35953],[-119.82769,37.35995],[-119.82773,37.3601],[-119.82786,37.36022],[-119.82799,37.36032],[-119.82825,37.36042],[-119.82837,37.36046],[-119.82858,37.36043],[-119.82872,37.36039],[-119.82896,37.36034],[-119.82914,37.36051],[-119.82921,37.36055],[-119.8293,37.36059],[-119.82942,37.36062],[-119.82952,37.36065],[-119.8296,37.36069],[-119.82964,37.36074],[-119.82966,37.36082],[-119.82972,37.36098],[-119.82972,37.36122],[-119.82975,37.36129],[-119.82978,37.36132],[-119.82985,37.36136],[-119.82992,37.36139],[-119.83002,37.36142],[-119.8301,37.36144],[-119.83017,37.36145],[-119.83025,37.36149],[-119.83048,37.36166],[-119.83055,37.36172],[-119.83061,37.36173],[-119.83072,37.36172],[-119.83078,37.36172],[-119.83089,37.36176],[-119.83099,37.36185],[-119.83119,37.36213]]}},{"type":"Feature","properties":{"name":"Bailey Flats Road","road_class":"unclassified","surface":"unpaved","tracktype":"grade2","source":"Caltrans All Roads + OpenStreetMap explicit surface","source_detail":"osm way 890529325; Caltrans All Roads public-network geometry match","source_tile":"171/397","public_network_source":"Caltrans All Roads (ARNOLD/HPMS)","surface_source":"OpenStreetMap explicit surface tag","caltrans_match_coverage":1.0,"verified_length_m":9386},"geometry":{"type":"LineString","coordinates":[[-119.87337,37.29958],[-119.87339,37.29983],[-119.87339,37.3],[-119.87341,37.30036],[-119.87341,37.30059],[-119.87339,37.30069],[-119.87335,37.30077],[-119.87328,37.30085],[-119.87306,37.30101],[-119.87283,37.30117],[-119.87247,37.30148],[-119.87223,37.3017],[-119.8718,37.30202],[-119.87074,37.30274],[-119.86994,37.30328],[-119.86967,37.30346],[-119.86924,37.30374],[-119.86902,37.30394],[-119.86886,37.3041],[-119.86863,37.30441],[-119.86851,37.30455],[-119.86848,37.30464],[-119.86849,37.30473],[-119.86851,37.30479],[-119.86875,37.30506],[-119.86886,37.3052],[-119.8689,37.30534],[-119.86891,37.30544],[-119.86891,37.30557],[-119.86887,37.30567],[-119.86872,37.30598],[-119.86857,37.30616],[-119.86836,37.30643],[-119.86817,37.30657],[-119.86792,37.3067],[-119.86759,37.3068],[-119.86717,37.3069],[-119.86679,37.30693],[-119.86665,37.3069],[-119.86651,37.30684],[-119.86634,37.30676],[-119.8662,37.30667],[-119.86601,37.30652],[-119.86573,37.30626],[-119.86528,37.30586],[-119.8651,37.30566],[-119.86485,37.3055],[-119.86463,37.30541],[-119.86453,37.30537],[-119.86415,37.30524],[-119.86367,37.30514],[-119.86336,37.30509],[-119.86314,37.3051],[-119.86269,37.30518],[-119.86244,37.30521],[-119.86237,37.30514],[-119.8623,37.30502],[-119.86226,37.3049],[-119.86223,37.30481],[-119.86208,37.3047],[-119.86196,37.30466],[-119.86165,37.30459],[-119.86062,37.30453],[-119.85991,37.30456],[-119.85968,37.30456],[-119.85943,37.30454],[-119.85892,37.30451],[-119.85865,37.30452],[-119.85832,37.30453],[-119.85797,37.30452],[-119.85773,37.30456],[-119.85747,37.30462],[-119.85736,37.30462],[-119.8571,37.30463],[-119.85695,37.30465],[-119.85682,37.3047],[-119.85674,37.30475],[-119.85669,37.30481],[-119.8566,37.30491],[-119.85651,37.30498],[-119.8564,37.30502],[-119.85627,37.30504],[-119.85599,37.30504],[-119.85546,37.30501],[-119.85528,37.30498],[-119.85516,37.30494],[-119.85504,37.30488],[-119.85493,37.30482],[-119.85485,37.30479],[-119.85474,37.30478],[-119.85464,37.30477],[-119.85444,37.30482],[-119.85438,37.30486],[-119.85423,37.30495],[-119.8541,37.30507],[-119.85394,37.30513],[-119.85363,37.30515],[-119.85334,37.30513],[-119.85313,37.3051],[-119.85301,37.30503],[-119.85289,37.30494],[-119.8528,37.30481],[-119.85272,37.30463],[-119.85261,37.30449],[-119.85249,37.30432],[-119.85239,37.30411],[-119.85232,37.30405],[-119.85208,37.30401],[-119.85194,37.304],[-119.85177,37.30404],[-119.85155,37.30416],[-119.85147,37.30418],[-119.85134,37.30417],[-119.85093,37.30409],[-119.85055,37.304],[-119.85017,37.3038],[-119.85008,37.30356],[-119.84999,37.30348],[-119.84988,37.30349],[-119.84972,37.30358],[-119.84945,37.30411],[-119.84937,37.30419],[-119.84928,37.30421],[-119.84894,37.30417],[-119.84853,37.3041],[-119.84844,37.30405],[-119.84825,37.30393],[-119.84817,37.30388],[-119.84808,37.30386],[-119.84789,37.30388],[-119.8473,37.30397],[-119.84682,37.30396],[-119.84628,37.30392],[-119.84471,37.30388],[-119.84458,37.30385],[-119.84448,37.3038],[-119.84439,37.30357],[-119.84423,37.30333],[-119.84409,37.30326],[-119.84383,37.30323],[-119.84361,37.3032],[-119.8431,37.30296],[-119.84271,37.30275],[-119.84229,37.30249],[-119.84212,37.30242],[-119.84195,37.30239],[-119.84167,37.30233],[-119.84144,37.30229],[-119.84129,37.30222],[-119.84117,37.30212],[-119.84106,37.30203],[-119.84098,37.30197],[-119.84081,37.30192],[-119.84063,37.30189],[-119.83968,37.3019],[-119.8395,37.30192],[-119.83918,37.30198],[-119.83862,37.30203],[-119.83836,37.30212],[-119.83817,37.30222],[-119.83797,37.30232],[-119.83779,37.30235],[-119.83758,37.30237],[-119.83742,37.30235],[-119.8372,37.30231],[-119.83695,37.30222],[-119.8368,37.30218],[-119.83616,37.30217],[-119.83573,37.30215],[-119.8353,37.30211],[-119.8351,37.30207],[-119.8349,37.30203],[-119.83475,37.30202],[-119.83466,37.30203],[-119.83452,37.30205],[-119.83433,37.3021],[-119.83384,37.30223],[-119.83329,37.30234],[-119.83302,37.3024],[-119.83251,37.30246],[-119.83165,37.30253],[-119.8315,37.30258],[-119.83135,37.30262],[-119.83096,37.30288],[-119.8308,37.30295],[-119.83052,37.303],[-119.82983,37.3031],[-119.8295,37.30316],[-119.82901,37.30325],[-119.82861,37.30333],[-119.82803,37.30351],[-119.82785,37.30363],[-119.82757,37.30383],[-119.82744,37.30387],[-119.82734,37.3039],[-119.82711,37.30388],[-119.82672,37.30383],[-119.82658,37.30381],[-119.82644,37.30377],[-119.82633,37.30372],[-119.82621,37.30371],[-119.82608,37.30372],[-119.82588,37.30372],[-119.82576,37.30375],[-119.82567,37.30378],[-119.82561,37.30387],[-119.82554,37.30399],[-119.82548,37.3041],[-119.82542,37.30415],[-119.82525,37.30417],[-119.82515,37.30418],[-119.82501,37.30417],[-119.82488,37.30416],[-119.82477,37.30416],[-119.82467,37.30416],[-119.82455,37.3042],[-119.82443,37.30425],[-119.82431,37.30432],[-119.82416,37.30446],[-119.824,37.30461],[-119.82395,37.30464],[-119.82391,37.30465],[-119.82386,37.30465],[-119.82356,37.30463],[-119.82348,37.30464],[-119.82341,37.30469],[-119.82328,37.3048],[-119.823,37.30504],[-119.82287,37.30511],[-119.82276,37.30516],[-119.8227,37.3052],[-119.82254,37.30553],[-119.82248,37.30564],[-119.82248,37.30573],[-119.82252,37.30577],[-119.8226,37.30581],[-119.82274,37.30586],[-119.8228,37.30589],[-119.82285,37.30594],[-119.82285,37.30598],[-119.82284,37.30605],[-119.82279,37.30609],[-119.82264,37.30616],[-119.82207,37.3064],[-119.822,37.30642],[-119.82195,37.30647],[-119.8219,37.30654],[-119.82187,37.30662],[-119.82183,37.30668],[-119.82174,37.30673],[-119.82146,37.30676],[-119.82144,37.30676],[-119.82137,37.30677],[-119.82128,37.30683],[-119.82111,37.30716],[-119.82095,37.30748],[-119.82082,37.30785],[-119.82076,37.308],[-119.82072,37.30808],[-119.82065,37.30818],[-119.82055,37.30831],[-119.82031,37.30861],[-119.82029,37.30866],[-119.82029,37.30874],[-119.82031,37.30897],[-119.82035,37.30911],[-119.82038,37.30917],[-119.82041,37.30919],[-119.8205,37.30924],[-119.82057,37.30925],[-119.8208,37.30928],[-119.82086,37.30931],[-119.82095,37.30936],[-119.821,37.30942],[-119.821,37.3095],[-119.82089,37.30977],[-119.82084,37.30988],[-119.82085,37.30999],[-119.82088,37.31007],[-119.82096,37.31014],[-119.8211,37.31022],[-119.82122,37.31036],[-119.82129,37.31044],[-119.82135,37.31054],[-119.82137,37.31058],[-119.82137,37.31065],[-119.82135,37.31071],[-119.82132,37.31075],[-119.82126,37.31079],[-119.82119,37.31082],[-119.82108,37.31085],[-119.82092,37.31084],[-119.82082,37.31083],[-119.82041,37.31081],[-119.82023,37.31085],[-119.82001,37.31089],[-119.81984,37.31088],[-119.81974,37.31087],[-119.81967,37.31087],[-119.81959,37.31091],[-119.81952,37.31096],[-119.81948,37.311],[-119.81944,37.31106],[-119.81943,37.31112],[-119.81944,37.31116],[-119.81948,37.31124],[-119.81955,37.31131],[-119.81969,37.31138],[-119.8198,37.31144],[-119.81992,37.31151],[-119.82009,37.31165],[-119.82028,37.31181],[-119.82037,37.31198],[-119.82045,37.3121],[-119.82068,37.31231],[-119.82073,37.31235],[-119.82075,37.3124],[-119.82074,37.31246],[-119.82073,37.31252],[-119.82068,37.31256],[-119.82061,37.31258],[-119.82052,37.3126],[-119.82039,37.31263],[-119.82033,37.31265],[-119.82025,37.31268],[-119.82022,37.31272],[-119.82018,37.31282],[-119.82024,37.31301],[-119.82031,37.31311],[-119.82038,37.31317],[-119.82064,37.3133],[-119.82103,37.31356],[-119.82136,37.31383],[-119.82147,37.31391],[-119.82158,37.31398],[-119.8217,37.31404],[-119.82174,37.31412],[-119.82175,37.31418],[-119.82173,37.31424],[-119.82163,37.31445],[-119.8216,37.31451],[-119.82162,37.31457],[-119.8217,37.31462],[-119.82182,37.31464],[-119.82253,37.31473],[-119.82265,37.31476],[-119.82271,37.3148],[-119.82301,37.31508],[-119.82336,37.31549],[-119.82346,37.31569],[-119.82352,37.31586],[-119.82363,37.31613],[-119.82361,37.31629],[-119.82354,37.31645],[-119.82354,37.31655],[-119.82354,37.31665],[-119.8236,37.31672],[-119.82374,37.31681],[-119.82467,37.31732],[-119.82486,37.31737],[-119.82502,37.31738],[-119.82539,37.31739],[-119.82567,37.31746],[-119.82581,37.31754],[-119.82584,37.31763],[-119.82582,37.31778],[-119.82585,37.31784],[-119.82597,37.31794],[-119.82627,37.318],[-119.82659,37.31807],[-119.8267,37.31814],[-119.82674,37.3182],[-119.82682,37.31829],[-119.82698,37.31834],[-119.82719,37.31845],[-119.82731,37.31856],[-119.82736,37.3187],[-119.82736,37.31888],[-119.82718,37.31925],[-119.82715,37.31941],[-119.82719,37.3196],[-119.82727,37.31977],[-119.82737,37.31998],[-119.82743,37.32014],[-119.82747,37.32022],[-119.82752,37.32027],[-119.82761,37.32035],[-119.8278,37.32037],[-119.82797,37.3204],[-119.82801,37.32044],[-119.82828,37.32116],[-119.8283,37.32122],[-119.82838,37.32128],[-119.8285,37.32134],[-119.82875,37.32145],[-119.82882,37.32153],[-119.82881,37.32174],[-119.82884,37.32185],[-119.82891,37.32193],[-119.82903,37.32203],[-119.82915,37.32212],[-119.82922,37.32224],[-119.82921,37.32232],[-119.82916,37.32238],[-119.82895,37.32252],[-119.82892,37.32259],[-119.82895,37.32266],[-119.82912,37.32291],[-119.82929,37.32315],[-119.82951,37.32342],[-119.82951,37.32351],[-119.82944,37.32366],[-119.82931,37.32389],[-119.82928,37.32399],[-119.82919,37.32454],[-119.82918,37.3248],[-119.8292,37.32496],[-119.82928,37.32512],[-119.82934,37.3253],[-119.82944,37.32543],[-119.82957,37.32555],[-119.82982,37.32571],[-119.82994,37.3258],[-119.83001,37.32586],[-119.8301,37.32604],[-119.83013,37.32617],[-119.83016,37.32646],[-119.83016,37.32663],[-119.83012,37.32699],[-119.83008,37.32715],[-119.83008,37.32733],[-119.83013,37.32742],[-119.83022,37.3275],[-119.83035,37.32763],[-119.8308,37.32794],[-119.83084,37.32797],[-119.8309,37.32802],[-119.83117,37.32847],[-119.83128,37.3286],[-119.83171,37.32899],[-119.83182,37.3291],[-119.83196,37.32933],[-119.83206,37.32972],[-119.83209,37.33007],[-119.83206,37.33023],[-119.83199,37.33033],[-119.83188,37.33043],[-119.83171,37.33052],[-119.83132,37.3307]]}},{"type":"Feature","properties":{"name":"Sugar Pine Road","road_class":"unclassified","surface":"unpaved","source":"Caltrans All Roads + OpenStreetMap explicit surface","source_detail":"osm way 1125955417; Caltrans All Roads public-network geometry match","source_tile":"171/397","public_network_source":"Caltrans All Roads (ARNOLD/HPMS)","surface_source":"OpenStreetMap explicit surface tag","caltrans_match_coverage":1.0,"verified_length_m":972},"geometry":{"type":"LineString","coordinates":[[-119.5958,37.42595],[-119.59552,37.4259],[-119.59538,37.42583],[-119.59526,37.42573],[-119.59518,37.42565],[-119.59445,37.42441],[-119.59437,37.42432],[-119.59419,37.42422],[-119.59348,37.42404],[-119.59328,37.42403],[-119.59309,37.42405],[-119.59297,37.4241],[-119.59274,37.42423],[-119.59258,37.42428],[-119.59216,37.42427],[-119.59104,37.42428],[-119.59045,37.4242],[-119.59003,37.42411],[-119.58959,37.42399],[-119.58935,37.42388],[-119.58925,37.42381],[-119.58907,37.4236],[-119.589,37.42347],[-119.58884,37.42307],[-119.58876,37.42296],[-119.5887,37.4229],[-119.58841,37.42272],[-119.58832,37.42264],[-119.58826,37.42253],[-119.58819,37.42233],[-119.58807,37.4221],[-119.58797,37.42196],[-119.58788,37.42188],[-119.58773,37.42182]]}},{"type":"Feature","properties":{"name":"Beasore Loop Road","road_class":"unclassified","surface":"unpaved","source":"Caltrans All Roads + OpenStreetMap explicit surface","source_detail":"osm way 399831328; Caltrans All Roads public-network geometry match","source_tile":"172/397","public_network_source":"Caltrans All Roads (ARNOLD/HPMS)","surface_source":"OpenStreetMap explicit surface tag","caltrans_match_coverage":1.0,"verified_length_m":8691},"geometry":{"type":"LineString","coordinates":[[-119.53899,37.44139],[-119.53883,37.44133],[-119.5385,37.44101],[-119.5382,37.44082],[-119.53795,37.44075],[-119.53762,37.44071],[-119.53726,37.44072],[-119.53715,37.44064],[-119.5369,37.44023],[-119.53671,37.44005],[-119.53649,37.43994],[-119.53622,37.43988],[-119.53583,37.43984],[-119.53557,37.43977],[-119.53547,37.43968],[-119.53541,37.43957],[-119.53541,37.43945],[-119.53544,37.43931],[-119.53551,37.43917],[-119.53552,37.43903],[-119.53543,37.43888],[-119.53528,37.4388],[-119.53498,37.43878],[-119.53487,37.43879],[-119.53477,37.43884],[-119.53475,37.43891],[-119.5348,37.43905],[-119.53496,37.43915],[-119.53503,37.43925],[-119.53506,37.43939],[-119.53499,37.43955],[-119.53488,37.43977],[-119.53439,37.44043],[-119.53425,37.44055],[-119.53408,37.44066],[-119.53382,37.44077],[-119.53372,37.44085],[-119.53356,37.44108],[-119.53264,37.44227],[-119.53231,37.44284],[-119.53211,37.44307],[-119.53187,37.44346],[-119.53182,37.44395],[-119.5318,37.44428],[-119.53158,37.44476],[-119.53153,37.4452],[-119.53148,37.44602],[-119.53146,37.44622],[-119.53139,37.44644],[-119.53128,37.44656],[-119.53099,37.44656],[-119.53085,37.4465],[-119.53029,37.44617],[-119.52904,37.44562],[-119.52843,37.44543],[-119.52807,37.44539],[-119.5277,37.44545],[-119.52702,37.44565],[-119.52685,37.44567],[-119.5266,37.44568],[-119.52607,37.44562],[-119.52556,37.44562],[-119.52471,37.44557],[-119.52415,37.44557],[-119.52401,37.44553],[-119.5239,37.44545],[-119.52362,37.44514],[-119.52334,37.44504],[-119.52309,37.44497],[-119.52257,37.4449],[-119.52237,37.4449],[-119.52201,37.44494],[-119.52174,37.44507],[-119.52142,37.44527],[-119.52073,37.4458],[-119.52051,37.44594],[-119.52036,37.44598],[-119.52021,37.44593],[-119.52008,37.44583],[-119.51998,37.44567],[-119.51991,37.44553],[-119.51988,37.44537],[-119.51989,37.44521],[-119.51988,37.44503],[-119.51979,37.44489],[-119.51952,37.44463],[-119.51938,37.44444],[-119.51908,37.44385],[-119.51889,37.44356],[-119.5188,37.44346],[-119.5185,37.4433],[-119.51833,37.44325],[-119.51812,37.4432],[-119.51775,37.44315],[-119.5174,37.44313],[-119.51718,37.44306],[-119.51663,37.44293],[-119.51627,37.44291],[-119.51604,37.44287],[-119.51562,37.44264],[-119.51529,37.44251],[-119.51509,37.44245],[-119.51423,37.44235],[-119.51406,37.44228],[-119.51402,37.44224],[-119.514,37.44218],[-119.51403,37.44214],[-119.51413,37.44207],[-119.51448,37.44199],[-119.5147,37.4419],[-119.51479,37.44181],[-119.51488,37.44168],[-119.51498,37.44131],[-119.51512,37.44116],[-119.51529,37.44105],[-119.5157,37.44089],[-119.516,37.44074],[-119.51629,37.4407],[-119.51666,37.44068],[-119.517,37.44061],[-119.51772,37.44042],[-119.51799,37.44029],[-119.51818,37.44014],[-119.51828,37.44003],[-119.51851,37.43987],[-119.51883,37.4397],[-119.51902,37.43961],[-119.51915,37.43951],[-119.51921,37.43934],[-119.51914,37.43921],[-119.51902,37.43909],[-119.51885,37.43899],[-119.51862,37.43889],[-119.5184,37.43881],[-119.51823,37.43879],[-119.51799,37.43872],[-119.51739,37.43848],[-119.51709,37.4384],[-119.51665,37.43839],[-119.51593,37.4385],[-119.51564,37.43851],[-119.51554,37.43852],[-119.51538,37.43849],[-119.51513,37.43828],[-119.51504,37.43805],[-119.51502,37.43784],[-119.51496,37.43771],[-119.51485,37.43755],[-119.51471,37.43744],[-119.51455,37.43726],[-119.51432,37.43714],[-119.51405,37.43709],[-119.51382,37.43709],[-119.51354,37.43714],[-119.51175,37.43739],[-119.51126,37.43771],[-119.51107,37.43778],[-119.51065,37.43776],[-119.50952,37.43756],[-119.50903,37.43757],[-119.5086,37.43767],[-119.50745,37.43773],[-119.50686,37.43762],[-119.50641,37.43755],[-119.50631,37.43748],[-119.506,37.43707],[-119.50557,37.43679],[-119.50523,37.4365],[-119.50514,37.43624],[-119.5051,37.43598],[-119.50521,37.43461],[-119.50521,37.43429],[-119.50513,37.43418],[-119.50462,37.43383],[-119.50384,37.43334],[-119.50369,37.43307],[-119.50357,37.43292],[-119.50327,37.43267],[-119.50319,37.43252],[-119.50322,37.43235],[-119.50341,37.43164],[-119.50337,37.43148],[-119.50323,37.43131],[-119.50283,37.43095],[-119.50272,37.43089],[-119.50171,37.43039],[-119.50126,37.43031],[-119.50098,37.43032],[-119.50073,37.43036],[-119.50055,37.43034],[-119.50043,37.43025],[-119.50039,37.43015],[-119.50039,37.43006],[-119.50052,37.42985],[-119.5006,37.42955],[-119.50062,37.42911],[-119.50059,37.42867],[-119.50051,37.42803],[-119.50046,37.42779],[-119.50047,37.42763],[-119.50049,37.4275],[-119.50058,37.42736],[-119.50083,37.42711],[-119.50122,37.42646],[-119.50145,37.42616],[-119.50177,37.42587],[-119.50205,37.42567],[-119.50217,37.42544],[-119.50235,37.42517],[-119.50254,37.42507],[-119.50281,37.42496],[-119.50292,37.42485],[-119.50296,37.42477],[-119.50296,37.4246],[-119.50292,37.42445],[-119.50277,37.42433],[-119.50245,37.42423],[-119.5022,37.42414],[-119.502,37.42402],[-119.50192,37.4239],[-119.50188,37.42377],[-119.5019,37.42362],[-119.50199,37.42345],[-119.50203,37.4233],[-119.50206,37.42311],[-119.50202,37.42296],[-119.50191,37.42283],[-119.50163,37.42264],[-119.50094,37.42244],[-119.49995,37.42198],[-119.4995,37.42156],[-119.49926,37.42131],[-119.49917,37.42117],[-119.49911,37.42106],[-119.49906,37.42089],[-119.49899,37.42057],[-119.49889,37.42025],[-119.49889,37.42008],[-119.49892,37.41991],[-119.49901,37.41969],[-119.49951,37.41915],[-119.49958,37.41896],[-119.49961,37.41882],[-119.49958,37.41864],[-119.49955,37.41842],[-119.49954,37.41826],[-119.49966,37.41801],[-119.49982,37.41785],[-119.50002,37.41749],[-119.50013,37.41724],[-119.50021,37.41686],[-119.50021,37.41656],[-119.50017,37.41637],[-119.5001,37.41621],[-119.50001,37.41608],[-119.49984,37.41595],[-119.4996,37.41579],[-119.49928,37.41562],[-119.49895,37.41539],[-119.49859,37.41516],[-119.49837,37.41507],[-119.49814,37.41502],[-119.49789,37.41502],[-119.49768,37.41504],[-119.49665,37.41501],[-119.49641,37.41503],[-119.49612,37.41508],[-119.49553,37.41525],[-119.49522,37.41527],[-119.49499,37.41526]]}},{"type":"Feature","properties":{"name":"6S99","road_class":"track","surface":"unpaved","source":"Caltrans All Roads + OpenStreetMap explicit surface","source_detail":"osm way 10404649; Caltrans All Roads public-network geometry match","source_tile":"172/397","public_network_source":"Caltrans All Roads (ARNOLD/HPMS)","surface_source":"OpenStreetMap explicit surface tag","caltrans_match_coverage":0.92,"verified_length_m":2543},"geometry":{"type":"LineString","coordinates":[[-119.5145,37.40064],[-119.5147,37.40077],[-119.51487,37.401],[-119.51516,37.40152],[-119.51532,37.4018],[-119.51563,37.40194],[-119.51669,37.4022],[-119.51751,37.4023],[-119.51838,37.40234],[-119.51892,37.40228],[-119.52009,37.40198],[-119.52034,37.402],[-119.52051,37.4021],[-119.52072,37.40239],[-119.52094,37.40247],[-119.52122,37.40243],[-119.52277,37.40194],[-119.52323,37.40196],[-119.52363,37.40215],[-119.52483,37.40274],[-119.526,37.4039],[-119.52643,37.40432],[-119.52668,37.40462],[-119.52682,37.40471],[-119.52712,37.40478],[-119.52752,37.40473],[-119.52793,37.40481],[-119.52833,37.40497],[-119.52863,37.40503],[-119.52881,37.40503],[-119.52894,37.40492],[-119.52908,37.40477],[-119.52928,37.40435],[-119.52929,37.40387],[-119.52927,37.40362],[-119.52928,37.40332],[-119.52935,37.40316],[-119.52949,37.40305],[-119.52965,37.40298],[-119.53067,37.40279],[-119.53144,37.40261],[-119.53231,37.40238],[-119.53301,37.40222],[-119.53327,37.40222],[-119.5335,37.40226],[-119.53393,37.40242],[-119.5343,37.40259],[-119.53447,37.40266],[-119.53461,37.40279],[-119.53466,37.40288],[-119.53474,37.40308],[-119.53487,37.40323],[-119.53501,37.40334],[-119.53532,37.40343],[-119.53609,37.40353],[-119.5364,37.40362],[-119.53671,37.40375],[-119.53686,37.40375],[-119.53741,37.40366]]}}]}