{"type":"FeatureCollection","features":[{"type":"Feature","properties":{"name":"23rd Avenue","road_class":"unclassified","surface":"unpaved","source":"Caltrans All Roads + OpenStreetMap explicit surface","source_detail":"osm way 453071612; Caltrans All Roads public-network geometry match","source_tile":"171/402","public_network_source":"Caltrans All Roads (ARNOLD/HPMS)","surface_source":"OpenStreetMap explicit surface tag","caltrans_match_coverage":1.0,"verified_length_m":16525},"geometry":{"type":"LineString","coordinates":[[-119.87897,35.97243],[-119.87895,35.97292],[-119.87877,35.97785],[-119.87881,35.97975],[-119.87876,35.98241],[-119.87867,35.99565],[-119.87864,35.99756],[-119.8786,36.00564],[-119.87859,36.00648],[-119.87858,36.0067],[-119.87859,36.00824],[-119.87854,36.01484],[-119.87846,36.01756],[-119.87839,36.02553],[-119.87828,36.03571],[-119.87828,36.03751],[-119.87819,36.04828],[-119.87819,36.04907],[-119.8782,36.04938],[-119.87822,36.04961],[-119.87824,36.04979],[-119.87825,36.04998],[-119.87825,36.05057],[-119.87827,36.05767],[-119.87831,36.06525],[-119.87823,36.07922],[-119.87825,36.0795],[-119.87828,36.08159],[-119.87847,36.09222],[-119.87847,36.10035],[-119.87839,36.10894],[-119.87838,36.11195],[-119.87846,36.11684],[-119.87848,36.11939],[-119.87848,36.1209],[-119.8785,36.12191]]}},{"type":"Feature","properties":{"name":"(unnamed public road)","road_class":"track","surface":"unpaved","source":"Caltrans All Roads + OpenStreetMap explicit surface","source_detail":"osm way 719916238; Caltrans All Roads public-network geometry match","source_tile":"172/402","public_network_source":"Caltrans All Roads (ARNOLD/HPMS)","surface_source":"OpenStreetMap explicit surface tag","caltrans_match_coverage":1.0,"verified_length_m":1201},"geometry":{"type":"LineString","coordinates":[[-119.53633,35.88054],[-119.5357,35.88054],[-119.52302,35.88053]]}},{"type":"Feature","properties":{"name":"4th Avenue","road_class":"track","surface":"unpaved","source":"Caltrans All Roads + OpenStreetMap explicit surface","source_detail":"osm way 597126743; Caltrans All Roads public-network geometry match","source_tile":"171/402","public_network_source":"Caltrans All Roads (ARNOLD/HPMS)","surface_source":"OpenStreetMap explicit surface tag","caltrans_match_coverage":1.0,"verified_length_m":1929},"geometry":{"type":"LineString","coordinates":[[-119.53793,35.86259],[-119.53792,35.86271],[-119.53792,35.86292],[-119.53788,35.86473],[-119.53787,35.86653],[-119.53783,35.86825],[-119.53781,35.86976],[-119.53785,35.87126],[-119.53785,35.87327],[-119.53789,35.8751],[-119.53789,35.87662],[-119.53792,35.8769],[-119.53792,35.87735],[-119.53787,35.8791],[-119.5379,35.87943],[-119.53791,35.8796],[-119.53788,35.87972],[-119.53781,35.87981],[-119.53777,35.87989],[-119.53777,35.88001]]}},{"type":"Feature","properties":{"name":"4th Avenue","road_class":"track","surface":"unpaved","source":"Caltrans All Roads + OpenStreetMap explicit surface","source_detail":"osm way 719908542; Caltrans All Roads public-network geometry match","source_tile":"171/402","public_network_source":"Caltrans All Roads (ARNOLD/HPMS)","surface_source":"OpenStreetMap explicit surface tag","caltrans_match_coverage":1.0,"verified_length_m":827},"geometry":{"type":"LineString","coordinates":[[-119.53791,35.88052],[-119.53794,35.8807],[-119.53793,35.88755],[-119.53791,35.8878],[-119.53769,35.88789]]}}]}