{"type":"FeatureCollection","features":[{"type":"Feature","properties":{"name":"Forest Service Route 27W23","road_class":"track","surface":"unpaved","motor_vehicle":"yes","source":"Caltrans All Roads + OpenStreetMap explicit surface","source_detail":"osm way 16226280; Caltrans All Roads public-network geometry match","source_tile":"171/407","public_network_source":"Caltrans All Roads (ARNOLD/HPMS)","surface_source":"OpenStreetMap explicit surface tag","caltrans_match_coverage":0.929,"verified_length_m":2474},"geometry":{"type":"LineString","coordinates":[[-119.73151,34.5966],[-119.73159,34.59658],[-119.73164,34.59654],[-119.73178,34.59639],[-119.7319,34.59633],[-119.73199,34.59631],[-119.73228,34.59628],[-119.73234,34.59626],[-119.73238,34.59621],[-119.73238,34.59616],[-119.73237,34.59611],[-119.73185,34.59498],[-119.73174,34.5947],[-119.73169,34.59453],[-119.73169,34.59445],[-119.73173,34.59437],[-119.73184,34.59423],[-119.73189,34.59419],[-119.73198,34.59413],[-119.7321,34.59409],[-119.73223,34.59409],[-119.73226,34.59409],[-119.73234,34.59412],[-119.73313,34.59467],[-119.73357,34.59493],[-119.73364,34.595],[-119.7337,34.59508],[-119.73373,34.59515],[-119.73374,34.59523],[-119.73373,34.59531],[-119.73368,34.59539],[-119.7336,34.59551],[-119.73356,34.59559],[-119.73354,34.59569],[-119.73356,34.59582],[-119.73364,34.59614],[-119.73373,34.59632],[-119.73389,34.59653],[-119.73396,34.59659],[-119.73406,34.59663],[-119.73416,34.59665],[-119.73427,34.59664],[-119.73443,34.59658],[-119.73471,34.59643],[-119.7348,34.59641],[-119.73494,34.5964],[-119.73502,34.59641],[-119.73513,34.59647],[-119.73519,34.59654],[-119.73539,34.59692],[-119.73547,34.597],[-119.73558,34.59706],[-119.73565,34.59708],[-119.73583,34.59709],[-119.73597,34.59713],[-119.73605,34.59718],[-119.73613,34.59725],[-119.7365,34.59767],[-119.73659,34.59784],[-119.73664,34.59797],[-119.73669,34.59804],[-119.73676,34.59808],[-119.73713,34.5982],[-119.73725,34.59825],[-119.73735,34.59833],[-119.73755,34.59852],[-119.73787,34.59868],[-119.73795,34.59875],[-119.73801,34.59884],[-119.7381,34.59927],[-119.73814,34.59935],[-119.73819,34.59938],[-119.73826,34.59939],[-119.7383,34.59937],[-119.73855,34.59923],[-119.73867,34.59919],[-119.7388,34.59918],[-119.73902,34.59922],[-119.73911,34.59926],[-119.7396,34.5995],[-119.7397,34.59957],[-119.73976,34.59963],[-119.73997,34.59971],[-119.74009,34.59978],[-119.74017,34.59988],[-119.74022,34.59996],[-119.74028,34.60001],[-119.74124,34.60041],[-119.74137,34.60048],[-119.74158,34.60061],[-119.7417,34.60065],[-119.74178,34.60066],[-119.74192,34.60064],[-119.74221,34.60055],[-119.74233,34.60055],[-119.74246,34.60057],[-119.74305,34.60077],[-119.74324,34.60081],[-119.74344,34.60084],[-119.74376,34.60086],[-119.74386,34.60087],[-119.74405,34.60093],[-119.74409,34.60097],[-119.74423,34.60121],[-119.74434,34.60131],[-119.74447,34.60142],[-119.74466,34.60154],[-119.74495,34.6017],[-119.74529,34.60192],[-119.74539,34.60195],[-119.74552,34.60197],[-119.74564,34.60197],[-119.74574,34.60195],[-119.74643,34.60169],[-119.74656,34.60161],[-119.74663,34.60154],[-119.74669,34.60146],[-119.74673,34.60135],[-119.74677,34.6011],[-119.74678,34.60106],[-119.74668,34.60084],[-119.74623,34.60078],[-119.74585,34.60078],[-119.74579,34.60078],[-119.74532,34.60073],[-119.74528,34.60072],[-119.74514,34.60069],[-119.74506,34.60063],[-119.74505,34.60063],[-119.74503,34.6006],[-119.74502,34.60051],[-119.74509,34.60049],[-119.74513,34.60052],[-119.74512,34.60057],[-119.74509,34.6006],[-119.74505,34.60063]]}},{"type":"Feature","properties":{"name":"Agua Caliente Road","road_class":"track","surface":"ground","tracktype":"grade5","source":"Caltrans All Roads + OpenStreetMap explicit surface","source_detail":"osm way 16254230; Caltrans All Roads public-network geometry match","source_tile":"171/407","public_network_source":"Caltrans All Roads (ARNOLD/HPMS)","surface_source":"OpenStreetMap explicit surface tag","caltrans_match_coverage":1.0,"verified_length_m":4303},"geometry":{"type":"LineString","coordinates":[[-119.57723,34.50851],[-119.57718,34.50877],[-119.57714,34.50894],[-119.57711,34.5091],[-119.57708,34.50928],[-119.57698,34.50983],[-119.57711,34.51006],[-119.57707,34.51032],[-119.57686,34.51053],[-119.57678,34.51065],[-119.57672,34.51079],[-119.57668,34.51092],[-119.57656,34.51136],[-119.57636,34.51197],[-119.57618,34.51251],[-119.57603,34.5128],[-119.57597,34.51291],[-119.57592,34.51307],[-119.57587,34.51321],[-119.57579,34.51328],[-119.57565,34.51333],[-119.57536,34.51335],[-119.57476,34.51342],[-119.57464,34.51345],[-119.57434,34.5135],[-119.57417,34.51355],[-119.57396,34.51363],[-119.57363,34.51377],[-119.57347,34.51387],[-119.57336,34.514],[-119.57307,34.51433],[-119.57293,34.51455],[-119.57286,34.51478],[-119.57286,34.51495],[-119.57287,34.51505],[-119.5729,34.51541],[-119.57289,34.51569],[-119.57287,34.51577],[-119.57282,34.5159],[-119.57278,34.51597],[-119.57259,34.51618],[-119.57217,34.51653],[-119.57204,34.51664],[-119.57124,34.51734],[-119.57099,34.51755],[-119.57086,34.51767],[-119.57064,34.51786],[-119.57047,34.51796],[-119.57041,34.51801],[-119.57016,34.51836],[-119.56987,34.51864],[-119.56974,34.51872],[-119.56957,34.51884],[-119.56933,34.51905],[-119.56925,34.51913],[-119.56919,34.51923],[-119.56905,34.51947],[-119.569,34.51961],[-119.56897,34.51971],[-119.56896,34.51982],[-119.56896,34.51998],[-119.56893,34.52008],[-119.56884,34.5203],[-119.56865,34.52118],[-119.56859,34.52151],[-119.56854,34.5217],[-119.56846,34.52191],[-119.56843,34.52206],[-119.56828,34.52245],[-119.56812,34.52277],[-119.5677,34.52373],[-119.5672,34.52477],[-119.56708,34.52506],[-119.56691,34.52555],[-119.56679,34.52577],[-119.56643,34.52632],[-119.56624,34.52654],[-119.5661,34.52667],[-119.56604,34.52672],[-119.56584,34.5269],[-119.5657,34.52704],[-119.56543,34.52747],[-119.56539,34.52762],[-119.56534,34.52778],[-119.56533,34.52837],[-119.5653,34.52857],[-119.56526,34.52874],[-119.56522,34.52887],[-119.56519,34.52902],[-119.56521,34.52917],[-119.56536,34.52948],[-119.56552,34.52976],[-119.56559,34.52997],[-119.5656,34.53015],[-119.56575,34.53071],[-119.5658,34.53092],[-119.56609,34.53165],[-119.56627,34.5324],[-119.56629,34.53252],[-119.56629,34.53264],[-119.56628,34.53269],[-119.56624,34.53274],[-119.56619,34.53278],[-119.56613,34.53281],[-119.56607,34.53282],[-119.56594,34.53282],[-119.56581,34.5328],[-119.56527,34.53261],[-119.56497,34.53254],[-119.5645,34.53246],[-119.56433,34.53244],[-119.56418,34.53244],[-119.56406,34.53246],[-119.56395,34.53249],[-119.56384,34.53254],[-119.56374,34.53261],[-119.56353,34.53287],[-119.56342,34.53308],[-119.5634,34.5333],[-119.56344,34.53367],[-119.56348,34.53383],[-119.56356,34.53417],[-119.56353,34.53434],[-119.5634,34.53459],[-119.56339,34.53462],[-119.56325,34.53489],[-119.56322,34.53497],[-119.56317,34.53517],[-119.56327,34.53547],[-119.56327,34.53549],[-119.56328,34.5355],[-119.56332,34.53565],[-119.56333,34.53567],[-119.56342,34.53588],[-119.56356,34.53607],[-119.56377,34.53631],[-119.56376,34.53646],[-119.56375,34.53652],[-119.56379,34.53664],[-119.5641,34.53691],[-119.56433,34.53706],[-119.56454,34.53725],[-119.56461,34.53734],[-119.5649,34.53764],[-119.56518,34.53798],[-119.56528,34.53813],[-119.56532,34.5382],[-119.56538,34.53844],[-119.56541,34.53851],[-119.56547,34.53859],[-119.56554,34.53872],[-119.56556,34.53877],[-119.56554,34.53885],[-119.56551,34.53891],[-119.56537,34.53902],[-119.56529,34.53906],[-119.56505,34.53913],[-119.56483,34.5392],[-119.56475,34.5392],[-119.56465,34.53919],[-119.56445,34.53917],[-119.56429,34.53916],[-119.56394,34.53922],[-119.5638,34.53925]]}},{"type":"Feature","properties":{"name":"Forest Route 5N18","road_class":"track","surface":"dirt","tracktype":"grade1","source":"Caltrans All Roads + OpenStreetMap explicit surface","source_detail":"osm way 16258899; Caltrans All Roads public-network geometry match","source_tile":"171/407","public_network_source":"Caltrans All Roads (ARNOLD/HPMS)","surface_source":"OpenStreetMap explicit surface tag","caltrans_match_coverage":1.0,"verified_length_m":4595},"geometry":{"type":"LineString","coordinates":[[-119.68814,34.52253],[-119.68805,34.52224],[-119.68808,34.52215],[-119.68809,34.52211],[-119.68809,34.52206],[-119.68803,34.52202],[-119.688,34.52196],[-119.68798,34.52189],[-119.68799,34.52182],[-119.68802,34.52173],[-119.68825,34.52145],[-119.6883,34.52135],[-119.68833,34.52124],[-119.68833,34.52117],[-119.68831,34.52105],[-119.68831,34.52097],[-119.68832,34.52094],[-119.68836,34.5209],[-119.6884,34.52089],[-119.68845,34.5209],[-119.6885,34.52098],[-119.68855,34.52125],[-119.68856,34.52137],[-119.68854,34.52145],[-119.68846,34.52165],[-119.68843,34.52175],[-119.68843,34.52181],[-119.68846,34.52184],[-119.68851,34.52188],[-119.68865,34.5219],[-119.68869,34.52191],[-119.68879,34.52189],[-119.68889,34.52183],[-119.68907,34.52162],[-119.68913,34.52158],[-119.68918,34.52154],[-119.68938,34.52145],[-119.68954,34.5214],[-119.68981,34.52134],[-119.6903,34.5212],[-119.69041,34.52116],[-119.69056,34.52112],[-119.69084,34.52108],[-119.69093,34.52106],[-119.69096,34.52105],[-119.69141,34.52089],[-119.6915,34.52087],[-119.69161,34.52085],[-119.6917,34.52085],[-119.69213,34.5209],[-119.69255,34.52095],[-119.69289,34.52105],[-119.69327,34.52122],[-119.6934,34.52132],[-119.69352,34.52132],[-119.69368,34.52132],[-119.69378,34.52136],[-119.69381,34.52144],[-119.69387,34.52156],[-119.694,34.52169],[-119.69418,34.52186],[-119.69455,34.52217],[-119.69463,34.52225],[-119.69468,34.52234],[-119.6947,34.52248],[-119.69468,34.52258],[-119.69467,34.52267],[-119.69468,34.52277],[-119.69484,34.52311],[-119.69488,34.52318],[-119.69493,34.52322],[-119.69502,34.52327],[-119.6953,34.52332],[-119.69541,34.52336],[-119.69577,34.52356],[-119.69582,34.52362],[-119.69584,34.52371],[-119.69582,34.5238],[-119.69578,34.52388],[-119.69566,34.524],[-119.69562,34.52411],[-119.69561,34.52421],[-119.69559,34.5243],[-119.69559,34.52436],[-119.69563,34.52446],[-119.69567,34.5245],[-119.69579,34.52452],[-119.69586,34.52452],[-119.69602,34.52444],[-119.69619,34.52432],[-119.69638,34.52427],[-119.69656,34.52425],[-119.69669,34.52423],[-119.69686,34.52421],[-119.69694,34.52422],[-119.69704,34.52427],[-119.6971,34.52432],[-119.69725,34.52457],[-119.69731,34.52462],[-119.69736,34.52466],[-119.69744,34.52469],[-119.69757,34.52471],[-119.69767,34.5247],[-119.69782,34.52464],[-119.69797,34.5246],[-119.69808,34.52459],[-119.6982,34.5246],[-119.69832,34.52463],[-119.69852,34.52471],[-119.69886,34.5249],[-119.69903,34.52495],[-119.69914,34.52495],[-119.69929,34.52493],[-119.69936,34.52491],[-119.69947,34.52491],[-119.69956,34.52491],[-119.69973,34.525],[-119.6999,34.52512],[-119.70047,34.52537],[-119.70068,34.52541],[-119.70117,34.52529],[-119.70127,34.52526],[-119.70136,34.52526],[-119.7015,34.52528],[-119.70189,34.52538],[-119.70203,34.52544],[-119.70212,34.52551],[-119.70218,34.52557],[-119.70225,34.52566],[-119.70231,34.52577],[-119.70241,34.52588],[-119.70257,34.526],[-119.70286,34.52617],[-119.70309,34.52629],[-119.70326,34.52642],[-119.70334,34.52651],[-119.7035,34.52663],[-119.70365,34.5267],[-119.7038,34.52675],[-119.70406,34.5268],[-119.70423,34.52692],[-119.70435,34.52703],[-119.70448,34.5273],[-119.70475,34.52773],[-119.70488,34.5279],[-119.70496,34.52793],[-119.70543,34.52803],[-119.70561,34.52804],[-119.70581,34.52808],[-119.70606,34.5282],[-119.70645,34.52853],[-119.70668,34.52876],[-119.70684,34.52889],[-119.70699,34.52899],[-119.70736,34.52912],[-119.70756,34.52919],[-119.70764,34.52928],[-119.70765,34.52937],[-119.70761,34.52945],[-119.70748,34.52959],[-119.70724,34.52973],[-119.70715,34.52979],[-119.70711,34.52988],[-119.70703,34.52998],[-119.70691,34.53021],[-119.70682,34.53033],[-119.7067,34.53043],[-119.70656,34.53052],[-119.70636,34.53062],[-119.70612,34.53078],[-119.70593,34.53095],[-119.70571,34.53119],[-119.70561,34.53137],[-119.7055,34.53168],[-119.70551,34.53181],[-119.70555,34.53192],[-119.70564,34.53204],[-119.70576,34.53217],[-119.7059,34.53228],[-119.706,34.53235],[-119.70608,34.53244],[-119.70618,34.53257],[-119.70624,34.53271],[-119.70635,34.53285],[-119.70646,34.53298],[-119.70666,34.5331],[-119.70677,34.5332],[-119.707,34.53347],[-119.70713,34.5336],[-119.70734,34.53376],[-119.70743,34.53379],[-119.70755,34.53379],[-119.70765,34.53377],[-119.70781,34.5337],[-119.70862,34.53328],[-119.7087,34.53326],[-119.70879,34.53326],[-119.70885,34.53328],[-119.70888,34.53335],[-119.70888,34.53341],[-119.70885,34.53348],[-119.70868,34.53372],[-119.70864,34.53381],[-119.7086,34.53393],[-119.70855,34.534],[-119.70854,34.53419],[-119.70872,34.53453],[-119.70877,34.53471],[-119.70876,34.5348],[-119.70873,34.53489],[-119.70844,34.53531],[-119.70839,34.53541],[-119.70832,34.53552],[-119.70832,34.53557],[-119.70834,34.53567],[-119.70842,34.53579],[-119.7085,34.53595],[-119.70861,34.5361],[-119.70862,34.53616],[-119.70861,34.53622],[-119.70854,34.53629],[-119.70841,34.53638],[-119.70825,34.53645],[-119.70811,34.53654],[-119.70798,34.5366],[-119.70788,34.53668],[-119.70787,34.53675],[-119.70789,34.5368],[-119.70794,34.53684],[-119.70813,34.53688],[-119.70828,34.53686],[-119.70833,34.53683],[-119.70838,34.53678],[-119.70848,34.53659],[-119.70859,34.5365],[-119.70869,34.53646],[-119.70885,34.5364],[-119.70891,34.53637],[-119.70896,34.5363],[-119.70898,34.53623],[-119.70896,34.53615],[-119.70889,34.53599],[-119.70886,34.53587],[-119.70887,34.53573],[-119.70896,34.53572],[-119.70918,34.53572],[-119.70932,34.53573],[-119.70948,34.53572],[-119.70963,34.53568],[-119.70978,34.53562],[-119.70985,34.53557],[-119.70992,34.53549],[-119.71,34.53537],[-119.71006,34.53521],[-119.71009,34.53505],[-119.71013,34.53499],[-119.71018,34.53492],[-119.7103,34.53489],[-119.71042,34.53489],[-119.71048,34.53491],[-119.71052,34.53495],[-119.71055,34.53502],[-119.71052,34.5351],[-119.71043,34.53517],[-119.71037,34.53521],[-119.71028,34.53526],[-119.71022,34.53532],[-119.71019,34.53539],[-119.71017,34.5355],[-119.7102,34.53555],[-119.71025,34.53557],[-119.71034,34.53558],[-119.71041,34.53558],[-119.71051,34.53554],[-119.71066,34.53541],[-119.71074,34.53532],[-119.71083,34.53521],[-119.71092,34.53511],[-119.71117,34.53484],[-119.7115,34.53443],[-119.71156,34.53435],[-119.71177,34.53415],[-119.71188,34.53408]]}},{"type":"Feature","properties":{"name":"Forest Service Route 5N15","road_class":"track","surface":"unpaved","motor_vehicle":"yes","access":"yes","source":"Caltrans All Roads + OpenStreetMap explicit surface","source_detail":"osm way 130713856; Caltrans All Roads public-network geometry match","source_tile":"171/407","public_network_source":"Caltrans All Roads (ARNOLD/HPMS)","surface_source":"OpenStreetMap explicit surface tag","caltrans_match_coverage":1.0,"verified_length_m":6575},"geometry":{"type":"LineString","coordinates":[[-119.77117,34.55766],[-119.77124,34.55792],[-119.77129,34.55811],[-119.7713,34.55826],[-119.77129,34.55841],[-119.77127,34.55855],[-119.77122,34.55869],[-119.77103,34.55908],[-119.77094,34.55934],[-119.7709,34.55956],[-119.77089,34.55973],[-119.77084,34.55994],[-119.77078,34.56006],[-119.77071,34.56018],[-119.77063,34.56029],[-119.77053,34.56039],[-119.77042,34.56049],[-119.7703,34.56057],[-119.77016,34.56064],[-119.77,34.56071],[-119.76989,34.56078],[-119.76982,34.56084],[-119.76978,34.5609],[-119.76964,34.56106],[-119.76946,34.5613],[-119.76937,34.56203],[-119.76936,34.56237],[-119.7693,34.56245],[-119.7691,34.56264],[-119.76904,34.5627],[-119.76901,34.56278],[-119.76902,34.56283],[-119.76924,34.56309],[-119.76927,34.56315],[-119.76922,34.56332],[-119.76916,34.56337],[-119.76909,34.56339],[-119.76903,34.5634],[-119.76897,34.56339],[-119.7689,34.56335],[-119.76879,34.56326],[-119.7687,34.56323],[-119.76864,34.56319],[-119.76855,34.56321],[-119.76841,34.56325],[-119.76832,34.56338],[-119.76804,34.56361],[-119.76762,34.56405],[-119.76751,34.56418],[-119.76744,34.56425],[-119.76729,34.56435],[-119.76711,34.56439],[-119.76701,34.56444],[-119.76684,34.56455],[-119.76671,34.5646],[-119.76642,34.56469],[-119.76586,34.56483],[-119.76577,34.56484],[-119.7657,34.56482],[-119.76565,34.56478],[-119.76568,34.56472],[-119.7658,34.56465],[-119.76595,34.56466],[-119.76622,34.5646],[-119.76634,34.56456],[-119.76645,34.56449],[-119.76653,34.56441],[-119.76666,34.56426],[-119.76672,34.56421],[-119.76689,34.5641],[-119.76706,34.56396],[-119.76714,34.56388],[-119.76713,34.56384],[-119.76712,34.56383],[-119.76708,34.56383],[-119.767,34.56386],[-119.76686,34.56395],[-119.76676,34.564],[-119.76666,34.56403],[-119.76655,34.56406],[-119.76647,34.56395],[-119.76651,34.56386],[-119.76664,34.5638],[-119.76672,34.56374],[-119.76677,34.56368],[-119.7668,34.56342],[-119.76682,34.56327],[-119.76684,34.5632],[-119.76688,34.56314],[-119.76693,34.56307],[-119.76704,34.563],[-119.76704,34.56294],[-119.767,34.56289],[-119.76695,34.56287],[-119.76689,34.56288],[-119.76681,34.56292],[-119.76677,34.56297],[-119.76669,34.56311],[-119.76661,34.56318],[-119.76657,34.56319],[-119.76653,34.56318],[-119.7665,34.56317],[-119.7665,34.56309],[-119.76655,34.56297],[-119.76664,34.56272],[-119.7668,34.56251],[-119.76687,34.56244],[-119.76721,34.56236],[-119.76734,34.56227],[-119.76735,34.56217],[-119.76727,34.56209],[-119.76712,34.56197],[-119.76702,34.56186],[-119.76699,34.56178],[-119.76698,34.56174],[-119.76687,34.56135],[-119.76686,34.5613],[-119.76681,34.56122],[-119.76677,34.56117],[-119.76657,34.56101],[-119.7665,34.5609],[-119.76649,34.56079],[-119.7665,34.56075],[-119.76653,34.56068],[-119.7666,34.56062],[-119.76664,34.56059],[-119.76678,34.56054],[-119.76688,34.56049],[-119.76704,34.56036],[-119.76708,34.56033],[-119.76717,34.56032],[-119.76723,34.56033],[-119.76731,34.56035],[-119.76753,34.56047],[-119.76759,34.56047],[-119.76764,34.56045],[-119.76766,34.56041],[-119.76766,34.56038],[-119.76765,34.56035],[-119.76751,34.56026],[-119.76736,34.56019],[-119.76712,34.56011],[-119.76701,34.56004],[-119.76694,34.55997],[-119.7669,34.55992],[-119.76681,34.55967],[-119.76676,34.5596],[-119.7667,34.55956],[-119.76657,34.55952],[-119.76647,34.55953],[-119.7663,34.55959],[-119.76593,34.55975],[-119.76574,34.55985],[-119.76569,34.55989],[-119.7656,34.55999],[-119.76557,34.56006],[-119.76555,34.56012],[-119.76547,34.5605],[-119.76544,34.56073],[-119.76541,34.56116],[-119.76537,34.56123],[-119.76535,34.56127],[-119.76529,34.56133],[-119.76522,34.56142],[-119.76508,34.56169],[-119.76493,34.56191],[-119.76484,34.56203],[-119.76458,34.56226],[-119.76447,34.5623],[-119.76436,34.56232],[-119.76417,34.56232],[-119.76344,34.5623],[-119.76336,34.56228],[-119.76319,34.56221],[-119.76314,34.5622],[-119.76305,34.56222],[-119.76281,34.56238],[-119.76272,34.56245],[-119.76264,34.56258],[-119.7626,34.56261],[-119.7625,34.56264],[-119.76243,34.56264],[-119.76229,34.56254],[-119.76208,34.56242],[-119.76202,34.56237],[-119.76199,34.5623],[-119.76196,34.56219],[-119.76192,34.56215],[-119.76175,34.56208],[-119.7617,34.56203],[-119.7616,34.56182],[-119.76156,34.56178],[-119.76147,34.56172],[-119.76141,34.5617],[-119.7613,34.56168],[-119.76097,34.56168],[-119.76093,34.56167],[-119.76071,34.56158],[-119.76053,34.56146],[-119.76027,34.56126],[-119.76009,34.56118],[-119.76001,34.56116],[-119.75986,34.56113],[-119.75959,34.56114],[-119.75954,34.56113],[-119.75942,34.56109],[-119.75933,34.5611],[-119.75924,34.56114],[-119.75904,34.56131],[-119.75897,34.56134],[-119.7589,34.56135],[-119.75882,34.56134],[-119.75876,34.56131],[-119.75862,34.56123],[-119.75809,34.5608],[-119.75799,34.56076],[-119.75783,34.56071],[-119.75765,34.5607],[-119.75759,34.5607],[-119.7575,34.56074],[-119.75743,34.56081],[-119.75729,34.56105],[-119.75723,34.56121],[-119.75717,34.5613],[-119.75708,34.56139],[-119.757,34.56144],[-119.75697,34.56149],[-119.75695,34.56173],[-119.7569,34.56179],[-119.75683,34.56182],[-119.75663,34.56185],[-119.75655,34.56183],[-119.75643,34.56175],[-119.75635,34.56173],[-119.75603,34.56169],[-119.75553,34.56159],[-119.75543,34.56159],[-119.75525,34.56161],[-119.75515,34.56165],[-119.75508,34.56172],[-119.75503,34.56181],[-119.75475,34.56206],[-119.75464,34.56212],[-119.75451,34.56215],[-119.75439,34.5622],[-119.75432,34.56226],[-119.75394,34.56274],[-119.75387,34.56279],[-119.7538,34.56281],[-119.75372,34.56282],[-119.75335,34.56272],[-119.75297,34.56258],[-119.75285,34.56251],[-119.75272,34.56245],[-119.75248,34.5624],[-119.75235,34.5624],[-119.75221,34.56245],[-119.75211,34.56252],[-119.75192,34.56273],[-119.75158,34.56304],[-119.75147,34.56309],[-119.75134,34.56311],[-119.75121,34.56309],[-119.75117,34.56308],[-119.75099,34.56296],[-119.75088,34.56293],[-119.75077,34.56293],[-119.7505,34.56298],[-119.75036,34.56302],[-119.75021,34.5631],[-119.75014,34.56318],[-119.75003,34.56324],[-119.74994,34.56326],[-119.74944,34.56334],[-119.74934,34.56334],[-119.74924,34.56331],[-119.74916,34.56326],[-119.74908,34.56313],[-119.74902,34.56299],[-119.74903,34.56291],[-119.74908,34.56284],[-119.74918,34.56276],[-119.74925,34.56265],[-119.74938,34.56236],[-119.74937,34.56229],[-119.74932,34.56222],[-119.74924,34.56217],[-119.74906,34.56214],[-119.74894,34.56216],[-119.74888,34.56224],[-119.74883,34.56251],[-119.74878,34.5626],[-119.74871,34.56268],[-119.74862,34.56275],[-119.74851,34.5628],[-119.7484,34.56283],[-119.74777,34.56289],[-119.7477,34.56292],[-119.74767,34.56297],[-119.74766,34.56305],[-119.74772,34.56311],[-119.74788,34.56321],[-119.74796,34.56328],[-119.74813,34.56371],[-119.74825,34.56398],[-119.74826,34.56405],[-119.74823,34.56412],[-119.74819,34.56418],[-119.7481,34.56423],[-119.74768,34.56446],[-119.74752,34.56452],[-119.74747,34.56456],[-119.74745,34.56463],[-119.74746,34.56468],[-119.74752,34.56471],[-119.74777,34.56477],[-119.74784,34.56484],[-119.74786,34.56492],[-119.74786,34.565],[-119.74778,34.56539],[-119.74774,34.56571],[-119.74775,34.56597],[-119.74772,34.56609],[-119.74767,34.56616],[-119.7476,34.56622],[-119.74756,34.56625],[-119.74702,34.56651],[-119.74683,34.56656],[-119.74665,34.56659],[-119.74653,34.56659],[-119.74638,34.56657],[-119.74627,34.56658],[-119.74618,34.56662],[-119.74612,34.56668],[-119.74608,34.56675],[-119.74597,34.56705],[-119.7459,34.56733],[-119.74584,34.5674],[-119.74576,34.56746],[-119.74567,34.56749],[-119.74562,34.56749],[-119.74557,34.56748],[-119.7454,34.5673],[-119.74532,34.56726],[-119.74517,34.56722],[-119.745,34.56721],[-119.7447,34.56716],[-119.74452,34.56718],[-119.7443,34.56721],[-119.74415,34.5672],[-119.74399,34.56718],[-119.74388,34.56719],[-119.74371,34.56722],[-119.7436,34.56727],[-119.74347,34.56731],[-119.74335,34.56734],[-119.74309,34.56737],[-119.74301,34.56741],[-119.74292,34.56749],[-119.7428,34.56759],[-119.74256,34.56773],[-119.74247,34.5678],[-119.74223,34.56803],[-119.74215,34.56807],[-119.74209,34.56808],[-119.74205,34.56806],[-119.74204,34.56804],[-119.74201,34.56792],[-119.74202,34.5678],[-119.74193,34.56705],[-119.74189,34.567],[-119.74183,34.56698],[-119.74176,34.56698],[-119.74167,34.56703],[-119.74162,34.5671],[-119.7416,34.56733],[-119.74165,34.56754],[-119.74169,34.56763],[-119.7417,34.56774],[-119.74167,34.56784],[-119.74164,34.56788],[-119.74127,34.56816],[-119.74107,34.56828],[-119.7409,34.56835],[-119.74073,34.5684],[-119.74038,34.56846],[-119.7403,34.5685],[-119.74027,34.56853],[-119.73995,34.56898],[-119.7399,34.56907],[-119.73981,34.56914],[-119.73971,34.56918],[-119.73965,34.5692],[-119.73943,34.56919],[-119.73939,34.56917],[-119.73933,34.56915],[-119.73912,34.56903],[-119.73896,34.56893],[-119.73877,34.56882],[-119.7387,34.56877],[-119.73859,34.56874],[-119.73854,34.56873],[-119.73848,34.56872],[-119.73833,34.56872],[-119.73818,34.56872],[-119.73807,34.56868],[-119.73798,34.56864],[-119.73792,34.56857],[-119.73784,34.56848],[-119.73781,34.56845],[-119.73776,34.56841],[-119.73769,34.5684],[-119.73766,34.56839],[-119.73747,34.56838],[-119.73716,34.56843],[-119.73694,34.56854],[-119.73682,34.56859],[-119.7367,34.56863],[-119.73656,34.56866],[-119.73635,34.56869],[-119.73607,34.56873]]}},{"type":"Feature","properties":{"name":"East Camino Cielo Road","road_class":"track","surface":"unpaved","tracktype":"grade3","source":"Caltrans All Roads + OpenStreetMap explicit surface","source_detail":"osm way 134319018; Caltrans All Roads public-network geometry match","source_tile":"171/407","public_network_source":"Caltrans All Roads (ARNOLD/HPMS)","surface_source":"OpenStreetMap explicit surface tag","caltrans_match_coverage":1.0,"verified_length_m":2074},"geometry":{"type":"LineString","coordinates":[[-119.59533,34.47626],[-119.59534,34.47635],[-119.59537,34.47655],[-119.59538,34.47673],[-119.59538,34.47693],[-119.59545,34.47717],[-119.59548,34.47734],[-119.59546,34.47741],[-119.59543,34.47745],[-119.59533,34.47749],[-119.59519,34.47748],[-119.59504,34.47745],[-119.59496,34.47743],[-119.59487,34.47743],[-119.59481,34.47743],[-119.59473,34.47745],[-119.59461,34.47749],[-119.5944,34.47755],[-119.59421,34.47756],[-119.59384,34.47756],[-119.59372,34.47759],[-119.59362,34.47762],[-119.59354,34.47766],[-119.59346,34.47772],[-119.59336,34.47781],[-119.59332,34.4779],[-119.59328,34.47797],[-119.59324,34.47802],[-119.59321,34.47808],[-119.59318,34.47811],[-119.59311,34.47814],[-119.59294,34.47814],[-119.59284,34.47814],[-119.59274,34.47816],[-119.59267,34.4782],[-119.5925,34.47834],[-119.59244,34.47836],[-119.59239,34.47837],[-119.59229,34.47836],[-119.59212,34.47831],[-119.59179,34.47823],[-119.5916,34.47823],[-119.59151,34.47824],[-119.5912,34.47834],[-119.59113,34.47839],[-119.59109,34.47844],[-119.59106,34.47848],[-119.59102,34.47862],[-119.591,34.47867],[-119.59097,34.4787],[-119.59092,34.47873],[-119.59086,34.47874],[-119.59065,34.47876],[-119.59056,34.47878],[-119.59041,34.47884],[-119.5903,34.4789],[-119.59019,34.47898],[-119.59009,34.47899],[-119.58993,34.47899],[-119.58985,34.47902],[-119.58976,34.47909],[-119.58973,34.47912],[-119.58972,34.47922],[-119.58971,34.47936],[-119.58968,34.47952],[-119.58965,34.47977],[-119.58959,34.47995],[-119.58953,34.48002],[-119.58939,34.48011],[-119.5893,34.48014],[-119.58905,34.48019],[-119.58853,34.48027],[-119.58841,34.48029],[-119.5883,34.48033],[-119.58802,34.48044],[-119.58783,34.48051],[-119.58767,34.48052],[-119.58757,34.48053],[-119.58742,34.48051],[-119.58713,34.48048],[-119.58687,34.48043],[-119.58639,34.4803],[-119.58624,34.48026],[-119.58597,34.48007],[-119.58581,34.47998],[-119.58571,34.47991],[-119.58563,34.47985],[-119.58549,34.47976],[-119.58543,34.47974],[-119.58536,34.47974],[-119.58531,34.47976],[-119.58526,34.47979],[-119.58522,34.47985],[-119.58517,34.47994],[-119.58513,34.48005],[-119.58511,34.48024],[-119.58509,34.48027],[-119.58506,34.4803],[-119.58499,34.48034],[-119.58486,34.48038],[-119.58459,34.48043],[-119.58434,34.48046],[-119.58411,34.48046],[-119.58385,34.48045],[-119.58374,34.48046],[-119.5836,34.48051],[-119.58334,34.48057],[-119.58301,34.48069],[-119.58208,34.4811],[-119.5819,34.48119],[-119.58166,34.48128],[-119.58152,34.48132],[-119.58131,34.48129],[-119.5811,34.48116],[-119.581,34.48104],[-119.58092,34.48095],[-119.58086,34.48089],[-119.5808,34.48087],[-119.58075,34.48085],[-119.58067,34.48083],[-119.58052,34.48082],[-119.58038,34.48083],[-119.58011,34.4809],[-119.57997,34.48092],[-119.57985,34.48091],[-119.57971,34.48089],[-119.57932,34.48079],[-119.57912,34.48072],[-119.57905,34.48069],[-119.57902,34.48066],[-119.57898,34.48064],[-119.57893,34.48063],[-119.57889,34.48064],[-119.57883,34.48068],[-119.57872,34.48084],[-119.57866,34.4809],[-119.5786,34.48096],[-119.57839,34.48108],[-119.57833,34.4811],[-119.57827,34.48111],[-119.57811,34.48109],[-119.5779,34.48096]]}},{"type":"Feature","properties":{"name":"Hildreth Peak Road","road_class":"track","surface":"gravel","tracktype":"grade2","source":"Caltrans All Roads + OpenStreetMap explicit surface","source_detail":"osm way 134335388; Caltrans All Roads public-network geometry match","source_tile":"171/407","public_network_source":"Caltrans All Roads (ARNOLD/HPMS)","surface_source":"OpenStreetMap explicit surface tag","caltrans_match_coverage":1.0,"verified_length_m":7779},"geometry":{"type":"LineString","coordinates":[[-119.59084,34.51456],[-119.59082,34.51465],[-119.59078,34.51471],[-119.59065,34.51471],[-119.59041,34.51461],[-119.59007,34.5144],[-119.5894,34.51418],[-119.58905,34.51411],[-119.58849,34.51403],[-119.58833,34.51397],[-119.58808,34.51373],[-119.58797,34.51366],[-119.5878,34.51368],[-119.58748,34.51402],[-119.58734,34.51423],[-119.58728,34.51434],[-119.58724,34.51442],[-119.58731,34.51466],[-119.58736,34.51473],[-119.58753,34.51491],[-119.5876,34.515],[-119.58767,34.5152],[-119.58772,34.51525],[-119.58782,34.5153],[-119.5879,34.51534],[-119.58792,34.51537],[-119.58791,34.51547],[-119.58786,34.51558],[-119.5878,34.51566],[-119.58776,34.51568],[-119.5877,34.51569],[-119.58757,34.51567],[-119.58748,34.51569],[-119.5873,34.51576],[-119.58714,34.5158],[-119.58708,34.51581],[-119.58696,34.51591],[-119.58689,34.51599],[-119.58688,34.51609],[-119.58687,34.51617],[-119.58691,34.51625],[-119.58709,34.5165],[-119.58721,34.51668],[-119.58729,34.51686],[-119.58735,34.51694],[-119.58759,34.51712],[-119.58768,34.5172],[-119.58772,34.51729],[-119.58776,34.51742],[-119.58773,34.51767],[-119.58768,34.51788],[-119.5877,34.5182],[-119.58773,34.51833],[-119.58774,34.51844],[-119.58779,34.51857],[-119.58778,34.51868],[-119.58774,34.51877],[-119.58752,34.51882],[-119.58734,34.51882],[-119.58695,34.51876],[-119.58686,34.51877],[-119.58678,34.51879],[-119.5867,34.51884],[-119.58663,34.5189],[-119.58656,34.51896],[-119.58646,34.51907],[-119.58644,34.51915],[-119.58646,34.51941],[-119.58641,34.51974],[-119.58637,34.51986],[-119.58631,34.51993],[-119.58626,34.51998],[-119.58611,34.52004],[-119.58598,34.52008],[-119.58591,34.52013],[-119.58588,34.52018],[-119.58588,34.52025],[-119.58592,34.52042],[-119.58599,34.52057],[-119.58599,34.52067],[-119.58596,34.52083],[-119.58589,34.52099],[-119.58584,34.52106],[-119.58564,34.5212],[-119.58558,34.52127],[-119.58555,34.52134],[-119.58554,34.52139],[-119.58554,34.52156],[-119.58552,34.52176],[-119.58548,34.52185],[-119.58541,34.52192],[-119.58525,34.52204],[-119.58513,34.52208],[-119.58499,34.5221],[-119.58468,34.52214],[-119.58449,34.52218],[-119.58403,34.52233],[-119.58389,34.52242],[-119.58381,34.52251],[-119.58376,34.5226],[-119.58371,34.52275],[-119.58363,34.52289],[-119.58352,34.52297],[-119.58317,34.5232],[-119.5831,34.52326],[-119.58306,34.52332],[-119.58292,34.52381],[-119.58291,34.52389],[-119.58294,34.52398],[-119.58304,34.52414],[-119.58311,34.52421],[-119.58315,34.52428],[-119.58315,34.52441],[-119.58313,34.52458],[-119.58307,34.52474],[-119.58297,34.52494],[-119.58273,34.52534],[-119.58256,34.5256],[-119.58217,34.52608],[-119.5821,34.52613],[-119.58199,34.52617],[-119.58109,34.52633],[-119.5807,34.52644],[-119.58053,34.52648],[-119.58038,34.52655],[-119.58025,34.52665],[-119.58017,34.52674],[-119.5799,34.5271],[-119.57981,34.52716],[-119.57972,34.52723],[-119.57961,34.52734],[-119.57945,34.52751],[-119.57938,34.52759],[-119.57933,34.52775],[-119.57931,34.52791],[-119.57932,34.52799],[-119.57936,34.52823],[-119.57936,34.52837],[-119.57937,34.5286],[-119.57937,34.52885],[-119.57943,34.52919],[-119.57953,34.52943],[-119.57955,34.52947],[-119.57954,34.52963],[-119.57945,34.5299],[-119.57945,34.53],[-119.57947,34.5301],[-119.57953,34.53022],[-119.57994,34.53074],[-119.58001,34.53085],[-119.58009,34.53096],[-119.58014,34.53099],[-119.58025,34.53105],[-119.58034,34.53108],[-119.5804,34.5311],[-119.58048,34.53117],[-119.58053,34.53125],[-119.58059,34.53141],[-119.58063,34.53157],[-119.58065,34.53162],[-119.58076,34.53182],[-119.58083,34.53203],[-119.58098,34.53235],[-119.58102,34.53246],[-119.58103,34.53257],[-119.58102,34.53267],[-119.58099,34.5328],[-119.58093,34.53291],[-119.58089,34.53296],[-119.58084,34.53298],[-119.58073,34.53307],[-119.58071,34.5331],[-119.58071,34.53315],[-119.58075,34.53327],[-119.58088,34.53339],[-119.58169,34.53396],[-119.58176,34.53399],[-119.58226,34.53412],[-119.58251,34.53415],[-119.58261,34.53419],[-119.58265,34.53423],[-119.58272,34.53433],[-119.58278,34.53451],[-119.58296,34.53475],[-119.58315,34.53503],[-119.58322,34.53518],[-119.5833,34.53534],[-119.5835,34.5358],[-119.58358,34.53603],[-119.58371,34.53629],[-119.58377,34.53638],[-119.58386,34.53648],[-119.58412,34.5367],[-119.58439,34.53697],[-119.58455,34.53708],[-119.58465,34.53712],[-119.58476,34.53718],[-119.58501,34.53741],[-119.58529,34.5377],[-119.58536,34.53784],[-119.58536,34.5379],[-119.58531,34.53803],[-119.58526,34.53813],[-119.58518,34.53837],[-119.58509,34.53857],[-119.58509,34.53862],[-119.58502,34.53873],[-119.5849,34.53889],[-119.58482,34.53903],[-119.58482,34.53906],[-119.58483,34.5391],[-119.58491,34.53914],[-119.58501,34.53917],[-119.58508,34.53921],[-119.58513,34.53929],[-119.58526,34.53954],[-119.5854,34.53986],[-119.58542,34.53994],[-119.58544,34.54004],[-119.58542,34.54012],[-119.58539,34.54017],[-119.58537,34.54023],[-119.58537,34.54029],[-119.58542,34.54044],[-119.58554,34.54069],[-119.58556,34.54078],[-119.58557,34.54092],[-119.58559,34.54111],[-119.58562,34.54119],[-119.58569,34.5413],[-119.58584,34.54149],[-119.58587,34.54154],[-119.58589,34.54163],[-119.58589,34.54177],[-119.58585,34.54194],[-119.58584,34.54219],[-119.58582,34.54235],[-119.58577,34.54243],[-119.58564,34.54252],[-119.58533,34.54282],[-119.58515,34.543],[-119.58513,34.54303],[-119.58514,34.54314],[-119.58522,34.54329],[-119.58535,34.54344],[-119.58538,34.54351],[-119.5854,34.54371],[-119.58545,34.54383],[-119.58545,34.54389],[-119.58539,34.54403],[-119.58538,34.5443],[-119.5853,34.54458],[-119.58524,34.54471],[-119.58518,34.5448],[-119.58508,34.5449],[-119.58498,34.5451],[-119.58495,34.54515],[-119.58484,34.54527],[-119.58482,34.54533],[-119.58477,34.54572],[-119.58471,34.54589],[-119.58469,34.54597],[-119.5847,34.54603],[-119.58473,34.54611],[-119.58478,34.54619],[-119.58486,34.54626],[-119.58513,34.54639],[-119.58526,34.54647],[-119.58535,34.54651],[-119.58557,34.54653],[-119.58577,34.54653],[-119.58584,34.54657],[-119.58585,34.5466],[-119.58585,34.54664],[-119.58583,34.54674],[-119.58559,34.54712],[-119.58557,34.5472],[-119.58554,34.54738],[-119.58556,34.54751],[-119.58558,34.54757],[-119.58562,34.54762],[-119.58579,34.54769],[-119.58588,34.54772],[-119.58607,34.54782],[-119.58612,34.54788],[-119.58616,34.54796],[-119.58617,34.54801],[-119.58616,34.54807],[-119.58622,34.54819],[-119.5866,34.54855],[-119.58669,34.54861],[-119.58676,34.54863],[-119.5868,34.54863],[-119.58688,34.54862],[-119.58713,34.54855],[-119.58724,34.54854],[-119.58731,34.54856],[-119.58743,34.54861],[-119.58762,34.54864],[-119.58773,34.5487],[-119.58782,34.54875],[-119.58786,34.54879],[-119.5879,34.54881],[-119.58799,34.54883],[-119.58805,34.54884],[-119.58841,34.54876],[-119.58845,34.54877],[-119.58848,34.5488],[-119.58847,34.54884],[-119.58844,34.54889],[-119.58838,34.54893],[-119.58819,34.54898],[-119.58814,34.54902],[-119.58812,34.54906],[-119.58812,34.54912],[-119.58814,34.54917],[-119.58819,34.54922],[-119.58842,34.54935],[-119.58852,34.54942],[-119.58855,34.54946],[-119.58858,34.54952],[-119.58856,34.54961],[-119.58849,34.54973],[-119.58829,34.55001],[-119.58814,34.55026],[-119.58806,34.55044],[-119.58801,34.55057],[-119.58798,34.55078],[-119.58795,34.55126],[-119.58785,34.55174],[-119.58785,34.55181],[-119.58786,34.55186],[-119.58796,34.55198],[-119.58803,34.55204],[-119.58807,34.55208],[-119.58807,34.55213],[-119.58792,34.55242],[-119.58788,34.55262],[-119.58788,34.55267],[-119.58786,34.55271],[-119.58783,34.55272],[-119.58764,34.55274],[-119.58737,34.55276],[-119.58726,34.55278],[-119.58661,34.55309],[-119.58648,34.55325],[-119.58632,34.55353],[-119.58627,34.55356],[-119.58612,34.55363],[-119.58565,34.55368],[-119.58552,34.5537],[-119.58534,34.55377],[-119.58524,34.55383],[-119.58517,34.55391],[-119.58501,34.55418],[-119.58499,34.55427],[-119.585,34.55446],[-119.58499,34.55456],[-119.58497,34.55467],[-119.58491,34.5548],[-119.5847,34.55516],[-119.58457,34.5553],[-119.58446,34.5554],[-119.5843,34.55549],[-119.58401,34.55557],[-119.58386,34.55558],[-119.5832,34.55555],[-119.58308,34.55554],[-119.58285,34.55546],[-119.58274,34.55544],[-119.58233,34.55561],[-119.58208,34.55572],[-119.58198,34.55575],[-119.58182,34.55578],[-119.58138,34.55591],[-119.58129,34.55594],[-119.58119,34.55601],[-119.58116,34.55604],[-119.58116,34.55613],[-119.58118,34.5562],[-119.58121,34.55628],[-119.58131,34.55641],[-119.5816,34.55705],[-119.5817,34.55724],[-119.58175,34.55731],[-119.58198,34.55747],[-119.582,34.5575],[-119.58202,34.55761],[-119.58202,34.55765],[-119.58198,34.55772],[-119.58182,34.55791],[-119.58178,34.55796],[-119.58176,34.55804],[-119.58176,34.5581],[-119.58188,34.55841],[-119.58191,34.55861],[-119.5819,34.55887],[-119.58192,34.55893],[-119.58198,34.55898],[-119.58203,34.559],[-119.58213,34.55901],[-119.58225,34.559],[-119.58232,34.55898],[-119.58241,34.55891],[-119.58267,34.55884],[-119.58301,34.55878],[-119.58306,34.55878],[-119.58317,34.55878],[-119.58325,34.55881],[-119.58343,34.5589],[-119.58367,34.559],[-119.584,34.55911],[-119.58426,34.55919],[-119.58479,34.55929],[-119.58485,34.5593],[-119.5849,34.55933],[-119.58495,34.55938],[-119.58499,34.55944],[-119.58503,34.55954],[-119.58505,34.55968],[-119.58505,34.56019],[-119.58507,34.56029],[-119.58511,34.56035],[-119.58515,34.5604],[-119.58522,34.56045],[-119.5853,34.56053],[-119.58535,34.5606],[-119.58546,34.56071],[-119.58551,34.56075],[-119.58566,34.56079],[-119.58574,34.5608],[-119.58597,34.56079],[-119.58619,34.56077],[-119.58638,34.56078],[-119.58659,34.56087],[-119.58684,34.56101],[-119.587,34.56108],[-119.58713,34.56118],[-119.58729,34.56132],[-119.58746,34.56151],[-119.58783,34.56189]]}},{"type":"Feature","properties":{"name":"Mono Alamar Trail","road_class":"track","surface":"unpaved","tracktype":"grade5","motor_vehicle":"yes","access":"yes","source":"Caltrans All Roads + OpenStreetMap explicit surface","source_detail":"osm way 134343083; Caltrans All Roads public-network geometry match","source_tile":"171/407","public_network_source":"Caltrans All Roads (ARNOLD/HPMS)","surface_source":"OpenStreetMap explicit surface tag","caltrans_match_coverage":1.0,"verified_length_m":1454},"geometry":{"type":"LineString","coordinates":[[-119.6276,34.53281],[-119.62758,34.53323],[-119.62757,34.53344],[-119.62754,34.53355],[-119.62749,34.53364],[-119.62741,34.53373],[-119.62729,34.53381],[-119.62708,34.53398],[-119.62699,34.53407],[-119.62678,34.53419],[-119.62659,34.53424],[-119.62597,34.53435],[-119.6255,34.53444],[-119.62522,34.53451],[-119.62501,34.53457],[-119.62462,34.53474],[-119.62422,34.53489],[-119.62393,34.53501],[-119.62372,34.53507],[-119.62342,34.53509],[-119.62326,34.53511],[-119.62305,34.53515],[-119.62241,34.53537],[-119.62183,34.53562],[-119.62167,34.53584],[-119.62162,34.53594],[-119.62156,34.53605],[-119.62146,34.53618],[-119.62141,34.53624],[-119.62133,34.53636],[-119.62128,34.53641],[-119.62123,34.53643],[-119.62113,34.53645],[-119.62088,34.5364],[-119.62077,34.5364],[-119.62062,34.53647],[-119.62051,34.53654],[-119.61996,34.5369],[-119.61989,34.53694],[-119.61981,34.53701],[-119.61974,34.53714],[-119.61972,34.53721],[-119.61971,34.53737],[-119.61967,34.53753],[-119.61967,34.53773],[-119.61975,34.53799],[-119.61981,34.53822],[-119.61979,34.53844],[-119.61962,34.53867],[-119.61962,34.53871],[-119.61966,34.53881],[-119.61979,34.53893],[-119.61985,34.539],[-119.61992,34.53907],[-119.61995,34.53914],[-119.61997,34.53925],[-119.62004,34.53937],[-119.62008,34.5394],[-119.62026,34.53945],[-119.62039,34.53951],[-119.62056,34.53963],[-119.62071,34.5398],[-119.62073,34.53985],[-119.62073,34.53992],[-119.62068,34.53997],[-119.62061,34.53999],[-119.62046,34.54004],[-119.62036,34.54016],[-119.62038,34.54025],[-119.62055,34.54029],[-119.62067,34.54026],[-119.62091,34.53988],[-119.62095,34.53981],[-119.62099,34.53976],[-119.62106,34.5398]]}},{"type":"Feature","properties":{"name":"Camuesa Road","road_class":"track","surface":"unpaved","tracktype":"grade5","motor_vehicle":"yes","source":"Caltrans All Roads + OpenStreetMap explicit surface","source_detail":"osm way 459959510; Caltrans All Roads public-network geometry match","source_tile":"171/407","public_network_source":"Caltrans All Roads (ARNOLD/HPMS)","surface_source":"OpenStreetMap explicit surface tag","caltrans_match_coverage":0.986,"verified_length_m":11625},"geometry":{"type":"LineString","coordinates":[[-119.73607,34.56873],[-119.73591,34.56877],[-119.73586,34.5688],[-119.73578,34.56887],[-119.73568,34.56896],[-119.73558,34.56906],[-119.73553,34.56911],[-119.7355,34.56916],[-119.73547,34.56923],[-119.73547,34.56928],[-119.73548,34.56934],[-119.7355,34.56942],[-119.7355,34.56946],[-119.73549,34.56949],[-119.73547,34.56952],[-119.73544,34.56955],[-119.73527,34.56964],[-119.73525,34.56966],[-119.73519,34.56974],[-119.7351,34.56988],[-119.73504,34.56993],[-119.73499,34.56997],[-119.73491,34.57],[-119.73489,34.57],[-119.7348,34.57],[-119.73473,34.56999],[-119.73467,34.56997],[-119.73452,34.56989],[-119.73444,34.56987],[-119.73436,34.56988],[-119.73431,34.56989],[-119.73424,34.56994],[-119.73413,34.57006],[-119.73412,34.57007],[-119.73408,34.57008],[-119.73401,34.57009],[-119.73392,34.57006],[-119.73382,34.57],[-119.73375,34.56994],[-119.73356,34.56982],[-119.73327,34.5697],[-119.73318,34.56967],[-119.73304,34.56959],[-119.73295,34.56956],[-119.73285,34.56955],[-119.73281,34.56956],[-119.73275,34.56958],[-119.7327,34.56962],[-119.7325,34.56981],[-119.7324,34.56987],[-119.73236,34.56988],[-119.7323,34.56989],[-119.73226,34.56989],[-119.73221,34.56988],[-119.73217,34.56987],[-119.73206,34.5697],[-119.73185,34.56947],[-119.73177,34.5694],[-119.73171,34.56936],[-119.73162,34.56934],[-119.73145,34.5693],[-119.73114,34.56921],[-119.73104,34.56918],[-119.73099,34.56918],[-119.73087,34.56918],[-119.73059,34.56923],[-119.7305,34.56923],[-119.73046,34.56922],[-119.73018,34.56911],[-119.72996,34.56906],[-119.72991,34.56905],[-119.72975,34.56903],[-119.72967,34.56903],[-119.7294,34.56908],[-119.72932,34.56907],[-119.72916,34.56902],[-119.72907,34.56898],[-119.72894,34.56895],[-119.7286,34.56892],[-119.72855,34.56892],[-119.72847,34.56894],[-119.72804,34.56906],[-119.72802,34.56907],[-119.72798,34.56913],[-119.72797,34.56921],[-119.728,34.56926],[-119.72824,34.5696],[-119.72868,34.57011],[-119.72875,34.57023],[-119.72881,34.57031],[-119.72897,34.57047],[-119.7291,34.57059],[-119.72922,34.57066],[-119.72971,34.5708],[-119.7298,34.57083],[-119.72987,34.57088],[-119.72994,34.57093],[-119.72997,34.57097],[-119.72997,34.57102],[-119.72996,34.57106],[-119.72994,34.57109],[-119.72989,34.57111],[-119.72983,34.57112],[-119.72975,34.57111],[-119.72949,34.57115],[-119.72932,34.57118],[-119.7292,34.57122],[-119.72912,34.57124],[-119.72903,34.57125],[-119.72898,34.57124],[-119.72879,34.57117],[-119.72872,34.57115],[-119.72868,34.57115],[-119.72865,34.57115],[-119.72862,34.57115],[-119.72859,34.57116],[-119.72854,34.57121],[-119.72852,34.57126],[-119.72851,34.57129],[-119.72851,34.5714],[-119.72849,34.57147],[-119.72846,34.57155],[-119.72843,34.57161],[-119.72819,34.57185],[-119.72816,34.57187],[-119.72811,34.57189],[-119.72807,34.5719],[-119.72802,34.57189],[-119.72798,34.57189],[-119.72794,34.57187],[-119.7279,34.57185],[-119.72782,34.57179],[-119.72775,34.57168],[-119.72764,34.57141],[-119.72757,34.57128],[-119.72754,34.57126],[-119.72752,34.57123],[-119.72748,34.57121],[-119.72743,34.57121],[-119.72739,34.57122],[-119.72732,34.57125],[-119.72729,34.57128],[-119.7272,34.57141],[-119.72711,34.57151],[-119.72692,34.57165],[-119.72685,34.5717],[-119.72674,34.57182],[-119.72668,34.57186],[-119.72665,34.57187],[-119.72659,34.57189],[-119.72634,34.57194],[-119.72626,34.57194],[-119.72624,34.57193],[-119.72621,34.57191],[-119.7262,34.57189],[-119.72618,34.57187],[-119.72618,34.57184],[-119.72619,34.57179],[-119.72622,34.57171],[-119.72622,34.57169],[-119.72622,34.57165],[-119.72613,34.5715],[-119.72612,34.57146],[-119.7261,34.5714],[-119.72611,34.57121],[-119.7261,34.57117],[-119.72606,34.57112],[-119.72602,34.5711],[-119.72598,34.5711],[-119.72594,34.57111],[-119.7259,34.57112],[-119.72584,34.57115],[-119.72575,34.57123],[-119.72564,34.5713],[-119.72552,34.57135],[-119.72537,34.57141],[-119.72528,34.57144],[-119.72523,34.57145],[-119.72515,34.57146],[-119.72508,34.57143],[-119.72505,34.57141],[-119.72504,34.57139],[-119.72503,34.57137],[-119.72504,34.57132],[-119.72507,34.57129],[-119.72519,34.57107],[-119.72521,34.57102],[-119.72521,34.57098],[-119.7252,34.57094],[-119.72518,34.57089],[-119.72516,34.57087],[-119.72508,34.5708],[-119.72503,34.57076],[-119.72502,34.57074],[-119.72502,34.57071],[-119.72502,34.57067],[-119.72508,34.57054],[-119.72511,34.57047],[-119.72514,34.5704],[-119.72516,34.57034],[-119.72516,34.5702],[-119.72514,34.57016],[-119.72512,34.57014],[-119.72508,34.57011],[-119.72496,34.57008],[-119.72483,34.57008],[-119.72472,34.57009],[-119.72459,34.57014],[-119.72449,34.57019],[-119.72426,34.5704],[-119.72422,34.57042],[-119.72412,34.57042],[-119.72407,34.5704],[-119.72405,34.57037],[-119.724,34.57031],[-119.724,34.57024],[-119.72398,34.57014],[-119.72397,34.57006],[-119.72397,34.56992],[-119.724,34.56983],[-119.724,34.56974],[-119.72398,34.56971],[-119.7239,34.56966],[-119.72384,34.56964],[-119.72354,34.56953],[-119.72338,34.56944],[-119.72331,34.56939],[-119.72327,34.56931],[-119.72325,34.56925],[-119.72324,34.56918],[-119.72325,34.56907],[-119.72326,34.56899],[-119.72325,34.56894],[-119.72321,34.5689],[-119.72308,34.56877],[-119.72302,34.56873],[-119.72297,34.56869],[-119.7229,34.56868],[-119.72283,34.56867],[-119.72276,34.56869],[-119.72267,34.56871],[-119.72257,34.56872],[-119.72249,34.56871],[-119.72231,34.56869],[-119.72211,34.56862],[-119.722,34.56855],[-119.72197,34.56851],[-119.72193,34.56836],[-119.72188,34.56811],[-119.72181,34.56797],[-119.72172,34.56777],[-119.72167,34.56773],[-119.72158,34.5677],[-119.72132,34.56762],[-119.72123,34.56758],[-119.72117,34.56755],[-119.72108,34.56749],[-119.72098,34.56735],[-119.72096,34.56729],[-119.72092,34.56723],[-119.72088,34.5672],[-119.72082,34.56716],[-119.72073,34.56714],[-119.72068,34.56712],[-119.72063,34.56709],[-119.72059,34.56706],[-119.72056,34.56701],[-119.72056,34.56698],[-119.72056,34.56683],[-119.72058,34.56673],[-119.72056,34.56669],[-119.72051,34.56665],[-119.72044,34.5666],[-119.72029,34.56649],[-119.72021,34.56638],[-119.72018,34.56633],[-119.72018,34.56617],[-119.7202,34.56604],[-119.72024,34.56585],[-119.71988,34.56546],[-119.71984,34.5654],[-119.71979,34.5653],[-119.71974,34.56519],[-119.71967,34.56504],[-119.71962,34.56499],[-119.71958,34.56488],[-119.71955,34.56476],[-119.71955,34.56471],[-119.71952,34.56465],[-119.71949,34.56463],[-119.71946,34.56461],[-119.71941,34.56461],[-119.71935,34.56462],[-119.71921,34.56466],[-119.71917,34.56466],[-119.71909,34.56465],[-119.71904,34.56463],[-119.71902,34.56462],[-119.71893,34.56455],[-119.71888,34.56454],[-119.71884,34.56454],[-119.71878,34.56457],[-119.71866,34.56469],[-119.71862,34.56472],[-119.71856,34.56474],[-119.71845,34.56476],[-119.71831,34.56477],[-119.71825,34.56476],[-119.71819,34.56475],[-119.71781,34.56464],[-119.71775,34.56463],[-119.71772,34.56463],[-119.71764,34.56463],[-119.71759,34.56466],[-119.71757,34.56467],[-119.71753,34.56472],[-119.71747,34.56481],[-119.71742,34.56488],[-119.71739,34.56491],[-119.71734,34.56495],[-119.71731,34.56496],[-119.71723,34.56498],[-119.71713,34.56498],[-119.71703,34.56498],[-119.71693,34.56495],[-119.71674,34.56489],[-119.71668,34.56489],[-119.71663,34.5649],[-119.71655,34.56496],[-119.71651,34.56499],[-119.71645,34.56502],[-119.71631,34.56507],[-119.71624,34.56508],[-119.7162,34.56508],[-119.71562,34.56496],[-119.71556,34.56495],[-119.71549,34.56495],[-119.71532,34.56494],[-119.71511,34.56496],[-119.71505,34.56497],[-119.71486,34.56504],[-119.71479,34.56506],[-119.71473,34.56506],[-119.71469,34.56505],[-119.7146,34.56503],[-119.7145,34.56499],[-119.71447,34.56497],[-119.71441,34.56491],[-119.71439,34.56488],[-119.71435,34.56481],[-119.71434,34.56477],[-119.71433,34.56475],[-119.71434,34.56471],[-119.71435,34.56464],[-119.71435,34.56462],[-119.71432,34.56456],[-119.71429,34.56454],[-119.71426,34.56453],[-119.71424,34.56452],[-119.71418,34.56452],[-119.71406,34.56454],[-119.71389,34.56455],[-119.71353,34.56454],[-119.7135,34.56453],[-119.71345,34.56452],[-119.71338,34.56449],[-119.71331,34.56444],[-119.71329,34.56441],[-119.71327,34.56438],[-119.71327,34.56434],[-119.71327,34.56432],[-119.71329,34.56429],[-119.71333,34.56425],[-119.71337,34.56423],[-119.71344,34.5642],[-119.7135,34.56417],[-119.71354,34.56414],[-119.71356,34.56406],[-119.71355,34.56402],[-119.71348,34.56392],[-119.71344,34.56388],[-119.7134,34.5638],[-119.71327,34.56335],[-119.71322,34.56324],[-119.71318,34.56321],[-119.71316,34.5632],[-119.71313,34.5632],[-119.7131,34.5632],[-119.71306,34.56321],[-119.71302,34.56323],[-119.71298,34.56325],[-119.71293,34.56327],[-119.71269,34.56337],[-119.71245,34.56344],[-119.71229,34.5635],[-119.71221,34.56351],[-119.71213,34.5635],[-119.71204,34.56349],[-119.71189,34.56347],[-119.71176,34.56345],[-119.71166,34.56346],[-119.71129,34.5634],[-119.71118,34.56338],[-119.71109,34.56338],[-119.71103,34.56339],[-119.71101,34.5634],[-119.71096,34.56342],[-119.71085,34.56355],[-119.71076,34.56362],[-119.71041,34.56383],[-119.71009,34.56407],[-119.70983,34.5642],[-119.70975,34.56424],[-119.70967,34.5643],[-119.70966,34.56432],[-119.70965,34.56434],[-119.70966,34.56439],[-119.70968,34.56441],[-119.7097,34.56443],[-119.70975,34.56446],[-119.70985,34.56451],[-119.70992,34.56454],[-119.70995,34.56455],[-119.71002,34.56454],[-119.71007,34.56453],[-119.71009,34.56452],[-119.71012,34.56449],[-119.71024,34.5643],[-119.71026,34.56425],[-119.71032,34.56417],[-119.71035,34.56414],[-119.71038,34.56412],[-119.71041,34.5641],[-119.71045,34.5641],[-119.71048,34.5641],[-119.71049,34.5641],[-119.71052,34.56412],[-119.71053,34.56413],[-119.71057,34.56424],[-119.71058,34.56427],[-119.71061,34.5643],[-119.71066,34.56434],[-119.71069,34.56435],[-119.71073,34.56437],[-119.71077,34.56437],[-119.71097,34.56433],[-119.71111,34.56435],[-119.71116,34.56437],[-119.71119,34.56439],[-119.71121,34.56441],[-119.71122,34.56444],[-119.71121,34.5646],[-119.71123,34.56476],[-119.71129,34.56499],[-119.71128,34.56503],[-119.71128,34.5651],[-119.7113,34.56514],[-119.71133,34.56517],[-119.71136,34.56521],[-119.71149,34.56527],[-119.71158,34.5653],[-119.71176,34.56537],[-119.7118,34.56539],[-119.71185,34.56539],[-119.71201,34.56538],[-119.71212,34.56538],[-119.71218,34.56539],[-119.7122,34.56541],[-119.71222,34.56544],[-119.71222,34.56554],[-119.71222,34.56558],[-119.71225,34.56564],[-119.71229,34.56569],[-119.71247,34.56583],[-119.71254,34.5659],[-119.71257,34.56596],[-119.71258,34.56607],[-119.71258,34.56617],[-119.71255,34.56625],[-119.71252,34.5663],[-119.7125,34.56634],[-119.71246,34.56637],[-119.71242,34.56639],[-119.71235,34.56641],[-119.7123,34.56641],[-119.7122,34.56638],[-119.71212,34.56634],[-119.71206,34.56631],[-119.71197,34.56624],[-119.71192,34.5662],[-119.71165,34.56607],[-119.71159,34.56605],[-119.71153,34.56603],[-119.71135,34.56599],[-119.71104,34.56587],[-119.71096,34.56584],[-119.71086,34.56582],[-119.71053,34.56576],[-119.71046,34.56574],[-119.71029,34.56565],[-119.71019,34.56561],[-119.71008,34.56558],[-119.70994,34.56555],[-119.70949,34.56545],[-119.70912,34.56535],[-119.70892,34.56529],[-119.70877,34.56521],[-119.70842,34.565],[-119.70812,34.56482],[-119.70801,34.56473],[-119.70797,34.56468],[-119.7079,34.56456],[-119.70784,34.56443],[-119.70777,34.56425],[-119.70771,34.56412],[-119.70761,34.56394],[-119.70759,34.56388],[-119.70752,34.56369],[-119.70748,34.5636],[-119.70744,34.56354],[-119.70741,34.56351],[-119.70737,34.56347],[-119.70731,34.56343],[-119.70711,34.56335],[-119.70688,34.56329],[-119.70679,34.56324],[-119.70658,34.56314],[-119.70644,34.56304],[-119.70639,34.563],[-119.70617,34.56272],[-119.70613,34.56269],[-119.70608,34.56266],[-119.70604,34.56265],[-119.70597,34.56264],[-119.7059,34.56263],[-119.70577,34.56263],[-119.70572,34.56264],[-119.70566,34.56265],[-119.70558,34.56268],[-119.70529,34.56284],[-119.70517,34.56291],[-119.70511,34.56293],[-119.705,34.56297],[-119.70491,34.56299],[-119.70479,34.563],[-119.70443,34.56302],[-119.70426,34.56302],[-119.70421,34.563],[-119.70411,34.56294],[-119.7037,34.56265],[-119.70336,34.56238],[-119.70317,34.5622],[-119.70297,34.56203],[-119.70284,34.56193],[-119.70274,34.56187],[-119.70241,34.56171],[-119.70232,34.56165],[-119.70221,34.56157],[-119.70203,34.56141],[-119.70145,34.56086],[-119.7013,34.56073],[-119.70126,34.56069],[-119.70123,34.56065],[-119.70121,34.5606],[-119.70119,34.56053],[-119.70117,34.56043],[-119.70116,34.56039],[-119.70114,34.56034],[-119.7011,34.56027],[-119.70077,34.55989],[-119.7007,34.55979],[-119.70066,34.55972],[-119.70063,34.55967],[-119.70057,34.5594],[-119.70052,34.55927],[-119.70049,34.55922],[-119.70043,34.55917],[-119.70038,34.55909],[-119.70037,34.559],[-119.70038,34.55888],[-119.7003,34.55875],[-119.70016,34.55855],[-119.70012,34.55847],[-119.70006,34.55843],[-119.69995,34.55838],[-119.69979,34.55829],[-119.69965,34.55818],[-119.69961,34.55814],[-119.69927,34.5579],[-119.69913,34.55781],[-119.69899,34.55766],[-119.69879,34.55752],[-119.69875,34.55751],[-119.69862,34.55746],[-119.69818,34.55737],[-119.69792,34.5573],[-119.6976,34.5572],[-119.69753,34.55718],[-119.69744,34.55714],[-119.69732,34.55706],[-119.69722,34.55696],[-119.69716,34.55689],[-119.69702,34.55677],[-119.69696,34.55674],[-119.69685,34.55669],[-119.69681,34.55666],[-119.69677,34.55661],[-119.69675,34.55655],[-119.69665,34.55637],[-119.6966,34.55629],[-119.6965,34.55616],[-119.69647,34.55614],[-119.6964,34.5561],[-119.69635,34.55609],[-119.69632,34.55609],[-119.69628,34.55609],[-119.69625,34.55609],[-119.6961,34.55618],[-119.696,34.5562],[-119.69583,34.55627],[-119.69576,34.55631],[-119.69566,34.55639],[-119.69559,34.55645],[-119.69549,34.55657],[-119.69544,34.55664],[-119.69538,34.5567],[-119.69534,34.55672],[-119.69529,34.55673],[-119.69523,34.55674],[-119.69517,34.55674],[-119.69509,34.55672],[-119.695,34.55668],[-119.69492,34.55662],[-119.6949,34.55659],[-119.69489,34.55655],[-119.69488,34.5565],[-119.69484,34.55604],[-119.69479,34.5558],[-119.69478,34.55578],[-119.69475,34.55575],[-119.69465,34.55571],[-119.69427,34.55551],[-119.69423,34.55548],[-119.69418,34.55543],[-119.69415,34.55539],[-119.6941,34.55529],[-119.69407,34.55526],[-119.69403,34.55523],[-119.69387,34.55513],[-119.69371,34.55503],[-119.69367,34.55502],[-119.69363,34.55501],[-119.6935,34.55503],[-119.69328,34.55509],[-119.69311,34.55515],[-119.69295,34.55518],[-119.69289,34.5552],[-119.69284,34.55523],[-119.69272,34.55533],[-119.69263,34.55537],[-119.69256,34.55539],[-119.69252,34.55539],[-119.69244,34.55538],[-119.6924,34.55537],[-119.69233,34.55533],[-119.69229,34.55531],[-119.69218,34.55518],[-119.69213,34.55511],[-119.69208,34.55502],[-119.69203,34.55496],[-119.69184,34.55484],[-119.69158,34.55465],[-119.69144,34.55451],[-119.69135,34.55441],[-119.6913,34.55436],[-119.69123,34.55433],[-119.69116,34.55431],[-119.6911,34.5543],[-119.69093,34.5543],[-119.6909,34.55428],[-119.69088,34.55427],[-119.69085,34.55417],[-119.69086,34.55401],[-119.69084,34.55395],[-119.69079,34.55386],[-119.69074,34.55382],[-119.6907,34.5538],[-119.69065,34.55378],[-119.6906,34.55377],[-119.69044,34.55378],[-119.69039,34.55378],[-119.69028,34.55375],[-119.69025,34.55373],[-119.6902,34.55368],[-119.69018,34.55362],[-119.69016,34.55346],[-119.69012,34.55336],[-119.69004,34.55327],[-119.69001,34.55325],[-119.68993,34.55322],[-119.68989,34.55322],[-119.68977,34.55322],[-119.68961,34.55325],[-119.68956,34.55326],[-119.68949,34.55329],[-119.68943,34.55333],[-119.68901,34.55352],[-119.68897,34.55355],[-119.68894,34.55359],[-119.68891,34.55362],[-119.68886,34.55366],[-119.6888,34.55368],[-119.68877,34.55367],[-119.68874,34.55366],[-119.68869,34.55364],[-119.68858,34.55361],[-119.68857,34.5535],[-119.68847,34.55329],[-119.68843,34.55324],[-119.68839,34.5532],[-119.68821,34.5531],[-119.68818,34.55309],[-119.68804,34.55308],[-119.68778,34.55309],[-119.68768,34.55308],[-119.68756,34.55304],[-119.68739,34.55298],[-119.68728,34.55295],[-119.68718,34.55294],[-119.68713,34.55295],[-119.68706,34.55297],[-119.68703,34.553],[-119.68698,34.55307],[-119.68694,34.55314],[-119.68683,34.55331],[-119.68653,34.55366],[-119.68647,34.55371],[-119.68641,34.55375],[-119.6863,34.5538],[-119.68604,34.5539],[-119.68592,34.55391],[-119.68558,34.5539],[-119.6855,34.55391],[-119.68516,34.55399],[-119.68506,34.554],[-119.68483,34.55398],[-119.68468,34.55395],[-119.6846,34.55392],[-119.68451,34.55387],[-119.68445,34.55384],[-119.68444,34.55383],[-119.68435,34.55379],[-119.68425,34.55378],[-119.68419,34.55378],[-119.68411,34.55379],[-119.68389,34.55387],[-119.68385,34.55388],[-119.68368,34.55388],[-119.68352,34.5539],[-119.68345,34.5539],[-119.68335,34.55388],[-119.68312,34.55378],[-119.68305,34.55376],[-119.68285,34.5537],[-119.68256,34.55359],[-119.68252,34.55357],[-119.68247,34.55352],[-119.68235,34.55344],[-119.6823,34.5534],[-119.68225,34.55338],[-119.68221,34.55337],[-119.68217,34.55337],[-119.68213,34.55338],[-119.68208,34.5534],[-119.68203,34.55343],[-119.68198,34.55348],[-119.68194,34.5535],[-119.68191,34.55351],[-119.68179,34.55351],[-119.68173,34.55349],[-119.68168,34.55345],[-119.68165,34.55343],[-119.68157,34.55333],[-119.68152,34.55329],[-119.68145,34.55324],[-119.68139,34.55321],[-119.68121,34.55315],[-119.68116,34.55314],[-119.68104,34.55314],[-119.68087,34.55316],[-119.68068,34.55316],[-119.6806,34.55316],[-119.68044,34.5532],[-119.68012,34.55323],[-119.68004,34.55322],[-119.68,34.55321],[-119.67994,34.55318],[-119.67992,34.55317],[-119.67987,34.55313],[-119.67982,34.55306],[-119.67972,34.55282],[-119.67967,34.55275],[-119.67954,34.55262],[-119.67948,34.55256],[-119.67943,34.55253],[-119.67919,34.55241],[-119.67908,34.55232],[-119.67905,34.55229],[-119.67902,34.55222],[-119.67892,34.55179],[-119.67886,34.55171],[-119.67883,34.55168],[-119.6787,34.55161],[-119.67859,34.55157],[-119.67852,34.55156],[-119.67838,34.55155],[-119.67831,34.55154],[-119.67817,34.55149],[-119.67802,34.55144],[-119.67766,34.55135],[-119.67766,34.5513],[-119.67763,34.55123],[-119.67765,34.55116],[-119.67768,34.55107],[-119.67776,34.55093],[-119.67797,34.55064],[-119.67812,34.55047],[-119.67814,34.55044],[-119.67817,34.5504],[-119.67818,34.55034],[-119.67818,34.55027],[-119.67811,34.55008],[-119.67808,34.55003],[-119.67802,34.54999],[-119.67783,34.54987],[-119.67778,34.54984],[-119.67765,34.54975],[-119.67755,34.5497],[-119.67748,34.54964],[-119.67721,34.5495],[-119.67716,34.54948],[-119.67711,34.54946],[-119.67677,34.54926],[-119.67663,34.54918],[-119.67642,34.54908],[-119.67637,34.54904],[-119.67627,34.54896],[-119.67609,34.54878],[-119.67594,34.54866],[-119.67585,34.54856],[-119.67575,34.54841],[-119.67569,34.54834],[-119.67563,34.54828],[-119.67553,34.54822],[-119.67527,34.54802],[-119.67487,34.54785],[-119.67466,34.54778],[-119.67453,34.54777],[-119.67432,34.54777],[-119.67424,34.54778],[-119.67414,34.54778],[-119.67409,34.54777],[-119.674,34.54777],[-119.67392,34.54774],[-119.67386,34.5477],[-119.67371,34.54754],[-119.67359,34.54734],[-119.67356,34.54726],[-119.67353,34.54706],[-119.67351,34.54685],[-119.67347,34.5467],[-119.67342,34.54664],[-119.67335,34.54657],[-119.67328,34.54653],[-119.67314,34.54639],[-119.67305,34.54639],[-119.67292,34.54638],[-119.67265,34.54637],[-119.6725,34.54635],[-119.67239,34.54632],[-119.67224,34.54628],[-119.67214,34.54624],[-119.67201,34.54618],[-119.67178,34.54603],[-119.6717,34.54597],[-119.67162,34.54589],[-119.67155,34.54585],[-119.67149,34.5457],[-119.67141,34.54566],[-119.6713,34.54558],[-119.67106,34.54548],[-119.67098,34.54541],[-119.67093,34.54533],[-119.67086,34.54518],[-119.67076,34.54474],[-119.67073,34.54458],[-119.67069,34.54451],[-119.67061,34.54444],[-119.67025,34.54425],[-119.66998,34.54406],[-119.66988,34.54396],[-119.66976,34.54384],[-119.66958,34.54364],[-119.6693,34.54313],[-119.66917,34.54292],[-119.66907,34.54271],[-119.66898,34.54257],[-119.66887,34.54244],[-119.66878,34.54237],[-119.66874,34.54232],[-119.66868,34.54228],[-119.66861,34.54223],[-119.66855,34.54221],[-119.66845,34.54218],[-119.66833,34.54218],[-119.66807,34.54222],[-119.66801,34.54225],[-119.66789,34.54232],[-119.66778,34.54241],[-119.66768,34.5425],[-119.66759,34.54257],[-119.66741,34.54265],[-119.66729,34.54269],[-119.66715,34.54273],[-119.66703,34.54274],[-119.66699,34.54272],[-119.66697,34.54271],[-119.66695,34.54268],[-119.66693,34.54264],[-119.66693,34.5426],[-119.66695,34.54256],[-119.66698,34.54253],[-119.66704,34.54251],[-119.66716,34.54247],[-119.66721,34.54244],[-119.66726,34.54241],[-119.66731,34.54231],[-119.66732,34.54226],[-119.66734,34.54223],[-119.66745,34.54213],[-119.66752,34.54207],[-119.66757,34.54202],[-119.66758,34.54196],[-119.66758,34.54194],[-119.66758,34.54189],[-119.66756,34.54184],[-119.66753,34.5418],[-119.66749,34.54178],[-119.66739,34.5417],[-119.66734,34.54168],[-119.66713,34.54155],[-119.66698,34.54149],[-119.66688,34.54146],[-119.66671,34.54144],[-119.66655,34.54143],[-119.66648,34.54143],[-119.66644,34.54144],[-119.66641,34.54146],[-119.6664,34.54149],[-119.6664,34.54152],[-119.66642,34.54154],[-119.66646,34.54156],[-119.66654,34.54157],[-119.66679,34.54157],[-119.66685,34.54158],[-119.6669,34.5416],[-119.66696,34.54162],[-119.66699,34.54165],[-119.66702,34.54169],[-119.66706,34.54178],[-119.66706,34.54189],[-119.66704,34.54193],[-119.66697,34.54199],[-119.66694,34.54202],[-119.6669,34.54216],[-119.66688,34.54219],[-119.66683,34.54223],[-119.66677,34.54226],[-119.66647,34.54243],[-119.66616,34.54274],[-119.66612,34.54277],[-119.66603,34.5428],[-119.66589,34.54282],[-119.66582,34.54284],[-119.66569,34.54291],[-119.66557,34.54299],[-119.66553,34.543],[-119.66544,34.54303],[-119.66527,34.54303],[-119.66509,34.54306],[-119.66501,34.54309],[-119.66495,34.54312],[-119.6649,34.54319],[-119.66483,34.54335],[-119.6648,34.54341],[-119.66477,34.54345],[-119.66472,34.5435],[-119.66466,34.54352],[-119.66448,34.54357],[-119.66443,34.54359],[-119.6644,34.54361],[-119.66439,34.54365],[-119.66437,34.54373],[-119.66429,34.54381],[-119.66423,34.54384],[-119.66415,34.54388],[-119.66408,34.54392],[-119.66404,34.54396],[-119.664,34.54406],[-119.66396,34.5441],[-119.66391,34.54414],[-119.66385,34.54417],[-119.66376,34.54418],[-119.66365,34.54417],[-119.66355,34.54415],[-119.66343,34.54415],[-119.66319,34.54416],[-119.66308,34.54415],[-119.66296,34.54411],[-119.66286,34.54407],[-119.66266,34.54398],[-119.66256,34.54394],[-119.6624,34.54392],[-119.66225,34.5439],[-119.66186,34.54381],[-119.66166,34.54375],[-119.66164,34.54374],[-119.66163,34.54373]]}}]}