{"type":"FeatureCollection","features":[{"type":"Feature","properties":{"name":"Ginny Lane","road_class":"unclassified","surface":"gravel","source":"Caltrans All Roads + OpenStreetMap explicit surface","source_detail":"osm way 10248776; Caltrans All Roads public-network geometry match","source_tile":"158/380","public_network_source":"Caltrans All Roads (ARNOLD/HPMS)","surface_source":"OpenStreetMap explicit surface tag","caltrans_match_coverage":0.982,"verified_length_m":851},"geometry":{"type":"LineString","coordinates":[[-124.11307,41.83252],[-124.11297,41.83261],[-124.11283,41.83266],[-124.11266,41.83272],[-124.11251,41.83275],[-124.11212,41.83255],[-124.11191,41.8325],[-124.11179,41.83248],[-124.11167,41.83248],[-124.1115,41.83249],[-124.11138,41.83249],[-124.11127,41.83249],[-124.11118,41.83257],[-124.1111,41.83272],[-124.11107,41.83285],[-124.11102,41.83324],[-124.11094,41.83343],[-124.11082,41.83355],[-124.11067,41.83365],[-124.11047,41.83376],[-124.11033,41.83383],[-124.11019,41.83395],[-124.1101,41.83406],[-124.11004,41.83416],[-124.10995,41.83433],[-124.10979,41.83463],[-124.10972,41.8348],[-124.10961,41.83509],[-124.10952,41.83521],[-124.10937,41.83537],[-124.10922,41.8355],[-124.10912,41.83566],[-124.10906,41.83573],[-124.10904,41.83581],[-124.10904,41.83587],[-124.10907,41.83599],[-124.10914,41.83643],[-124.10915,41.83657],[-124.10914,41.83682],[-124.10931,41.83781],[-124.10934,41.83792],[-124.10939,41.83797],[-124.10945,41.83802],[-124.10958,41.83808]]}},{"type":"Feature","properties":{"name":"Peacock Road","road_class":"unclassified","surface":"gravel","source":"Caltrans All Roads + OpenStreetMap explicit surface","source_detail":"osm way 10251543; Caltrans All Roads public-network geometry match","source_tile":"158/380","public_network_source":"Caltrans All Roads (ARNOLD/HPMS)","surface_source":"OpenStreetMap explicit surface tag","caltrans_match_coverage":0.963,"verified_length_m":1607},"geometry":{"type":"LineString","coordinates":[[-124.10298,41.82301],[-124.10315,41.82296],[-124.10334,41.8229],[-124.10358,41.82276],[-124.10395,41.82248],[-124.10415,41.82235],[-124.10434,41.82212],[-124.10444,41.82208],[-124.10493,41.82207],[-124.10507,41.82205],[-124.10522,41.82199],[-124.10533,41.82194],[-124.10544,41.82191],[-124.10561,41.82192],[-124.10574,41.82189],[-124.10582,41.82185],[-124.10595,41.82173],[-124.10603,41.82169],[-124.10612,41.82166],[-124.10631,41.82164],[-124.10645,41.82161],[-124.10666,41.82155],[-124.1068,41.82154],[-124.10693,41.82156],[-124.1072,41.8217],[-124.10737,41.82182],[-124.10747,41.82198],[-124.10764,41.82218],[-124.1082,41.82273],[-124.10843,41.82288],[-124.10865,41.82299],[-124.10878,41.82306],[-124.10895,41.82315],[-124.1091,41.82319],[-124.10934,41.82322],[-124.10953,41.82322],[-124.10972,41.82324],[-124.1098,41.82326],[-124.10999,41.82342],[-124.11021,41.82366],[-124.11047,41.82391],[-124.1107,41.82431],[-124.11081,41.82451],[-124.111,41.82469],[-124.11156,41.82518],[-124.11189,41.8254],[-124.11214,41.82563],[-124.11224,41.82573],[-124.11227,41.82579],[-124.11231,41.82594],[-124.11232,41.8261],[-124.11237,41.82619],[-124.11247,41.82629],[-124.1127,41.82643],[-124.1129,41.8266],[-124.11295,41.82667],[-124.11309,41.8269],[-124.11317,41.8271],[-124.11324,41.82716],[-124.1133,41.82719],[-124.11341,41.82722],[-124.11353,41.82726],[-124.11387,41.82753],[-124.11395,41.82769],[-124.11413,41.82791],[-124.11414,41.82801],[-124.11415,41.82812],[-124.11414,41.82825],[-124.11416,41.82839],[-124.11427,41.8286],[-124.11438,41.82881],[-124.11444,41.82897],[-124.11443,41.82914],[-124.11441,41.82932],[-124.11426,41.82961],[-124.11421,41.82983],[-124.11423,41.82997],[-124.11422,41.83005],[-124.11412,41.83018]]}},{"type":"Feature","properties":{"name":"Walker Road","road_class":"unclassified","surface":"gravel","access":"yes","source":"Caltrans All Roads + OpenStreetMap explicit surface","source_detail":"osm way 10253400; Caltrans All Roads public-network geometry match","source_tile":"158/380","public_network_source":"Caltrans All Roads (ARNOLD/HPMS)","surface_source":"OpenStreetMap explicit surface tag","caltrans_match_coverage":0.88,"verified_length_m":2580},"geometry":{"type":"LineString","coordinates":[[-124.10935,41.81272],[-124.10944,41.81282],[-124.10952,41.81292],[-124.10969,41.81304],[-124.1099,41.81313],[-124.11039,41.81328],[-124.11063,41.81343],[-124.11108,41.81378],[-124.11138,41.81406],[-124.11163,41.81427],[-124.1117,41.81436],[-124.11175,41.8145],[-124.11181,41.81474],[-124.11188,41.81486],[-124.11206,41.81521],[-124.11211,41.81536],[-124.11213,41.81583],[-124.11226,41.8161],[-124.1123,41.8163],[-124.11234,41.81687],[-124.11229,41.81699],[-124.11193,41.81749],[-124.11179,41.81776],[-124.11173,41.8179],[-124.11173,41.81808],[-124.11159,41.81839],[-124.1115,41.81856],[-124.11135,41.81867],[-124.11108,41.81877],[-124.11062,41.81891],[-124.11017,41.81907],[-124.10989,41.81922],[-124.10992,41.81932],[-124.11001,41.81946],[-124.11042,41.81979],[-124.11065,41.82005],[-124.11079,41.82015],[-124.11097,41.82022],[-124.11114,41.82026],[-124.11126,41.82035],[-124.11136,41.82049],[-124.11151,41.82061],[-124.1118,41.82078],[-124.11246,41.82123],[-124.11267,41.82152],[-124.11281,41.82162],[-124.1132,41.82184],[-124.11335,41.82189],[-124.11346,41.8219],[-124.11369,41.82191],[-124.11387,41.82194],[-124.11401,41.82201],[-124.11406,41.82207],[-124.11416,41.82257],[-124.11426,41.82275],[-124.11442,41.82299],[-124.11449,41.82322],[-124.11453,41.82344],[-124.11463,41.82359],[-124.11471,41.82369],[-124.11478,41.82389],[-124.11486,41.82399],[-124.11497,41.82407],[-124.11518,41.82423],[-124.11539,41.82446],[-124.11558,41.82453],[-124.11573,41.82459],[-124.11589,41.82472],[-124.1161,41.8249],[-124.11628,41.8251],[-124.11641,41.82521],[-124.11646,41.82527],[-124.11648,41.82543],[-124.11641,41.82557],[-124.11623,41.82576],[-124.11615,41.82595],[-124.11612,41.82609],[-124.11614,41.82619],[-124.11633,41.82645],[-124.11648,41.82673],[-124.11662,41.82692],[-124.11678,41.82727],[-124.11679,41.82735],[-124.11674,41.82751],[-124.11674,41.8279],[-124.11663,41.82821],[-124.11665,41.82882],[-124.1166,41.82889],[-124.11641,41.82906],[-124.11622,41.82936],[-124.11613,41.82945],[-124.11595,41.82954],[-124.11575,41.82963],[-124.11565,41.82974],[-124.11563,41.8299],[-124.11564,41.83006],[-124.11574,41.83032],[-124.11592,41.83052],[-124.11613,41.83065],[-124.11618,41.83075],[-124.11616,41.83084],[-124.11607,41.83097],[-124.11593,41.83103],[-124.11583,41.83105],[-124.11571,41.83101],[-124.11552,41.83088],[-124.11546,41.83086]]}},{"type":"Feature","properties":{"name":"Howland Hill Road","road_class":"unclassified","surface":"gravel","source":"Caltrans All Roads + OpenStreetMap explicit surface","source_detail":"osm way 1386019638; Caltrans All Roads public-network geometry match","source_tile":"159/381","public_network_source":"Caltrans All Roads (ARNOLD/HPMS)","surface_source":"OpenStreetMap explicit surface tag","caltrans_match_coverage":1.0,"verified_length_m":1609},"geometry":{"type":"LineString","coordinates":[[-124.10016,41.77404],[-124.10018,41.77399],[-124.10018,41.77394],[-124.10015,41.77386],[-124.10006,41.77374],[-124.0999,41.77358],[-124.09985,41.77348],[-124.0999,41.77329],[-124.09989,41.7732],[-124.09985,41.77313],[-124.09945,41.77278],[-124.09934,41.77263],[-124.09928,41.77255],[-124.09925,41.77247],[-124.0992,41.77232],[-124.09916,41.7721],[-124.09921,41.77189],[-124.09928,41.77172],[-124.09939,41.77157],[-124.09957,41.77124],[-124.09969,41.77108],[-124.09978,41.77091],[-124.09994,41.77074],[-124.10006,41.77046],[-124.10015,41.77037],[-124.10028,41.77028],[-124.10055,41.77022],[-124.10085,41.7702],[-124.10115,41.77023],[-124.10146,41.77023],[-124.10165,41.7702],[-124.1019,41.77019],[-124.1022,41.7702],[-124.10271,41.77018],[-124.10288,41.77012],[-124.10306,41.77013],[-124.10335,41.77017],[-124.10363,41.77025],[-124.10385,41.77036],[-124.10416,41.77048],[-124.10435,41.7705],[-124.10458,41.7705],[-124.10479,41.77046],[-124.10508,41.77038],[-124.10548,41.77027],[-124.10586,41.77019],[-124.10617,41.77006],[-124.10655,41.7699],[-124.10685,41.76981],[-124.10713,41.76971],[-124.10743,41.7696],[-124.10782,41.76941],[-124.10807,41.7693],[-124.10849,41.76924],[-124.10869,41.7692],[-124.10895,41.76909],[-124.10933,41.76893],[-124.11006,41.76867],[-124.11015,41.76862],[-124.11034,41.76849],[-124.11054,41.76837],[-124.11074,41.76825],[-124.11092,41.76814],[-124.11102,41.76802],[-124.11107,41.7678],[-124.11122,41.76739],[-124.11133,41.76709],[-124.11145,41.76691],[-124.11166,41.76684],[-124.11177,41.7667]]}},{"type":"Feature","properties":{"name":"Shavely Road","road_class":"unclassified","surface":"gravel","source":"Caltrans All Roads + OpenStreetMap explicit surface","source_detail":"osm way 10252334; Caltrans All Roads public-network geometry match","source_tile":"159/380","public_network_source":"Caltrans All Roads (ARNOLD/HPMS)","surface_source":"OpenStreetMap explicit surface tag","caltrans_match_coverage":1.0,"verified_length_m":3918},"geometry":{"type":"LineString","coordinates":[[-124.11265,41.92617],[-124.11253,41.92638],[-124.11251,41.92644],[-124.11251,41.92653],[-124.11256,41.92666],[-124.11264,41.92679],[-124.11271,41.92689],[-124.11284,41.92708],[-124.11297,41.92725],[-124.11316,41.92755],[-124.1132,41.92768],[-124.1132,41.92782],[-124.11317,41.92793],[-124.1131,41.92808],[-124.11298,41.92823],[-124.11271,41.92846],[-124.11262,41.92854],[-124.11251,41.92881],[-124.11247,41.92887],[-124.11231,41.92907],[-124.11209,41.92925],[-124.11186,41.92938],[-124.11184,41.92939],[-124.11177,41.92944],[-124.1117,41.92951],[-124.11158,41.92965],[-124.11154,41.92971],[-124.11146,41.92983],[-124.11138,41.93001],[-124.11134,41.93018],[-124.11134,41.93045],[-124.11135,41.9307],[-124.11134,41.93094],[-124.11133,41.93115],[-124.11123,41.93156],[-124.11082,41.93254],[-124.11057,41.93311],[-124.11009,41.93434],[-124.11003,41.93447],[-124.11,41.93451],[-124.10998,41.93453],[-124.10978,41.93472],[-124.10967,41.93481],[-124.10953,41.93491],[-124.10897,41.93525],[-124.10882,41.93535],[-124.10866,41.93547],[-124.10841,41.93573],[-124.10815,41.93606],[-124.10781,41.93639],[-124.10758,41.93655],[-124.10745,41.93662],[-124.10716,41.93683],[-124.10681,41.93703],[-124.10649,41.9372],[-124.10639,41.93724],[-124.10631,41.93726],[-124.10598,41.9373],[-124.10569,41.93733],[-124.1056,41.93735],[-124.10515,41.93752],[-124.1048,41.93767],[-124.10465,41.93771],[-124.10453,41.93773],[-124.10398,41.93778],[-124.10381,41.9378],[-124.1036,41.93785],[-124.10338,41.93792],[-124.1032,41.93802],[-124.10287,41.93829],[-124.1028,41.93833],[-124.10191,41.93874],[-124.1018,41.93879],[-124.10164,41.93885],[-124.10152,41.93887],[-124.10118,41.9389],[-124.10078,41.93896],[-124.10066,41.93899],[-124.10056,41.93903],[-124.10045,41.93911],[-124.10037,41.93922],[-124.10034,41.93934],[-124.1003,41.93976],[-124.10026,41.93991],[-124.10017,41.94011],[-124.10011,41.94021],[-124.10003,41.94032],[-124.09978,41.94054],[-124.09964,41.94064],[-124.09947,41.94072],[-124.09907,41.94085],[-124.09857,41.94109],[-124.09841,41.94115],[-124.0981,41.94124],[-124.09758,41.94136],[-124.09734,41.9414],[-124.0971,41.94141],[-124.09656,41.9414],[-124.09612,41.94137],[-124.09589,41.94135],[-124.09586,41.94135],[-124.09556,41.94133],[-124.09532,41.94126],[-124.09462,41.94121],[-124.09371,41.94119],[-124.09361,41.9412],[-124.09344,41.94124],[-124.09328,41.94131],[-124.09316,41.94139],[-124.09306,41.94147],[-124.09292,41.94165],[-124.09282,41.94173],[-124.0927,41.94179],[-124.09255,41.94184],[-124.09238,41.94187],[-124.09198,41.9419],[-124.0918,41.94192],[-124.09054,41.94212],[-124.09009,41.94219],[-124.08989,41.94219],[-124.08937,41.94217],[-124.08907,41.94214],[-124.08868,41.94208],[-124.08741,41.94198],[-124.08702,41.94196],[-124.0866,41.94198],[-124.08643,41.94198],[-124.08617,41.94201],[-124.08609,41.94202],[-124.08591,41.94203],[-124.08567,41.94203],[-124.08538,41.94204],[-124.08451,41.94212],[-124.08424,41.94215],[-124.08383,41.94219],[-124.08351,41.94224],[-124.08332,41.94226],[-124.08284,41.94231],[-124.08247,41.94241],[-124.08182,41.94259],[-124.08001,41.94306],[-124.07939,41.94321]]}},{"type":"Feature","properties":{"name":"Low Divide Road","road_class":"unclassified","surface":"gravel","source":"Caltrans All Roads + OpenStreetMap explicit surface","source_detail":"osm way 10252811; Caltrans All Roads public-network geometry match","source_tile":"159/380","public_network_source":"Caltrans All Roads (ARNOLD/HPMS)","surface_source":"OpenStreetMap explicit surface tag","caltrans_match_coverage":1.0,"verified_length_m":37618},"geometry":{"type":"LineString","coordinates":[[-124.10385,41.82874],[-124.10363,41.82876],[-124.10328,41.82876],[-124.10311,41.82872],[-124.10254,41.82851],[-124.10237,41.82847],[-124.10213,41.82844],[-124.10197,41.82845],[-124.10159,41.82848],[-124.10123,41.82855],[-124.1008,41.82863],[-124.10046,41.82873],[-124.10031,41.8288],[-124.10018,41.8289],[-124.10009,41.82902],[-124.0999,41.82935],[-124.09982,41.82942],[-124.09978,41.82946],[-124.09952,41.82963],[-124.09914,41.82986],[-124.09885,41.83],[-124.09864,41.83008],[-124.09832,41.83017],[-124.09779,41.83027],[-124.09741,41.83038],[-124.09627,41.83089],[-124.096,41.831],[-124.09523,41.83121],[-124.09512,41.83125],[-124.09495,41.83139],[-124.09473,41.83175],[-124.09417,41.83235],[-124.09398,41.83264],[-124.09387,41.83276],[-124.09347,41.8331],[-124.09339,41.83319],[-124.09308,41.83369],[-124.09282,41.83397],[-124.09271,41.83412],[-124.09248,41.83468],[-124.09243,41.83488],[-124.09232,41.83505],[-124.09226,41.83512],[-124.0917,41.83556],[-124.09155,41.83575],[-124.09135,41.83617],[-124.09127,41.83639],[-124.09125,41.83654],[-124.09125,41.83705],[-124.09116,41.83768],[-124.09109,41.83867],[-124.09108,41.83902],[-124.09111,41.83915],[-124.09139,41.83955],[-124.09149,41.83977],[-124.09157,41.84001],[-124.09166,41.84071],[-124.0918,41.84121],[-124.09212,41.84181],[-124.09255,41.84241],[-124.09387,41.84397],[-124.09425,41.8445],[-124.09435,41.8447],[-124.09443,41.8449],[-124.09459,41.84563],[-124.09463,41.84572],[-124.09515,41.84639],[-124.09519,41.84648],[-124.0952,41.84658],[-124.09518,41.84668],[-124.09527,41.84684],[-124.09536,41.84693],[-124.09587,41.84724],[-124.09596,41.84734],[-124.09602,41.84744],[-124.09607,41.84764],[-124.09616,41.84781],[-124.09653,41.84824],[-124.09656,41.84832],[-124.09653,41.8484],[-124.09638,41.84855],[-124.09615,41.84874],[-124.09606,41.84879],[-124.09591,41.84883],[-124.09576,41.84884],[-124.09505,41.8488],[-124.09494,41.84876],[-124.09487,41.84871],[-124.09475,41.84853],[-124.09465,41.84847],[-124.09457,41.84844],[-124.09428,41.84841],[-124.09411,41.84842],[-124.09374,41.84847],[-124.09349,41.84844],[-124.09334,41.84845],[-124.09314,41.84854],[-124.09304,41.84869],[-124.0929,41.84896],[-124.09253,41.84949],[-124.09204,41.85009],[-124.09179,41.85046],[-124.09164,41.85118],[-124.09155,41.85132],[-124.09151,41.85141],[-124.09143,41.85149],[-124.09128,41.8516],[-124.09099,41.85171],[-124.09054,41.85177],[-124.08974,41.852],[-124.08946,41.85205],[-124.08912,41.85209],[-124.0885,41.85211],[-124.08829,41.8521],[-124.08784,41.85198],[-124.0874,41.85192],[-124.08705,41.85192],[-124.08693,41.85189],[-124.08656,41.85168],[-124.08642,41.85163],[-124.08625,41.85161],[-124.08607,41.8516],[-124.08585,41.85165],[-124.08575,41.85164],[-124.08566,41.8516],[-124.0856,41.85154],[-124.08554,41.85136],[-124.08543,41.85118],[-124.08533,41.85108],[-124.08518,41.85101],[-124.08508,41.85098],[-124.08497,41.85099],[-124.08466,41.85104],[-124.08437,41.85104],[-124.08411,41.85099],[-124.08358,41.8508],[-124.08329,41.85078],[-124.08314,41.8508],[-124.08298,41.85084],[-124.08284,41.85089],[-124.08272,41.85097],[-124.08262,41.85107],[-124.08256,41.85118],[-124.08252,41.85145],[-124.08245,41.85169],[-124.08237,41.85185],[-124.08232,41.85198],[-124.08212,41.85225],[-124.082,41.85239],[-124.08173,41.85262],[-124.0812,41.85293],[-124.08039,41.85335],[-124.08023,41.8534],[-124.07997,41.85345],[-124.07985,41.85349],[-124.07973,41.85356],[-124.07959,41.85367],[-124.07941,41.85388],[-124.07931,41.85395],[-124.07886,41.8542],[-124.07834,41.85454],[-124.07815,41.85473],[-124.07787,41.85518],[-124.07772,41.85536],[-124.07749,41.85555],[-124.07726,41.85566],[-124.07693,41.85586],[-124.07686,41.85592],[-124.07675,41.85609],[-124.07666,41.85625],[-124.07653,41.85645],[-124.07629,41.85669],[-124.07618,41.85687],[-124.07613,41.8573],[-124.07612,41.85766],[-124.07613,41.85814],[-124.07619,41.85854],[-124.07617,41.85868],[-124.0761,41.85882],[-124.07593,41.85908],[-124.07591,41.85919],[-124.07591,41.85929],[-124.07598,41.85948],[-124.0761,41.85968],[-124.07627,41.85989],[-124.07632,41.86],[-124.07636,41.8601],[-124.07643,41.86055],[-124.07642,41.86068],[-124.07636,41.8609],[-124.07608,41.86141],[-124.07604,41.86166],[-124.07597,41.86254],[-124.07594,41.86267],[-124.07584,41.86292],[-124.07574,41.86308],[-124.07508,41.86398],[-124.07488,41.86421],[-124.07477,41.86429],[-124.07447,41.86442],[-124.07434,41.86453],[-124.07393,41.86503],[-124.07371,41.86539],[-124.07366,41.86556],[-124.07366,41.86568],[-124.07369,41.8659],[-124.07408,41.86699],[-124.07416,41.86727],[-124.07419,41.86756],[-124.07432,41.8679],[-124.07443,41.86871],[-124.0745,41.86894],[-124.07465,41.86923],[-124.07449,41.86939],[-124.07432,41.8696],[-124.07414,41.86978],[-124.07377,41.86997],[-124.07364,41.87002],[-124.0733,41.8701],[-124.07316,41.87014],[-124.07302,41.87022],[-124.07292,41.87032],[-124.07285,41.87044],[-124.07273,41.8709],[-124.07267,41.87106],[-124.07259,41.87123],[-124.07248,41.87138],[-124.07222,41.87159],[-124.07196,41.87174],[-124.07182,41.87177],[-124.07162,41.87178],[-124.07142,41.87176],[-124.07109,41.87169],[-124.07061,41.87167],[-124.07035,41.87163],[-124.06979,41.87148],[-124.06962,41.87147],[-124.06945,41.87148],[-124.06927,41.87153],[-124.06911,41.87162],[-124.06871,41.87196],[-124.06849,41.87208],[-124.06789,41.87226],[-124.06776,41.87228],[-124.06763,41.87228],[-124.0675,41.87226],[-124.06739,41.87222],[-124.06729,41.87217],[-124.0672,41.87209],[-124.06713,41.87201],[-124.0671,41.87194],[-124.06706,41.87172],[-124.06701,41.87162],[-124.06694,41.87157],[-124.06677,41.87152],[-124.06661,41.87151],[-124.0663,41.87151],[-124.06612,41.87153],[-124.06594,41.87157],[-124.06578,41.87164],[-124.06563,41.87174],[-124.06555,41.87181],[-124.06522,41.87221],[-124.0651,41.87239],[-124.06498,41.87264],[-124.06489,41.87305],[-124.06471,41.87362],[-124.06447,41.87461],[-124.06447,41.87473],[-124.06451,41.87491],[-124.06469,41.87514],[-124.06474,41.87526],[-124.06476,41.87536],[-124.06465,41.87602],[-124.06466,41.87615],[-124.06476,41.87654],[-124.06477,41.87669],[-124.06472,41.87687],[-124.06467,41.87697],[-124.06427,41.87751],[-124.06406,41.87801],[-124.06361,41.87895],[-124.06355,41.87914],[-124.06354,41.87926],[-124.06358,41.87941],[-124.06369,41.87962],[-124.06375,41.87971],[-124.06402,41.87999],[-124.0645,41.88063],[-124.06521,41.88188],[-124.06596,41.8827],[-124.06608,41.88295],[-124.06617,41.88305],[-124.06624,41.88312],[-124.06679,41.88348],[-124.06693,41.88354],[-124.06707,41.88358],[-124.06721,41.88359],[-124.06757,41.88354],[-124.06787,41.88355],[-124.06806,41.8836],[-124.06833,41.88376],[-124.06858,41.88417],[-124.06873,41.88446],[-124.06906,41.88484],[-124.06928,41.88531],[-124.06987,41.88703],[-124.07006,41.88777],[-124.07015,41.88837],[-124.07015,41.88848],[-124.06992,41.88989],[-124.06983,41.89016],[-124.06958,41.89071],[-124.06948,41.89089],[-124.06921,41.89125],[-124.06918,41.89132],[-124.06913,41.89175],[-124.06899,41.892],[-124.06875,41.89232],[-124.0687,41.89237],[-124.06849,41.89247],[-124.06821,41.89252],[-124.06784,41.89255],[-124.06756,41.8926],[-124.06736,41.89266],[-124.06661,41.89293],[-124.06638,41.89298],[-124.06623,41.893],[-124.06536,41.89301],[-124.06506,41.89305],[-124.06471,41.89312],[-124.06429,41.89323],[-124.064,41.89327],[-124.06375,41.89333],[-124.06348,41.89348],[-124.06329,41.89361],[-124.06319,41.89373],[-124.0631,41.89394],[-124.06298,41.89406],[-124.06248,41.89435],[-124.06236,41.8944],[-124.0622,41.89443],[-124.06214,41.89443],[-124.06203,41.8944],[-124.06168,41.89408],[-124.06158,41.89402],[-124.06096,41.89374],[-124.06044,41.89354],[-124.06009,41.89341],[-124.05993,41.89341],[-124.05985,41.89342],[-124.05968,41.89349],[-124.05962,41.89354],[-124.05957,41.8936],[-124.05954,41.89367],[-124.05956,41.89372],[-124.05962,41.89376],[-124.05985,41.89379],[-124.06012,41.89389],[-124.06033,41.894],[-124.0606,41.8942],[-124.06064,41.89427],[-124.06068,41.89435],[-124.06073,41.89457],[-124.06075,41.89489],[-124.06069,41.89567],[-124.06046,41.89631],[-124.06032,41.89648],[-124.06027,41.89658],[-124.06024,41.89673],[-124.06025,41.89681],[-124.0604,41.89717],[-124.06043,41.89728],[-124.06047,41.89764],[-124.06045,41.89771],[-124.06034,41.89786],[-124.05982,41.89827],[-124.05973,41.8984],[-124.05954,41.89886],[-124.05928,41.89923],[-124.05925,41.89931],[-124.0592,41.89965],[-124.05915,41.8997],[-124.05909,41.89974],[-124.05867,41.8999],[-124.0586,41.89995],[-124.05856,41.9],[-124.0585,41.90017],[-124.05855,41.9008],[-124.05854,41.90088],[-124.05849,41.90096],[-124.05827,41.90119],[-124.05795,41.90181],[-124.05722,41.90269],[-124.05701,41.90289],[-124.05682,41.90312],[-124.05666,41.90322],[-124.05643,41.9033],[-124.05613,41.90333],[-124.05571,41.90343],[-124.05559,41.90347],[-124.05522,41.90369],[-124.055,41.90379],[-124.05339,41.90434],[-124.05311,41.90441],[-124.05271,41.90446],[-124.05261,41.90448],[-124.05187,41.90471],[-124.0513,41.90498],[-124.05071,41.90517],[-124.05056,41.90524],[-124.05049,41.9053],[-124.05039,41.90541],[-124.05017,41.90589],[-124.05003,41.9061],[-124.04998,41.90623],[-124.04998,41.90662],[-124.05001,41.9069],[-124.05016,41.90731],[-124.05019,41.90766],[-124.05029,41.90791],[-124.05062,41.90843],[-124.05068,41.90861],[-124.05069,41.90892],[-124.05057,41.90988],[-124.05043,41.91025],[-124.04996,41.9109],[-124.04983,41.91114],[-124.04966,41.9113],[-124.04927,41.91157],[-124.04916,41.91167],[-124.04895,41.91195],[-124.04886,41.91215],[-124.04883,41.91225],[-124.04883,41.91238],[-124.04886,41.9125],[-124.04903,41.91284],[-124.04906,41.91295],[-124.04906,41.91307],[-124.04881,41.91389],[-124.04883,41.91405],[-124.04891,41.91416],[-124.0494,41.91453],[-124.05026,41.91499],[-124.05056,41.9152],[-124.05073,41.91529],[-124.05092,41.91538],[-124.05125,41.91548],[-124.05207,41.91567],[-124.05226,41.91574],[-124.05255,41.91587],[-124.05276,41.91606],[-124.05289,41.91614],[-124.05316,41.91622],[-124.05328,41.91632],[-124.05342,41.91646],[-124.05346,41.91666],[-124.05337,41.91695],[-124.05327,41.91742],[-124.05307,41.91792],[-124.05282,41.91866],[-124.05281,41.91889],[-124.05286,41.91912],[-124.05269,41.919],[-124.05249,41.91834],[-124.05247,41.91824],[-124.05248,41.91804],[-124.05251,41.91769],[-124.05247,41.91744],[-124.05214,41.91694],[-124.05211,41.91675],[-124.05196,41.91663],[-124.05186,41.91664],[-124.05174,41.91674],[-124.05141,41.91706],[-124.05128,41.91715],[-124.05116,41.91722],[-124.05099,41.91727],[-124.05065,41.91734],[-124.05056,41.91739],[-124.0504,41.91758],[-124.05028,41.91769],[-124.05022,41.91773],[-124.05011,41.91777],[-124.05,41.9178],[-124.04988,41.91781],[-124.04976,41.9178],[-124.04959,41.91776],[-124.04945,41.91781],[-124.04892,41.91834],[-124.04879,41.9184],[-124.04865,41.91843],[-124.04815,41.91842],[-124.04806,41.91845],[-124.04775,41.91881],[-124.04762,41.91891],[-124.04744,41.91902],[-124.04724,41.91909],[-124.04709,41.91912],[-124.04676,41.91924],[-124.0466,41.91928],[-124.0463,41.9193],[-124.04603,41.91936],[-124.04586,41.91945],[-124.04548,41.91978],[-124.0453,41.91992],[-124.04517,41.91999],[-124.04479,41.9201],[-124.04467,41.92013],[-124.04444,41.92014],[-124.04419,41.92012],[-124.04371,41.92011],[-124.04333,41.9202],[-124.04322,41.92019],[-124.04311,41.92016],[-124.04279,41.92],[-124.04224,41.91964],[-124.04207,41.91956],[-124.04184,41.91948],[-124.0416,41.91943],[-124.04139,41.91936],[-124.0411,41.91924],[-124.04061,41.91911],[-124.04036,41.91901],[-124.0403,41.91896],[-124.04022,41.91885],[-124.04015,41.91858],[-124.04005,41.91836],[-124.03999,41.9183],[-124.03973,41.91813],[-124.03968,41.91807],[-124.03935,41.91756],[-124.0389,41.91714],[-124.03883,41.91705],[-124.03878,41.91692],[-124.03874,41.91658],[-124.03868,41.91633],[-124.0387,41.91623],[-124.03879,41.91603],[-124.03879,41.91593],[-124.03877,41.9159],[-124.03869,41.9158],[-124.03823,41.91551],[-124.03796,41.91532],[-124.03789,41.91526],[-124.03782,41.91513],[-124.03783,41.91507],[-124.03787,41.91495],[-124.038,41.9147],[-124.03812,41.91415],[-124.03826,41.914],[-124.03835,41.91388],[-124.03836,41.91382],[-124.03834,41.91373],[-124.03824,41.91343],[-124.03817,41.91291],[-124.03821,41.91278],[-124.03827,41.91275],[-124.03862,41.91269],[-124.03898,41.9127],[-124.03907,41.91268],[-124.03942,41.91249],[-124.03951,41.91247],[-124.03971,41.91246],[-124.0398,41.91244],[-124.03984,41.9124],[-124.0398,41.9123],[-124.03967,41.91221],[-124.03933,41.91208],[-124.03908,41.91195],[-124.03879,41.91175],[-124.0384,41.91139],[-124.0383,41.91134],[-124.03804,41.91128],[-124.03743,41.91119],[-124.03731,41.91115],[-124.03723,41.91112],[-124.03718,41.91107],[-124.03708,41.91088],[-124.03691,41.91063],[-124.0368,41.91054],[-124.03674,41.91043],[-124.03671,41.91034],[-124.03668,41.91006],[-124.03663,41.90985],[-124.03641,41.9097],[-124.03633,41.90962],[-124.03612,41.90923],[-124.03599,41.9089],[-124.03563,41.9084],[-124.03551,41.90807],[-124.03535,41.90789],[-124.03524,41.90782],[-124.03511,41.90778],[-124.03498,41.90778],[-124.03484,41.9078],[-124.03475,41.90785],[-124.03399,41.90807],[-124.03387,41.90813],[-124.03377,41.90821],[-124.0337,41.9083],[-124.03356,41.9086],[-124.03347,41.90886],[-124.03336,41.90942],[-124.03327,41.90954],[-124.03316,41.90961],[-124.03271,41.90979],[-124.03259,41.90985],[-124.03214,41.91016],[-124.03206,41.91024],[-124.03183,41.91056],[-124.03172,41.91068],[-124.03161,41.91077],[-124.03136,41.91086],[-124.03084,41.91106],[-124.03064,41.91112],[-124.03042,41.91115],[-124.02999,41.91119],[-124.0298,41.91125],[-124.02899,41.91158],[-124.02864,41.91189],[-124.02831,41.91206],[-124.02774,41.9125],[-124.02756,41.91261],[-124.02747,41.91265],[-124.02676,41.91289],[-124.02662,41.91298],[-124.02659,41.91303],[-124.02659,41.91309],[-124.02663,41.91321],[-124.02674,41.91339],[-124.02685,41.91351],[-124.02736,41.91381],[-124.02743,41.91389],[-124.02744,41.91395],[-124.02741,41.91403],[-124.02726,41.91413],[-124.02676,41.91442],[-124.0263,41.91467],[-124.02596,41.91479],[-124.02591,41.91484],[-124.02588,41.91495],[-124.02587,41.91506],[-124.02592,41.91539],[-124.0259,41.91548],[-124.02585,41.91557],[-124.02579,41.91561],[-124.02557,41.91566],[-124.02459,41.91583],[-124.02447,41.91587],[-124.02435,41.91591],[-124.02399,41.9161],[-124.0238,41.91623],[-124.0235,41.91634],[-124.02336,41.91637],[-124.02281,41.91642],[-124.02238,41.91642],[-124.02223,41.91645],[-124.02209,41.91649],[-124.02197,41.91656],[-124.02187,41.91664],[-124.02143,41.91714],[-124.02127,41.91723],[-124.02098,41.91734],[-124.02069,41.91762],[-124.02035,41.918],[-124.01988,41.91864],[-124.01979,41.91884],[-124.01977,41.91922],[-124.0196,41.92001],[-124.01963,41.92012],[-124.01968,41.92018],[-124.01973,41.92021],[-124.0202,41.92033],[-124.02035,41.92035],[-124.0205,41.9204],[-124.02064,41.92048],[-124.02075,41.92057],[-124.02084,41.92069],[-124.02097,41.92094],[-124.02109,41.92131],[-124.02148,41.92208],[-124.0215,41.92214],[-124.0215,41.92239],[-124.02148,41.92252],[-124.02126,41.92317],[-124.02088,41.92414],[-124.02068,41.92503],[-124.02049,41.92559],[-124.01965,41.92719],[-124.01956,41.92746],[-124.01944,41.92797],[-124.01933,41.92882],[-124.01929,41.92942],[-124.01932,41.92954],[-124.01947,41.9298],[-124.01954,41.92999],[-124.01955,41.93019],[-124.01956,41.93166],[-124.01945,41.93198],[-124.01943,41.93221],[-124.01933,41.93248],[-124.01926,41.9326],[-124.01887,41.93298],[-124.01842,41.93326],[-124.01768,41.93381],[-124.01758,41.93391],[-124.01751,41.93403],[-124.01747,41.93424],[-124.0174,41.93438],[-124.0173,41.93451],[-124.01717,41.93462],[-124.01698,41.93473],[-124.01687,41.93483],[-124.0167,41.93507],[-124.01651,41.93546],[-124.0165,41.93558],[-124.01652,41.936],[-124.01638,41.93655],[-124.01633,41.937],[-124.01633,41.93732],[-124.0163,41.93738],[-124.01613,41.93754],[-124.01608,41.93763],[-124.01589,41.93834],[-124.01584,41.93849],[-124.01573,41.93864],[-124.01563,41.93873],[-124.01539,41.9389],[-124.01526,41.93895],[-124.01488,41.9398],[-124.01475,41.94005],[-124.01442,41.94056],[-124.01408,41.94118],[-124.0138,41.9418],[-124.01356,41.9424],[-124.01348,41.94265],[-124.01341,41.94305],[-124.01327,41.94356],[-124.01325,41.94372],[-124.01326,41.94392],[-124.01332,41.9441],[-124.0134,41.94426],[-124.0135,41.94439],[-124.01364,41.94451],[-124.01398,41.94469],[-124.01414,41.94476],[-124.01461,41.94488],[-124.01488,41.94491],[-124.01552,41.94496],[-124.01565,41.945],[-124.01584,41.94511],[-124.01594,41.94519],[-124.01604,41.94528],[-124.01625,41.94562],[-124.01632,41.9457],[-124.01684,41.94622],[-124.01712,41.94639],[-124.01729,41.94646],[-124.01774,41.94657],[-124.01804,41.94669],[-124.01848,41.94706],[-124.01934,41.94773],[-124.01957,41.94776],[-124.01972,41.94767],[-124.01986,41.94746],[-124.02002,41.94728],[-124.02008,41.94724],[-124.02022,41.9472],[-124.02039,41.9472],[-124.02066,41.94726],[-124.02107,41.94739],[-124.02137,41.94752],[-124.02154,41.94761],[-124.02174,41.94776],[-124.02204,41.94804],[-124.02228,41.94833],[-124.02248,41.94876],[-124.02263,41.94919],[-124.02288,41.94955],[-124.02336,41.94991],[-124.02378,41.95019],[-124.02402,41.95033],[-124.02415,41.95043],[-124.02434,41.95061],[-124.02469,41.951],[-124.02505,41.95146],[-124.02534,41.95172],[-124.02573,41.95195],[-124.02632,41.95227],[-124.02661,41.95246],[-124.02675,41.95257],[-124.02711,41.95298],[-124.02749,41.95327],[-124.02767,41.95343],[-124.02782,41.95363],[-124.02794,41.95385],[-124.02816,41.95462],[-124.02839,41.95505],[-124.02854,41.95523],[-124.0287,41.95538],[-124.02912,41.95565],[-124.03015,41.95616],[-124.03038,41.95632],[-124.0305,41.95645],[-124.03059,41.95663],[-124.03088,41.95766],[-124.03089,41.95783],[-124.03081,41.95826],[-124.03083,41.95844],[-124.0309,41.95873],[-124.03101,41.95905],[-124.03158,41.96],[-124.0316,41.96012],[-124.03162,41.96134],[-124.0317,41.96186],[-124.03172,41.96227],[-124.03176,41.96238],[-124.03241,41.96298],[-124.03255,41.96308],[-124.03298,41.96326],[-124.03307,41.96331],[-124.03316,41.9634],[-124.03321,41.9635],[-124.03321,41.96357],[-124.0331,41.96441],[-124.03301,41.9646],[-124.03292,41.9647],[-124.03276,41.96482],[-124.03266,41.96487],[-124.03246,41.96494],[-124.03235,41.96496],[-124.03189,41.96502],[-124.03181,41.96504],[-124.03171,41.96512],[-124.03153,41.96547],[-124.03138,41.96584],[-124.03118,41.9665],[-124.03111,41.96667],[-124.031,41.9668],[-124.03094,41.96685],[-124.03083,41.9669],[-124.03072,41.96692],[-124.03023,41.96689],[-124.03003,41.9669],[-124.02971,41.96697],[-124.02928,41.96701],[-124.02918,41.96704],[-124.02909,41.96709],[-124.02823,41.96784],[-124.02769,41.96847],[-124.02763,41.96859],[-124.02752,41.96956],[-124.02749,41.96971],[-124.02738,41.96997],[-124.0272,41.97059],[-124.02688,41.97198],[-124.02684,41.97209],[-124.02657,41.97238],[-124.02643,41.97259],[-124.02638,41.9727],[-124.02635,41.97321],[-124.02624,41.97348],[-124.0262,41.97362],[-124.02617,41.97379],[-124.02618,41.97395],[-124.02627,41.97442],[-124.02639,41.97466],[-124.02648,41.97487],[-124.02657,41.97519],[-124.02665,41.97539],[-124.02683,41.97571],[-124.02691,41.97588],[-124.0271,41.97651],[-124.02715,41.97661],[-124.0272,41.97668],[-124.02746,41.97693],[-124.02778,41.9772],[-124.02787,41.97732],[-124.02794,41.97767],[-124.02803,41.97786],[-124.02836,41.97825],[-124.02895,41.97881],[-124.02937,41.97948],[-124.02946,41.97966],[-124.02949,41.97982],[-124.02943,41.98053],[-124.02937,41.98069],[-124.02926,41.98088],[-124.02905,41.98113],[-124.02867,41.98141],[-124.0286,41.98149],[-124.02856,41.98158],[-124.02846,41.98184],[-124.02834,41.98198],[-124.02798,41.98228],[-124.02769,41.98264],[-124.0276,41.98272],[-124.02743,41.98285],[-124.02678,41.98345],[-124.02661,41.98359],[-124.02647,41.98369],[-124.02633,41.98376],[-124.02603,41.98385],[-124.02594,41.98391],[-124.02576,41.98408],[-124.02554,41.98433],[-124.02541,41.98444],[-124.0253,41.9845],[-124.02518,41.98453],[-124.02493,41.98452],[-124.02436,41.98445],[-124.02409,41.98445],[-124.02383,41.98454],[-124.02366,41.98462],[-124.0234,41.9847],[-124.02257,41.98479],[-124.02234,41.98483],[-124.02194,41.98496],[-124.02168,41.98499],[-124.02122,41.98498],[-124.02096,41.98496],[-124.0208,41.98496],[-124.02068,41.98497],[-124.02052,41.98503],[-124.02046,41.98508],[-124.0203,41.9854],[-124.0202,41.98551],[-124.02,41.98561],[-124.01978,41.9857],[-124.01923,41.98586],[-124.01906,41.98593],[-124.01885,41.98607],[-124.01862,41.9863],[-124.01847,41.98662],[-124.01819,41.9874],[-124.01807,41.9876],[-124.01794,41.9877],[-124.01766,41.98782],[-124.0175,41.98792],[-124.01737,41.98806],[-124.01727,41.98826],[-124.01722,41.98857],[-124.01726,41.98879],[-124.01731,41.98887],[-124.01737,41.98892],[-124.01773,41.9891],[-124.01788,41.98921],[-124.01794,41.98929],[-124.01794,41.98938],[-124.01791,41.9894],[-124.01772,41.98947],[-124.01692,41.98963],[-124.01673,41.98971],[-124.01646,41.9899],[-124.0163,41.98999],[-124.01613,41.99005],[-124.01592,41.99007],[-124.01543,41.99009],[-124.01448,41.9901],[-124.01401,41.99005],[-124.01386,41.99001],[-124.01368,41.98999],[-124.01334,41.98999],[-124.0129,41.9901],[-124.01276,41.99012],[-124.01237,41.99013],[-124.01208,41.99027],[-124.01186,41.99041],[-124.01161,41.99055],[-124.01143,41.99061],[-124.01129,41.99063],[-124.01115,41.99062],[-124.01066,41.99048],[-124.01053,41.99047],[-124.01047,41.99049],[-124.01041,41.99051],[-124.01038,41.99055],[-124.01037,41.99068],[-124.01042,41.99081],[-124.0106,41.99103],[-124.01061,41.99117],[-124.01055,41.99129],[-124.01039,41.99145],[-124.01031,41.99151],[-124.01004,41.99166],[-124.00983,41.99173],[-124.00965,41.99175],[-124.0087,41.99171],[-124.00849,41.99173],[-124.00825,41.99179],[-124.00809,41.99186],[-124.00769,41.9921],[-124.00759,41.99215],[-124.00729,41.99221],[-124.00629,41.99222],[-124.0057,41.99214],[-124.00555,41.99216],[-124.00537,41.99227],[-124.00524,41.9924],[-124.00504,41.99269],[-124.00494,41.99287],[-124.00479,41.99307],[-124.00408,41.99357],[-124.00353,41.99413],[-124.00333,41.9943],[-124.00303,41.9945],[-124.00285,41.99459],[-124.00266,41.99466],[-124.00242,41.99472],[-124.00213,41.99477],[-124.00197,41.99477],[-124.00134,41.99471],[-123.99983,41.99462],[-123.99966,41.99459],[-123.99931,41.99448],[-123.99918,41.99446],[-123.99907,41.99445],[-123.99895,41.99447],[-123.99852,41.99457],[-123.9982,41.99458],[-123.998,41.99456],[-123.99768,41.99443],[-123.99761,41.99438],[-123.99756,41.99433],[-123.99754,41.99427],[-123.9975,41.99404],[-123.99744,41.99389],[-123.99727,41.99375],[-123.99711,41.99356],[-123.99684,41.99315],[-123.99644,41.99249],[-123.99586,41.99178],[-123.99555,41.99126],[-123.99529,41.99095],[-123.99492,41.99056],[-123.99394,41.98891],[-123.99369,41.98854],[-123.99345,41.98808],[-123.9934,41.9879],[-123.99335,41.98778],[-123.99291,41.98711],[-123.99259,41.98674],[-123.99245,41.98666],[-123.99208,41.98649],[-123.99151,41.98634],[-123.99025,41.98606],[-123.9898,41.98602],[-123.98926,41.98598],[-123.98896,41.986],[-123.98846,41.98607],[-123.98779,41.98612],[-123.98754,41.98611],[-123.98706,41.98607],[-123.98689,41.98602],[-123.98679,41.98596],[-123.98647,41.98565],[-123.98594,41.98527],[-123.98547,41.98499],[-123.98532,41.98488],[-123.98485,41.98442],[-123.98471,41.98431],[-123.98462,41.98426],[-123.98445,41.98423],[-123.98426,41.98423],[-123.98395,41.98428],[-123.9836,41.98439],[-123.98353,41.98447],[-123.98334,41.98481],[-123.98326,41.98491],[-123.98322,41.98494],[-123.98304,41.98499],[-123.98288,41.985],[-123.98177,41.98504],[-123.98164,41.98504],[-123.98142,41.985],[-123.98108,41.98485],[-123.98092,41.98475],[-123.98075,41.98459],[-123.98069,41.98445],[-123.98066,41.98411],[-123.98057,41.98376],[-123.98046,41.98344],[-123.98035,41.98326],[-123.98002,41.98297],[-123.97952,41.98262],[-123.97937,41.98252],[-123.97908,41.98243],[-123.97896,41.98242],[-123.97885,41.98244],[-123.97844,41.98259],[-123.97823,41.98262],[-123.97813,41.98273],[-123.97801,41.98298],[-123.97796,41.98315],[-123.97795,41.98349],[-123.97797,41.98368],[-123.97795,41.98382],[-123.97774,41.98431],[-123.97766,41.98437],[-123.97747,41.98439],[-123.97735,41.98437],[-123.97721,41.98423],[-123.9771,41.98416],[-123.97601,41.98358],[-123.97568,41.98344],[-123.97555,41.98336],[-123.97519,41.98312],[-123.97487,41.98295],[-123.97407,41.98261],[-123.97392,41.98257],[-123.97384,41.98256],[-123.9738,41.98257],[-123.97376,41.98267],[-123.97387,41.98326],[-123.97389,41.98369],[-123.97391,41.98377],[-123.97402,41.98396],[-123.97409,41.9842],[-123.97416,41.98458],[-123.9742,41.98497],[-123.97418,41.98534],[-123.97433,41.98578],[-123.9743,41.98587],[-123.9742,41.98591],[-123.97404,41.98591],[-123.97389,41.98583],[-123.97359,41.98553],[-123.97317,41.98494],[-123.97301,41.98474],[-123.97289,41.98462],[-123.97267,41.98447],[-123.97256,41.98442],[-123.97242,41.98442],[-123.97239,41.98444],[-123.97241,41.98455],[-123.97264,41.98489],[-123.97277,41.98519],[-123.9728,41.98533],[-123.97281,41.98555],[-123.97278,41.9857],[-123.9727,41.98588],[-123.97256,41.98616],[-123.97252,41.98621],[-123.9724,41.98623],[-123.97234,41.98621],[-123.97228,41.98618],[-123.97213,41.98597],[-123.972,41.98573],[-123.97191,41.98544],[-123.97178,41.98527],[-123.97168,41.98519],[-123.97157,41.98515],[-123.97148,41.98513],[-123.97139,41.98514],[-123.97138,41.98519],[-123.97141,41.98541],[-123.97138,41.98551],[-123.97134,41.98555],[-123.97128,41.98557],[-123.97121,41.98556],[-123.97105,41.98552],[-123.97086,41.98542],[-123.97064,41.98524],[-123.97056,41.9851],[-123.97051,41.98495],[-123.9705,41.98479],[-123.97055,41.98463],[-123.97056,41.98454],[-123.97051,41.98427],[-123.97047,41.98416],[-123.97037,41.98403],[-123.97026,41.98392],[-123.9697,41.98345],[-123.96958,41.98337],[-123.96944,41.98331],[-123.96932,41.98327],[-123.96915,41.98325],[-123.96881,41.98322],[-123.96851,41.98322],[-123.96779,41.98324],[-123.9677,41.98322],[-123.96763,41.98318],[-123.9675,41.98302],[-123.96742,41.98297],[-123.9673,41.98295],[-123.96723,41.98302],[-123.96718,41.98324],[-123.96715,41.98348],[-123.96719,41.9836],[-123.96728,41.98364],[-123.96735,41.98365],[-123.96742,41.98363],[-123.96756,41.98356],[-123.96775,41.98356],[-123.9681,41.98368],[-123.96825,41.98376],[-123.96826,41.9838],[-123.96813,41.98389],[-123.96756,41.98405],[-123.96743,41.98406],[-123.96725,41.98403],[-123.96631,41.98375],[-123.96601,41.98365],[-123.96584,41.98355],[-123.96576,41.98347],[-123.96571,41.98337],[-123.96568,41.98327],[-123.96568,41.98317],[-123.96579,41.98281],[-123.96598,41.98236],[-123.96627,41.98181],[-123.96652,41.98143],[-123.96652,41.98134],[-123.96649,41.98129],[-123.96639,41.98121],[-123.96622,41.98115],[-123.96602,41.98111],[-123.96586,41.98112],[-123.96583,41.98118],[-123.96581,41.98124],[-123.96582,41.98158],[-123.96579,41.98172],[-123.96573,41.98182],[-123.96566,41.9819],[-123.96552,41.98204],[-123.96536,41.98219],[-123.96522,41.98227],[-123.96515,41.98229],[-123.96502,41.98232],[-123.96491,41.98235],[-123.96457,41.98253],[-123.96439,41.98259],[-123.96403,41.98267],[-123.96369,41.98274],[-123.96351,41.98276],[-123.9633,41.98274],[-123.96307,41.98271],[-123.96289,41.98272],[-123.96274,41.98268],[-123.96267,41.98265],[-123.96257,41.98252],[-123.96245,41.98247],[-123.96214,41.98234],[-123.96193,41.98221],[-123.96168,41.98205],[-123.96151,41.9817],[-123.96147,41.98156],[-123.96134,41.98143]]}}]}