{"type":"FeatureCollection","features":[{"type":"Feature","properties":{"name":"(unnamed public road)","road_class":"unclassified","surface":"gravel","motor_vehicle":"permissive","access":"permissive","source":"Caltrans All Roads + OpenStreetMap explicit surface","source_detail":"osm way 413159874; Caltrans All Roads public-network geometry match","source_tile":"158/383","public_network_source":"Caltrans All Roads (ARNOLD/HPMS)","surface_source":"OpenStreetMap explicit surface tag","caltrans_match_coverage":1.0,"verified_length_m":565},"geometry":{"type":"LineString","coordinates":[[-124.13049,41.16278],[-124.13022,41.16284],[-124.13,41.16294],[-124.12996,41.16296],[-124.1298,41.16306],[-124.12957,41.16326],[-124.12942,41.16348],[-124.12935,41.1637],[-124.12935,41.16392],[-124.12951,41.16443],[-124.12952,41.16459],[-124.12949,41.16479],[-124.12938,41.16504],[-124.12925,41.16523],[-124.12905,41.16542],[-124.12883,41.16559],[-124.12836,41.16584],[-124.12798,41.16595],[-124.12756,41.16602],[-124.1271,41.16606],[-124.12672,41.16606]]}}]}