{"type":"FeatureCollection","features":[{"type":"Feature","properties":{"name":"Vera Linda Lane","road_class":"unclassified","surface":"gravel","source":"Caltrans All Roads + OpenStreetMap explicit surface","source_detail":"osm way 1189931197; Caltrans All Roads public-network geometry match","source_tile":"158/384","public_network_source":"Caltrans All Roads (ARNOLD/HPMS)","surface_source":"OpenStreetMap explicit surface tag","caltrans_match_coverage":1.0,"verified_length_m":1054},"geometry":{"type":"LineString","coordinates":[[-124.15749,40.86347],[-124.15481,40.86843],[-124.15373,40.87037],[-124.15272,40.87229]]}}]}