{"type":"FeatureCollection","features":[{"type":"Feature","properties":{"name":"Bear Trap Road","road_class":"track","surface":"unpaved","source":"Caltrans All Roads + OpenStreetMap explicit surface","source_detail":"osm way 10259289; Caltrans All Roads public-network geometry match","source_tile":"158/386","public_network_source":"Caltrans All Roads (ARNOLD/HPMS)","surface_source":"OpenStreetMap explicit surface tag","caltrans_match_coverage":1.0,"verified_length_m":3449},"geometry":{"type":"LineString","coordinates":[[-124.13434,40.22378],[-124.13474,40.22359],[-124.1349,40.22352],[-124.13552,40.2232],[-124.13567,40.22313],[-124.13573,40.2231],[-124.13585,40.223],[-124.13608,40.22285],[-124.13619,40.2228],[-124.13651,40.22273],[-124.13674,40.2227],[-124.1371,40.2227],[-124.13724,40.22269],[-124.13738,40.22265],[-124.13775,40.22252],[-124.13786,40.22249],[-124.13803,40.22248],[-124.1382,40.2224],[-124.13828,40.22238],[-124.13841,40.22237],[-124.1389,40.22242],[-124.13927,40.22247],[-124.13963,40.2225],[-124.13978,40.22253],[-124.13989,40.22256],[-124.14013,40.22273],[-124.14025,40.22279],[-124.14038,40.22284],[-124.14052,40.22286],[-124.14099,40.22288],[-124.14126,40.22289],[-124.14141,40.22286],[-124.14157,40.22281],[-124.14167,40.22274],[-124.14177,40.22261],[-124.1418,40.22253],[-124.14181,40.22248],[-124.14179,40.2224],[-124.14171,40.22228],[-124.14168,40.22223],[-124.14168,40.22214],[-124.14175,40.22197],[-124.14179,40.22191],[-124.14194,40.22179],[-124.14213,40.22164],[-124.14216,40.22152],[-124.14221,40.22144],[-124.14227,40.22138],[-124.14243,40.22133],[-124.14257,40.22131],[-124.14324,40.22133],[-124.14335,40.22131],[-124.14351,40.22126],[-124.14364,40.22122],[-124.14386,40.22121],[-124.14408,40.22118],[-124.14428,40.22112],[-124.14488,40.22093],[-124.14499,40.22088],[-124.1451,40.2208],[-124.14524,40.22066],[-124.14539,40.22053],[-124.14553,40.22048],[-124.14566,40.2204],[-124.14572,40.22038],[-124.14592,40.22033],[-124.14599,40.2203],[-124.14618,40.22015],[-124.14624,40.22011],[-124.14635,40.22008],[-124.14644,40.22005],[-124.14655,40.21996],[-124.14665,40.21992],[-124.1468,40.2199],[-124.14697,40.21984],[-124.14702,40.21982],[-124.14712,40.21982],[-124.14732,40.2198],[-124.14743,40.21975],[-124.14765,40.2196],[-124.14775,40.21956],[-124.14793,40.21953],[-124.14806,40.21954],[-124.14817,40.21957],[-124.14837,40.2197],[-124.14844,40.21973],[-124.1486,40.21976],[-124.1487,40.21976],[-124.14905,40.2197],[-124.14927,40.21961],[-124.14947,40.21954],[-124.14973,40.21948],[-124.14986,40.21942],[-124.15007,40.21933],[-124.15014,40.21927],[-124.15018,40.21919],[-124.15019,40.21908],[-124.15017,40.21897],[-124.14998,40.21861],[-124.14994,40.21851],[-124.14992,40.21843],[-124.14991,40.21831],[-124.14994,40.21814],[-124.1499,40.2179],[-124.14999,40.21773],[-124.15013,40.21751],[-124.15024,40.21731],[-124.1503,40.21726],[-124.15051,40.21718],[-124.15064,40.2171],[-124.15072,40.21702],[-124.15075,40.21692],[-124.15074,40.21674],[-124.15075,40.21664],[-124.15077,40.21656],[-124.15086,40.21632],[-124.1509,40.2162],[-124.15091,40.21612],[-124.1507,40.21556],[-124.15068,40.21552],[-124.15063,40.2155],[-124.15058,40.21552],[-124.15046,40.21563],[-124.15032,40.21575],[-124.15019,40.21583],[-124.15013,40.21589],[-124.15009,40.21598],[-124.15008,40.21607],[-124.15003,40.21612],[-124.14999,40.21623],[-124.14995,40.21629],[-124.14987,40.21633],[-124.14962,40.21638],[-124.1495,40.21637],[-124.14944,40.21635],[-124.14941,40.21633],[-124.14935,40.21618],[-124.14932,40.21599],[-124.14929,40.21594],[-124.14914,40.21575],[-124.14912,40.2157],[-124.14911,40.21563],[-124.14914,40.21555],[-124.14926,40.21544],[-124.14935,40.21535],[-124.1494,40.21527],[-124.14942,40.21521],[-124.14941,40.21513],[-124.14941,40.21501],[-124.14932,40.21484],[-124.14931,40.21479],[-124.14932,40.2147],[-124.1494,40.21456],[-124.14953,40.21432],[-124.14957,40.21426],[-124.14964,40.21422],[-124.14965,40.21411],[-124.14967,40.21393],[-124.14968,40.21383],[-124.1497,40.2138],[-124.14979,40.2137],[-124.14985,40.21361],[-124.14988,40.21353],[-124.14987,40.21343],[-124.14983,40.21334],[-124.14954,40.21306],[-124.14952,40.213],[-124.14954,40.21293],[-124.14982,40.21273],[-124.14991,40.21264],[-124.15003,40.2125],[-124.15012,40.21244],[-124.15027,40.2124],[-124.15035,40.21235],[-124.15046,40.2122],[-124.15057,40.21209],[-124.15091,40.21181],[-124.15096,40.21175],[-124.151,40.21166],[-124.15101,40.21157],[-124.15098,40.2114],[-124.151,40.2112],[-124.15103,40.21102],[-124.15104,40.21081],[-124.151,40.21065],[-124.15101,40.21057],[-124.15106,40.21045],[-124.15107,40.2104],[-124.15107,40.2103],[-124.15097,40.2101],[-124.15097,40.21003],[-124.15099,40.20996],[-124.15104,40.2099],[-124.15114,40.20984],[-124.15123,40.20981],[-124.15133,40.20979],[-124.15148,40.20981],[-124.15152,40.2098],[-124.15155,40.20977],[-124.15155,40.20973],[-124.15153,40.20971],[-124.15121,40.20961],[-124.15112,40.20961],[-124.1509,40.20968],[-124.15082,40.2097],[-124.15075,40.2097],[-124.15068,40.20966],[-124.15063,40.2096],[-124.15061,40.20953],[-124.15062,40.20943],[-124.15066,40.20937],[-124.15072,40.20933],[-124.15089,40.20928],[-124.15096,40.20924],[-124.15101,40.20918],[-124.15115,40.20881],[-124.15119,40.20863],[-124.15123,40.20854],[-124.15137,40.20838],[-124.15166,40.20816],[-124.15185,40.20803],[-124.15235,40.20782],[-124.15255,40.2077]]}},{"type":"Feature","properties":{"name":"Smith-Etter Road","road_class":"track","surface":"unpaved","source":"Caltrans All Roads + OpenStreetMap explicit surface","source_detail":"osm way 10259870; Caltrans All Roads public-network geometry match","source_tile":"158/386","public_network_source":"Caltrans All Roads (ARNOLD/HPMS)","surface_source":"OpenStreetMap explicit surface tag","caltrans_match_coverage":1.0,"verified_length_m":4328},"geometry":{"type":"LineString","coordinates":[[-124.12195,40.2168],[-124.12224,40.21678],[-124.12235,40.21676],[-124.12296,40.2165],[-124.12309,40.21647],[-124.12333,40.21647],[-124.12345,40.21645],[-124.12355,40.21641],[-124.12379,40.21624],[-124.12398,40.21616],[-124.1241,40.21609],[-124.12432,40.21585],[-124.12442,40.21579],[-124.12459,40.21574],[-124.12498,40.21551],[-124.12519,40.2154],[-124.12542,40.2153],[-124.12565,40.21523],[-124.12588,40.21513],[-124.12599,40.21507],[-124.12605,40.21506],[-124.12613,40.21506],[-124.12619,40.21508],[-124.12623,40.21511],[-124.12622,40.2152],[-124.12624,40.21529],[-124.12629,40.21542],[-124.12633,40.21546],[-124.1264,40.21549],[-124.12644,40.21552],[-124.12653,40.21563],[-124.12664,40.21572],[-124.12692,40.21585],[-124.12718,40.21596],[-124.12752,40.21621],[-124.12766,40.21629],[-124.12783,40.21635],[-124.12807,40.2164],[-124.12819,40.21641],[-124.12842,40.21641],[-124.12856,40.21639],[-124.12867,40.21636],[-124.12892,40.21621],[-124.12916,40.21602],[-124.12925,40.21589],[-124.12934,40.21581],[-124.12964,40.21565],[-124.12978,40.21552],[-124.12992,40.21545],[-124.13014,40.21537],[-124.13046,40.21518],[-124.13056,40.21514],[-124.13067,40.21511],[-124.1309,40.21509],[-124.13098,40.21506],[-124.13112,40.21495],[-124.13128,40.21479],[-124.13147,40.21462],[-124.13167,40.2145],[-124.13176,40.21443],[-124.13189,40.21424],[-124.13196,40.21416],[-124.13206,40.21407],[-124.13219,40.21392],[-124.13235,40.21351],[-124.13244,40.2134],[-124.13259,40.2133],[-124.13277,40.21322],[-124.13288,40.21319],[-124.13302,40.21319],[-124.13312,40.21321],[-124.13319,40.2132],[-124.13334,40.21314],[-124.13342,40.21312],[-124.13351,40.21311],[-124.13362,40.21314],[-124.13404,40.21338],[-124.13411,40.21343],[-124.13419,40.21352],[-124.13427,40.21359],[-124.13432,40.21362],[-124.1344,40.21363],[-124.13446,40.21361],[-124.13465,40.21348],[-124.1348,40.2134],[-124.1349,40.21332],[-124.13496,40.21323],[-124.13504,40.21298],[-124.13506,40.21293],[-124.13512,40.21285],[-124.13519,40.21279],[-124.1353,40.21273],[-124.13572,40.21261],[-124.13589,40.21253],[-124.1362,40.21232],[-124.13634,40.21226],[-124.13649,40.21222],[-124.1367,40.2122],[-124.13688,40.21218],[-124.13706,40.21214],[-124.13719,40.21208],[-124.13729,40.21201],[-124.13736,40.21197],[-124.13744,40.21196],[-124.13756,40.21197],[-124.13777,40.21205],[-124.13789,40.21207],[-124.13808,40.21207],[-124.1382,40.21209],[-124.13833,40.21214],[-124.13853,40.21224],[-124.13863,40.21229],[-124.13876,40.21233],[-124.1389,40.21234],[-124.13903,40.21231],[-124.13933,40.21216],[-124.13937,40.21211],[-124.13939,40.21199],[-124.13941,40.21195],[-124.13948,40.21191],[-124.13956,40.21189],[-124.13967,40.21185],[-124.13994,40.21164],[-124.14003,40.21158],[-124.14028,40.21148],[-124.14038,40.21146],[-124.14057,40.2114],[-124.14069,40.21135],[-124.14076,40.2113],[-124.1408,40.21124],[-124.1408,40.21117],[-124.14074,40.21105],[-124.14067,40.21098],[-124.1403,40.21079],[-124.14007,40.21059],[-124.13995,40.21042],[-124.13979,40.21012],[-124.13976,40.20994],[-124.13973,40.20982],[-124.13962,40.20944],[-124.1395,40.2092],[-124.13946,40.20909],[-124.13944,40.20894],[-124.13935,40.20851],[-124.1393,40.20816],[-124.13926,40.20802],[-124.13902,40.20759],[-124.13898,40.20746],[-124.13898,40.20737],[-124.13901,40.20728],[-124.13914,40.20713],[-124.1392,40.20708],[-124.13939,40.20695],[-124.13948,40.20687],[-124.13956,40.20676],[-124.13969,40.20648],[-124.13993,40.20621],[-124.14007,40.20605],[-124.14014,40.20593],[-124.14017,40.20582],[-124.14018,40.20544],[-124.14023,40.20529],[-124.14028,40.20522],[-124.14082,40.20481],[-124.14095,40.20466],[-124.14109,40.20452],[-124.14115,40.2044],[-124.14124,40.20428],[-124.14135,40.20419],[-124.14149,40.2041],[-124.14168,40.204],[-124.14184,40.2039],[-124.1419,40.20388],[-124.14202,40.20385],[-124.14213,40.20386],[-124.14243,40.20393],[-124.14256,40.20395],[-124.14273,40.20393],[-124.14287,40.20394],[-124.14327,40.20405],[-124.14349,40.20412],[-124.14364,40.20418],[-124.14373,40.20423],[-124.14388,40.20428],[-124.14423,40.20431],[-124.14441,40.20435],[-124.14453,40.20438],[-124.14456,40.2044],[-124.1446,40.20445],[-124.14462,40.20463],[-124.14467,40.20473],[-124.14477,40.20482],[-124.14519,40.20507],[-124.14528,40.20515],[-124.14538,40.20517],[-124.14561,40.20514],[-124.14577,40.20515],[-124.14593,40.20519],[-124.14688,40.20552],[-124.14708,40.20561],[-124.14717,40.20561],[-124.14723,40.20559],[-124.1475,40.20543],[-124.14765,40.20536],[-124.14777,40.20533],[-124.14799,40.20531],[-124.14808,40.20527],[-124.14818,40.20517],[-124.14825,40.20513],[-124.14836,40.20509],[-124.14865,40.20505],[-124.14873,40.20504],[-124.1488,40.205],[-124.14902,40.20481],[-124.1491,40.20476],[-124.14918,40.20473],[-124.14927,40.20472],[-124.14939,40.20474],[-124.14951,40.2048],[-124.14966,40.20487],[-124.15009,40.20499],[-124.15038,40.20508],[-124.15053,40.20511],[-124.15064,40.20512],[-124.15087,40.20513],[-124.15098,40.20517],[-124.15107,40.20523],[-124.15123,40.20541],[-124.15125,40.20545],[-124.15125,40.20552],[-124.15122,40.20558],[-124.15104,40.20571],[-124.15099,40.20577],[-124.15096,40.20584],[-124.15095,40.20589],[-124.15095,40.20594],[-124.15099,40.20599],[-124.15118,40.20613],[-124.15134,40.20626],[-124.15138,40.20632],[-124.15141,40.20641],[-124.1514,40.20659],[-124.15136,40.20685],[-124.15131,40.20702],[-124.15126,40.20711],[-124.15121,40.20717],[-124.15113,40.20722],[-124.1511,40.20725],[-124.15107,40.20733],[-124.15109,40.20752],[-124.15113,40.2076],[-124.15122,40.20768],[-124.15131,40.20774],[-124.15141,40.20777],[-124.15151,40.20776],[-124.1517,40.20769],[-124.15181,40.20767],[-124.15193,40.20767],[-124.15212,40.20765],[-124.15255,40.2077]]}},{"type":"Feature","properties":{"name":"Mount Pierce Lookout Road","road_class":"unclassified","surface":"unpaved","source":"Caltrans All Roads + OpenStreetMap explicit surface","source_detail":"osm way 10280911; Caltrans All Roads public-network geometry match","source_tile":"158/386","public_network_source":"Caltrans All Roads (ARNOLD/HPMS)","surface_source":"OpenStreetMap explicit surface tag","caltrans_match_coverage":1.0,"verified_length_m":2437},"geometry":{"type":"LineString","coordinates":[[-124.13604,40.43069],[-124.13597,40.43066],[-124.13587,40.43067],[-124.13575,40.43077],[-124.13554,40.431],[-124.13532,40.43115],[-124.13518,40.43136],[-124.13496,40.43153],[-124.1348,40.43163],[-124.13463,40.43172],[-124.13442,40.43181],[-124.13415,40.4319],[-124.13369,40.43203],[-124.13337,40.43214],[-124.13313,40.43219],[-124.13258,40.43252],[-124.13245,40.43257],[-124.13232,40.43255],[-124.13225,40.43253],[-124.13221,40.43246],[-124.1322,40.43236],[-124.13222,40.4322],[-124.13227,40.43207],[-124.13245,40.43192],[-124.13258,40.43183],[-124.13281,40.43173],[-124.13301,40.4316],[-124.13313,40.43147],[-124.13325,40.43131],[-124.13334,40.43123],[-124.13341,40.43115],[-124.13343,40.43107],[-124.13342,40.43099],[-124.13336,40.43095],[-124.13323,40.43094],[-124.13309,40.43095],[-124.13297,40.43093],[-124.13286,40.43086],[-124.13273,40.43075],[-124.13249,40.43052],[-124.13229,40.43023],[-124.13203,40.43002],[-124.13194,40.42993],[-124.13195,40.42979],[-124.13203,40.42955],[-124.13199,40.42942],[-124.13175,40.42922],[-124.13161,40.42904],[-124.13152,40.42873],[-124.13155,40.42856],[-124.13167,40.42825],[-124.13173,40.42809],[-124.13185,40.42797],[-124.13189,40.42783],[-124.13188,40.42754],[-124.13184,40.42742],[-124.13175,40.42731],[-124.13165,40.42724],[-124.13123,40.42682],[-124.13106,40.4266],[-124.1309,40.42647],[-124.13082,40.42639],[-124.13076,40.42631],[-124.13073,40.42623],[-124.13075,40.42598],[-124.13077,40.42586],[-124.13076,40.42574],[-124.13072,40.42565],[-124.13063,40.42555],[-124.13054,40.42547],[-124.13043,40.42541],[-124.13026,40.42535],[-124.12993,40.42525],[-124.1298,40.42523],[-124.12954,40.42513],[-124.12936,40.42503],[-124.12922,40.42495],[-124.1291,40.42483],[-124.12894,40.42465],[-124.12884,40.42451],[-124.12872,40.42435],[-124.1286,40.42424],[-124.12847,40.42417],[-124.12821,40.42403],[-124.12796,40.42389],[-124.12783,40.42378],[-124.12772,40.42369],[-124.12764,40.4236],[-124.12758,40.4235],[-124.12754,40.42339],[-124.1275,40.42326],[-124.12748,40.42317],[-124.12741,40.423],[-124.12734,40.42291],[-124.12724,40.42281],[-124.12713,40.42275],[-124.12682,40.42262],[-124.12673,40.42257],[-124.12651,40.4224],[-124.12636,40.42227],[-124.12627,40.42216],[-124.12616,40.42206],[-124.1259,40.42186],[-124.1258,40.42173],[-124.12574,40.42156],[-124.12556,40.42127],[-124.12543,40.42113],[-124.12532,40.42105],[-124.12509,40.42095],[-124.12494,40.42087],[-124.12485,40.42078],[-124.12477,40.42068],[-124.12466,40.4204],[-124.1246,40.42031],[-124.12451,40.42024],[-124.12426,40.42012],[-124.12416,40.42003],[-124.124,40.41987],[-124.1238,40.41967],[-124.12363,40.41954],[-124.12343,40.41941],[-124.12325,40.41933],[-124.12297,40.41923],[-124.12282,40.41917],[-124.12256,40.41903],[-124.12235,40.41893],[-124.12208,40.41885],[-124.12186,40.41879],[-124.12177,40.41878]]}},{"type":"Feature","properties":{"name":"Smith-Etter Road","road_class":"track","surface":"unpaved","tracktype":"grade2","motor_vehicle":"yes","source":"Caltrans All Roads + OpenStreetMap explicit surface","source_detail":"osm way 553116841; Caltrans All Roads public-network geometry match","source_tile":"158/386","public_network_source":"Caltrans All Roads (ARNOLD/HPMS)","surface_source":"OpenStreetMap explicit surface tag","caltrans_match_coverage":0.993,"verified_length_m":13161},"geometry":{"type":"LineString","coordinates":[[-124.15255,40.2077],[-124.15277,40.20752],[-124.15315,40.20727],[-124.15323,40.20718],[-124.15339,40.2069],[-124.15342,40.20678],[-124.15341,40.20647],[-124.15342,40.20634],[-124.15346,40.2062],[-124.1535,40.20613],[-124.15353,40.20609],[-124.1538,40.2059],[-124.15405,40.20569],[-124.15412,40.20566],[-124.15422,40.20566],[-124.15431,40.20568],[-124.15437,40.20572],[-124.15451,40.2058],[-124.1546,40.20584],[-124.15486,40.20589],[-124.15497,40.20589],[-124.15506,40.20586],[-124.15515,40.20581],[-124.1554,40.2056],[-124.15559,40.20545],[-124.15565,40.20538],[-124.15575,40.20512],[-124.15582,40.205],[-124.1559,40.20495],[-124.15596,40.20493],[-124.15618,40.2049],[-124.15629,40.20486],[-124.15637,40.20479],[-124.15648,40.20464],[-124.15655,40.20459],[-124.15663,40.20456],[-124.1567,40.20455],[-124.15679,40.20458],[-124.15685,40.20461],[-124.15714,40.20485],[-124.15734,40.20498],[-124.15743,40.205],[-124.15753,40.20499],[-124.15759,40.20497],[-124.1578,40.20486],[-124.15792,40.20484],[-124.158,40.20484],[-124.15807,40.20481],[-124.15821,40.20467],[-124.15843,40.20443],[-124.15857,40.20431],[-124.15869,40.20424],[-124.15881,40.2042],[-124.15898,40.20415],[-124.15902,40.20411],[-124.15916,40.20385],[-124.15921,40.20379],[-124.15927,40.20376],[-124.15937,40.20374],[-124.15945,40.20368],[-124.15957,40.20352],[-124.15977,40.20316],[-124.15982,40.20301],[-124.15988,40.20295],[-124.15992,40.20293],[-124.16,40.20293],[-124.16007,40.20295],[-124.16011,40.20298],[-124.16034,40.20324],[-124.16055,40.20352],[-124.16058,40.20359],[-124.16063,40.20384],[-124.1607,40.20397],[-124.16078,40.20408],[-124.16094,40.20425],[-124.16109,40.20439],[-124.16113,40.20447],[-124.16116,40.20479],[-124.1612,40.2049],[-124.16123,40.20494],[-124.16132,40.205],[-124.1614,40.20502],[-124.16157,40.20503],[-124.162,40.20497],[-124.16208,40.20493],[-124.16214,40.20487],[-124.16216,40.2048],[-124.16216,40.20465],[-124.16218,40.20456],[-124.1623,40.20428],[-124.16236,40.20419],[-124.16254,40.20399],[-124.16273,40.20387],[-124.16281,40.20377],[-124.16289,40.20362],[-124.1631,40.20337],[-124.16312,40.20331],[-124.16314,40.20319],[-124.1632,40.2031],[-124.16326,40.20305],[-124.16362,40.20283],[-124.16397,40.20252],[-124.16403,40.20245],[-124.16408,40.20237],[-124.16416,40.20218],[-124.16427,40.20201],[-124.16428,40.20194],[-124.16427,40.20188],[-124.16403,40.20162],[-124.16398,40.20153],[-124.16396,40.20146],[-124.16396,40.20103],[-124.16391,40.20096],[-124.16384,40.20091],[-124.16331,40.20082],[-124.16324,40.20078],[-124.16318,40.20073],[-124.16309,40.20059],[-124.16301,40.20052],[-124.16269,40.20038],[-124.16266,40.20033],[-124.16267,40.20028],[-124.16271,40.20025],[-124.16305,40.20002],[-124.16313,40.19997],[-124.1634,40.1997],[-124.16377,40.19936],[-124.16381,40.19931],[-124.16382,40.19922],[-124.1638,40.19915],[-124.16375,40.19906],[-124.16358,40.19887],[-124.16349,40.19881],[-124.16339,40.19876],[-124.16336,40.19871],[-124.16335,40.19865],[-124.16339,40.19844],[-124.16341,40.1984],[-124.16367,40.19819],[-124.16376,40.19805],[-124.16381,40.19802],[-124.16412,40.19797],[-124.16419,40.19793],[-124.16426,40.19786],[-124.16433,40.19774],[-124.1644,40.19767],[-124.16454,40.19755],[-124.1646,40.19747],[-124.16475,40.19698],[-124.16481,40.19689],[-124.165,40.19674],[-124.16505,40.19667],[-124.16507,40.19659],[-124.16505,40.19585],[-124.16503,40.19578],[-124.16496,40.19565],[-124.16492,40.19547],[-124.16494,40.19543],[-124.165,40.19539],[-124.16506,40.19538],[-124.16513,40.1954],[-124.16517,40.19544],[-124.16527,40.19588],[-124.16553,40.19655],[-124.16554,40.19663],[-124.16554,40.19686],[-124.16553,40.19691],[-124.16546,40.19706],[-124.16548,40.19712],[-124.16553,40.19718],[-124.1656,40.1972],[-124.16587,40.19723],[-124.16601,40.19723],[-124.16613,40.19721],[-124.16625,40.19717],[-124.16637,40.1971],[-124.16651,40.197],[-124.16677,40.19671],[-124.16683,40.19662],[-124.16687,40.19658],[-124.16707,40.19646],[-124.16712,40.19639],[-124.16718,40.19629],[-124.16725,40.19622],[-124.16735,40.19617],[-124.16748,40.19613],[-124.16759,40.19612],[-124.16787,40.19616],[-124.16799,40.19614],[-124.16817,40.19608],[-124.16827,40.19606],[-124.16852,40.19606],[-124.1688,40.19608],[-124.16896,40.1961],[-124.16907,40.19608],[-124.16915,40.19605],[-124.16934,40.19591],[-124.16945,40.19588],[-124.16957,40.19588],[-124.16998,40.19589],[-124.17013,40.19591],[-124.17024,40.19595],[-124.17037,40.19602],[-124.1705,40.19613],[-124.17069,40.19636],[-124.17091,40.19657],[-124.17102,40.19665],[-124.17113,40.1967],[-124.17133,40.19675],[-124.17184,40.19693],[-124.17198,40.19696],[-124.17201,40.19699],[-124.17206,40.19706],[-124.17207,40.19712],[-124.17212,40.19718],[-124.17219,40.19721],[-124.17227,40.19721],[-124.17236,40.19719],[-124.17241,40.19714],[-124.17243,40.19708],[-124.17237,40.19694],[-124.17214,40.19663],[-124.17172,40.19621],[-124.17158,40.19606],[-124.17155,40.19599],[-124.17154,40.19592],[-124.17155,40.19578],[-124.17151,40.19572],[-124.17131,40.19558],[-124.17127,40.19552],[-124.17122,40.19538],[-124.17115,40.19528],[-124.17096,40.19511],[-124.17093,40.19506],[-124.17091,40.19494],[-124.17091,40.19478],[-124.17087,40.19471],[-124.17081,40.19464],[-124.17073,40.19451],[-124.17071,40.19442],[-124.17075,40.19431],[-124.1708,40.19421],[-124.17083,40.19397],[-124.17088,40.19391],[-124.17101,40.19382],[-124.17109,40.19372],[-124.17121,40.19362],[-124.17134,40.19353],[-124.17142,40.19344],[-124.17147,40.19331],[-124.17147,40.19324],[-124.17151,40.19317],[-124.17193,40.19271],[-124.17225,40.19237],[-124.17232,40.19233],[-124.17241,40.19231],[-124.17247,40.19226],[-124.17249,40.1922],[-124.17249,40.19204],[-124.17247,40.19191],[-124.17248,40.19183],[-124.17262,40.19164],[-124.17273,40.19141],[-124.17274,40.1913],[-124.17274,40.19091],[-124.17278,40.19084],[-124.17287,40.19072],[-124.17305,40.19055],[-124.17308,40.19049],[-124.17309,40.19039],[-124.17314,40.19029],[-124.17318,40.19023],[-124.17317,40.19012],[-124.17314,40.18988],[-124.17317,40.18982],[-124.17323,40.18976],[-124.17366,40.18953],[-124.17373,40.18947],[-124.17379,40.18939],[-124.17391,40.18911],[-124.17393,40.18901],[-124.17392,40.18891],[-124.1739,40.18883],[-124.17381,40.18865],[-124.1738,40.18857],[-124.17386,40.18838],[-124.17389,40.18816],[-124.17393,40.18807],[-124.17411,40.18789],[-124.17414,40.18784],[-124.17414,40.18774],[-124.17414,40.18713],[-124.17416,40.18703],[-124.17423,40.18684],[-124.17423,40.18677],[-124.17412,40.18646],[-124.17408,40.18637],[-124.17399,40.18623],[-124.17391,40.18606],[-124.17383,40.18595],[-124.17325,40.1854],[-124.17307,40.18527],[-124.17309,40.18518],[-124.17321,40.18519],[-124.17339,40.18528],[-124.17379,40.18552],[-124.17403,40.18565],[-124.17422,40.18577],[-124.17485,40.18631],[-124.17495,40.18641],[-124.17505,40.18653],[-124.17535,40.18693],[-124.17538,40.18695],[-124.17543,40.18697],[-124.17553,40.18698],[-124.17563,40.187],[-124.1757,40.187],[-124.17576,40.18695],[-124.17579,40.18689],[-124.17579,40.18685],[-124.17574,40.18676],[-124.17559,40.18643],[-124.1756,40.18637],[-124.17569,40.18624],[-124.17595,40.18576],[-124.17601,40.18573],[-124.17608,40.18571],[-124.17613,40.18566],[-124.17614,40.1856],[-124.17616,40.18536],[-124.17619,40.1853],[-124.17627,40.18524],[-124.17645,40.18515],[-124.17659,40.18511],[-124.17674,40.18509],[-124.17692,40.18509],[-124.17714,40.18507],[-124.17748,40.185],[-124.17754,40.18497],[-124.17758,40.18491],[-124.17766,40.18469],[-124.17771,40.18465],[-124.1781,40.18457],[-124.17833,40.18446],[-124.17869,40.18434],[-124.17879,40.18431],[-124.17893,40.18431],[-124.179,40.18432],[-124.17907,40.18433],[-124.17942,40.18447],[-124.17949,40.18448],[-124.17957,40.18445],[-124.17974,40.18435],[-124.17986,40.18431],[-124.18018,40.18425],[-124.18028,40.18425],[-124.18038,40.18428],[-124.18074,40.18448],[-124.18145,40.18491],[-124.18152,40.18498],[-124.18161,40.18511],[-124.18167,40.18518],[-124.18174,40.18524],[-124.18213,40.18552],[-124.18223,40.18555],[-124.18233,40.18556],[-124.18258,40.18552],[-124.18268,40.18548],[-124.18277,40.18541],[-124.18288,40.18528],[-124.18312,40.18516],[-124.1833,40.18509],[-124.18363,40.18494],[-124.18372,40.18491],[-124.18382,40.1849],[-124.18391,40.18492],[-124.18419,40.18504],[-124.18426,40.18507],[-124.18466,40.18514],[-124.18477,40.18514],[-124.18508,40.18514],[-124.18514,40.18516],[-124.18519,40.1852],[-124.18523,40.1853],[-124.18521,40.1856],[-124.18521,40.18601],[-124.18522,40.18606],[-124.18527,40.18617],[-124.18541,40.18638],[-124.1855,40.18649],[-124.1856,40.18655],[-124.18573,40.18659],[-124.18584,40.1866],[-124.18598,40.18659],[-124.18611,40.18662],[-124.18637,40.18675],[-124.18645,40.18676],[-124.18654,40.18675],[-124.18698,40.18653],[-124.187,40.18648],[-124.18702,40.18643],[-124.18707,40.18639],[-124.18722,40.18634],[-124.18735,40.18627],[-124.18757,40.18615],[-124.18768,40.18608],[-124.18778,40.18602],[-124.18803,40.18591],[-124.18808,40.18586],[-124.18821,40.18571],[-124.18829,40.18566],[-124.1889,40.18545],[-124.19011,40.18509],[-124.19028,40.18505],[-124.19046,40.18504],[-124.19087,40.18503],[-124.19104,40.18503],[-124.19137,40.18499],[-124.19157,40.18494],[-124.1917,40.18489],[-124.19192,40.18475],[-124.19213,40.18464],[-124.19237,40.18453],[-124.19279,40.18439],[-124.19291,40.18433],[-124.19305,40.18421],[-124.19317,40.18415],[-124.19357,40.18404],[-124.19367,40.18402],[-124.19377,40.18397],[-124.19395,40.1838],[-124.19404,40.18375],[-124.1941,40.18373],[-124.19435,40.18367],[-124.19509,40.18356],[-124.19523,40.18356],[-124.19535,40.1836],[-124.1955,40.18368],[-124.19566,40.18378],[-124.19572,40.18379],[-124.19598,40.18373],[-124.19605,40.18374],[-124.19619,40.18375],[-124.19628,40.18374],[-124.19635,40.1837],[-124.19641,40.18363],[-124.19658,40.18348],[-124.1967,40.18338],[-124.19679,40.18335],[-124.19688,40.18334],[-124.19699,40.18335],[-124.19738,40.18347],[-124.1982,40.18376],[-124.1983,40.18376],[-124.1984,40.18372],[-124.19853,40.18364],[-124.19873,40.18362],[-124.19886,40.18357],[-124.19901,40.18355],[-124.19917,40.18357],[-124.19954,40.18366],[-124.19963,40.18366],[-124.19971,40.18364],[-124.20008,40.18344],[-124.20024,40.18338],[-124.20037,40.18337],[-124.20045,40.18337],[-124.20054,40.18341],[-124.20065,40.18347],[-124.20077,40.1835],[-124.20099,40.18355],[-124.20103,40.18359],[-124.20109,40.18376],[-124.20128,40.18404],[-124.20144,40.18426],[-124.20154,40.18444],[-124.20154,40.18451],[-124.20142,40.18469],[-124.2013,40.18498],[-124.20119,40.18514],[-124.20118,40.18521],[-124.20121,40.18528],[-124.20128,40.18534],[-124.20136,40.18537],[-124.20152,40.18539],[-124.20157,40.18543],[-124.20159,40.18549],[-124.20157,40.18555],[-124.20152,40.18559],[-124.20147,40.1856],[-124.20136,40.18559],[-124.20129,40.18557],[-124.20121,40.18552],[-124.20112,40.1855],[-124.20105,40.18551],[-124.20098,40.18555],[-124.20094,40.18561],[-124.20093,40.18577],[-124.20097,40.18583],[-124.20104,40.18587],[-124.20113,40.18588],[-124.20134,40.1858],[-124.20145,40.18579],[-124.20152,40.1858],[-124.20171,40.18585],[-124.20185,40.18586],[-124.20191,40.18589],[-124.20195,40.18594],[-124.20194,40.186],[-124.20191,40.18606],[-124.20186,40.18609],[-124.20175,40.18611],[-124.20112,40.18613],[-124.20081,40.18612],[-124.20068,40.1861],[-124.20056,40.18605],[-124.20048,40.18605],[-124.20043,40.18609],[-124.20042,40.18611],[-124.20041,40.18619],[-124.20044,40.18643],[-124.20048,40.18647],[-124.20054,40.18649],[-124.20061,40.18648],[-124.20087,40.18639],[-124.20094,40.18639],[-124.20101,40.18641],[-124.20106,40.18645],[-124.20121,40.18668],[-124.2013,40.18675],[-124.20146,40.18683],[-124.20154,40.18685],[-124.20162,40.18684],[-124.20169,40.1868],[-124.20184,40.18666],[-124.20191,40.18663],[-124.20206,40.18658],[-124.20226,40.18652],[-124.20254,40.18649],[-124.20266,40.18644],[-124.20274,40.18639],[-124.20288,40.18626],[-124.20295,40.18624],[-124.20302,40.18625],[-124.20304,40.18626],[-124.20328,40.18645],[-124.20343,40.18663],[-124.20347,40.18671],[-124.20348,40.1868],[-124.2034,40.18708],[-124.20341,40.18721],[-124.20345,40.18731],[-124.20357,40.18754],[-124.20365,40.18765],[-124.20372,40.18769],[-124.20381,40.1877],[-124.2039,40.18769],[-124.20422,40.18757],[-124.20431,40.18758],[-124.20438,40.18761],[-124.20454,40.1878],[-124.20465,40.18796],[-124.20467,40.18804],[-124.20467,40.18822],[-124.20468,40.18827],[-124.20474,40.18836],[-124.20489,40.18853],[-124.205,40.18862],[-124.2051,40.18865],[-124.20521,40.18867],[-124.20542,40.18866],[-124.2055,40.1887],[-124.20554,40.18876],[-124.20554,40.18878],[-124.20556,40.18888],[-124.20552,40.18895],[-124.20548,40.18898],[-124.20524,40.1891],[-124.20495,40.18923],[-124.20489,40.18929],[-124.20487,40.18937],[-124.20487,40.18945],[-124.20489,40.1895],[-124.20495,40.18956],[-124.20503,40.1896],[-124.20517,40.18965],[-124.20527,40.18972],[-124.2053,40.18979],[-124.20529,40.18987],[-124.20526,40.18992],[-124.20508,40.19013],[-124.20505,40.19022],[-124.20506,40.19031],[-124.20517,40.19065],[-124.20517,40.19071],[-124.2051,40.19092],[-124.20503,40.19112],[-124.20502,40.19119],[-124.20504,40.19125],[-124.20517,40.1914],[-124.2052,40.19147],[-124.20522,40.19165],[-124.20524,40.19172],[-124.2053,40.19186],[-124.20535,40.19201],[-124.20541,40.19209],[-124.20548,40.19215],[-124.20556,40.1922],[-124.20565,40.19221],[-124.20598,40.19218],[-124.20624,40.19214],[-124.20636,40.19209],[-124.20658,40.19196],[-124.20671,40.19191],[-124.20684,40.1919],[-124.20696,40.19191],[-124.20703,40.19194],[-124.20706,40.19199],[-124.20708,40.19221],[-124.2071,40.19228],[-124.20714,40.19233],[-124.20718,40.19239],[-124.2074,40.19255],[-124.20741,40.1926],[-124.2074,40.19264],[-124.20728,40.19286],[-124.20728,40.1929],[-124.20728,40.19294],[-124.20736,40.19304],[-124.20745,40.19311],[-124.20764,40.19322],[-124.20769,40.19329],[-124.2077,40.1935],[-124.20764,40.19365],[-124.20764,40.19373],[-124.20772,40.19402],[-124.20775,40.19423],[-124.20772,40.19435],[-124.2076,40.19454],[-124.20758,40.19463],[-124.20754,40.19489],[-124.20735,40.19516],[-124.20735,40.19521],[-124.20739,40.19525],[-124.20746,40.19527],[-124.20817,40.19535],[-124.20829,40.19533],[-124.20855,40.19526],[-124.20867,40.19525],[-124.20879,40.19528],[-124.20887,40.19532],[-124.20915,40.1955],[-124.20923,40.19551],[-124.20953,40.19546],[-124.2097,40.19544],[-124.2098,40.19542],[-124.20989,40.19543],[-124.20997,40.19545],[-124.21017,40.19554],[-124.21037,40.19559],[-124.21053,40.19557],[-124.21075,40.19551],[-124.21087,40.19553],[-124.21094,40.19556],[-124.211,40.19559],[-124.21124,40.19588],[-124.21126,40.19596],[-124.21122,40.19623],[-124.21123,40.19633],[-124.21127,40.19642],[-124.21139,40.19658],[-124.21143,40.19664],[-124.21149,40.19699],[-124.21155,40.19712],[-124.21156,40.19717],[-124.21156,40.19726],[-124.21159,40.19732],[-124.21166,40.19735],[-124.21193,40.19739],[-124.21204,40.19743],[-124.21212,40.1975],[-124.21221,40.19761],[-124.21229,40.19778],[-124.2123,40.19781],[-124.21249,40.19805],[-124.21256,40.1983],[-124.21261,40.19833],[-124.21267,40.19834],[-124.21317,40.19836],[-124.21339,40.1984],[-124.21347,40.19844],[-124.21351,40.19849],[-124.21363,40.19872],[-124.21386,40.199],[-124.21433,40.19944],[-124.21458,40.19966],[-124.21475,40.19984],[-124.21478,40.19993],[-124.21479,40.20017],[-124.21481,40.20025],[-124.21484,40.20032],[-124.21502,40.2006],[-124.21503,40.20067],[-124.215,40.20074],[-124.21487,40.2009],[-124.21474,40.20103],[-124.21471,40.20111],[-124.21472,40.20119],[-124.21474,40.20124],[-124.21485,40.20138],[-124.21492,40.20141],[-124.215,40.20143],[-124.21507,40.20141],[-124.21532,40.20133],[-124.21545,40.20132],[-124.21563,40.20133],[-124.21577,40.20133],[-124.21607,40.20143],[-124.21621,40.20149],[-124.21626,40.20155],[-124.21632,40.20172],[-124.21654,40.20215],[-124.2167,40.20233],[-124.21679,40.20238],[-124.21689,40.20242],[-124.21697,40.20242],[-124.2171,40.20241],[-124.2173,40.20237],[-124.21747,40.20236],[-124.21763,40.20237],[-124.21772,40.20239],[-124.21784,40.20245],[-124.21794,40.20254],[-124.21799,40.20265],[-124.218,40.20276],[-124.21797,40.20299],[-124.21798,40.20307],[-124.21803,40.20314],[-124.21805,40.20316],[-124.21826,40.2033],[-124.21834,40.20339],[-124.21852,40.20361],[-124.21858,40.20366],[-124.21867,40.20369],[-124.21876,40.2037],[-124.2189,40.2037],[-124.21934,40.20366],[-124.21944,40.20367],[-124.21952,40.2037],[-124.21959,40.20376],[-124.21963,40.20382],[-124.21964,40.20392],[-124.21961,40.20409],[-124.21962,40.20419],[-124.21961,40.20429],[-124.21945,40.20452],[-124.21943,40.20461],[-124.21945,40.2047],[-124.21949,40.20477],[-124.21973,40.20495],[-124.21986,40.20506],[-124.21988,40.20512],[-124.21986,40.20518],[-124.21969,40.20535],[-124.21951,40.20549],[-124.21937,40.20558],[-124.21934,40.20564],[-124.21934,40.2057],[-124.21946,40.20593],[-124.21949,40.20603],[-124.21956,40.20638],[-124.21953,40.20645],[-124.2195,40.20649],[-124.21917,40.20679],[-124.21913,40.20688],[-124.21912,40.20701],[-124.21914,40.20717],[-124.21911,40.20722],[-124.21888,40.20734],[-124.21826,40.20763],[-124.21813,40.20766],[-124.21797,40.20767],[-124.21773,40.20766],[-124.21763,40.20767],[-124.21747,40.20774],[-124.21729,40.20784],[-124.21708,40.20798],[-124.21678,40.20809],[-124.21666,40.20817],[-124.2166,40.20823],[-124.21657,40.20831],[-124.21658,40.20838],[-124.21677,40.20886],[-124.21688,40.20905],[-124.21698,40.20914],[-124.21711,40.20924],[-124.21741,40.20939],[-124.21748,40.20945],[-124.21757,40.20961],[-124.21765,40.20968],[-124.21784,40.20982],[-124.21811,40.20999],[-124.21839,40.21034],[-124.21848,40.21059],[-124.21859,40.21063],[-124.21873,40.2106]]}},{"type":"Feature","properties":{"name":"Stansbury Road","road_class":"track","surface":"unpaved","source":"Caltrans All Roads + OpenStreetMap explicit surface","source_detail":"osm way 10261309; Caltrans All Roads public-network geometry match","source_tile":"159/386","public_network_source":"Caltrans All Roads (ARNOLD/HPMS)","surface_source":"OpenStreetMap explicit surface tag","caltrans_match_coverage":1.0,"verified_length_m":2764},"geometry":{"type":"LineString","coordinates":[[-124.10498,40.20866],[-124.10464,40.20863],[-124.1045,40.2086],[-124.10424,40.20847],[-124.10413,40.20845],[-124.1038,40.20844],[-124.10371,40.20846],[-124.10361,40.20852],[-124.10351,40.20861],[-124.10344,40.20863],[-124.10324,40.20862],[-124.10282,40.20865],[-124.10269,40.20868],[-124.10245,40.20879],[-124.10227,40.20885],[-124.10214,40.20893],[-124.10208,40.20897],[-124.10193,40.20923],[-124.10184,40.20927],[-124.10151,40.20928],[-124.1014,40.20928],[-124.10129,40.20931],[-124.10105,40.20944],[-124.10091,40.20949],[-124.10022,40.20963],[-124.10016,40.20966],[-124.10007,40.20974],[-124.09986,40.20983],[-124.09972,40.20986],[-124.09938,40.20987],[-124.09928,40.20986],[-124.09895,40.20976],[-124.09884,40.20976],[-124.09856,40.20977],[-124.09835,40.20976],[-124.09824,40.20979],[-124.09817,40.20983],[-124.09812,40.2099],[-124.09804,40.21005],[-124.09798,40.21011],[-124.0978,40.21019],[-124.09768,40.21024],[-124.09723,40.21031],[-124.09713,40.21035],[-124.0971,40.21036],[-124.09705,40.21042],[-124.09678,40.21055],[-124.09667,40.21057],[-124.09648,40.21058],[-124.09626,40.21063],[-124.09608,40.21065],[-124.09595,40.21068],[-124.09584,40.21071],[-124.09548,40.21073],[-124.09521,40.21073],[-124.09507,40.21075],[-124.09494,40.21079],[-124.09477,40.21082],[-124.09424,40.21088],[-124.09413,40.21091],[-124.09391,40.21097],[-124.09351,40.21115],[-124.09322,40.21122],[-124.09304,40.21124],[-124.0929,40.21129],[-124.09274,40.2113],[-124.09264,40.21133],[-124.09251,40.21137],[-124.09237,40.21145],[-124.09224,40.21154],[-124.09216,40.21155],[-124.09181,40.21156],[-124.09156,40.21161],[-124.09146,40.21161],[-124.09108,40.21157],[-124.091,40.21153],[-124.09093,40.2115],[-124.09063,40.21144],[-124.09049,40.21144],[-124.09025,40.21147],[-124.09014,40.21147],[-124.08974,40.21143],[-124.08967,40.21144],[-124.08945,40.21138],[-124.08933,40.21136],[-124.08896,40.21135],[-124.08865,40.21133],[-124.08858,40.21129],[-124.08853,40.21125],[-124.0884,40.21098],[-124.08825,40.21083],[-124.08805,40.21069],[-124.08797,40.21067],[-124.08789,40.21069],[-124.08741,40.21091],[-124.08727,40.21094],[-124.08709,40.21096],[-124.08688,40.211],[-124.08665,40.21109],[-124.08656,40.21114],[-124.08644,40.21118],[-124.08623,40.21121],[-124.0859,40.21123],[-124.08583,40.21125],[-124.08579,40.21131],[-124.08566,40.21194],[-124.08561,40.212],[-124.08554,40.21205],[-124.08523,40.21225],[-124.08518,40.21231],[-124.08517,40.21238],[-124.08519,40.21246],[-124.08522,40.21253],[-124.08533,40.21266],[-124.08547,40.21281],[-124.08561,40.21299],[-124.08577,40.21321],[-124.08585,40.21328],[-124.08626,40.2135],[-124.08648,40.21366],[-124.08656,40.21373],[-124.08665,40.21382],[-124.0867,40.21393],[-124.08673,40.21401],[-124.08681,40.21439],[-124.08693,40.2147],[-124.08706,40.21492],[-124.08712,40.21496],[-124.08727,40.215],[-124.08731,40.21504],[-124.08732,40.21551],[-124.08728,40.21556],[-124.08722,40.21561],[-124.0872,40.21566],[-124.08725,40.21585],[-124.08726,40.21648],[-124.08722,40.21652],[-124.08709,40.21662],[-124.08706,40.21668],[-124.08705,40.21696],[-124.08702,40.21702],[-124.08692,40.21715],[-124.08687,40.2174],[-124.0867,40.21769],[-124.08659,40.21793],[-124.08653,40.21798],[-124.08613,40.21812],[-124.08603,40.21817],[-124.08593,40.21826],[-124.0859,40.21832],[-124.08587,40.21842],[-124.08575,40.21856],[-124.08567,40.21865]]}}]}